Origin Time       2024/04/02 04:24:00
Lat.              40.133
Long.             141.712
Depth. (km)       71
Mag.              6.0
Station Code      HKD163
Station Lat.      41.4338
Station Long.     140.1117
Station Height(m) 13
Record Time       2024/04/02 04:25:07
Sampling Freq(Hz) 100Hz
Duration Time(s)  89
Dir.              U-D
Scale Factor      7845(gal)/8223790
Max. Acc. (gal)   2.265
Last Correction   2024/04/02 04:25:07
Memo.             
[...]
    2118     2119     2119     2116     2116     2118     2118     2118 
    2119     2118     2115     2116     2118     2118     2118     2120 
    2119     2115     2116     2119     2118     2116     2118     2119 
    2120     2119     2116     2118     2120     2118     2115     2116 
    2120     2119     2115     2116     2118     2118     2119     2118 
    2116     2119     2122     2118     2115     2118     2118     2116 
    2118     2119     2119     2119     2119     2118     2116     2116 
    2118     2116     2118     2119     2119     2116     2114     2115 
    2118     2118     2119     2120     2119     2118     2116     2115 
    2114     2116     2118     2116     2118     2119     2118     2119 
    2118     2116     2116     2118     2120     2120     2118     2119 
    2120     2119     2120     2119     2118     2119     2119     2116 
    2116     2118     2118     2118     2116     2116     2119     2120 
    2116     2118     2119     2118     2115     2115     2116     2118 
    2118     2116     2116     2119     2118     2118     2120     2116 
    2115     2118     2116     2118     2120     2119     2116     2118 
    2119     2119     2119     2120     2119     2118     2119     2119 
    2118     2116     2116     2118     2118     2118     2118     2118 
    2118     2119     2119     2119     2118     2118     2120     2120 
    2118     2118     2122     2122     2118     2119     2120     2118 
    2118     2120     2119     2118     2119     2119     2118     2118 
    2119     2119     2118     2119     2119     2119     2119     2119 
    2120     2119     2118     2118     2118     2119     2119     2118 
    2118     2120     2122     2120     2119     2119     2118     2119 
    2119     2119     2120     2119     2116     2118     2119     2118 
    2115     2119     2119     2118     2118     2118     2119     2120 
    2119     2118     2118     2122     2120     2118     2118     2120 
    2119     2118     2119     2120     2120     2120     2118     2118 
    2119     2120     2120     2116     2116     2119     2119     2116 
    2116     2119     2119     2119     2119     2116     2116     2118 
    2118     2118     2119     2119     2119     2116     2115     2118 
    2119     2118     2118     2120     2118     2118     2118     2118 
    2119     2119     2116     2115     2119     2120     2119     2118 
    2116     2118     2120     2118     2116     2119     2119     2116 
    2116     2118     2118     2118     2118     2115     2116     2119 
    2119     2119     2119     2118     2118     2122     2119     2116 
    2116     2119     2122     2119     2115     2119     2122     2118 
    2118     2120     2119     2120     2120     2118     2116     2119 
    2119     2119     2119     2119     2119     2116     2116     2118 
    2116     2118     2119     2118     2118     2118     2116     2116 
    2118     2116     2118     2120     2119     2116     2118     2118 
    2119     2118     2116     2118     2118     2118     2119     2120 
    2119     2118     2118     2120     2120     2118     2115     2116 
    2118     2119     2118     2118     2118     2118     2118     2120 
    2122     2119     2119     2119     2116     2118     2119     2118 
    2115     2116     2118     2118     2118     2119     2119     2118 
    2118     2116     2116     2118     2119     2119     2118     2116 
    2118     2122     2120     2118     2119     2119     2119     2122 
    2120     2118     2118     2116     2118     2122     2122     2119 
    2119     2118     2118     2118     2118     2119     2122     2120 
    2118     2118     2119     2118     2119     2120     2120     2118 
    2119     2119     2120     2120     2118     2118     2118     2116 
    2116     2119     2120     2119     2118     2116     2116     2119 
    2119     2119     2119     2119     2119     2118     2118     2119 
    2118     2118     2118     2116     2118     2119     2120     2120 
    2118     2119     2119     2119     2120     2120     2116     2115 
    2118     2120     2120     2118     2118     2119     2120     2119 
    2118     2116     2116     2116     2118     2120     2120     2119 
    2119     2119     2118     2118     2119     2119     2119     2118 
    2119     2119     2118     2118     2116     2116     2119     2119 
    2118     2118     2119     2118     2118     2119     2118     2118 
    2120     2120     2120     2119     2119     2119     2118     2118 
    2120     2120     2118     2118     2120     2118     2116     2119 
    2120     2119     2118     2116     2118     2120     2122     2119 
    2118     2119     2116     2116     2119     2119     2118     2120 
    2120     2119     2118     2118     2120     2119     2115     2118 
    2119     2118     2118     2119     2118     2118     2119     2120 
    2118     2115     2118     2118     2116     2118     2118     2116 
    2118     2119     2119     2119     2119     2118     2118     2118 
    2119     2118     2118     2119     2116     2116     2118     2116 
    2116     2120     2119     2118     2116     2116     2118     2118 
    2118     2119     2118     2118     2118     2116     2116     2119 
    2120     2119     2115     2114     2119     2120     2118     2118 
    2119     2118     2116     2116     2118     2119     2119     2119 
    2118     2116     2116     2118     2118     2116     2116     2118 
    2118     2118     2119     2119     2119     2120     2119     2118 
    2118     2118     2118     2118     2118     2119     2120     2118 
    2116     2116     2115     2116     2120     2120     2118     2118 
    2119     2119     2119     2119     2116     2118     2118     2116 
    2118     2119     2116     2118     2119     2118     2119     2122 
    2120     2118     2119     2120     2119     2122     2119     2116 
    2120     2122     2118     2118     2120     2119     2119     2122 
    2122     2120     2120     2119     2116     2116     2119     2122 
    2120     2119     2118     2119     2120     2118     2116     2119 
    2120     2119     2119     2119     2120     2120     2120     2120 
    2120     2119     2119     2119     2119     2119     2118     2118 
    2118     2119     2120     2119     2119     2120     2119     2118 
    2119     2120     2118     2119     2119     2118     2118     2119 
    2119     2118     2118     2119     2119     2119     2119     2120 
    2120     2120     2119     2118     2118     2120     2120     2119 
    2120     2119     2116     2119     2120     2119     2116     2118 
    2120     2118     2116     2118     2119     2119     2119     2119 
    2120     2118     2116     2119     2120     2119     2116     2118 
    2116     2118     2120     2122     2119     2116     2115     2118 
    2120     2120     2119     2119     2118     2116     2118     2119 
    2119     2116     2118     2120     2122     2123     2120     2118 
    2119     2119     2118     2119     2120     2118     2118     2118 
    2118     2118     2120     2120     2120     2120     2118     2116 
    2119     2119     2118     2119     2119     2116     2119     2119 
    2116     2118     2119     2120     2120     2119     2120     2122 
    2119     2115     2115     2118     2119     2118     2118     2119 
    2120     2119     2119     2120     2119     2118     2118     2118 
    2118     2119     2118     2116     2118     2119     2119     2120 
    2119     2118     2119     2119     2120     2119     2116     2118 
    2120     2119     2119     2118     2116     2118     2118     2119 
    2119     2118     2118     2119     2120     2120     2118     2116 
    2118     2120     2119     2119     2120     2119     2118     2119 
    2118     2118     2119     2119     2118     2120     2119     2115 
    2116     2120     2119     2118     2119     2118     2115     2118 
    2120     2120     2119     2118     2119     2119     2119     2120 
    2119     2119     2122     2120     2119     2120     2120     2119 
    2118     2119     2116     2116     2119     2120     2120     2118 
    2116     2120     2120     2119     2119     2118     2118     2119 
    2119     2116     2116     2118     2119     2118     2118     2119 
    2119     2118     2120     2122     2118     2118     2122     2122 
    2118     2119     2119     2116     2119     2122     2118     2118 
    2124     2122     2118     2119     2119     2118     2120     2120 
    2118     2118     2120     2119     2119     2119     2118     2118 
    2118     2118     2119     2119     2119     2118     2118     2118 
    2118     2119     2119     2116     2118     2122     2122     2119 
    2118     2118     2119     2119     2118     2118     2119     2119 
    2118     2119     2122     2118     2115     2116     2118     2119 
    2119     2118     2118     2119     2118     2118     2119     2119 
    2118     2119     2119     2118     2119     2118     2118     2120 
    2120     2119     2119     2118     2116     2118     2119     2120 
    2119     2120     2123     2123     2122     2120     2120     2123 
    2120     2116     2115     2116     2116     2119     2120     2120 
    2120     2118     2115     2116     2119     2119     2119     2118 
    2118     2119     2120     2118     2118     2119     2119     2119 
    2120     2122     2119     2118     2119     2120     2118     2118 
    2119     2120     2120     2119     2119     2119     2119     2122 
    2120     2119     2120     2118     2119     2120     2119     2116 
    2119     2120     2120     2118     2119     2120     2120     2118 
    2118     2120     2122     2120     2118     2118     2119     2119 
    2120     2120     2119     2120     2120     2119     2120     2122 
    2119     2120     2123     2122     2119     2122     2122     2120 
    2119     2119     2120     2122     2120     2119     2119     2119 
    2119     2118     2120     2122     2119     2118     2116     2116 
    2118     2120     2120     2120     2118     2116     2118     2119 
    2118     2116     2118     2118     2115     2116     2119     2118 
    2118     2118     2116     2119     2119     2118     2119     2119 
    2118     2119     2118     2119     2120     2118     2116     2119 
    2119     2118     2119     2116     2116     2119     2118     2116 
    2119     2120     2119     2118     2118     2119     2122     2120 
    2115     2115     2119     2120     2119     2118     2119     2118 
    2119     2119     2116     2115     2118     2119     2118     2118 
    2116     2118     2120     2119     2116     2118     2120     2120 
    2119     2120     2119     2118     2119     2119     2116     2118 
    2120     2119     2119     2119     2118     2118     2118     2118 
    2118     2115     2119     2122     2119     2116     2118     2118 
    2118     2119     2116     2118     2118     2118     2118     2119 
    2118     2120     2122     2120     2119     2118     2116     2118 
    2120     2122     2120     2118     2118     2119     2119     2119 
    2118     2119     2120     2119     2119     2122     2120     2118 
    2118     2119     2119     2119     2119     2118     2119     2120 
    2119     2118     2119     2119     2119     2120     2119     2118 
    2116     2118     2120     2122     2119     2120     2120     2118 
    2119     2120     2120     2120     2120     2120     2119     2122 
    2122     2118     2119     2122     2120     2120     2120     2120 
    2120     2118     2119     2119     2118     2118     2118     2118 
    2119     2120     2120     2120     2120     2122     2123     2119 
    2118     2120     2120     2116     2115     2119     2122     2120 
    2119     2120     2122     2122     2120     2120     2122     2120 
    2119     2118     2120     2120     2119     2119     2120     2119 
    2118     2122     2122     2119     2122     2123     2122     2120 
    2120     2120     2120     2120     2120     2119     2119     2120 
    2119     2116     2118     2119     2118     2116     2119     2119 
    2118     2116     2119     2120     2119     2118     2118     2120 
    2122     2120     2119     2119     2119     2116     2116     2118 
    2118     2118     2118     2116     2119     2122     2118     2116 
    2118     2120     2120     2119     2119     2119     2119     2119 
    2119     2118     2119     2120     2122     2122     2123     2124 
    2124     2124     2126     2126     2126     2128     2128     2126 
    2122     2115     2103     2091     2074     2053     2031     2010 
    1988     1979     1984     1998     2027     2066     2111     2164 
    2214     2251     2280     2301     2313     2323     2347     2380 
    2396     2376     2304     2188     2056     1931     1821     1725 
    1651     1607     1587     1598     1645     1705     1722     1679 
    1641     1701     1869     2083     2270     2424     2559     2668 
    2724     2706     2604     2455     2336     2299     2349     2427 
    2442     2394     2381     2438     2486     2434     2303     2201 
    2151     2045     1830     1607     1510     1563     1714     1903 
    2052     2126     2188     2290     2385     2390     2317     2234 
    2164     2095     2038     2002     1965     1923     1899     1933 
    2031     2116     2079     1968     1915     1831     1479      969 
     772     1021     1291     1289     1290     1694     2471     3184 
    3507     3619     3879     4279     4492     4351     4050     3850 
    3689     3346     2897     2616     2494     2299     2041     1988 
    2196     2263     1806     1119      838     1104     1524     1701 
    1584     1485     1645     1831     1703     1343     1071     1069 
    1281     1526     1730     1953     2241     2601     2980     3144 
    2944     2629     2394     1948     1173      513      245      224 
     353      629      880      978     1084     1418     1938     2430 
    2702     2644     2388     2249     2336     2466     2415     2205 
    2182     2504     2728     2490     2195     2311     2596     2632 
    2512     2471     2471     2384     2108     1632     1221     1255 
    1771     2334     2430     2092     1890     2137     2533     2720 
    2766     2945     3258     3403     3200     2754     2278     2060 
    2185     2181     1709     1294     1426     1768     1891     1850 
    1915     2230     2662     2868     2602     2027     1610     1541 
    1520     1351     1318     1672     2192     2531     2625     2577 
    2473     2485     2744     2979     2799     2346     2012     1891 
    1993     2303     2477     2200     1679     1428     1610     1863 
    1946     2052     2354     2789     3113     3068     2755     2528 
    2390     2068     1645     1549     1782     1864     1661     1489 
    1447     1502     1838     2270     2239     1815     1576     1622 
    1711     1809     1988     2253     2461     2417     2189     2025 
    2016     2177     2559     3007     3190     3056     2763     2324 
    1860     1664     1777     1979     2083     2120     2209     2250 
    2016     1526     1036      796      896     1242     1618     1904 
    2223     2562     2546     2131     1898     2160     2639     3042 
    3213     3137     3090     3137     2987     2698     2596     2571 
    2336     1846     1255      868      776      756      738      900 
    1382     2114     2712     2803     2536     2371     2478     2702 
    2933     3079     2986     2705     2484     2416     2473     2529 
    2330     1887     1540     1398     1318     1267     1293     1417 
    1659     2002     2371     2640     2706     2637     2529     2353 
    2099     1813     1507     1270     1312     1671     2142     2621 
    2988     3029     2836     2609     2317     2002     1773     1606 
    1532     1638     1810     1891     1842     1601     1298     1383 
    1911     2299     2262     2134     2135     2201     2241     2216 
    2407     2929     3137     2689     2242     2119     1939     1729 
    1825     2153     2523     2839     2926     2771     2540     2258 
    1929     1764     1925     2249     2369     2066     1614     1549 
    1910     2165     2166     2347     2782     2983     2685     2088 
    1487     1098     1089     1439     1809     1865     1746     1819 
    2064     2255     2409     2531     2478     2293     2196     2263 
    2359     2390     2444     2567     2637     2533     2180     1587 
    1063      974     1262     1543     1634     1664     1768     2043 
    2423     2525     2284     2211     2502     2713     2486     1938 
    1406     1124     1150     1475     1980     2339     2369     2331 
    2496     2691     2701     2643     2623     2560     2481     2501 
    2609     2709     2709     2560     2340     2238     2234     2066 
    1755     1560     1459     1337     1382     1723     2118     2331 
    2389     2295     2070     1941     1958     1899     1809     1896 
    2027     2114     2288     2447     2532     2693     2820     2714 
    2470     2232     1993     1765     1644     1636     1633     1609 
    1674     1823     1896     1891     1966     2139     2413     2825 
    3091     2863     2301     1906     1953     2239     2357     2091 
    1682     1702     2205     2502     2295     2023     2018     2253 
    2506     2446     2112     1910     1911     1903     1875     1881 
    1941     2065     2083     1858     1679     1858     2211     2396 
    2451     2551     2654     2720     2818     2840     2535     1998 
    1705     1810     1925     1790     1559     1498     1767     2232 
    2560     2619     2493     2259     1985     1675     1397     1429 
    1804     2124     2227     2376     2662     2822     2625     2172 
    1880     1989     2201     2139     1829     1555     1498     1525 
    1502     1599     1880     2101     2227     2376     2381     2062 
    1634     1512     1825     2269     2566     2714     2759     2667 
    2511     2417     2276     1991     1885     2155     2427     2365 
    2124     1925     1788     1857     2201     2447     2344     2151 
    2052     1929     1829     1934     2147     2196     2100     2131 
    2257     2215     2100     2158     2269     2197     1987     1848 
    1888     2014     2052     1987     2008     2241     2579     2791 
    2691     2419     2300     2281     2177     2170     2340     2423 
    2338     2218     2077     1908     1757     1615     1543     1656 
    1898     2019     1840     1509     1329     1350     1439     1560 
    1814     2162     2374     2353     2222     2122     2041     1966 
    2060     2312     2512     2631     2675     2601     2482     2334 
    2099     1918     1965     2196     2413     2505     2556     2590 
    2484     2277     2069     1804     1534     1399     1356     1439 
    1798     2265     2574     2720     2714     2600     2578     2651 
    2624     2497     2378     2278     2166     2061     2035     2135 
    2297     2386     2301     2081     1937     2006     2134     2161 
    2141     2080     1925     1773     1660     1517     1482     1637 
    1830     1976     2047     2008     1954     1968     1927     1776 
    1750     2012     2324     2423     2338     2193     2018     1792 
