Origin Time       2024/04/02 04:24:00
Lat.              40.133
Long.             141.712
Depth. (km)       71
Mag.              6.0
Station Code      HKD127
Station Lat.      42.8743
Station Long.     141.8204
Station Height(m) 61
Record Time       2024/04/02 04:25:53
Sampling Freq(Hz) 100Hz
Duration Time(s)  78
Dir.              E-W
Scale Factor      7845(gal)/8223790
Max. Acc. (gal)   5.620
Last Correction   2024/04/02 04:25:54
Memo.             
[...]
     912      954      992     1019     1035     1035     1023     1012 
    1036     1100     1143     1128     1112     1139     1162     1136 
    1102     1139     1267     1445     1614     1738     1809     1838 
    1787     1593     1312     1115     1138     1381     1651     1688 
    1459     1197     1098     1140     1246     1377     1478     1490 
    1426     1337     1237     1120      973      787      610      557 
     689      961     1252     1463     1615     1777     1908     1918 
    1858     1872     1930     1885     1713     1474     1233     1101 
    1090     1044      869      688      665      819     1051     1236 
    1300     1273     1251     1278     1323     1363     1391     1331 
    1166     1067     1155     1327     1437     1455     1440     1428 
    1381     1286     1210     1213     1275     1363     1489     1615 
    1636     1483     1205      962      893      981     1098     1188 
    1300     1478     1694     1860     1865     1683     1418     1213 
    1102     1054     1113     1305     1485     1509     1385     1248 
    1225     1317     1418     1468     1495     1462     1302     1132 
    1100     1161     1188     1127     1034      990     1013     1081 
    1213     1464     1792     2027     2012     1764     1460     1252 
    1155     1143     1159     1129      986      742      568      681 
    1071     1458     1588     1518     1472     1533     1560     1410 
    1156      976      938     1020     1216     1513     1757     1722 
    1417     1124     1055     1177     1378     1615     1841     1933 
    1813     1545     1246      974      781      693      750     1012 
    1386     1645     1675     1559     1462     1401     1266     1051 
     881      828      862      923      989     1046     1055     1055 
    1151     1416     1806     2153     2243     2042     1730     1475 
    1275     1078      923      899     1023     1201     1332     1432 
    1524     1520     1355     1139     1024     1038     1089     1113 
    1190     1397     1625     1718     1647     1491     1391     1386 
    1344     1208     1135     1201     1254     1183     1094     1116 
    1209     1263     1259     1270     1351     1475     1566     1555 
    1460     1366     1297     1201     1111     1170     1372     1513 
    1489     1401     1358     1395     1493     1529     1382     1132 
     962      936     1024     1166     1316     1439     1528     1636 
    1777     1858     1809     1617     1304      978      804      797 
     864      978     1116     1159     1080      990      984     1074 
    1232     1398     1490     1520     1548     1525     1405     1290 
    1255     1251     1229     1210     1252     1377     1516     1597 
    1575     1436     1236     1073      999     1004     1067     1208 
    1406     1597     1722     1703     1503     1229     1019      945 
    1047     1228     1252     1047      812      777     1005     1387 
    1753     2027     2166     2084     1840     1665     1703     1849 
    1898     1757     1485     1215      994      738      465      375 
     523      751      959     1210     1544     1838     1945     1876 
    1773     1684     1480     1066      538      137       72      352 
     870     1528     2200     2695     2766     2308     1567      940 
     645      619      702      804      885      923      947     1058 
    1339     1723     2019     2087     1922     1665     1435     1170 
     812      508      444      618      918     1221     1395     1460 
    1595     1834     1992     1954     1775     1507     1210     1020 
    1032     1167     1248     1165     1019      978     1092     1289 
    1399     1318     1204     1267     1467     1598     1598     1539 
    1432     1278     1156     1140     1206     1282     1354     1462 
    1575     1618     1621     1680     1775     1788     1668     1424 
    1112      864      781      801      772      633      502      558 
     853     1266     1649     1904     2006     2004     1952     1822 
    1605     1367     1193     1121     1144     1198     1185     1062 
     972     1116     1424     1590     1502     1329     1206     1135 
    1129     1244     1429     1482     1290     1040     1023     1220 
    1323     1194     1039     1046     1146     1198     1173     1163 
    1269     1456     1613     1671     1620     1451     1177      920 
     866     1042     1255     1327     1300     1306     1393     1537 
    1680     1744     1653     1393     1070      905     1024     1358 
    1676     1792     1732     1625     1540     1506     1528     1518 
    1402     1240     1151     1190     1294     1347     1316     1251 
    1212     1204     1198     1205     1219     1198     1150     1142 
    1233     1416     1595     1660     1588     1463     1393     1390 
    1335     1113      842      756      896     1105     1258     1344 
    1333     1202     1036      945      958     1062     1256     1521 
    1744     1818     1714     1498     1328     1304     1363     1435 
    1489     1487     1412     1312     1235     1177     1112     1015 
     899      846      981     1281     1533     1576     1460     1339 
    1289     1301     1364     1440     1435     1332     1277     1406 
    1676     1914     1977     1790     1398     1004      758      618 
     499      430      518      795     1104     1235     1169     1117 
    1258     1537     1791     1935     1993     1969     1795     1547 
    1432     1462     1404     1140      831      672      710      870 
    1057     1209     1294     1308     1332     1468     1669     1795 
    1775     1660     1532     1455     1462     1506     1482     1328 
    1116     1007     1062     1205     1341     1428     1428     1344 
    1271     1312     1414     1385     1136      824      676      715 
     838     1040     1377     1773     2081     2220     2214     2120 
    1946     1649     1240      830      557      488      600      847 
    1129     1263     1156      954      861      905     1035     1256 
    1514     1628     1503     1267     1129     1147     1215     1266 
    1344     1471     1621     1730     1699     1486     1216     1074 
    1094     1174     1254     1364     1524     1696     1840     1884 
    1777     1611     1561     1663     1780     1787     1714     1621 
    1494     1308     1070      842      691      626      666      839 
    1063     1186     1196     1206     1296     1422     1499     1489 
    1420     1285     1063      862      861     1134     1525     1757 
    1742     1647     1603     1551     1417     1243     1059      862 
     711      688      799      989     1166     1242     1206     1151 
    1185     1323     1478     1532     1425     1170      881      762 
     940     1335     1717     1917     1946     1896     1863     1910 
    1981     1948     1769     1522     1294     1088      823      508 
     334      473      841     1174     1297     1196     1015      931 
     999     1196     1495     1772     1813     1540     1139      888 
     882     1039     1235     1382     1487     1641     1833     1879 
    1668     1348     1135     1074     1105     1236     1479     1702 
    1728     1559     1371     1297     1309     1309     1236     1129 
    1082     1108     1174     1274     1393     1493     1518     1476 
    1470     1532     1571     1518     1404     1291     1219     1179 
    1163     1206     1314     1378     1362     1395     1545     1688 
    1674     1502     1323     1258     1286     1308     1271     1178 
    1026      824      607      442      432      583      783      980 
    1205     1426     1595     1740     1894     2060     2203     2200 
    1977     1618     1246      950      812      834      936     1088 
    1308     1568     1768     1775     1522     1077      629      411 
     549      946     1371     1645     1759     1823     1895     1900 
    1802     1678     1534     1296      976      746      754      955 
    1190     1386     1555     1690     1765     1725     1551     1355 
    1228     1105      920      761      776     1019     1348     1544 
    1597     1672     1787     1745     1441     1038      827      922 
    1170     1382     1524     1645     1767     1863     1877     1764 
    1536     1266     1062     1028     1135     1229     1255     1275 
    1348     1478     1574     1483     1186      876      751      841 
    1054     1282     1405     1371     1296     1340     1501     1595 
    1497     1306     1239     1367     1543     1611     1579     1534 
    1486     1316      953      535      292      295      461      697 
     940     1123     1217     1279     1387     1587     1861     2084 
    2089     1850     1475     1096      803      669      789     1136 
    1524     1763     1777     1638     1503     1459     1464     1452 
    1408     1331     1231     1167     1181     1252     1368     1505 
    1621     1729     1810     1783     1641     1460     1301     1229 
    1282     1368     1339     1192     1111     1206     1371     1458 
    1459     1405     1287     1128      981      892      880      881 
     822      741      710      706      685      688      827     1154 
    1543     1802     1876     1872     1912     2014     2053     1891 
    1536     1117      733      425      259      297      495      723 
     897     1050     1242     1456     1625     1717     1792     1891 
    1938     1836     1547     1136      783      635      687      851 
    1042     1209     1336     1425     1512     1610     1640     1478 
    1111      726      544      641      885     1080     1208     1367 
    1525     1583     1598     1676     1779     1809     1772     1736 
    1665     1459     1161      997     1119     1418     1665     1705 
    1517     1219      976      862      869      954     1092     1327 
    1688     2120     2500     2654     2419     1787      970      286 
      14      252      804     1332     1640     1755     1759     1653 
    1456     1283     1220     1194     1154     1209     1472     1825 
    2002     1883     1540     1098      697      432      324      380 
     581      851     1128     1416     1706     1872     1807     1570 
    1286     1065      959      965     1069     1254     1483     1738 
    2033     2323     2471     2301     1792     1217      897      903 
    1108     1363     1513     1482     1351     1231     1140     1027 
     823      522      279      310      684     1313     1968     2353 
    2334     2047     1734     1579     1626     1765     1837     1745 
    1439      904      248     -261     -348       25      612     1119 
    1417     1551     1580     1555     1544     1580     1663     1825 
    2052     2232     2238     1973     1463      928      707      980 
    1525     1858     1699     1194      661      375      492      927 
    1383     1651     1713     1567     1233      849      538      379 
     471      861     1499     2242     2824     3078     3119     3145 
    3179     3091     2725     2014     1028      -63    -1001    -1463 
   -1289     -595      330     1175     1757     2115     2327     2349 
    2164     1868     1561     1301     1082      891      831      997 
    1266     1459     1545     1521     1335     1011      688      587 
     872     1441     1956     2145     1966     1528     1016      643 
     521      549      507      241     -137     -322      -98      495 
    1182     1598     1571     1286     1084     1109     1235     1285 
    1185      909      476       82       43      513     1343     2259 
    2991     3315     3202     2809     2299     1798     1437     1251 
    1136      999      873      830      803      642      371      199 
     275      608     1105     1544     1694     1539     1297     1262 
    1549     1987     2307     2371     2235     2069     2030     2138 
    2307     2403     2288     1868     1152      340     -241     -411 
    -287      -86      110      238      182       12       21      469 
    1383     2559     3754     4843     5663     5945     5594     4749 
    3559     2174      816     -279     -945    -1150    -1040     -727 
    -190      448      885      984      842      615      464      537 
     881     1471     2249     3118     3898     4341     4322     3909 
    3204     2357     1586      961      380     -130     -429     -483 
    -409     -313     -201      -89      -82     -249     -479     -525 
    -229      342     1028     1737     2435     3069     3497     3531 
    3130     2423     1586      803      228      -72     -148     -118 
     -87      -93      -99      -20      216      589      959     1146 
    1061      808      639      773     1220     1830     2539     3364 
    4105     4356     3865     2713     1260       -4     -653     -523 
     187     1012     1529     1653     1671     1944     2529     3075 
    3146     2571     1487      247     -679     -970     -685     -122 
     502     1161     1876     2546     2922     2856     2497     2181 
    2064     1981     1725     1337     1066     1150     1555     1937 
    1973     1638     1065      329     -488    -1150    -1360     -969 
     -31     1220     2462     3333     3478     2787     1574      425 
    -172      -74      654     1880     3331     4568     5167     4914 
    3920     2659     1675     1150      842      373     -476    -1626 
   -2802    -3815    -4530    -4584    -3458    -1061     1957     4604 
    6203     6700     6436     5745     4876     4068     3453     2948 
    2344     1583      857      386      190      147       93      -70 
    -392     -915    -1491    -1714    -1252     -190     1098     2343 
    3507     4488     4946     4602     3623     2546     1809     1458 
    1263     1047      854      837     1082     1571     2124     2367 
    1937      766     -877    -2550    -3773    -4164    -3565    -2080 
     -43     2072     3765     4695     4838     4407     3642     2752 
    1892     1128      517      129      -17      103      584     1383 
    2259     2945     3289     3234     2829     2177     1422      796 
     507      491      467      240      -82     -206       36      550 
    1073     1360     1290      924      544      515      966     1587 
    1931     1902     1783     1827     2018     2169     2087     1695 
    1061      392        5      118      683     1429     2061     2386 
    2339     1973     1499     1178     1047      864      434      -78 
    -274       60      743     1448     2029     2465     2704     2736 
    2666     2547     2292     1871     1456     1246     1198     1111 
     874      587      391      315      294      290      288      255 
     237      349      615      974     1393     1853     2344     2867 
    3329     3558     3465     3076     2458     1684      862      206 
      -6      284      859     1408     1722     1794     1736     1638 
    1498     1193      648        5     -484     -652     -421      179 
     953     1609     1995     2173     2247     2216     2033     1710 
    1389     1221     1251     1410     1575     1615     1530     1449 
    1472     1553     1561     1451     1316     1271     1324     1410 
    1509     1717     2158     2787     3391     3736     3624     2918 
    1705      333     -799    -1436    -1453     -851      176     1277 
    2100     2497     2497     2147     1521      757       17     -531 
    -745     -589     -148      440     1057     1657     2273     2952 
    3684     4301     4504     4121     3296     2340     1463      681 
     -31     -602     -919     -886     -454      279     1028     1417 
    1247      656       18     -284      -81      518     1267     2026 
    2749     3325     3542     3241     2431     1290      139     -681 
    -989     -851     -425      228     1073     1956     2685     3187 
    3449     3446     3145     2516     1572      454     -564    -1146 
   -1028     -198     1061     2299     3105     3280     2822     1888 
     796      -98     -587     -606     -244      276      743     1054 
    1186     1175     1065      882      683      594      746     1113 
    1497     1752     1923     2149     2477     2779     2882     2754 
    2501     2235     1992     1736     1418     1003      490        4 
    -214        9      662     1532     2262     2552     2405     2049 
    1692     1462     1467     1806     2444     3111     3423     3145 
    2249      935     -315    -1015     -986     -403      355      884 
     953      658      325      265      610     1240     1927     2496 
    2810     2797     2481     1976     1424      916      496      256 
     348      842     1655     2543     3177     3307     2902     2115 
    1152      197     -531     -764     -299      788     2099     3103 
    3400     2866     1674      230     -974    -1561    -1367     -481 
     730     1815     2535     2862     2809     2466     2018     1599 
    1227      861      531      348      375      557      787      963 
    1101     1328     1713     2112     2277     2100     1718     1360 
    1155     1109     1210     1417     1572     1507     1252     1026 
    1012     1182     1406     1671     2010     2349     2531     2434 
    2076     1602     1129      724      430      205      -78     -500 
    -947    -1171     -997     -414      476     1463     2253     2668 
    2816     2905     2974     2933     2745     2392     1840     1166 
     576      302      473      980     1514     1833     1881     1732 
    1476     1188      916      689      538      507      648      963 
    1336     1611     1773     1948     2245     2583     2744     2620 
    2354     2134     1964     1740     1412     1016      592      121 
    -375     -735     -783     -506        4      598     1078     1301 
    1336     1474     2003     2909     3813     4257     4005     3144 
    1976      897      234      112      437     1003     1579     2057 
    2413     2554     2396     2030     1625     1279      954      518 
     -49     -518     -526       89     1116     2120     2718     2733 
    2203     1370      656      463      859     1534     2054     2128 
    1707      992      278     -216     -419     -349        5      660 
    1482     2192     2517     2413     2127     1983     2111     2398 
    2637     2655     2357     1730      885       54     -499     -607 
    -321      103      398      480      486      642     1111     1827 
    2502     2874     2870     2540     1996     1439     1048      803 
     515       99     -313     -508     -353      168      945     1744 
    2317     2515     2354     2025     1725     1545     1468     1440 
    1455     1524     1597     1575     1421     1179      970      951 
    1192     1570     1821     1728     1232      453     -309     -687 
    -535       17      766     1567     2269     2674     2612     2126 
    1556     1270     1339     1572     1738     1686     1385      946 
     568      446      685     1219     1838     2309     2430     2153 
    1694     1331     1123      992      899      818      700      572 
     607     1007     1706     2384     2782     2812     2451     1737 
     826        1     -472     -537     -303      148      810     1579 
