Origin Time       2024/04/02 04:24:00
Lat.              40.133
Long.             141.712
Depth. (km)       71
Mag.              6.0
Station Code      HKD134
Station Lat.      42.6713
Station Long.     141.0790
Station Height(m) 392
Record Time       2024/04/02 04:25:23
Sampling Freq(Hz) 100Hz
Duration Time(s)  100
Dir.              N-S
Scale Factor      7845(gal)/8223790
Max. Acc. (gal)   2.771
Last Correction   2024/04/02 04:25:23
Memo.             
[...]
   -1946    -1948    -1860    -1714    -1595    -1534    -1522    -1552 
   -1605    -1634    -1653    -1702    -1752    -1759    -1713    -1601 
   -1447    -1350    -1377    -1493    -1618    -1701    -1728    -1726 
   -1748    -1834    -1983    -2149    -2295    -2400    -2443    -2412 
   -2309    -2143    -1935    -1713    -1532    -1414    -1314    -1202 
   -1107    -1055    -1047    -1048    -1050    -1074    -1155    -1298 
   -1468    -1634    -1794    -1966    -2162    -2338    -2413    -2380 
   -2281    -2173    -2101    -2045    -1964    -1864    -1744    -1580 
   -1371    -1165    -1050    -1044    -1082    -1140    -1252    -1409 
   -1536    -1609    -1647    -1651    -1649    -1690    -1796    -1953 
   -2089    -2149    -2142    -2095    -2004    -1867    -1705    -1551 
   -1420    -1324    -1277    -1282    -1345    -1421    -1448    -1445 
   -1460    -1525    -1690    -1934    -2177    -2371    -2490    -2511 
   -2447    -2324    -2168    -2004    -1854    -1740    -1653    -1539 
   -1367    -1189    -1059     -966     -877     -811     -807     -888 
   -1055    -1285    -1547    -1813    -2045    -2207    -2315    -2403 
   -2504    -2612    -2678    -2670    -2598    -2462    -2254    -1983 
   -1695    -1451    -1269    -1154    -1089    -1038     -976     -907 
    -882     -943    -1077    -1251    -1431    -1622    -1888    -2222 
   -2505    -2648    -2658    -2594    -2505    -2396    -2239    -2003 
   -1692    -1364    -1075     -853     -703     -612     -556     -554 
    -656     -897    -1274    -1698    -2080    -2392    -2620    -2735 
   -2733    -2663    -2555    -2423    -2258    -2069    -1906    -1810 
   -1753    -1667    -1503    -1314    -1179    -1112    -1066    -1001 
    -930     -899     -949    -1088    -1290    -1529    -1783    -2025 
   -2261    -2520    -2759    -2899    -2902    -2778    -2548    -2242 
   -1910    -1621    -1410    -1266    -1169    -1111    -1089    -1112 
   -1193    -1308    -1398    -1433    -1451    -1498    -1583    -1690 
   -1799    -1898    -1995    -2088    -2153    -2176    -2149    -2068 
   -1954    -1833    -1723    -1649    -1620    -1578    -1478    -1375 
   -1339    -1375    -1474    -1601    -1679    -1690    -1686    -1710 
   -1746    -1749    -1698    -1622    -1549    -1501    -1497    -1548 
   -1653    -1791    -1917    -2011    -2074    -2087    -2045    -1977 
   -1890    -1768    -1638    -1540    -1468    -1389    -1300    -1229 
   -1212    -1235    -1262    -1290    -1331    -1364    -1399    -1464 
   -1545    -1625    -1706    -1784    -1869    -1976    -2076    -2151 
   -2245    -2363    -2448    -2466    -2413    -2278    -2079    -1880 
   -1725    -1607    -1506    -1394    -1274    -1161    -1053     -978 
    -985    -1054    -1120    -1177    -1264    -1410    -1610    -1815 
   -1946    -2000    -2045    -2122    -2207    -2268    -2311    -2355 
   -2377    -2335    -2203    -1992    -1769    -1588    -1459    -1378 
   -1304    -1192    -1082    -1030    -1028    -1061    -1128    -1205 
   -1281    -1385    -1541    -1721    -1867    -1960    -2000    -1998 
   -1999    -2045    -2092    -2065    -1956    -1811    -1701    -1688 
   -1790    -1929    -2026    -2062    -2060    -2057    -2061    -2007 
   -1849    -1645    -1498    -1444    -1479    -1590    -1755    -1938 
   -2081    -2139    -2089    -1948    -1775    -1636    -1547    -1478 
   -1412    -1367    -1348    -1350    -1401    -1510    -1606    -1652 
   -1698    -1752    -1768    -1744    -1729    -1756    -1803    -1838 
   -1856    -1854    -1846    -1845    -1834    -1791    -1707    -1583 
   -1448    -1344    -1308    -1362    -1489    -1644    -1769    -1846 
   -1910    -1984    -2025    -1958    -1786    -1591    -1463    -1422 
   -1421    -1432    -1483    -1556    -1609    -1651    -1686    -1669 
   -1572    -1420    -1271    -1169    -1112    -1121    -1224    -1398 
   -1584    -1761    -1944    -2101    -2205    -2281    -2343    -2357 
   -2288    -2135    -1922    -1711    -1563    -1506    -1526    -1567 
   -1610    -1687    -1791    -1891    -1969    -1999    -1953    -1845 
   -1736    -1683    -1676    -1674    -1638    -1591    -1613    -1713 
   -1825    -1914    -1956    -1948    -1957    -2012    -2052    -2025 
   -1960    -1867    -1713    -1505    -1304    -1139     -980     -818 
    -749     -837    -1015    -1206    -1410    -1622    -1807    -1954 
   -2080    -2212    -2339    -2411    -2405    -2342    -2242    -2122 
   -1984    -1850    -1755    -1696    -1659    -1617    -1530    -1397 
   -1269    -1194    -1174    -1196    -1289    -1455    -1641    -1809 
   -1929    -1987    -2010    -2049    -2089    -2066    -1969    -1836 
   -1686    -1547    -1458    -1416    -1368    -1291    -1224    -1200 
   -1233    -1343    -1501    -1640    -1715    -1755    -1822    -1952 
   -2141    -2357    -2531    -2617    -2598    -2482    -2326    -2169 
   -1993    -1753    -1451    -1154     -943     -851     -841     -859 
    -905    -1020    -1242    -1540    -1830    -2065    -2235    -2328 
   -2335    -2254    -2096    -1911    -1782    -1726    -1687    -1632 
   -1587    -1582    -1583    -1544    -1447    -1320    -1202    -1108 
   -1066    -1112    -1236    -1402    -1580    -1734    -1852    -1961 
   -2065    -2142    -2182    -2182    -2142    -2083    -2019    -1948 
   -1903    -1885    -1856    -1804    -1745    -1694    -1648    -1587 
   -1533    -1521    -1544    -1578    -1617    -1642    -1651    -1691 
   -1795    -1875    -1837    -1690    -1512    -1367    -1279    -1232 
   -1208    -1233    -1324    -1467    -1628    -1750    -1848    -1954 
   -2018    -1988    -1908    -1848    -1856    -1933    -2020    -2095 
   -2185    -2258    -2227    -2097    -1950    -1836    -1744    -1653 
   -1553    -1445    -1344    -1259    -1206    -1185    -1182    -1198 
   -1250    -1333    -1425    -1510    -1588    -1665    -1755    -1857 
   -1968    -2092    -2195    -2231    -2232    -2226    -2157    -1979 
   -1775    -1656    -1598    -1526    -1447    -1377    -1323    -1302 
   -1300    -1244    -1144    -1102    -1134    -1173    -1240    -1404 
   -1624    -1814    -1953    -2038    -2061    -2072    -2155    -2297 
   -2394    -2389    -2299    -2146    -1952    -1746    -1563    -1413 
   -1302    -1220    -1150    -1105    -1115    -1179    -1273    -1367 
   -1466    -1576    -1687    -1792    -1900    -1998    -2058    -2084 
   -2077    -2038    -1998    -2010    -2084    -2178    -2224    -2168 
   -2022    -1881    -1786    -1706    -1629    -1559    -1498    -1459 
   -1456    -1498    -1563    -1626    -1692    -1767    -1853    -1950 
   -2037    -2062    -2003    -1921    -1883    -1877    -1868    -1864 
   -1863    -1865    -1892    -1917    -1857    -1678    -1433    -1210 
   -1059     -980     -967    -1034    -1151    -1293    -1472    -1668 
   -1804    -1838    -1798    -1744    -1725    -1745    -1771    -1795 
   -1856    -1973    -2103    -2173    -2158    -2112    -2095    -2087 
   -2052    -1964    -1810    -1607    -1417    -1258    -1080     -899 
    -793     -780     -828     -932    -1086    -1293    -1517    -1698 
   -1850    -2043    -2247    -2400    -2508    -2578    -2581    -2538 
   -2494    -2438    -2338    -2222    -2133    -2089    -2083    -2079 
   -2006    -1815    -1524    -1201     -926     -764     -746     -843 
    -974    -1062    -1078    -1065    -1084    -1155    -1254    -1359 
   -1506    -1730    -1995    -2276    -2571    -2830    -2991    -3030 
   -2932    -2706    -2435    -2174    -1904    -1633    -1420    -1310 
   -1328    -1426    -1530    -1626    -1730    -1815    -1844    -1819 
   -1740    -1571    -1312    -1039     -873     -907    -1108    -1351 
   -1545    -1665    -1722    -1736    -1723    -1672    -1578    -1512 
   -1539    -1617    -1726    -1910    -2114    -2212    -2164    -2015 
   -1825    -1629    -1468    -1356    -1325    -1405    -1553    -1730 
   -1921    -2079    -2145    -2103    -2008    -1931    -1900    -1911 
   -1937    -1931    -1885    -1840    -1826    -1817    -1757    -1672 
   -1591    -1487    -1341    -1163     -967     -792     -689     -687 
    -746     -853    -1062    -1383    -1728    -1998    -2161    -2257 
   -2351    -2462    -2519    -2455    -2347    -2311    -2317    -2254 
   -2089    -1850    -1557    -1270    -1089    -1057    -1150    -1348 
   -1613    -1844    -1956    -1925    -1753    -1499    -1264    -1128 
   -1143    -1341    -1683    -2056    -2347    -2485    -2442    -2273 
   -2095    -1954    -1827    -1742    -1772    -1917    -2108    -2231 
   -2147    -1811    -1341     -908     -615     -491     -515     -630 
    -762     -862     -923     -965    -1012    -1104    -1263    -1433 
   -1549    -1638    -1756    -1880    -1946    -1946    -1912    -1880 
   -1922    -2074    -2270    -2417    -2474    -2393    -2134    -1792 
   -1540    -1440    -1432    -1441    -1429    -1391    -1379    -1456 
   -1567    -1606    -1628    -1775    -2038    -2300    -2494    -2625 
   -2698    -2694    -2585    -2365    -2065    -1705    -1314    -1065 
   -1136    -1443    -1744    -1918    -1984    -2006    -2070    -2265 
   -2578    -2883    -3036    -2951    -2635    -2174    -1740    -1448 
   -1260    -1073     -858     -684     -668     -859    -1194    -1571 
   -1884    -1999    -1819    -1368     -812     -361     -101      -10 
     -94     -368     -815    -1383    -1981    -2506    -2872    -3003 
   -2899    -2627    -2259    -1887    -1571    -1301    -1078     -908 
    -737     -498     -234      -86     -171     -490     -953    -1447 
   -1885    -2238    -2513    -2701    -2752    -2679    -2565    -2438 
   -2281    -2111    -1979    -1908    -1927    -2042    -2155    -2161 
   -2076    -1941    -1749    -1514    -1277    -1058     -835     -608 
    -440     -432     -681    -1169    -1742    -2216    -2527    -2762 
   -2998    -3215    -3391    -3526    -3593    -3542    -3387    -3217 
   -3009    -2636    -2073    -1426     -849     -465     -319     -338 
    -405     -476     -602     -785     -982    -1152    -1237    -1182 
   -1069    -1038    -1104    -1183    -1255    -1378    -1611    -1965 
   -2408    -2862    -3211    -3412    -3519    -3558    -3460    -3148 
   -2605    -1883    -1119     -467       12      334      541      648 
     600      313     -174     -704    -1155    -1506    -1800    -2100 
   -2432    -2759    -3030    -3265    -3519    -3792    -3989    -3996 
   -3789    -3419    -2886    -2184    -1378     -567      114      523 
     637      598      549      486      292      -86     -583    -1108 
   -1637    -2154    -2654    -3109    -3411    -3478    -3346    -3095 
   -2795    -2486    -2141    -1737    -1343    -1077    -1007    -1059 
   -1092    -1089    -1155    -1341    -1587    -1792    -1888    -1854 
   -1722    -1575    -1540    -1732    -2165    -2714    -3187    -3460 
   -3518    -3384    -3134    -2822    -2434    -1998    -1543    -1065 
    -635     -411     -475     -708     -911    -1008    -1020     -981 
    -963    -1080    -1399    -1865    -2340    -2720    -2990    -3199 
   -3333    -3244    -2828    -2216    -1668    -1323    -1177    -1138 
   -1104     -992     -733     -341       45      295      376      333 
     237       94     -172     -588    -1038    -1468    -2000    -2671 
   -3269    -3573    -3577    -3415    -3194    -2933    -2623    -2258 
   -1858    -1495    -1206     -977     -882    -1021    -1314    -1540 
   -1580    -1494    -1328    -1090     -866     -803    -1017    -1470 
   -1952    -2350    -2755    -3231    -3677    -3902    -3748    -3180 
   -2365    -1584     -978     -515     -251     -279     -492     -733 
    -961    -1182    -1428    -1723    -2079    -2497    -2894    -3109 
   -3055    -2739    -2239    -1721    -1306    -1007     -819     -812 
    -994    -1247    -1468    -1615    -1645    -1595    -1575    -1637 
   -1776    -1950    -2046    -1966    -1767    -1584    -1493    -1485 
   -1547    -1649    -1741    -1790    -1813    -1788    -1661    -1428 
   -1107     -787     -652     -764     -947    -1042    -1098    -1221 
   -1413    -1645    -1823    -1848    -1769    -1721    -1826    -2209 
   -2843    -3520    -4018    -4212    -4135    -3919    -3578    -3021 
   -2284    -1512     -761      -70      415      603      572      422 
     145     -292     -822    -1316    -1729    -2034    -2154    -2092 
   -1950    -1848    -1906    -2195    -2674    -3241    -3794    -4230 
   -4421    -4237    -3673    -2848    -1922     -978      -93      583 
     966     1053      832      341     -310     -999    -1621    -2054 
   -2212    -2161    -2056    -2023    -2169    -2509    -2940    -3346 
   -3669    -3844    -3794    -3493    -2926    -2092    -1135     -287 
     344      776     1016      985      581     -178    -1093    -1934 
   -2605    -3091    -3361    -3430    -3375    -3246    -3098    -2934 
   -2677    -2254    -1709    -1169     -714     -341      -51      118 
     120      -86     -523    -1119    -1698    -2145    -2465    -2686 
   -2862    -3079    -3302    -3327    -3017    -2451    -1854    -1382 
   -1001     -607     -230       20      105       55     -102     -336 
    -556     -695     -764     -804     -911    -1252    -1902    -2702 
   -3427    -3958    -4229    -4222    -4027    -3763    -3487    -3198 
   -2862    -2421    -1844    -1173     -496      163      760     1143 
    1204      904      241     -670    -1641    -2511    -3160    -3512 
   -3581    -3451    -3242    -3087    -3046    -3053    -2964    -2670 
   -2200    -1699    -1308    -1071     -961     -949    -1039    -1178 
   -1236    -1144     -988     -942    -1109    -1381    -1543    -1517 
   -1382    -1209     -985     -758     -684     -801     -947    -1030 
   -1188    -1582    -2147    -2664    -2963    -2986    -2755    -2320 
   -1782    -1314    -1077    -1063    -1154    -1278    -1443    -1655 
   -1895    -2092    -2188    -2215    -2216    -2161    -2003    -1753 
   -1509    -1387    -1408    -1468    -1466    -1383    -1279    -1202 
   -1177    -1246    -1366    -1412    -1387    -1426    -1587    -1853 
   -2223    -2589    -2714    -2532    -2280    -2216    -2363    -2609 
   -2901    -3198    -3366    -3287    -2960    -2475    -1941    -1408 
    -878     -406      -49      194      336      361      267       67 
    -184     -468     -812    -1279    -1895    -2577    -3227    -3773 
   -4085    -4098    -3878    -3505    -3021    -2457    -1865    -1256 
    -657     -228     -121     -294     -542     -745     -901     -962 
    -899     -832     -846     -918    -1081    -1425    -1914    -2432 
   -2963    -3532    -4054    -4325    -4205    -3770    -3218    -2625 
   -1991    -1368     -847     -460     -186      -32       -8      -60 
    -151     -321     -606     -939    -1291    -1683    -2080    -2435 
   -2735    -2965    -3118    -3186    -3118    -2829    -2365    -1965 
   -1823    -1873    -1915    -1825    -1614    -1375    -1215    -1190 
   -1279    -1366    -1354    -1258    -1131    -1007     -951     -972 
    -986    -1044    -1301    -1729    -2126    -2366    -2498    -2610 
   -2664    -2550    -2258    -1880    -1494    -1134     -826     -635 
    -621     -723     -831     -973    -1243    -1606    -1948    -2208 
   -2384    -2446    -2332    -2042    -1665    -1324    -1121    -1092 
   -1177    -1259    -1291    -1370    -1571    -1841    -2080    -2192 
   -2093    -1803    -1479    -1283    -1262    -1368    -1493    -1549 
   -1557    -1588    -1668    -1769    -1869    -2010    -2197    -2336 
   -2343    -2223    -2038    -1868    -1738    -1564    -1313    -1100 
   -1019    -1030    -1098    -1271    -1532    -1746    -1829    -1842 
   -1885    -2008    -2219    -2470    -2671    -2835    -3028    -3154 
   -3060    -2801    -2529    -2249    -1904    -1548    -1296    -1224 
   -1328    -1568    -1868    -2128    -2282    -2269    -2076    -1848 
   -1769    -1861    -1983    -2014    -1960    -1875    -1729    -1491 
   -1197     -884     -648     -622     -800    -1020    -1174    -1308 
   -1443    -1486    -1386    -1171     -893     -660     -610     -795 
   -1147    -1582    -2045    -2469    -2789    -2979    -3049    -2987 
   -2767    -2388    -1926    -1518    -1205     -918     -604     -270 
      33      194       95     -248     -702    -1188    -1682    -2135 
   -2521    -2828    -3026    -3126    -3122    -2990    -2817    -2704 
   -2613    -2448    -2176    -1807    -1370     -919     -545     -315 
    -249     -328     -454     -554     -653     -812    -1093    -1529 
   -2084    -2664    -3154    -3497    -3672    -3655    -3483    -3218 
   -2859    -2351    -1713    -1043     -445      -29      118        1 
    -342     -827    -1331    -1756    -2011    -2083    -2062    -2018 
   -1972    -1925    -1896    -1984    -2235    -2533    -2721    -2763 
   -2713    -2579    -2342    -2034    -1680    -1254     -751     -290 
     -44      -78     -306     -599     -884    -1181    -1539    -1907 
   -2165    -2285    -2331    -2332    -2324    -2370    -2427    -2367 
   -2151    -1845    -1530    -1306    -1274    -1437    -1687    -1875 
   -1895    -1756    -1580    -1464    -1377    -1290    -1282    -1385 
   -1548    -1719    -1894    -2061    -2187    -2259    -2284    -2257 
   -2203    -2110    -1917    -1644    -1391    -1216    -1135    -1146 
   -1167    -1089     -919     -774     -758     -903    -1159    -1417 
   -1579    -1634    -1634    -1661    -1786    -2018    -2307    -2562 
   -2674    -2616    -2425    -2141    -1845    -1649    -1575    -1563 
   -1566    -1568    -1595    -1634    -1582    -1387    -1167    -1050 
   -1005     -982    -1042    -1227    -1516    -1880    -2262    -2625 
   -2972    -3250    -3375    -3361    -3256    -3041    -2671    -2154 
   -1575    -1051     -660     -411     -257     -163     -190     -429 
    -846    -1301    -1710    -2035    -2253    -2438    -2663    -2862 
   -2905    -2762    -2521    -2277    -2039    -1811    -1638    -1557 
   -1547    -1557    -1597    -1659    -1630    -1456    -1250    -1101 
   -1021    -1035    -1148    -1339    -1595    -1918    -2285    -2583 
   -2681    -2569    -2319    -1965    -1548    -1163     -866     -656 
    -544     -531     -562     -595     -619     -619     -608     -677 
    -904    -1310    -1845    -2425    -2987    -3439    -3690    -3724 
   -3562    -3211    -2674    -2000    -1279     -603      -76      209 
     268      168      -33     -288     -577     -912    -1258    -1564 
   -1833    -2123    -2481    -2857    -3179    -3433    -3619    -3707 
   -3639    -3404    -3060    -2652    -2234    -1915    -1706    -1493 
   -1266    -1124    -1061     -973     -866     -820     -851     -965 
   -1188    -1471    -1730    -1956    -2153    -2296    -2423    -2575 
   -2679    -2660    -2533    -2330    -2066    -1780    -1537    -1358 
   -1165     -935     -780     -716     -649     -618     -722     -919 
   -1147    -1435    -1790    -2143    -2435    -2582    -2511    -2259 
   -1939    -1579    -1182     -872     -811    -1007    -1352    -1726 
   -1992    -2088    -2080    -2003    -1852    -1659    -1476    -1386 
   -1422    -1543    -1737    -1984    -2177    -2236    -2199    -2138 
