Origin Time       2024/04/02 04:24:00
Lat.              40.133
Long.             141.712
Depth. (km)       71
Mag.              6.0
Station Code      HKD167
Station Lat.      42.1297
Station Long.     139.9813
Station Height(m) 21
Record Time       2024/04/02 04:25:15
Sampling Freq(Hz) 100Hz
Duration Time(s)  94
Dir.              E-W
Scale Factor      7845(gal)/8223790
Max. Acc. (gal)   2.591
Last Correction   2024/04/02 04:25:16
Memo.             
[...]
   -2155    -2154    -2164    -2181    -2195    -2196    -2180    -2161 
   -2157    -2166    -2173    -2168    -2158    -2160    -2178    -2201 
   -2205    -2180    -2151    -2146    -2162    -2187    -2196    -2173 
   -2147    -2150    -2177    -2201    -2197    -2174    -2160    -2168 
   -2182    -2182    -2168    -2151    -2151    -2172    -2193    -2199 
   -2187    -2170    -2161    -2164    -2180    -2188    -2169    -2150 
   -2157    -2178    -2192    -2188    -2172    -2157    -2165    -2187 
   -2185    -2169    -2161    -2161    -2166    -2176    -2182    -2185 
   -2178    -2165    -2158    -2170    -2188    -2188    -2168    -2151 
   -2162    -2188    -2191    -2165    -2150    -2166    -2192    -2192 
   -2173    -2164    -2168    -2176    -2180    -2173    -2168    -2174 
   -2181    -2174    -2169    -2174    -2181    -2184    -2176    -2165 
   -2164    -2172    -2178    -2174    -2165    -2168    -2184    -2193 
   -2187    -2170    -2165    -2170    -2172    -2165    -2160    -2162 
   -2176    -2189    -2191    -2181    -2173    -2166    -2160    -2161 
   -2170    -2181    -2182    -2172    -2170    -2176    -2172    -2164 
   -2168    -2177    -2187    -2189    -2184    -2173    -2160    -2146 
   -2151    -2173    -2191    -2195    -2185    -2170    -2166    -2177 
   -2181    -2169    -2158    -2162    -2173    -2178    -2174    -2174 
   -2180    -2180    -2178    -2182    -2184    -2173    -2154    -2153 
   -2172    -2185    -2181    -2173    -2177    -2184    -2180    -2165 
   -2160    -2166    -2174    -2178    -2176    -2172    -2172    -2168 
   -2165    -2172    -2182    -2185    -2178    -2172    -2170    -2174 
   -2174    -2166    -2162    -2165    -2173    -2185    -2191    -2187 
   -2174    -2161    -2160    -2173    -2181    -2178    -2172    -2168 
   -2170    -2177    -2173    -2164    -2168    -2187    -2196    -2189 
   -2174    -2160    -2154    -2160    -2168    -2174    -2181    -2181 
   -2182    -2182    -2177    -2168    -2160    -2158    -2168    -2177 
   -2178    -2174    -2165    -2166    -2174    -2181    -2182    -2176 
   -2165    -2162    -2169    -2177    -2178    -2169    -2161    -2169 
   -2182    -2189    -2182    -2173    -2168    -2165    -2165    -2169 
   -2168    -2164    -2169    -2187    -2200    -2191    -2168    -2154 
   -2157    -2165    -2173    -2176    -2177    -2180    -2181    -2180 
   -2180    -2174    -2166    -2164    -2166    -2173    -2178    -2178 
   -2174    -2174    -2178    -2178    -2169    -2162    -2172    -2184 
   -2185    -2177    -2169    -2166    -2166    -2165    -2169    -2184 
   -2192    -2181    -2172    -2172    -2174    -2173    -2168    -2165 
   -2174    -2180    -2173    -2165    -2161    -2165    -2180    -2191 
   -2189    -2180    -2169    -2168    -2172    -2166    -2160    -2164 
   -2164    -2166    -2180    -2187    -2181    -2177    -2177    -2182 
   -2184    -2166    -2149    -2154    -2169    -2176    -2182    -2189 
   -2185    -2174    -2166    -2169    -2180    -2182    -2172    -2161 
   -2164    -2178    -2182    -2177    -2173    -2176    -2181    -2178 
   -2173    -2174    -2176    -2166    -2158    -2161    -2170    -2176 
   -2180    -2189    -2192    -2184    -2172    -2161    -2162    -2170 
   -2169    -2161    -2161    -2174    -2192    -2193    -2182    -2172 
   -2168    -2166    -2169    -2176    -2178    -2173    -2166    -2162 
   -2170    -2182    -2178    -2169    -2172    -2180    -2184    -2180 
   -2170    -2164    -2164    -2168    -2173    -2173    -2170    -2172 
   -2177    -2181    -2182    -2178    -2165    -2155    -2168    -2184 
   -2187    -2173    -2160    -2160    -2176    -2189    -2185    -2170 
   -2162    -2165    -2172    -2177    -2181    -2180    -2170    -2166 
   -2174    -2180    -2176    -2165    -2157    -2162    -2178    -2187 
   -2181    -2172    -2168    -2170    -2176    -2178    -2172    -2162 
   -2160    -2166    -2173    -2180    -2184    -2182    -2178    -2174 
   -2174    -2170    -2164    -2165    -2169    -2174    -2184    -2185 
   -2174    -2168    -2176    -2184    -2180    -2166    -2161    -2172 
   -2185    -2182    -2172    -2165    -2162    -2166    -2177    -2188 
   -2188    -2174    -2162    -2165    -2173    -2177    -2173    -2168 
   -2169    -2178    -2178    -2173    -2169    -2169    -2176    -2180 
   -2178    -2180    -2174    -2166    -2164    -2165    -2174    -2180 
   -2170    -2166    -2174    -2180    -2176    -2174    -2174    -2170 
   -2166    -2166    -2170    -2177    -2180    -2173    -2168    -2170 
   -2174    -2174    -2174    -2178    -2178    -2176    -2173    -2168 
   -2166    -2174    -2178    -2176    -2174    -2177    -2177    -2172 
   -2165    -2165    -2172    -2181    -2185    -2182    -2176    -2172 
   -2170    -2164    -2160    -2165    -2176    -2182    -2185    -2181 
   -2176    -2173    -2165    -2158    -2161    -2174    -2191    -2189 
   -2170    -2168    -2178    -2178    -2172    -2165    -2161    -2164 
   -2173    -2180    -2185    -2184    -2170    -2157    -2165    -2187 
   -2192    -2173    -2151    -2154    -2178    -2192    -2178    -2158 
   -2161    -2180    -2192    -2188    -2170    -2158    -2155    -2161 
   -2173    -2185    -2184    -2174    -2173    -2178    -2182    -2174 
   -2153    -2145    -2162    -2184    -2192    -2184    -2174    -2177 
   -2177    -2174    -2176    -2169    -2162    -2166    -2174    -2184 
   -2182    -2168    -2160    -2166    -2178    -2188    -2184    -2168 
   -2160    -2170    -2180    -2178    -2173    -2166    -2172    -2185 
   -2185    -2174    -2168    -2166    -2168    -2166    -2168    -2174 
   -2180    -2180    -2178    -2180    -2178    -2174    -2166    -2160 
   -2166    -2181    -2181    -2166    -2162    -2173    -2184    -2185 
   -2184    -2184    -2178    -2166    -2155    -2155    -2164    -2173 
   -2177    -2180    -2182    -2180    -2178    -2177    -2170    -2170 
   -2178    -2177    -2168    -2166    -2166    -2162    -2166    -2182 
   -2192    -2181    -2169    -2169    -2174    -2178    -2177    -2170 
   -2164    -2165    -2168    -2174    -2182    -2188    -2184    -2172 
   -2168    -2177    -2184    -2176    -2162    -2155    -2162    -2180 
   -2191    -2188    -2181    -2174    -2170    -2174    -2177    -2169 
   -2155    -2147    -2166    -2192    -2200    -2188    -2172    -2166 
   -2174    -2178    -2168    -2154    -2153    -2170    -2195    -2193 
   -2169    -2164    -2178    -2187    -2178    -2169    -2165    -2164 
   -2161    -2169    -2180    -2178    -2172    -2172    -2180    -2185 
   -2181    -2169    -2158    -2157    -2170    -2182    -2177    -2164 
   -2160    -2168    -2174    -2177    -2181    -2181    -2177    -2173 
   -2166    -2162    -2164    -2161    -2164    -2173    -2181    -2184 
   -2181    -2174    -2173    -2178    -2178    -2165    -2155    -2158 
   -2164    -2164    -2172    -2185    -2187    -2177    -2176    -2180 
   -2184    -2174    -2151    -2146    -2162    -2174    -2173    -2173 
   -2176    -2184    -2189    -2180    -2165    -2164    -2172    -2177 
   -2173    -2162    -2161    -2169    -2177    -2185    -2185    -2176 
   -2170    -2168    -2169    -2169    -2161    -2154    -2164    -2174 
   -2180    -2184    -2187    -2181    -2169    -2164    -2169    -2173 
   -2164    -2151    -2160    -2185    -2196    -2176    -2160    -2173 
   -2191    -2187    -2169    -2158    -2161    -2165    -2164    -2165 
   -2181    -2191    -2177    -2166    -2180    -2192    -2173    -2146 
   -2149    -2181    -2192    -2164    -2153    -2178    -2191    -2174 
   -2166    -2181    -2193    -2174    -2149    -2160    -2185    -2180 
   -2151    -2145    -2180    -2208    -2193    -2168    -2166    -2180 
   -2181    -2165    -2157    -2166    -2173    -2165    -2168    -2187 
   -2193    -2181    -2168    -2170    -2181    -2173    -2149    -2149 
   -2173    -2182    -2172    -2166    -2178    -2188    -2182    -2172 
   -2172    -2168    -2151    -2150    -2174    -2200    -2200    -2164 
   -2141    -2165    -2197    -2192    -2161    -2147    -2166    -2185 
   -2182    -2172    -2165    -2166    -2174    -2182    -2187    -2181 
   -2162    -2150    -2162    -2182    -2182    -2160    -2151    -2181 
   -2204    -2182    -2154    -2161    -2180    -2176    -2164    -2164 
   -2177    -2184    -2170    -2155    -2164    -2180    -2180    -2161 
   -2149    -2170    -2201    -2200    -2162    -2133    -2139    -2160 
   -2173    -2181    -2178    -2168    -2165    -2184    -2204    -2187 
   -2139    -2123    -2142    -2154    -2146    -2133    -2128    -2147 
   -2160    -2158    -2165    -2176    -2177    -2174    -2185    -2209 
   -2224    -2216    -2205    -2214    -2231    -2227    -2193    -2150 
   -2114    -2085    -2046    -1991    -1942    -1927    -1946    -1971 
   -1998    -2046    -2107    -2166    -2230    -2305    -2378    -2415 
   -2411    -2409    -2435    -2455    -2427    -2346    -2251    -2173 
   -2110    -2049    -1977    -1914    -1895    -1918    -1969    -2039 
   -2123    -2201    -2239    -2245    -2249    -2245    -2239    -2261 
   -2322    -2377    -2355    -2235    -2073    -1939    -1858    -1826 
   -1854    -1948    -2060    -2143    -2184    -2193    -2199    -2205 
   -2223    -2285    -2413    -2585    -2728    -2745    -2586    -2280 
   -1931    -1680    -1625    -1759    -1984    -2201    -2355    -2407 
   -2335    -2170    -1999    -1918    -1972    -2128    -2312    -2498 
   -2654    -2717    -2682    -2592    -2489    -2396    -2326    -2304 
   -2343    -2403    -2416    -2346    -2220    -2088    -1983    -1912 
   -1876    -1873    -1895    -1907    -1879    -1837    -1836    -1880 
   -1956    -2056    -2164    -2261    -2335    -2390    -2404    -2327 
   -2161    -2015    -2018    -2219    -2569    -2918    -3068    -2899 
   -2471    -1985    -1652    -1593    -1807    -2172    -2521    -2764 
   -2862    -2755    -2408    -1911    -1456    -1231    -1298    -1575 
   -1931    -2235    -2359    -2273    -2049    -1763    -1487    -1331 
   -1409    -1721    -2114    -2413    -2547    -2506    -2304    -2039 
   -1852    -1827    -1976    -2234    -2489    -2643    -2621    -2382 
   -1999    -1692    -1656    -1872    -2161    -2365    -2427    -2320 
   -2106    -1954    -1981    -2150    -2380    -2601    -2747    -2747 
   -2620    -2452    -2300    -2200    -2153    -2106    -2030    -1926 
   -1806    -1721    -1702    -1694    -1633    -1560    -1586    -1776 
   -2114    -2540    -2990    -3333    -3410    -3218    -2930    -2704 
   -2539    -2338    -2047    -1737    -1524    -1445    -1475    -1622 
   -1858    -2041    -2034    -1884    -1788    -1891    -2180    -2574 
   -2970    -3203    -3196    -3018    -2743    -2404    -2054    -1798 
   -1734    -1908    -2322    -2897    -3403    -3565    -3285    -2717 
   -2139    -1798    -1755    -1877    -1956    -1853    -1602    -1414 
   -1491    -1817    -2181    -2344    -2173    -1728    -1205     -788 
    -611     -753    -1166    -1678    -2084    -2309    -2438    -2556 
   -2663    -2759    -2863    -2928    -2882    -2747    -2578    -2384 
   -2173    -2034    -2018    -2064    -2095    -2099    -2076    -2030 
   -2020    -2114    -2296    -2505    -2686    -2741    -2563    -2185 
   -1814    -1675    -1842    -2189    -2467    -2469    -2169    -1779 
   -1564    -1640    -1921    -2234    -2434    -2469    -2398    -2308 
   -2214    -2100    -1958    -1864    -1918    -2131    -2428    -2701 
   -2814    -2663    -2292    -1907    -1732    -1790    -1921    -1979 
   -1911    -1746    -1621    -1674    -1892    -2122    -2199    -2020 
   -1610    -1170     -958    -1113    -1597    -2268    -3001    -3670 
   -4128    -4283    -4106    -3589    -2847    -2142    -1725    -1709 
   -2025    -2459    -2787    -2884    -2708    -2257    -1602     -947 
    -544     -521     -804    -1231    -1665    -2012    -2212    -2272 
   -2223    -2076    -1845    -1624    -1567    -1802    -2353    -3127 
   -3916    -4429    -4423    -3881    -3046    -2299    -1918    -1884 
   -2006    -2209    -2478    -2691    -2700    -2446    -1948    -1291 
    -626     -147      -47     -382    -1023    -1794    -2544    -3150 
   -3564    -3747    -3603    -3107    -2438    -1868    -1621    -1755 
   -2165    -2677    -3076    -3198    -3037    -2686    -2189    -1594 
   -1054     -803     -986    -1507    -2060    -2323    -2203    -1868 
   -1525    -1278    -1204    -1358    -1683    -2035    -2312    -2490 
   -2614    -2756    -2938    -3065    -2988    -2624    -2008    -1306 
    -722     -407     -432     -758    -1282    -1919    -2594    -3164 
   -3487    -3545    -3381    -3022    -2544    -2101    -1881    -1975 
   -2258    -2461    -2409    -2145    -1854    -1794    -2099    -2650 
   -3204    -3595    -3755    -3704    -3485    -3142    -2690    -2127 
   -1509     -955     -577     -487     -731    -1215    -1732    -2103 
   -2223    -2070    -1757    -1502    -1520    -1875    -2428    -2926 
   -3186    -3190    -2991    -2670    -2359    -2172    -2088    -2008 
   -1911    -1858    -1831    -1732    -1555    -1401    -1393    -1611 
   -2041    -2524    -2820    -2785    -2496    -2193    -2103    -2278 
   -2556    -2718    -2667    -2461    -2243    -2088    -2002    -2074 
   -2404    -2899    -3341    -3526    -3353    -2913    -2423    -2057 
   -1848    -1730    -1640    -1549    -1482    -1499    -1668    -2053 
   -2644    -3240    -3518    -3244    -2394    -1204      -78      544 
     371     -526    -1733    -2790    -3406    -3500    -3175    -2627 
   -2052    -1647    -1566    -1786    -2146    -2525    -2866    -3149 
   -3358    -3450    -3412    -3273    -3071    -2814    -2478    -2011 
   -1428     -854     -479     -445     -743    -1228    -1714    -2042 
   -2116    -1987    -1861    -1937    -2218    -2548    -2737    -2671 
   -2388    -2062    -1900    -2014    -2334    -2677    -2875    -2826 
   -2540    -2141    -1783    -1575    -1568    -1768    -2079    -2328 
   -2389    -2226    -1903    -1563    -1318    -1237    -1375    -1730 
   -2195    -2574    -2721    -2660    -2527    -2435    -2421    -2470 
   -2525    -2528    -2432    -2276    -2181    -2246    -2474    -2806 
   -3100    -3181    -2980    -2585    -2146    -1780    -1494    -1232 
    -976     -799     -816    -1051    -1420    -1811    -2100    -2197 
   -2119    -1953    -1791    -1694    -1721    -1919    -2241    -2536 
   -2708    -2817    -2909    -2897    -2735    -2527    -2385    -2317 
   -2268    -2201    -2155    -2181    -2285    -2430    -2567    -2664 
   -2716    -2776    -2913    -3114    -3321    -3504    -3616    -3585 
   -3411    -3176    -2941    -2695    -2394    -1984    -1459     -893 
    -436     -221     -274     -498     -830    -1285    -1863    -2428 
   -2760    -2743    -2469    -2134    -1840    -1582    -1394    -1343 
   -1432    -1672    -2119    -2728    -3308    -3658    -3697    -3488 
   -3126    -2679    -2207    -1813    -1601    -1572    -1636    -1676 
   -1609    -1456    -1370    -1498    -1860    -2349    -2794    -3025 
   -2948    -2620    -2212    -1895    -1764    -1854    -2091    -2290 
   -2308    -2158    -1971    -1842    -1786    -1772    -1803    -1885 
   -1976    -1971    -1830    -1630    -1494    -1491    -1615    -1817 
   -2030    -2223    -2376    -2457    -2428    -2308    -2212    -2239 
   -2340    -2442    -2539    -2609    -2635    -2617    -2542    -2435 
   -2295    -2101    -1937    -1853    -1853    -2025    -2374    -2741 
   -2974    -2988    -2810    -2600    -2505    -2548    -2650    -2686 
   -2578    -2377    -2170    -1956    -1703    -1513    -1507    -1667 
   -1885    -2091    -2277    -2458    -2617    -2770    -2889    -2816 
   -2467    -1918    -1273     -672     -306     -298     -693    -1444 
   -2363    -3148    -3528    -3416    -2928    -2327    -1917    -1840 
   -2034    -2347    -2601    -2619    -2344    -1938    -1679    -1745 
   -2096    -2521    -2814    -2918    -2875    -2755    -2593    -2366 
   -2104    -1879    -1682    -1556    -1586    -1729    -1925    -2166 
   -2398    -2569    -2686    -2771    -2847    -2890    -2829    -2666 
   -2465    -2242    -1996    -1777    -1611    -1466    -1298    -1158 
   -1155    -1352    -1730    -2219    -2674    -2898    -2760    -2282 
   -1602     -932     -488     -367     -556    -1017    -1657    -2285 
   -2698    -2824    -2774    -2706    -2679    -2674    -2706    -2802 
   -2895    -2875    -2705    -2401    -2042    -1807    -1827    -2053 
   -2308    -2424    -2385    -2280    -2180    -2151    -2201    -2266 
   -2332    -2398    -2381    -2216    -2000    -1917    -2000    -2099 
   -2126    -2154    -2273    -2477    -2705    -2929    -3094    -3094 
   -2917    -2658    -2412    -2241    -2164    -2154    -2154    -2100 
   -1981    -1829    -1674    -1571    -1606    -1788    -1980    -2050 
   -2011    -1945    -1904    -1930    -2057    -2262    -2461    -2602 
   -2735    -2894    -3019    -3036    -2905    -2594    -2104    -1530 
   -1061     -812     -766     -911    -1271    -1798    -2286    -2494 
   -2411    -2223    -2064    -1981    -1983    -2054    -2185    -2343 
   -2482    -2555    -2535    -2417    -2230    -2050    -1968    -1996 
   -2119    -2311    -2475    -2524    -2432    -2241    -2072    -2031 
   -2088    -2188    -2309    -2447    -2589    -2675    -2677    -2610 
   -2451    -2192    -1944    -1867    -2019    -2305    -2548    -2631 
   -2552    -2338    -2053    -1829    -1726    -1709    -1738    -1806 
   -1894    -1972    -2018    -2025    -1999    -1952    -1927    -2015 
   -2203    -2390    -2521    -2489    -2188    -1748    -1432    -1372 
   -1532    -1790    -2020    -2165    -2188    -2070    -1906    -1836 
   -1881    -2029    -2303    -2652    -2930    -2992    -2779    -2381 
   -2002    -1746    -1593    -1597    -1827    -2212    -2650    -3053 
   -3314    -3380    -3260    -2921    -2388    -1831    -1467    -1393 
   -1580    -1907    -2219    -2389    -2367    -2208    -2011    -1841 
   -1744    -1718    -1701    -1674    -1711    -1883    -2160    -2478 
   -2786    -2988    -2965    -2708    -2361    -2095    -1946    -1881 
   -1923    -2092    -2308    -2467    -2558    -2616    -2670    -2720 
   -2716    -2593    -2327    -1991    -1753    -1744    -1971    -2323 
   -2582    -2581    -2378    -2173    -2114    -2189    -2297    -2376 
   -2408    -2351    -2143    -1825    -1610    -1675    -1935    -2188 
   -2365    -2467    -2439    -2208    -1776    -1252     -854     -735 
    -876    -1169    -1505    -1784    -1976    -2130    -2289    -2474 
   -2704    -2925    -3009    -2920    -2787    -2751    -2833    -2928 
   -2887    -2663    -2385    -2224    -2250    -2397    -2532    -2550 
   -2448    -2293    -2143    -2020    -1931    -1879    -1854    -1875 
   -1960    -2056    -2083    -2039    -1946    -1825    -1725    -1717 
   -1844    -2014    -2092    -2084    -2060    -2033    -2008    -1964 
   -1885    -1826    -1818    -1863    -1933    -1993    -2052    -2116 
   -2185    -2284    -2416    -2525    -2566    -2555    -2475    -2303 
   -2077    -1877    -1744    -1676    -1678    -1749    -1869    -2012 
   -2164    -2276    -2269    -2150    -2042    -2018    -2130    -2444 
