Origin Time       2024/04/02 04:24:00
Lat.              40.133
Long.             141.712
Depth. (km)       71
Mag.              6.0
Station Code      HKD180
Station Lat.      43.1391
Station Long.     141.3513
Station Height(m) 3
Record Time       2024/04/02 04:26:00
Sampling Freq(Hz) 100Hz
Duration Time(s)  66
Dir.              U-D
Scale Factor      7845(gal)/8223790
Max. Acc. (gal)   0.647
Last Correction   2024/04/02 04:26:01
Memo.             
[...]
    6813     6812     6767     6669     6651     6762     6879     6920 
    6934     6943     6883     6789     6789     6883     6903     6798 
    6731     6797     6886     6895     6853     6779     6659     6577 
    6628     6763     6887     6949     6882     6659     6435     6411 
    6574     6752     6863     6889     6782     6604     6555     6686 
    6795     6739     6656     6686     6751     6762     6787     6864 
    6901     6845     6775     6748     6774     6909     7121     7207 
    7065     6866     6763     6725     6708     6701     6673     6633 
    6609     6573     6507     6459     6480     6551     6619     6691 
    6772     6795     6785     6828     6863     6786     6679     6721 
    6929     7115     7125     7024     6910     6767     6652     6669 
    6729     6723     6744     6845     6809     6556     6362     6386 
    6481     6528     6544     6524     6493     6547     6727     6909 
    6937     6813     6675     6643     6697     6740     6737     6718 
    6693     6690     6739     6809     6844     6818     6770     6739 
    6705     6686     6712     6724     6687     6644     6624     6637 
    6690     6774     6862     6871     6813     6829     6890     6836 
    6735     6728     6733     6697     6732     6853     6920     6876 
    6845     6875     6835     6739     6728     6737     6623     6474 
    6473     6597     6704     6793     6890     6887     6781     6751 
    6833     6860     6772     6686     6667     6677     6723     6839 
    6955     6988     6959     6890     6786     6718     6783     6914 
    6929     6817     6721     6701     6710     6724     6770     6805 
    6752     6671     6648     6654     6660     6696     6777     6866 
    6874     6808     6762     6772     6801     6818     6817     6771 
    6697     6689     6772     6835     6789     6720     6739     6828 
    6926     6960     6814     6577     6485     6542     6586     6608 
    6658     6639     6509     6504     6724     6895     6885     6894 
    6948     6844     6610     6488     6512     6563     6654     6795 
    6852     6794     6778     6817     6779     6727     6808     6936 
    6955     6867     6771     6754     6783     6793     6831     6907 
    6901     6760     6616     6583     6616     6646     6723     6860 
    6930     6893     6860     6839     6775     6731     6737     6751 
    6777     6848     6937     6972     6936     6882     6839     6782 
    6725     6716     6733     6723     6700     6697     6666     6565 
    6471     6475     6559     6654     6731     6766     6747     6764 
    6879     6967     6928     6840     6793     6793     6818     6833 
    6821     6785     6737     6712     6687     6604     6507     6500 
    6624     6836     6997     6988     6844     6667     6555     6562 
    6631     6687     6739     6775     6777     6779     6789     6801 
    6828     6801     6660     6512     6502     6654     6882     7076 
    7159     7092     6882     6636     6539     6652     6832     6922 
    6916     6864     6785     6679     6602     6586     6570     6507 
    6442     6461     6613     6820     6924     6893     6816     6709 
    6563     6475     6552     6737     6893     6937     6851     6706 
    6658     6704     6725     6740     6801     6812     6748     6732 
    6802     6882     6930     6960     6960     6918     6895     6909 
    6901     6895     6898     6816     6666     6581     6596     6654 
    6725     6763     6721     6651     6616     6602     6617     6712 
    6831     6853     6822     6809     6756     6690     6760     6933 
    7022     7013     6986     6879     6716     6697     6797     6791 
    6716     6731     6775     6744     6701     6708     6709     6698 
    6729     6740     6647     6519     6453     6471     6581     6723 
    6772     6744     6760     6818     6841     6844     6858     6844 
    6789     6683     6542     6481     6604     6828     6955     6928 
    6867     6845     6806     6756     6755     6771     6741     6658 
    6569     6574     6706     6862     6943     6907     6756     6588 
    6551     6658     6809     6905     6893     6791     6677     6616 
    6631     6690     6754     6817     6840     6805     6787     6818 
    6844     6851     6824     6720     6586     6531     6604     6777 
    6970     7055     6951     6741     6601     6598     6670     6733 
    6739     6724     6755     6790     6755     6690     6646     6625 
    6644     6682     6679     6669     6751     6970     7164     7137 
    6934     6706     6527     6517     6716     6914     6956     6889 
    6809     6795     6833     6837     6837     6847     6768     6660 
    6663     6729     6786     6836     6855     6802     6693     6643 
    6747     6910     6988     6952     6802     6619     6600     6744 
    6786     6636     6467     6363     6309     6367     6555     6735 
    6768     6686     6583     6511     6543     6723     6921     7007 
    6993     6928     6871     6864     6878     6860     6785     6673 
    6610     6662     6783     6863     6848     6812     6785     6708 
    6625     6650     6741     6774     6708     6605     6532     6534 
    6628     6751     6782     6718     6712     6799     6826     6791 
    6866     7015     6995     6748     6535     6559     6714     6829 
    6868     6856     6795     6704     6669     6767     6922     7001 
    6961     6826     6681     6648     6750     6868     6880     6762 
    6597     6471     6473     6656     6870     6910     6845     6849 
    6874     6801     6716     6724     6739     6690     6662     6663 
    6594     6565     6745     6975     7001     6866     6701     6524 
    6408     6492     6718     6859     6837     6767     6729     6745 
    6839     6974     7067     7071     7015     6926     6790     6644 
    6628     6766     6872     6864     6871     6939     6955     6876 
    6795     6771     6783     6813     6822     6743     6597     6517 
    6539     6585     6624     6679     6754     6845     6948     7025 
    7018     6928     6879     6944     6988     6894     6768     6733 
    6721     6654     6579     6554     6531     6484     6482     6588 
    6743     6841     6848     6824     6832     6847     6812     6759 
    6700     6565     6417     6482     6752     6932     6913     6855 
    6810     6713     6602     6605     6720     6785     6754     6740 
    6747     6728     6756     6859     6914     6862     6787     6779 
    6782     6736     6725     6779     6750     6612     6540     6601 
    6708     6806     6874     6835     6678     6552     6596     6751 
    6859     6863     6829     6787     6768     6820     6885     6880 
    6802     6678     6573     6581     6701     6844     6922     6871 
    6727     6588     6513     6521     6565     6569     6583     6693 
    6868     6999     6970     6820     6718     6682     6628     6610 
    6678     6740     6723     6696     6770     6899     6945     6897 
    6832     6754     6659     6628     6736     6945     7142     7233 
    7176     7026     6906     6883     6870     6766     6640     6581 
    6512     6405     6390     6523     6682     6775     6802     6720 
    6562     6547     6745     6906     6866     6766     6709     6632 
    6579     6679     6832     6839     6783     6816     6791     6608 
    6500     6606     6725     6716     6675     6652     6667     6832 
    7075     7115     6905     6686     6620     6652     6723     6831 
    6928     6960     6932     6833     6720     6698     6737     6720 
    6677     6681     6698     6717     6786     6858     6852     6818 
    6840     6859     6790     6698     6705     6794     6859     6871 
    6856     6804     6728     6709     6756     6771     6698     6615 
    6604     6628     6627     6621     6632     6652     6701     6791 
    6893     6971     6983     6895     6767     6689     6633     6529 
    6461     6550     6717     6831     6901     6925     6828     6654 
    6573     6632     6685     6663     6686     6759     6791     6848 
    6983     7030     6847     6556     6384     6432     6660     6957 
    7184     7202     6964     6656     6540     6648     6812     6924 
    7014     7069     7037     6972     6953     6953     6925     6910 
    6889     6785     6663     6642     6713     6798     6809     6735 
    6663     6650     6697     6777     6810     6745     6659     6667 
    6748     6805     6848     6880     6835     6752     6716     6650 
    6527     6511     6623     6656     6581     6573     6650     6670 
    6650     6697     6748     6712     6655     6639     6620     6589 
    6593     6628     6682     6774     6886     6968     7003     6988 
    6929     6820     6659     6523     6511     6583     6660     6750 
    6867     6939     6875     6728     6640     6669     6750     6813 
    6804     6705     6606     6629     6755     6852     6870     6835 
    6723     6547     6436     6484     6615     6712     6724     6659 
    6571     6570     6725     6940     7051     7022     6903     6740 
    6633     6664     6764     6762     6621     6528     6597     6714 
    6826     7018     7222     7242     7083     6914     6747     6489 
    6257     6227     6351     6500     6632     6723     6763     6825 
    6941     7003     6941     6828     6736     6671     6620     6575 
    6546     6558     6602     6658     6756     6901     7007     7044 
    7047     7006     6898     6740     6617     6624     6737     6837 
    6855     6801     6724     6666     6619     6593     6636     6714 
    6760     6777     6782     6789     6874     7053     7165     7068 
    6852     6696     6615     6550     6542     6594     6579     6507 
    6558     6686     6681     6612     6675     6775     6748     6650 
    6566     6515     6528     6613     6758     6925     7063     7125 
    7091     7002     6928     6871     6804     6747     6718     6716 
    6731     6690     6588     6546     6598     6673     6760     6868 
    6936     6928     6864     6787     6755     6799     6880     6910 
    6870     6843     6895     7001     7123     7242     7268     7125 
    6894     6713     6610     6554     6528     6512     6465     6380 
    6288     6235     6277     6399     6531     6627     6678     6720 
    6794     6876     6914     6901     6872     6822     6708     6627 
    6717     6880     6947     6947     6982     7021     6970     6840 
    6735     6702     6743     6859     7005     7034     6845     6534 
    6295     6234     6358     6646     6964     7111     7040     6887 
    6732     6570     6511     6646     6853     6960     6933     6831 
    6754     6802     6948     7059     7098     7121     7119     7071 
    7048     7091     7091     6957     6771     6631     6517     6420 
    6394     6454     6550     6632     6700     6760     6794     6802 
    6802     6785     6754     6748     6774     6808     6872     7011 
    7160     7182     7071     6961     6891     6808     6739     6724 
    6700     6636     6575     6497     6345     6207     6228     6366 
    6471     6531     6588     6598     6539     6519     6586     6633 
    6631     6696     6875     7082     7248     7361     7388     7300 
    7152     6980     6774     6588     6562     6678     6725     6621 
    6516     6497     6498     6466     6408     6347     6338     6450 
    6667     6858     6891     6783     6635     6543     6593     6732 
    6785     6745     6760     6812     6755     6632     6619     6740 
    6882     6972     6993     6936     6853     6847     6894     6845 
    6682     6525     6415     6355     6366     6409     6428     6421 
    6447     6570     6797     7055     7227     7240     7141     7053 
    7059     7155     7300     7392     7312     7121     6974     6847 
    6620     6358     6226     6249     6361     6551     6748     6785 
    6648     6525     6475     6389     6308     6373     6520     6604 
    6642     6701     6786     6906     7057     7169     7161     7053 
    6959     6960     7045     7094     6990     6766     6593     6565 
    6639     6748     6783     6647     6450     6386     6480     6617 
    6733     6837     6899     6879     6862     6909     6947     6948 
    6948     6886     6727     6606     6658     6835     6997     7045 
    6971     6871     6868     6979     7095     7106     6999     6872 
    6813     6824     6870     6897     6833     6670     6467     6316 
    6272     6346     6511     6674     6679     6531     6430     6488 
    6636     6787     6882     6886     6843     6813     6806     6809 
    6809     6820     6828     6764     6623     6478     6412     6470 
    6606     6704     6736     6750     6728     6679     6671     6709 
    6756     6794     6831     6851     6828     6787     6770     6758 
    6764     6812     6853     6895     7010     7119     7060     6849 
    6633     6463     6355     6376     6496     6593     6660     6762 
    6894     7025     7115     7101     6979     6872     6870     6905 
    6920     6960     7007     6974     6891     6840     6791     6729 
    6709     6720     6655     6500     6374     6335     6346     6409 
    6531     6629     6644     6655     6752     6879     6934     6912 
    6860     6862     6968     7128     7276     7383     7368     7198 
    6998     6893     6853     6841     6887     6939     6836     6562 
    6276     6106     6077     6157     6231     6189     6084     6076 
    6187     6324     6497     6708     6837     6836     6808     6826 
    6849     6844     6868     6943     6974     6921     6852     6813 
    6790     6754     6658     6505     6390     6399     6489     6548 
    6513     6428     6367     6385     6544     6822     7032     7059 
    7009     7005     7020     6997     6944     6891     6871     6903 
    6955     6956     6903     6852     6787     6696     6644     6666 
    6713     6758     6781     6735     6628     6548     6540     6542 
    6523     6542     6602     6685     6826     6956     6920     6771 
    6709     6783     6891     6941     6960     7040     7159     7225 
    7236     7183     7021     6820     6717     6709     6679     6597 
    6527     6484     6442     6458     6585     6736     6833     6916 
    7002     7049     7051     7042     7011     6916     6770     6666 
    6660     6696     6701     6705     6737     6758     6767     6820 
    6929     7072     7202     7242     7164     7022     6897     6835 
    6833     6868     6880     6806     6677     6571     6536     6605 
    6729     6779     6735     6681     6637     6594     6602     6678 
    6725     6706     6704     6731     6733     6763     6868     6929 
    6847     6700     6625     6681     6794     6874     6867     6745 
    6559     6431     6420     6502     6621     6704     6751     6820 
    6882     6870     6810     6760     6698     6613     6588     6671 
    6790     6883     6945     6941     6849     6740     6670     6636 
    6613     6563     6459     6332     6259     6292     6432     6643 
    6840     6943     6941     6889     6866     6920     6976     6934 
    6839     6808     6845     6872     6905     6994     7034     6903 
    6686     6509     6396     6361     6408     6496     6632     6836 
    7028     7098     7026     6875     6681     6455     6286     6272 
    6376     6493     6596     6704     6771     6762     6783     6926 
    7063     7052     6959     6891     6859     6887     6980     7042 
    6980     6844     6751     6752     6816     6855     6764     6547 
    6357     6311     6384     6517     6678     6779     6764     6725 
    6751     6805     6883     7024     7157     7149     7020     6909 
    6852     6789     6740     6714     6604     6403     6300     6370 
    6461     6501     6583     6714     6799     6863     6994     7150 
    7257     7345     7391     7283     7047     6862     6786     6731 
    6678     6644     6596     6565     6597     6624     6600     6600 
    6678     6779     6828     6813     6772     6717     6656     6631 
    6623     6583     6565     6627     6732     6851     6959     6994 
    6928     6798     6667     6628     6714     6844     6975     7123 
    7230     7213     7086     6940     6853     6802     6733     6650 
    6532     6366     6239     6231     6293     6377     6488     6594 
    6670     6760     6874     6937     6951     6991     7056     7057 
    6984     6943     6955     6940     6878     6797     6686     6579 
    6555     6596     6600     6508     6369     6262     6247     6347 
    6531     6705     6751     6666     6597     6624     6690     6752 
    6789     6760     6682     6629     6615     6597     6581     6601 
    6643     6664     6698     6778     6847     6872     6951     7096 
    7171     7149     7118     7060     6963     6916     6964     7040 
    7079     7072     7022     6933     6863     6875     6922     6902 
    6809     6687     6544     6388     6288     6324     6471     6608 
    6660     6674     6686     6666     6652     6718     6812     6858 
    6864     6856     6840     6818     6795     6772     6745     6731 
    6729     6706     6666     6648     6644     6625     6586     6523 
    6461     6457     6528     6597     6573     6505     6513     6613 
    6740     6870     6988     7065     7067     6978     6872     6848 
    6862     6855     6837     6789     6700     6632     6629     6679 
    6737     6763     6751     6713     6683     6690     6706     6709 
    6744     6867     7032     7136     7119     7042     6990     6975 
    6964     6951     6924     6856     6770     6737     6790     6891 
    6960     6920     6810     6747     6752     6756     6690     6543 
    6354     6203     6170     6269     6453     6683     6906     7025 
    7024     7002     7033     7084     7111     7102     7006     6783 
    6528     6382     6363     6390     6427     6470     6477     6454 
    6498     6609     6700     6783     6907     6980     6928     6864 
    6914     7024     7101     7161     7202     7155     7021     6875 
    6754     6679     6685     6729     6735     6717     6732     6748 
    6724     6708     6740     6782     6797     6801     6799     6787 
    6821     6928     7022     7017     6918     6772     6619     6513 
    6516     6582     6597     6527     6448     6431     6467     6520 
    6550     6552     6552     6577     6633     6697     6748     6817 
    6907     6980     7026     7041     6995     6895     6818     6810 
    6826     6804     6775     6748     6635     6430     6288     6319 
    6467     6627     6751     6832     6864     6872     6885     6880 
    6820     6735     6687     6658     6598     6524     6467     6440 
    6443     6480     6531     6551     6555     6606     6701     6801 
    6901     6987     7021     6990     6944     6925     6902     6839 
    6779     6785     6852     6922     6944     6883     6747     6609 
    6544     6535     6529     6535     6559     6554     6497     6467 
    6501     6523     6497     6515     6633     6820     7025     7230 
    7384     7392     7254     7109     7018     6940     6849     6736 
    6621     6524     6451     6431     6465     6509     6546     6574 
