Origin Time       2024/04/02 04:24:00
Lat.              40.133
Long.             141.712
Depth. (km)       71
Mag.              6.0
Station Code      HKD121
Station Lat.      43.3332
Station Long.     141.8553
Station Height(m) 28
Record Time       2024/04/02 04:26:06
Sampling Freq(Hz) 100Hz
Duration Time(s)  60
Dir.              E-W
Scale Factor      7845(gal)/8223790
Max. Acc. (gal)   1.040
Last Correction   2024/04/02 04:26:06
Memo.             
[...]
    3207     3215     3215     3214     3199     3165     3136     3115 
    3099     3102     3136     3181     3231     3279     3306     3303 
    3295     3303     3331     3364     3388     3393     3368     3318 
    3276     3256     3249     3267     3298     3308     3294     3267 
    3229     3187     3145     3114     3113     3117     3099     3088 
    3109     3144     3188     3234     3269     3303     3339     3366 
    3375     3370     3368     3375     3373     3366     3377     3387 
    3362     3311     3254     3191     3138     3118     3127     3164 
    3218     3269     3303     3311     3285     3235     3184     3154 
    3156     3175     3191     3192     3183     3173     3173     3181 
    3199     3223     3248     3268     3279     3260     3214     3180 
    3168     3161     3164     3180     3181     3161     3144     3130 
    3102     3068     3036     3014     3009     3011     3014     3026 
    3036     3028     3015     3017     3042     3096     3157     3218 
    3281     3327     3337     3314     3287     3275     3272     3272 
    3288     3311     3318     3318     3329     3341     3352     3364 
    3364     3348     3334     3319     3294     3271     3242     3211 
    3206     3231     3254     3261     3258     3244     3227     3223 
    3221     3211     3210     3221     3229     3233     3217     3188 
    3167     3153     3150     3175     3222     3271     3303     3304 
    3284     3262     3253     3250     3246     3227     3186     3132 
    3078     3045     3049     3068     3065     3041     3017     3007 
    3037     3105     3176     3218     3227     3221     3215     3218 
    3229     3238     3238     3240     3246     3246     3244     3250 
    3267     3289     3311     3312     3287     3264     3273     3310 
    3357     3388     3387     3365     3348     3342     3335     3316 
    3308     3300     3262     3223     3200     3173     3149     3127 
    3092     3072     3099     3150     3187     3221     3264     3303 
    3326     3339     3354     3372     3384     3383     3360     3316 
    3272     3226     3194     3207     3240     3244     3234     3226 
    3217     3221     3252     3277     3265     3234     3204     3177 
    3156     3146     3146     3149     3152     3153     3161     3181 
    3198     3213     3226     3238     3257     3279     3281     3262 
    3249     3252     3257     3268     3284     3285     3268     3250 
    3241     3250     3277     3296     3281     3226     3153     3095 
    3075     3092     3119     3153     3202     3240     3241     3218 
    3181     3133     3098     3086     3090     3099     3102     3103 
    3125     3160     3188     3218     3264     3323     3376     3407 
    3422     3410     3364     3303     3254     3227     3208     3183 
    3157     3119     3060     3003     2974     2976     2999     3026 
    3041     3045     3053     3082     3118     3142     3159     3180 
    3203     3229     3260     3283     3285     3280     3280     3271 
    3260     3272     3292     3300     3310     3318     3307     3281 
    3252     3234     3246     3273     3289     3294     3292     3284 
    3275     3262     3235     3184     3132     3098     3088     3105 
    3130     3150     3176     3214     3248     3287     3356     3431 
    3492     3545     3566     3539     3491     3451     3427     3420 
    3415     3385     3337     3281     3227     3196     3181     3150 
    3113     3078     3022     2960     2941     2959     2976     3010 
    3075     3138     3183     3229     3268     3277     3273     3287 
    3299     3302     3318     3342     3342     3315     3281     3244 
    3214     3218     3240     3248     3248     3249     3227     3186 
    3150     3130     3117     3103     3083     3064     3055     3061 
    3095     3153     3210     3252     3284     3311     3322     3304 
    3277     3272     3291     3319     3345     3356     3349     3330 
    3306     3287     3268     3238     3213     3202     3184     3168 
    3172     3173     3159     3146     3140     3137     3156     3198 
    3240     3265     3260     3225     3195     3192     3207     3227 
    3244     3256     3267     3267     3260     3262     3260     3245 
    3233     3218     3191     3180     3195     3195     3165     3125 
    3094     3087     3118     3180     3235     3258     3254     3241 
    3231     3233     3237     3240     3230     3208     3187     3160 
    3129     3110     3106     3121     3152     3186     3219     3257 
    3279     3264     3233     3204     3188     3187     3196     3225 
    3260     3260     3225     3194     3172     3167     3199     3262 
    3323     3369     3400     3400     3368     3335     3314     3300 
    3300     3311     3316     3300     3268     3231     3186     3146 
    3132     3126     3117     3117     3125     3137     3172     3222 
    3250     3258     3276     3295     3288     3281     3303     3321 
    3304     3284     3267     3226     3177     3161     3183     3213 
    3225     3222     3218     3214     3210     3211     3226     3238 
    3226     3188     3148     3126     3123     3126     3132     3138 
    3134     3127     3136     3157     3179     3200     3222     3229 
    3221     3217     3223     3246     3285     3323     3349     3373 
    3388     3379     3353     3318     3275     3245     3231     3215 
    3194     3184     3177     3156     3123     3100     3107     3132 
    3154     3172     3181     3176     3168     3181     3208     3230 
    3245     3257     3256     3250     3257     3276     3298     3306 
    3283     3242     3210     3180     3144     3122     3118     3113 
    3107     3109     3109     3117     3129     3141     3163     3199 
    3235     3254     3254     3254     3258     3257     3262     3275 
    3291     3323     3372     3414     3446     3468     3457     3418 
    3381     3338     3283     3249     3254     3277     3306     3329 
    3337     3315     3265     3211     3175     3153     3122     3098 
    3111     3145     3168     3181     3187     3181     3171     3160 
    3154     3148     3130     3118     3138     3180     3213     3238 
    3273     3304     3318     3322     3322     3303     3254     3198 
    3172     3188     3208     3207     3194     3172     3134     3100 
    3095     3115     3144     3177     3217     3261     3298     3314 
    3311     3310     3315     3310     3287     3254     3208     3153 
    3117     3110     3125     3148     3180     3218     3252     3276 
    3295     3304     3291     3253     3198     3148     3134     3148 
    3157     3156     3164     3180     3196     3218     3227     3217 
    3195     3159     3117     3092     3090     3107     3136     3165 
    3203     3254     3291     3307     3318     3322     3315     3308 
    3294     3273     3273     3280     3273     3249     3204     3145 
    3103     3092     3100     3121     3141     3140     3123     3118 
    3122     3137     3167     3196     3223     3258     3292     3311 
    3314     3302     3269     3223     3188     3181     3194     3218 
    3240     3245     3237     3227     3226     3241     3265     3281 
    3296     3319     3337     3339     3337     3322     3292     3272 
    3287     3325     3352     3361     3380     3393     3379     3360 
    3341     3302     3253     3217     3181     3142     3117     3111 
    3123     3160     3214     3260     3273     3253     3229     3223 
    3226     3240     3264     3271     3250     3222     3199     3175 
    3153     3146     3152     3161     3175     3188     3190     3180 
    3163     3132     3103     3106     3142     3184     3221     3249 
    3258     3256     3249     3245     3240     3235     3244     3269 
    3303     3326     3331     3331     3331     3322     3298     3261 
    3226     3200     3186     3173     3165     3161     3150     3144 
    3146     3154     3168     3183     3195     3214     3249     3298 
    3358     3414     3451     3474     3483     3473     3439     3369 
    3284     3225     3202     3198     3194     3177     3152     3134 
    3137     3148     3159     3153     3130     3110     3109     3136 
    3188     3242     3265     3235     3172     3119     3094     3087 
    3099     3114     3100     3051     2998     2961     2943     2941 
    2972     3030     3098     3165     3235     3304     3361     3402 
    3422     3418     3397     3373     3339     3295     3248     3202 
    3157     3105     3037     2983     2968     2987     3037     3118 
    3194     3235     3257     3279     3300     3323     3348     3358 
    3343     3315     3307     3331     3365     3393     3404     3402 
    3404     3402     3375     3338     3300     3258     3222     3196 
    3172     3149     3123     3096     3078     3078     3105     3167 
    3253     3342     3420     3476     3484     3441     3377     3311 
    3252     3223     3211     3192     3165     3113     3022     2928 
    2857     2801     2778     2822     2914     3009     3102     3195 
    3267     3304     3329     3350     3368     3377     3379     3372 
    3369     3377     3399     3433     3457     3441     3376     3267 
    3130     3003     2922     2895     2917     3006     3149     3295 
    3404     3453     3423     3329     3194     3052     2951     2907 
    2911     2959     3040     3141     3248     3337     3389     3397 
    3357     3284     3190     3099     3038     3032     3084     3187 
    3321     3456     3566     3658     3740     3807     3831     3767 
    3611     3422     3262     3152     3073     3024     3007     3025 
    3057     3095     3142     3203     3260     3298     3321     3322 
    3283     3221     3175     3168     3198     3250     3291     3281 
    3215     3117     3007     2910     2844     2806     2813     2886 
    2988     3065     3107     3129     3156     3222     3333     3458 
    3565     3632     3669     3692     3701     3704     3705     3689 
    3640     3558     3441     3303     3167     3055     2982     2943 
    2924     2926     2949     2988     3051     3123     3175     3199 
    3199     3156     3068     2974     2907     2886     2917     2991 
    3082     3157     3206     3221     3202     3187     3200     3237 
    3291     3349     3354     3275     3141     3019     2971     3022 
    3157     3315     3426     3443     3375     3269     3181     3154 
    3210     3318     3399     3391     3291     3138     2984     2891 
    2909     3024     3168     3292     3381     3407     3342     3229 
    3137     3090     3088     3121     3148     3138     3121     3130 
    3171     3250     3365     3488     3586     3645     3647     3562 
    3388     3188     3014     2883     2814     2802     2810     2814 
    2830     2878     2948     3006     3013     2964     2905     2883 
    2906     2960     3038     3133     3242     3381     3539     3678 
    3765     3784     3731     3600     3406     3191     3003     2867 
    2793     2793     2868     2991     3125     3260     3380     3458 
    3474     3438     3356     3260     3196     3196     3260     3370 
    3500     3605     3658     3658     3612     3527     3419     3308 
    3215     3150     3121     3126     3159     3215     3291     3384 
    3488     3586     3636     3613     3514     3361     3187     3036 
    2928     2864     2848     2860     2875     2898     2948     3018 
    3087     3129     3133     3125     3125     3129     3127     3127 
    3144     3190     3253     3302     3302     3249     3167     3103 
    3103     3200     3377     3580     3744     3832     3838     3758 
    3599     3402     3225     3102     3059     3106     3210     3342 
    3491     3635     3753     3813     3784     3653     3466     3276 
    3111     3005     2979     3022     3107     3204     3288     3343 
    3361     3339     3280     3206     3140     3094     3078     3098 
    3146     3217     3284     3304     3256     3149     2999     2824 
    2660     2552     2521     2566     2674     2816     2953     3056 
    3122     3163     3184     3206     3260     3346     3449     3532 
    3555     3503     3408     3295     3175     3069     2972     2843 
    2685     2543     2461     2475     2600     2805     3042     3245 
    3370     3424     3439     3426     3384     3315     3222     3105 
    2994     2913     2851     2806     2799     2867     3049     3322 
    3626     3886     4027     4020     3886     3661     3400     3154 
    2952     2810     2735     2706     2694     2671     2668     2728 
    2857     3053     3299     3546     3748     3910     4048     4153 
    4217     4248     4249     4220     4160     4067     3915     3696 
    3422     3123     2866     2704     2636     2647     2712     2795 
    2863     2898     2910     2934     3033     3233     3492     3731 
    3851     3804     3636     3443     3294     3206     3165     3144 
    3110     3048     2967     2903     2872     2867     2886     2934 
    3006     3114     3254     3383     3462     3476     3423     3333 
    3256     3230     3268     3349     3408     3395     3323     3249 
    3215     3238     3304     3357     3345     3261     3153     3084 
    3110     3241     3450     3694     3929     4117     4225     4232 
    4156     4021     3828     3576     3284     2990     2736     2540 
    2381     2250     2158     2131     2181     2322     2544     2820 
    3099     3330     3472     3520     3514     3496     3491     3492 
    3487     3472     3439     3385     3330     3288     3249     3206 
    3145     3034     2866     2666     2461     2290     2201     2215 
    2320     2485     2668     2841     2997     3137     3269     3383 
    3456     3465     3400     3285     3159     3069     3044     3098 
    3207     3321     3411     3472     3504     3527     3557     3578 
    3572     3535     3483     3447     3462     3524     3600     3666 
    3701     3677     3580     3426     3242     3079     2999     3021 
    3119     3250     3345     3354     3306     3227     3141     3088 
    3090     3114     3121     3107     3092     3092     3105     3126 
    3165     3231     3315     3392     3443     3454     3412     3321 
    3204     3098     3030     3028     3090     3199     3307     3357 
    3333     3254     3161     3083     3019     2957     2903     2863 
    2837     2832     2833     2841     2886     2995     3172     3389 
    3592     3726     3769     3736     3655     3562     3497     3468 
    3451     3430     3379     3284     3164     3053     2965     2911 
    2918     2982     3076     3177     3241     3227     3157     3082 
    3051     3099     3229     3399     3546     3632     3669     3678 
    3677     3665     3623     3542     3433     3322     3234     3168 
    3105     3041     2987     2948     2936     2983     3084     3207 
    3312     3348     3298     3198     3092     3015     2984     2988 
    2988     2961     2921     2884     2874     2899     2937     2959 
    2961     2944     2916     2897     2895     2911     2955     3019 
    3095     3187     3308     3433     3516     3538     3488     3379 
    3250     3144     3080     3064     3080     3094     3079     3048 
    3038     3080     3176     3298     3404     3477     3514     3528 
    3546     3578     3612     3612     3555     3454     3343     3271 
    3264     3318     3403     3477     3512     3505     3483     3462 
    3445     3427     3402     3362     3311     3261     3225     3206 
    3192     3171     3136     3080     3022     2988     2999     3063 
    3159     3260     3358     3449     3526     3592     3651     3694 
    3711     3699     3658     3589     3501     3403     3277     3118 
    2944     2789     2689     2671     2739     2860     2990     3090 
    3145     3169     3192     3218     3222     3195     3150     3094 
    3034     2990     2983     3009     3044     3071     3076     3059 
    3044     3057     3102     3169     3249     3323     3373     3385 
    3364     3331     3325     3364     3431     3497     3531     3512 
    3457     3395     3321     3219     3099     2974     2872     2828 
    2840     2857     2847     2802     2739     2689     2691     2763 
    2883     3017     3142     3250     3346     3451     3570     3686 
    3769     3809     3804     3746     3650     3537     3408     3276 
    3173     3115     3084     3073     3084     3098     3096     3087 
    3069     3049     3064     3134     3222     3287     3307     3273 
    3218     3180     3159     3142     3136     3133     3105     3029 
    2918     2809     2743     2752     2848     3017     3221     3423 
    3593     3712     3762     3742     3658     3532     3411     3329 
    3281     3279     3323     3387     3441     3460     3424     3341 
    3234     3129     3030     2940     2875     2840     2837     2875 
    2928     2960     2965     2960     2975     3036     3140     3265 
    3391     3500     3592     3663     3697     3696     3680     3650 
    3609     3569     3522     3445     3339     3211     3072     2948 
    2855     2801     2809     2875     2964     3038     3078     3083 
    3079     3082     3100     3137     3190     3257     3335     3411 
    3461     3476     3470     3466     3469     3488     3522     3551 
    3554     3515     3429     3321     3238     3207     3218     3245 
    3267     3246     3154     2994     2810     2678     2644     2722 
    2879     3056     3203     3303     3364     3402     3441     3477 
    3501     3519     3530     3522     3488     3433     3372     3315 
    3261     3218     3204     3218     3235     3234     3194     3115 
    3030     2960     2909     2893     2906     2929     2957     2995 
    3041     3091     3129     3142     3145     3160     3203     3275 
    3372     3476     3542     3532     3451     3335     3225     3142 
    3105     3111     3132     3127     3086     3014     2928     2852 
    2818     2851     2949     3100     3273     3433     3545     3581 
    3543     3469     3402     3369     3362     3343     3285     3198 
    3103     3026     2975     2957     2978     3042     3142     3244 
    3310     3335     3343     3343     3310     3229     3114     2991 
    2913     2905     2951     3022     3080     3094     3069     3034 
    3005     2986     2975     2971     2986     3046     3168     3329 
    3488     3616     3694     3715     3680     3600     3499     3404 
    3337     3289     3254     3235     3235     3250     3277     3315 
    3349     3358     3350     3345     3360     3402     3472     3545 
    3599     3619     3604     3581     3566     3543     3508     3462 
    3403     3354     3333     3322     3310     3299     3298     3308 
    3335     3375     3420     3456     3469     3456     3403     3308 
    3196     3094     3015     2955     2890     2805     2713     2648 
    2648     2718     2832     2953     3046     3098     3126     3163 
    3233     3342     3462     3558     3616     3630     3600     3539 
    3457     3350     3234     3130     3046     2984     2943     2901 
    2837     2762     2687     2633     2632     2709     2840     2978 
