Origin Time       2024/04/02 04:24:00
Lat.              40.133
Long.             141.712
Depth. (km)       71
Mag.              6.0
Station Code      HKD103
Station Lat.      42.7275
Station Long.     142.2973
Station Height(m) 86
Record Time       2024/04/02 04:25:55
Sampling Freq(Hz) 100Hz
Duration Time(s)  60
Dir.              U-D
Scale Factor      3920(gal)/6182761
Max. Acc. (gal)   0.894
Last Correction   2024/04/02 04:25:55
Memo.             
[...]
   -3367    -3437    -3513    -3577    -3618    -3649    -3693    -3758 
   -3830    -3872    -3850    -3758    -3632    -3535    -3504    -3516 
   -3546    -3597    -3676    -3763    -3814    -3811    -3788    -3792 
   -3856    -3974    -4092    -4154    -4151    -4109    -4040    -3957 
   -3888    -3859    -3883    -3946    -4021    -4084    -4124    -4128 
   -4081    -4000    -3928    -3901    -3930    -3978    -3981    -3918 
   -3830    -3759    -3704    -3629    -3515    -3388    -3301    -3293 
   -3356    -3457    -3575    -3694    -3780    -3818    -3845    -3904 
   -4010    -4133    -4227    -4281    -4323    -4365    -4389    -4384 
   -4373    -4369    -4348    -4292    -4221    -4166    -4112    -4025 
   -3901    -3789    -3744    -3759    -3790    -3806    -3793    -3761 
   -3719    -3668    -3625    -3621    -3660    -3716    -3775    -3844 
   -3929    -4004    -4019    -3971    -3930    -3961    -4052    -4129 
   -4134    -4062    -3930    -3772    -3627    -3524    -3455    -3375 
   -3264    -3162    -3140    -3232    -3410    -3606    -3754    -3837 
   -3877    -3910    -3956    -4014    -4064    -4095    -4109    -4100 
   -4068    -4034    -4019    -4042    -4113    -4225    -4355    -4449 
   -4454    -4367    -4227    -4077    -3949    -3863    -3823    -3826 
   -3862    -3909    -3951    -3979    -3992    -4001    -3999    -3959 
   -3894    -3861    -3879    -3900    -3896    -3893    -3920    -3975 
   -4028    -4052    -4055    -4059    -4052    -4021    -3995    -4012 
   -4045    -4020    -3910    -3774    -3675    -3618    -3573    -3530 
   -3507    -3508    -3506    -3478    -3451    -3483    -3600    -3766 
   -3913    -3984    -3960    -3877    -3779    -3694    -3643    -3625 
   -3626    -3639    -3669    -3732    -3823    -3914    -3995    -4070 
   -4132    -4180    -4215    -4222    -4190    -4123    -4053    -4004 
   -3974    -3948    -3918    -3883    -3860    -3862    -3868    -3838 
   -3764    -3670    -3592    -3548    -3528    -3528    -3564    -3648 
   -3763    -3884    -3991    -4050    -4034    -3958    -3869    -3820 
   -3846    -3931    -4034    -4133    -4221    -4290    -4332    -4351 
   -4367    -4395    -4427    -4438    -4400    -4306    -4162    -3984 
   -3800    -3639    -3524    -3458    -3425    -3409    -3410    -3444 
   -3508    -3569    -3584    -3547    -3502    -3520    -3614    -3742 
   -3863    -3959    -4014    -4027    -4016    -3979    -3908    -3813 
   -3707    -3601    -3514    -3460    -3442    -3467    -3535    -3635 
   -3750    -3852    -3943    -4032    -4099    -4121    -4101    -4062 
   -4041    -4068    -4130    -4177    -4167    -4106    -4032    -3970 
   -3922    -3903    -3926    -3991    -4070    -4115    -4098    -4043 
   -4000    -3984    -3973    -3952    -3913    -3862    -3821    -3813 
   -3835    -3870    -3901    -3907    -3883    -3861    -3872    -3905 
   -3931    -3931    -3907    -3895    -3912    -3928    -3915    -3874 
   -3837    -3828    -3848    -3882    -3917    -3955    -4005    -4048 
   -4046    -4012    -3992    -3993    -3991    -3977    -3967    -3992 
   -4051    -4089    -4050    -3948    -3848    -3800    -3807    -3839 
   -3866    -3868    -3857    -3865    -3911    -3991    -4076    -4127 
   -4127    -4095    -4067    -4052    -4042    -4033    -4020    -4009 
   -4020    -4057    -4083    -4069    -4015    -3951    -3905    -3874 
   -3843    -3816    -3811    -3844    -3907    -3972    -4010    -4008 
   -3976    -3940    -3910    -3880    -3847    -3815    -3768    -3672 
   -3521    -3352    -3214    -3157    -3193    -3271    -3339    -3380 
   -3404    -3428    -3474    -3559    -3664    -3750    -3802    -3838 
   -3864    -3881    -3894    -3924    -4001    -4115    -4208    -4221 
   -4145    -4001    -3832    -3686    -3580    -3525    -3547    -3649 
   -3788    -3910    -3986    -4005    -3976    -3920    -3869    -3858 
   -3875    -3863    -3795    -3704    -3653    -3682    -3785    -3915 
   -4026    -4094    -4116    -4109    -4111    -4133    -4157    -4163 
   -4153    -4154    -4170    -4150    -4043    -3866    -3679    -3532 
   -3432    -3378    -3374    -3419    -3496    -3591    -3701    -3827 
   -3955    -4056    -4115    -4145    -4154    -4139    -4116    -4116 
   -4140    -4138    -4061    -3928    -3784    -3645    -3519    -3422 
   -3396    -3485    -3673    -3903    -4126    -4309    -4419    -4435 
   -4375    -4285    -4198    -4118    -4023    -3901    -3776    -3695 
   -3685    -3712    -3702    -3640    -3581    -3567    -3584    -3598 
   -3598    -3605    -3643    -3709    -3787    -3871    -3950    -4021 
   -4091    -4164    -4223    -4244    -4201    -4093    -3953    -3825 
   -3736    -3695    -3712    -3774    -3827    -3833    -3807    -3788 
   -3783    -3782    -3798    -3860    -3951    -4016    -4029    -4015 
   -4012    -4033    -4049    -4043    -4031    -4039    -4055    -4027 
   -3932    -3828    -3785    -3807    -3842    -3848    -3837    -3862 
   -3953    -4083    -4211    -4325    -4419    -4459    -4417    -4314 
   -4220    -4179    -4182    -4185    -4146    -4055    -3933    -3807 
   -3690    -3607    -3590    -3642    -3725    -3789    -3791    -3724 
   -3622    -3546    -3550    -3648    -3803    -3953    -4057    -4130 
   -4206    -4274    -4286    -4214    -4080    -3948    -3871    -3847 
   -3833    -3793    -3733    -3685    -3671    -3680    -3676    -3640 
   -3603    -3608    -3663    -3747    -3832    -3892    -3914    -3907 
   -3888    -3879    -3899    -3924    -3907    -3852    -3819    -3852 
   -3934    -4010    -4051    -4067    -4068    -4051    -4010    -3930 
   -3802    -3666    -3579    -3560    -3577    -3596    -3610    -3636 
   -3678    -3717    -3744    -3760    -3756    -3709    -3626    -3556 
   -3545    -3591    -3646    -3671    -3671    -3660    -3630    -3593 
   -3598    -3674    -3808    -3954    -4057    -4100    -4094    -4043 
   -3953    -3841    -3736    -3677    -3690    -3753    -3830    -3889 
   -3943    -4041    -4194    -4338    -4398    -4357    -4267    -4184 
   -4113    -4045    -3990    -3968    -3978    -3991    -3972    -3930 
   -3891    -3863    -3831    -3784    -3726    -3683    -3698    -3780 
   -3884    -3963    -4006    -4028    -4055    -4083    -4089    -4070 
   -4047    -4022    -3987    -3946    -3911    -3873    -3811    -3742 
   -3732    -3824    -3964    -4049    -4023    -3922    -3835    -3818 
   -3871    -3948    -3983    -3946    -3858    -3776    -3734    -3713 
   -3675    -3608    -3526    -3458    -3433    -3445    -3477    -3541 
   -3653    -3795    -3914    -3975    -3999    -4014    -4019    -3999 
   -3941    -3863    -3824    -3883    -4017    -4159    -4281    -4395 
   -4509    -4604    -4632    -4557    -4396    -4211    -4058    -3958 
   -3887    -3813    -3744    -3706    -3699    -3706    -3709    -3715 
   -3742    -3798    -3866    -3921    -3962    -4003    -4028    -4006 
   -3925    -3823    -3769    -3794    -3840    -3830    -3770    -3723 
   -3705    -3682    -3632    -3575    -3555    -3591    -3651    -3703 
   -3742    -3776    -3826    -3910    -4015    -4109    -4168    -4172 
   -4097    -3935    -3710    -3491    -3358    -3329    -3369    -3440 
   -3514    -3585    -3676    -3786    -3895    -4001    -4107    -4205 
   -4290    -4357    -4404    -4440    -4464    -4443    -4341    -4152 
   -3925    -3740    -3624    -3531    -3446    -3412    -3463    -3581 
   -3710    -3808    -3885    -3969    -4059    -4119    -4113    -4039 
   -3914    -3755    -3606    -3523    -3523    -3581    -3657    -3732 
   -3800    -3846    -3843    -3814    -3816    -3871    -3971    -4094 
   -4206    -4259    -4241    -4178    -4088    -3965    -3805    -3651 
   -3563    -3572    -3669    -3816    -3971    -4105    -4213    -4295 
   -4328    -4273    -4145    -4027    -3978    -3981    -3986    -3976 
   -3942    -3863    -3754    -3681    -3690    -3761    -3810    -3759 
   -3623    -3487    -3412    -3408    -3483    -3646    -3857    -4042 
   -4152    -4188    -4192    -4188    -4160    -4081    -3973    -3886 
   -3857    -3888    -3977    -4121    -4282    -4370    -4293    -4066 
   -3818    -3655    -3594    -3602    -3652    -3720    -3770    -3777 
   -3763    -3790    -3905    -4064    -4164    -4158    -4096    -4036 
   -3991    -3959    -3943    -3958    -4011    -4068    -4072    -4003 
   -3884    -3767    -3717    -3770    -3879    -3948    -3943    -3919 
   -3946    -4036    -4144    -4221    -4255    -4234    -4144    -3999 
   -3862    -3788    -3766    -3747    -3703    -3635    -3549    -3463 
   -3418    -3467    -3621    -3820    -3972    -4037    -4041    -4007 
   -3909    -3747    -3570    -3466    -3496    -3632    -3790    -3917 
   -3970    -3918    -3793    -3659    -3560    -3519    -3542    -3632 
   -3778    -3931    -4029    -4065    -4072    -4067    -4030    -3951 
   -3852    -3761    -3683    -3625    -3595    -3603    -3665    -3771 
   -3883    -3948    -3927    -3845    -3776    -3777    -3847    -3949 
   -4047    -4133    -4210    -4267    -4285    -4250    -4174    -4089 
   -4022    -3962    -3858    -3687    -3508    -3405    -3409    -3483 
   -3548    -3563    -3577    -3670    -3856    -4046    -4136    -4099 
   -3992    -3896    -3846    -3813    -3741    -3597    -3405    -3228 
   -3130    -3137    -3227    -3346    -3451    -3519    -3547    -3549 
   -3558    -3611    -3726    -3869    -3977    -4010    -3991    -3969 
   -3965    -3976    -3995    -4005    -3995    -3988    -4020    -4082 
   -4137    -4165    -4182    -4195    -4175    -4106    -4005    -3902 
   -3832    -3818    -3863    -3960    -4101    -4253    -4357    -4374 
   -4316    -4231    -4157    -4112    -4098    -4100    -4095    -4086 
   -4083    -4084    -4102    -4134    -4138    -4080    -3975    -3883 
   -3856    -3879    -3889    -3839    -3745    -3668    -3658    -3717 
   -3812    -3906    -3968    -3997    -4027    -4093    -4201    -4303 
   -4321    -4232    -4104    -4020    -4010    -4035    -4037    -4001 
   -3953    -3914    -3884    -3855    -3829    -3823    -3837    -3835 
   -3797    -3755    -3730    -3704    -3666    -3656    -3742    -3904 
   -4014    -3978    -3839    -3733    -3746    -3846    -3956    -4033 
   -4067    -4046    -3953    -3811    -3687    -3635    -3636    -3637 
   -3608    -3564    -3550    -3604    -3721    -3856    -3970    -4055 
   -4110    -4113    -4065    -4022    -4030    -4063    -4052    -3986 
   -3949    -4001    -4082    -4084    -3989    -3886    -3849    -3857 
   -3867    -3891    -3941    -3979    -3968    -3919    -3880    -3897 
   -3959    -4016    -4046    -4059    -4057    -4044    -4042    -4056 
   -4061    -4019    -3921    -3817    -3794    -3875    -4008    -4122 
   -4183    -4178    -4107    -3992    -3875    -3784    -3734    -3731 
   -3767    -3821    -3869    -3873    -3798    -3671    -3566    -3539 
   -3597    -3718    -3854    -3943    -3971    -3977    -3988    -3976 
   -3903    -3778    -3646    -3541    -3457    -3367    -3299    -3310 
   -3388    -3473    -3557    -3651    -3737    -3776    -3770    -3761 
   -3770    -3768    -3735    -3706    -3721    -3762    -3781    -3755 
   -3686    -3609    -3577    -3593    -3610    -3605    -3603    -3628 
   -3669    -3699    -3736    -3812    -3896    -3927    -3889    -3829 
   -3807    -3834    -3878    -3925    -4009    -4147    -4271    -4294 
   -4224    -4140    -4107    -4138    -4198    -4245    -4287    -4331 
   -4343    -4302    -4230    -4166    -4145    -4153    -4118    -3997 
   -3829    -3688    -3625    -3647    -3710    -3744    -3705    -3604 
   -3501    -3463    -3513    -3626    -3768    -3907    -4002    -4020 
   -4002    -4013    -4065    -4116    -4123    -4081    -4018    -3973 
   -3955    -3932    -3862    -3735    -3585    -3467    -3417    -3442 
   -3525    -3644    -3770    -3867    -3912    -3924    -3945    -4000 
   -4091    -4203    -4305    -4355    -4328    -4251    -4169    -4100 
   -4048    -4014    -4002    -4025    -4106    -4255    -4442    -4599 
   -4675    -4679    -4633    -4538    -4403    -4261    -4133    -4018 
   -3931    -3905    -3945    -4027    -4138    -4278    -4428    -4556 
   -4614    -4579    -4483    -4365    -4229    -4085    -3972    -3911 
   -3871    -3816    -3738    -3679    -3692    -3766    -3843    -3889 
   -3912    -3923    -3902    -3842    -3783    -3751    -3729    -3671 
   -3554    -3426    -3372    -3426    -3574    -3782    -3991    -4142 
   -4191    -4124    -3969    -3785    -3622    -3486    -3346    -3196 
   -3069    -2999    -2986    -3001    -3008    -3011    -3033    -3083 
   -3151    -3228    -3305    -3362    -3393    -3421    -3467    -3540 
   -3628    -3723    -3841    -3985    -4148    -4321    -4457    -4486 
   -4387    -4216    -4065    -3991    -3975    -3958    -3910    -3811 
   -3646    -3437    -3249    -3137    -3086    -3069    -3107    -3223 
   -3377    -3505    -3582    -3640    -3716    -3812    -3892    -3913 
   -3881    -3844    -3854    -3921    -4013    -4083    -4099    -4054 
   -3967    -3874    -3807    -3776    -3755    -3700    -3613    -3548 
   -3559    -3653    -3773    -3867    -3944    -4025    -4110    -4191 
   -4237    -4211    -4113    -3975    -3838    -3741    -3687    -3637 
   -3548    -3418    -3295    -3228    -3201    -3193    -3231    -3355 
   -3557    -3777    -3960    -4100    -4245    -4459    -4748    -5037 
   -5231    -5292    -5247    -5130    -4957    -4735    -4492    -4284 
   -4158    -4119    -4142    -4206    -4270    -4289    -4266    -4227 
   -4189    -4153    -4101    -4020    -3921    -3820    -3736    -3683 
   -3666    -3670    -3658    -3647    -3694    -3809    -3953    -4063 
   -4098    -4073    -4037    -4003    -3929    -3784    -3600    -3438 
   -3342    -3336    -3424    -3583    -3763    -3910    -4011    -4096 
   -4187    -4263    -4288    -4250    -4171    -4079    -3980    -3874 
   -3771    -3687    -3630    -3605    -3635    -3746    -3908    -4035 
   -4072    -4052    -4033    -4032    -4019    -3959    -3861    -3779 
   -3766    -3828    -3922    -3992    -4017    -4006    -3976    -3960 
   -3993    -4061    -4089    -4006    -3832    -3678    -3632    -3694 
   -3828    -4008    -4211    -4409    -4569    -4660    -4645    -4503 
   -4264    -4034    -3928    -3978    -4122    -4270    -4373    -4443 
   -4485    -4473    -4396    -4269    -4110    -3948    -3829    -3770 
   -3743    -3717    -3667    -3590    -3512    -3458    -3433    -3444 
   -3478    -3490    -3444    -3358    -3302    -3325    -3424    -3567 
   -3719    -3840    -3910    -3942    -3947    -3920    -3847    -3742 
   -3658    -3630    -3650    -3698    -3763    -3848    -3952    -4072 
   -4223    -4420    -4621    -4751    -4751    -4626    -4453    -4312 
   -4225    -4166    -4097    -3989    -3842    -3679    -3521    -3377 
   -3263    -3217    -3264    -3398    -3552    -3631    -3609    -3545 
   -3499    -3483    -3503    -3556    -3631    -3734    -3877    -4030 
   -4134    -4164    -4139    -4070    -3960    -3829    -3692    -3564 
   -3471    -3420    -3406    -3420    -3431    -3395    -3313    -3244 
   -3245    -3321    -3423    -3488    -3469    -3376    -3286    -3266 
   -3313    -3391    -3474    -3540    -3572    -3580    -3602    -3655 
   -3723    -3771    -3771    -3728    -3679    -3637    -3601    -3584 
   -3601    -3664    -3779    -3942    -4147    -4366    -4550    -4649 
   -4634    -4520    -4355    -4171    -3988    -3835    -3717    -3615 
   -3545    -3551    -3617    -3676    -3690    -3697    -3764    -3918 
   -4137    -4378    -4596    -4758    -4848    -4873    -4860    -4838 
   -4825    -4823    -4821    -4810    -4772    -4683    -4543    -4385 
   -4245    -4136    -4029    -3900    -3761    -3620    -3464    -3287 
   -3096    -2910    -2777    -2745    -2822    -2979    -3192    -3447 
   -3708    -3917    -4049    -4140    -4242    -4390    -4557    -4680 
   -4708    -4630    -4487    -4337    -4208    -4107    -4033    -3979 
   -3913    -3811    -3689    -3583    -3520    -3497    -3509    -3565 
   -3650    -3726    -3789    -3857    -3934    -4014    -4086    -4135 
   -4143    -4075    -3922    -3741    -3594    -3499    -3433    -3354 
   -3244    -3124    -3036    -2993    -2996    -3056    -3172    -3308 
   -3418    -3498    -3588    -3717    -3856    -3964    -4038    -4088 
   -4120    -4136    -4142    -4146    -4147    -4131    -4087    -4028 
   -3972    -3938    -3945    -4005    -4101    -4199    -4266    -4262 
   -4163    -3996    -3840    -3744    -3702    -3697    -3732    -3826 
   -3983    -4160    -4311    -4418    -4473    -4465    -4404    -4333 
   -4311    -4350    -4397    -4399    -4342    -4237    -4112    -4021 
   -4015    -4070    -4093    -4021    -3896    -3819    -3858    -3971 
   -4072    -4105    -4057    -3944    -3812    -3728    -3729    -3799 
   -3875    -3894    -3847    -3784    -3757    -3792    -3866    -3923 
   -3920    -3866    -3796    -3719    -3649    -3606    -3581    -3558 
   -3518    -3414    -3235    -3054    -2968    -3021    -3188    -3389 
   -3540    -3612    -3624    -3599    -3571    -3570    -3602    -3644 
   -3670    -3680    -3688    -3690    -3670    -3621    -3547    -3451 
   -3335    -3243    -3232    -3328    -3516    -3750    -3977    -4169 
   -4317    -4420    -4485    -4533    -4579    -4621    -4661    -4706 
   -4754    -4792    -4794    -4745    -4669    -4596    -4538    -4502 
   -4481    -4452    -4402    -4340    -4277    -4202    -4105    -4006 
   -3943    -3947    -4014    -4102    -4168    -4181    -4142    -4093 
   -4073    -4079    -4087    -4088    -4098    -4140    -4191    -4220 
   -4221    -4207    -4191    -4185    -4205    -4243    -4269    -4261 
   -4219    -4153    -4090    -4069    -4073    -4050    -3967    -3807 
   -3572    -3307    -3078    -2933    -2865    -2821    -2771    -2743 
   -2768    -2842    -2927    -2984    -3019    -3067    -3158    -3304 
   -3504    -3717    -3901    -4036    -4091    -4048    -3923    -3731 
   -3489    -3231    -2991    -2783    -2622    -2535    -2526    -2560 
   -2600    -2646    -2738    -2923    -3206    -3557    -3917    -4209 
   -4397    -4525    -4646    -4776    -4892    -4948    -4914    -4798 
   -4628    -4427    -4221    -4041    -3912    -3846    -3824    -3807 
   -3784    -3790    -3845    -3914    -3940    -3915    -3896    -3936 
   -4030    -4142    -4244    -4337    -4423    -4492    -4565    -4674 
   -4812    -4926    -4971    -4939    -4845    -4700    -4503    -4276 
   -4065    -3902    -3780    -3675    -3557    -3426    -3307    -3226 
   -3185    -3185    -3249    -3391    -3599    -3845    -4091    -4295 
   -4426    -4467    -4438    -4397    -4386    -4398    -4419    -4448 
   -4473    -4466    -4415    -4323    -4196    -4039    -3846    -3632 
   -3435    -3304    -3263    -3291    -3349    -3412    -3472    -3533 
   -3600    -3668    -3737    -3838    -3993    -4174    -4304    -4329 
   -4259    -4133    -3985    -3834    -3701    -3589    -3478    -3354 
   -3240    -3172    -3167    -3211    -3288    -3389    -3508    -3625 
   -3716    -3784    -3853    -3920    -3961    -3966    -3957    -3967 
   -4014    -4086    -4158    -4218    -4268    -4287    -4249    -4168 
