Origin Time       2024/04/02 04:24:00
Lat.              40.133
Long.             141.712
Depth. (km)       71
Mag.              6.0
Station Code      HKD158
Station Lat.      41.8349
Station Long.     141.1408
Station Height(m) 7
Record Time       2024/04/02 04:25:07
Sampling Freq(Hz) 100Hz
Duration Time(s)  142
Dir.              E-W
Scale Factor      7845(gal)/8223790
Max. Acc. (gal)   11.981
Last Correction   2024/04/02 04:25:07
Memo.             
[...]
   -8383    -8036    -7420    -6795    -6332    -6106    -6211    -6582 
   -6949    -7088    -6995    -6725    -6228    -5579    -4981    -4504 
   -4133    -3835    -3632    -3600    -3685    -3817    -3990    -4244 
   -4644    -5040    -5097    -4743    -4268    -3947    -3851    -3865 
   -3848    -3901    -4218    -4853    -5698    -6459    -6949    -7271 
   -7549    -7811    -7892    -7592    -7106    -6806    -6818    -7048 
   -7368    -7654    -7738    -7608    -7489    -7531    -7622    -7622 
   -7558    -7485    -7480    -7666    -8001    -8282    -8313    -8122 
   -7986    -8086    -8375    -8611    -8515    -8009    -7207    -6362 
   -5783    -5587    -5566    -5487    -5366    -5254    -5213    -5270 
   -5211    -4880    -4378    -3874    -3585    -3586    -3723    -3854 
   -3970    -4116    -4307    -4610    -5055    -5451    -5599    -5490 
   -5281    -5184    -5252    -5413    -5617    -5826    -5981    -6154 
   -6489    -6889    -7173    -7334    -7338    -7118    -6814    -6678 
   -6698    -6702    -6605    -6351    -6116    -6169    -6421    -6663 
   -6851    -7010    -7199    -7458    -7716    -7808    -7708    -7609 
   -7627    -7724    -7746    -7449    -6916    -6577    -6588    -6728 
   -6867    -6993    -7030    -6978    -6933    -6972    -7094    -7186 
   -7184    -7088    -6893    -6714    -6600    -6409    -6093    -5771 
   -5528    -5333    -5167    -5036    -4845    -4598    -4450    -4291 
   -3900    -3366    -2965    -2894    -3167    -3650    -4190    -4716 
   -5231    -5640    -5849    -5925    -5965    -5992    -6014    -6135 
   -6403    -6628    -6679    -6667    -6675    -6740    -6995    -7420 
   -7789    -8013    -8203    -8370    -8372    -8280    -8283    -8283 
   -8067    -7681    -7329    -7076    -6934    -6910    -6829    -6519 
   -6079    -5726    -5582    -5665    -5917    -6193    -6359    -6396 
   -6459    -6718    -7047    -7133    -6916    -6606    -6312    -5954 
   -5530    -5174    -4934    -4777    -4761    -4950    -5309    -5728 
   -6108    -6389    -6471    -6358    -6165    -5845    -5316    -4831 
   -4685    -4792    -4943    -5038    -5138    -5402    -5775    -6106 
   -6313    -6276    -6007    -5688    -5433    -5247    -5093    -4955 
   -4920    -5124    -5574    -6187    -6890    -7601    -8224    -8738 
   -9144    -9301    -9109    -8695    -8210    -7616    -6893    -6281 
   -5987    -5829    -5672    -5725    -5930    -5981    -5945    -6049 
   -6351    -6714    -6867    -6766    -6628    -6709    -7052    -7353 
   -7377    -7226    -7059    -6887    -6662    -6351    -5952    -5490 
   -5003    -4604    -4504    -4741    -5088    -5320    -5331    -5085 
   -4810    -4827    -5120    -5495    -5860    -6164    -6378    -6507 
   -6627    -6760    -6777    -6609    -6313    -6062    -6052    -6218 
   -6354    -6376    -6289    -6216    -6270    -6405    -6540    -6637 
   -6656    -6585    -6542    -6546    -6473    -6316    -6124    -5991 
   -6042    -6254    -6550    -6853    -7045    -7092    -7064    -7076 
   -7169    -7195    -6968    -6501    -6079    -5962    -6050    -6084 
   -5981    -5776    -5594    -5610    -5755    -5755    -5572    -5270 
   -4874    -4642    -4739    -4954    -5089    -5223    -5498    -5962 
   -6597    -7276    -7797    -7981    -7807    -7474    -7222    -7152 
   -7149    -7001    -6721    -6496    -6424    -6396    -6118    -5475 
   -4828    -4639    -4893    -5296    -5665    -5842    -5772    -5595 
   -5421    -5420    -5748    -6228    -6566    -6670    -6673    -6783 
   -7071    -7442    -7739    -7767    -7570    -7381    -7260    -7146 
   -7037    -6953    -6916    -6880    -6789    -6655    -6505    -6382 
   -6312    -6161    -5836    -5576    -5633    -5805    -5794    -5682 
   -5580    -5459    -5427    -5579    -5900    -6345    -6747    -6883 
   -6666    -6230    -5795    -5468    -5178    -4803    -4299    -3782 
   -3466    -3419    -3585    -3879    -4168    -4517    -5046    -5570 
   -5881    -6018    -6172    -6488    -6893    -7307    -7771    -8220 
   -8510    -8604    -8649    -8750    -8866    -9015    -9180    -9227 
   -9081    -8766    -8370    -7890    -7361    -6879    -6475    -6215 
   -6077    -5917    -5729    -5587    -5454    -5320    -5296    -5344 
   -5341    -5351    -5516    -5850    -6205    -6435    -6517    -6471 
   -6357    -6220    -6031    -5771    -5460    -5119    -4729    -4324 
   -4114    -4174    -4392    -4731    -5071    -5244    -5282    -5360 
   -5495    -5502    -5360    -5158    -4946    -4889    -5005    -5070 
   -4986    -4862    -4868    -5179    -5778    -6381    -6866    -7269 
   -7589    -7828    -7960    -7971    -7874    -7724    -7682    -7780 
   -7875    -7857    -7682    -7450    -7366    -7527    -7820    -8000 
   -7925    -7646    -7249    -6833    -6505    -6339    -6381    -6683 
   -7261    -7951    -8550    -8919    -8923    -8625    -8237    -7919 
   -7632    -7265    -6831    -6343    -5917    -5760    -5805    -5817 
   -5610    -5140    -4552    -3959    -3419    -2982    -2640    -2317 
   -2034    -1971    -2222    -2704    -3269    -3771    -4063    -4163 
   -4260    -4357    -4388    -4480    -4719    -5035    -5366    -5733 
   -6149    -6561    -7014    -7481    -7708    -7623    -7435    -7314 
   -7275    -7219    -7094    -6980    -6993    -7209    -7658    -8189 
   -8546    -8707    -8766    -8762    -8754    -8766    -8754    -8676 
   -8553    -8432    -8322    -8361    -8630    -8900    -8927    -8737 
   -8426    -7982    -7418    -6921    -6556    -6112    -5557    -5069 
   -4673    -4430    -4361    -4405    -4565    -4756    -4916    -5194 
   -5599    -5890    -5881    -5622    -5275    -4961    -4657    -4270 
   -3754    -3312    -3180    -3284    -3411    -3338    -3125    -3191 
   -3557    -3900    -4221    -4580    -4839    -5016    -5309    -5702 
   -5985    -6057    -6016    -6126    -6531    -6947    -6994    -6814 
   -6864    -7236    -7713    -8114    -8253    -8144    -8033    -8001 
   -8004    -8029    -7944    -7627    -7260    -7179    -7425    -7753 
   -7969    -8043    -8021    -7929    -7738    -7516    -7476    -7612 
   -7734    -7847    -7943    -7969    -8052    -8122    -7929    -7524 
   -7152    -6797    -6320    -5876    -5543    -5158    -4752    -4433 
   -4267    -4374    -4669    -4882    -4938    -4982    -5135    -5428 
   -5691    -5671    -5417    -5206    -5148    -5157    -5216    -5351 
   -5512    -5652    -5699    -5636    -5562    -5371    -4922    -4410 
   -4106    -4129    -4413    -4654    -4665    -4554    -4556    -4749 
   -5030    -5333    -5595    -5784    -5998    -6255    -6427    -6475 
   -6646    -7083    -7609    -8145    -8665    -8962    -8995    -8874 
   -8557    -8051    -7574    -7223    -6818    -6322    -5984    -5929 
   -6041    -6210    -6355    -6463    -6597    -6718    -6759    -6772 
   -6797    -6912    -7105    -7140    -7071    -7184    -7476    -7798 
   -8079    -8316    -8433    -8255    -7777    -7183    -6612    -6103 
   -5726    -5548    -5508    -5549    -5603    -5576    -5452    -5170 
   -4760    -4402    -4167    -4070    -4144    -4299    -4394    -4419 
   -4380    -4207    -4068    -4264    -4769    -5482    -6413    -7299 
   -7715    -7580    -7130    -6590    -6145    -5861    -5663    -5672 
   -6048    -6631    -7169    -7609    -7935    -8041    -7987    -7870 
   -7638    -7362    -7213    -7219    -7258    -7111    -6717    -6255 
   -5903    -5663    -5541    -5584    -5682    -5634    -5449    -5314 
   -5293    -5343    -5378    -5246    -5049    -5032    -5148    -5306 
   -5493    -5657    -5929    -6361    -6782    -7137    -7445    -7705 
   -7893    -7844    -7450    -6817    -6120    -5466    -4903    -4494 
   -4361    -4630    -5320    -6253    -7017    -7389    -7524    -7618 
   -7827    -8135    -8194    -7761    -7076    -6523    -6199    -6131 
   -6185    -5994    -5687    -5670    -5937    -6340    -6663    -6667 
   -6454    -6173    -5746    -5254    -4982    -5082    -5525    -6081 
   -6517    -6941    -7489    -8000    -8307    -8355    -8083    -7554 
   -6897    -6215    -5651    -5305    -5116    -5034    -5135    -5425 
   -5783    -5977    -5717    -5047    -4288    -3684    -3356    -3238 
   -3127    -2944    -2778    -2718    -2851    -3276    -3889    -4467 
   -5019    -5690    -6397    -6978    -7487    -8058    -8627    -9007 
   -9192    -9359    -9629   -10004   -10403   -10783   -11209   -11595 
  -11654   -11171   -10092    -8635    -7283    -6246    -5413    -4866 
   -4781    -5005    -5193    -5239    -5223    -5165    -5040    -4822 
   -4469    -4056    -3878    -4067    -4244    -4104    -3842    -3838 
   -4212    -4703    -5154    -5684    -6157    -6228    -5913    -5512 
   -5201    -5003    -4907    -4939    -5152    -5529    -6061    -6733 
   -7462    -8105    -8382    -8139    -7526    -6831    -6316    -5976 
   -5698    -5544    -5544    -5678    -5929    -6291    -6813    -7388 
   -7823    -7983    -7851    -7670    -7565    -7376    -7134    -6987 
   -6839    -6627    -6511    -6512    -6481    -6354    -6123    -5854 
   -5609    -5425    -5471    -5769    -6057    -6158    -6178    -6340 
   -6670    -6903    -6887    -6793    -6880    -7152    -7294    -7111 
   -6755    -6319    -5761    -5211    -4891    -4905    -5279    -5868 
   -6357    -6608    -6674    -6604    -6473    -6363    -6338    -6462 
   -6740    -6995    -7072    -7068    -7076    -6993    -6691    -6251 
   -5875    -5706    -5759    -5902    -5977    -5914    -5733    -5536 
   -5350    -5151    -5027    -4977    -4811    -4587    -4657    -5031 
   -5364    -5497    -5456    -5266    -5090    -5159    -5476    -5783 
   -5926    -6022    -6129    -6189    -6210    -6257    -6424    -6651 
   -6862    -7121    -7393    -7647    -7927    -8129    -8068    -7780 
   -7406    -6967    -6573    -6403    -6361    -6187    -5899    -5769 
   -5971    -6374    -6674    -6775    -6808    -6839    -6898    -7049 
   -7210    -7161    -6872    -6534    -6315    -6284    -6299    -6099 
   -5706    -5319    -4934    -4483    -3978    -3511    -3294    -3477 
   -3973    -4639    -5449    -6284    -6963    -7565    -8137    -8527 
   -8788    -8969    -8931    -8712    -8422    -8032    -7504    -6906 
   -6373    -6037    -5931    -5888    -5760    -5607    -5502    -5440 
   -5418    -5367    -5105    -4661    -4314    -4266    -4479    -4789 
   -5170    -5732    -6455    -7156    -7631    -7842    -7913    -7927 
   -7913    -7904    -7933    -8136    -8491    -8694    -8513    -7924 
   -6944    -5621    -4197    -2901    -1642     -400      553      988 
     872      297     -535    -1412    -2220    -2947    -3667    -4518 
   -5478    -6423    -7248    -7785    -8031    -8235    -8638    -9367 
  -10336   -11133   -11411   -11335   -11223   -11134   -10962   -10511 
   -9697    -8807    -8148    -7835    -7938    -8301    -8608    -8780 
   -8928    -9148    -9482    -9842   -10068   -10147   -10157   -10084 
   -9864    -9396    -8667    -7769    -6744    -5548    -4094    -2548 
   -1242     -292      341      719      900      989     1005      793 
     276     -535    -1586    -2658    -3607    -4509    -5479    -6578 
   -7622    -8114    -7769    -6813    -5703    -4916    -4635    -4517 
   -4172    -3542    -2799    -2251    -1911    -1498    -1051     -865 
   -1162    -2150    -3852    -5962    -8105   -10088   -11709   -12820 
  -13513   -13707   -13117   -11804   -10305    -9266    -8966    -9221 
   -9694   -10183   -10588   -10777   -10597   -10062    -9486    -9100 
   -8900    -8943    -9279    -9747   -10011    -9774    -9142    -8575 
   -8348    -8482    -8946    -9664   -10474   -11009   -10832    -9925 
   -8571    -6814    -4573    -1998      468     2247     3046     3061 
    2624     1895      936      -89     -989    -1769    -2548    -3273 
   -3661    -3631    -3477    -3387    -3431    -3735    -4386    -5244 
   -5929    -6297    -6393    -6057    -5377    -4764    -4396    -4243 
   -4251    -4352    -4641    -5314    -6227    -6936    -7225    -7260 
   -7326    -7582    -7993    -8334    -8436    -8356    -8309    -8621 
   -9393   -10299   -11016   -11271   -10833   -10012    -9463    -9505 
   -9934   -10385   -10816   -11375   -11958   -12222   -11929   -11051 
   -9705    -8178    -6825    -5960    -5733    -5896    -5987    -5783 
   -5428    -5067    -4692    -4449    -4677    -5568    -6837    -7776 
   -7892    -7217    -6103    -5013    -4082    -3073    -1838     -352 
    1221     2482     3285     3753     3692     2660      561    -2101 
   -4603    -6415    -7246    -7041    -6073    -4850    -3917    -3504 
   -3273    -2887    -2652    -3202    -4557    -5844    -6393    -6338 
   -6033    -5792    -5706    -5552    -5140    -4565    -4199    -4538 
   -5994    -8413   -10963   -12919   -14143   -14735   -14790   -14465 
  -13864   -13027   -11997   -10870    -9969    -9757   -10397   -11780 
  -13728   -15608   -16405   -15746   -14216   -12537   -10971    -9355 
   -7420    -5439    -4176    -3840    -4020    -4282    -4330    -4220 
   -4129    -3932    -3406    -2546    -1548     -688     -183      -14 
       8       60       89     -234    -1259    -3026    -4996    -6281 
   -6426    -5652    -4572    -3758    -3181    -2409    -1358     -449 
    -106     -234     -299       66      762     1529     2180     2366 
    1690      260    -1375    -2741    -3793    -4901    -6488    -8814 
  -11711   -14532   -16734   -18157   -18800   -18601   -17520   -15880 
  -14235   -12989   -12310   -12143   -12100   -11734   -11048   -10285 
   -9656    -9467    -9818   -10494   -11290   -12023   -12492   -12472 
  -11811   -10708    -9655    -8857    -8127    -7472    -7144    -7024 
   -6652    -5761    -4445    -3078    -2108    -1701    -1783    -2319 
   -2980    -3163    -2504     -930     1163     2917     3832     4105 
    4131     4159     4209     3867     2668      922     -700    -1952 
   -2843    -3527    -4299    -5309    -6446    -7554    -8548    -9277 
   -9582    -9445    -8795    -7551    -6131    -5194    -4965    -5323 
   -5985    -6579    -7003    -7277    -7265    -6917    -6322    -5699 
   -5530    -6066    -6890    -7462    -7840    -8583   -10123   -12208 
  -14014   -15088   -15762   -16468   -17062   -16949   -15753   -13724 
  -11461    -9282    -7295    -5886    -5212    -4915    -4810    -4911 
   -5151    -5606    -6222    -6593    -6382    -5431    -4043    -3199 
   -3538    -4596    -5633    -6424    -7036    -7495    -7788    -7889 
   -7898    -8085    -8491    -8772    -8750    -8500    -7889    -6825 
   -5491    -4060    -2733    -1607     -422      976     2285     3285 
    3994     4290     4195     4018     3910     3792     3462     2801 
    1937     1109      438      -31     -367     -946    -2016    -3379 
   -4888    -6675    -8810   -11022   -12933   -14361   -15203   -15372 
  -14951   -14187   -13389   -12711   -12079   -11492   -11254   -11677 
  -12575   -13464   -14058   -14436   -15025   -15943   -16727   -16937 
  -16222   -14478   -12283   -10355    -8950    -7943    -7111    -6377 
   -5757    -5144    -4552    -4402    -4938    -5748    -6335    -6579 
   -6581    -6334    -5761    -4961    -4081    -3121    -2165    -1599 
   -1792    -2608    -3497    -3982    -3955    -3576    -2980    -2187 
   -1354     -939    -1240    -1876    -2139    -1725     -796      394 
    1552     2358     2646     2424     1795      931      -27    -1048 
   -2122    -3172    -4108    -4811    -5124    -5093    -5074    -5371 
   -5985    -6540    -6581    -6158    -5714    -5640    -6088    -6956 
   -8102    -9466   -10937   -12301   -13279   -13489   -12633   -10959 
   -9093    -7641    -6967    -7083    -7993    -9742   -12071   -14467 
  -16411   -17617   -18015   -17705   -17072   -16429   -15734   -14878 
  -13879   -12892   -12005   -11195   -10570   -10118    -9575    -8760 
   -7587    -6106    -4450    -2581     -422     1777     3522     4423 
    4441     3750     2531      912     -957    -2824    -4357    -5325 
   -5595    -5174    -4205    -2786    -1221     -243     -390    -1408 
   -2600    -3446    -3757    -3771    -3879    -4040    -4036    -3892 
   -3790    -3819    -3804    -3461    -2737    -1884    -1283    -1329 
   -2173    -3435    -4722    -6097    -7642    -9169   -10238   -10426 
   -9917    -9323    -9043    -9279   -10096   -11265   -12361   -13084 
  -13285   -12927   -12133   -10975    -9512    -8067    -7049    -6539 
   -6291    -6226    -6408    -6625    -6698    -6833    -7244    -7870 
   -8509    -8851    -8618    -7882    -6978    -6188    -5694    -5510 
   -5564    -5800    -6131    -6605    -7407    -8496    -9580   -10341 
  -10481    -9873    -8816    -7767    -6910    -6181    -5404    -4564 
   -3865    -3370    -3082    -3028    -3126    -3149    -2829    -2207 
   -1602    -1183     -912     -691     -588     -903    -1769    -2929 
   -4098    -5179    -6030    -6590    -7001    -7269    -7319    -7241 
   -7144    -7056    -6964    -6785    -6408    -5884    -5302    -4596 
   -3823    -3218    -2833    -2700    -3053    -4044    -5570    -7338 
   -8974   -10042   -10381   -10281   -10165   -10415   -11001   -11530 
  -11821   -11697   -10976    -9988    -9135    -8451    -7933    -7597 
   -7362    -7173    -6872    -6251    -5350    -4345    -3321    -2330 
   -1617    -1375    -1412    -1609    -2120    -2905    -3744    -4456 
   -4877    -5031    -5184    -5629    -6358    -7079    -7674    -8283 
   -8978    -9632   -10034   -10258   -10613   -11014   -10970   -10206 
   -8920    -7589    -6566    -5772    -4963    -4230    -3836    -3819 
   -3942    -3997    -3866    -3470    -2938    -2513    -2475    -3037 
   -4004    -5035    -5996    -6785    -7303    -7650    -8008    -8321 
   -8348    -8027    -7555    -7132    -6677    -6038    -5382    -4962 
   -4784    -4693    -4473    -4036    -3558    -3180    -2878    -2762 
   -2988    -3572    -4595    -5998    -7402    -8688   -10006   -11227 
  -12037   -12267   -11908   -11132   -10199    -9111    -7824    -6586 
   -5668    -5201    -5163    -5377    -5647    -5748    -5394    -4351 
   -2768    -1362     -807    -1242    -2424    -3875    -5104    -5994 
   -6781    -7658    -8564    -9387   -10188   -11074   -11970   -12503 
  -12279   -11242    -9580    -7592    -5764    -4552    -4002    -3831 
   -3788    -3836    -3986    -4068    -3970    -3929    -4221    -4792 
   -5432    -6006    -6313    -6255    -6073    -6079    -6467    -7246 
   -8198    -9151    -9994   -10527   -10604   -10338    -9863    -8973 
   -7493    -5699    -4045    -2764    -1968    -1794    -2203    -2884 
   -3473    -3843    -4164    -4688    -5409    -5888    -5668    -4820 
   -3855    -3253    -3279    -3842    -4436    -4712    -4866    -5300 
   -6249    -7616    -8965    -9873   -10369   -10654   -10636   -10123 
   -9119    -7882    -6822    -6230    -6073    -6195    -6443    -6651 
   -6764    -6783    -6677    -6455    -6180    -6014    -6026    -6139 
   -6253    -6137    -5736    -5417    -5571    -6269    -7211    -7904 
   -8090    -7904    -7562    -7057    -6226    -5061    -3773    -2659 
   -1952    -1661    -1582    -1455    -1314    -1497    -2176    -3040 
   -3616    -3740    -3658    -3902    -4734    -5755    -6662    -7611 
