Origin Time       2024/04/02 04:24:00
Lat.              40.133
Long.             141.712
Depth. (km)       71
Mag.              6.0
Station Code      HKD160
Station Lat.      41.7700
Station Long.     140.7383
Station Height(m) 4
Record Time       2024/04/02 04:25:12
Sampling Freq(Hz) 100Hz
Duration Time(s)  86
Dir.              N-S
Scale Factor      7845(gal)/8223790
Max. Acc. (gal)   5.339
Last Correction   2024/04/02 04:25:13
Memo.             
[...]
    2234     2496     3034     3582     4002     4245     4340     4372 
    4347     4205     3924     3577     3298     3140     3078     3064 
    3056     3094     3227     3388     3476     3492     3485     3451 
    3326     3103     2963     3069     3375     3754     4086     4268 
    4180     3740     3086     2439     1903     1541     1389     1422 
    1628     1954     2307     2586     2770     2899     3013     3130 
    3291     3503     3694     3789     3786     3723     3670     3748 
    3986     4286     4564     4785     4932     4959     4785     4452 
    4175     4062     4005     3923     3855     3866     3981     4168 
    4337     4423     4446     4371     4064     3558     3087     2813 
    2791     2994     3242     3369     3397     3395     3369     3284 
    3098     2887     2756     2702     2718     2825     3019     3188 
    3169     3024     2960     3011     3099     3192     3269     3327 
    3370     3342     3195     2953     2678     2400     2108     1829 
    1644     1651     1891     2276     2674     3060     3487     3939 
    4282     4364     4172     3840     3566     3420     3298     3210 
    3316     3630     3983     4167     4086     3819     3469     3080 
    2668     2297     2065     2070     2373     2893     3393     3677 
    3765     3802     3855     3865     3815     3743     3647     3523 
    3372     3184     3018     2890     2771     2728     2797     2880 
    2902     2886     2909     3026     3208     3415     3647     3843 
    3915     3780     3388     2889     2573     2625     2995     3472 
    3900     4190     4266     4116     3815     3553     3461     3404 
    3271     3133     3053     3068     3157     3207     3202     3203 
    3254     3392     3554     3643     3653     3603     3549     3565 
    3612     3626     3603     3518     3361     3268     3414     3748 
    4058     4245     4263     4025     3569     3084     2772     2752 
    3013     3505     4140     4629     4689     4386     3997     3673 
    3370     3056     2816     2674     2502     2261     2093     2083 
    2119     2066     1933     1857     1992     2347     2764     3117 
    3411     3666     3848     3948     3970     3933     3924     4059 
    4348     4587     4587     4401     4166     3973     3871     3832 
    3789     3704     3577     3460     3372     3248     3073     2913 
    2759     2598     2489     2489     2627     2887     3207     3473 
    3537     3349     3073     2876     2795     2803     2809     2733 
    2623     2559     2616     2820     3076     3265     3341     3330 
    3294     3303     3381     3437     3357     3222     3198     3326 
    3554     3734     3708     3519     3287     3055     2889     2860 
    2970     3119     3215     3306     3462     3627     3750     3777 
    3634     3426     3364     3523     3832     4149     4359     4475 
    4545     4500     4252     3842     3376     2906     2501     2293 
    2357     2635     2968     3240     3438     3580     3653     3635 
    3526     3379     3264     3208     3233     3366     3547     3655 
    3650     3535     3314     3080     2968     3051     3238     3339 
    3281     3130     2967     2902     3009     3268     3580     3771 
    3761     3665     3593     3564     3554     3553     3620     3788 
    3935     3959     3886     3800     3709     3532     3246     2929 
    2667     2529     2535     2659     2940     3380     3828     4135 
    4295     4372     4409     4371     4213     3958     3570     3002 
    2421     2057     1999     2272     2813     3449     3970     4186 
    4093     3870     3623     3392     3214     3042     2860     2752 
    2770     2890     3041     3132     3100     2956     2756     2612 
    2624     2774     2910     2928     2864     2812     2841     3007 
    3283     3545     3647     3487     3123     2818     2749     2872 
    3090     3331     3565     3840     4129     4306     4367     4322 
    4126     3813     3443     3121     2978     3009     3144     3284 
    3257     3044     2797     2667     2737     2965     3246     3558 
    3889     4137     4194     4021     3704     3406     3256     3296 
    3449     3542     3466     3250     3010     2872     2859     2902 
    2991     3092     3041     2770     2463     2351     2461     2655 
    2878     3167     3499     3757     3840     3812     3815     3883 
    3966     4014     4017     3985     3937     3932     3971     3908 
    3612     3115     2597     2245     2088     2128     2442     2951 
    3439     3770     3919     3902     3711     3360     3005     2857 
    2980     3226     3411     3466     3419     3318     3254     3350 
    3643     4043     4361     4484     4503     4517     4515     4479 
    4349     4112     3821     3485     3148     2899     2724     2614 
    2656     2851     3055     3132     2995     2605     2079     1767 
    1934     2450     2992     3375     3570     3662     3755     3877 
    3996     4128     4302     4441     4453     4382     4307     4212 
    4090     4005     3981     3952     3784     3370     2833     2427 
    2285     2435     2867     3403     3759     3735     3346     2951 
    2911     3179     3531     3836     4041     4190     4317     4361 
    4259     3982     3593     3269     3121     3157     3364     3628 
    3778     3731     3489     3127     2712     2286     2035     2164 
    2560     2848     2801     2543     2311     2199     2216     2412 
    2774     3130     3214     2964     2697     2731     3009     3304 
    3500     3589     3586     3520     3387     3132     2801     2556 
    2532     2751     3106     3434     3669     3836     3943     3958 
    3856     3616     3258     2872     2559     2438     2612     3017 
    3462     3804     4051     4259     4378     4334     4193     4004 
    3719     3377     3122     3072     3233     3385     3273     2940 
    2674     2706     3022     3397     3570     3366     2822     2211 
    1853     1888     2259     2809     3322     3586     3537     3353 
    3245     3219     3200     3183     3257     3457     3661     3743 
    3736     3700     3645     3564     3411     3183     2999     2984 
    3163     3412     3528     3435     3298     3284     3368     3449 
    3489     3476     3396     3261     3126     3060     3042     3042 
    3090     3159     3191     3225     3284     3337     3380     3433 
    3577     3851     4071     4093     4016     3958     3904     3842 
    3812     3846     3902     3898     3796     3655     3562     3534 
    3508     3474     3464     3365     3079     2747     2556     2548 
    2663     2772     2817     2898     3069     3298     3578     3804 
    3846     3824     3871     3915     3888     3800     3653     3447 
    3211     3048     3086     3300     3518     3576     3429     3173 
    2872     2506     2169     2019     2099     2353     2727     3196 
    3758     4283     4542     4450     4133     3790     3566     3574 
    3859     4220     4361     4205     3862     3476     3186     3096 
    3258     3632     4066     4341     4318     4060     3770     3568 
    3429     3273     3103     3017     3041     3113     3199     3276 
    3288     3204     3084     3076     3240     3462     3611     3669 
    3746     3916     4064     4089     4081     4179     4380     4509 
    4436     4251     4091     3960     3798     3607     3483     3511 
    3588     3545     3361     3122     2921     2806     2787     2876 
    2980     2867     2482     2054     1840     1931     2257     2621 
    2857     2925     2820     2617     2502     2542     2624     2673 
    2727     2860     3032     3087     2957     2767     2733     2949 
    3273     3558     3852     4174     4355     4249     3960     3669 
    3420     3233     3180     3256     3368     3370     3172     2918 
    2758     2601     2390     2235     2223     2403     2739     3061 
    3335     3705     4125     4348     4266     3955     3531     3078 
    2695     2538     2683     2994     3208     3191     3076     3068 
    3211     3416     3628     3854     4020     4008     3867     3742 
    3700     3765     3944     4249     4585     4735     4622     4305 
    3870     3484     3262     3194     3257     3357     3385     3338 
    3258     3237     3360     3623     3956     4241     4363     4345 
    4239     4085     4017     4087     4168     4124     3871     3493 
    3252     3276     3497     3811     4027     3974     3689     3307 
    2907     2550     2324     2289     2400     2558     2640     2566 
    2389     2272     2378     2694     2986     3059     2949     2855 
    2913     3068     3195     3249     3246     3187     3046     2871 
    2766     2803     2972     3186     3368     3483     3427     3136 
    2724     2403     2328     2494     2759     2945     2897     2633 
    2336     2162     2216     2475     2806     3115     3292     3245 
    3040     2751     2455     2328     2439     2681     2941     3142 
    3245     3206     2998     2721     2531     2529     2758     3083 
    3248     3140     2848     2539     2397     2485     2655     2714 
    2573     2322     2093     1945     1964     2204     2555     2864 
    3041     3140     3308     3568     3843     4089     4224     4202 
    4086     3954     3839     3728     3591     3419     3240     3130 
    3225     3576     4036     4403     4544     4382     3987     3597 
    3354     3248     3291     3566     4098     4727     5213     5470 
    5582     5626     5572     5378     5125     4891     4622     4271 
    3863     3480     3152     2797     2331     1796     1374     1232 
    1348     1645     2081     2533     2853     2953     2835     2659 
    2617     2700     2752     2683     2482     2110     1601     1117 
     838      892     1279     1868     2602     3484     4415     5211 
    5686     5792     5718     5684     5771     5892     5890     5760 
    5625     5395     4869     4016     3001     2091     1518     1426 
    1836     2604     3524     4392     5022     5404     5702     6026 
    6363     6627     6713     6575     6177     5483     4585     3635 
    2732     2047     1794     2039     2629     3153     3284     3091 
    2808     2583     2536     2712     2974     3140     3210     3262 
    3249     3040     2578     1937     1343     1012      990     1309 
    2053     3103     4214     5243     6006     6220     5718     4581 
    3142     1790      812      369      396      684     1036     1385 
    1872     2632     3572     4488     5125     5292     5119     4837 
    4473     4089     3889     4008     4419     4915     5225     5200 
    4768     3994     3154     2523     2193     2137     2273     2631 
    3397     4656     6161     7454     8122     7989     7110     5717 
    4145     2751     1840     1561     1852     2535     3352     3979 
    4113     3642     2783     1912     1255      777      391      256 
     621     1432     2403     3289     3974     4479     4895     5246 
    5478     5508     5271     4652     3586     2355     1433     1150 
    1603     2625     3793     4585     4571     3697     2408     1274 
     685      743     1313     2292     3653     5206     6588     7523 
    7904     7755     7200     6292     5139     4089     3437     3256 
    3427     3608     3468     2902     2047     1205      600      288 
     337      734     1251     1637     1791     1818     1966     2404 
    3096     3829     4288     4268     3727     2700     1383      135 
    -758    -1121     -963     -534      -64      346      648      908 
    1208     1471     1605     1543     1285     1008      881      869 
     907     1034     1360     1948     2689     3435     4117     4706 
    5300     6062     6898     7464     7474     6828     5682     4436 
    3519     3318     3910     4797     5302     5139     4503     3867 
    3584     3689     4087     4646     5228     5718     5944     5826 
    5404     4715     3993     3592     3647     4066     4618     5000 
    5028     4693     4031     3103     2092     1262      789      720 
    1109     1971     3153     4372     5332     5825     5810     5416 
    4760     3874     2825     1692      523     -541    -1310    -1755 
   -1956    -1898    -1464     -625      515     1787     2967     3828 
    4290     4369     4155     3878     3712     3666     3748     3969 
    4234     4444     4596     4718     4718     4511     4195     3951 
    3854     3897     4043     4162     4102     3789     3271     2749 
    2474     2583     3117     4029     5143     6092     6454     6048 
    4973     3531     2204     1355     1008     1070     1441     1989 
    2606     3160     3555     3807     3960     4110     4401     4880 
    5502     6142     6583     6721     6601     6276     5886     5643 
    5653     5894     6166     6160     5688     4722     3426     2191 
    1379     1084     1147     1312     1314      940      168     -777 
   -1566    -1960    -1869    -1264     -191     1217     2698     3832 
    4352     4352     4029     3586     3306     3337     3554     3684 
    3399     2478     1074     -270    -1003     -892        6     1399 
    2870     4155     5043     5223     4652     3743     2961     2493 
    2295     2259     2331     2558     3017     3663     4355     4931 
    5300     5512     5737     6064     6420     6710     6912     7091 
    7406     7929     8506     8876     8932     8789     8603     8398 
    8100     7668     7137     6625     6284     6232     6477     6845 
    7088     7057     6718     6123     5482     4985     4626     4305 
    3948     3634     3491     3407     3141     2639     2003     1443 
    1170     1225     1525     1941     2332     2610     2689     2501 
    2106     1624     1197      946      812      657      429      167 
       2       71      307      503      546      483      487      707 
    1101     1478     1586     1247      569      -86     -368     -139 
     477     1274     2084     2722     3036     3052     2978     3086 
    3488     4014     4446     4664     4600     4280     3782     3235 
    2848     2779     3073     3690     4463     5134     5455     5297 
    4718     3859     2868     1958     1304      950      832      872 
    1066     1420     1845     2238     2562     2856     3132     3264 
    3208     3159     3295     3601     3836     3676     3022     2049 
    1065      388      147      236      473      720     1012     1463 
    2149     3149     4357     5389     6004     6274     6323     6223 
    6004     5667     5323     5167     5221     5262     5063     4581 
    3937     3337     2920     2721     2731     2898     3186     3558 
    3959     4441     5030     5560     5861     5829     5387     4654 
    3838     3086     2578     2481     2793     3319     3746     3834 
    3592     3179     2747     2417     2236     2162     2236     2620 
    3333     4095     4548     4529     4120     3481     2766     2114 
    1679     1509     1472     1439     1347     1098      629        2 
    -530     -618     -193      465     1063     1495     1899     2542 
    3500     4588     5485     5891     5751     5286     4770     4317 
    3888     3388     2803     2263     1960     2089     2790     3987 
    5405     6778     7915     8662     8918     8604     7678     6238 
    4607     3226     2420     2273     2740     3693     4864     5887 
    6459     6473     6066     5418     4625     3821     3167     2748 
    2551     2492     2579     2936     3615     4503     5300     5620 
    5282     4436     3447     2700     2300     2041     1715     1368 
    1239     1456     1830     2056     2039     1819     1374      714 
     -40     -695    -1000     -780      -43     1078     2289     3119 
    3312     3014     2525     2095     1709     1224      850      962 
    1601     2511     3311     3720     3785     3682     3555     3592 
    3904     4414     4880     4996     4635     3890     2934     2003 
    1401     1294     1629     2203     2764     3186     3531     3829 
    4009     4016     3863     3680     3634     3805     4198     4719 
    5158     5412     5576     5728     5887     6093     6269     6282 
    6061     5640     5251     5049     4884     4572     4075     3516 
    3153     3149     3457     3931     4432     4899     5306     5571 
    5603     5333     4747     3952     3180     2713     2702     2976 
    3172     3107     2914     2771     2776     2987     3345     3716 
    4054     4345     4584     4770     4780     4425     3785     3145 
    2668     2338     2106     1942     1869     1972     2346     2938 
    3499     3829     3910     3796     3518     3076     2493     1834 
    1208      760      562      629      966     1417     1734     1884 
    1984     2053     2020     1864     1636     1436     1401     1661 
    2224     2936     3612     4135     4414     4415     4132     3565 
    2851     2219     1823     1732     1950     2458     3191     3990 
    4622     4946     5053     5130     5277     5495     5659     5590 
    5243     4746     4234     3719     3187     2656     2149     1674 
    1225      864      738     1026     1817     2975     4174     5094 
    5508     5367     4885     4407     4275     4621     5197     5621 
    5680     5395     4909     4379     3906     3572     3415     3391 
    3388     3315     3173     3064     3084     3285     3709     4340 
    5057     5647     5881     5744     5435     5050     4541     3919 
    3295     2751     2262     1838     1556     1374     1173     1015 
    1050     1301     1659     1983     2250     2521     2717     2724 
    2636     2651     2852     3206     3717     4433     5275     6030 
    6498     6596     6393     6006     5401     4530     3516     2525 
    1687     1054      521       43     -189       -8      587     1444 
    2208     2612     2655     2446     2226     2192     2246     2205 
    2007     1698     1463     1501     1875     2554     3499     4561 
    5470     6039     6261     6257     6223     6246     6258     6235 
    6173     5964     5460     4695     3929     3411     3102     2799 
    2415     2034     1786     1733     1875     2205     2739     3387 
    3875     3956     3719     3487     3464     3562     3558     3353 
    3029     2725     2598     2743     3065     3360     3487     3470 
    3528     3842     4342     4838     5089     4847     4033     2886 
    1922     1563     1741     2133     2538     2887     3150     3291 
    3314     3341     3530     3919     4337     4511     4282     3686 
    2901     2158     1629     1340     1198     1058      862      724 
     677      568      338      136      147      479     1097     1904 
    2814     3627     4071     4064     3751     3368     3130     3134 
    3335     3634     3856     3781     3402     2965     2637     2419 
    2380     2577     2884     3095     3082     2882     2706     2675 
    2689     2648     2577     2533     2586     2816     3199     3580 
    3771     3711     3541     3461     3542     3758     4050     4374 
    4693     4949     5143     5309     5371     5206     4814     4340 
    3916     3565     3326     3333     3704     4471     5449     6241 
