Origin Time       2024/04/02 04:24:00
Lat.              40.133
Long.             141.712
Depth. (km)       71
Mag.              6.0
Station Code      HKD185
Station Lat.      42.7756
Station Long.     141.4016
Station Height(m) 266
Record Time       2024/04/02 04:25:51
Sampling Freq(Hz) 100Hz
Duration Time(s)  66
Dir.              U-D
Scale Factor      7845(gal)/8223790
Max. Acc. (gal)   1.669
Last Correction   2024/04/02 04:25:51
Memo.             
[...]
    5219     5197     5202     5101     4737     4494     4870     5543 
    5960     6038     5768     5223     4797     4711     4766     4816 
    4946     5185     5478     5724     5786     5633     5333     5005 
    4824     4806     4885     5101     5305     5312     5279     5317 
    5228     5040     5032     5163     5251     5339     5316     5115 
    5113     5341     5404     5360     5312     5039     4812     5007 
    5296     5428     5547     5497     5097     4749     4873     5270 
    5594     5755     5687     5439     5215     5169     5347     5452 
    5298     5266     5351     5144     4949     5066     5109     5058 
    5179     5243     5144     5107     5131     5170     5105     4839 
    4714     4958     5405     5915     6115     5707     5248     5208 
    5233     5204     5302     5381     5494     5741     5772     5537 
    5293     5128     5119     5090     4892     4800     4839     4841 
    4932     5059     5057     5027     4999     4893     4845     5059 
    5429     5564     5489     5555     5665     5653     5715     5730 
    5412     5085     5082     5200     5313     5433     5412     5158 
    4820     4742     5017     5274     5247     5051     4816     4606 
    4563     4777     5057     5178     5209     5216     5196     5343 
    5742     6048     5942     5503     5053     4919     5108     5285 
    5287     5189     5071     5076     5215     5321     5395     5491 
    5485     5340     5206     5197     5283     5351     5294     5078 
    4927     5086     5375     5578     5683     5603     5381     5215 
    5151     5165     5190     5123     4945     4795     4891     5135 
    5144     4922     4762     4711     4788     5069     5432     5667 
    5670     5545     5412     5238     5162     5302     5393     5328 
    5367     5547     5593     5381     5100     4935     4869     4899 
    5046     5200     5267     5278     5285     5308     5236     5055 
    5032     5254     5468     5545     5570     5566     5387     5077 
    5001     5208     5273     5089     5016     5163     5304     5414 
    5475     5228     4824     4715     4919     5170     5313     5443 
    5579     5489     5391     5528     5333     4827     4766     4959 
    4996     5169     5362     5296     5258     5286     5192     5128 
    5107     5047     5171     5373     5381     5437     5566     5429 
    5159     5012     5032     5346     5765     5788     5421     5104 
    5016     5053     5032     4901     4869     5094     5454     5701 
    5603     5273     5123     5208     5283     5305     5344     5377 
    5308     5186     5142     5024     4784     4792     5040     5115 
    5061     5092     5086     5030     5103     5225     5208     5194 
    5402     5570     5436     5354     5489     5463     5281     5220 
    5158     5071     5238     5495     5436     5219     5243     5445 
    5472     5185     4833     4683     4703     4860     5109     5283 
    5397     5467     5408     5341     5277     5124     5058     5115 
    5163     5263     5397     5462     5575     5694     5594     5417 
    5379     5414     5467     5458     5236     4897     4654     4600 
    4746     4972     5144     5242     5273     5277     5298     5283 
    5221     5193     5067     4779     4745     5157     5630     5960 
    6079     5836     5397     5115     5057     5116     5227     5331 
    5383     5356     5159     4884     4868     5092     5124     5040 
    5200     5382     5412     5454     5344     5042     4831     4753 
    4843     5140     5435     5678     5813     5629     5355     5339 
    5362     5254     5289     5331     4993     4745     5073     5427 
    5441     5393     5260     5046     5019     5104     5188     5332 
    5416     5398     5335     5140     5028     5080     4926     4795 
    5112     5460     5560     5625     5580     5395     5277     5256 
    5304     5313     5196     5170     5233     5159     5219     5467 
    5440     5262     5243     5070     4739     4669     4714     4669 
    4811     5169     5475     5665     5732     5657     5540     5362 
    5167     5167     5306     5462     5682     5729     5352     4953 
    4927     4997     4990     5189     5440     5354     5150     5063 
    4891     4693     4822     5171     5410     5598     5748     5580 
    5236     5128     5188     5211     5229     5152     4953     4881 
    4926     4845     4818     5190     5671     5703     5445     5366 
    5325     5196     5286     5422     5134     4816     5074     5506 
    5485     5165     5004     5115     5304     5417     5378     5147 
    4962     5105     5343     5297     5088     5032     5146     5285 
    5344     5238     5130     5246     5437     5512     5443     5281 
    5232     5278     5247     5324     5472     5393     5271     5221 
    4993     4704     4669     4962     5470     5852     5853     5589 
    5279     5078     5047     5077     5098     5255     5431     5304 
    5132     5190     5093     4801     4726     4820     5044     5505 
    5853     5786     5395     4862     4627     4950     5368     5572 
    5772     5891     5687     5408     5302     5220     5127     5124 
    5161     5202     5231     5211     5175     5046     4766     4542 
    4534     4731     5084     5397     5520     5432     5147     5000 
    5247     5444     5321     5271     5320     5238     5211     5219 
    5116     5135     5250     5278     5398     5621     5698     5580 
    5333     5062     4882     4839     4936     5104     5251     5254 
    5073     4978     5090     5206     5308     5493     5726     5836 
    5525     4934     4648     4783     5023     5293     5562     5652 
    5536     5378     5251     5032     4800     4963     5510     5867 
    5822     5574     5206     4897     4857     4976     5088     5111 
    4981     4919     5112     5238     5111     5073     5219     5313 
    5429     5618     5682     5616     5393     4972     4733     4920 
    5259     5454     5432     5251     5054     5017     5125     5208 
    5308     5476     5597     5659     5576     5194     4768     4666 
    4827     5035     5306     5653     5856     5707     5278     4932 
    4870     4919     5032     5173     5097     4996     5167     5266 
    5000     4595     4372     4608     5233     5760     5921     5741 
    5374     5200     5366     5556     5598     5556     5418     5332 
    5447     5517     5398     5171     4819     4602     4738     4923 
    5089     5328     5350     5213     5200     5123     4969     5035 
    5267     5494     5622     5547     5366     5178     4993     5032 
    5273     5335     5282     5383     5562     5710     5711     5420 
    4970     4635     4635     4978     5378     5610     5649     5502 
    5254     5043     4993     5128     5151     4878     4710     4866 
    4973     4969     5159     5405     5483     5503     5410     5177 
    5152     5393     5525     5468     5436     5551     5796     5971 
    5813     5393     4997     4722     4615     4772     5039     5228 
    5351     5355     5178     4972     4804     4626     4538     4715 
    5254     5953     6261     5968     5413     4900     4681     4911 
    5263     5397     5427     5533     5692     5755     5510     5017 
    4594     4406     4534     4943     5323     5517     5505     5300 
    5233     5285     5051     4864     5119     5443     5594     5610 
    5337     4943     4951     5340     5584     5463     5192     5023 
    5067     5262     5408     5346     5165     5086     5206     5381 
    5335     5084     4938     4990     5184     5471     5599     5436 
    5267     5192     5042     4947     5028     5098     5254     5617 
    5715     5394     5250     5358     5255     5092     5166     5258 
    5292     5424     5564     5609     5625     5553     5290     4993 
    4905     4941     4887     4834     4857     4803     4777     4966 
    5130     5103     5192     5441     5516     5443     5405     5371 
    5448     5576     5444     5186     5047     5007     5175     5475 
    5609     5572     5333     4953     4854     5015     5071     5076 
    5013     4801     4784     5094     5360     5323     5090     4905 
    4864     4970     5228     5408     5367     5395     5517     5454 
    5343     5355     5290     5165     5228     5382     5386     5394 
    5563     5575     5239     4914     4891     5069     5304     5408 
    5259     5117     5159     5150     5027     4941     4909     4992 
    5220     5474     5788     6135     6068     5499     5085     5111 
    5266     5482     5665     5552     5332     5304     5368     5289 
    4932     4448     4222     4472     4981     5336     5363     5184 
    5016     5001     5185     5571     5926     5911     5610     5348 
    5228     5267     5459     5563     5412     5244     5236     5135 
    4873     4815     4992     5024     4896     4792     4698     4731 
    5034     5335     5344     5228     5282     5540     5764     5740 
    5517     5215     4970     4992     5244     5464     5524     5502 
    5506     5356     4995     4881     5074     5125     5157     5417 
    5539     5271     4884     4689     4815     5173     5512     5740 
    5876     5730     5319     5022     4961     5012     5140     5248 
    5243     5196     5181     5202     5273     5401     5389     5138 
    5046     5252     5325     5254     5363     5522     5506     5418 
    5362     5263     5047     4862     4881     4915     4793     4773 
    5049     5377     5398     5077     4847     5012     5285     5437 
    5552     5611     5667     5738     5466     4881     4596     4734 
    5096     5624     5933     5803     5532     5236     5001     4982 
    4985     4963     5189     5513     5599     5562     5481     5202 
    4928     4938     5076     5116     5085     5111     5163     5116 
    5078     5092     4984     4887     4984     5200     5456     5528 
    5312     5211     5394     5499     5409     5336     5296     5212 
    5177     5212     5196     5161     5294     5499     5468     5283 
    5224     5193     5067     5042     5135     5049     4833     4923 
    5344     5637     5598     5437     5209     4869     4718     4799 
    4719     4698     5157     5687     5826     5643     5208     4688 
    4515     4758     5065     5354     5694     5929     5867     5486 
    5049     4843     4820     5001     5481     5807     5624     5375 
    5366     5333     5197     5030     4860     4850     4993     5138 
    5332     5479     5385     5251     5217     5107     5066     5387 
    5802     5844     5633     5530     5459     5256     5120     5096 
    4920     4715     4725     4719     4684     4932     5223     5269 
    5265     5140     4826     4745     5026     5439     5879     6062 
    5761     5243     4900     4918     5243     5614     5740     5607 
    5458     5294     4986     4689     4587     4702     4984     5219 
    5221     5217     5422     5624     5680     5692     5589     5371 
    5306     5406     5314     4896     4558     4676     5007     5213 
    5289     5174     4897     4739     4774     4891     5123     5526 
    5895     5930     5705     5494     5319     5333     5811     6323 
    6305     5925     5437     4888     4361     3993     4075     4540 
    4820     4851     4977     5119     5120     5132     5205     5286 
    5508     5910     6201     6118     5713     5305     5189     5269 
    5282     5273     5285     5121     4888     4882     4963     4936 
    4942     4989     5035     5289     5626     5624     5367     5242 
    5171     4993     4961     5190     5378     5394     5341     5211 
    4980     4757     4769     5161     5701     5975     5937     5817 
    5684     5501     5232     4892     4661     4742     5076     5355 
    5447     5429     5212     4934     5065     5485     5692     5665 
    5517     5161     4776     4742     4920     4870     4831     5292 
    5830     5841     5567     5350     5139     4984     4969     4995 
    5055     5232     5383     5235     4896     4753     4777     4781 
    4922     5250     5455     5358     5163     5117     5192     5294 
    5429     5512     5498     5509     5489     5285     4954     4652 
    4479     4572     4932     5231     5306     5410     5583     5601 
    5579     5692     5629     5216     4954     5089     5190     5105 
    5047     4985     4951     5146     5341     5200     4918     4847 
    5040     5344     5522     5377     5015     4849     5004     5104 
    5011     5019     5300     5670     5822     5745     5611     5517 
    5640     5863     5701     5236     4903     4758     4850     5220 
    5557     5613     5440     5181     5004     4988     4969     4862 
    4920     5188     5343     5397     5475     5351     5027     4874 
    4885     4881     5123     5632     5925     5887     5652     5219 
    4793     4626     4754     5054     5258     5343     5472     5472 
    5232     4887     4425     4163     4580     5201     5332     5229 
    5298     5454     5664     5927     6016     5852     5668     5664 
    5678     5517     5351     5235     5049     4877     4795     4932 
    5304     5440     5239     5007     4857     5057     5454     5356 
    5058     5204     5452     5560     5694     5609     5298     5151 
    5186     5236     5140     4899     4911     5057     4703     4195 
    4340     4900     5242     5402     5649     6010     6507     6980 
    6951     6303     5439     4849     4737     4803     4834     4995 
    5098     4874     4583     4386     4202     4261     4664     5013 
    5179     5373     5599     5815     5927     5757     5393     5059 
    5023     5435     5921     6192     6389     6365     5852     5050 
    4382     4110     4203     4530     4862     4858     4646     4587 
    4488     4162     3861     3862     4341     5046     5560     6088 
    6697     6906     6681     6289     5787     5435     5390     5452 
    5587     5667     5412     5143     5196     5255     5069     4662 
    4213     4155     4587     5112     5501     5641     5572     5567 
    5471     5115     4932     5071     5283     5609     5944     5838 
    5344     5063     5136     5174     5179     5297     5229     4978 
    5116     5733     6135     5886     5235     4517     4098     4317 
    4881     5225     5173     4842     4591     4712     5069     5551 
    6011     5987     5541     5213     5097     5143     5393     5602 
    5536     5328     5182     5092     5044     5225     5613     5852 
    5738     5339     4807     4392     4328     4557     4799     4873 
    4834     4930     5293     5633     5609     5197     4710     4661 
    5201     5868     6227     6338     6417     6442     6357     6184 
    5769     5158     4822     4922     5140     5166     4735     4016 
    3682     3932     4383     4785     5053     5239     5526     5861 
    5942     5571     5008     4812     5038     5224     5242     5327 
    5501     5678     5783     5580     5162     5093     5414     5675 
    5688     5379     4927     4770     4838     4850     4880     4972 
    5181     5572     5732     5314     4783     4708     4999     5267 
    5413     5443     5325     5267     5362     5347     5314     5517 
    5657     5460     5144     4919     4908     5262     5748     5886 
    5647     5343     5071     4854     4762     4673     4617     4941 
    5537     5815     5671     5568     5537     5182     4737     4826 
    5331     5769     6006     5884     5373     4959     4884     4939 
    5150     5394     5302     4982     4774     4685     4510     4257 
    4286     4660     5104     5686     6187     5985     5406     5096 
    4931     4957     5389     5859     6096     6104     5767     5260 
    4893     4789     5088     5548     5707     5645     5444     5027 
    4810     4968     4949     4554     4279     4328     4284     4140 
    4486     5135     5386     5444     5634     5598     5400     5491 
    5634     5479     5448     5795     5967     5818     5803     5738 
    5298     4899     4828     4903     5066     5243     5269     5240 
    5255     5177     5047     5031     5105     5258     5443     5589 
    5769     5861     5602     5236     5142     5205     5363     5672 
    5668     5113     4639     4563     4540     4428     4301     4193 
    4252     4635     5148     5383     5312     5269     5458     5849 
    6235     6296     6007     5702     5467     5162     4989     5100 
    5178     5023     4785     4576     4492     4698     5112     5379 
    5377     5301     5248     5304     5640     6046     6126     5849 
    5394     4915     4571     4536     4877     5178     5019     4706 
    4621     4803     5190     5368     5100     4984     5324     5680 
    5867     5902     5737     5551     5351     4988     4781     5088 
    5726     6289     6370     5886     5286     4941     4746     4558 
    4380     4314     4548     4969     5150     5057     4974     5024 
    5281     5672     5919     5962     5813     5340     4781     4603 
    4869     5293     5535     5503     5521     5683     5686     5521 
    5394     5297     5100     4684     4322     4438     4830     5246 
    5749     5915     5516     5219     5217     5103     5094     5416 
    5551     5182     4638     4305     4280     4479     4743     4942 
    5194     5702     6189     6188     5779     5447     5381     5335 
    5151     4997     5027     5127     5143     5107     5124     5258 
    5544     5811     5810     5536     5175     5005     5104     5266 
    5400     5408     5166     4872     4715     4637     4714     5004 
    5309     5503     5659     5800     5896     5864     5611     5258 
    4985     4900     5144     5543     5637     5402     5038     4650 
    4585     5031     5593     5850     5775     5539     5260     5054 
    5092     5282     5393     5448     5487     5436     5398     5493 
    5489     5289     5200     5246     5181     5067     4914     4596 
    4460     4731     4968     4877     4630     4509     4742     5134 
    5321     5377     5413     5385     5447     5765     6218     6469 
    6259     5796     5512     5381     5201     5140     5263     5341 
    5305     5171     5011     5074     5317     5286     4866     4423 
    4259     4414     4746     5070     5391     5690     5772     5521 
    5015     4658     4861     5329     5552     5680     5884     5819 
    5433     5163     5139     5113     5059     5124     5262     5382 
    5458     5312     4908     4656     4774     4934     4966     5032 
    5116     5173     5213     5130     5046     5212     5479     5598 
    5512     5174     4803     4749     4854     4860     4869     4884 
    4810     4725     4669     4737     5065     5532     5925     6138 
    6150     6011     5734     5366     5078     4895     4742     4733 
    4850     4868     4762     4704     4822     5204     5703     5923 
    5721     5364     5185     5246     5329     5293     5228     5182 
    5104     5073     5123     5054     4896     4995     5344     5644 
    5860     5900     5620     5427     5593     5649     5458     5389 
    5358     5159     4941     4731     4488     4379     4548     4965 
