Origin Time       2024/04/02 04:24:00
Lat.              40.133
Long.             141.712
Depth. (km)       71
Mag.              6.0
Station Code      HKD134
Station Lat.      42.6713
Station Long.     141.0790
Station Height(m) 392
Record Time       2024/04/02 04:25:23
Sampling Freq(Hz) 100Hz
Duration Time(s)  100
Dir.              E-W
Scale Factor      7845(gal)/8223790
Max. Acc. (gal)   3.294
Last Correction   2024/04/02 04:25:23
Memo.             
[...]
    2050     2103     2138     2153     2133     2108     2089     2015 
    1873     1722     1587     1466     1378     1364     1409     1444 
    1464     1512     1563     1583     1605     1657     1718     1760 
    1761     1729     1745     1829     1907     1961     2030     2118 
    2196     2257     2304     2307     2235     2092     1888     1645 
    1395     1166      992      905      934     1055     1215     1371 
    1517     1644     1733     1750     1688     1594     1556     1625 
    1775     1929     2020     2047     2069     2096     2092     2050 
    1981     1892     1790     1669     1520     1347     1192     1089 
    1047     1050     1093     1170     1263     1363     1460     1533 
    1582     1610     1622     1652     1714     1753     1719     1611 
    1464     1306     1196     1205     1309     1429     1553     1676 
    1759     1814     1895     2000     2099     2178     2223     2211 
    2182     2209     2284     2311     2230     2092     1965     1868 
    1803     1750     1669     1537     1367     1182     1016      896 
     804      749      774      888     1040     1181     1314     1503 
    1721     1911     2087     2249     2326     2282     2172     2056 
    1935     1804     1701     1651     1629     1602     1561     1545 
    1578     1626     1632     1563     1433     1306     1239     1235 
    1283     1362     1417     1421     1409     1422     1487     1593 
    1691     1769     1850     1938     2010     2035     2008     1953 
    1872     1777     1707     1688     1706     1744     1802     1876 
    1950     1998     2008     1993     1968     1954     1954     1939 
    1890     1837     1807     1757     1659     1553     1468     1406 
    1385     1393     1391     1367     1339     1325     1316     1340 
    1447     1584     1696     1814     1948     2052     2116     2149 
    2135     2095     2072     2049     1977     1854     1702     1556 
    1435     1345     1294     1274     1270     1271     1270     1310 
    1406     1493     1555     1611     1636     1626     1607     1563 
    1479     1364     1250     1175     1173     1262     1443     1663 
    1857     1993     2053     2060     2053     2047     2066     2092 
    2072     2014     1979     1981     1966     1877     1736     1621 
    1559     1516     1476     1451     1422     1375     1301     1190 
    1071     1000     1013     1089     1173     1279     1468     1717 
    1939     2080     2112     2058     1962     1837     1679     1533 
    1467     1501     1584     1664     1748     1881     2047     2157 
    2162     2081     1964     1857     1761     1668     1621     1649 
    1715     1767     1795     1803     1765     1645     1431     1136 
     849      661      583      594      707      920     1239     1653 
    2058     2331     2444     2469     2467     2420     2285     2114 
    1995     1961     1965     1968     1969     1954     1867     1714 
    1570     1441     1278     1086      908      750      645      645 
     729      864     1071     1371     1711     2023     2280     2481 
    2602     2647     2651     2620     2515     2327     2095     1834 
    1548     1278     1043      870      826      899      996     1097 
    1240     1406     1555     1706     1860     1965     2019     2060 
    2080     2080     2096     2124     2130     2104     2065     1999 
    1896     1798     1705     1582     1437     1298     1144      990 
     913      947     1031     1132     1294     1513     1734     1938 
    2116     2230     2263     2236     2184     2172     2219     2253 
    2203     2084     1954     1829     1688     1518     1333     1185 
    1113     1113     1143     1142     1131     1185     1277     1352 
    1418     1497     1594     1715     1844     1961     2064     2142 
    2172     2126     2007     1842     1691     1615     1614     1636 
    1624     1576     1583     1679     1773     1795     1767     1713 
    1649     1594     1540     1468     1395     1336     1278     1228 
    1242     1354     1529     1690     1772     1773     1742     1718 
    1703     1671     1587     1449     1297     1170     1140     1236 
    1368     1443     1447     1404     1363     1383     1479     1615 
    1745     1854     1988     2153     2288     2367     2427     2470 
    2434     2243     1918     1613     1439     1317     1146      955 
     843      881     1057     1264     1425     1544     1669     1802 
    1877     1885     1873     1842     1784     1719     1676     1683 
    1750     1860     2012     2239     2513     2717     2764     2689 
    2578     2492     2393     2180     1842     1463     1123      851 
     641      494      446      549      789     1074     1371     1714 
    2029     2218     2286     2232     2041     1769     1487     1246 
    1107     1115     1236     1383     1526     1725     1987     2196 
    2241     2106     1873     1660     1489     1298     1123     1093 
    1247     1485     1674     1783     1861     1918     1941     1929 
    1867     1752     1625     1536     1512     1567     1688     1822 
    1898     1907     1938     2033     2095     2025     1822     1564 
    1345     1200     1109     1105     1225     1439     1687     1912 
    2074     2133     2072     1946     1833     1728     1587     1440 
    1347     1312     1327     1405     1499     1544     1552     1563 
    1574     1561     1525     1466     1382     1304     1300     1379 
    1493     1618     1742     1852     1931     1988     2049     2115 
    2155     2160     2128     2070     2015     1962     1881     1765 
    1638     1526     1441     1385     1363     1360     1354     1379 
    1445     1505     1567     1683     1840     1942     1954     1939 
    1931     1904     1826     1667     1455     1281     1194     1201 
    1278     1367     1452     1591     1782     1964     2120     2257 
    2317     2257     2122     1962     1765     1548     1352     1174 
    1009      915      946     1071     1215     1381     1609     1864 
    2076     2200     2226     2173     2041     1834     1601     1394 
    1217     1013      803      704      737      826      977     1224 
    1524     1813     2045     2203     2297     2367     2440     2486 
    2442     2311     2185     2126     2108     2092     2052     1952 
    1768     1543     1335     1181     1062      958      891      880 
     928     1053     1274     1595     1969     2336     2694     3006 
    3152     3099     2949     2729     2407     2039     1715     1456 
    1286     1236     1255     1264     1275     1341     1449     1532 
    1572     1605     1667     1761     1848     1911     1972     2042 
    2112     2164     2189     2164     2033     1783     1489     1200 
     909      649      476      407      436      584      889     1309 
    1721     2041     2245     2305     2216     2031     1806     1563 
    1351     1220     1178     1209     1274     1313     1314     1296 
    1279     1300     1364     1402     1340     1233     1204     1298 
    1433     1506     1514     1509     1497     1510     1602     1775 
    2004     2226     2346     2338     2255     2181     2139     2101 
    2052     1948     1752     1530     1393     1391     1497     1587 
    1529     1354     1209     1177     1235     1296     1300     1273 
    1267     1318     1428     1575     1744     1918     2061     2169 
    2258     2339     2409     2479     2543     2525     2357     2062 
    1719     1333      897      477      179       45       49      152 
     349      656     1063     1482     1777     1887     1863     1786 
    1783     1998     2393     2774     3002     3040     2889     2604 
    2263     1902     1513     1163      976      982     1075     1166 
    1259     1374     1475     1548     1672     1925     2257     2538 
    2690     2755     2762     2612     2242     1750     1290      974 
     851      845      837      837      939     1139     1301     1340 
    1310     1287     1294     1355     1487     1651     1787     1898 
    2035     2239     2490     2664     2637     2447     2185     1890 
    1625     1463     1397     1389     1375     1318     1201      978 
     648      288        0     -166     -210      -91      275      909 
    1725     2558     3237     3640     3728     3584     3325     2961 
    2485     1945     1431     1038      870      940     1161     1435 
    1679     1818     1854     1833     1788     1734     1610     1354 
    1070      954     1071     1348     1679     2027     2385     2755 
    3146     3503     3724     3784     3680     3376     2867     2214 
    1494      838      388      183      201      400      702     1070 
    1486     1850     2041     2041     1961     1923     1911     1814 
    1606     1413     1331     1341     1436     1614     1829     2029 
    2123     2012     1713     1364     1066      830      633      483 
     430      522      741     1019     1271     1435     1493     1462 
    1363     1262     1243     1333     1462     1539     1579     1683 
    1922     2238     2479     2546     2462     2307     2130     1935 
    1719     1509     1325     1155      989      878      909     1115 
    1435     1795     2160     2505     2770     2890     2855     2682 
    2427     2214     2103     2025     1910     1792     1721     1668 
    1555     1343     1077      861      827     1028     1337     1575 
    1719     1873     2072     2241     2297     2253     2176     2110 
    2060     2010     1966     1976     2033     2081     2114     2139 
    2099     1957     1777     1603     1401     1121      785      448 
     159      -12      -52      -44       70      469     1140     1846 
    2357     2585     2575     2436     2265     2120     2038     2045 
    2134     2254     2365     2434     2411     2238     1881     1372 
     866      530      378      332      406      685     1202     1821 
    2317     2621     2789     2797     2585     2197     1761     1405 
    1235     1294     1525     1804     2092     2438     2803     3033 
    2997     2620     1942     1223      719      438      257      140 
     151      365      785     1336     1918     2408     2712     2812 
    2722     2497     2273     2145     2031     1853     1706     1699 
    1848     2034     2033     1813     1541     1294     1074      896 
     734      616      669      904     1189     1378     1426     1444 
    1525     1605     1659     1771     1948     2096     2150     2069 
    1846     1566     1336     1177     1051      959      935     1003 
    1150     1355     1614     1912     2181     2340     2338     2195 
    1995     1814     1710     1737     1887     2026     1972     1696 
    1347     1074      895      692      429      261      264      357 
     553      919     1426     2003     2570     3052     3423     3653 
    3666     3460     3125     2763     2461     2214     1939     1661 
    1476     1422     1452     1444     1327     1151      992      881 
     849      899     1047     1308     1636     1980     2340     2689 
    2964     3144     3210     3176     3113     3073     3041     2959 
    2741     2335     1790     1278      942      734      533      305 
      98      -31      -33      110      380      749     1200     1692 
    2166     2594     2928     3068     3025     2914     2756     2447 
    1919     1255      621       90     -371     -710     -706     -238 
     477     1097     1429     1475     1366     1201      961      637 
     361      324      595     1085     1629     2157     2704     3219 
    3550     3589     3339     2886     2316     1667     1015      481 
     136       17       93      256      502      911     1483     2165 
    2799     3146     3110     2824     2492     2216     1975     1771 
    1675     1722     1922     2226     2506     2697     2760     2601 
    2189     1679     1273     1012      820      673      606      708 
    1027     1449     1856     2239     2562     2745     2781     2729 
    2647     2542     2370     2052     1584     1147      896      769 
     595      359      286      588     1162     1702     2023     2166 
    2282     2434     2529     2484     2330     2130     1906     1692 
    1545     1479     1489     1574     1665     1657     1526     1306 
    1028      757      576      542      691      999     1383     1769 
    2128     2415     2498     2272     1819     1360     1053      947 
     981     1066     1259     1634     2076     2432     2689     2852 
    2897     2801     2555     2193     1807     1460     1169      892 
     571      310      324      697     1300     1848     2173     2353 
    2443     2367     2128     1863     1675     1593     1586     1590 
    1597     1663     1787     1894     1896     1782     1637     1556 
    1541     1555     1602     1728     1914     2066     2122     2047 
    1848     1610     1451     1405     1414     1459     1564     1713 
    1852     1944     1934     1788     1510     1128      726      454 
     434      653     1040     1580     2205     2824     3408     3866 
    4056     3987     3754     3370     2835     2209     1530      791 
      63     -511     -864    -1011     -938     -646     -240      217 
     776     1394     1935     2363     2667     2830     2938     3107 
    3331     3526     3649     3673     3524     3165     2635     1976 
    1248      530     -159     -796    -1302    -1629    -1795    -1792 
   -1494     -800      179     1262     2349     3346     4151     4687 
    4888     4725     4287     3717     3096     2479     1965     1598 
    1313     1080      893      745      652      576      418      207 
      90      152      396      739     1077     1405     1744     2073 
    2434     2853     3207     3403     3497     3493     3339     3071 
    2763     2436     2007     1382      650      -21     -545     -853 
    -905     -700     -230      413     1112     1849     2633     3361 
    3878     4086     3985     3682     3372     3157     2955     2619 
    2108     1497      895      376      -52     -386     -572     -553 
    -311      126      695     1316     1917     2415     2776     3036 
    3238     3437     3608     3626     3457     3211     2918     2517 
    2016     1493     1031      693      465      261       40     -164 
    -311     -391     -392     -298      -83      278      769     1333 
    1921     2482     2951     3265     3407     3426     3354     3161 
    2887     2625     2378     2122     1856     1551     1228      966 
     787      625      419      195       60      106      330      661 
    1054     1518     2010     2444     2822     3156     3407     3537 
    3508     3302     2960     2542     2093     1656     1275      970 
     727      549      449      394      375      498      788     1125 
    1437     1713     1888     1946     1941     1910     1868     1836 
    1800     1790     1900     2115     2292     2386     2424     2331 
    2084     1784     1495     1206      955      760      569      419 
     445      680     1036     1456     1910     2327     2664     2929 
    3100     3132     3005     2714     2241     1601      965      560 
     487      669      953     1190     1297     1317     1367     1490 
    1626     1676     1628     1586     1609     1683     1787     1892 
    2022     2242     2523     2776     2945     2980     2851     2555 
    2110     1611     1196      893      650      510      540      708 
     984     1327     1637     1841     1917     1880     1725     1466 
    1259     1264     1448     1694     1973     2286     2554     2671 
    2606     2385     2080     1752     1406     1062      777      588 
     511      558      720      946     1158     1327     1486     1678 
    1848     1868     1683     1394     1175     1134     1246     1431 
    1613     1787     2015     2319     2616     2837     2941     2879 
    2646     2255     1715     1112      641      441      517      839 
    1343     1857     2222     2396     2408     2308     2166     2033 
    1904     1802     1777     1845     1961     2092     2245     2413 
    2529     2533     2411     2158     1836     1567     1391     1278 
    1192     1084      978      965     1053     1143     1197     1298 
    1485     1660     1796     1977     2193     2358     2413     2311 
    2072     1799     1526     1237      993      828      693      629 
     745     1036     1366     1588     1630     1507     1304     1155 
    1101     1081     1086     1117     1136     1166     1259     1395 
    1491     1506     1501     1548     1663     1818     1944     2018 
    2118     2274     2380     2323     2135     1929     1742     1556 
    1386     1287     1290     1390     1579     1857     2174     2407 
    2475     2394     2218     2043     1934     1840     1694     1514 
    1368     1336     1405     1517     1683     1863     1956     1939 
    1834     1682     1564     1552     1653     1836     2029     2176 
    2286     2405     2519     2559     2497     2369     2203     1968 
    1629     1228      850      537      309      226      322      553 
     850     1136     1362     1541     1703     1868     2062     2311 
    2624     2951     3191     3272     3175     2960     2725     2432 
    1993     1476      999      602      328      193      136      145 
     294      576      891     1155     1344     1445     1468     1476 
    1537     1659     1838     2066     2278     2424     2501     2469 
    2285     1956     1533     1111      799      654      656      727 
     800      889     1013     1143     1305     1528     1760     1988 
    2236     2450     2575     2635     2619     2461     2172     1892 
    1764     1798     1891     1933     1900     1814     1644     1389 
    1154     1050     1063     1132     1273     1487     1714     1929 
    2107     2205     2280     2404     2555     2677     2752     2766 
    2691     2523     2254     1906     1584     1367     1190      974 
     741      534      369      342      556      951     1372     1705 
    1927     2100     2255     2374     2431     2362     2133     1845 
    1648     1548     1432     1274     1161     1116     1124     1179 
    1235     1206     1100      992      920      874      864      899 
     936      974     1101     1386     1783     2209     2632     2988 
    3171     3144     2938     2567     2089     1593     1158      868 
     758      792      884      994     1181     1479     1783     1961 
    2026     2061     2095     2123     2127     2093     2080     2161 
    2255     2215     2079     2033     2099     2119     1993     1729 
    1421     1183     1021      884      800      874     1142     1476 
    1721     1875     2011     2154     2259     2249     2138     2056 
    2054     2023     1825     1472     1131      945      932     1005 
    1077     1116     1136     1193     1298     1364     1340     1297 
    1324     1445     1640     1853     2047     2193     2223     2091 
    1873     1715     1656     1607     1517     1420     1335     1250 
    1185     1175     1231     1359     1526     1609     1552     1453 
    1412     1440     1479     1455     1391     1441     1690     2037 
