Origin Time       2024/04/02 04:24:00
Lat.              40.133
Long.             141.712
Depth. (km)       71
Mag.              6.0
Station Code      HKD169
Station Lat.      41.9351
Station Long.     140.3678
Station Height(m) 111
Record Time       2024/04/02 04:25:42
Sampling Freq(Hz) 100Hz
Duration Time(s)  73
Dir.              E-W
Scale Factor      7845(gal)/8223790
Max. Acc. (gal)   2.505
Last Correction   2024/04/02 04:25:44
Memo.             
[...]
   -4919    -5080    -5175    -5154    -5073    -5059    -5188    -5409 
   -5609    -5706    -5710    -5670    -5649    -5699    -5800    -5873 
   -5869    -5795    -5690    -5603    -5557    -5512    -5416    -5310 
   -5267    -5263    -5221    -5116    -5017    -5012    -5051    -5015 
   -4891    -4793    -4850    -5074    -5341    -5525    -5616    -5664 
   -5694    -5713    -5757    -5871    -6046    -6177    -6114    -5818 
   -5437    -5155    -5069    -5198    -5459    -5668    -5698    -5582 
   -5441    -5382    -5462    -5634    -5741    -5682    -5553    -5486 
   -5502    -5598    -5742    -5848    -5842    -5714    -5489    -5240 
   -5062    -5028    -5202    -5541    -5823    -5883    -5823    -5833 
   -5941    -6072    -6166    -6201    -6191    -6195    -6282    -6467 
   -6651    -6693    -6559    -6305    -5960    -5617    -5416    -5310 
   -5136    -4853    -4541    -4297    -4183    -4213    -4396    -4742 
   -5132    -5346    -5279    -5089    -5039    -5260    -5621    -5881 
   -5925    -5845    -5859    -6095    -6415    -6585    -6550    -6373 
   -6073    -5676    -5316    -5152    -5220    -5321    -5224    -4999 
   -4934    -5132    -5417    -5562    -5470    -5271    -5138    -5042 
   -4900    -4765    -4756    -4922    -5132    -5179    -5067    -5012 
   -5125    -5306    -5387    -5301    -5177    -5198    -5356    -5502 
   -5557    -5544    -5517    -5498    -5468    -5416    -5340    -5206 
   -5007    -4827    -4754    -4766    -4765    -4680    -4515    -4369 
   -4332    -4349    -4356    -4401    -4552    -4787    -5004    -5125 
   -5185    -5273    -5413    -5548    -5584    -5475    -5290    -5146 
   -5119    -5244    -5432    -5494    -5317    -4955    -4598    -4422 
   -4441    -4527    -4606    -4661    -4706    -4819    -5062    -5343 
   -5537    -5624    -5638    -5570    -5412    -5292    -5382    -5667 
   -5954    -6081    -5984    -5703    -5400    -5246    -5255    -5293 
   -5273    -5198    -5116    -5086    -5158    -5336    -5563    -5688 
   -5576    -5281    -5019    -4980    -5185    -5494    -5733    -5859 
   -5972    -6160    -6358    -6454    -6419    -6277    -6003    -5599 
   -5169    -4882    -4869    -5073    -5246    -5232    -5163    -5263 
   -5549    -5829    -5906    -5765    -5578    -5529    -5648    -5807 
   -5873    -5838    -5799    -5840    -5922    -5942    -5903    -5886 
   -5832    -5599    -5211    -4847    -4684    -4772    -4990    -5142 
   -5131    -5026    -4970    -5063    -5231    -5297    -5219    -5131 
   -5148    -5274    -5471    -5719    -5961    -6096    -6085    -5981 
   -5853    -5729    -5620    -5553    -5589    -5755    -5998    -6215 
   -6312    -6220    -5962    -5659    -5391    -5158    -4978    -4920 
   -5017    -5190    -5275    -5174    -4997    -4938    -5031    -5130 
   -5090    -4938    -4845    -4935    -5139    -5252    -5151    -4959 
   -4943    -5167    -5404    -5406    -5173    -4942    -4941    -5163 
   -5404    -5462    -5296    -5036    -4824    -4689    -4588    -4491 
   -4387    -4306    -4270    -4287    -4407    -4666    -5007    -5305 
   -5498    -5633    -5755    -5815    -5748    -5555    -5363    -5331 
   -5454    -5540    -5447    -5220    -4985    -4851    -4891    -5055 
   -5186    -5181    -5043    -4842    -4729    -4818    -5036    -5215 
   -5263    -5258    -5393    -5751    -6158    -6377    -6327    -6131 
   -6023    -6141    -6386    -6515    -6370    -6048    -5817    -5805 
   -5886    -5881    -5717    -5462    -5314    -5431    -5759    -6075 
   -6177    -6064    -5876    -5732    -5690    -5760    -5857    -5854 
   -5703    -5478    -5352    -5464    -5726    -5902    -5871    -5751 
   -5711    -5741    -5678    -5410    -4993    -4638    -4500    -4500 
   -4452    -4290    -4087    -3970    -3975    -4012    -4051    -4159 
   -4329    -4491    -4612    -4661    -4621    -4567    -4592    -4718 
   -4881    -5032    -5181    -5347    -5526    -5715    -5861    -5899 
   -5871    -5856    -5881    -5910    -5859    -5698    -5530    -5499 
   -5629    -5788    -5852    -5821    -5803    -5950    -6315    -6720 
   -6918    -6822    -6535    -6210    -5935    -5725    -5570    -5499 
   -5601    -5869    -6100    -6122    -5965    -5764    -5622    -5567 
   -5540    -5472    -5387    -5404    -5587    -5834    -5960    -5899 
   -5783    -5769    -5875    -6018    -6107    -6092    -5995    -5883 
   -5791    -5736    -5741    -5799    -5836    -5764    -5578    -5347 
   -5134    -4951    -4797    -4675    -4602    -4600    -4631    -4635 
   -4611    -4625    -4776    -5124    -5551    -5830    -5875    -5783 
   -5687    -5630    -5524    -5244    -4824    -4456    -4349    -4619 
   -5181    -5775    -6151    -6230    -6120    -6064    -6222    -6490 
   -6608    -6411    -5971    -5526    -5240    -5070    -4931    -4834 
   -4830    -4895    -4976    -5054    -5108    -5125    -5093    -4901 
   -4500    -4095    -3960    -4099    -4270    -4263    -4071    -3875 
   -3902    -4195    -4564    -4831    -4953    -4972    -5039    -5308 
   -5738    -6161    -6439    -6486    -6345    -6191    -6134    -6134 
   -6102    -5964    -5706    -5408    -5185    -5100    -5117    -5127 
   -5028    -4865    -4756    -4723    -4695    -4638    -4568    -4541 
   -4618    -4783    -4945    -5061    -5148    -5223    -5270    -5283 
   -5285    -5339    -5490    -5672    -5760    -5697    -5537    -5404 
   -5400    -5494    -5524    -5385    -5138    -4920    -4833    -4891 
   -5009    -5062    -5012    -4999    -5173    -5447    -5570    -5432 
   -5158    -4990    -5078    -5314    -5466    -5408    -5196    -5031 
   -5112    -5402    -5634    -5606    -5382    -5155    -5050    -5096 
   -5208    -5219    -5088    -4993    -5066    -5236    -5374    -5378 
   -5258    -5136    -5097    -5108    -5151    -5239    -5356    -5487 
   -5583    -5568    -5454    -5360    -5346    -5313    -5134    -4774 
   -4324    -3954    -3802    -3867    -4056    -4278    -4461    -4619 
   -4884    -5355    -5953    -6471    -6744    -6787    -6809    -6991 
   -7260    -7419    -7375    -7091    -6550    -5829    -5142    -4706 
   -4563    -4557    -4518    -4446    -4488    -4700    -4957    -5074 
   -4934    -4639    -4494    -4671    -5066    -5470    -5729    -5825 
   -5881    -6025    -6268    -6531    -6701    -6698    -6543    -6312 
   -6054    -5784    -5517    -5320    -5298    -5490    -5796    -6079 
   -6304    -6504    -6673    -6750    -6723    -6678    -6709    -6783 
   -6824    -6824    -6809    -6804    -6835    -6864    -6808    -6610 
   -6280    -5879    -5518    -5278    -5105    -4873    -4561    -4291 
   -4203    -4355    -4669    -4984    -5179    -5236    -5211    -5205 
   -5267    -5362    -5460    -5530    -5497    -5370    -5225    -5070 
   -4893    -4689    -4419    -4116    -3893    -3840    -3989    -4294 
   -4629    -4888    -5038    -5077    -5055    -5040    -5051    -5070 
   -5100    -5140    -5143    -5093    -5085    -5211    -5393    -5437 
   -5263    -5001    -4880    -5017    -5277    -5389    -5240    -4954 
   -4718    -4657    -4758    -4897    -5026    -5213    -5486    -5761 
   -5977    -6122    -6173    -6114    -6012    -5973    -6012    -6027 
   -5914    -5719    -5582    -5551    -5544    -5491    -5468    -5621 
   -5969    -6377    -6643    -6651    -6515    -6427    -6426    -6447 
   -6467    -6477    -6453    -6338    -6097    -5836    -5732    -5823 
   -6011    -6165    -6150    -5971    -5806    -5738    -5624    -5323 
   -4873    -4486    -4402    -4657    -5046    -5360    -5526    -5553 
   -5474    -5285    -4981    -4698    -4614    -4743    -5003    -5341 
   -5701    -5988    -6077    -5821    -5266    -4750    -4523    -4471 
   -4330    -3982    -3550    -3338    -3527    -3923    -4183    -4189 
   -4114    -4226    -4571    -4923    -5104    -5175    -5254    -5341 
   -5382    -5379    -5436    -5688    -6183    -6793    -7277    -7395 
   -7105    -6655    -6347    -6288    -6330    -6166    -5657    -5013 
   -4545    -4390    -4477    -4590    -4550    -4379    -4179    -4050 
   -4121    -4398    -4673    -4772    -4716    -4688    -4880    -5267 
   -5576    -5552    -5279    -5155    -5472    -6065    -6459    -6340 
   -5805    -5265    -5069    -5185    -5347    -5417    -5451    -5543 
   -5701    -5840    -5892    -5875    -5822    -5773    -5779    -5803 
   -5745    -5606    -5445    -5198    -4785    -4305    -3983    -4024 
   -4422    -4905    -5174    -5167    -5082    -5158    -5413    -5605 
   -5479    -5105    -4849    -5016    -5541    -6073    -6324    -6299 
   -6238    -6345    -6525    -6498    -6170    -5769    -5544    -5498 
   -5454    -5289    -5066    -4918    -4847    -4773    -4687    -4657 
   -4741    -4918    -5027    -4847    -4349    -3817    -3624    -3848 
   -4216    -4380    -4222    -3932    -3820    -4031    -4442    -4811 
   -4945    -4797    -4506    -4313    -4391    -4716    -5101    -5286 
   -5112    -4708    -4390    -4287    -4302    -4349    -4436    -4565 
   -4683    -4676    -4510    -4371    -4541    -5088    -5715    -5971 
   -5697    -5258    -5196    -5702    -6498    -7125    -7323    -7196 
   -7083    -7194    -7422    -7568    -7569    -7477    -7364    -7241 
   -7088    -6959    -6924    -6943    -6898    -6685    -6249    -5668 
   -5202    -5089    -5300    -5520    -5393    -4861    -4267    -4005 
   -4137    -4423    -4603    -4587    -4498    -4525    -4672    -4741 
   -4595    -4318    -4136    -4248    -4656    -5135    -5417    -5425 
   -5278    -5144    -5090    -5017    -4826    -4564    -4341    -4253 
   -4407    -4774    -5147    -5348    -5360    -5290    -5351    -5683 
   -6118    -6322    -6172    -5887    -5875    -6308    -6864    -7049 
   -6690    -6043    -5591    -5675    -6205    -6804    -7171    -7203 
   -6952    -6636    -6532    -6696    -6932    -6999    -6787    -6448 
   -6313    -6528    -6891    -7082    -6848    -6204    -5533    -5263 
   -5462    -5832    -6041    -5992    -5860    -5837    -5917    -5972 
   -5903    -5657    -5306    -5016    -4851    -4750    -4679    -4657 
   -4695    -4783    -4926    -5146    -5424    -5674    -5815    -5846 
   -5803    -5736    -5670    -5575    -5436    -5283    -5098    -4873 
   -4735    -4897    -5412    -6030    -6346    -6154    -5625    -5142 
   -4968    -5061    -5167    -5134    -5007    -4855    -4711    -4629 
   -4662    -4828    -5053    -5146    -5015    -4842    -4868    -5113 
   -5391    -5466    -5324    -5255    -5509    -5957    -6238    -6134 
   -5765    -5497    -5603    -5994    -6311    -6313    -6053    -5714 
   -5436    -5227    -4996    -4718    -4513    -4521    -4725    -4949 
   -5032    -4993    -4981    -5089    -5236    -5286    -5215    -5086 
   -4962    -4912    -5003    -5201    -5404    -5521    -5512    -5375 
   -5238    -5324    -5709    -6122    -6250    -6056    -5663    -5190 
   -4762    -4506    -4483    -4595    -4591    -4342    -4039    -3983 
   -4261    -4673    -4920    -4887    -4754    -4773    -4968    -5157 
   -5162    -4997    -4824    -4731    -4618    -4407    -4213    -4168 
   -4257    -4348    -4328    -4239    -4245    -4417    -4634    -4788 
   -4892    -4916    -4750    -4415    -4132    -4143    -4510    -5065 
   -5476    -5506    -5302    -5292    -5699    -6292    -6643    -6521 
   -6042    -5518    -5223    -5296    -5701    -6187    -6443    -6334 
   -5962    -5563    -5337    -5319    -5292    -5042    -4646    -4384 
   -4399    -4604    -4865    -5123    -5368    -5556    -5580    -5397 
   -5189    -5231    -5579    -6019    -6257    -6188    -6035    -6068 
   -6276    -6427    -6327    -6035    -5856    -5940    -6060    -5925 
   -5524    -5140    -5109    -5448    -5761    -5657    -5140    -4526 
   -4180    -4309    -4738    -5063    -5051    -4784    -4538    -4561 
   -4837    -5120    -5242    -5196    -5082    -5050    -5170    -5391 
   -5659    -5954    -6235    -6407    -6384    -6185    -5941    -5783 
   -5786    -5972    -6285    -6546    -6571    -6358    -6124    -6104 
   -6296    -6442    -6295    -5837    -5310    -5043    -5166    -5513 
   -5819    -5927    -5822    -5638    -5580    -5705    -5910    -6031 
   -5898    -5501    -5127    -5112    -5472    -5810    -5687    -5100 
   -4452    -4145    -4267    -4563    -4698    -4626    -4600    -4793 
   -5109    -5341    -5424    -5468    -5528    -5495    -5312    -5093 
   -5046    -5236    -5464    -5462    -5171    -4783    -4598    -4769 
   -5107    -5260    -5104    -4834    -4743    -4945    -5289    -5541 
   -5589    -5444    -5227    -5148    -5333    -5690    -5996    -6123 
   -6162    -6288    -6512    -6663    -6588    -6330    -6097    -6060 
   -6189    -6342    -6427    -6436    -6378    -6203    -5849    -5378 
   -4980    -4838    -4997    -5347    -5690    -5854    -5800    -5626 
   -5487    -5498    -5620    -5653    -5459    -5163    -5040    -5188 
   -5456    -5625    -5572    -5351    -5107    -4963    -4957    -5049 
   -5157    -5192    -5101    -4918    -4723    -4600    -4618    -4785 
   -5020    -5228    -5371    -5391    -5212    -4846    -4455    -4234 
   -4247    -4357    -4392    -4321    -4225    -4193    -4232    -4232 
   -4078    -3831    -3690    -3788    -4070    -4360    -4549    -4696 
   -4900    -5146    -5347    -5486    -5601    -5705    -5763    -5742 
   -5732    -5914    -6349    -6835    -7101    -7096    -7090    -7352 
   -7780    -8002    -7804    -7317    -6883    -6740    -6848    -6990 
   -6971    -6716    -6324    -5998    -5875    -5919    -5967    -5860 
   -5575    -5227    -4986    -4911    -4903    -4841    -4712    -4599 
   -4588    -4652    -4731    -4861    -5119    -5481    -5791    -5846 
   -5618    -5359    -5348    -5607    -5873    -5819    -5350    -4677 
   -4087    -3744    -3682    -3838    -4083    -4270    -4328    -4374 
   -4571    -4895    -5152    -5155    -4849    -4460    -4422    -4903 
   -5571    -5984    -5981    -5695    -5400    -5278    -5267    -5182 
   -4947    -4661    -4527    -4662    -4954    -5243    -5505    -5769 
   -6010    -6207    -6351    -6403    -6373    -6324    -6266    -6162 
   -6039    -5941    -5864    -5788    -5730    -5676    -5599    -5528 
   -5497    -5475    -5420    -5313    -5171    -5070    -5108    -5232 
   -5256    -5074    -4764    -4549    -4652    -5035    -5409    -5549 
   -5485    -5402    -5427    -5471    -5367    -5127    -4970    -5061 
   -5289    -5408    -5331    -5209    -5243    -5448    -5630    -5617 
   -5472    -5389    -5425    -5460    -5351    -5074    -4766    -4615 
   -4698    -4926    -5107    -5105    -4957    -4808    -4811    -5043 
   -5413    -5707    -5803    -5757    -5730    -5850    -6114    -6373 
   -6442    -6293    -6088    -5996    -6097    -6316    -6444    -6357 
   -6123    -5892    -5771    -5778    -5813    -5728    -5501    -5254 
   -5130    -5161    -5185    -5001    -4641    -4348    -4314    -4523 
   -4839    -5138    -5378    -5634    -5991    -6354    -6473    -6210 
   -5711    -5298    -5158    -5161    -4995    -4536    -4002    -3734 
   -3850    -4149    -4314    -4232    -4113    -4207    -4509    -4795 
   -4899    -4850    -4793    -4773    -4718    -4645    -4665    -4799 
   -4986    -5170    -5312    -5428    -5548    -5603    -5521    -5393 
   -5366    -5490    -5718    -5927    -5992    -5962    -5973    -6018 
   -6043    -6122    -6299    -6466    -6517    -6417    -6183    -5902 
   -5640    -5375    -5127    -4969    -4931    -4966    -4996    -4954 
   -4876    -4882    -5049    -5313    -5579    -5830    -6075    -6264 
   -6346    -6351    -6347    -6362    -6388    -6470    -6675    -6903 
   -6882    -6444    -5728    -5082    -4795    -4800    -4745    -4396 
   -3929    -3727    -3981    -4494    -4887    -4949    -4796    -4711 
   -4854    -5115    -5224    -5015    -4606    -4295    -4255    -4399 
   -4542    -4642    -4811    -5128    -5503    -5721    -5629    -5323 
   -5084    -5101    -5351    -5652    -5817    -5803    -5755    -5838 
   -6050    -6242    -6273    -6081    -5745    -5443    -5265    -5157 
   -5036    -4858    -4662    -4599    -4795    -5193    -5593    -5840 
   -5918    -5883    -5814    -5799    -5881    -6050    -6273    -6507 
   -6679    -6732    -6690    -6689    -6787    -6874    -6845    -6724 
   -6588    -6543    -6667    -6870    -6925    -6694    -6242    -5776 
   -5483    -5402    -5467    -5621    -5802    -5898    -5826    -5655 
   -5555    -5613    -5730    -5713    -5460    -5076    -4777    -4662 
   -4621    -4538    -4441    -4423    -4514    -4617    -4621    -4553 
   -4500    -4453    -4347    -4195    -4112    -4205    -4437    -4661 
   -4814    -4986    -5250    -5512    -5586    -5416    -5157    -5008 
   -4989    -4946    -4752    -4455    -4207    -4099    -4105    -4162 
   -4237    -4328    -4411    -4494    -4627    -4781    -4838    -4787 
   -4707    -4662    -4722    -4911    -5171    -5452    -5753    -6037 
   -6259    -6396    -6401    -6280    -6085    -5810    -5464    -5169 
   -4977    -4814    -4639    -4525    -4517    -4583    -4652    -4660 
   -4623    -4625    -4700    -4804    -4868    -4870    -4903    -5077 
   -5371    -5625    -5714    -5659    -5607    -5692    -5895    -6089 
   -6191    -6211    -6199    -6139    -5967    -5655    -5252    -4851 
   -4567    -4461    -4456    -4403    -4267    -4171    -4259    -4531 
   -4845    -5069    -5170    -5198    -5200    -5188    -5193    -5238 
   -5324    -5485    -5761    -6069    -6264    -6311    -6282    -6250 
   -6232    -6169    -5981    -5686    -5433    -5401    -5609    -5864 
   -5937    -5796    -5629    -5625    -5779    -5913    -5944    -5967 
   -6049    -6130    -6139    -6075    -6016    -6076    -6247    -6413 
   -6492    -6465    -6355    -6203    -6037    -5859    -5656    -5428 
   -5235    -5166    -5255    -5421    -5520    -5498    -5439    -5447 
   -5537    -5618    -5618    -5591    -5651    -5800    -5935    -5969 
   -5956    -6049    -6285    -6502    -6562    -6504    -6480    -6579 
   -6701    -6619    -6274    -5873    -5659    -5648    -5620    -5381 
   -5046    -4887    -4978    -5154    -5221    -5142    -5035    -5020 
   -5058    -5019    -4851    -4642    -4544    -4633    -4855    -5067 
   -5159    -5123    -5008    -4864    -4714    -4569    -4433    -4317 
   -4207    -4077    -3935    -3851    -3901    -4086    -4302    -4419 
   -4432    -4463    -4592    -4784    -4986    -5213    -5481    -5726 
   -5823    -5725    -5547    -5489    -5675    -5980    -6093    -5844 
   -5427    -5229    -5416    -5771    -5923    -5675    -5216    -4959 
   -5115    -5503    -5765    -5692    -5393    -5138    -5058    -5073 
   -5073    -5077    -5161    -5294    -5332    -5182    -4951    -4877 
   -5043    -5275    -5358    -5255    -5098    -5108    -5421    -5865 
   -6073    -5864    -5410    -5054    -5028    -5283    -5583    -5741 
   -5746    -5736    -5832    -5968    -5926    -5617    -5247    -5112 
   -5298    -5602    -5729    -5560    -5263    -5123    -5243    -5449 
   -5541    -5497    -5447    -5508    -5656    -5786    -5850    -5910 
   -5960    -5850    -5509    -5111    -4908    -5013    -5337    -5647 
   -5779    -5819    -5911    -6062    -6183    -6176    -6041    -5888 
