Origin Time       2024/04/02 04:24:00
Lat.              40.133
Long.             141.712
Depth. (km)       71
Mag.              6.0
Station Code      HKD124
Station Lat.      42.9986
Station Long.     141.7903
Station Height(m) 38
Record Time       2024/04/02 04:25:58
Sampling Freq(Hz) 100Hz
Duration Time(s)  60
Dir.              U-D
Scale Factor      7845(gal)/8223790
Max. Acc. (gal)   0.622
Last Correction   2024/04/02 04:25:58
Memo.             
[...]
   14798    14836    14859    14904    14964    14978    14937    14897 
   14883    14886    14897    14901    14891    14872    14862    14848 
   14808    14766    14791    14890    14963    14929    14859    14868 
   14940    14956    14867    14775    14782    14825    14851    14868 
   14874    14871    14874    14887    14924    14968    14991    14991 
   14982    14968    14968    14978    14979    14970    14928    14870 
   14860    14887    14898    14862    14775    14705    14697    14716 
   14716    14705    14716    14750    14778    14806    14855    14914 
   14945    14929    14901    14902    14926    14925    14870    14821 
   14862    14949    14967    14893    14804    14771    14787    14786 
   14740    14704    14720    14778    14852    14914    14929    14913 
   14867    14783    14740    14808    14910    14943    14886    14797 
   14767    14796    14825    14851    14874    14883    14902    14913 
   14874    14820    14810    14829    14813    14770    14767    14814 
   14854    14866    14868    14845    14797    14769    14773    14797 
   14805    14763    14724    14754    14827    14879    14863    14813 
   14802    14832    14840    14832    14870    14918    14894    14809 
   14751    14791    14912    15010    15028    14989    14935    14874 
   14794    14724    14724    14804    14918    15007    15028    14999 
   14967    14931    14914    14944    14963    14901    14798    14758 
   14798    14860    14887    14866    14828    14806    14808    14833 
   14860    14859    14829    14787    14742    14720    14752    14855 
   15001    15111    15130    15094    15049    14978    14872    14794 
   14783    14802    14789    14747    14735    14770    14810    14820 
   14791    14746    14725    14739    14750    14739    14698    14667 
   14723    14832    14894    14870    14806    14804    14878    14925 
   14912    14891    14883    14872    14848    14800    14763    14794 
   14851    14879    14921    14967    14948    14895    14887    14914 
   14912    14845    14746    14697    14733    14804    14860    14879 
   14870    14886    14931    14953    14958    14971    14966    14926 
   14867    14802    14760    14747    14751    14794    14850    14868 
   14868    14877    14895    14914    14921    14917    14929    14979 
   15066    15153    15195    15175    15086    14949    14844    14797 
   14798    14832    14840    14779    14693    14639    14652    14708 
   14750    14771    14802    14850    14898    14912    14868    14801 
   14746    14690    14666    14748    14883    14935    14868    14760 
   14723    14759    14771    14744    14739    14769    14818    14854 
   14872    14887    14870    14827    14812    14833    14864    14890 
   14902    14918    14939    14917    14851    14801    14782    14794 
   14841    14894    14947    14993    14994    14949    14905    14897 
   14922    14953    14974    14976    14959    14918    14882    14877 
   14852    14783    14746    14775    14832    14858    14820    14777 
   14781    14783    14746    14706    14694    14725    14790    14847 
   14878    14879    14854    14831    14840    14886    14928    14932 
   14921    14928    14943    14931    14889    14836    14794    14758 
   14719    14700    14717    14763    14833    14908    14945    14920 
   14851    14812    14854    14935    14949    14883    14831    14832 
   14836    14825    14809    14818    14860    14878    14845    14801 
   14793    14821    14821    14766    14710    14708    14751    14785 
   14787    14805    14851    14897    14952    15025    15075    15071 
   15018    14951    14910    14901    14882    14839    14805    14794 
   14787    14751    14683    14627    14598    14589    14601    14639 
   14713    14794    14843    14862    14852    14829    14831    14870 
   14908    14901    14859    14821    14810    14831    14864    14881 
   14881    14886    14914    14947    14955    14947    14931    14899 
   14887    14921    14979    15017    15013    14985    14966    14968 
   14979    14994    15018    15007    14932    14841    14804    14816 
   14791    14700    14631    14648    14727    14816    14867    14882 
   14921    14991    15017    14964    14877    14813    14812    14868 
   14959    15047    15103    15110    15075    15014    14943    14875 
   14837    14858    14905    14918    14889    14829    14791    14802 
   14814    14817    14845    14851    14812    14804    14863    14953 
   15022    15032    14978    14893    14832    14844    14928    15017 
   15044    14983    14862    14775    14791    14844    14835    14789 
   14786    14821    14844    14824    14777    14763    14778    14760 
   14710    14665    14632    14609    14581    14575    14636    14723 
   14787    14829    14843    14841    14866    14906    14940    14959 
   14943    14909    14905    14909    14871    14800    14742    14750 
   14805    14827    14786    14762    14820    14882    14839    14717 
   14623    14611    14669    14769    14895    14974    14933    14845 
   14810    14844    14905    14920    14878    14844    14856    14863 
   14850    14860    14908    14953    14931    14866    14856    14899 
   14924    14904    14847    14777    14716    14698    14758    14855 
   14912    14931    14951    14958    14925    14882    14878    14912 
   14931    14906    14859    14818    14810    14827    14812    14766 
   14743    14742    14763    14802    14813    14809    14816    14806 
   14794    14800    14794    14782    14777    14797    14867    14922 
   14885    14828    14852    14935    15017    15047    15007    14960 
   14951    14929    14874    14831    14836    14868    14887    14877 
   14867    14871    14872    14862    14833    14796    14785    14818 
   14874    14908    14895    14874    14847    14808    14812    14851 
   14859    14833    14812    14835    14925    14993    14948    14881 
   14877    14901    14913    14902    14887    14904    14916    14886 
   14852    14841    14860    14928    14985    14971    14918    14883 
   14867    14841    14806    14787    14774    14746    14728    14746 
   14791    14845    14874    14867    14848    14833    14833    14818 
   14777    14767    14793    14805    14824    14850    14858    14859 
   14851    14825    14801    14796    14809    14855    14905    14882 
   14820    14810    14850    14906    14960    14982    14963    14914 
   14840    14809    14856    14883    14843    14813    14812    14825 
   14854    14863    14868    14902    14920    14921    14933    14914 
   14868    14837    14824    14844    14898    14935    14928    14910 
   14883    14829    14800    14859    14972    15032    14975    14847 
   14750    14755    14797    14752    14673    14656    14674    14677 
   14652    14632    14688    14774    14802    14804    14839    14887 
   14908    14889    14875    14890    14890    14844    14802    14800 
   14810    14828    14858    14889    14928    14963    14956    14894 
   14793    14690    14628    14650    14739    14812    14821    14793 
   14785    14829    14863    14835    14805    14817    14831    14824 
   14817    14824    14851    14877    14883    14862    14818    14797 
   14818    14866    14920    14966    14997    14970    14852    14742 
   14754    14848    14925    14952    14937    14920    14922    14935 
   14956    14964    14921    14835    14786    14820    14882    14926 
   14943    14917    14864    14805    14767    14779    14808    14816 
   14779    14697    14652    14686    14733    14775    14802    14801 
   14806    14852    14906    14922    14926    14966    15022    15049 
   15013    14947    14939    15007    15079    15094    15066    15043 
   15014    14941    14844    14783    14813    14920    14987    14962 
   14932    14926    14874    14770    14689    14679    14731    14752 
   14702    14679    14750    14871    14967    14987    14978    14997 
   15012    15012    15016    14982    14894    14812    14751    14740 
   14798    14859    14881    14885    14912    14986    15075    15129 
   15126    15079    14990    14863    14735    14656    14669    14783 
   14947    15051    15010    14883    14800    14806    14840    14821 
   14754    14700    14693    14727    14758    14773    14773    14756 
   14755    14791    14862    14916    14890    14794    14698    14639 
   14634    14683    14743    14779    14824    14887    14922    14933 
   14936    14932    14939    14908    14821    14796    14862    14914 
   14887    14829    14827    14859    14844    14781    14750    14779 
   14800    14754    14661    14594    14608    14636    14616    14590 
   14623    14710    14750    14682    14616    14636    14671    14635 
   14584    14639    14806    14956    15007    15021    15068    15121 
   15107    14994    14841    14781    14836    14898    14902    14851 
   14779    14752    14800    14883    14955    14976    14951    14899 
   14836    14794    14805    14823    14789    14713    14658    14679 
   14775    14889    14999    15110    15167    15105    14997    14974 
   15048    15099    15061    15005    14980    14974    14937    14855 
   14782    14744    14686    14621    14634    14712    14775    14816 
   14862    14902    14916    14897    14825    14732    14693    14694 
   14700    14721    14754    14787    14832    14882    14916    14920 
   14920    14956    15012    15013    14966    14929    14914    14871 
   14769    14679    14690    14750    14766    14769    14806    14856 
   14902    14924    14906    14878    14845    14798    14774    14802 
   14881    14976    15029    15039    15025    14990    14962    14940 
   14902    14879    14870    14872    14912    14951    14952    14947 
   14959    14967    14947    14906    14864    14829    14812    14820 
   14870    14949    15002    15013    15022    15037    15032    15036 
   15087    15121    15053    14928    14836    14802    14805    14793 
   14725    14640    14624    14671    14698    14698    14693    14670 
   14631    14617    14648    14674    14651    14652    14759    14887 
   14909    14847    14824    14871    14905    14878    14854    14890 
   14951    14986    14959    14895    14868    14860    14828    14827 
   14891    14958    15003    15041    15061    15080    15088    15040 
   14968    14921    14906    14933    14972    14980    14932    14829 
   14724    14682    14706    14766    14831    14871    14867    14817 
   14763    14774    14855    14929    14949    14941    14917    14867 
   14804    14748    14746    14812    14875    14891    14901    14925 
   14925    14872    14787    14701    14624    14561    14531    14567 
   14677    14778    14796    14755    14721    14729    14773    14786 
   14744    14708    14716    14723    14713    14723    14752    14791 
   14802    14724    14575    14467    14492    14650    14845    14974 
   14987    14920    14878    14916    14983    15028    15052    15080 
   15110    15106    15060    14995    14960    14956    14917    14827 
   14740    14689    14665    14654    14673    14756    14870    14931 
   14890    14778    14682    14644    14658    14715    14794    14855 
   14881    14885    14891    14912    14944    14994    15024    14997 
   14939    14875    14816    14791    14802    14824    14850    14883 
   14943    14999    15014    15001    14949    14837    14724    14666 
   14663    14693    14754    14870    15021    15125    15148    15122 
   15086    15061    15039    14966    14871    14850    14908    14959 
   14936    14863    14810    14816    14883    14966    14990    14943 
   14871    14820    14809    14851    14943    15030    15044    15016 
   15051    15155    15241    15230    15129    15039    14994    14917 
   14778    14640    14558    14554    14588    14612    14642    14694 
   14746    14762    14760    14779    14802    14804    14796    14791 
   14802    14806    14777    14763    14786    14790    14767    14737 
   14706    14710    14713    14693    14712    14755    14779    14777 
   14717    14673    14708    14759    14778    14752    14737    14804 
   14920    15071    15213    15240    15134    14960    14809    14748 
   14747    14782    14850    14913    14976    15002    14932    14824 
   14742    14701    14704    14717    14763    14843    14920    15009 
   15113    15184    15187    15106    14976    14858    14800    14828 
   14914    15002    15028    14982    14948    14979    15036    15060 
   15029    14983    14958    14931    14870    14774    14705    14723 
   14789    14856    14908    14906    14851    14752    14651    14596 
   14596    14639    14682    14689    14701    14739    14782    14809 
   14813    14828    14886    14943    14929    14848    14774    14770 
   14814    14832    14804    14794    14820    14843    14872    14916 
   14959    14979    14964    14925    14894    14899    14936    14956 
   14956    14983    15032    15076    15113    15118    15086    15040 
   14959    14856    14796    14775    14797    14889    14997    15055 
   15084    15122    15148    15138    15115    15076    14978    14833 
   14706    14619    14590    14620    14663    14689    14659    14574 
   14527    14561    14613    14646    14658    14625    14547    14470 
   14457    14542    14675    14773    14816    14831    14805    14724 
   14643    14655    14797    14985    15094    15087    14998    14855 
   14685    14507    14338    14250    14239    14220    14200    14256 
   14409    14617    14831    15012    15095    15063    14997    14972 
   14980    14960    14890    14813    14781    14794    14810    14797 
   14793    14839    14924    15005    15059    15099    15144    15168 
   15169    15182    15209    15257    15288    15217    15074    14974 
   14991    15076    15111    15107    15141    15176    15145    15076 
   15030    15030    15040    15005    14937    14909    14958    15006 
   15003    14980    14975    14995    15017    15002    14953    14858 
   14742    14690    14715    14778    14877    14955    14951    14889 
   14821    14763    14705    14647    14598    14570    14581    14604 
   14593    14574    14588    14634    14733    14858    14908    14881 
   14839    14796    14763    14759    14762    14747    14712    14636 
   14539    14496    14546    14639    14713    14770    14840    14929 
   15013    15049    15039    15007    14985    14976    14962    14908 
   14827    14771    14790    14867    14936    14936    14875    14836 
   14866    14897    14877    14851    14875    14925    14926    14856 
   14790    14790    14821    14814    14775    14743    14709    14648 
   14573    14528    14569    14705    14868    14991    15068    15106 
   15115    15124    15137    15156    15186    15199    15165    15109 
   15040    14945    14837    14723    14617    14567    14565    14570 
   14577    14590    14601    14557    14438    14314    14285    14386 
   14536    14631    14670    14697    14737    14802    14879    14947 
   14991    15013    15024    15036    15039    15002    14937    14890 
   14883    14887    14833    14736    14715    14816    14924    14960 
   14982    15034    15080    15105    15142    15213    15290    15326 
   15287    15207    15144    15128    15138    15126    15084    15032 
   14966    14908    14889    14916    14964    14987    14959    14916 
   14901    14906    14909    14898    14847    14746    14655    14631 
   14659    14731    14814    14868    14905    14970    15033    15032 
   14964    14859    14732    14631    14605    14650    14732    14812 
   14860    14897    14959    15013    15025    14994    14944    14926 
   14929    14901    14844    14805    14806    14827    14856    14893 
   14910    14891    14837    14783    14782    14835    14871    14866 
   14859    14859    14870    14881    14845    14769    14701    14658 
   14636    14631    14632    14667    14747    14824    14858    14859 
   14871    14899    14893    14852    14825    14809    14805    14813 
   14786    14727    14698    14717    14742    14731    14688    14667 
   14702    14751    14758    14736    14720    14729    14759    14756 
   14706    14651    14580    14461    14332    14273    14300    14345 
   14384    14463    14598    14759    14881    14910    14886    14866 
   14837    14770    14681    14648    14697    14755    14793    14874 
   15010    15114    15115    15030    14933    14881    14863    14852 
   14878    14945    15007    15028    14993    14925    14859    14833 
   14870    14949    15061    15192    15299    15350    15334    15257 
   15164    15091    15047    15059    15109    15142    15138    15064 
   14926    14790    14705    14670    14659    14671    14751    14895 
   15006    15048    15067    15059    15017    14989    15007    15060 
   15111    15151    15192    15211    15169    15088    15029    15018 
   15012    14964    14883    14810    14782    14779    14758    14724 
   14719    14755    14806    14845    14890    14949    14971    14944 
   14916    14902    14879    14837    14798    14801    14845    14893 
   14904    14891    14882    14839    14725    14586    14515    14543 
   14607    14642    14650    14659    14682    14692    14697    14760 
   14875    14963    14990    14978    14975    14978    14944    14899 
   14890    14897    14866    14787    14715    14697    14733    14801 
   14878    14933    14951    14909    14808    14677    14553    14463 
   14418    14400    14420    14503    14617    14725    14804    14837 
   14837    14832    14825    14809    14783    14759    14755    14771 
   14805    14874    14925    14897    14837    14810    14827    14850 
   14825    14756    14681    14624    14597    14596    14635    14721 
   14823    14916    14997    15063    15109    15105    15055    15003 
   14962    14933    14924    14913    14872    14805    14724    14628 
   14554    14550    14567    14571    14602    14673    14762    14843 
   14899    14955    15016    15067    15086    15049    14998    14999 
   15028    15053    15063    15026    14956    14901    14882    14881 
   14864    14825    14771    14702    14635    14604    14620    14667 
   14736    14827    14916    14970    14989    14986    14966    14933 
   14901    14872    14863    14875    14870    14829    14789    14756 
   14723    14702    14692    14705    14758    14824    14895    14952 
   14968    14949    14893    14825    14789    14794    14829    14860 
   14879    14890    14902    14929    14960    14979    14986    14958 
   14904    14854    14835    14851    14879    14881    14831    14763 
   14751    14828    14921    14956    14967    14999    15030    15033 
   15010    14999    15017    15024    14997    14948    14902    14877 
   14872    14854    14793    14717    14674    14719    14840    14958 
   15037    15094    15151    15214    15223    15136    15013    14904 
   14816    14759    14721    14675    14642    14652    14704    14762 
   14771    14751    14774    14845    14910    14931    14917    14909 
   14913    14918    14941    14968    14991    15032    15071    15086 
   15086    15061    15006    14926    14835    14735    14655    14639 
   14701    14820    14944    15034    15090    15138    15176    15184 
