Origin Time       2024/04/02 04:24:00
Lat.              40.133
Long.             141.712
Depth. (km)       71
Mag.              6.0
Station Code      HKD113
Station Lat.      42.1287
Station Long.     143.3153
Station Height(m) 15
Record Time       2024/04/02 04:25:44
Sampling Freq(Hz) 100Hz
Duration Time(s)  60
Dir.              N-S
Scale Factor      3920(gal)/6182761
Max. Acc. (gal)   2.150
Last Correction   2024/04/02 04:25:44
Memo.             
[...]
     125       43     -146     -315     -298     -139        3       90 
     125      128      151      134       -3     -199     -356     -398 
    -310     -188      -62       98      211      213      104     -135 
    -423     -617     -665     -525     -224       63      270      415 
     424      304      129      -99     -318     -415     -337     -109 
     114      185      145       58      -83     -235     -325     -318 
    -215      -94      -16       65      146      157       86      -60 
    -276     -491     -606     -541     -300      -28      163      294 
     373      340      166     -109     -413     -623     -612     -417 
    -170       84      274      266       86     -111     -240     -327 
    -409     -444     -363     -194      -28      117      246      307 
     280      181       -5     -233     -394     -418     -303     -106 
      98      222      167       -4     -152     -278     -362     -333 
    -237     -122       12      135      197      127      -79     -281 
    -395     -464     -465     -327     -112       89      251      308 
     198       -9     -222     -383     -462     -483     -449     -354 
    -249     -153      -31       67       60       19       53       90 
      64       34        1      -75     -151     -174     -138     -133 
    -236     -294     -152       67      214      271      231      119 
      31       22       25      -91     -274     -327     -236     -139 
     -62       18       50       31       25       21      -38     -139 
    -215     -235     -258     -310     -309     -255     -224     -166 
     -32       69       67       36       44       57       21      -64 
    -183     -316     -386     -322     -155      -14        3      -57 
     -73      -25       18       14      -38     -118     -184     -212 
    -211     -204     -203     -161      -26      121      186      194 
     167       76      -46     -134     -177     -228     -316     -376 
    -336     -222      -88       43      130      149      117       31 
    -134     -325     -391     -246       10      201      230       97 
    -119     -290     -347     -336     -326     -307     -230     -118 
     -37        7        9      -56     -141     -188     -204     -222 
    -255     -257     -152       24      152      172       73     -114 
    -263     -316     -361     -427     -424     -328     -181      -24 
      98      184      255      272      211       86     -112     -314 
    -387     -305     -134       49      172      205      148       -8 
    -207     -334     -368     -359     -304     -154       70      252 
     301      235      117      -53     -268     -406     -378     -245 
     -95        3        8      -42     -115     -193     -211     -165 
    -108      -29       79      162      191      177      100      -83 
    -316     -500     -621     -657     -520     -192      192      384 
     260      -20     -230     -345     -424     -429     -325     -157 
      33      198      242      115      -98     -236     -256     -276 
    -355     -401     -320     -108      134      278      299      214 
      22     -162     -222     -247     -279     -204      -25      164 
     315      334      158     -116     -335     -423     -413     -354 
    -218       25      282      402      350      171      -71     -263 
    -340     -368     -391     -342     -193      -30      112      250 
     301      158     -134     -401     -535     -564     -502     -299 
     -45      105      198      307      316      148     -103     -311 
    -395     -351     -241      -94       57      152      184      114 
    -134     -454     -659     -672     -492     -210       70      315 
     402      250       39      -99     -196     -230     -170      -53 
      83      184      205      151       56      -14      -37     -104 
    -282     -458     -482     -346     -125      111      292      305 
     104     -163     -349     -453     -458     -353     -243     -168 
     -69        9        2      -45      -69      -50      -40     -107 
    -192     -210     -181     -124      -56      -41     -113     -240 
    -316     -254     -137      -63       10       88      110      104 
      85       -7     -153     -270     -289     -174      -13       66 
     103      173      217      187      118       16     -131     -255 
    -311     -339     -324     -243     -150      -54       44       36 
     -83     -172     -175     -113       39      224      254       61 
    -209     -379     -384     -297     -232     -212     -180     -107 
     -47      -73     -173     -228     -148      -15       27      -22 
     -78     -107     -107      -73      -54     -123     -258     -335 
    -275      -82      180      386      423      302      133      -36 
    -264     -528     -660     -555     -290       -1      221      308 
     207      -21     -228     -333     -338     -254     -108       59 
     215      295      237      103        6      -63     -180     -333 
    -416     -380     -298     -225     -120       19       97       55 
     -37      -84     -110     -141     -128      -43       73      141 
      89      -80     -306     -465     -445     -311     -186      -35 
     180      353      335      132      -70     -169     -253     -332 
    -332     -323     -373     -382     -303     -221     -190     -192 
    -196     -189     -188     -154      -74      -55     -119     -142 
    -107     -105     -124     -115      -78        8      133      217 
     176       11     -161     -244     -283     -319     -315     -248 
    -124        7       90      143      149       74        5        4 
       0      -67     -176     -252     -238     -129       47      184 
     168       30     -102     -163     -197     -235     -233     -189 
    -142      -63       24       29      -39     -122     -195     -239 
    -255     -217      -68      139      269      279      192       18 
    -202     -415     -581     -632     -506     -218      102      277 
     259      103     -158     -472     -715     -749     -546     -211 
     150      472      620      471      121     -203     -364     -341 
    -214      -98      -16       79      180      213      102      -97 
    -241     -312     -328     -221      -30      128      234      248 
      59     -298     -608     -675     -491     -190      133      410 
     507      345       28     -294     -518     -557     -407     -168 
      62      234      310      242       58     -105     -162     -190 
    -238     -211      -71       60      105      123      142       83 
    -105     -339     -467     -436     -303      -86      175      316 
     237       41     -150     -310     -413     -409     -306     -175 
     -87      -42        2       33       44       32      -74     -275 
    -385     -294     -133      -25       45       84       84       30 
    -115     -311     -457     -483     -354     -135       22       74 
     101      116       57      -39      -92     -116     -159     -203 
    -176      -83      -44     -104     -180     -247     -314     -331 
    -237      -74       30       57       81       79       -1     -115 
    -181     -198     -235     -293     -267     -116       53      155 
     211      201       57     -152     -273     -260     -178     -114 
    -114     -166     -201     -136      -12       -8     -175     -318 
    -297     -187     -122     -133     -155     -149     -104      -12 
      55        6      -72      -45       48       98       61      -72 
    -240     -326     -253      -28      199      227       60     -112 
    -132      -11       72        1      -95      -67       42       92 
      10     -136     -252     -331     -370     -350     -317     -313 
    -294     -222     -100       39      103       37      -91     -175 
    -160      -73       -8       18       32       16      -16      -79 
    -260     -464     -500     -371     -187      -56      -33      -59 
    -113     -176      -95      119      238      207      146      129 
     143      101      -69     -286     -420     -450     -406     -299 
    -171      -29      157      294      283      193       93      -48 
    -219     -340     -369     -357     -351     -324     -230     -110 
     -24       72      178      195      140       99       70       54 
      46      -19     -151     -313     -444     -447     -341     -220 
     -69      116      203      102     -108     -268     -309     -313 
    -312     -239     -133     -116     -173     -203     -189     -157 
    -100      -41      -53     -144     -244     -303     -342     -362 
    -299     -183     -148     -174      -67      211      445      493 
     375      123     -171     -359     -365     -252     -206     -288 
    -299     -150       26      141      168       85      -62     -179 
    -216     -208     -224     -222      -77      146      220       92 
     -86     -203     -248     -208     -103      -18      -18      -48 
      -1       89       97       35      -42     -157     -256     -245 
    -176     -120      -63       -2      -24     -231     -513     -595 
    -430     -225      -66       22      -43     -188     -252     -224 
    -187     -178     -147      -61      -40     -151     -213      -95 
      83      198      250      211       25     -222     -380     -438 
    -450     -354     -119       91      179      266      398      429 
     250      -58     -311     -426     -429     -328     -140       44 
     158      216      207       83      -47       -7      138      163 
      77       60      119      117        0     -175     -264     -157 
      20       62       -5      -24       12       20       11       11 
     -53     -247     -549     -870    -1006     -805     -376       42 
     293      361      339      255       13     -342     -548     -518 
    -424     -323     -161        4      147      259      202      -46 
    -332     -572     -676     -542     -205      233      636      849 
     820      566      114     -402     -750     -748     -387       66 
     320      421      526      553      408      186      -11     -115 
     -75       41       83      -74     -362     -533     -519     -466 
    -365     -149       57      159      261      410      419      125 
    -355     -783    -1010     -954     -649     -295      -46      150 
     367      493      357      -17     -462     -830     -996     -904 
    -655     -386     -136       69      183      204      145        4 
    -142     -179     -102        0       32      -13      -40      -33 
     -52     -147     -382     -667     -702     -380      161      802 
    1299     1349      943      257     -555    -1337    -1858    -1901 
   -1500     -899     -256      355      804      962      747      187 
    -479     -939    -1028     -749     -254      288      757      925 
     654      169     -253     -545     -680     -555     -127      432 
     837      906      642      215     -150     -344     -383     -297 
     -96      202      525      759      803      660      408       79 
    -275     -513     -563     -486     -381     -293     -182      -67 
     -78     -253     -452     -452      -93      510     1001     1076 
     669      -15     -663    -1121    -1383    -1397    -1120     -682 
    -271       82      395      572      561      470      380      276 
     142      -17     -211     -439     -615     -603     -472     -502 
    -681     -669     -369       67      614     1168     1398     1121 
     475     -315    -1091    -1644    -1700    -1224     -484      270 
     881     1134      909      447       97     -106     -303     -514 
    -729     -903     -825     -368      208      459      213     -281 
    -662     -793     -661     -241      342      828     1019      756 
     -24    -1066    -1912    -2180    -1646     -394     1100     2232 
    2572     2068     1026     -199    -1311    -2003    -2114    -1691 
    -900      -64      505      748      763      600      307       18 
    -105       -6      247      540      715      614      248     -265 
    -905    -1538    -1804    -1506     -746      304     1355     1935 
    1708      770     -419    -1326    -1692    -1609    -1182     -401 
     592     1508     2028     1817      892     -253    -1168    -1655 
   -1652    -1271     -675       22      665     1113     1244      924 
     218     -616    -1276    -1494    -1263     -789     -176      481 
     920      903      423     -225     -608     -523     -120      359 
     740      887      760      383     -210     -836    -1281    -1526 
   -1590    -1392     -890     -203      423      822      968      775 
     259     -223     -378     -309     -203     -138     -130     -128 
    -134     -242     -464     -698     -820     -680     -231      339 
     751      779      346     -316     -857    -1132    -1197    -1127 
    -907     -478       51      382      276     -228     -810    -1067 
    -823     -252      321      701      872      811      508       99 
    -285     -627     -839     -772     -412      140      728     1192 
    1409     1257      648     -302    -1236    -1680    -1325     -339 
     762     1551     1784     1369      494     -449    -1184    -1621 
   -1625    -1079     -156      731     1200     1059      397     -443 
   -1033    -1086     -614      207     1147     1842     1964     1506 
     667     -397    -1471    -2152    -2139    -1480     -415      764 
    1752     2233     1896      671    -1087    -2716    -3485    -3033 
   -1661       -6     1405     2218     2252     1598      597     -445 
   -1356    -1840    -1586     -740      161      674      664      283 
    -185     -575     -824     -821     -424      379     1321     1984 
    2041     1335       74    -1203    -2096    -2471    -2275    -1579 
    -593      444     1282     1689     1493      733     -208     -930 
   -1317    -1381    -1143     -651       -4      561      760      517 
      -3     -475     -573     -337      -73      119      284      399 
     473      471      250     -197     -675     -990    -1020     -721 
    -202      330      735      992     1079      916      470     -128 
    -606     -739     -578     -324      -76      113      191      232 
     307      310      164        6        1      157      297      208 
     -85     -375     -575     -642     -505     -231       12      173 
     317      430      366       38     -419     -746     -818     -729 
    -624     -611     -724     -846     -811     -587     -276      -42 
      26       11       18       47       53      -31     -143      -60 
     212      438      618      862     1068     1013      566     -154 
    -884    -1473    -1767    -1561     -918     -115      658     1214 
    1332     1008      431     -234     -822    -1091     -871     -267 
     430     1010     1333     1256      777       35     -781    -1382 
   -1499    -1121     -454      231      628      536        8     -758 
   -1509    -1890    -1676     -950       38     1029     1796     2167 
    1978     1195       93     -954    -1750    -2150    -1972    -1294 
    -442      347      895      967      522     -128     -567     -644 
    -490     -206      197      526      578      439      186     -252 
    -735     -947     -803     -447      -22      440      914     1270 
    1381     1136      449     -489    -1277    -1713    -1818    -1645 
   -1246     -707     -131      451      979     1232     1064      603 
      45     -507     -961    -1188    -1099     -693      -62      581 
    1002     1094      865      406     -135     -606     -926    -1084 
    -977     -480      211      699      828      668      277     -271 
    -777     -974     -692       26      889     1397     1152      276 
    -700    -1333    -1499    -1269     -728      -23      615     1133 
    1524     1502      864     -167    -1198    -1940    -2220    -1986 
   -1337     -484      375     1013     1181      835      191     -398 
    -631     -473     -114      237      436      403      137     -273 
    -704    -1031    -1087     -733        3      898     1633     1951 
    1746     1122      330     -433    -1078    -1530    -1707    -1555 
   -1109     -497      136      627      846      815      613      256 
    -208     -627     -836     -810     -675     -545     -490     -504 
    -383        3      448      699      720      626      530      418 
     165     -292     -796    -1080    -1035     -768     -413      -36 
     306      549      632      503      157     -365     -948    -1339 
   -1336     -961     -349      334      901     1272     1428     1275 
     793      205     -207     -354     -322     -262     -296     -410 
    -480     -367      -83      152      178       93       91      238 
     354      172     -301     -839    -1203    -1157     -706     -162 
     212      300      133      -83     -206     -246     -175       -6 
      94       46     -111     -400     -734     -852     -650     -263 
     125      371      467      493      464      311      -12     -399 
    -617     -502      -55      525      962     1188     1230     1002 
     519      -47     -568     -925     -940     -576       12      577 
     850      753      454       74     -352     -759    -1104    -1247 
   -1018     -557     -145      104      142      -23     -313     -701 
   -1083    -1284    -1230     -896     -380       32      201      195 
      63      -95     -139     -112     -126     -141      -28      260 
     620      787      574      103     -362     -664     -765     -694 
    -504     -224      128      470      690      743      661      489 
     262       59       13      116      232      362      596      856 
     923      648       74     -581    -1069    -1279    -1244    -1032 
    -709     -344      -37       36     -156     -332     -256      -33 
     174      332      437      473      440      387      354      278 
      95     -199     -547     -757     -694     -491     -314     -187 
    -110     -103     -209     -432     -586     -502     -256       15 
     214      213        4     -211     -256     -150       -5       82 
      57      -62     -204     -254     -110      173      413      494 
     409      236       65     -114     -335     -569     -745     -728 
    -485     -204      -13      161      398      649      742      553 
     136     -351     -735     -846     -563       45      667      967 
     845      460       39     -269     -398     -334     -118      147 
     279       97     -365     -878    -1241    -1344    -1191     -892 
    -576     -363     -252      -72      236      440      285     -217 
    -798    -1202    -1294    -1013     -448      201      777     1159 
    1220      914      356     -221     -625     -779     -667     -374 
     -65      179      377      508      454      116     -399     -786 
    -828     -553     -113      393      892     1198     1079      524 
    -186     -727     -954     -869     -525       -3      540      859 
     787      403      -61     -442     -731     -968    -1088     -941 
    -482      107      549      712      630      342      -48     -363 
    -572     -737     -797     -686     -445     -139      135      253 
     225      127      -42     -307     -637     -960    -1142    -1063 
