Origin Time       2024/04/02 04:24:00
Lat.              40.133
Long.             141.712
Depth. (km)       71
Mag.              6.0
Station Code      HKD126
Station Lat.      42.5748
Station Long.     141.9284
Station Height(m) 7
Record Time       2024/04/02 04:25:54
Sampling Freq(Hz) 100Hz
Duration Time(s)  60
Dir.              E-W
Scale Factor      7845(gal)/8223790
Max. Acc. (gal)   5.151
Last Correction   2024/04/02 04:25:54
Memo.             
[...]
   -9309    -9181    -9020    -8837    -8654    -8507    -8410    -8330 
   -8233    -8113    -7990    -7915    -7917    -7962    -8000    -8046 
   -8151    -8316    -8505    -8691    -8853    -9000    -9177    -9406 
   -9641    -9786    -9799    -9732    -9636    -9529    -9431    -9340 
   -9261    -9209    -9189    -9177    -9144    -9092    -9038    -8968 
   -8851    -8710    -8586    -8487    -8398    -8303    -8186    -8070 
   -7993    -7946    -7913    -7911    -7946    -8010    -8109    -8241 
   -8391    -8529    -8631    -8683    -8696    -8710    -8780    -8945 
   -9181    -9421    -9605    -9706    -9710    -9620    -9472    -9304 
   -9123    -8939    -8806    -8761    -8789    -8850    -8897    -8885 
   -8808    -8700    -8583    -8473    -8399    -8371    -8367    -8376 
   -8410    -8478    -8569    -8668    -8731    -8721    -8648    -8567 
   -8529    -8548    -8611    -8704    -8795    -8865    -8922    -8974 
   -9012    -9009    -8964    -8893    -8822    -8750    -8702    -8727 
   -8830    -8970    -9136    -9292    -9359    -9325    -9228    -9085 
   -8932    -8816    -8735    -8668    -8638    -8664    -8725    -8780 
   -8799    -8760    -8660    -8518    -8382    -8293    -8251    -8245 
   -8283    -8372    -8503    -8635    -8738    -8810    -8861    -8911 
   -8965    -8995    -8974    -8919    -8846    -8765    -8696    -8630 
   -8540    -8438    -8379    -8388    -8459    -8569    -8704    -8815 
   -8872    -8900    -8935    -8974    -9005    -9018    -9008    -8991 
   -8982    -8993    -9034    -9113    -9205    -9255    -9216    -9094 
   -8945    -8815    -8689    -8532    -8357    -8218    -8141    -8109 
   -8106    -8139    -8221    -8360    -8522    -8675    -8816    -8962 
   -9124    -9305    -9479    -9601    -9636    -9590    -9518    -9450 
   -9369    -9262    -9127    -8965    -8797    -8658    -8563    -8526 
   -8538    -8552    -8542    -8522    -8518    -8515    -8468    -8388 
   -8370    -8449    -8567    -8664    -8746    -8822    -8891    -8931 
   -8920    -8874    -8819    -8737    -8644    -8596    -8629    -8716 
   -8826    -8946    -9072    -9178    -9239    -9240    -9163    -9024 
   -8885    -8775    -8699    -8676    -8716    -8795    -8869    -8892 
   -8857    -8800    -8746    -8703    -8691    -8735    -8835    -8953 
   -9072    -9197    -9310    -9404    -9495    -9589    -9668    -9714 
   -9695    -9613    -9514    -9427    -9329    -9184    -8977    -8753 
   -8567    -8421    -8309    -8232    -8154    -8036    -7898    -7793 
   -7738    -7696    -7626    -7541    -7526    -7661    -7935    -8262 
   -8594    -8896    -9115    -9247    -9337    -9406    -9460    -9512 
   -9571    -9641    -9705    -9761    -9828    -9910    -9981   -10006 
   -9972    -9880    -9738    -9541    -9285    -9005    -8757    -8591 
   -8533    -8571    -8673    -8807    -8923    -8978    -8959    -8853 
   -8658    -8426    -8205    -8044    -7989    -8009    -8033    -8056 
   -8129    -8278    -8467    -8602    -8621    -8586    -8615    -8758 
   -8985    -9215    -9393    -9533    -9655    -9763    -9841    -9830 
   -9701    -9494    -9254    -8992    -8722    -8432    -8106    -7784 
   -7518    -7345    -7268    -7256    -7287    -7368    -7484    -7634 
   -7834    -8062    -8284    -8496    -8710    -8955    -9251    -9540 
   -9737    -9795    -9706    -9514    -9293    -9086    -8907    -8766 
   -8660    -8568    -8503    -8488    -8529    -8594    -8611    -8568 
   -8534    -8557    -8630    -8718    -8785    -8834    -8915    -9047 
   -9201    -9339    -9439    -9479    -9431    -9275    -9049    -8791 
   -8506    -8202    -7925    -7716    -7591    -7543    -7553    -7608 
   -7743    -7973    -8270    -8599    -8928    -9217    -9428    -9548 
   -9628    -9705    -9757    -9779    -9802    -9852    -9938   -10058 
  -10169   -10154    -9913    -9441    -8826    -8160    -7504    -6912 
   -6446    -6176    -6154    -6403    -6871    -7422    -7906    -8243 
   -8433    -8527    -8569    -8573    -8560    -8527    -8488    -8486 
   -8530    -8591    -8667    -8781    -8949    -9201    -9563    -9995 
  -10411   -10719   -10885   -10976   -11094   -11246   -11369   -11419 
  -11412   -11385   -11337   -11210   -10941   -10507    -9934    -9289 
   -8644    -8071    -7626    -7345    -7284    -7457    -7786    -8148 
   -8428    -8553    -8525    -8386    -8182    -7978    -7846    -7793 
   -7778    -7766    -7769    -7846    -8047    -8361    -8749    -9143 
   -9458    -9633    -9661    -9587    -9497    -9464    -9471    -9463 
   -9444    -9451    -9486    -9498    -9427    -9269    -9047    -8773 
   -8436    -8023    -7549    -7061    -6629    -6311    -6146    -6143 
   -6278    -6517    -6820    -7152    -7473    -7746    -7979    -8241 
   -8553    -8872    -9170    -9479    -9821   -10185   -10531   -10786 
  -10905   -10859   -10638   -10289    -9926    -9625    -9367    -9104 
   -8829    -8563    -8321    -8097    -7889    -7727    -7649    -7682 
   -7827    -8051    -8302    -8548    -8760    -8923    -9081    -9288 
   -9535    -9772    -9987   -10219   -10516   -10860   -11186   -11426 
  -11545   -11527   -11354   -10989   -10426    -9753    -9100    -8544 
   -8086    -7645    -7133    -6544    -5914    -5265    -4634    -4106 
   -3807    -3840    -4207    -4826    -5570    -6327    -7068    -7803 
   -8491    -9082    -9570    -9976   -10339   -10690   -11052   -11423 
  -11749   -11981   -12140   -12210   -12112   -11807   -11308   -10673 
   -9991    -9329    -8702    -8131    -7673    -7392    -7299    -7356 
   -7535    -7807    -8112    -8421    -8694    -8835    -8792    -8573 
   -8235    -7898    -7688    -7645    -7785    -8131    -8654    -9259 
   -9801   -10139   -10204   -10008    -9587    -9007    -8405    -7894 
   -7516    -7331    -7396    -7709    -8236    -8935    -9717   -10428 
  -10905   -11044   -10844   -10384    -9795    -9211    -8723    -8417 
   -8330    -8434    -8662    -8939    -9170    -9274    -9220    -9004 
   -8608    -8039    -7362    -6696    -6166    -5883    -5915    -6262 
   -6809    -7373    -7815    -8071    -8164    -8162    -8148    -8199 
   -8376    -8707    -9147    -9598   -10015   -10407   -10735   -10945 
  -11036   -11036   -10967   -10855   -10763   -10767   -10874   -11038 
  -11240   -11453   -11626   -11708   -11658   -11434   -11014   -10413 
   -9713    -9061    -8569    -8233    -7975    -7731    -7489    -7246 
   -6967    -6598    -6137    -5638    -5219    -4992    -5008    -5269 
   -5775    -6513    -7427    -8394    -9294   -10066   -10655   -10993 
  -11036   -10786   -10312    -9744    -9239    -8918    -8760    -8625 
   -8409    -8087    -7663    -7175    -6697    -6324    -6118    -6060 
   -6097    -6220    -6423    -6673    -6978    -7385    -7915    -8527 
   -9157    -9725   -10188   -10550   -10798   -10909   -10893   -10804 
  -10714   -10655   -10585   -10465   -10300   -10142   -10052   -10031 
  -10026    -9964    -9791    -9486    -9062    -8565    -8051    -7574 
   -7204    -7020    -7063    -7330    -7770    -8287    -8776    -9167 
   -9444    -9633    -9779    -9904    -9999   -10049   -10075   -10129 
  -10241   -10378   -10485   -10504   -10397   -10161    -9826    -9433 
   -9015    -8630    -8355    -8253    -8345    -8546    -8738    -8851 
   -8835    -8630    -8195    -7550    -6806    -6116    -5595    -5296 
   -5209    -5293    -5522    -5934    -6559    -7354    -8198    -8968 
   -9633   -10219   -10735   -11155   -11426   -11527   -11538   -11568 
  -11622   -11624   -11481   -11121   -10559    -9868    -9105    -8321 
   -7570    -6916    -6413    -6097    -5976    -6031    -6242    -6605 
   -7125    -7751    -8361    -8860    -9242    -9532    -9732    -9848 
   -9877    -9853    -9867    -9990   -10193   -10396   -10527   -10530 
  -10408   -10193    -9933    -9675    -9458    -9282    -9144    -9054 
   -9016    -9019    -9046    -9058    -8997    -8838    -8602    -8295 
   -7915    -7489    -7078    -6743    -6540    -6482    -6542    -6693 
   -6925    -7249    -7670    -8159    -8650    -9053    -9328    -9513 
   -9617    -9582    -9374    -9047    -8696    -8395    -8183    -8086 
   -8112    -8243    -8411    -8534    -8596    -8642    -8696    -8735 
   -8734    -8737    -8819    -8984    -9174    -9337    -9429    -9416 
   -9292    -9088    -8866    -8684    -8554    -8456    -8380    -8349 
   -8399    -8565    -8831    -9138    -9397    -9529    -9504    -9356 
   -9146    -8914    -8683    -8478    -8340    -8324    -8444    -8661 
   -8926    -9193    -9433    -9634    -9788    -9894    -9964   -10015 
  -10060   -10127   -10245   -10382   -10485   -10555   -10620   -10678 
  -10687   -10552   -10187    -9609    -8895    -8128    -7403    -6768 
   -6238    -5854    -5657    -5637    -5765    -5988    -6234    -6477 
   -6732    -7034    -7410    -7857    -8370    -8942    -9556   -10181 
  -10791   -11327   -11740   -11988   -11994   -11718   -11210   -10546 
   -9803    -9084    -8437    -7888    -7470    -7161    -6890    -6625 
   -6373    -6172    -6064    -6041    -6099    -6261    -6534    -6945 
   -7537    -8275    -9049    -9753   -10345   -10825   -11211   -11497 
  -11680   -11773   -11816   -11848   -11834   -11676   -11329   -10866 
  -10384    -9898    -9362    -8758    -8135    -7576    -7142    -6851 
   -6687    -6647    -6748    -6997    -7349    -7731    -8070    -8298 
   -8383    -8353    -8257    -8135    -8021    -7944    -7932    -7994 
   -8117    -8275    -8432    -8560    -8653    -8716    -8729    -8657 
   -8530    -8457    -8568    -8912    -9402    -9882   -10274   -10602 
  -10897   -11122   -11203   -11111   -10881   -10562   -10181    -9755 
   -9333    -8988    -8739    -8560    -8395    -8187    -7924    -7646 
   -7396    -7186    -6988    -6771    -6559    -6431    -6440    -6573 
   -6762    -6941    -7110    -7337    -7673    -8100    -8554    -8955 
   -9236    -9381    -9424    -9409    -9356    -9288    -9228    -9211 
   -9254    -9344    -9428    -9444    -9360    -9180    -8916    -8608 
   -8316    -8112    -8070    -8222    -8521    -8881    -9266    -9655 
  -10006   -10285   -10482   -10600   -10659   -10694   -10717   -10685 
  -10550   -10292    -9895    -9381    -8833    -8326    -7875    -7452 
   -7025    -6600    -6232    -5995    -5934    -6081    -6453    -7020 
   -7709    -8446    -9166    -9815   -10353   -10779   -11132   -11450 
  -11743   -11983   -12148   -12251   -12297   -12259   -12128   -11905 
  -11576   -11109   -10490    -9740    -8924    -8151    -7499    -6955 
   -6471    -6058    -5765    -5620    -5634    -5786    -5992    -6196 
   -6404    -6619    -6825    -7005    -7150    -7288    -7464    -7697 
   -7989    -8311    -8622    -8877    -9049    -9155    -9225    -9256 
   -9246    -9228    -9246    -9305    -9373    -9391    -9346    -9286 
   -9261    -9261    -9285    -9336    -9420    -9562    -9794   -10122 
  -10516   -10885   -11095   -11051   -10741   -10255    -9694    -9120 
   -8591    -8149    -7830    -7647    -7607    -7681    -7812    -7940 
   -8016    -7990    -7844    -7619    -7383    -7206    -7133    -7183 
   -7362    -7665    -8054    -8478    -8903    -9321    -9726   -10104 
  -10439   -10728   -10967   -11114   -11114   -10970   -10716   -10372 
   -9976    -9587    -9212    -8802    -8341    -7875    -7462    -7141 
   -6925    -6808    -6760    -6756    -6774    -6818    -6930    -7164 
   -7522    -7983    -8545    -9194    -9903   -10586   -11121   -11410 
  -11430   -11227   -10903   -10567   -10309   -10168   -10100   -10042 
   -9963    -9884    -9830    -9767    -9624    -9362    -8992    -8559 
   -8121    -7744    -7456    -7236    -7060    -6910    -6791    -6720 
   -6685    -6669    -6681    -6747    -6874    -7042    -7245    -7516 
   -7884    -8314    -8749    -9161    -9558    -9925   -10201   -10308 
  -10210    -9948    -9594    -9236    -8941    -8726    -8590    -8527 
   -8527    -8568    -8619    -8671    -8752    -8881    -9035    -9205 
   -9366    -9439    -9378    -9192    -8931    -8684    -8499    -8379 
   -8330    -8332    -8317    -8257    -8172    -8089    -8037    -8062 
   -8197    -8482    -8931    -9510   -10170   -10840   -11425   -11863 
  -12121   -12178   -12051   -11762   -11341   -10827   -10255    -9682 
   -9142    -8629    -8122    -7641    -7236    -6971    -6878    -6939 
   -7125    -7399    -7684    -7909    -8054    -8140    -8212    -8282 
   -8313    -8294    -8260    -8206    -8082    -7863    -7587    -7337 
   -7204    -7219    -7329    -7466    -7620    -7798    -7990    -8168 
   -8318    -8452    -8591    -8761    -8974    -9207    -9405    -9540 
   -9607    -9624    -9578    -9447    -9221    -8927    -8617    -8344 
   -8140    -8013    -7966    -7979    -8039    -8139    -8280    -8488 
   -8787    -9151    -9506    -9768    -9873    -9809    -9640    -9489 
   -9485    -9698   -10130   -10733   -11403   -11997   -12403   -12549 
  -12421   -12064   -11564   -10987   -10385    -9783    -9157    -8500 
   -7858    -7269    -6768    -6377    -6060    -5761    -5466    -5158 
   -4854    -4621    -4522    -4615    -4953    -5543    -6349    -7314 
   -8359    -9371   -10249   -10913   -11327   -11507   -11479   -11292 
  -11036   -10767   -10466   -10073    -9521    -8779    -7894    -6984 
   -6161    -5482    -4962    -4625    -4494    -4602    -4969    -5579 
   -6359    -7241    -8187    -9193   -10233   -11249   -12174   -12964 
  -13590   -14014   -14197   -14145   -13875   -13392   -12685   -11774 
  -10710    -9575    -8456    -7457    -6674    -6146    -5863    -5795 
   -5898    -6123    -6439    -6806    -7187    -7600    -8102    -8721 
   -9414   -10127   -10831   -11511   -12139   -12626   -12865   -12806 
  -12461   -11892   -11157   -10312    -9381    -8398    -7420    -6511 
   -5737    -5143    -4737    -4495    -4410    -4482    -4675    -4962 
   -5362    -5873    -6462    -7098    -7778    -8525    -9343   -10170 
  -10932   -11572   -12047   -12348   -12494   -12491   -12356   -12124 
  -11804   -11389   -10895   -10358    -9801    -9236    -8681    -8148 
   -7643    -7203    -6860    -6621    -6501    -6486    -6529    -6617 
   -6751    -6916    -7105    -7310    -7518    -7742    -8019    -8353 
   -8741    -9178    -9639   -10084   -10477   -10770   -10917   -10917 
  -10802   -10609   -10377   -10156   -10008    -9938    -9887    -9805 
   -9664    -9460    -9208    -8927    -8641    -8398    -8222    -8110 
   -8055    -8050    -8081    -8129    -8158    -8143    -8129    -8148 
   -8175    -8187    -8164    -8095    -8029    -8025    -8098    -8237 
   -8410    -8598    -8810    -9038    -9247    -9421    -9580    -9748 
   -9911   -10026   -10068   -10066   -10056   -10022    -9933    -9792 
   -9620    -9404    -9127    -8766    -8329    -7851    -7380    -6960 
   -6620    -6373    -6235    -6224    -6332    -6538    -6794    -7069 
   -7368    -7680    -7996    -8332    -8669    -8945    -9150    -9332 
   -9529    -9748    -9945   -10041    -9967    -9718    -9337    -8895 
   -8459    -8073    -7757    -7530    -7408    -7393    -7468    -7601 
   -7763    -7940    -8151    -8425    -8787    -9235    -9741   -10238 
  -10679   -11041   -11294   -11422   -11419   -11284   -11032   -10686 
  -10274    -9819    -9333    -8845    -8411    -8085    -7871    -7732 
   -7654    -7663    -7777    -7947    -8117    -8253    -8361    -8494 
   -8710    -9022    -9401    -9819   -10231   -10577   -10825   -10970 
  -11011   -10959   -10836   -10660   -10443   -10181    -9891    -9605 
   -9336    -9066    -8752    -8341    -7813    -7218    -6648    -6200 
   -5937    -5883    -6031    -6351    -6782    -7253    -7720    -8179 
   -8644    -9099    -9490    -9752    -9857    -9834    -9724    -9563 
   -9374    -9161    -8935    -8735    -8581    -8446    -8295    -8143 
   -8052    -8068    -8206    -8451    -8752    -9057    -9328    -9539 
   -9678    -9768    -9833    -9875    -9867    -9779    -9617    -9420 
   -9227    -9046    -8862    -8675    -8517    -8433    -8445    -8522 
   -8626    -8748    -8899    -9084    -9278    -9433    -9504    -9463 
   -9331    -9139    -8901    -8645    -8403    -8189    -7997    -7821 
   -7643    -7445    -7226    -7017    -6855    -6759    -6748    -6841 
   -7025    -7264    -7546    -7861    -8154    -8380    -8542    -8656 
   -8739    -8792    -8804    -8804    -8878    -9090    -9429    -9838 
  -10241   -10571   -10808   -10943   -10972   -10886   -10686   -10401 
  -10069    -9726    -9391    -9062    -8734    -8425    -8156    -7951 
   -7832    -7816    -7900    -8044    -8199    -8330    -8446    -8565 
   -8681    -8775    -8827    -8826    -8775    -8706    -8673    -8719 
   -8861    -9074    -9305    -9533    -9760    -9961   -10092   -10127 
  -10068    -9946    -9801    -9637    -9443    -9201    -8918    -8607 
   -8256    -7862    -7476    -7155    -6914    -6739    -6613    -6550 
   -6566    -6670    -6863    -7113    -7348    -7503    -7553    -7514 
   -7415    -7279    -7150    -7092    -7150    -7358    -7724    -8216 
   -8779    -9351    -9884   -10362   -10774   -11111   -11381   -11608 
  -11823   -12025   -12186   -12275   -12293   -12256   -12159   -11962 
  -11608   -11041   -10260    -9346    -8429    -7628    -7030    -6677 
   -6554    -6610    -6804    -7101    -7431    -7716    -7925    -8075 
   -8182    -8256    -8295    -8305    -8330    -8424    -8583    -8779 
   -8962    -9089    -9144    -9123    -9026    -8873    -8685    -8494 
   -8353    -8328    -8426    -8591    -8775    -8958    -9117    -9235 
   -9294    -9275    -9186    -9070    -8969    -8893    -8841    -8811 
   -8811    -8851    -8927    -8996    -9004    -8915    -8726    -8464 
   -8179    -7917    -7715    -7593    -7568    -7650    -7842    -8117 
   -8433    -8733    -8962    -9115    -9200    -9236    -9250    -9265 
   -9324    -9474    -9725   -10052   -10392   -10669   -10829   -10841 
  -10702   -10438   -10103    -9765    -9458    -9158    -8829    -8460 
   -8070    -7699    -7379    -7122    -6929    -6804    -6735    -6697 
   -6685    -6720    -6816    -6968    -7182    -7442    -7716    -7975 
   -8218    -8464    -8730    -9032    -9378    -9741   -10073   -10319 
  -10442   -10427   -10281   -10039    -9757    -9482    -9242    -9062 
   -8978    -9019    -9184    -9447    -9767   -10064   -10249   -10250 
  -10031    -9620    -9103    -8591    -8189    -7948    -7866    -7908 
   -8043    -8225    -8398    -8517    -8568    -8579    -8591    -8645 
   -8766    -8949    -9169    -9397    -9606    -9787    -9923    -9998 
  -10019    -9981    -9856    -9641    -9375    -9092    -8812    -8550 
   -8330    -8191    -8147    -8174    -8244    -8344    -8465    -8600 
   -8737    -8841    -8873    -8831    -8718    -8549    -8330    -8054 
   -7717    -7341    -6957    -6608    -6331    -6173    -6192    -6411 
   -6806    -7333    -7928    -8517    -9047    -9504    -9867   -10133 
  -10331   -10493   -10628   -10724   -10771   -10762   -10685   -10532 
  -10296    -9967    -9560    -9105    -8617    -8116    -7651    -7276 
   -7028    -6914    -6922    -7041    -7242    -7484    -7726    -7927 
   -8056    -8125    -8158    -8170    -8185    -8243    -8372    -8557 
   -8756    -8927    -9045    -9099    -9100    -9069    -9031    -8984 
