Origin Time       2024/04/02 04:24:00
Lat.              40.133
Long.             141.712
Depth. (km)       71
Mag.              6.0
Station Code      HKD184
Station Lat.      42.7898
Station Long.     141.6008
Station Height(m) 69
Record Time       2024/04/02 04:25:24
Sampling Freq(Hz) 100Hz
Duration Time(s)  101
Dir.              N-S
Scale Factor      7845(gal)/8223790
Max. Acc. (gal)   5.686
Last Correction   2024/04/02 04:25:24
Memo.             
[...]
    2093     1884     1761     1922     2196     2354     2401     2469 
    2687     3090     3522     3734     3559     3014     2319     1790 
    1503     1341     1394     1737     2137     2420     2624     2747 
    2791     2778     2713     2639     2467     2128     1842     1791 
    1895     2073     2344     2729     3118     3283     3138     2841 
    2519     2133     1682     1333     1271     1460     1702     1956 
    2320     2766     3196     3574     3792     3663     3213     2767 
    2563     2493     2363     2092     1769     1590     1632     1850 
    2138     2353     2465     2509     2481     2413     2367     2366 
    2517     2893     3269     3400     3268     2918     2506     2285 
    2212     1995     1534     1048      799      828     1040     1413 
    1922     2465     2948     3223     3186     2982     2799     2708 
    2748     2782     2655     2523     2577     2727     2741     2474 
    2037     1703     1579     1578     1583     1441     1223     1239 
    1525     1903     2355     2914     3488     3861     3929     3817 
    3636     3412     3157     2844     2425     1915     1471     1355 
    1584     1871     2099     2358     2560     2550     2340     2096 
    1987     1972     1914     1903     2087     2416     2781     3102 
    3296     3353     3361     3356     3341     3294     3030     2392 
    1667     1362     1517     1787     1946     1917     1719     1510 
    1474     1691     2111     2511     2671     2685     2803     3010 
    3133     3211     3322     3296     2952     2404     1971     1871 
    2010     2195     2365     2492     2533     2519     2452     2286 
    2002     1678     1444     1282     1105     1020     1098     1285 
    1633     2173     2718     3164     3605     3986     4078     3778 
    3240     2763     2501     2381     2282     2138     1929     1656 
    1339     1140     1275     1688     2112     2397     2519     2538 
    2593     2718     2895     3072     3096     2901     2651     2540 
    2521     2461     2462     2686     2963     2997     2810     2664 
    2640     2597     2535     2573     2546     2161     1537     1098 
    1054     1317     1675     1949     2076     2101     2203     2523 
    2959     3292     3430     3412     3280     2997     2573     2155 
    1881     1784     1860     1962     1944     1931     2047     2181 
    2218     2176     2135     2128     2157     2249     2405     2619 
    2825     2844     2682     2573     2578     2654     2866     3088 
    3055     2813     2569     2365     2193     2018     1803     1647 
    1620     1692     1844     2011     2122     2197     2295     2438 
    2587     2709     2844     2866     2578     2142     1837     1755 
    1953     2377     2756     2886     2844     2851     2974     3030 
    2899     2708     2551     2439     2455     2506     2327     1926 
    1578     1482     1629     1803     1857     1865     1927     2045 
    2134     2180     2317     2577     2870     3169     3400     3473 
    3481     3474     3302     2874     2312     1903     1803     1840 
    1875     1894     1782     1603     1575     1672     1821     2111 
    2578     3068     3353     3323     3053     2725     2500     2382 
    2286     2197     2139     2151     2297     2520     2636     2556 
    2313     2050     1945     1991     2052     2081     2081     1975 
    1730     1547     1584     1687     1741     1852     2045     2305 
    2673     3060     3288     3310     3192     3049     2992     2965 
    2824     2590     2366     2124     1809     1547     1494     1560 
    1617     1690     1757     1741     1733     1954     2457     3009 
    3281     3167     2843     2550     2450     2558     2683     2612 
    2320     1996     1890     2083     2407     2600     2533     2384 
    2394     2486     2413     2231     2158     2188     2228     2328 
    2486     2593     2629     2693     2851     3051     3163     3157 
    3215     3442     3586     3326     2679     1946     1348      889 
     606      696     1078     1321     1318     1372     1734     2353 
    2953     3380     3615     3653     3588     3520     3446     3285 
    2905     2386     1996     1806     1732     1730     1833     2123 
    2544     2826     2835     2716     2594     2500     2435     2359 
    2284     2197     2004     1755     1624     1679     1829     2014 
    2282     2517     2550     2448     2346     2300     2322     2331 
    2301     2419     2829     3348     3665     3650     3327     2805 
    2266     1875     1674     1594     1505     1402     1441     1574 
    1601     1582     1748     2200     2794     3218     3311     3165 
    2987     2916     2905     2851     2671     2376     2130     2079 
    2162     2259     2290     2203     2181     2500     2937     3049 
    2822     2485     2165     1942     1865     1894     1958     2027 
    2120     2289     2565     2841     2922     2824     2754     2728 
    2637     2585     2644     2660     2492     2254     2161     2176 
    2120     2020     1935     1804     1728     1894     2197     2424 
    2551     2566     2474     2446     2461     2313     2066     1946 
    1973     2118     2415     2689     2722     2686     2821     2983 
    2975     2830     2625     2427     2265     2100     1971     1910 
    1861     1830     1950     2184     2250     2138     2074     2133 
    2249     2327     2359     2400     2442     2493     2644     2940 
    3214     3248     3118     3053     3061     2998     2859     2716 
    2527     2209     1721     1150      765      664      720      946 
    1426     2057     2610     2902     2987     3123     3399     3649 
    3781     3796     3570     3029     2366     1858     1568     1399 
    1309     1240     1205     1389     1806     2280     2737     3086 
    3207     3172     3046     2775     2407     2123     2022     1991 
    1865     1663     1607     1848     2285     2756     3190     3456 
    3420     3241     3086     2810     2295     1676     1155      893 
     999     1394     1853     2301     2799     3208     3348     3307 
    3221     3159     3199     3203     2925     2396     1792     1291 
    1097     1127     1117     1135     1395     1910     2524     3042 
    3357     3489     3489     3372     3152     2863     2562     2296 
    2056     1852     1695     1606     1740     2107     2469     2725 
    2836     2697     2485     2500     2694     2747     2501     2110 
    1776     1570     1584     1868     2234     2493     2586     2547 
    2555     2722     2956     3200     3342     3117     2547     2093 
    2133     2594     3055     3063     2567     1949     1624     1772 
    2255     2681     2686     2292     1777     1350     1173     1381 
    1856     2309     2528     2497     2431     2524     2733     2906 
    2911     2778     2802     3179     3654     3827     3566     2988 
    2365     1948     1702     1413     1059      855      942     1243 
    1610     1865     1923     2023     2377     2889     3399     3738 
    3759     3541     3248     2955     2727     2494     2134     1769 
    1595     1679     1981     2269     2295     2089     1885     1873 
    2004     2147     2281     2408     2528     2663     2751     2762 
    2813     2953     3059     3001     2778     2469     2172     2003 
    1989     1980     1850     1682     1576     1579     1787     2201 
    2610     2833     2868     2848     2862     2837     2735     2598 
    2432     2265     2143     1984     1736     1520     1453     1575 
    1798     1934     1941     2035     2424     3034     3616     3927 
    3829     3411     2891     2417     1987     1603     1410     1445 
    1539     1660     1891     2226     2610     2945     3167     3292 
    3260     2982     2566     2185     1894     1709     1703     1952 
    2270     2295     2025     1788     1815     2193     2762     3204 
    3480     3604     3424     2974     2454     1995     1714     1638 
    1686     1795     1891     1910     2010     2351     2766     2909 
    2705     2388     2157     2062     2085     2131     2119     2029 
    1935     1960     2191     2623     3071     3306     3198     2789 
    2367     2165     2162     2299     2489     2624     2687     2670 
    2606     2592     2475     2027     1441     1127     1161     1391 
    1777     2280     2695     2839     2798     2836     2956     2957 
    2795     2566     2343     2127     1926     1892     2106     2346 
    2446     2550     2798     3087     3272     3273     3013     2525 
    2015     1576     1161      862      868     1178     1773     2577 
    3215     3451     3458     3383     3231     3026     2736     2417 
    2326     2524     2706     2633     2292     1840     1618     1784 
    2076     2204     2084     1719     1287     1132     1394     1903 
    2458     2961     3356     3616     3709     3589     3388     3325 
    3289     3032     2610     2154     1728     1532     1698     2003 
    2089     1888     1676     1682     1904     2193     2324     2297 
    2309     2396     2535     2702     2813     2860     2810     2686 
    2682     2793     2818     2752     2673     2538     2346     2203 
    2133     2053     2025     2147     2285     2320     2366     2459 
    2447     2265     2073     2035     2155     2378     2542     2463 
    2258     2247     2532     2882     2990     2733     2365     2331 
    2671     2937     2857     2501     2031     1667     1530     1544 
    1534     1360     1104     1062     1364     1903     2542     3078 
    3356     3447     3492     3624     3885     4027     3730     3001 
    2151     1447      951      708      719      909     1285     1842 
    2443     2947     3253     3279     3152     3095     3068     2899 
    2581     2185     1791     1526     1459     1552     1740     1926 
    2070     2231     2486     2845     3181     3280     3114     2921 
    2849     2816     2820     2903     2843     2478     2015     1713 
    1647     1760     1929     2124     2424     2776     3007     3056 
    2949     2651     2255     2027     2060     2165     2161     2062 
    1983     1995     2111     2292     2542     2887     3207     3269 
    3026     2621     2230     2038     2085     2164     2106     1953 
    1790     1721     1895     2238     2443     2440     2431     2478 
    2527     2569     2513     2304     2077     1953     1985     2261 
    2772     3318     3612     3484     3037     2550     2157     1846 
    1695     1761     1894     1973     2062     2249     2542     2830 
    2983     3042     3049     2856     2358     1725     1278     1182 
    1332     1599     2022     2574     3013     3173     3192     3252 
    3225     2893     2388     2038     1939     2016     2149     2204 
    2133     1938     1710     1734     2146     2629     2793     2552 
    2056     1609     1478     1659     2041     2423     2502     2319 
    2199     2250     2408     2550     2461     2155     1979     2207 
    2770     3342     3615     3508     3148     2770     2582     2529 
    2347     1869     1205      618      280      190      353      801 
    1420     2047     2647     3299     4054     4638     4683     4299 
    3850     3400     2925     2463     1953     1421     1062      942 
     950      911      723      456      295      488     1008     1574 
    2104     2633     3078     3478     3971     4455     4692     4641 
    4430     4194     3948     3584     3011     2201     1204      297 
    -182     -170      144      515      818     1121     1530     2041 
    2501     2617     2312     1953     1953     2397     3109     3804 
    4176     4064     3619     3200     2975     2767     2396     1952 
    1684     1668     1703     1636     1482     1273     1084     1163 
    1703     2394     2677     2540     2466     2598     2705     2790 
    3052     3447     3767     3932     3936     3726     3253     2590 
    1934     1433     1024      518       -8     -186      105      641 
    1248     1872     2494     3238     4249     5327     5944     5795 
    5039     3951     2709     1567      787      276     -202     -506 
    -274      545     1649     2678     3423     3839     4039     4302 
    4738     5117     5196     4861     4159     3350     2589     1780 
     949      364      210      356      533      627      693      950 
    1638     2600     3450     4145     4803     5352     5647     5575 
    5165     4552     3869     3234     2658     2115     1746     1706 
    1984     2425     2683     2485     2003     1618     1539     1676 
    1776     1803     1999     2563     3414     4143     4390     4222 
    3985     3879     3831     3647     3141     2288     1360      654 
     217      -21      -52      218      791     1510     2192     2729 
    3040     3090     3099     3292     3537     3592     3473     3349 
    3348     3499     3676     3657     3341     2693     1683      475 
    -580    -1182    -1205     -673      253     1255     2034     2543 
    2929     3276     3570     3754     3735     3473     2968     2286 
    1713     1494     1644     2091     2635     3030     3204     3119 
    2658     1821      785     -197     -854    -1030     -769     -213 
     521     1417     2388     3163     3654     3982     4222     4537 
    4950     5182     5216     5282     5412     5563     5595     5179 
    4172     2878     1702      738     -224    -1431    -2748    -3593 
   -3518    -2601    -1209      319     1721     2956     4314     5879 
    7209     7828     7616     6732     5493     4229     3052     1939 
     967      141     -600    -1116    -1242    -1034     -668     -360 
    -183       22      373      872     1552     2425     3406     4371 
    5163     5695     6075     6346     6380     6088     5408     4299 
    2816     1082     -687    -2204    -3130    -3200    -2378     -861 
     924     2365     3160     3601     3943     4058     3919     3758 
    3744     3879     4071     4152     4032     3794     3480     3030 
    2493     1991     1576     1233      946      773      893     1470 
    2442     3477     4187     4398     4279     4186     4282     4263 
    3647     2527     1632     1528     2197     3184     3859     3820 
    3204     2446     1782     1159      346     -712    -1621    -1910 
   -1480     -592      452     1482     2293     2679     2871     3262 
    3809     4279     4607     4770     4729     4459     4039     3628 
    3231     2747     2265     1992     1876     1621     1144      761 
     773     1077     1278     1132      751      463      571     1075 
    1653     2041     2197     2223     2332     2625     2941     3172 
    3357     3549     3897     4472     4965     5012     4637     4151 
    3655     3005     2269     1606     1007      481       47     -241 
    -216       64      361      627      901     1151     1313     1455 
    1867     2631     3404     3969     4471     5062     5705     6411 
    7159     7561     7129     5884     4334     2851     1490      199 
    -981    -1775    -2112    -2184    -1971    -1306     -167     1246 
    2614     3742     4633     5383     6097     6697     6856     6311 
    5036     3334     1891     1215     1200     1449     1620     1557 
    1313      981      622      278      -71     -444     -761     -874 
    -603       82      963     1818     2577     3261     3977     4804 
    5699     6521     6974     6770     6006     5066     4203     3392 
    2430     1255      184     -517     -994    -1409    -1733    -1931 
   -1917    -1464     -441      963     2371     3489     4241     4765 
    5179     5406     5404     5197     4519     3249     1876      945 
     648      874     1264     1472     1464     1506     1811     2328 
    2745     2837     2849     3086     3489     3838     3948     3640 
    2868     1925     1252      954      762      568      562      908 
    1547     2359     3349     4384     5155     5418     5055     4210 
    3187     2074      986      155     -456     -899    -1021     -760 
    -149      683     1594     2654     3894     5205     6517     7638 
    8203     7987     7090     5846     4569     3353     2134      889 
    -275    -1192    -1771    -1987    -1850    -1472     -996     -356 
     673     2042     3403     4415     4946     5132     5231     5323 
    5343     5186     4719     3923     2909     1845     1021      611 
     418      234      129      198      391      625      834      985 
    1183     1582     2255     3204     4140     4716     4889     4729 
    4245     3508     2704     1929     1185      577      221      102 
     180      475      969     1570     2097     2446     2713     3103 
    3747     4600     5440     5931     5825     5204     4253     3013 
    1605      303     -681    -1206    -1123     -319     1071     2575 
    3746     4525     5066     5451     5655     5626     5348     4896 
    4341     3636     2710     1660      646     -220     -714     -664 
    -305       62      371      639      869     1017     1220     1815 
    2802     3794     4469     4702     4660     4596     4413     3937 
    3276     2587     1921     1308      872      643      356     -113 
    -390     -141      550     1404     2272     3190     4158     4973 
    5306     5039     4374     3541     2705     2056     1598     1128 
     645      356      256      175       43     -120     -199      -14 
     522     1422     2516     3519     4402     5193     5656     5589 
    5097     4457     3905     3585     3500     3424     3006     2154 
    1119      314       70      249      560     1088     1863     2555 
    3010     3365     3646     3726     3578     3368     3230     3136 
    3014     2774     2305     1636      986      646      788     1335 
    2035     2700     3272     3688     3902     4020     4032     3800 
    3323     2573     1431       37    -1147    -1684    -1543     -993 
    -194      769     1829     3013     4267     5368     6096     6455 
    6647     6759     6619     6007     4893     3476     2047      828 
    -148     -886    -1323    -1536    -1617    -1471    -1023     -282 
     739     2004     3339     4553     5540     6119     6168     5857 
    5408     4903     4413     3958     3465     2932     2382     1788 
    1193      727      506      629     1132     1830     2400     2624 
    2466     2073     1715     1682     2007     2408     2713     2982 
    3280     3654     4058     4363     4438     4153     3451     2494 
    1622     1017      676      561      635      965     1595     2336 
    2893     3172     3235     3094     2790     2455     2155     1873 
    1642     1567     1652     1713     1574     1220      816      558 
     440      364      322      371      625     1175     1898     2596 
    3268     3925     4500     5007     5400     5389     4816     3928 
    3114     2619     2344     1968     1408      807      159     -583 
   -1237    -1597    -1637    -1360     -696      369     1659     2905 
    3937     4691     5081     5008     4533     3870     3226     2614 
    2087     1873     1973     2174     2394     2644     2926     3253 
    3607     3816     3646     2967     1873      741      -14     -251 
