Origin Time       2024/04/02 04:24:00
Lat.              40.133
Long.             141.712
Depth. (km)       71
Mag.              6.0
Station Code      HKD126
Station Lat.      42.5748
Station Long.     141.9284
Station Height(m) 7
Record Time       2024/04/02 04:25:54
Sampling Freq(Hz) 100Hz
Duration Time(s)  60
Dir.              N-S
Scale Factor      7845(gal)/8223790
Max. Acc. (gal)   4.681
Last Correction   2024/04/02 04:25:54
Memo.             
[...]
    3261     3339     3431     3510     3547     3569     3600     3632 
    3651     3657     3650     3638     3628     3630     3658     3723 
    3807     3869     3871     3821     3728     3585     3397     3196 
    3011     2864     2768     2733     2744     2771     2808     2852 
    2897     2947     3011     3090     3187     3312     3451     3564 
    3626     3666     3713     3754     3759     3732     3680     3612 
    3549     3488     3426     3384     3375     3380     3414     3512 
    3651     3767     3839     3883     3908     3896     3850     3807 
    3785     3773     3767     3771     3765     3727     3646     3532 
    3404     3285     3214     3187     3167     3152     3159     3181 
    3217     3273     3354     3447     3515     3549     3585     3635 
    3685     3712     3712     3705     3696     3677     3657     3620 
    3551     3462     3365     3291     3269     3291     3341     3414 
    3491     3557     3618     3662     3658     3589     3477     3346 
    3213     3095     3025     3011     3042     3102     3163     3214 
    3268     3316     3368     3429     3480     3532     3608     3699 
    3781     3854     3923     3990     4050     4085     4089     4067 
    4016     3940     3865     3800     3723     3616     3466     3284 
    3096     2926     2793     2710     2674     2678     2731     2833 
    2959     3053     3094     3113     3146     3217     3325     3420 
    3472     3518     3569     3611     3654     3711     3761     3782 
    3762     3689     3557     3393     3238     3107     3017     2979 
    2995     3056     3145     3237     3316     3392     3476     3572 
    3658     3719     3773     3844     3928     4013     4101     4170 
    4213     4259     4311     4344     4318     4221     4067     3875 
    3685     3535     3424     3327     3227     3140     3091     3095 
    3145     3219     3292     3333     3329     3302     3285     3303 
    3353     3424     3507     3604     3709     3798     3859     3875 
    3816     3677     3522     3408     3318     3229     3148     3096 
    3086     3107     3133     3154     3179     3211     3249     3284 
    3287     3253     3206     3173     3154     3134     3088     3022 
    2987     3028     3110     3171     3168     3094     2982     2905 
    2893     2920     2965     3034     3133     3246     3349     3438 
    3541     3672     3829     4008     4172     4295     4371     4391 
    4361     4307     4239     4155     4070     3994     3924     3828 
    3696     3542     3395     3277     3218     3222     3268     3327 
    3373     3410     3474     3578     3703     3824     3912     3928 
    3879     3809     3744     3690     3649     3611     3545     3435 
    3300     3168     3076     3055     3088     3149     3226     3303 
    3348     3358     3373     3423     3520     3650     3767     3821 
    3802     3748     3699     3657     3599     3539     3491     3447 
    3416     3403     3383     3346     3306     3272     3262     3277 
    3296     3291     3254     3200     3153     3136     3148     3160 
    3159     3150     3140     3117     3091     3090     3119     3175 
    3248     3311     3345     3357     3357     3364     3395     3438 
    3477     3503     3497     3445     3346     3231     3142     3100 
    3113     3176     3249     3279     3267     3250     3252     3277 
    3348     3469     3630     3839     4086     4288     4394     4419 
    4387     4313     4236     4160     4072     3977     3886     3805 
    3726     3639     3553     3457     3364     3325     3341     3365 
    3369     3362     3366     3379     3393     3419     3460     3512 
    3558     3591     3622     3673     3748     3829     3862     3817 
    3716     3595     3485     3407     3342     3275     3217     3173 
    3134     3107     3096     3086     3060     3017     2980     2956 
    2937     2944     2988     3052     3129     3235     3387     3554 
    3707     3835     3923     3951     3937     3901     3834     3758 
    3720     3719     3713     3690     3645     3569     3453     3307 
    3169     3071     3017     3001     3002     3017     3042     3084 
    3156     3260     3380     3499     3608     3709     3800     3866 
    3919     3996     4102     4197     4225     4178     4097     4006 
    3904     3813     3748     3684     3603     3497     3350     3190 
    3069     3014     3010     3044     3103     3150     3153     3133 
    3138     3179     3241     3310     3360     3373     3373     3375 
    3364     3341     3338     3362     3403     3462     3531     3581 
    3613     3669     3765     3866     3921     3894     3788     3616 
    3403     3192     3032     2945     2934     2972     3014     3025 
    3001     2956     2907     2883     2903     2965     3040     3103 
    3172     3261     3352     3437     3530     3643     3778     3915 
    4024     4083     4094     4079     4043     3986     3924     3840 
    3720     3593     3510     3478     3478     3505     3538     3539 
    3493     3414     3306     3190     3091     3032     3024     3064 
    3156     3292     3427     3514     3543     3516     3434     3316 
    3188     3076     3022     3056     3172     3337     3488     3603 
    3705     3816     3946     4082     4180     4224     4237     4256 
    4270     4251     4206     4135     4025     3901     3777     3630 
    3450     3252     3064     2924     2860     2894     3007     3154 
    3300     3422     3497     3554     3628     3701     3739     3742 
    3713     3635     3504     3364     3260     3213     3229     3288 
    3335     3343     3331     3321     3311     3288     3238     3175 
    3122     3094     3117     3187     3296     3445     3611     3753 
    3827     3812     3716     3595     3508     3450     3388     3342 
    3350     3412     3491     3539     3564     3585     3593     3569 
    3528     3491     3462     3443     3423     3379     3308     3225 
    3132     3055     3007     2988     2994     3029     3084     3130 
    3144     3136     3144     3192     3268     3349     3435     3524 
    3593     3638     3682     3751     3839     3919     3973     4008 
    4044     4075     4056     3970     3847     3705     3569     3474 
    3424     3392     3349     3269     3141     2987     2845     2717 
    2592     2482     2420     2415     2457     2509     2579     2713 
    2901     3090     3262     3412     3524     3596     3636     3673 
    3731     3809     3900     3973     3991     3962     3902     3809 
    3708     3647     3616     3564     3493     3434     3361     3269 
    3213     3226     3298     3414     3555     3690     3798     3858 
    3827     3723     3613     3515     3400     3279     3192     3141 
    3100     3078     3073     3072     3060     3046     3040     3025 
    2997     2976     2991     3078     3250     3454     3612     3703 
    3763     3844     3967     4112     4253     4379     4476     4530 
    4522     4445     4334     4198     4024     3850     3711     3578 
    3407     3187     2945     2717     2529     2389     2299     2261 
    2259     2276     2338     2501     2771     3122     3524     3959 
    4411     4843     5190     5417     5502     5445     5277     5055 
    4855     4723     4642     4563     4421     4187     3890     3558 
    3208     2882     2616     2436     2349     2331     2355     2428 
    2566     2770     3033     3311     3505     3580     3607     3673 
    3792     3928     4036     4089     4089     4058     4032     4032 
    4023     3970     3893     3805     3699     3573     3419     3207 
    2936     2655     2435     2357     2475     2774     3165     3577 
    3973     4305     4519     4585     4513     4345     4126     3892 
    3658     3442     3273     3195     3235     3392     3619     3844 
    3982     3969     3796     3480     3042     2563     2139     1813 
    1588     1490     1525     1663     1850     2030     2138     2130 
    2022     1869     1752     1750     1914     2259     2771     3383 
    3993     4514     4901     5136     5235     5278     5335     5401 
    5433     5393     5269     5076     4846     4602     4352     4105 
    3879     3696     3530     3308     2978     2570     2181     1917 
    1840     1938     2174     2494     2808     3068     3312     3588 
    3898     4228     4550     4826     5008     5058     4942     4660 
    4268     3879     3604     3489     3501     3545     3530     3441 
    3325     3244     3265     3427     3709     4070     4464     4857 
    5212     5485     5632     5620     5408     4990     4428     3807 
    3203     2678     2254     1902     1552     1169      776      429 
     168       -2      -78      -17      193      527      954     1447 
    1981     2555     3176     3801     4342     4723     4887     4818 
    4590     4320     4113     4041     4145     4392     4695     4951 
    5076     5007     4742     4344     3942     3696     3726     4044 
    4569     5185     5760     6185     6394     6374     6131     5680 
    5074     4405     3770     3225     2786     2459     2243     2120 
    2088     2124     2170     2182     2157     2097     2004     1898 
    1817     1804     1926     2203     2575     2956     3292     3531 
    3635     3620     3520     3360     3153     2926     2756     2702 
    2747     2830     2902     2957     3026     3125     3250     3408 
    3609     3847     4082     4272     4403     4468     4429     4257 
    3970     3584     3130     2697     2376     2243     2342     2667 
    3159     3715     4243     4660     4893     4943     4904     4838 
    4747     4650     4565     4499     4461     4457     4498     4585 
    4681     4734     4691     4546     4364     4182     3996     3821 
    3680     3566     3466     3400     3411     3503     3626     3705 
    3672     3483     3126     2608     1973     1300      685      274 
     197      475      981     1517     1919     2103     2081     1972 
    1931     2087     2478     3071     3794     4564     5258     5756 
    5996     5994     5802     5486     5093     4642     4116     3504 
    2871     2312     1869     1521     1236      990      793      696 
     753      961     1302     1777     2335     2890     3396     3846 
    4236     4560     4827     5058     5259     5428     5566     5657 
    5645     5456     5097     4648     4186     3763     3403     3083 
    2783     2519     2355     2370     2554     2794     2987     3095 
    3126     3122     3129     3168     3238     3333     3472     3688 
    3962     4236     4449     4591     4707     4857     5049     5227 
    5298     5169     4843     4456     4116     3851     3692     3684 
    3812     3990     4152     4293     4386     4383     4284     4136 
    3986     3836     3658     3434     3152     2809     2455     2173 
    1999     1907     1856     1823     1841     1938     2101     2299 
    2485     2617     2713     2839     3046     3331     3646     3923 
    4086     4101     4014     3881     3704     3466     3192     2943 
    2768     2671     2609     2525     2400     2269     2185     2195 
    2322     2540     2793     3014     3169     3288     3397     3484 
    3535     3547     3518     3470     3458     3507     3585     3647 
    3699     3800     4009     4313     4639     4955     5271     5574 
    5852     6099     6276     6316     6169     5840     5356     4723 
    3940     3073     2211     1429      814      444      346      467 
     695      931     1119     1252     1390     1609     1950     2439 
    3087     3879     4752     5610     6365     6937     7263     7295 
    7020     6473     5745     4941     4158     3489     2992     2706 
    2608     2612     2631     2579     2381     2022     1551     1047 
     607      321      243      402      799     1389     2085     2789 
    3412     3915     4291     4550     4729     4860     4936     4942 
    4914     4896     4872     4819     4750     4644     4477     4276 
    4097     4009     4083     4351     4743     5142     5447     5602 
    5637     5610     5537     5414     5248     5051     4835     4577 
    4212     3701     3080     2409     1750     1161      669      299 
     102      130      391      862     1501     2218     2906     3480 
    3902     4176     4293     4260     4136     3966     3769     3581 
    3433     3307     3183     3079     3024     3028     3088     3200 
    3346     3503     3686     3921     4239     4658     5158     5659 
    6046     6212     6102     5725     5139     4429     3670     2951 
    2346     1885     1568     1387     1328     1351     1420     1498 
    1559     1593     1598     1586     1567     1555     1602     1752 
    1998     2320     2697     3090     3477     3840     4151     4391 
    4592     4788     4973     5101     5123     5054     4995     5034 
    5177     5363     5505     5525     5395     5124     4718     4206 
    3618     2971     2322     1748     1320     1098     1113     1332 
    1674     2052     2417     2759     3099     3457     3811     4128 
    4396     4592     4693     4716     4703     4673     4626     4531 
    4338     4002     3539     3011     2474     1966     1548     1302 
    1301     1566     2088     2843     3746     4689     5566     6261 
    6694     6855     6755     6419     5898     5232     4464     3654 
    2856     2095     1351      607     -102     -719    -1189    -1440 
   -1429    -1151     -622       93      907     1764     2639     3524 
    4406     5251     6042     6751     7335     7780     8062     8139 
    7966     7510     6778     5827     4726     3555     2413     1405 
     639      199      102      294      675     1139     1579     1915 
    2115     2203     2253     2346     2562     2952     3531     4260 
    5061     5838     6509     6968     7109     6889     6370     5698 
    5030     4445     3956     3570     3322     3227     3257     3338 
    3391     3358     3230     3033     2787     2520     2292     2189 
    2273     2544     2959     3453     3962     4411     4752     4953 
    5020     4986     4880     4729     4584     4469     4378     4298 
    4217     4122     3994     3807     3551     3249     2943     2673 
    2457     2308     2251     2293     2405     2539     2673     2837 
    3061     3362     3766     4234     4683     5034     5239     5300 
    5263     5157     4953     4602     4112     3553     2988     2447 
    1945     1487     1078      750      545      452      437      460 
     507      629      913     1413     2097     2874     3636     4311 
    4855     5255     5509     5624     5597     5397     5017     4495 
    3854     3148     2477     1946     1637     1559     1648     1826 
    2010     2147     2246     2323     2396     2504     2695     3013 
    3491     4141     4938     5810     6663     7418     7998     8316 
    8328     8054     7546     6864     6091     5335     4685     4166 
    3747     3389     3057     2741     2430     2106     1775     1448 
    1123      785      444      133     -103     -213     -133      152 
     591     1119     1684     2230     2697     3063     3341     3558 
    3738     3894     4045     4212     4436     4754     5165     5643 
    6145     6604     6918     7003     6797     6261     5416     4384 
    3322     2349     1566     1044      768      660      654      691 
     733      788      895     1089     1402     1861     2477     3225 
    4048     4882     5655     6285     6720     6924     6875     6594 
    6169     5721     5352     5108     4988     4953     4938     4878 
    4725     4446     4071     3693     3385     3141     2911     2655 
    2376     2122     1954     1895     1944     2095     2301     2496 
    2610     2623     2550     2440     2353     2336     2397     2508 
    2646     2820     3028     3217     3341     3410     3446     3461 
    3456     3433     3414     3407     3416     3457     3531     3620 
    3694     3743     3762     3726     3627     3519     3461     3461 
    3491     3512     3505     3480     3429     3343     3249     3163 
    3051     2894     2728     2598     2556     2637     2816     3021 
    3195     3306     3330     3260     3088     2837     2571     2344 
    2176     2106     2197     2482     2924     3442     3954     4391 
    4730     4980     5158     5273     5301     5232     5116     5042 
    5069     5201     5394     5556     5586     5417     5024     4440 
    3742     3018     2344     1799     1444     1279     1259     1331 
    1464     1648     1888     2185     2538     2945     3375     3796 
    4199     4563     4874     5135     5300     5348     5300     5151 
    4880     4486     4001     3487     3015     2637     2355     2161 
    2056     2026     2046     2107     2172     2208     2227     2269 
    2365     2529     2778     3125     3549     3991     4402     4733 
    4927     4972     4877     4652     4309     3925     3589     3329 
    3133     2992     2884     2783     2673     2552     2444     2389 
    2417     2554     2794     3099     3430     3759     4068     4342 
    4556     4730     4936     5216     5563     5929     6219     6338 
    6220     5841     5215     4409     3543     2762     2145     1701 
    1394     1198     1100     1096     1196     1394     1645     1887 
    2091     2286     2513     2791     3134     3541     3986     4426 
    4810     5096     5248     5256     5121     4865     4536     4162 
    3740     3289     2855     2474     2184     2018     1985     2049 
    2141     2201     2214     2203     2247     2430     2779     3246 
    3723     4090     4272     4243     4029     3707     3368     3090 
    2928     2910     3010     3177     3380     3601     3805     3966 
    4068     4097     4033     3897     3740     3650     3690     3871 
    4158     4479     4766     4961     5026     4932     4677     4282 
    3792     3281     2875     2701     2820     3207     3781     4448 
    5098     5624     5950     6043     5900     5575     5140     4675 
    4240     3851     3480     3107     2754     2454     2219     2023 
    1848     1660     1409     1094      769      498      349      378 
     598     1000     1548     2192     2864     3495     4025     4411 
    4634     4729     4762     4787     4828     4887     4927     4916 
    4854     4756     4625     4423     4083     3591     3005     2413 
    1914     1582     1441     1482     1665     1958     2336     2762 
    3200     3639     4055     4426     4727     4928     5004     4953 
    4820     4672     4544     4438     4334     4199     4012     3762 
    3461     3141     2849     2635     2529     2548     2695     2957 
    3291     3653     4013     4324     4575     4783     4927     4990 
    4965     4858     4702     4538     4386     4249     4104     3906 
    3630     3275     2872     2469     2118     1863     1718     1702 
    1819     2042     2323     2597     2812     2975     3126     3294 
    3492     3716     3936     4151     4375     4583     4722     4761 
    4698     4569     4418     4256     4079     3904     3751     3615 
    3472     3318     3153     2983     2806     2632     2474     2335 
