Origin Time       2024/04/02 04:24:00
Lat.              40.133
Long.             141.712
Depth. (km)       71
Mag.              6.0
Station Code      HKD121
Station Lat.      43.3332
Station Long.     141.8553
Station Height(m) 28
Record Time       2024/04/02 04:26:06
Sampling Freq(Hz) 100Hz
Duration Time(s)  60
Dir.              U-D
Scale Factor      7845(gal)/8223790
Max. Acc. (gal)   0.266
Last Correction   2024/04/02 04:26:06
Memo.             
[...]
   12907    12931    12945    12939    12928    12942    12992    13016 
   12981    12938    12926    12950    13004    13027    12973    12900 
   12883    12891    12880    12865    12869    12889    12891    12865 
   12885    12951    12968    12950    12969    13004    13019    13028 
   13030    13024    13027    13020    12970    12896    12872    12926 
   12981    12974    12969    13009    13011    12950    12891    12858 
   12858    12899    12951    12999    13036    13038    12999    12973 
   12993    13023    13027    13000    12965    12955    12977    13012 
   13028    13031    13030    13014    12984    12968    12965    12973 
   13005    13028    12996    12957    12939    12895    12861    12914 
   12993    13000    12955    12934    12951    12970    12953    12927 
   12941    12964    12958    12958    12970    12942    12872    12814 
   12815    12873    12937    12961    12962    12965    12955    12922 
   12897    12914    12933    12911    12903    12955    13005    13004 
   12974    12945    12942    12977    12996    12987    13001    13022 
   13004    12997    13007    12981    12964    12985    12992    12988 
   13014    13026    12988    12947    12931    12938    12955    12962 
   12972    12997    12993    12962    12972    13022    13050    13034 
   13001    12987    12980    12954    12916    12899    12914    12949 
   12991    13009    13000    12997    12995    12973    12969    12988 
   12995    12978    12949    12916    12907    12915    12931    12964 
   13005    13022    12988    12923    12885    12897    12919    12918 
   12906    12908    12947    13000    13008    12974    12966    13000 
   13022    12985    12911    12845    12815    12830    12872    12896 
   12916    12974    13024    13030    13049    13081    13062    12995 
   12924    12881    12899    12947    12934    12876    12881    12935 
   12938    12918    12955    13011    12997    12924    12879    12903 
   12945    12938    12889    12864    12891    12912    12907    12951 
   13026    13016    12966    12977    13000    12980    12945    12914 
   12893    12896    12930    12982    13026    13035    13023    13014 
   12997    12958    12912    12872    12839    12838    12857    12853 
   12837    12845    12887    12928    12941    12937    12947    12978 
   13000    12977    12930    12919    12961    13018    13046    13045 
   13046    13069    13081    13072    13073    13068    13011    12937 
   12922    12950    12970    12984    12987    12973    12950    12919 
   12899    12926    12968    12995    13031    13068    13059    13012 
   12988    13019    13062    13066    13046    13030    12995    12933 
   12889    12897    12923    12950    13016    13099    13116    13065 
   13000    12951    12923    12911    12908    12881    12818    12769 
   12771    12773    12768    12796    12850    12885    12911    12945 
   12955    12941    12942    12943    12904    12879    12901    12920 
   12923    12954    13019    13072    13070    13027    13004    13009 
   12999    12993    13039    13097    13093    13051    13034    13043 
   13062    13069    13047    13015    12980    12933    12901    12899 
   12881    12846    12868    12927    12945    12931    12918    12893 
   12911    12991    13047    13046    13027    13022    13041    13062 
   13051    13046    13038    12965    12891    12916    12960    12928 
   12903    12927    12924    12891    12884    12868    12802    12764 
   12819    12893    12942    13004    13050    13008    12934    12914 
   12930    12962    13012    13030    12997    12982    12988    12955 
   12918    12926    12935    12923    12914    12907    12903    12903 
   12900    12922    12972    12996    12978    12974    13000    13007 
   12981    12962    12980    13004    13009    13014    13024    13024 
   13023    13051    13084    13051    12954    12880    12880    12906 
   12931    12965    12969    12937    12916    12899    12866    12866 
   12915    12976    13015    13011    12985    12980    12974    12945 
   12935    12965    12985    12982    12984    13000    13016    12987 
   12922    12899    12906    12899    12908    12923    12892    12860 
   12869    12865    12831    12822    12856    12901    12945    12980 
   12999    13026    13062    13080    13076    13062    13041    13020 
   13009    12999    12978    12955    12943    12935    12927    12933 
   12960    12976    12958    12937    12937    12930    12908    12906 
   12924    12920    12872    12843    12888    12947    12972    12992 
   13000    12957    12922    12947    12991    12995    12972    12955 
   12954    12977    13015    13019    12988    12987    13016    13014 
   12987    12978    12970    12960    12955    12935    12907    12906 
   12906    12896    12939    13027    13036    12954    12920    12951 
   12927    12869    12919    13045    13084    13046    13063    13122 
   13113    13050    13026    13038    13007    12934    12910    12946 
   12962    12927    12885    12872    12883    12900    12922    12953 
   12977    12982    12985    12984    12958    12923    12912    12915 
   12915    12930    12958    12974    12987    13011    13020    13008 
   13007    13023    13035    13027    12984    12922    12897    12899 
   12866    12815    12814    12841    12847    12872    12942    12997 
   12996    12977    12976    12972    12935    12892    12896    12919 
   12916    12935    12999    13046    13059    13086    13120    13113 
   13059    12992    12961    12974    12974    12946    12964    13012 
   13009    12984    12987    13000    13000    12964    12892    12838 
   12818    12796    12796    12852    12934    12991    13001    13000 
   13005    12988    12938    12895    12889    12946    13039    13073 
   13038    12999    12951    12883    12862    12904    12942    12972 
   12999    12982    12920    12874    12889    12951    12988    12969 
   12962    12988    12973    12926    12938    12988    12995    12978 
   13000    13032    13015    12960    12961    13035    13072    13011 
   12937    12903    12869    12839    12864    12934    12976    12958 
   12950    13005    13063    13055    13018    13016    13023    12977 
   12924    12934    12953    12916    12877    12893    12928    12939 
   12933    12943    12962    12930    12853    12815    12831    12839 
   12843    12884    12927    12916    12870    12856    12879    12892 
   12874    12862    12874    12876    12861    12873    12922    12980 
   13019    13034    13046    13070    13073    13045    13018    12985 
   12942    12928    12946    12953    12958    12977    13001    13028 
   13046    13041    13016    12989    13005    13068    13096    13070 
   13045    13018    12987    12992    13026    13042    13041    13020 
   12991    12987    12999    12999    13005    13003    12949    12892 
   12891    12907    12908    12911    12923    12946    12976    12980 
   12960    12960    12978    12970    12939    12938    12961    12965 
   12953    12950    12941    12912    12880    12860    12854    12857 
   12862    12889    12937    12966    12966    12960    12947    12934 
   12964    13050    13122    13134    13131    13140    13104    13023 
   12989    12985    12918    12839    12842    12880    12899    12920 
   12943    12943    12912    12868    12838    12842    12874    12927 
   12961    12943    12928    12964    12993    13005    13058    13116 
   13105    13061    13053    13070    13061    13028    13016    13019 
   13009    12966    12900    12856    12841    12823    12815    12852 
   12907    12934    12947    12980    13014    13016    13004    13012 
   13035    13023    12958    12885    12862    12887    12926    12968 
   13004    13024    13019    12992    12978    12996    13014    12997 
   12965    12938    12897    12845    12819    12827    12864    12930 
   12989    13019    13032    13027    13001    12980    12962    12942 
   12939    12958    12977    12978    12960    12938    12919    12899 
   12911    12977    13039    13038    12982    12920    12888    12889 
   12922    12980    13031    13054    13042    13005    12962    12914 
   12880    12881    12888    12880    12903    12969    13001    12954 
   12896    12889    12900    12883    12868    12906    12968    12997 
   13007    13016    13015    13015    13030    13042    13070    13116 
   13132    13096    13030    12970    12947    12950    12938    12934 
   12951    12937    12892    12900    12960    12982    12953    12922 
   12903    12880    12868    12903    12969    13005    12996    12970 
   12958    12964    12950    12910    12885    12884    12874    12873 
   12896    12926    12970    13020    13030    13008    13001    13009 
   13018    13005    12974    12962    12972    12954    12933    12957 
   12996    13004    13001    13001    12996    12985    12958    12928 
   12946    12974    12924    12852    12845    12842    12802    12816 
   12910    12969    12960    12943    12928    12903    12888    12893 
   12912    12935    12942    12935    12939    12933    12907    12901 
   12927    12962    13008    13055    13045    12974    12927    12933 
   12941    12927    12896    12839    12777    12748    12765    12822 
   12884    12933    12988    13043    13073    13076    13068    13049 
   13022    12992    12969    12957    12957    12976    12999    13000 
   12989    12991    13014    13036    13031    12997    12966    12945 
   12907    12870    12893    12968    13004    12974    12943    12957 
   12973    12961    12957    13005    13066    13068    13014    12980 
   12972    12937    12895    12896    12916    12903    12869    12845 
   12830    12827    12847    12872    12891    12915    12930    12926 
   12927    12950    13000    13069    13092    13028    12957    12951 
   12955    12931    12923    12943    12938    12895    12870    12895 
   12923    12924    12933    12989    13068    13109    13100    13080 
   13081    13095    13099    13099    13097    13095    13055    12974 
   12923    12931    12941    12933    12945    12943    12885    12815 
   12818    12892    12962    12991    12996    13018    13063    13078 
   13026    12969    12962    12976    12988    13024    13062    13035 
   12958    12883    12826    12803    12826    12876    12930    12970 
   12976    12953    12903    12841    12841    12928    12995    12985 
   12991    13059    13108    13072    13015    13011    13014    12965 
   12924    12941    12935    12893    12903    12958    12989    13009 
   13038    13045    13039    13047    13049    13023    12996    12980 
   12941    12885    12862    12864    12870    12924    13015    13054 
   13027    13000    13018    13053    13055    13015    12964    12933 
   12922    12934    12980    13038    13053    13024    13005    12996 
   12969    12950    12955    12954    12938    12930    12927    12915 
   12892    12869    12880    12918    12933    12930    12947    12966 
   12955    12941    12928    12877    12802    12791    12870    12969 
   13018    13041    13062    13053    13018    13008    13022    13045 
   13076    13096    13086    13047    12969    12872    12808    12787 
   12789    12822    12874    12923    12962    12980    12968    12960 
   12965    12950    12911    12903    12937    12954    12946    12942 
   12941    12937    12937    12941    12970    13026    13068    13074 
   13036    12953    12846    12762    12715    12691    12696    12753 
   12857    12966    13053    13088    13054    12985    12931    12908 
   12919    12950    12989    13020    13012    12987    13003    13032 
   13046    13072    13095    13081    13041    12982    12942    12965 
   13009    13011    12991    12997    13007    12966    12884    12808 
   12776    12776    12757    12717    12706    12750    12831    12918 
   12977    13003    13005    12987    12957    12966    13022    13069 
   13084    13090    13092    13063    12995    12935    12931    12969 
   13018    13066    13097    13092    13065    13038    13012    12985 
   12980    12987    12981    12968    12933    12870    12827    12800 
   12752    12712    12735    12823    12949    13069    13144    13146 
   13070    12966    12906    12901    12904    12892    12897    12924 
   12951    12995    13053    13086    13093    13108    13138    13144 
   13096    13027    12993    12981    12962    12946    12943    12946 
   12946    12945    12964    13012    13057    13069    13081    13107 
   13103    13043    12977    12955    12961    12950    12938    12939 
   12923    12880    12839    12812    12806    12822    12849    12895 
   12982    13073    13111    13104    13068    13001    12937    12906 
   12892    12877    12865    12847    12810    12772    12760    12781 
   12826    12869    12911    12972    13016    13005    12984    13005 
   13053    13080    13086    13109    13135    13112    13043    12987 
   12949    12899    12856    12849    12852    12839    12819    12807 
   12823    12872    12904    12900    12888    12896    12945    13032 
   13109    13143    13149    13126    13058    12992    12988    13038 
   13093    13131    13142    13105    13028    12946    12896    12881 
   12884    12899    12918    12920    12904    12888    12874    12870 
   12891    12931    12991    13050    13062    13043    13030    13003 
   12953    12914    12893    12868    12829    12785    12758    12746 
   12711    12680    12734    12857    12973    13054    13099    13115 
   13132    13154    13142    13092    13030    12955    12872    12804 
   12760    12733    12734    12768    12826    12896    12962    13005 
   13032    13049    13034    13000    12985    12993    12999    12997 
   13004    13023    13042    13050    13046    13020    12982    12964 
   12969    12973    12965    12954    12950    12957    12950    12927 
   12918    12922    12915    12906    12910    12923    12927    12926 
   12933    12953    12974    12985    12997    13036    13065    13027 
   12972    12970    12985    12969    12962    12985    12996    12970 
   12918    12847    12772    12711    12687    12717    12791    12869 
   12942    13018    13062    13046    12991    12934    12896    12872 
   12852    12849    12864    12892    12950    13039    13117    13157 
   13163    13154    13130    13076    12997    12924    12883    12877 
   12911    12953    12970    12977    12991    13009    13027    13036 
   13034    13047    13096    13147    13167    13167    13150    13105 
   13068    13062    13057    13023    12977    12935    12903    12906 
   12955    13026    13082    13126    13142    13117    13072    13032 
   13009    12989    12964    12933    12907    12891    12896    12923 
   12958    12977    12992    13007    12982    12910    12846    12822 
   12825    12842    12862    12887    12922    12947    12947    12946 
   12949    12931    12900    12873    12842    12820    12818    12825 
   12837    12860    12873    12862    12839    12818    12802    12814 
   12847    12881    12919    12962    12977    12973    12987    13012 
   13039    13077    13116    13149    13173    13184    13162    13101 
   13031    12981    12955    12946    12941    12947    12961    12974 
   12982    12981    12970    12946    12910    12887    12903    12949 
   12989    13009    13022    13022    13011    12999    12981    12957 
   12933    12880    12796    12725    12685    12687    12742    12839 
   12941    13022    13082    13127    13138    13117    13088    13051 
   13009    12978    12960    12950    12943    12941    12941    12941 
   12933    12914    12903    12907    12907    12900    12901    12897 
   12876    12873    12896    12914    12931    12974    13031    13073 
   13070    13032    13001    12992    12982    12964    12955    12974 
   13005    13046    13092    13107    13061    13003    12985    12987 
   12988    13004    13022    13023    13016    12999    12978    12961 
   12934    12874    12807    12768    12766    12784    12812    12846 
   12864    12874    12908    12957    13003    13057    13109    13136 
   13146    13146    13116    13076    13063    13042    12981    12912 
   12846    12771    12725    12725    12744    12754    12750    12753 
   12788    12838    12873    12900    12941    13020    13101    13109 
   13068    13063    13080    13051    12989    12935    12893    12861 
   12856    12861    12834    12784    12745    12726    12734    12761 
   12791    12834    12908    12972    13001    13034    13074    13097 
   13107    13124    13140    13136    13104    13062    13024    12989 
   12951    12916    12901    12908    12916    12916    12918    12937 
   12966    12973    12969    12977    12977    12965    12962    12972 
   12984    12996    12995    12977    12981    13032    13086    13111 
   13111    13084    13034    12992    12972    12964    12961    12947 
   12911    12870    12852    12858    12869    12857    12852    12896 
   12957    13001    13053    13104    13113    13090    13068    13051 
   13039    13014    12968    12924    12901    12892    12908    12958 
   13008    13003    12946    12891    12876    12899    12930    12966 
   13022    13074    13095    13088    13074    13068    13065    13069 
   13084    13115    13134    13103    13047    13019    13001    12974 
   12951    12943    12943    12946    12941    12945    12978    13011 
   13015    13023    13062    13099    13109    13100    13086    13059 
   13005    12934    12868    12816    12769    12734    12733    12764 
   12798    12800    12777    12762    12773    12788    12791    12776 
   12765    12785    12829    12869    12907    12938    12931    12903 
   12900    12934    12985    13031    13065    13090    13088    13038 
   12969    12922    12897    12879    12869    12885    12935    12980 
   12985    12969    12968    12977    12988    13008    13038    13047 
   13012    12950    12900    12888    12908    12941    12973    13004 
   13020    13023    13022    13019    13005    12988    12968    12933 
   12907    12914    12934    12947    12945    12926    12914    12923 
   12938    12945    12939    12922    12895    12868    12862    12868 
   12856    12822    12773    12729    12745    12815    12879    12927 
   12966    12976    12973    12987    13005    13009    13020    13066 
   13124    13157    13162    13154    13135    13096    13041    12988 
   12953    12933    12933    12955    12988    13003    12999    13008 
   13043    13069    13054    13023    13009    13005    12993    12969 
   12945    12931    12922    12922    12939    12965    12980    12981 
   12988    13011    13050    13089    13095    13069    13046    13039 
   13050    13074    13090    13078    13034    12980    12945    12927 
   12910    12889    12877    12876    12880    12869    12838    12822 
   12846    12896    12943    12974    12993    12996    12977    12966 
   12972    12964    12934    12891    12847    12830    12830    12829 
   12852    12903    12928    12930    12950    12997    13043    13066 
   13061    13050    13059    13066    13042    13014    12988    12939 
   12892    12885    12897    12889    12874    12877    12888    12893 
   12900    12899    12883    12885    12916    12949    12976    12993 
