Origin Time       2024/04/02 04:24:00
Lat.              40.133
Long.             141.712
Depth. (km)       71
Mag.              6.0
Station Code      HKD109
Station Lat.      42.1678
Station Long.     142.7673
Station Height(m) 4
Record Time       2024/04/02 04:25:41
Sampling Freq(Hz) 100Hz
Duration Time(s)  68
Dir.              E-W
Scale Factor      7845(gal)/8223790
Max. Acc. (gal)   3.499
Last Correction   2024/04/02 04:25:41
Memo.             
[...]
   -3740    -3678    -3604    -3496    -3388    -3295    -3184    -3065 
   -2971    -2902    -2871    -2914    -2998    -3075    -3203    -3418 
   -3608    -3678    -3636    -3538    -3443    -3373    -3318    -3280 
   -3248    -3221    -3231    -3271    -3298    -3334    -3437    -3593 
   -3693    -3623    -3419    -3238    -3152    -3092    -3007    -2949 
   -3011    -3161    -3279    -3331    -3352    -3372    -3420    -3439 
   -3375    -3285    -3248    -3254    -3268    -3291    -3354    -3429 
   -3431    -3327    -3159    -3021    -2992    -3046    -3123    -3219 
   -3346    -3468    -3537    -3535    -3485    -3407    -3319    -3235 
   -3181    -3214    -3299    -3345    -3377    -3468    -3588    -3654 
   -3651    -3604    -3515    -3412    -3345    -3311    -3254    -3145 
   -3032    -2957    -2907    -2875    -2890    -2976    -3137    -3342 
   -3527    -3632    -3653    -3613    -3515    -3387    -3306    -3308 
   -3373    -3404    -3327    -3229    -3225    -3283    -3298    -3218 
   -3083    -2998    -3014    -3053    -3026    -2980    -3022    -3138 
   -3238    -3281    -3273    -3234    -3183    -3118    -3078    -3161 
   -3403    -3678    -3808    -3744    -3558    -3326    -3130    -3079 
   -3184    -3342    -3487    -3577    -3537    -3365    -3202    -3152 
   -3186    -3240    -3268    -3245    -3187    -3149    -3152    -3164 
   -3191    -3276    -3438    -3650    -3824    -3852    -3721    -3554 
   -3458    -3402    -3280    -3088    -2906    -2766    -2671    -2663 
   -2732    -2812    -2891    -2968    -3021    -3065    -3153    -3303 
   -3465    -3580    -3673    -3781    -3848    -3823    -3740    -3697 
   -3736    -3782    -3728    -3561    -3343    -3149    -3038    -3014 
   -3014    -2991    -2963    -2972    -3006    -3010    -2967    -2936 
   -2980    -3100    -3222    -3273    -3257    -3262    -3343    -3407 
   -3381    -3322    -3271    -3225    -3207    -3241    -3346    -3518 
   -3690    -3759    -3654    -3430    -3208    -3028    -2882    -2812 
   -2849    -2968    -3107    -3206    -3260    -3298    -3321    -3298 
   -3230    -3163    -3160    -3269    -3443    -3554    -3611    -3720 
   -3829    -3815    -3723    -3658    -3592    -3488    -3418    -3399 
   -3353    -3275    -3241    -3281    -3352    -3376    -3308    -3159 
   -2998    -2910    -2897    -2911    -2953    -3049    -3157    -3213 
   -3242    -3306    -3369    -3356    -3265    -3199    -3275    -3457 
   -3578    -3565    -3519    -3545    -3578    -3493    -3329    -3221 
   -3200    -3204    -3163    -3083    -3007    -2928    -2875    -2947 
   -3152    -3346    -3397    -3343    -3311    -3342    -3416    -3511 
   -3597    -3639    -3580    -3402    -3213    -3144    -3179    -3157 
   -3003    -2817    -2745    -2817    -2894    -2895    -2951    -3142 
   -3314    -3306    -3163    -3042    -3072    -3234    -3373    -3377 
   -3348    -3416    -3530    -3616    -3757    -3963    -4070    -3998 
   -3820    -3547    -3196    -2944    -2928    -3046    -3137    -3167 
   -3133    -3044    -2975    -2984    -3036    -3063    -3060    -3060 
   -3080    -3138    -3245    -3388    -3577    -3755    -3790    -3704 
   -3658    -3721    -3825    -3856    -3740    -3489    -3149    -2770 
   -2457    -2353    -2485    -2716    -2875    -2917    -2898    -2876 
   -2890    -2929    -2951    -2986    -3121    -3349    -3599    -3843 
   -4040    -4097    -3967    -3682    -3354    -3127    -3048    -3010 
   -2899    -2743    -2627    -2536    -2432    -2421    -2600    -2848 
   -2979    -2987    -3069    -3337    -3663    -3894    -4020    -4132 
   -4248    -4268    -4145    -3959    -3804    -3654    -3429    -3160 
   -2963    -2886    -2860    -2851    -2941    -3164    -3402    -3515 
   -3495    -3412    -3303    -3203    -3194    -3316    -3531    -3726 
   -3805    -3769    -3719    -3765    -3883    -3954    -3917    -3786 
   -3588    -3387    -3249    -3150    -3028    -2867    -2662    -2443 
   -2353    -2532    -2925    -3319    -3572    -3639    -3550    -3406 
   -3272    -3130    -2972    -2841    -2764    -2705    -2651    -2693 
   -2855    -3071    -3323    -3600    -3852    -4037    -4143    -4229 
   -4328    -4318    -4101    -3750    -3410    -3145    -2932    -2740 
   -2560    -2385    -2207    -2039    -1948    -2034    -2331    -2760 
   -3230    -3662    -3966    -4121    -4217    -4332    -4430    -4429 
   -4326    -4209    -4139    -4079    -3962    -3773    -3545    -3281 
   -2970    -2629    -2343    -2161    -2041    -1961    -2002    -2201 
   -2527    -2928    -3330    -3707    -4093    -4486    -4810    -5023 
   -5127    -5098    -4907    -4591    -4217    -3821    -3426    -3073 
   -2787    -2533    -2295    -2126    -2072    -2110    -2196    -2282 
   -2349    -2466    -2713    -3044    -3373    -3712    -4072    -4341 
   -4391    -4260    -4112    -4023    -3882    -3578    -3164    -2803 
   -2631    -2671    -2862    -3111    -3358    -3520    -3500    -3302 
   -3038    -2809    -2624    -2473    -2358    -2282    -2281    -2461 
   -2864    -3406    -3935    -4293    -4452    -4496    -4417    -4170 
   -3848    -3570    -3356    -3149    -2905    -2695    -2624    -2651 
   -2648    -2596    -2650    -2906    -3250    -3561    -3856    -4153 
   -4330    -4248    -3951    -3658    -3493    -3365    -3132    -2806 
   -2587    -2558    -2520    -2359    -2272    -2432    -2717    -2933 
   -3121    -3412    -3793    -4172    -4471    -4642    -4699    -4644 
   -4477    -4302    -4240    -4245    -4175    -3996    -3740    -3389 
   -2947    -2492    -2081    -1757    -1593    -1622    -1833    -2200 
   -2674    -3136    -3491    -3753    -4016    -4306    -4554    -4698 
   -4692    -4541    -4278    -3877    -3325    -2722    -2226    -1907 
   -1746    -1718    -1853    -2216    -2768    -3341    -3809    -4136 
   -4297    -4271    -4116    -3970    -3942    -3974    -3947    -3856 
   -3748    -3576    -3279    -2961    -2820    -2882    -2943    -2839 
   -2617    -2386    -2215    -2133    -2103    -2164    -2471    -3015 
   -3578    -4010    -4359    -4662    -4822    -4785    -4672    -4541 
   -4336    -3987    -3469    -2828    -2192    -1719    -1498    -1521 
   -1742    -2100    -2515    -2959    -3419    -3777    -3928    -3886 
   -3716    -3495    -3296    -3153    -3040    -2920    -2772    -2552 
   -2285    -2149    -2285    -2606    -2914    -3142    -3411    -3802 
   -4117    -4120    -3924    -3786    -3735    -3661    -3577    -3605 
   -3780    -3986    -4072    -3948    -3680    -3427    -3188    -2837 
   -2498    -2457    -2652    -2797    -2860    -2953    -3028    -2959 
   -2760    -2585    -2573    -2759    -3106    -3524    -3927    -4236 
   -4347    -4216    -3969    -3785    -3720    -3663    -3487    -3241 
   -3051    -2901    -2731    -2555    -2434    -2424    -2538    -2729 
   -2941    -3138    -3296    -3322    -3161    -2964    -2926    -3028 
   -3187    -3392    -3586    -3657    -3565    -3366    -3154    -2976 
   -2833    -2721    -2671    -2728    -2826    -2810    -2650    -2477 
   -2415    -2481    -2666    -2997    -3431    -3794    -3952    -3936 
   -3890    -3913    -3943    -3937    -3977    -4083    -4160    -4129 
   -3996    -3835    -3724    -3686    -3681    -3676    -3690    -3736 
   -3770    -3770    -3759    -3742    -3662    -3493    -3308    -3138 
   -2941    -2732    -2543    -2367    -2192    -2037    -1954    -1945 
   -1973    -2131    -2479    -2911    -3379    -3940    -4572    -5169 
   -5611    -5814    -5769    -5539    -5225    -4893    -4492    -4002 
   -3454    -2853    -2251    -1729    -1355    -1127     -947     -774 
    -722     -895    -1263    -1725    -2223    -2774    -3424    -4187 
   -4896    -5316    -5462    -5483    -5341    -4912    -4260    -3612 
   -3109    -2652    -2118    -1570    -1197    -1104    -1144    -1084 
    -977    -1046    -1283    -1518    -1718    -2035    -2559    -3153 
   -3670    -4193    -4837    -5483    -5841    -5772    -5452    -5116 
   -4803    -4434    -4014    -3653    -3404    -3225    -3088    -3019 
   -3030    -3080    -3068    -2937    -2749    -2565    -2376    -2162 
   -1985    -1969    -2160    -2479    -2863    -3287    -3696    -4048 
   -4355    -4649    -4970    -5297    -5513    -5557    -5499    -5440 
   -5373    -5163    -4718    -4147    -3615    -3127    -2624    -2180 
   -1906    -1779    -1736    -1794    -1975    -2236    -2500    -2745 
   -3032    -3379    -3723    -4001    -4189    -4267    -4268    -4291 
   -4410    -4598    -4777    -4847    -4711    -4372    -3937    -3511 
   -3091    -2608    -2033    -1389     -757     -272      -21      -45 
    -392    -1026    -1709    -2220    -2619    -3090    -3626    -4078 
   -4380    -4569    -4685    -4753    -4806    -4885    -5022    -5161 
   -5169    -4954    -4523    -3954    -3338    -2721    -2104    -1540 
   -1117     -885     -820     -884    -1094    -1474    -1984    -2571 
   -3153    -3646    -4079    -4523    -4946    -5317    -5713    -6151 
   -6515    -6686    -6633    -6359    -5883    -5310    -4814    -4410 
   -3987    -3503    -2991    -2515    -2168    -1977    -1888    -1857 
   -1880    -1985    -2223    -2650    -3276    -4005    -4677    -5192 
   -5512    -5648    -5637    -5466    -5080    -4473    -3786    -3207 
   -2758    -2299    -1777    -1313    -1009     -886     -934    -1138 
   -1468    -1842    -2111    -2196    -2153    -2088    -2124    -2317 
   -2575    -2798    -3022    -3350    -3834    -4415    -4970    -5379 
   -5572    -5543    -5296    -4820    -4201    -3578    -2988    -2388 
   -1787    -1271     -950     -882    -1011    -1227    -1497    -1817 
   -2146    -2504    -2964    -3534    -4148    -4650    -4870    -4785 
   -4509    -4189    -3935    -3709    -3399    -3009    -2606    -2203 
   -1865    -1684    -1621    -1559    -1443    -1300    -1200    -1239 
   -1513    -2060    -2818    -3670    -4518    -5260    -5780    -6057 
   -6166    -6153    -6011    -5715    -5263    -4720    -4152    -3593 
   -3125    -2839    -2782    -2918    -3142    -3379    -3607    -3762 
   -3780    -3631    -3334    -2974    -2593    -2172    -1827    -1772 
   -2033    -2469    -2976    -3528    -4062    -4433    -4518    -4347 
   -4058    -3739    -3381    -2999    -2686    -2532    -2496    -2446 
   -2384    -2457    -2713    -3007    -3171    -3152    -2999    -2710 
   -2236    -1638    -1100     -760     -629     -649     -805    -1136 
   -1620    -2166    -2717    -3292    -3879    -4369    -4676    -4865 
   -5016    -5121    -5184    -5246    -5310    -5341    -5236    -4869 
   -4272    -3604    -2988    -2529    -2338    -2367    -2413    -2365 
   -2322    -2382    -2513    -2683    -2945    -3265    -3464    -3426 
   -3254    -3126    -3079    -3042    -2975    -2925    -2953    -3006 
   -2999    -2992    -3132    -3484    -3954    -4418    -4877    -5333 
   -5705    -5922    -5987    -5900    -5611    -5069    -4371    -3711 
   -3160    -2682    -2303    -2045    -1857    -1698    -1553    -1451 
   -1428    -1503    -1711    -2072    -2575    -3161    -3732    -4218 
   -4623    -4896    -4918    -4666    -4272    -3835    -3377    -2967 
   -2695    -2590    -2619    -2724    -2887    -3117    -3399    -3690 
   -3923    -4050    -4058    -3881    -3488    -2991    -2547    -2263 
   -2193    -2327    -2631    -3080    -3626    -4163    -4600    -4915 
   -5005    -4750    -4268    -3793    -3469    -3350    -3424    -3631 
   -3869    -4025    -4018    -3767    -3287    -2764    -2320    -1871 
   -1377     -938     -638     -503     -562     -870    -1459    -2290 
   -3202    -4010    -4664    -5182    -5545    -5718    -5659    -5371 
   -4984    -4587    -4136    -3623    -3180    -2901    -2751    -2739 
   -2849    -2924    -2906    -2830    -2654    -2479    -2389    -2305 
   -2281    -2374    -2559    -2828    -3048    -3094    -2987    -2787 
   -2559    -2349    -2182    -2131    -2224    -2370    -2508    -2722 
   -3150    -3823    -4587    -5212    -5540    -5548    -5341    -5042 
   -4731    -4476    -4280    -4074    -3796    -3454    -3098    -2799 
   -2640    -2600    -2547    -2408    -2188    -1944    -1775    -1732 
   -1814    -2049    -2443    -2928    -3431    -3940    -4473    -5046 
   -5595    -5960    -6012    -5771    -5341    -4780    -4091    -3341 
   -2609    -1912    -1248     -672     -288     -171     -380     -957 
   -1825    -2825    -3827    -4658    -5113    -5155    -4939    -4602 
   -4230    -3921    -3761    -3763    -3881    -4071    -4284    -4487 
   -4708    -4935    -5051    -5005    -4828    -4522    -4072    -3527 
   -3006    -2623    -2413    -2343    -2382    -2569    -2952    -3461 
   -3901    -4126    -4104    -3847    -3412    -2874    -2286    -1711 
   -1239     -927     -762     -696     -758    -1012    -1435    -1966 
   -2609    -3365    -4155    -4834    -5274    -5435    -5378    -5175 
   -4872    -4506    -4105    -3663    -3176    -2660    -2165    -1760 
   -1480    -1293    -1173    -1151    -1260    -1494    -1796    -2160 
   -2640    -3223    -3847    -4487    -5105    -5624    -5992    -6257 
   -6442    -6420    -6062    -5406    -4544    -3534    -2471    -1507 
    -778     -302      -48      -41     -301     -776    -1412    -2192 
   -3121    -4131    -5055    -5755    -6230    -6527    -6650    -6598 
   -6409    -6134    -5761    -5229    -4544    -3796    -3044    -2249 
   -1404     -625      -36      301      379      211     -189     -758 
   -1355    -1856    -2285    -2771    -3391    -4078    -4699    -5198 
   -5582    -5827    -5888    -5756    -5474    -5090    -4644    -4140 
   -3599    -3076    -2666    -2450    -2394    -2385    -2347    -2327 
   -2439    -2714    -3069    -3437    -3796    -4114    -4330    -4372 
   -4260    -4143    -4077    -3964    -3723    -3338    -2836    -2246 
   -1618    -1051     -657     -495     -572     -884    -1429    -2150 
   -2910    -3535    -3904    -4035    -4058    -4048    -3986    -3861 
   -3744    -3727    -3863    -4135    -4444    -4687    -4838    -4864 
   -4679    -4284    -3852    -3545    -3304    -2997    -2654    -2350 
   -2058    -1763    -1540    -1497    -1709    -2122    -2520    -2782 
   -2998    -3250    -3499    -3728    -4001    -4284    -4457    -4513 
   -4526    -4506    -4423    -4259    -3996    -3665    -3316    -2982 
   -2693    -2493    -2428    -2513    -2683    -2817    -2818    -2690 
   -2546    -2512    -2640    -2905    -3177    -3329    -3348    -3292 
   -3199    -3080    -2980    -2960    -3005    -3060    -3132    -3248 
   -3404    -3574    -3712    -3782    -3811    -3819    -3746    -3555 
   -3299    -3038    -2818    -2679    -2627    -2700    -2922    -3210 
   -3437    -3534    -3524    -3492    -3464    -3411    -3334    -3273 
   -3249    -3252    -3267    -3312    -3391    -3457    -3504    -3564 
   -3618    -3635    -3639    -3658    -3674    -3649    -3554    -3450 
   -3438    -3527    -3626    -3669    -3661    -3659    -3723    -3861 
   -4027    -4175    -4275    -4303    -4243    -4116    -3983    -3851 
   -3658    -3345    -2879    -2319    -1787    -1348    -1057     -969 
   -1062    -1300    -1675    -2158    -2666    -3134    -3577    -3990 
   -4313    -4507    -4585    -4568    -4455    -4221    -3838    -3348 
   -2862    -2486    -2276    -2251    -2393    -2640    -2949    -3298 
   -3634    -3888    -4052    -4186    -4329    -4445    -4469    -4414 
   -4348    -4257    -4043    -3663    -3211    -2795    -2415    -1993 
   -1566    -1258    -1109    -1073    -1177    -1516    -2107    -2866 
   -3689    -4503    -5228    -5755    -5989    -5908    -5582    -5123 
   -4594    -4032    -3526    -3156    -2893    -2650    -2405    -2192 
   -2014    -1838    -1676    -1618    -1760    -2110    -2578    -3042 
   -3451    -3816    -4126    -4374    -4630    -4950    -5239    -5347 
   -5200    -4834    -4320    -3673    -2918    -2191    -1683    -1518 
   -1659    -1966    -2340    -2752    -3186    -3609    -3996    -4336 
   -4603    -4746    -4725    -4540    -4224    -3834    -3427    -3011 
   -2620    -2378    -2353    -2490    -2710    -2898    -2947    -2864 
   -2732    -2594    -2494    -2505    -2675    -2961    -3253    -3469 
   -3612    -3707    -3766    -3801    -3828    -3861    -3881    -3844 
   -3735    -3603    -3528    -3505    -3447    -3338    -3210    -3067 
   -2932    -2859    -2889    -3015    -3176    -3281    -3292    -3207 
   -3051    -2878    -2693    -2501    -2380    -2366    -2400    -2416 
   -2408    -2413    -2459    -2513    -2547    -2625    -2843    -3176 
   -3511    -3802    -4109    -4494    -4909    -5273    -5564    -5725 
   -5672    -5389    -4903    -4279    -3595    -2890    -2182    -1536 
   -1026     -693     -562     -665     -988    -1510    -2195    -2947 
   -3682    -4384    -5026    -5540    -5845    -5929    -5867    -5684 
   -5339    -4835    -4248    -3653    -3086    -2536    -1984    -1462 
   -1078     -866     -729     -665     -765    -1053    -1495    -2062 
   -2741    -3512    -4298    -5012    -5597    -5992    -6188    -6220 
   -6111    -5817    -5243    -4423    -3547    -2718    -1880    -1036 
    -341       86      260      233       27     -378     -989    -1737 
   -2516    -3308    -4129    -4908    -5553    -6026    -6323    -6430 
   -6326    -6003    -5487    -4831    -4120    -3419    -2740    -2119 
   -1615    -1250    -1063    -1105    -1347    -1711    -2096    -2454 
   -2812    -3183    -3527    -3831    -4122    -4410    -4681    -4891 
   -4973    -4935    -4837    -4689    -4448    -4089    -3646    -3160 
   -2652    -2191    -1881    -1765    -1822    -2027    -2327    -2651 
   -2971    -3264    -3497    -3640    -3678    -3632    -3542    -3443 
   -3350    -3241    -3095    -2943    -2866    -2948    -3238    -3685 
   -4159    -4533    -4756    -4843    -4810    -4644    -4363    -4033 
   -3705    -3399    -3125    -2894    -2693    -2515    -2369    -2224 
   -2065    -1956    -1968    -2100    -2335    -2666    -3079    -3537 
   -3991    -4386    -4660    -4818    -4911    -4965    -4973    -4911 
   -4743    -4457    -4075    -3634    -3150    -2623    -2092    -1651 
   -1339    -1128     -994     -997    -1189    -1536    -1957    -2397 
   -2860    -3349    -3802    -4113    -4263    -4341    -4428    -4484 
   -4450    -4348    -4237    -4109    -3889    -3523    -3065    -2613 
   -2216    -1921    -1775    -1779    -1919    -2181    -2529    -2921 
   -3308    -3631    -3854    -3987    -4056    -4064    -4014    -3905 
   -3719    -3435    -3092    -2774    -2554    -2474    -2539    -2714 
   -2949    -3211    -3474    -3699    -3848    -3908    -3908    -3908 
   -3908    -3854    -3746    -3646    -3574    -3495    -3377    -3226 
   -3063    -2895    -2733    -2592    -2489    -2435    -2419    -2440 
   -2504    -2619    -2797    -3056    -3404    -3817    -4259    -4677 
   -5004    -5190    -5233    -5146    -4962    -4707    -4394    -4063 
   -3769    -3527    -3304    -3051    -2781    -2548    -2373    -2263 
   -2243    -2320    -2469    -2663    -2913    -3242    -3626    -3994 
   -4299    -4519    -4662    -4729    -4698    -4554    -4310    -3970 
   -3528    -3028    -2577    -2257    -2068    -1954    -1864    -1779 
