Origin Time       2024/04/02 04:24:00
Lat.              40.133
Long.             141.712
Depth. (km)       71
Mag.              6.0
Station Code      HKD160
Station Lat.      41.7700
Station Long.     140.7383
Station Height(m) 4
Record Time       2024/04/02 04:25:12
Sampling Freq(Hz) 100Hz
Duration Time(s)  86
Dir.              U-D
Scale Factor      7845(gal)/8223790
Max. Acc. (gal)   3.000
Last Correction   2024/04/02 04:25:13
Memo.             
[...]
    1829     1706     1775     1972     2070     2143     2272     2339 
    2296     2145     1950     1872     1861     1760     1684     1750 
    1787     1725     1694     1687     1645     1676     1796     1849 
    1842     1921     2053     2092     2054     2029     1954     1811 
    1815     2061     2358     2543     2610     2654     2756     2860 
    2921     2917     2756     2471     2189     2015     1996     1987 
    1846     1699     1628     1594     1667     1860     2066     2270 
    2462     2610     2721     2727     2650     2654     2679     2559 
    2362     2187     2035     1957     1962     1964     1919     1850 
    1800     1810     1952     2191     2343     2363     2331     2243 
    2079     1829     1574     1453     1421     1431     1601     1853 
    2004     2101     2168     2127     2033     1979     1958     1937 
    1890     1790     1611     1393     1298     1414     1661     1979 
    2278     2386     2334     2281     2207     2095     2060     2088 
    2096     2083     1991     1815     1722     1746     1833     1989 
    2093     2114     2184     2247     2230     2224     2212     2134 
    2065     2052     2060     2015     1929     1944     2038     2072 
    2146     2366     2625     2832     2871     2702     2524     2435 
    2397     2467     2613     2720     2756     2712     2609     2520 
    2512     2606     2722     2779     2713     2484     2246     2096 
    1931     1796     1757     1721     1683     1671     1660     1730 
    1858     1877     1830     1846     1895     1946     1946     1854 
    1782     1740     1715     1821     1964     1998     2034     2077 
    2042     2000     1933     1779     1659     1638     1644     1644 
    1684     1782     1876     1973     2080     2100     2045     2034 
    2068     2073     2037     2023     2116     2227     2224     2207 
    2296     2419     2446     2311     2089     1945     1921     1989 
    2123     2146     1976     1884     2037     2286     2478     2481 
    2347     2288     2265     2303     2552     2770     2724     2651 
    2709     2766     2762     2789     2856     2859     2749     2616 
    2546     2556     2583     2531     2394     2231     2049     1900 
    1876     1930     1983     2010     1935     1748     1575     1462 
    1378     1305     1244     1305     1540     1822     2008     2083 
    2143     2251     2334     2327     2242     2112     1996     1941 
    1956     2029     2116     2145     2126     2147     2143     2010 
    1829     1606     1343     1237     1270     1254     1200     1132 
    1117     1283     1516     1687     1914     2164     2230     2187 
    2254     2361     2386     2448     2563     2567     2443     2238 
    1971     1786     1748     1772     1829     1865     1880     1995 
    2223     2556     2934     3119     3136     3146     2991     2601 
    2253     2018     1721     1437     1420     1579     1625     1545 
    1491     1544     1690     1830     1977     2189     2296     2195 
    2065     2080     2220     2353     2416     2469     2520     2569 
    2729     2986     3103     3053     2980     2805     2469     2188 
    2126     2246     2408     2473     2488     2571     2681     2683 
    2496     2214     2045     1981     1915     1923     2006     2000 
    1873     1671     1476     1451     1556     1636     1629     1522 
    1455     1532     1580     1520     1458     1432     1506     1723 
    1985     2192     2293     2317     2347     2327     2191     2031 
    1900     1803     1746     1705     1710     1825     1984     2046 
    1996     1911     1829     1771     1742     1706     1665     1653 
    1715     1929     2226     2417     2506     2631     2744     2704 
    2573     2524     2546     2498     2404     2435     2539     2463 
    2277     2201     2138     1960     1800     1780     1827     1837 
    1852     2019     2322     2579     2706     2710     2605     2419 
    2201     2046     2022     2103     2238     2362     2423     2428 
    2389     2303     2188     2062     1996     2053     2166     2239 
    2263     2241     2172     2030     1856     1826     1964     2043 
    1938     1783     1736     1733     1668     1660     1737     1684 
    1575     1644     1756     1798     1912     2007     1939     1914 
    1996     1998     1964     2018     2060     2023     2002     2103 
    2274     2353     2340     2334     2311     2357     2554     2717 
    2718     2682     2737     2916     3078     3132     3145     3044 
    2778     2524     2311     2081     1961     1952     1871     1663 
    1417     1239     1131      972      760      630      648      835 
    1183     1537     1807     2060     2276     2419     2555     2647 
    2627     2555     2444     2286     2165     2100     2087     2160 
    2153     1945     1723     1603     1560     1620     1694     1688 
    1683     1742     1892     2164     2523     2856     3051     3132 
    3179     3132     2938     2733     2632     2587     2511     2401 
    2313     2203     2033     1950     1977     1930     1779     1674 
    1699     1823     1961     2073     2219     2396     2473     2502 
    2621     2677     2550     2376     2165     1910     1775     1787 
    1834     1826     1688     1552     1624     1802     1898     2018 
    2259     2431     2446     2511     2600     2511     2351     2269 
    2215     2193     2207     2218     2204     2133     2085     2142 
    2184     2220     2353     2381     2184     1987     1891     1810 
    1737     1678     1655     1741     1876     1969     2049     2158 
    2274     2344     2309     2235     2253     2268     2114     1853 
    1684     1665     1702     1806     2101     2479     2673     2625 
    2501     2408     2236     1938     1705     1620     1593     1540 
    1397     1228     1179     1239     1291     1266     1243     1382 
    1606     1804     2103     2393     2371     2197     2137     2135 
    2272     2609     2844     2803     2640     2479     2393     2413 
    2467     2543     2637     2616     2485     2451     2489     2420 
    2330     2290     2126     1865     1740     1813     2038     2285 
    2416     2443     2377     2247     2149     2112     2143     2197 
    2238     2316     2354     2328     2398     2457     2344     2212 
    2118     2002     1939     1987     2093     2155     2151     2157 
    2087     1903     1836     1938     2073     2272     2506     2656 
    2721     2733     2766     2848     2797     2578     2408     2322 
    2200     2088     2096     2126     2053     1973     1934     1869 
    1790     1737     1763     1865     1911     1875     1912     2020 
    2065     2103     2245     2407     2527     2643     2663     2538 
    2452     2463     2371     2110     1844     1737     1858     2120 
    2351     2511     2586     2427     2085     1813     1576     1239 
     924      845     1035     1290     1486     1679     1765     1691 
    1651     1648     1566     1466     1389     1329     1254     1105 
    1054     1247     1526     1798     2056     2232     2401     2562 
    2535     2351     2230     2243     2273     2220     2214     2281 
    2223     2072     1948     1746     1443     1096      734      476 
     353      371      633     1044     1383     1571     1576     1458 
    1368     1377     1475     1613     1726     1881     2161     2479 
    2735     2910     2988     2959     2837     2650     2467     2278 
    1998     1745     1676     1741     1915     2164     2311     2263 
    2106     1925     1768     1661     1534     1333     1166     1140 
    1246     1426     1648     2007     2515     2866     2851     2632 
    2409     2270     2220     2247     2359     2533     2745     3002 
    3214     3283     3227     3082     2814     2459     2160     2006 
    2012     2173     2293     2265     2272     2327     2346     2465 
    2679     2871     3078     3288     3449     3511     3360     3075 
    2835     2613     2459     2463     2494     2475     2467     2479 
    2490     2439     2335     2289     2316     2409     2528     2512 
    2340     2116     1871     1714     1672     1544     1401     1486 
    1645     1640     1530     1410     1255     1111     1077     1074 
     994      953     1032     1167     1348     1493     1509     1514 
    1591     1660     1703     1826     2153     2609     2880     2816 
    2633     2546     2475     2284     2072     2031     2046     1926 
    1750     1629     1595     1671     1780     1917     2120     2324 
    2552     2758     2763     2690     2620     2400     2226     2332 
    2539     2760     3065     3319     3338     3141     2974     3032 
    3163     3248     3319     3204     2917     2758     2673     2500 
    2346     2195     2002     1892     1880     1900     1948     2002 
    2093     2214     2216     2047     1922     1972     2020     1941 
    1786     1518     1069      529      102      -72       -2      236 
     548      911     1421     2079     2722     3171     3314     3233 
    3060     2775     2384     1946     1545     1343     1297     1229 
    1233     1459     1848     2230     2461     2592     2731     2814 
    2816     2744     2548     2334     2197     2014     1740     1526 
    1471     1587     1813     1941     1944     1993     2076     2115 
    2104     2016     2043     2316     2571     2624     2482     2208 
    2031     2061     2165     2289     2367     2336     2254     2146 
    2077     2143     2227     2272     2354     2438     2544     2666 
    2597     2381     2282     2331     2477     2708     2965     3159 
    3099     2758     2446     2274     2064     1786     1513     1278 
    1132     1035      974     1034     1113     1047      932      877 
     849      904     1084     1262     1335     1343     1412     1556 
    1618     1609     1709     1923     2093     2069     1853     1621 
    1421     1223     1221     1493     1795     1988     2128     2307 
    2500     2624     2708     2625     2181     1671     1472     1503 
    1636     1863     2084     2245     2336     2308     2205     2188 
    2276     2347     2408     2520     2581     2501     2362     2220 
    2007     1748     1593     1625     1864     2257     2644     2979 
    3327     3662     3998     4379     4653     4625     4263     3724 
    3268     2959     2682     2415     2147     1969     2084     2354 
    2454     2388     2309     2216     2058     1912     1834     1757 
    1707     1791     1934     2022     2100     2182     2214     2236 
    2342     2563     2793     2818     2623     2328     1911     1428 
    1139     1152     1290     1279     1094      935      864      826 
     797      758      826     1104     1471     1787     1966     1965 
    1938     2000     2066     2182     2377     2481     2458     2357 
    2133     1871     1707     1634     1532     1314     1100     1007 
     977     1024     1198     1409     1556     1696     1945     2297 
    2647     2947     3175     3281     3295     3295     3262     3136 
    2984     2947     3040     3144     3198     3338     3674     4032 
    4240     4293     4129     3732     3264     2816     2409     2103 
    1881     1763     1875     2195     2558     2837     2998     3083 
    3140     3176     3177     3111     2933     2582     2027     1345 
     672      152     -136     -234     -240     -184      -16      267 
     553      754      943     1209     1472     1606     1671     1826 
    2122     2471     2799     3115     3331     3304     3042     2700 
    2439     2261     2004     1642     1274      885      464       64 
    -314     -577     -619     -519     -315      -47      205      641 
    1343     1956     2354     2702     2971     3064     2997     2930 
    3064     3381     3807     4301     4714     4951     5015     4807 
    4302     3666     3063     2556     2087     1583     1181     1038 
    1150     1476     1911     2326     2770     3302     3774     3998 
    3929     3634     3245     2871     2477     1972     1406      935 
     579      280      117      139      306      660     1225     1968 
    2808     3527     3960     4097     3985     3767     3505     3041 
    2385     1790     1390     1121      938      934     1102     1215 
    1210     1204     1112      847      521      292      236      329 
     522      630      508      429      615      849      961     1015 
    1169     1521     1875     2070     2239     2454     2714     2938 
    3009     3079     3254     3387     3464     3512     3501     3572 
    3696     3642     3391     3045     2679     2381     2092     1742 
    1391     1057      737      531      494      622      972     1440 
    1883     2458     3177     3781     4256     4541     4434     4170 
    4029     3954     3893     3785     3505     3088     2641     2255 
    1964     1672     1412     1321     1309     1259     1266     1327 
    1266     1057      919     1071     1421     1718     1841     1787 
    1625     1474     1441     1536     1649     1733     1854     1964 
    1953     1894     1845     1752     1655     1626     1684     1845 
    2080     2394     2783     3142     3414     3597     3674     3686 
    3676     3603     3505     3430     3287     3057     2830     2525 
    2114     1800     1629     1416     1098      792      610      519 
     418      278       70     -221     -513     -766     -970    -1050 
   -1030     -911     -530      105      796     1443     2012     2536 
    3033     3349     3431     3442     3447     3365     3144     2878 
    2743     2782     2918     3082     3230     3399     3627     3759 
    3661     3484     3369     3277     3217     3172     3078     3005 
    2986     2943     2974     3122     3179     3148     3218     3385 
    3676     4037     4170     4021     3744     3338     2860     2435 
    2084     1750     1429     1300     1362     1333     1263     1378 
    1561     1738     1971     2118     2060     1822     1487     1250 
    1124      861      508      321      194       -9     -140      -72 
     139      373      573      749      842      862     1009     1312 
    1576     1777     1973     2058     1999     1952     2022     2187 
    2342     2497     2729     2847     2701     2455     2192     1912 
    1729     1598     1480     1509     1582     1547     1552     1661 
    1736     1799     1938     2011     1891     1723     1672     1725 
    1825     1964     2070     2072     2100     2288     2443     2390 
    2250     2118     1975     1829     1736     1826     2126     2446 
    2749     3204     3673     3809     3618     3331     3028     2683 
    2331     2019     1804     1737     1740     1669     1540     1435 
    1390     1440     1571     1788     2087     2339     2520     2698 
    2754     2652     2577     2585     2631     2714     2826     2984 
    3148     3238     3330     3397     3283     3142     3175     3300 
    3469     3662     3789     3844     3883     3955     4009     3955 
    3870     3820     3670     3385     3087     2770     2370     1938 
    1507     1102      850      761      676      626      780     1036 
    1210     1375     1576     1728     1833     1826     1655     1460 
    1281     1092      974      858      665      544      606      783 
     974     1135     1242     1270     1262     1332     1413     1304 
    1088     1038     1181     1435     1775     2043     2095     2084 
    2162     2182     2054     2006     2116     2149     2053     1969 
    1876     1737     1661     1823     2236     2631     2844     2987 
    3060     2986     2887     2886     2928     2916     2840     2764 
    2690     2586     2504     2473     2500     2596     2650     2681 
    2833     2943     2845     2644     2303     1818     1402     1082 
     864      851      843      665      544      602      747      901 
     938      912     1011     1116     1062      903      731      679 
     827     1032     1129     1135     1178     1340     1544     1632 
    1630     1802     2235     2716     3102     3414     3654     3842 
    4020     4148     4105     3844     3501     3195     2899     2616 
    2369     2182     2127     2173     2142     1960     1796     1777 
    1763     1610     1445     1455     1561     1583     1572     1641 
    1715     1794     2016     2290     2394     2431     2589     2764 
    2863     2932     2955     2914     2847     2771     2677     2562 
    2531     2600     2616     2619     2709     2764     2764     2832 
    2924     2924     2795     2543     2204     1881     1663     1566 
    1601     1760     1966     2166     2376     2544     2627     2727 
    2849     2876     2840     2771     2606     2454     2416     2381 
    2280     2143     2041     2070     2165     2137     2026     2007 
    2088     2204     2361     2542     2718     2902     3034     3021 
    2837     2498     2079     1706     1453     1329     1266     1112 
     824      572      427      270      129      174      375      627 
     999     1512     1980     2230     2250     2178     2174     2262 
    2323     2323     2353     2435     2527     2531     2328     2047 
    1898     1830     1756     1691     1644     1665     1745     1813 
    1953     2182     2359     2502     2636     2628     2535     2524 
    2593     2679     2670     2369     1813     1306     1058      990 
     911      869     1075     1440     1759     2097     2490     2763 
    2808     2636     2349     2106     1921     1771     1763     1888 
    2072     2311     2450     2396     2349     2380     2412     2473 
    2523     2513     2506     2479     2415     2384     2407     2470 
    2529     2559     2640     2747     2727     2635     2594     2555 
    2470     2377     2272     2157     2083     2014     1868     1671 
    1476     1297     1209     1304     1537     1773     1869     1780 
    1649     1579     1498     1409     1387     1410     1464     1530 
    1564     1676     1875     1918     1744     1545     1474     1555 
    1669     1756     1906     2088     2162     2106     1968     1814 
    1661     1462     1275     1210     1223     1263     1344     1459 
    1599     1745     1842     1941     2104     2269     2396     2505 
    2538     2494     2548     2743     2882     2988     3250     3539 
    3713     3889     4067     4176     4253     4314     4409     4518 
    4499     4371     4152     3782     3457     3311     3153     2926 
    2709     2525     2407     2301     2232     2273     2227     2030 
    1852     1621     1328     1178     1096      909      669      464 
     371      406      530      749      986     1132     1179     1151 
    1077      969      816      718      679      645      714      862 
    1007     1205     1409     1567     1773     2022     2292     2612 
    2862     2932     2879     2789     2729     2722     2623     2320 
    1989     1845     1813     1733     1641     1641     1688     1672 
    1622     1634     1680     1729     1813     1953     2207     2570 
    2930     3233     3514     3789     3971     3939     3785     3623 
    3362     2986     2628     2359     2137     1950     1838     1750 
