Origin Time       2024/04/02 04:24:00
Lat.              40.133
Long.             141.712
Depth. (km)       71
Mag.              6.0
Station Code      HKD152
Station Lat.      42.2586
Station Long.     140.2638
Station Height(m) 5
Record Time       2024/04/02 04:25:16
Sampling Freq(Hz) 100Hz
Duration Time(s)  60
Dir.              E-W
Scale Factor      7845(gal)/8223790
Max. Acc. (gal)   0.756
Last Correction   2024/04/02 04:25:16
Memo.             
[...]
  -35290   -35272   -35253   -35228   -35202   -35185   -35175   -35164 
  -35152   -35129   -35098   -35063   -35035   -35014   -34994   -34973 
  -34956   -34943   -34938   -34944   -34966   -34997   -35028   -35052 
  -35067   -35073   -35074   -35078   -35078   -35075   -35075   -35078 
  -35078   -35081   -35081   -35085   -35105   -35128   -35140   -35145 
  -35148   -35140   -35120   -35089   -35071   -35091   -35133   -35174 
  -35202   -35217   -35226   -35237   -35248   -35255   -35252   -35255 
  -35267   -35278   -35282   -35275   -35255   -35226   -35197   -35185 
  -35193   -35213   -35233   -35247   -35252   -35243   -35229   -35210 
  -35191   -35186   -35199   -35221   -35230   -35221   -35208   -35197 
  -35187   -35187   -35203   -35218   -35221   -35214   -35199   -35187 
  -35182   -35183   -35194   -35210   -35222   -35233   -35239   -35237 
  -35236   -35232   -35222   -35210   -35197   -35185   -35175   -35160 
  -35141   -35125   -35114   -35109   -35093   -35063   -35036   -35019 
  -35010   -35023   -35051   -35083   -35118   -35154   -35178   -35193 
  -35202   -35208   -35205   -35193   -35174   -35151   -35128   -35108 
  -35094   -35081   -35070   -35074   -35091   -35110   -35133   -35166 
  -35203   -35239   -35272   -35313   -35356   -35387   -35405   -35424 
  -35433   -35429   -35418   -35411   -35405   -35383   -35343   -35291 
  -35237   -35181   -35135   -35102   -35082   -35074   -35078   -35086 
  -35083   -35060   -35021   -34987   -34969   -34970   -34982   -34996 
  -35008   -35019   -35020   -35019   -35021   -35031   -35051   -35075 
  -35095   -35112   -35124   -35128   -35118   -35098   -35077   -35062 
  -35054   -35043   -35032   -35024   -35008   -34978   -34955   -34954 
  -34966   -34990   -35021   -35041   -35047   -35050   -35048   -35046 
  -35059   -35090   -35129   -35159   -35164   -35164   -35162   -35139 
  -35109   -35098   -35101   -35097   -35086   -35079   -35078   -35079 
  -35090   -35108   -35128   -35158   -35190   -35206   -35209   -35210 
  -35205   -35206   -35224   -35240   -35239   -35236   -35235   -35225 
  -35216   -35198   -35170   -35151   -35147   -35143   -35137   -35137 
  -35135   -35121   -35095   -35062   -35032   -35012   -34996   -34990 
  -35001   -35009   -35014   -35031   -35054   -35081   -35110   -35132 
  -35141   -35148   -35152   -35155   -35164   -35171   -35167   -35162 
  -35158   -35147   -35143   -35145   -35137   -35125   -35124   -35133 
  -35151   -35170   -35179   -35170   -35144   -35121   -35117   -35118 
  -35117   -35118   -35124   -35131   -35143   -35156   -35168   -35172 
  -35168   -35158   -35147   -35149   -35164   -35183   -35206   -35213 
  -35193   -35159   -35129   -35128   -35147   -35162   -35170   -35166 
  -35137   -35105   -35090   -35081   -35060   -35039   -35025   -35023 
  -35036   -35052   -35060   -35064   -35077   -35091   -35101   -35116 
  -35144   -35171   -35168   -35141   -35118   -35117   -35132   -35160 
  -35203   -35245   -35270   -35286   -35303   -35317   -35317   -35307 
  -35297   -35284   -35282   -35289   -35290   -35278   -35267   -35262 
  -35262   -35268   -35266   -35244   -35221   -35198   -35179   -35182 
  -35197   -35209   -35217   -35213   -35183   -35135   -35093   -35075 
  -35078   -35086   -35100   -35121   -35135   -35137   -35140   -35141 
  -35143   -35147   -35155   -35168   -35183   -35198   -35217   -35247 
  -35278   -35309   -35338   -35353   -35353   -35347   -35333   -35302 
  -35260   -35222   -35195   -35167   -35145   -35140   -35141   -35152 
  -35154   -35135   -35137   -35156   -35137   -35109   -35110   -35112 
  -35113   -35106   -35082   -35073   -35078   -35067   -35055   -35059 
  -35079   -35106   -35112   -35102   -35093   -35064   -35025   -34992 
  -34959   -34947   -34952   -34960   -34969   -34969   -34960   -34970 
  -34986   -34985   -34994   -35020   -35041   -35052   -35055   -35058 
  -35074   -35094   -35094   -35086   -35087   -35090   -35085   -35070 
  -35059   -35056   -35059   -35073   -35082   -35071   -35067   -35078 
  -35082   -35074   -35047   -35023   -35039   -35070   -35082   -35102 
  -35133   -35148   -35152   -35154   -35160   -35186   -35216   -35233 
  -35256   -35280   -35302   -35316   -35298   -35268   -35255   -35248 
  -35228   -35201   -35186   -35187   -35178   -35159   -35154   -35144 
  -35118   -35102   -35109   -35120   -35117   -35101   -35091   -35095 
  -35089   -35077   -35082   -35089   -35078   -35073   -35086   -35098 
  -35101   -35091   -35085   -35098   -35116   -35128   -35148   -35170 
  -35174   -35166   -35152   -35144   -35148   -35155   -35162   -35175 
  -35182   -35182   -35185   -35185   -35191   -35220   -35248   -35260 
  -35268   -35284   -35298   -35310   -35329   -35343   -35326   -35302 
  -35299   -35309   -35309   -35302   -35297   -35291   -35290   -35291 
  -35298   -35316   -35326   -35330   -35347   -35374   -35394   -35409 
  -35414   -35392   -35348   -35307   -35284   -35257   -35221   -35193 
  -35176   -35162   -35145   -35121   -35086   -35058   -35033   -35005 
  -34992   -34998   -35014   -35037   -35060   -35078   -35093   -35102 
  -35106   -35104   -35098   -35112   -35133   -35148   -35151   -35152 
  -35151   -35137   -35120   -35106   -35097   -35095   -35109   -35132 
  -35151   -35152   -35144   -35140   -35143   -35143   -35139   -35151 
  -35168   -35170   -35164   -35159   -35124   -35071   -35029   -35002 
  -34985   -34962   -34933   -34935   -34951   -34939   -34912   -34893 
  -34879   -34869   -34863   -34861   -34859   -34862   -34871   -34886 
  -34904   -34921   -34925   -34906   -34875   -34848   -34839   -34843 
  -34847   -34854   -34861   -34851   -34839   -34846   -34863   -34871 
  -34885   -34925   -34981   -35028   -35083   -35143   -35186   -35210 
  -35225   -35240   -35256   -35278   -35306   -35326   -35333   -35336 
  -35337   -35337   -35336   -35333   -35338   -35370   -35407   -35425 
  -35434   -35433   -35417   -35399   -35392   -35403   -35415   -35403 
  -35378   -35357   -35333   -35297   -35262   -35222   -35175   -35139 
  -35124   -35113   -35102   -35105   -35109   -35098   -35095   -35105 
  -35102   -35090   -35093   -35102   -35106   -35105   -35102   -35104 
  -35108   -35104   -35090   -35083   -35087   -35101   -35118   -35133 
  -35144   -35152   -35158   -35160   -35171   -35183   -35187   -35186 
  -35176   -35162   -35140   -35110   -35091   -35097   -35114   -35133 
  -35154   -35174   -35190   -35191   -35179   -35166   -35152   -35139 
  -35122   -35121   -35143   -35166   -35179   -35193   -35206   -35222 
  -35245   -35266   -35278   -35291   -35299   -35299   -35293   -35283 
  -35287   -35301   -35303   -35298   -35287   -35274   -35253   -35225 
  -35198   -35183   -35176   -35171   -35174   -35181   -35187   -35191 
  -35191   -35193   -35199   -35209   -35220   -35222   -35203   -35174 
  -35155   -35147   -35148   -35160   -35170   -35166   -35151   -35129 
  -35102   -35086   -35086   -35091   -35087   -35079   -35077   -35081 
  -35086   -35085   -35081   -35078   -35071   -35052   -35033   -35031 
  -35037   -35039   -35037   -35046   -35055   -35051   -35032   -35016 
  -35001   -34977   -34956   -34951   -34943   -34942   -34954   -34969 
  -34986   -35024   -35075   -35137   -35202   -35256   -35291   -35316 
  -35329   -35336   -35347   -35359   -35367   -35365   -35351   -35326 
  -35306   -35290   -35280   -35276   -35264   -35247   -35230   -35208 
  -35179   -35149   -35122   -35091   -35060   -35041   -35041   -35054 
  -35085   -35127   -35160   -35189   -35210   -35224   -35232   -35225 
  -35201   -35171   -35143   -35114   -35085   -35048   -35000   -34950 
  -34911   -34882   -34879   -34904   -34935   -34971   -35012   -35037 
  -35047   -35056   -35075   -35100   -35118   -35133   -35144   -35143 
  -35135   -35133   -35135   -35132   -35124   -35112   -35114   -35141 
  -35164   -35167   -35154   -35133   -35110   -35086   -35056   -35032 
  -35008   -34986   -34981   -34992   -35001   -35012   -35031   -35055 
  -35077   -35095   -35113   -35137   -35171   -35194   -35199   -35199 
  -35194   -35174   -35148   -35131   -35109   -35081   -35054   -35036 
  -35027   -35019   -35016   -35020   -35017   -35001   -34986   -34986 
  -35005   -35041   -35091   -35143   -35185   -35208   -35218   -35235 
  -35262   -35299   -35337   -35360   -35368   -35365   -35363   -35367 
  -35374   -35380   -35384   -35387   -35379   -35359   -35336   -35320 
  -35309   -35303   -35302   -35305   -35299   -35286   -35275   -35263 
  -35249   -35239   -35226   -35210   -35195   -35186   -35187   -35191 
  -35191   -35194   -35199   -35194   -35191   -35201   -35209   -35206 
  -35210   -35221   -35225   -35224   -35218   -35210   -35206   -35218 
  -35235   -35239   -35230   -35213   -35186   -35155   -35125   -35106 
  -35101   -35100   -35097   -35087   -35063   -35032   -35006   -34987 
  -34963   -34933   -34904   -34873   -34843   -34825   -34824   -34834 
  -34839   -34842   -34847   -34858   -34873   -34893   -34921   -34954 
  -34989   -35014   -35023   -35024   -35027   -35027   -35025   -35032 
  -35047   -35063   -35079   -35091   -35091   -35085   -35083   -35090 
  -35094   -35102   -35124   -35144   -35154   -35164   -35166   -35154 
  -35148   -35163   -35198   -35237   -35272   -35307   -35341   -35357 
  -35367   -35384   -35394   -35392   -35391   -35376   -35334   -35274 
  -35218   -35187   -35182   -35191   -35199   -35195   -35198   -35217 
  -35240   -35251   -35249   -35240   -35226   -35212   -35194   -35176 
  -35158   -35135   -35114   -35104   -35098   -35090   -35074   -35054 
  -35027   -34986   -34952   -34946   -34962   -34989   -35013   -35028 
  -35041   -35058   -35079   -35110   -35141   -35162   -35181   -35202 
  -35216   -35222   -35225   -35225   -35218   -35213   -35212   -35221 
  -35243   -35271   -35298   -35314   -35314   -35302   -35283   -35260 
  -35244   -35240   -35236   -35221   -35203   -35193   -35176   -35156 
  -35139   -35127   -35125   -35141   -35163   -35182   -35202   -35214 
  -35212   -35206   -35206   -35206   -35208   -35213   -35216   -35209 
  -35193   -35174   -35158   -35156   -35172   -35190   -35190   -35176 
  -35162   -35143   -35116   -35085   -35056   -35035   -35025   -35028 
  -35033   -35036   -35039   -35039   -35035   -35039   -35059   -35093 
  -35131   -35163   -35187   -35194   -35190   -35190   -35194   -35209 
  -35235   -35255   -35270   -35286   -35289   -35275   -35253   -35233 
  -35214   -35193   -35167   -35147   -35124   -35094   -35067   -35051 
  -35046   -35047   -35062   -35086   -35109   -35128   -35137   -35140 
  -35147   -35149   -35148   -35156   -35162   -35158   -35154   -35154 
  -35155   -35160   -35168   -35172   -35176   -35185   -35191   -35186 
  -35166   -35139   -35118   -35112   -35110   -35114   -35136   -35163 
  -35183   -35203   -35220   -35225   -35222   -35220   -35221   -35208 
  -35175   -35140   -35102   -35066   -35039   -35021   -35008   -34997 
  -34987   -34979   -34975   -34973   -34969   -34967   -34967   -34971 
  -34986   -35008   -35025   -35027   -35013   -34989   -34963   -34938 
  -34911   -34881   -34869   -34879   -34904   -34928   -34942   -34947 
  -34962   -34985   -34997   -35002   -35017   -35033   -35044   -35050 
  -35059   -35082   -35110   -35136   -35168   -35199   -35213   -35222 
  -35243   -35263   -35283   -35314   -35352   -35390   -35422   -35442 
  -35436   -35406   -35378   -35360   -35355   -35364   -35368   -35359 
  -35343   -35321   -35294   -35256   -35221   -35202   -35198   -35199 
  -35199   -35193   -35178   -35156   -35136   -35117   -35106   -35098 
  -35081   -35054   -35021   -34986   -34974   -34994   -35027   -35056 
  -35082   -35097   -35100   -35098   -35097   -35094   -35086   -35079 
  -35078   -35079   -35087   -35101   -35108   -35105   -35100   -35083 
  -35056   -35028   -35004   -34983   -34970   -34969   -34981   -35002 
  -35033   -35077   -35116   -35149   -35176   -35194   -35195   -35181 
  -35160   -35141   -35135   -35148   -35171   -35191   -35206   -35210 
  -35205   -35205   -35213   -35226   -35251   -35276   -35297   -35298 
  -35290   -35287   -35293   -35295   -35293   -35274   -35247   -35233 
  -35228   -35220   -35197   -35166   -35139   -35125   -35131   -35147 
  -35162   -35175   -35189   -35191   -35191   -35199   -35209   -35214 
  -35221   -35228   -35225   -35214   -35210   -35205   -35178   -35139 
  -35100   -35064   -35025   -34978   -34931   -34893   -34862   -34838 
  -34825   -34827   -34830   -34815   -34786   -34762   -34754   -34770 
  -34807   -34844   -34870   -34879   -34877   -34870   -34858   -34839 
  -34819   -34793   -34765   -34747   -34746   -34761   -34778   -34786 
  -34797   -34809   -34809   -34811   -34820   -34823   -34813   -34804 
  -34811   -34832   -34854   -34879   -34906   -34933   -34970   -35010 
  -35039   -35064   -35093   -35113   -35118   -35117   -35118   -35125 
  -35125   -35125   -35143   -35172   -35203   -35240   -35270   -35284 
  -35291   -35284   -35266   -35257   -35260   -35267   -35282   -35297 
  -35311   -35333   -35359   -35387   -35424   -35452   -35464   -35475 
  -35500   -35534   -35564   -35577   -35579   -35580   -35573   -35553 
  -35527   -35509   -35500   -35495   -35492   -35494   -35492   -35480 
  -35471   -35476   -35494   -35519   -35545   -35563   -35579   -35596 
  -35613   -35635   -35656   -35673   -35706   -35743   -35780   -35815 
  -35842   -35868   -35904   -35930   -35935   -35932   -35930   -35922 
  -35914   -35907   -35897   -35885   -35878   -35876   -35870   -35866 
  -35856   -35826   -35777   -35712   -35640   -35568   -35507   -35461 
  -35426   -35395   -35361   -35328   -35301   -35284   -35266   -35233 
  -35197   -35158   -35109   -35066   -35035   -35013   -34993   -34962 
  -34917   -34863   -34808   -34762   -34727   -34695   -34658   -34626 
  -34600   -34580   -34566   -34562   -34565   -34572   -34578   -34584 
  -34582   -34576   -34572   -34574   -34573   -34557   -34527   -34495 
  -34462   -34438   -34425   -34420   -34420   -34427   -34437   -34437 
  -34427   -34415   -34406   -34414   -34442   -34485   -34539   -34595 
  -34642   -34680   -34717   -34746   -34766   -34792   -34825   -34852 
  -34874   -34904   -34933   -34950   -34956   -34965   -34967   -34963 
  -34965   -34981   -35002   -35021   -35039   -35059   -35073   -35070 
  -35062   -35062   -35064   -35066   -35068   -35077   -35094   -35120 
  -35154   -35197   -35241   -35268   -35274   -35268   -35255   -35233 
  -35210   -35194   -35187   -35189   -35201   -35225   -35247   -35259 
  -35264   -35255   -35230   -35201   -35174   -35156   -35162   -35185 
  -35206   -35212   -35208   -35205   -35202   -35194   -35185   -35175 
  -35159   -35137   -35122   -35131   -35158   -35190   -35217   -35239 
  -35251   -35251   -35240   -35221   -35198   -35175   -35162   -35170 
  -35198   -35232   -35259   -35270   -35245   -35194   -35135   -35078 
  -35031   -35010   -35009   -35014   -35033   -35066   -35093   -35098 
  -35089   -35081   -35079   -35083   -35090   -35106   -35139   -35174 
  -35193   -35203   -35216   -35228   -35235   -35235   -35228   -35212 
  -35186   -35170   -35175   -35198   -35224   -35248   -35268   -35272 
  -35270   -35267   -35259   -35256   -35270   -35287   -35306   -35329 
  -35356   -35394   -35430   -35453   -35460   -35455   -35451   -35455 
  -35456   -35453   -35446   -35442   -35449   -35457   -35469   -35488 
  -35510   -35534   -35550   -35554   -35552   -35544   -35522   -35478 
  -35432   -35407   -35392   -35378   -35383   -35411   -35432   -35432 
  -35418   -35409   -35405   -35398   -35395   -35387   -35361   -35341 
  -35343   -35351   -35357   -35359   -35355   -35351   -35341   -35328 
  -35322   -35330   -35340   -35344   -35340   -35332   -35318   -35299 
  -35274   -35247   -35229   -35230   -35248   -35266   -35270   -35264 
  -35259   -35244   -35220   -35202   -35202   -35212   -35214   -35209 
  -35195   -35178   -35154   -35124   -35091   -35066   -35047   -35023 
  -34998   -34977   -34943   -34904   -34877   -34852   -34824   -34803 
  -34785   -34771   -34754   -34728   -34699   -34682   -34690   -34713 
  -34732   -34740   -34740   -34736   -34730   -34720   -34713   -34716 
  -34715   -34704   -34697   -34692   -34674   -34666   -34676   -34700 
  -34740   -34792   -34834   -34854   -34852   -34847   -34855   -34878 
  -34912   -34944   -34958   -34956   -34946   -34919   -34894   -34881 
  -34865   -34843   -34827   -34819   -34816   -34820   -34828   -34836 
  -34842   -34842   -34836   -34838   -34858   -34889   -34923   -34946 
  -34956   -34959   -34951   -34938   -34925   -34921   -34929   -34948 
  -34975   -34998   -35001   -34993   -34987   -34992   -35006   -35035 
  -35068   -35094   -35113   -35120   -35114   -35104   -35090   -35087 
  -35102   -35124   -35148   -35182   -35214   -35236   -35249   -35260 
  -35286   -35322   -35352   -35367   -35365   -35345   -35311   -35270 
  -35222   -35179   -35156   -35160   -35178   -35203   -35240   -35274 
  -35294   -35301   -35297   -35287   -35275   -35267   -35282   -35311 
  -35338   -35378   -35434   -35492   -35554   -35611   -35646   -35660 
  -35657   -35635   -35599   -35554   -35515   -35476   -35441   -35418 
  -35399   -35379   -35356   -35326   -35295   -35275   -35257   -35244 
  -35240   -35245   -35252   -35260   -35266   -35280   -35311   -35356 
  -35405   -35442   -35467   -35491   -35506   -35490   -35455   -35415 
  -35368   -35321   -35284   -35245   -35206   -35170   -35131   -35082 
  -35025   -34979   -34958   -34944   -34935   -34931   -34935   -34950 
  -34981   -35016   -35043   -35060   -35064   -35052   -35031   -35009 
  -34977   -34928   -34879   -34851   -34846   -34852   -34858   -34866 
  -34882   -34909   -34942   -34969   -34993   -35032   -35070   -35100 
  -35137   -35175   -35203   -35228   -35255   -35271   -35268   -35253 
  -35245   -35256   -35278   -35306   -35326   -35329   -35318   -35302 
  -35279   -35248   -35232   -35241   -35257   -35271   -35286   -35298 
  -35299   -35287   -35279   -35284   -35289   -35287   -35297   -35306 
  -35316   -35332   -35357   -35383   -35395   -35388   -35372   -35355 
  -35332   -35306   -35280   -35253   -35222   -35195   -35179   -35181 
  -35194   -35209   -35221   -35232   -35247   -35270   -35294   -35309 
  -35326   -35349   -35360   -35359   -35360   -35360   -35348   -35330 
  -35320   -35307   -35287   -35262   -35236   -35209   -35178   -35143 
  -35105   -35067   -35036   -35016   -35014   -35017   -35019   -35021 
  -35028   -35029   -35023   -35020   -35019   -35016   -35017   -35020 
  -35017   -35012   -35000   -34975   -34948   -34924   -34905   -34892 
  -34890   -34892   -34881   -34862   -34844   -34836   -34838   -34848 
  -34858   -34851   -34836   -34821   -34804   -34800   -34811   -34821 
  -34834   -34858   -34890   -34919   -34948   -34986   -35032   -35067 
  -35083   -35101   -35124   -35135   -35129   -35121   -35116   -35101 
  -35081   -35073   -35068   -35062   -35054   -35050   -35055   -35063 
  -35064   -35059   -35052   -35044   -35044   -35055   -35068   -35097 
  -35143   -35193   -35241   -35295   -35341   -35367   -35375   -35378 
  -35375   -35368   -35353   -35322   -35283   -35247   -35217   -35201 
