Origin Time       2024/04/02 04:24:00
Lat.              40.133
Long.             141.712
Depth. (km)       71
Mag.              6.0
Station Code      HKD112
Station Lat.      41.9370
Station Long.     143.2403
Station Height(m) 15
Record Time       2024/04/02 04:25:37
Sampling Freq(Hz) 100Hz
Duration Time(s)  66
Dir.              E-W
Scale Factor      7845(gal)/8223790
Max. Acc. (gal)   4.973
Last Correction   2024/04/02 04:25:37
Memo.             
[...]
   21158    21092    21008    20981    20991    21016    20985    20908 
   20918    21011    21103    21168    21120    20902    20630    20406 
   20297    20432    20745    20996    21180    21455    21780    21961 
   21840    21392    20822    20410    20259    20340    20592    20908 
   21166    21249    21212    21261    21325    21213    21014    20854 
   20713    20641    20673    20644    20564    20696    21037    21298 
   21369    21396    21478    21506    21386    21216    21073    20947 
   20875    20811    20691    20641    20726    20761    20682    20665 
   20800    21012    21170    21178    21157    21253    21344    21394 
   21517    21531    21303    21118    21069    20939    20761    20695 
   20696    20719    20792    20889    20991    21101    21220    21308 
   21278    21177    21180    21255    21162    20858    20571    20426 
   20355    20414    20731    21189    21620    21982    22157    22007 
   21689    21436    21150    20686    20223    19986    20017    20294 
   20711    21026    21076    21000    20989    20950    20765    20588 
   20622    20881    21251    21581    21764    21779    21648    21435 
   21163    20885    20765    20776    20741    20769    20968    21128 
   21105    20854    20398    20073    20158    20453    20746    21088 
   21456    21755    21870    21685    21357    21123    20977    20925 
   20938    20881    20825    20896    21012    21064    21024    20960 
   21066    21412    21729    21709    21367    21031    20885    20753 
   20461    20150    20123    20474    20937    21227    21271    21181 
   21208    21412    21490    21313    21159    21255    21423    21315 
   20946    20644    20565    20619    20645    20574    20617    20939 
   21235    21200    20973    20848    20934    21126    21220    21172 
   21154    21240    21253    21104    20962    20960    21015    20957 
   20788    20767    21030    21300    21311    21141    21020    21085 
   21157    20926    20495    20267    20358    20575    20737    20806 
   20922    21193    21459    21546    21486    21359    21243    21186 
   21084    20946    21010    21145    21027    20841    20812    20767 
   20675    20684    20763    20935    21296    21644    21712    21566 
   21390    21213    20970    20610    20209    20029    20255    20745 
   21176    21377    21397    21317    21281    21300    21143    20849 
   20677    20628    20730    21126    21581    21678    21365    20964 
   20777    20812    20900    20869    20717    20731    21019    21244 
   21224    21127    21076    21039    21033    21131    21257    21186 
   20930    20707    20629    20715    20903    20933    20707    20572 
   20839    21324    21636    21612    21307    20945    20864    21097 
   21317    21327    21141    20854    20695    20741    20764    20638 
   20509    20537    20811    21255    21674    21937    21932    21693 
   21469    21304    21043    20664    20239    19965    20083    20490 
   20833    20937    20879    20875    21070    21358    21564    21644 
   21628    21601    21581    21427    21072    20688    20453    20368 
   20378    20421    20497    20690    20969    21193    21313    21336 
   21316    21344    21367    21224    20999    20930    20958    20919 
   20865    20837    20834    20895    20976    21022    21050    21082 
   21209    21452    21548    21312    20907    20534    20355    20443 
   20605    20663    20653    20669    20849    21207    21514    21636 
   21633    21577    21554    21559    21381    20939    20483    20223 
   20173    20259    20401    20619    20931    21259    21532    21652 
   21605    21540    21477    21348    21250    21155    20888    20552 
   20439    20569    20773    20941    21038    21135    21247    21281 
   21262    21242    21168    21078    20964    20723    20547    20625 
   20758    20814    20883    20970    21095    21227    21174    20937 
   20804    20976    21284    21340    21065    20829    20957    21317 
   21501    21235    20709    20463    20729    21120    21223    21074 
   20964    21015    21120    21181    21095    20764    20374    20302 
   20632    21003    21076    20954    21018    21417    21875    21946 
   21459    20800    20568    20757    20875    20792    20702    20700 
   20883    21235    21386    21161    20958    21033    21158    21131 
   20918    20649    20650    20997    21277    21176    20954    21003 
   21236    21300    21141    21022    21155    21442    21494    21169 
   20842    20799    20860    20827    20780    20830    20953    21012 
   20916    20796    20808    20892    20949    20979    21078    21325 
   21571    21566    21247    20853    20655    20633    20672    20718 
   20731    20796    20992    21141    21057    20907    21000    21315 
   21593    21668    21487    21132    20758    20416    20191    20241 
   20579    21022    21281    21290    21354    21593    21744    21620 
   21303    20983    20829    20795    20646    20385    20295    20529 
   20892    21092    21122    21180    21277    21321    21285    21082 
   20756    20614    20752    20899    20893    20804    20737    20711 
   20707    20837    21227    21670    21793    21602    21374    21219 
   21096    20943    20731    20603    20713    20912    20939    20827 
   20752    20726    20771    20946    21172    21354    21429    21286 
   20964    20663    20561    20718    20964    21124    21288    21440 
   21415    21288    21139    20942    20916    21123    21265    21211 
   21069    20937    20829    20698    20532    20409    20397    20507 
   20779    21149    21420    21463    21339    21235    21258    21276 
   21120    20906    20871    21019    21188    21286    21313    21352 
   21439    21409    21126    20721    20509    20632    20879    21054 
   21174    21153    20860    20493    20410    20695    21077    21244 
   21147    20996    21024    21278    21556    21574    21319    21073 
   20920    20752    20722    20929    21065    20991    20950    21072 
   21226    21277    21172    20922    20710    20780    20991    20943 
   20636    20505    20792    21284    21574    21398    20979    20804 
   20987    21280    21415    21259    20962    20866    21084    21277 
   21131    20831    20736    20848    20933    20916    20892    20877 
   20899    21078    21286    21244    21015    20900    20973    21064 
   21060    20987    20892    20845    20883    20923    20895    20885 
   21000    21143    21178    21139    21043    20899    20871    20947 
   20857    20613    20475    20502    20729    21154    21454    21425 
   21292    21280    21404    21535    21443    21078    20738    20717 
   20957    21142    20988    20623    20551    20912    21253    21162 
   20704    20340    20494    20984    21276    21230    21138    21196 
   21316    21338    21278    21240    21155    21046    21061    21105 
   21093    21131    21192    21174    21096    21010    21018    21154 
   21153    20842    20561    20553    20619    20671    20800    20979 
   21149    21246    21158    21006    21001    21045    20973    20900 
   20992    21251    21521    21602    21462    21262    21107    20898 
   20549    20225    20183    20429    20731    20922    20953    20920 
   21049    21336    21550    21610    21573    21500    21489    21513 
   21442    21244    20981    20710    20503    20420    20390    20339 
   20351    20565    20993    21432    21586    21389    21085    20966 
   21077    21163    20961    20629    20579    20877    21288    21554 
   21382    20877    20632    20796    20902    20715    20532    20656 
   21031    21416    21590    21454    21231    21215    21282    21088 
   20580    20154    20223    20714    21180    21321    21193    21043 
   21008    21001    20943    20899    20954    21139    21316    21249 
   20997    20926    21132    21320    21234    20976    20804    20763 
   20742    20703    20645    20609    20710    20972    21173    21157 
   21135    21335    21644    21809    21712    21420    21124    20999 
   20992    20871    20638    20511    20455    20412    20621    21109 
   21502    21573    21460    21398    21459    21402    21027    20686 
   20665    20722    20726    20659    20448    20428    20779    20997 
   20858    20827    21223    21783    22068    21868    21350    20962 
   20888    20800    20548    20389    20513    20881    21213    21157 
   20763    20449    20571    21078    21452    21408    21343    21521 
   21568    21259    20835    20514    20405    20545    20768    20923 
   21108    21280    21240    21166    21267    21379    21402    21312 
   21069    20952    21126    21285    21262    21204    21091    20862 
   20687    20656    20625    20522    20455    20468    20569    20858 
   21258    21467    21417    21292    21182    21122    21130    21134 
   21081    21023    21076    21308    21483    21344    21060    20806 
   20567    20410    20405    20497    20663    20875    20958    20857 
   20823    21016    21251    21297    21170    21151    21325    21352 
   21022    20618    20483    20707    21116    21331    21200    21027 
   21088    21335    21531    21416    21010    20680    20736    21053 
   21235    21092    20812    20650    20702    20794    20702    20621 
   20918    21386    21470    21165    20992    21122    21242    21208 
   21115    20997    20927    20954    20938    20827    20763    20803 
   20873    20910    20964    21147    21385    21438    21288    21109 
   20902    20645    20526    20652    20939    21212    21320    21247 
   21096    21050    21123    21045    20748    20493    20514    20799 
   21069    21099    21023    21107    21359    21513    21369    21033 
   20795    20803    20922    20952    20879    20853    20996    21213 
   21316    21249    21089    20956    20908    20942    21077    21254 
   21300    21207    21081    20945    20845    20807    20722    20596 
   20619    20810    20989    21035    20904    20764    20937    21347 
   21579    21533    21436    21458    21541    21444    21030    20548 
   20399    20641    20868    20781    20656    20846    21215    21412 
   21342    21119    20908    20871    20988    21055    21019    20979 
   20943    20906    20875    20817    20744    20709    20803    21163 
   21612    21778    21716    21660    21585    21431    21242    21028 
   20799    20618    20472    20299    20181    20178    20224    20363 
   20677    21097    21442    21583    21578    21535    21460    21379 
   21346    21267    21055    20825    20714    20691    20626    20522 
   20613    21028    21494    21713    21739    21748    21762    21654 
   21300    20825    20584    20703    20899    20980    21026    21016 
   20871    20676    20545    20547    20690    20846    20907    21031 
   21321    21501    21433    21323    21177    20935    20704    20467 
   20156    19849    19635    19576    19715    20043    20526    21099 
   21730    22482    23237    23604    23376    22696    21843    21095 
   20571    20208    19923    19637    19294    19105    19357    19940 
   20478    20881    21366    21956    22489    22873    22924    22527 
   21934    21412    20956    20567    20410    20532    20656    20537 
   20391    20563    20911    21104    21197    21362    21514    21514 
   21303    20910    20637    20844    21309    21486    21271    20896 
   20529    20291    20179    20075    19955    19980    20340    20902 
   21259    21292    21251    21336    21487    21467    21122    20682 
   20468    20476    20579    20771    21097    21639    22330    22798 
   22724    22260    21753    21336    21035    20837    20645    20563 
   20757    21061    21197    20962    20224    19325    18966    19283 
   19743    20031    20308    20804    21577    22323    22507    22081 
   21743    22021    22534    22594    22042    21180    20555    20538 
   20750    20737    20795    21266    21847    22141    22023    21475 
   20700    20032    19620    19492    19611    19699    19545    19418 
   19639    20119    20572    20879    21114    21421    21876    22225 
   22131    21822    21791    22140    22634    22887    22605    21936 
   21216    20526    19828    19307    19156    19217    19282    19346 
   19441    19714    20270    20835    21092    21066    21054    21288 
   21586    21568    21298    21189    21423    21909    22427    22728 
   22835    22940    22941    22654    22056    21105    20035    19338 
   19067    18948    18982    19184    19445    19917    20772    21718 
   22319    22431    22322    22477    22963    23247    22896    21979 
   20775    19564    18476    17528    17051    17571    19082    20964 
   22509    23382    23827    24142    23993    23101    22036    21415 
   21103    20726    20166    19519    19018    18827    18864    19101 
   19780    20946    22149    22871    22871    22316    21520    20513 
   19422    18744    18717    19140    19838    20807    21897    22786 
   23224    23066    22312    21280    20588    20644    21235    22022 
   22999    24008    24422    23755    22145    20077    18146    16987 
   16864    17574    18828    20359    21735    22405    22094    21151 
   20260    19858    19963    20401    21061    21867    22607    22931 
   22686    22164    21694    21305    20983    20865    20979    21078 
   20984    20861    20962    21220    21213    20731    20202    20119 
   20275    20100    19359    18327    17671    17995    19253    20912 
   22534    23944    25116    25975    26225    25424    23468    21028 
   19086    18077    17969    18496    19183    19854    20640    21394 
   21867    22022    21867    21466    21105    21077    21400    21787 
   21880    21579    21057    20557    20239    20074    20008    20090 
   20254    20371    20447    20434    20362    20457    20746    21027 
   21265    21516    21737    21880    21929    21870    21726    21558 
   21378    21097    20682    20345    20452    21150    22080    22615 
   22513    22054    21587    21269    20958    20414    19824    19633 
   19785    19934    20023    20086    20140    20278    20439    20549 
   20896    21618    22199    22160    21672    21168    20908    20868 
   20800    20578    20380    20413    20673    21026    21266    21232 
   20960    20718    20781    21112    21462    21681    21841    22111 
   22430    22497    22121    21324    20395    19765    19533    19403 
   19233    19203    19480    20092    20946    21760    22195    22242 
   22187    22099    21805    21317    20817    20538    20827    21675 
   22416    22496    22021    21266    20321    19234    18117    17298 
   17208    17976    19418    21146    22666    23760    24540    24942 
   24696    23778    22424    20988    19881    19234    18835    18547 
   18436    18492    18693    19163    19934    20817    21644    22376 
   23028    23495    23618    23372    22796    21968    21186    20795 
   20876    21201    21405    21308    21041    20794    20696    20806 
   20988    21081    21154    21325    21447    21269    20873    20633 
   20715    21001    21358    21598    21539    21284    21142    21143 
   20956    20486    20132    20120    20224    20268    20332    20513 
   20873    21344    21664    21655    21409    21166    20987    20634 
   20063    19724    19961    20502    20822    20686    20326    20237 
   20628    21196    21581    21795    22048    22388    22612    22408 
   21752    21122    20911    20988    21000    20719    20121    19498 
   19234    19357    19664    20085    20594    21216    21983    22563 
   22586    22285    22018    21764    21509    21379    21298    21159 
   21082    21150    21219    21159    20965    20694    20456    20340 
   20325    20309    20271    20336    20584    20880    20988    20871 
   20703    20676    20864    21127    21215    21097    21023    21138 
   21267    21249    21122    20964    20834    20784    20858    21091 
   21388    21517    21388    21130    20866    20552    20124    19696 
   19518    19773    20394    21026    21276    21208    21325    21803 
   22276    22561    22742    22805    22751    22474    21678    20474 
   19481    19101    19280    19861    20676    21463    21956    22033 
   21740    21169    20425    19770    19591    20113    21091    21973 
   22419    22392    22027    21501    20893    20385    20321    20777 
   21433    22005    22395    22526    22415    22160    21662    20823 
   19827    18883    18169    17998    18580    19674    20753    21452 
   21847    22241    22666    22886    22789    22373    21664    20891 
   20360    20167    20224    20495    20942    21401    21693    21737 
   21525    21203    21012    20969    20830    20557    20476    20763 
   21155    21405    21590    21749    21693    21351    20919    20619 
   20551    20661    20814    20907    20958    21077    21311    21562 
   21703    21747    21778    21776    21647    21344    20880    20358 
   19896    19523    19294    19296    19480    19754    20196    20871 
   21622    22256    22605    22505    21980    21222    20394    19604 
   18956    18667    19014    19944    20950    21547    21613    21274 
   20841    20652    20760    20972    21189    21479    21871    22276 
   22611    22739    22497    21949    21382    20906    20349    19693 
   19155    18918    19083    19635    20406    21219    21887    22254 
   22322    22098    21519    20715    20104    19996    20308    20814 
   21394    21884    22076    21933    21605    21342    21286    21236 
   20968    20617    20374    20175    19892    19521    19218    19246 
   19696    20364    21030    21624    22144    22628    23020    23120 
   22878    22407    21828    21278    20799    20277    19634    18976 
   18516    18401    18670    19221    19818    20433    21274    22266 
   23047    23440    23560    23565    23446    22985    22156    21352 
   20952    20950    21114    21209    21200    21131    20885    20235 
   19176    18088    17544    17957    19257    20883    22243    23157 
   23812    24275    24239    23511    22446    21486    20754    20236 
   19850    19435    18991    18681    18643    18895    19314    19778 
   20318    20946    21672    22607    23600    24263    24470    24206 
   23365    22157    20926    19661    18396    17571    17578    18397 
   19668    20822    21404    21473    21446    21521    21617    21582 
   21336    20953    20538    20106    19704    19435    19323    19373 
   19745    20501    21406    22287    23133    23831    24201    24166 
   23776    23183    22464    21577    20622    19803    19175    18765 
   18666    18886    19349    20023    20781    21447    22052    22654 
   23129    23365    23342    23072    22624    22065    21385    20544 
   19638    18894    18511    18505    18766    19226    19832    20429 
   20927    21408    21915    22342    22604    22619    22273    21595 
   20730    19805    18978    18463    18434    19005    20231    21849 
   23305    24240    24759    24976    24721    23855    22553    21122 
   19831    18878    18316    18049    18031    18324    18775    19056 
   19155    19315    19650    20160    20888    21820    22793    23522 
   23808    23693    23392    23063    22720    22391    22095    21722 
   21123    20266    19294    18428    17801    17456    17462    17780 
