Origin Time       2024/04/02 04:24:00
Lat.              40.133
Long.             141.712
Depth. (km)       71
Mag.              6.0
Station Code      HKD126
Station Lat.      42.5748
Station Long.     141.9284
Station Height(m) 7
Record Time       2024/04/02 04:25:54
Sampling Freq(Hz) 100Hz
Duration Time(s)  60
Dir.              U-D
Scale Factor      7845(gal)/8223790
Max. Acc. (gal)   1.176
Last Correction   2024/04/02 04:25:54
Memo.             
   -7848    -7912    -7850    -7781    -7742    -7707    -7757    -7911 
   -7946    -7700    -7406    -7411    -7665    -7867    -7938    -7997 
   -8028    -7871    -7562    -7345    -7345    -7460    -7495    -7371 
   -7294    -7426    -7569    -7580    -7611    -7767    -7966    -8037 
   -7897    -7732    -7778    -7940    -7978    -7892    -7809    -7711 
   -7533    -7381    -7462    -7777    -7983    -7865    -7686    -7734 
   -7830    -7668    -7380    -7381    -7666    -7765    -7476    -7163 
   -7209    -7474    -7572    -7487    -7589    -7948    -8127    -7924 
   -7695    -7597    -7408    -7182    -7246    -7600    -7939    -8118 
   -8220    -8283    -8221    -8012    -7789    -7662    -7608    -7572 
   -7535    -7511    -7506    -7543    -7677    -7827    -7858    -7870 
   -7958    -7989    -7924    -7839    -7736    -7680    -7763    -7947 
   -8086    -8070    -7952    -7793    -7535    -7288    -7342    -7735 
   -8067    -7889    -7354    -7113    -7353    -7607    -7623    -7639 
   -7744    -7701    -7462    -7372    -7673    -8051    -8046    -7735 
   -7527    -7543    -7573    -7427    -7260    -7435    -7925    -8239 
   -8131    -7834    -7630    -7643    -7846    -8075    -8230    -8309 
   -8239    -7973    -7677    -7582    -7719    -7877    -7805    -7481 
   -7129    -7018    -7215    -7510    -7688    -7707    -7596    -7464 
   -7457    -7591    -7774    -7901    -7863    -7712    -7699    -7898 
   -8074    -8066    -7977    -7943    -7950    -7916    -7819    -7735 
   -7724    -7713    -7647    -7599    -7570    -7585    -7699    -7762 
   -7661    -7560    -7566    -7580    -7584    -7666    -7782    -7805 
   -7711    -7538    -7306    -7134    -7204    -7512    -7827    -7939 
   -7808    -7546    -7373    -7461    -7705    -7894    -7977    -7940 
   -7754    -7589    -7643    -7816    -7854    -7734    -7659    -7763 
   -7973    -8074    -7962    -7804    -7740    -7774    -7963    -8243 
   -8334    -8114    -7773    -7604    -7677    -7738    -7576    -7379 
   -7411    -7576    -7651    -7622    -7561    -7491    -7466    -7584 
   -7780    -7798    -7587    -7446    -7555    -7677    -7653    -7674 
   -7863    -8036    -7985    -7757    -7612    -7645    -7645    -7557 
   -7578    -7735    -7830    -7750    -7609    -7608    -7790    -7958 
   -7962    -7908    -7905    -7773    -7437    -7206    -7261    -7396 
   -7458    -7500    -7558    -7661    -7798    -7842    -7739    -7604 
   -7493    -7431    -7501    -7662    -7770    -7817    -7832    -7816 
   -7874    -8114    -8417    -8510    -8262    -7909    -7757    -7744 
   -7676    -7550    -7472    -7546    -7749    -7906    -7919    -7821 
   -7642    -7477    -7524    -7788    -7989    -7911    -7639    -7491 
   -7641    -7866    -7900    -7801    -7753    -7842    -7963    -7886 
   -7659    -7574    -7647    -7649    -7522    -7422    -7526    -7831 
   -8064    -8008    -7813    -7730    -7738    -7728    -7797    -7985 
   -8081    -7920    -7582    -7267    -7133    -7206    -7406    -7569 
   -7541    -7403    -7368    -7431    -7479    -7549    -7753    -8059 
   -8268    -8172    -7824    -7545    -7504    -7619    -7798    -7927 
   -7902    -7794    -7688    -7624    -7676    -7824    -7921    -7823 
   -7587    -7465    -7560    -7705    -7785    -7807    -7757    -7684 
   -7688    -7769    -7897    -8046    -8159    -8190    -8048    -7677 
   -7272    -7113    -7258    -7481    -7547    -7582    -7782    -7890 
   -7655    -7420    -7547    -7820    -7873    -7654    -7360    -7256 
   -7422    -7641    -7785    -7979    -8141    -8024    -7766    -7673 
   -7715    -7722    -7662    -7576    -7526    -7558    -7693    -7902 
   -8017    -7958    -7817    -7658    -7557    -7599    -7682    -7699 
   -7634    -7491    -7393    -7506    -7765    -7969    -8040    -8017 
   -7902    -7738    -7635    -7609    -7605    -7614    -7604    -7657 
   -7923    -8224    -8202    -7897    -7581    -7349    -7287    -7419 
   -7507    -7430    -7434    -7634    -7812    -7866    -7948    -8056 
   -8013    -7857    -7713    -7541    -7365    -7352    -7476    -7557 
   -7518    -7445    -7470    -7581    -7619    -7600    -7654    -7711 
   -7647    -7612    -7776    -7994    -8060    -7967    -7835    -7827 
   -8039    -8317    -8402    -8226    -7940    -7722    -7630    -7566 
   -7433    -7307    -7353    -7588    -7805    -7773    -7554    -7491 
   -7734    -8004    -8023    -7894    -7861    -7912    -7835    -7581 
   -7452    -7689    -7992    -7947    -7746    -7771    -7929    -7904 
   -7631    -7345    -7268    -7335    -7391    -7438    -7534    -7674 
   -7734    -7631    -7603    -7854    -8082    -8017    -7901    -7924 
   -7900    -7708    -7438    -7246    -7300    -7580    -7842    -7978 
   -8056    -8082    -8025    -7960    -7946    -7924    -7866    -7777 
   -7643    -7546    -7551    -7535    -7446    -7449    -7558    -7578 
   -7531    -7605    -7708    -7627    -7452    -7402    -7558    -7871 
   -8109    -8059    -7870    -7839    -8005    -8220    -8359    -8316 
   -8046    -7676    -7388    -7264    -7338    -7643    -8090    -8398 
   -8341    -8000    -7609    -7337    -7213    -7200    -7327    -7562 
   -7680    -7554    -7415    -7507    -7735    -7938    -8044    -7943 
   -7673    -7427    -7311    -7442    -7831    -8124    -8051    -7798 
   -7631    -7587    -7543    -7441    -7430    -7582    -7728    -7736 
   -7627    -7468    -7414    -7589    -7843    -7921    -7808    -7701 
   -7735    -7823    -7834    -7723    -7506    -7290    -7180    -7202 
   -7404    -7740    -7966    -7898    -7655    -7511    -7542    -7611 
   -7692    -7820    -7905    -7917    -7951    -7970    -7894    -7809 
   -7781    -7693    -7534    -7497    -7635    -7730    -7642    -7508 
   -7519    -7676    -7821    -7888    -7967    -8041    -7977    -7857 
   -7865    -7888    -7720    -7469    -7438    -7722    -8040    -8093 
   -7985    -7962    -7870    -7530    -7281    -7514    -8008    -8140 
   -7645    -7040    -6987    -7337    -7437    -7263    -7416    -8041 
   -8494    -8272    -7759    -7658    -7959    -8046    -7663    -7200 
   -7033    -7029    -6948    -6955    -7246    -7668    -7955    -8016 
   -8021    -8163    -8259    -8048    -7723    -7624    -7713    -7828 
   -7996    -8197    -8244    -8101    -7952    -7948    -8046    -8129 
   -8074    -7776    -7353    -7075    -7002    -7091    -7388    -7780 
   -7956    -7746    -7334    -7138    -7314    -7576    -7620    -7479 
   -7439    -7626    -7844    -7975    -8060    -8043    -7847    -7557 
   -7346    -7383    -7655    -7801    -7573    -7338    -7564    -8023 
   -8121    -7884    -7912    -8255    -8336    -8090    -7986    -8062 
   -7973    -7761    -7792    -8058    -8174    -7965    -7700    -7740 
   -7932    -7782    -7393    -7364    -7705    -7863    -7717    -7628 
   -7717    -7805    -7740    -7547    -7425    -7491    -7585    -7561 
   -7493    -7527    -7692    -7836    -7823    -7739    -7690    -7658 
   -7649    -7614    -7527    -7542    -7628    -7531    -7379    -7562 
   -7986    -8148    -7807    -7248    -6991    -7198    -7600    -7940 
   -8008    -7762    -7574    -7742    -8124    -8463    -8548    -8328 
   -7996    -7765    -7711    -7797    -7842    -7703    -7508    -7470 
   -7631    -7811    -7796    -7643    -7547    -7500    -7435    -7457 
   -7619    -7700    -7561    -7453    -7635    -7927    -7931    -7622 
   -7380    -7456    -7786    -8224    -8522    -8417    -7963    -7487 
   -7285    -7452    -7832    -8212    -8432    -8287    -7819    -7500 
   -7530    -7526    -7275    -7053    -7146    -7423    -7534    -7461 
   -7492    -7650    -7743    -7831    -8090    -8483    -8775    -8691 
   -8186    -7661    -7541    -7762    -8033    -8224    -8255    -8027 
   -7595    -7256    -7303    -7612    -7769    -7614    -7321    -7017 
   -6778    -6758    -6971    -7244    -7485    -7730    -7982    -8133 
   -7994    -7627    -7474    -7751    -8114    -8181    -7962    -7720 
   -7580    -7512    -7592    -7832    -7931    -7616    -7087    -6853 
   -7146    -7674    -8035    -8137    -8109    -8025    -7939    -7952 
   -8024    -7950    -7735    -7585    -7553    -7591    -7703    -7794 
   -7650    -7323    -7214    -7437    -7638    -7577    -7381    -7296 
   -7504    -7986    -8403    -8383    -7967    -7577    -7550    -7852 
   -8121    -8032    -7704    -7539    -7618    -7636    -7456    -7358 
   -7593    -7893    -7817    -7461    -7323    -7557    -7804    -7803 
   -7713    -7736    -7796    -7727    -7574    -7616    -7996    -8449 
   -8617    -8410    -8025    -7722    -7568    -7416    -7290    -7416 
   -7711    -7794    -7597    -7415    -7474    -7659    -7684    -7564 
   -7565    -7630    -7508    -7352    -7541    -8029    -8363    -8356 
   -8286    -8297    -8239    -8100    -8046    -8089    -7997    -7650 
   -7298    -7295    -7622    -7865    -7682    -7279    -7149    -7329 
   -7383    -7190    -7069    -7126    -7121    -7005    -7029    -7273 
   -7520    -7619    -7614    -7643    -7863    -8172    -8251    -8040 
   -7763    -7577    -7493    -7425    -7318    -7315    -7555    -7924 
   -8162    -8141    -7998    -7923    -7871    -7711    -7496    -7400 
   -7464    -7619    -7777    -7823    -7782    -7846    -8010    -8087 
   -8023    -7946    -7966    -8028    -8032    -7935    -7717    -7514 
   -7538    -7709    -7789    -7762    -7685    -7526    -7321    -7187 
   -7203    -7383    -7666    -7948    -8128    -8199    -8205    -8091 
   -7855    -7730    -7831    -7915    -7824    -7769    -7921    -8079 
   -7950    -7609    -7438    -7542    -7682    -7666    -7381    -6909 
   -6606    -6647    -6909    -7346    -7757    -7758    -7445    -7344 
   -7662    -8089    -8295    -8284    -8195    -8098    -8017    -7983 
   -8071    -8247    -8213    -7889    -7707    -7897    -8108    -8014 
   -7719    -7410    -7114    -6905    -6988    -7433    -7998    -8337 
   -8349    -8275    -8210    -7970    -7658    -7618    -7848    -8077 
   -8172    -8194    -8195    -8167    -8203    -8361    -8387    -8006 
   -7395    -6995    -7028    -7290    -7376    -7176    -7009    -7038 
   -7044    -6995    -7141    -7454    -7663    -7707    -7695    -7655 
   -7542    -7353    -7195    -7230    -7488    -7811    -8051    -8199 
   -8243    -8124    -7888    -7731    -7740    -7734    -7627    -7699 
   -7973    -7983    -7616    -7398    -7663    -8063    -8105    -7897 
   -7867    -7901    -7622    -7207    -7118    -7346    -7514    -7516 
   -7622    -7888    -8037    -7990    -7933    -7851    -7546    -7173 
   -7140    -7457    -7757    -7875    -7886    -7871    -7898    -7960 
   -7955    -7836    -7704    -7693    -7777    -7784    -7665    -7646 
   -7909    -8198    -8186    -8047    -8114    -8275    -8216    -8016 
   -8071    -8310    -8202    -7736    -7466    -7572    -7665    -7485 
   -7272    -7318    -7456    -7330    -6998    -6837    -6976    -7233 
   -7457    -7599    -7659    -7755    -7994    -8257    -8318    -8117 
   -7794    -7508    -7315    -7209    -7186    -7196    -7161    -7083 
   -7011    -6963    -6986    -7209    -7599    -7861    -7854    -7769 
   -7815    -8001    -8166    -8210    -8216    -8279    -8437    -8638 
   -8723    -8586    -8259    -7847    -7570    -7650    -7920    -7898 
   -7489    -7210    -7445    -7801    -7672    -7196    -7007    -7256 
   -7537    -7565    -7510    -7628    -7778    -7711    -7689    -8029 
   -8360    -8259    -8005    -7986    -8058    -7936    -7674    -7557 
   -7696    -7916    -8001    -7905    -7780    -7844    -8087    -8226 
   -8139    -8023    -8025    -8048    -7911    -7585    -7241    -6971 
   -6737    -6669    -6901    -7226    -7384    -7411    -7426    -7437 
   -7356    -7128    -6922    -6990    -7294    -7561    -7635    -7641 
   -7763    -7996    -8137    -8019    -7693    -7410    -7396    -7676 
   -7993    -8077    -7970    -7828    -7624    -7361    -7136    -6970 
   -6986    -7296    -7595    -7562    -7384    -7380    -7587    -7852 
   -8039    -8143    -8232    -8224    -8032    -7854    -7885    -8008 
   -8203    -8600    -8946    -8851    -8430    -8124    -8202    -8451 
   -8375    -7900    -7452    -7253    -7142    -7099    -7315    -7757 
   -8093    -8059    -7790    -7634    -7661    -7676    -7614    -7568 
   -7565    -7566    -7554    -7541    -7604    -7755    -7794    -7672 
   -7641    -7740    -7707    -7474    -7300    -7366    -7515    -7499 
   -7392    -7387    -7380    -7209    -7059    -7215    -7658    -8090 
   -8287    -8361    -8487    -8545    -8414    -8220    -8054    -7888 
   -7696    -7438    -7183    -7157    -7361    -7449    -7310    -7229 
   -7348    -7452    -7329    -7086    -7095    -7530    -8131    -8586 
   -8804    -8837    -8787    -8715    -8532    -8194    -7888    -7811 
   -7893    -7904    -7851    -7951    -8091    -7928    -7576    -7418 
   -7501    -7627    -7626    -7484    -7402    -7481    -7554    -7522 
   -7516    -7623    -7708    -7577    -7261    -7076    -7165    -7230 
   -7020    -6764    -6839    -7213    -7533    -7634    -7655    -7723 
   -7821    -7921    -8009    -8059    -8075    -8087    -8122    -8164 
   -8073    -7739    -7323    -7118    -7280    -7659    -7908    -7893 
   -7794    -7784    -7902    -8097    -8197    -8095    -7911    -7835 
   -7912    -7940    -7728    -7466    -7479    -7693    -7770    -7526 
   -7115    -6939    -7198    -7591    -7716    -7624    -7654    -7867 
   -8020    -7990    -7912    -7954    -8077    -8095    -8033    -8054 
   -8073    -7879    -7524    -7306    -7476    -7924    -8199    -8031 
   -7668    -7503    -7522    -7435    -7257    -7290    -7623    -7928 
   -7867    -7654    -7776    -8158    -8328    -8176    -7940    -7769 
   -7647    -7514    -7395    -7454    -7688    -7823    -7758    -7735 
   -7927    -8178    -8240    -8117    -8013    -7971    -7855    -7628 
   -7376    -7230    -7277    -7422    -7515    -7503    -7400    -7300 
   -7277    -7263    -7180    -7092    -7109    -7180    -7236    -7389 
   -7727    -8131    -8407    -8467    -8463    -8513    -8430    -8074 
   -7668    -7531    -7685    -7823    -7747    -7609    -7587    -7654 
   -7697    -7693    -7740    -7840    -7807    -7605    -7456    -7416 
   -7356    -7249    -7209    -7341    -7666    -8044    -8262    -8217 
   -8024    -7870    -7796    -7757    -7751    -7690    -7541    -7487 
   -7649    -7908    -7998    -7763    -7403    -7291    -7491    -7689 
   -7651    -7564    -7686    -7959    -8212    -8387    -8428    -8310 
   -8062    -7744    -7522    -7507    -7589    -7636    -7657    -7635 
   -7518    -7387    -7420    -7657    -7836    -7734    -7550    -7577 
   -7692    -7558    -7132    -6817    -7017    -7526    -7811    -7820 
   -7866    -7955    -7889    -7731    -7688    -7788    -7932    -8068 
   -8244    -8494    -8689    -8684    -8527    -8376    -8272    -8148 
   -7965    -7734    -7493    -7272    -7003    -6671    -6521    -6729 
   -7003    -7033    -6984    -7109    -7307    -7415    -7458    -7495 
   -7503    -7470    -7473    -7622    -7897    -8158    -8337    -8483 
   -8603    -8576    -8328    -8017    -7820    -7716    -7611    -7480 
   -7393    -7395    -7414    -7453    -7603    -7770    -7776    -7639 
   -7515    -7477    -7520    -7628    -7777    -7884    -7882    -7886 
   -8055    -8336    -8509    -8438    -8259    -8122    -7867    -7412 
   -7142    -7256    -7364    -7182    -6959    -7020    -7312    -7508 
   -7497    -7541    -7761    -7951    -7928    -7784    -7762    -7900 
   -7973    -7965    -8112    -8417    -8602    -8425    -7946    -7499 
   -7342    -7369    -7327    -7198    -7130    -7123    -7126    -7237 
   -7487    -7720    -7780    -7663    -7543    -7585    -7716    -7750 
   -7695    -7730    -7933    -8121    -8068    -7827    -7636    -7537 
   -7352    -7091    -6982    -7048    -7092    -7121    -7337    -7724 
   -7975    -7979    -8014    -8195    -8191    -7840    -7531    -7619 
   -7929    -8071    -7951    -7784    -7723    -7728    -7798    -7970 
   -8105    -8074    -7947    -7842    -7757    -7591    -7400    -7412 
   -7565    -7547    -7435    -7574    -7951    -8237    -8230    -8032 
   -7893    -7900    -7908    -7915    -8056    -8251    -8325    -8230 
   -7969    -7628    -7385    -7318    -7354    -7361    -7304    -7302 
   -7331    -7244    -7132    -7202    -7371    -7410    -7318    -7360 
   -7659    -7952    -7947    -7744    -7624    -7649    -7690    -7696 
   -7730    -7863    -8058    -8160    -8131    -8137    -8256    -8336 
   -8260    -8148    -8121    -8073    -7960    -7967    -8125    -8235 
   -8206    -8100    -7944    -7747    -7611    -7630    -7726    -7777 
   -7757    -7635    -7433    -7290    -7300    -7438    -7654    -7885 
   -7993    -7927    -7821    -7815    -7888    -7936    -7919    -7896 
   -7902    -7909    -7878    -7804    -7784    -7840    -7788    -7593 
   -7446    -7410    -7452    -7519    -7418    -7111    -6916    -7061 
   -7430    -7807    -8081    -8205    -8117    -7843    -7618    -7639 
   -7805    -7897    -7848    -7743    -7720    -7869    -8098    -8240 
   -8206    -7979    -7674    -7473    -7337    -7167    -7114    -7271 
   -7452    -7514    -7528    -7599    -7753    -7901    -7917    -7793 
   -7615    -7464    -7388    -7364    -7346    -7379    -7543    -7782 
   -7929    -7896    -7790    -7828    -8090    -8445    -8691    -8667 
   -8382    -8078    -7906    -7774    -7592    -7381    -7229    -7145 
   -7021    -6876    -6895    -7074    -7173    -7088    -6998    -7061 
   -7177    -7265    -7458    -7800    -8054    -8019    -7838    -7812 
   -8006    -8198    -8199    -8105    -8078    -8056    -7866    -7531 
   -7318    -7419    -7681    -7782    -7651    -7462    -7300    -7183 
   -7213    -7447    -7769    -7948    -7873    -7743    -7794    -7962 
   -8082    -8178    -8322    -8437    -8370    -8090    -7761    -7561 
   -7456    -7280    -7072    -7011    -7084    -7088    -6909    -6662 
   -6544    -6562    -6554    -6531    -6701    -7060    -7373    -7554 
   -7703    -7882    -8094    -8318    -8526    -8696    -8831    -8926 
   -8932    -8854    -8733    -8550    -8330    -8197    -8181    -8191 
   -8182    -8176    -8168    -8055    -7820    -7651    -7630    -7585 
   -7412    -7265    -7350    -7608    -7742    -7659    -7592    -7650 
   -7690    -7622    -7508    -7437    -7353    -7142    -6890    -6818 
   -6951    -7113    -7217    -7299    -7415    -7510    -7507    -7501 
   -7582    -7690    -7823    -7998    -8104    -8098    -8129    -8325 
   -8590    -8694    -8576    -8426    -8413    -8409    -8162    -7728 
   -7465    -7546    -7726    -7668    -7391    -7194    -7186    -7182 
   -7065    -6957    -6993    -7079    -7096    -7122    -7234    -7407 
   -7578    -7682    -7743    -7839    -7911    -7921    -7986    -8101 
   -8178    -8262    -8392    -8494    -8521    -8461    -8343    -8274 
   -8263    -8175    -8025    -7917    -7780    -7561    -7400    -7396 
   -7449    -7404    -7295    -7311    -7481    -7631    -7662    -7585 
   -7445    -7337    -7322    -7387    -7508    -7659    -7749    -7677 
   -7545    -7530    -7627    -7754    -7879    -7967    -8024    -8050 
