Origin Time       2024/04/02 04:24:00
Lat.              40.133
Long.             141.712
Depth. (km)       71
Mag.              6.0
Station Code      HKD131
Station Lat.      42.4206
Station Long.     141.0809
Station Height(m) 13
Record Time       2024/04/02 04:25:16
Sampling Freq(Hz) 100Hz
Duration Time(s)  96
Dir.              U-D
Scale Factor      7845(gal)/8223790
Max. Acc. (gal)   1.642
Last Correction   2024/04/02 04:25:17
Memo.             
[...]
   15884    15849    15858    15867    15832    15838    15877    15867 
   15835    15831    15851    15870    15862    15839    15844    15865 
   15857    15842    15851    15861    15862    15851    15835    15847 
   15859    15850    15851    15849    15849    15867    15859    15842 
   15857    15846    15832    15870    15893    15844    15812    15851 
   15884    15859    15830    15843    15870    15863    15847    15854 
   15857    15847    15846    15855    15858    15853    15851    15859 
   15865    15851    15840    15855    15855    15849    15855    15842 
   15847    15885    15866    15819    15838    15881    15863    15819 
   15840    15880    15850    15836    15874    15863    15828    15849 
   15873    15859    15844    15842    15855    15866    15851    15836 
   15844    15862    15867    15859    15847    15839    15853    15866 
   15854    15840    15842    15846    15859    15866    15858    15855 
   15851    15854    15869    15859    15834    15835    15855    15854 
   15835    15851    15881    15855    15830    15863    15881    15857 
   15851    15858    15842    15839    15863    15853    15823    15842 
   15867    15858    15857    15859    15850    15859    15873    15854 
   15834    15840    15857    15869    15846    15815    15843    15884 
   15865    15840    15850    15863    15857    15846    15866    15866 
   15820    15834    15884    15861    15830    15855    15867    15849 
   15858    15870    15846    15832    15846    15865    15865    15839 
   15842    15863    15854    15843    15851    15858    15874    15867 
   15839    15843    15867    15853    15830    15844    15857    15859 
   15873    15853    15838    15867    15861    15835    15850    15847 
   15831    15866    15881    15830    15828    15888    15886    15831 
   15839    15874    15850    15820    15850    15874    15839    15827 
   15869    15878    15853    15847    15858    15857    15853    15865 
   15857    15828    15835    15871    15878    15847    15832    15863 
   15862    15830    15846    15866    15855    15858    15857    15846 
   15846    15865    15870    15844    15834    15854    15863    15857 
   15854    15846    15827    15846    15888    15870    15830    15843 
   15881    15867    15820    15830    15876    15863    15831    15843 
   15862    15865    15861    15857    15850    15839    15842    15858 
   15865    15861    15844    15840    15862    15877    15855    15831 
   15832    15849    15861    15851    15846    15865    15859    15842 
   15851    15858    15866    15871    15840    15826    15854    15871 
   15855    15830    15831    15847    15853    15867    15881    15853 
   15820    15859    15904    15853    15809    15861    15878    15824 
   15823    15869    15862    15827    15842    15878    15870    15849 
   15866    15877    15851    15834    15840    15854    15863    15849 
   15824    15834    15871    15873    15849    15861    15873    15847 
   15836    15867    15877    15838    15820    15855    15867    15826 
   15826    15881    15877    15822    15842    15896    15874    15835 
   15847    15873    15854    15823    15849    15878    15836    15808 
   15851    15878    15853    15849    15862    15850    15857    15878 
   15847    15824    15859    15865    15831    15847    15877    15858 
   15834    15836    15847    15858    15858    15857    15866    15861 
   15849    15867    15873    15832    15817    15851    15857    15839 
   15851    15867    15851    15843    15869    15873    15836    15840 
   15878    15861    15826    15844    15869    15847    15835    15858 
   15866    15840    15834    15869    15876    15835    15831    15870 
   15873    15849    15855    15858    15840    15844    15861    15853 
   15840    15846    15853    15862    15862    15853    15865    15871 
   15843    15843    15871    15857    15831    15850    15862    15836 
   15843    15874    15846    15820    15867    15886    15839    15835 
   15876    15861    15832    15862    15878    15846    15839    15854 
   15855    15842    15832    15851    15873    15850    15832    15859 
   15874    15853    15853    15867    15855    15844    15855    15859 
   15849    15849    15849    15836    15849    15871    15850    15828 
   15855    15865    15846    15846    15873    15878    15838    15827 
   15876    15873    15822    15834    15874    15850    15832    15874 
   15881    15830    15824    15866    15870    15846    15847    15867 
   15865    15832    15828    15859    15854    15822    15850    15886 
   15853    15840    15874    15874    15847    15846    15858    15851 
   15831    15838    15863    15865    15843    15838    15857    15874 
   15858    15836    15851    15870    15859    15851    15854    15840 
   15840    15859    15850    15832    15844    15854    15858    15869 
   15857    15850    15865    15865    15855    15850    15842    15836 
   15831    15838    15858    15858    15844    15861    15888    15877 
   15838    15839    15876    15863    15819    15834    15866    15847 
   15835    15861    15870    15851    15842    15859    15869    15849 
   15842    15853    15851    15847    15842    15855    15874    15853 
   15839    15858    15858    15857    15853    15842    15847    15855 
   15847    15846    15858    15863    15857    15855    15861    15849 
   15840    15859    15859    15830    15847    15877    15849    15842 
   15874    15859    15835    15851    15865    15851    15831    15836 
   15857    15859    15854    15855    15854    15840    15849    15877 
   15862    15831    15844    15873    15863    15834    15842    15870 
   15854    15828    15840    15862    15869    15854    15839    15858 
   15870    15851    15850    15863    15843    15836    15865    15857 
   15843    15866    15859    15840    15855    15855    15850    15862 
   15854    15831    15846    15877    15863    15838    15840    15853 
   15851    15839    15853    15881    15861    15827    15850    15874 
   15851    15831    15843    15858    15859    15851    15855    15876 
   15867    15831    15840    15871    15843    15822    15859    15871 
   15835    15838    15876    15874    15846    15838    15843    15854 
   15874    15861    15822    15836    15876    15851    15824    15869 
   15885    15832    15824    15870    15874    15840    15832    15855 
   15869    15851    15842    15862    15855    15834    15857    15871 
   15847    15838    15857    15866    15857    15854    15858    15847 
   15843    15850    15840    15831    15846    15863    15863    15857 
   15859    15869    15863    15844    15851    15867    15842    15820 
   15849    15876    15851    15815    15847    15884    15857    15855 
   15870    15840    15850    15877    15838    15838    15889    15859 
   15816    15846    15862    15844    15849    15850    15847    15859 
   15855    15853    15866    15861    15839    15843    15870    15858 
   15824    15846    15863    15836    15849    15876    15857    15840 
   15863    15867    15831    15835    15882    15874    15839    15839 
   15847    15853    15853    15834    15842    15867    15847    15839 
   15882    15870    15822    15849    15881    15869    15863    15840 
   15826    15862    15855    15815    15854    15881    15824    15840 
   15901    15862    15828    15851    15853    15851    15861    15854 
   15847    15855    15850    15835    15861    15888    15843    15815 
   15859    15873    15840    15844    15861    15849    15858    15877 
   15857    15843    15857    15847    15844    15869    15855    15827 
   15866    15881    15828    15842    15878    15836    15846    15894 
   15849    15815    15859    15867    15847    15853    15842    15839 
   15874    15871    15836    15855    15870    15827    15824    15881 
   15885    15828    15823    15873    15869    15835    15849    15857 
   15846    15857    15853    15847    15865    15849    15832    15869 
   15869    15836    15855    15854    15827    15857    15874    15838 
   15846    15870    15836    15836    15884    15867    15830    15857 
   15878    15846    15826    15853    15874    15842    15820    15861 
   15871    15832    15849    15882    15842    15822    15871    15881 
   15838    15831    15871    15876    15828    15831    15885    15865 
   15813    15849    15889    15843    15830    15876    15863    15834 
   15851    15859    15843    15834    15854    15877    15851    15831 
   15870    15878    15830    15836    15878    15850    15827    15870 
   15870    15822    15838    15885    15863    15823    15847    15884 
   15857    15827    15861    15882    15843    15820    15865    15877 
   15835    15847    15882    15853    15826    15859    15884    15846 
   15826    15874    15881    15820    15831    15880    15853    15826 
   15862    15888    15846    15822    15867    15876    15823    15831 
   15885    15863    15817    15854    15884    15840    15831    15876 
   15876    15830    15838    15886    15870    15820    15836    15871 
   15846    15819    15855    15881    15839    15826    15882    15888 
   15839    15846    15867    15830    15822    15880    15871    15822 
   15850    15886    15854    15836    15863    15858    15824    15832 
   15867    15854    15822    15847    15881    15862    15835    15862 
   15886    15843    15827    15878    15881    15831    15832    15862 
   15842    15817    15844    15861    15831    15834    15873    15859 
   15820    15844    15878    15844    15812    15843    15865    15838 
   15819    15835    15844    15822    15823    15858    15850    15817 
   15846    15874    15831    15816    15863    15847    15796    15820 
   15853    15838    15830    15827    15807    15784    15795    15826 
   15815    15784    15785    15797    15796    15796    15809    15808 
   15799    15817    15853    15862    15842    15855    15911    15912 
   15876    15886    15904    15876    15846    15851    15844    15811 
   15815    15843    15832    15799    15799    15827    15816    15804 
   15884    15958    15917    15888    15950    15977    15934    15919 
   15904    15853    15828    15808    15745    15711    15741    15770 
   15782    15809    15826    15819    15855    15939    15975    15950 
   15928    15932    15943    15955    15981    16009    15996    15901 
   15769    15703    15684    15647    15661    15719    15726    15732 
   15809    15869    15876    15894    15915    15920    15958    16021 
   16035    15988    15928    15919    15988    16054    16075    16137 
   16236    16260    16183    16044    15939    15958    16055    16140 
   16154    16074    15977    15920    15862    15778    15716    15672 
   15630    15660    15763    15805    15757    15763    15888    16023 
   16027    15930    15969    16170    16259    16166    16011    15839 
   15728    15734    15840    15921    15741    15457    15469    15685 
   15843    15917    15822    15599    15565    15759    15951    16006 
   15890    15724    15685    15624    15429    15334    15363    15365 
   15510    15758    15738    15587    15704    15942    16119    16345 
   16406    16066    15732    15816    16048    16092    15984    15727 
   15399    15313    15421    15403    15344    15427    15564    15715 
   15898    15966    15850    15723    15722    15763    15881    16205 
   16521    16518    16308    16133    15911    15696    15808    16023 
   15962    15871    15986    16120    16100    15908    15761    15905 
   16193    16294    16139    15909    15709    15542    15543    15628 
   15558    15504    15572    15622    15731    15842    15758    15574 
   15445    15529    15897    16282    16537    16686    16406    15680 
   15223    15327    15573    15803    16194    16580    16515    16102 
   15888    15813    15489    15163    15145    15336    15685    16059 
   16271    16391    16309    15916    15615    15696    15920    15961 
   15822    15936    16390    16501    16071    15819    15835    15426 
   14863    14970    15322    15205    15059    15457    16020    16120 
   16009    16244    16405    16009    15670    15855    15998    15726 
   15654    16200    16725    16831    16799    16499    15892    15434 
   15256    15306    15526    15618    15543    15651    15981    16009 
   15531    15253    15512    15620    15499    15839    16339    16441 
   16676    17085    16815    15901    15217    15034    14948    14936 
   15257    15599    15747    16035    16444    16756    16879    16605 
   16279    16380    16409    16133    16101    16079    15693    15385 
   15195    15022    15319    15785    15981    16345    16491    15782 
   15296    15753    15985    15543    15276    15076    14523    14312 
   14960    15901    16372    16325    16268    16472    16726    16725 
   16588    16575    16474    16310    16422    16480    16094    15573 
   15268    15182    15206    15315    15433    15415    15342    15315 
   15375    15628    15842    15838    15855    15777    15592    15898 
   16443    16492    16586    17154    17284    16690    16274    16123 
   15614    15093    14852    14436    14377    15056    15438    15589 
   16125    16227    15822    15688    15456    15055    15124    15435 
   15797    16422    16839    16794    16777    16825    16571    16241 
   16129    15835    15414    15626    15932    15412    14948    15209 
   15475    15468    15340    15168    15090    15078    15473    16312 
   16684    16791    17377    17574    16977    16532    16320    15986 
   15843    15830    15496    14944    14674    14920    15213    15279 
   15623    16009    15858    15920    16511    16490    15817    15699 
   16171    16499    16484    16260    16156    16078    15772    15830 
   16195    16001    15588    15449    15327    15415    15626    15484 
   15295    15310    15207    15157    15631    16101    15782    15431 
   15912    16470    16488    16418    16432    16359    16287    16214 
   16096    16159    16274    15919    15348    15249    15287    14948 
   14886    15480    15850    15616    15272    14985    15055    15831 
   16640    16923    17084    17116    16745    16478    16575    16534 
   16294    16112    15796    15390    15345    15353    14864    14573 
   14955    15144    15084    15558    16032    15824    15765    16237 
   16371    16171    16286    16472    16475    16507    16540    16483 
   16286    15986    15855    15853    15780    15564    15106    14779 
   14895    15097    15371    15619    15360    15233    15732    15859 
   15577    15908    16460    16519    16445    16360    16205    16235 
   16252    16221    16417    16351    15893    15696    15610    15364 
   15485    15894    15946    15759    15738    15682    15384    15206 
   15342    15392    15403    15743    16011    16059    16364    16524 
   16139    15981    16316    16474    16413    16397    15961    15087 
   14839    15400    15569    15133    15148    15522    15518    15743 
   16525    16822    16370    16008    16159    16436    16403    16262 
   16247    16240    16124    16004    16156    16208    15731    15465 
   15664    15570    15352    15292    14839    14316    14432    14779 
   15267    16140    16692    16745    16992    17253    17043    16823 
   17024    17088    16428    15638    15516    15676    15596    15466 
   15321    15109    15007    14976    14917    14909    15039    15302 
   15537    15709    16048    16357    16141    15863    16254    16645 
   16367    16229    16691    16869    16363    15851    15572    15222 
   15113    15539    15785    15556    15498    15419    15051    15217 
   15778    15781    15539    15576    15591    15425    15466    15952 
   16267    16013    15969    16384    16505    16382    16483    16519 
   16368    16241    16143    16031    15718    15387    15430    15381 
   15120    15360    15808    15708    15574    16050    16434    16097 
   15854    16204    16200    15566    15341    15695    15622    15234 
   15634    16417    16580    16484    16364    16012    15961    16287 
   16330    16051    15781    15682    15680    15507    15263    15191 
   15241    15471    15847    15984    15838    15819    15973    16059 
   16075    16056    16032    16060    16020    15992    16136    15990 
   15512    15539    15886    15776    15692    15981    16054    15934 
   15961    16027    16190    16414    16220    15631    15354    15341 
   14994    14818    15365    15896    15838    15527    15457    15642 
   15638    15695    16310    16757    16545    16347    16275    16090 
   16174    16390    16217    16123    16345    16017    15256    15182 
   15535    15461    15342    15588    15716    15600    15627    15766 
   15859    16023    16202    16164    16028    16144    16235    15923 
   15870    16351    16476    16113    15971    16189    16352    16187 
   15905    15826    15805    15543    15147    15075    15259    15053 
   14709    15002    15542    15805    16127    16398    16249    16086 
   16249    16317    15979    15817    16156    16248    15880    15790 
   15955    15807    15557    15805    16410    16437    15749    15519 
   15935    15908    15496    15514    15688    15506    15169    15070 
   15363    15669    15539    15333    15491    15834    16162    16353 
   16317    16213    16125    16063    16051    15938    15780    15746 
   15755    15942    16240    16121    15769    15804    16065    16063 
   15692    15252    15153    15368    15612    15772    15724    15577 
   15649    15759    15769    16048    16391    16384    16325    16268 
   16104    16067    16060    16006    16089    16101    15880    15745 
   15977    16210    15990    15799    16081    16312    16108    15709 
   15473    15502    15558    15601    15616    15487    15566    15951 
   16123    16021    15909    15836    15804    15765    15785    15822 
   15676    15696    16062    16127    15816    15758    15962    16124 
   16198    16086    15898    15884    15947    16131    16378    16193 
   15777    15776    15969    15936    15885    15942    15842    15615 
   15558    15568    15453    15322    15282    15460    15820    15921 
   15668    15641    16008    16186    16090    16154    16267    16166 
   16092    16210    16254    16075    15766    15487    15518    15692 
   15623    15653    15882    15731    15500    15822    16050    15728 
   15646    15819    15453    15168    15689    15975    15597    15595 
   16079    16390    16438    16332    16191    16070    15853    15746 
   15847    15784    15479    15299    15394    15434    15284    15330 
   15634    15754    15600    15615    15965    16168    16008    16035 
   16494    16680    16258    16008    16248    16340    16048    15709 
   15647    15726    15593    15543    15824    15974    15885    15900 
   16031    16042    15894    15878    15919    15641    15444    15723 
   15994    15890    15596    15518    15734    15593    15079    15187 
   15736    15780    15633    15724    15807    15989    16255    16289 
   16344    16498    16231    15685    15650    16116    16301    16173 
   16322    16411    16033    15854    15931    15745    15669    15732 
   15425    15217    15630    16069    15975    15688    15623    15680 
   15680    15732    15985    16143    15863    15630    15975    16362 
