Origin Time       2024/04/02 04:24:00
Lat.              40.133
Long.             141.712
Depth. (km)       71
Mag.              6.0
Station Code      HKD182
Station Lat.      42.9721
Station Long.     141.5161
Station Height(m) 56
Record Time       2024/04/02 04:25:56
Sampling Freq(Hz) 100Hz
Duration Time(s)  69
Dir.              N-S
Scale Factor      7845(gal)/8223790
Max. Acc. (gal)   3.651
Last Correction   2024/04/02 04:25:57
Memo.             
[...]
   -2074    -1981    -1998    -2149    -2427    -2781    -3123    -3357 
   -3422    -3343    -3194    -3036    -2895    -2768    -2647    -2528 
   -2409    -2305    -2250    -2272    -2370    -2516    -2652    -2718 
   -2682    -2575    -2439    -2317    -2250    -2246    -2292    -2381 
   -2500    -2631    -2762    -2875    -2938    -2921    -2812    -2627 
   -2401    -2176    -2008    -1941    -1971    -2077    -2241    -2427 
   -2598    -2740    -2857    -2938    -2957    -2895    -2749    -2547 
   -2359    -2263    -2282    -2386    -2515    -2597    -2619    -2635 
   -2705    -2828    -2934    -2932    -2797    -2597    -2412    -2285 
   -2253    -2332    -2497    -2700    -2886    -2990    -2963    -2805 
   -2565    -2297    -2054    -1885    -1842    -1939    -2138    -2388 
   -2651    -2903    -3126    -3288    -3339    -3246    -3032    -2768 
   -2532    -2367    -2270    -2205    -2172    -2187    -2241    -2305 
   -2342    -2330    -2286    -2236    -2203    -2188    -2177    -2166 
   -2178    -2258    -2428    -2650    -2862    -3033    -3168    -3279 
   -3341    -3327    -3238    -3079    -2863    -2620    -2393    -2230 
   -2162    -2174    -2227    -2311    -2420    -2525    -2600    -2637 
   -2644    -2624    -2581    -2513    -2446    -2409    -2374    -2319 
   -2292    -2340    -2465    -2625    -2763    -2824    -2794    -2677 
   -2508    -2393    -2423    -2579    -2759    -2864    -2863    -2781 
   -2673    -2596    -2556    -2519    -2465    -2409    -2350    -2278 
   -2220    -2212    -2249    -2286    -2300    -2316    -2382    -2505 
   -2644    -2745    -2790    -2798    -2782    -2733    -2671    -2636 
   -2625    -2608    -2548    -2436    -2309    -2226    -2239    -2358 
   -2504    -2582    -2563    -2467    -2332    -2222    -2195    -2277 
   -2443    -2621    -2720    -2700    -2589    -2432    -2272    -2166 
   -2173    -2299    -2490    -2678    -2799    -2833    -2805    -2740 
   -2648    -2550    -2469    -2423    -2417    -2427    -2428    -2430 
   -2439    -2466    -2533    -2640    -2754    -2845    -2901    -2899 
   -2830    -2702    -2558    -2442    -2370    -2322    -2285    -2289 
   -2362    -2479    -2579    -2631    -2643    -2643    -2655    -2674 
   -2659    -2586    -2481    -2386    -2334    -2344    -2409    -2481 
   -2535    -2583    -2609    -2593    -2566    -2563    -2590    -2625 
   -2641    -2613    -2543    -2482    -2467    -2477    -2482    -2479 
   -2462    -2431    -2404    -2389    -2376    -2366    -2370    -2380 
   -2385    -2398    -2442    -2513    -2582    -2612    -2597    -2562 
   -2535    -2542    -2597    -2694    -2820    -2947    -3036    -3060 
   -3029    -2949    -2821    -2666    -2493    -2322    -2189    -2134 
   -2176    -2316    -2497    -2651    -2760    -2843    -2887    -2860 
   -2771    -2671    -2570    -2477    -2427    -2413    -2419    -2469 
   -2590    -2762    -2921    -2986    -2918    -2771    -2631    -2552 
   -2532    -2523    -2502    -2492    -2486    -2465    -2435    -2411 
   -2369    -2305    -2238    -2178    -2142    -2128    -2127    -2143 
   -2204    -2323    -2486    -2648    -2774    -2853    -2890    -2887 
   -2828    -2709    -2565    -2424    -2311    -2273    -2334    -2450 
   -2554    -2604    -2585    -2528    -2471    -2416    -2392    -2447 
   -2554    -2659    -2759    -2859    -2944    -3025    -3091    -3098 
   -3032    -2917    -2764    -2582    -2394    -2220    -2087    -2037 
   -2087    -2185    -2276    -2340    -2374    -2377    -2377    -2404 
   -2461    -2535    -2594    -2604    -2570    -2546    -2579    -2666 
   -2755    -2789    -2751    -2682    -2620    -2565    -2494    -2419 
   -2361    -2309    -2236    -2155    -2104    -2122    -2234    -2412 
   -2589    -2708    -2749    -2737    -2716    -2704    -2705    -2717 
   -2735    -2748    -2731    -2639    -2471    -2299    -2195    -2170 
   -2199    -2254    -2297    -2312    -2313    -2317    -2340    -2420 
   -2569    -2743    -2872    -2925    -2922    -2878    -2795    -2701 
   -2619    -2555    -2523    -2520    -2529    -2558    -2606    -2640 
   -2633    -2594    -2542    -2509    -2502    -2500    -2501    -2509 
   -2532    -2575    -2627    -2673    -2705    -2708    -2668    -2610 
   -2562    -2516    -2444    -2334    -2199    -2099    -2089    -2182 
   -2339    -2494    -2604    -2658    -2651    -2592    -2523    -2498 
   -2536    -2621    -2727    -2822    -2882    -2872    -2781    -2658 
   -2577    -2567    -2593    -2593    -2532    -2413    -2281    -2191 
   -2158    -2174    -2234    -2338    -2478    -2629    -2743    -2789 
   -2767    -2709    -2656    -2632    -2616    -2565    -2470    -2377 
   -2342    -2398    -2536    -2706    -2857    -2967    -3026    -3025 
   -2964    -2859    -2735    -2639    -2590    -2559    -2498    -2403 
   -2313    -2284    -2326    -2390    -2427    -2446    -2459    -2454 
   -2413    -2340    -2261    -2218    -2215    -2214    -2219    -2281 
   -2413    -2582    -2745    -2857    -2887    -2821    -2651    -2423 
   -2235    -2137    -2120    -2200    -2380    -2604    -2793    -2889 
   -2871    -2791    -2725    -2675    -2606    -2511    -2401    -2307 
   -2273    -2320    -2434    -2602    -2789    -2907    -2922    -2871 
   -2801    -2743    -2702    -2673    -2636    -2590    -2546    -2521 
   -2531    -2569    -2600    -2596    -2575    -2574    -2608    -2652 
   -2673    -2659    -2629    -2593    -2559    -2506    -2396    -2249 
   -2146    -2138    -2218    -2371    -2556    -2698    -2772    -2781 
   -2718    -2619    -2563    -2589    -2666    -2732    -2720    -2617 
   -2493    -2407    -2358    -2327    -2311    -2330    -2415    -2560 
   -2712    -2821    -2872    -2878    -2860    -2844    -2844    -2841 
   -2817    -2756    -2652    -2543    -2492    -2531    -2604    -2606 
   -2502    -2355    -2254    -2235    -2282    -2367    -2450    -2486 
   -2466    -2412    -2349    -2311    -2330    -2393    -2427    -2378 
   -2280    -2211    -2230    -2319    -2420    -2494    -2554    -2623 
   -2679    -2671    -2574    -2430    -2319    -2281    -2292    -2319 
   -2344    -2359    -2344    -2281    -2196    -2168    -2261    -2474 
   -2744    -3002    -3188    -3261    -3235    -3184    -3152    -3123 
   -3080    -3007    -2882    -2705    -2542    -2454    -2463    -2560 
   -2695    -2798    -2837    -2805    -2691    -2515    -2327    -2188 
   -2133    -2161    -2227    -2290    -2336    -2371    -2415    -2489 
   -2602    -2724    -2802    -2787    -2646    -2396    -2104    -1848 
   -1695    -1668    -1725    -1814    -1894    -1938    -1976    -2054 
   -2173    -2304    -2430    -2543    -2640    -2724    -2802    -2889 
   -2971    -3011    -2995    -2938    -2857    -2766    -2685    -2629 
   -2597    -2579    -2567    -2569    -2581    -2552    -2451    -2304 
   -2164    -2076    -2058    -2092    -2161    -2265    -2381    -2478 
   -2563    -2658    -2754    -2828    -2844    -2797    -2720    -2640 
   -2562    -2488    -2430    -2411    -2430    -2471    -2513    -2543 
   -2555    -2533    -2440    -2274    -2116    -2058    -2124    -2273 
   -2436    -2579    -2706    -2832    -2955    -3061    -3134    -3137 
   -3036    -2833    -2565    -2312    -2165    -2151    -2250    -2415 
   -2585    -2725    -2829    -2894    -2938    -2991    -3030    -3006 
   -2894    -2706    -2488    -2290    -2158    -2124    -2224    -2439 
   -2683    -2866    -2948    -2951    -2909    -2840    -2770    -2687 
   -2552    -2359    -2137    -1933    -1818    -1856    -2050    -2330 
   -2586    -2752    -2832    -2826    -2736    -2601    -2469    -2374 
   -2370    -2481    -2666    -2862    -3013    -3088    -3102    -3088 
   -3079    -3069    -3034    -2936    -2741    -2474    -2200    -1966 
   -1807    -1775    -1898    -2165    -2532    -2909    -3202    -3379 
   -3433    -3358    -3172    -2937    -2744    -2656    -2655    -2658 
   -2585    -2438    -2280    -2135    -1996    -1890    -1857    -1903 
   -2004    -2133    -2263    -2401    -2562    -2736    -2910    -3078 
   -3233    -3356    -3418    -3408    -3302    -3082    -2782    -2475 
   -2253    -2192    -2304    -2532    -2801    -3051    -3215    -3231 
   -3073    -2801    -2515    -2288    -2164    -2180    -2319    -2498 
   -2668    -2829    -2961    -3032    -3033    -2964    -2809    -2583 
   -2319    -2050    -1842    -1767    -1830    -1987    -2191    -2408 
   -2605    -2747    -2794    -2737    -2614    -2485    -2396    -2351 
   -2322    -2297    -2305    -2408    -2621    -2878    -3090    -3208 
   -3229    -3161    -3025    -2813    -2511    -2165    -1871    -1710 
   -1728    -1912    -2189    -2465    -2683    -2821    -2868    -2840 
   -2778    -2701    -2590    -2443    -2276    -2138    -2083    -2141 
   -2320    -2570    -2806    -2967    -3042    -3042    -2957    -2786 
   -2552    -2316    -2151    -2077    -2062    -2088    -2147    -2228 
   -2338    -2488    -2652    -2795    -2882    -2864    -2741    -2579 
   -2442    -2374    -2438    -2648    -2916    -3086    -3032    -2722 
   -2242    -1764    -1452    -1372    -1497    -1738    -2007    -2257 
   -2473    -2663    -2844    -3001    -3098    -3105    -3001    -2783 
   -2492    -2195    -1957    -1834    -1861    -2034    -2303    -2581 
   -2779    -2853    -2802    -2631    -2343    -1975    -1599    -1305 
   -1169    -1248    -1556    -2066    -2721    -3366    -3819    -3989 
   -3875    -3528    -3030    -2494    -2038    -1763    -1722    -1860 
   -2034    -2111    -2038    -1875    -1748    -1742    -1863    -2052 
   -2228    -2313    -2286    -2178    -2049    -1991    -2099    -2363 
   -2689    -2975    -3163    -3244    -3230    -3127    -2937    -2690 
   -2479    -2432    -2597    -2917    -3308    -3708    -4052    -4261 
   -4271    -4091    -3813    -3531    -3288    -3102    -2984    -2920 
   -2866    -2820    -2786    -2722    -2573    -2344    -2133    -2031 
   -2058    -2131    -2126    -1962    -1660    -1348    -1169    -1142 
   -1201    -1331    -1536    -1768    -1972    -2118    -2212    -2335 
   -2571    -2921    -3308    -3635    -3813    -3811    -3646    -3380 
   -3091    -2814    -2521    -2201    -1895    -1663    -1548    -1568 
   -1714    -1952    -2236    -2519    -2751    -2909    -2999    -3048 
   -3105    -3203    -3308    -3362    -3333    -3183    -2893    -2515 
   -2150    -1883    -1769    -1783    -1833    -1854    -1833    -1782 
   -1753    -1822    -2023    -2332    -2702    -3057    -3296    -3384 
   -3370    -3298    -3163    -2975    -2766    -2559    -2413    -2398 
   -2531    -2764    -3032    -3254    -3319    -3105    -2592    -1919 
   -1310     -923     -811     -942    -1225    -1571    -1960    -2408 
   -2890    -3341    -3681    -3815    -3727    -3485    -3159    -2795 
   -2459    -2199    -2011    -1867    -1775    -1757    -1827    -1975 
   -2166    -2382    -2604    -2787    -2906    -2948    -2899    -2775 
   -2658    -2641    -2760    -2945    -3075    -3056    -2871    -2575 
   -2292    -2180    -2335    -2722    -3188    -3569    -3804    -3896 
   -3843    -3666    -3399    -3065    -2712    -2367    -2026    -1713 
   -1486    -1391    -1464    -1729    -2178    -2760    -3342    -3746 
   -3855    -3669    -3253    -2694    -2104    -1602    -1285    -1174 
   -1220    -1390    -1667    -2016    -2370    -2621    -2664    -2465 
   -2100    -1718    -1464    -1391    -1464    -1653    -1993    -2556 
   -3353    -4272    -5136    -5786    -6134    -6166    -5934    -5512 
   -4951    -4287    -3562    -2813    -2076    -1458    -1084     -978 
   -1039    -1115    -1098    -1016     -980    -1070    -1282    -1537 
   -1768    -1991    -2255    -2570    -2874    -3060    -3029    -2713 
   -2127    -1436     -872     -588     -595     -804    -1111    -1472 
   -1873    -2259    -2582    -2816    -2936    -2956    -2932    -2933 
   -2979    -3055    -3134    -3211    -3311    -3451    -3582    -3604 
   -3456    -3161    -2786    -2412    -2091    -1846    -1752    -1883 
   -2219    -2641    -2995    -3152    -3103    -2968    -2894    -2934 
   -3002    -2951    -2705    -2313    -1899    -1614    -1587    -1875 
   -2446    -3168    -3846    -4297    -4448    -4347    -4089    -3793 
   -3585    -3522    -3561    -3570    -3376    -2890    -2200    -1487 
    -924     -639     -657     -901    -1251    -1575    -1782    -1856 
   -1836    -1769    -1714    -1740    -1912    -2274    -2839    -3565 
   -4326    -4905    -5109    -4873    -4263    -3445    -2654    -2070 
   -1782    -1763    -1888    -2045    -2188    -2307    -2407    -2506 
   -2596    -2682    -2813    -2964    -3052    -2995    -2756    -2382 
   -2020    -1834    -1883    -2115    -2438    -2732    -2878    -2790 
   -2467    -1996    -1522    -1171    -1001    -1001    -1146    -1417 
   -1768    -2135    -2473    -2787    -3123    -3510    -3928    -4290 
   -4477    -4395    -4008    -3372    -2635    -1949    -1424    -1109 
    -984     -996    -1127    -1399    -1814    -2320    -2825    -3222 
   -3439    -3462    -3322    -3045    -2671    -2274    -1995    -1987 
   -2323    -2933    -3636    -4230    -4600    -4747    -4706    -4449 
   -3943    -3241    -2485    -1846    -1471    -1406    -1576    -1854 
   -2101    -2187    -2037    -1675    -1186     -679     -313     -261 
    -558    -1089    -1734    -2425    -3125    -3782    -4303    -4606 
   -4629    -4320    -3636    -2619    -1393     -155      814     1287 
    1247      805       90     -783    -1738    -2739    -3720    -4571 
   -5167    -5391    -5166    -4581    -3855    -3163    -2620    -2301 
   -2242    -2400    -2656    -2876    -2971    -2898    -2675    -2361 
   -2003    -1634    -1275     -919     -596     -398     -411     -692 
   -1247    -2020    -2917    -3773    -4403    -4718    -4761    -4614 
   -4332    -3970    -3601    -3312    -3196    -3292    -3572    -3939 
   -4244    -4329    -4087    -3505    -2675    -1757     -957     -448 
    -280     -427     -816    -1304    -1765    -2174    -2517    -2759 
   -2867    -2851    -2778    -2687    -2550    -2355    -2147    -1972 
   -1829    -1695    -1613    -1692    -2002    -2486    -2992    -3325 
   -3315    -2910    -2234    -1521    -1009     -866    -1132    -1691 
   -2332    -2901    -3380    -3824    -4232    -4530    -4635    -4525 
   -4264    -3921    -3569    -3277    -3045    -2833    -2646    -2498 
   -2398    -2358    -2354    -2340    -2296    -2227    -2118    -1968 
   -1817    -1730    -1773    -1989    -2370    -2863    -3361    -3731 
   -3870    -3771    -3500    -3129    -2736    -2404    -2181    -2054 
   -1989    -1956    -1914    -1821    -1661    -1448    -1225    -1065 
   -1030    -1147    -1395    -1701    -1972    -2141    -2184    -2180 
   -2263    -2520    -2921    -3372    -3759    -3996    -4063    -3970 
   -3726    -3389    -3046    -2755    -2506    -2282    -2110    -2031 
   -2035    -2053    -2033    -1976    -1908    -1846    -1779    -1684 
   -1584    -1532    -1575    -1756    -2097    -2575    -3100    -3566 
   -3919    -4132    -4220    -4221    -4152    -4013    -3832    -3653 
   -3516    -3449    -3396    -3249    -2936    -2459    -1883    -1324 
    -911     -722     -768     -985    -1287    -1602    -1885    -2145 
   -2417    -2755    -3203    -3743    -4261    -4612    -4702    -4521 
   -4120    -3558    -2907    -2297    -1853    -1611    -1528    -1541 
   -1579    -1583    -1541    -1490    -1468    -1501    -1620    -1881 
   -2328    -2928    -3545    -4012    -4207    -4074    -3650    -3059 
   -2448    -1948    -1656    -1637    -1867    -2232    -2589    -2832 
   -2907    -2816    -2620    -2425    -2315    -2304    -2361    -2450 
   -2535    -2587    -2598    -2605    -2702    -2948    -3275    -3541 
   -3600    -3350    -2824    -2193    -1659    -1364    -1362    -1607 
   -1988    -2384    -2716    -2963    -3150    -3315    -3466    -3573 
   -3565    -3385    -3022    -2466    -1737     -953     -306       28 
     -35     -453    -1082    -1775    -2430    -2986    -3393    -3616 
   -3653    -3541    -3337    -3103    -2934    -2913    -3049    -3275 
   -3480    -3551    -3427    -3125    -2724    -2335    -2030    -1810 
   -1614    -1354     -989     -616     -441     -643    -1248    -2118 
   -3051    -3852    -4383    -4595    -4526    -4259    -3916    -3623 
   -3406    -3215    -3045    -2971    -3068    -3342    -3700    -3983 
   -4055    -3888    -3537    -3084    -2620    -2208    -1860    -1551 
   -1267    -1024     -849     -747     -711     -737     -850    -1084 
   -1424    -1792    -2101    -2331    -2524    -2743    -3032    -3399 
   -3792    -4125    -4315    -4314    -4148    -3915    -3696    -3514 
   -3338    -3127    -2851    -2497    -2108    -1794    -1686    -1867 
   -2312    -2867    -3323    -3535    -3445    -3069    -2496    -1857 
   -1331    -1089    -1202    -1587    -2043    -2350    -2400    -2253 
   -2080    -2020    -2079    -2158    -2169    -2081    -1927    -1734 
   -1521    -1309    -1128    -1028    -1032    -1131    -1344    -1730 
   -2296    -2949    -3532    -3879    -3940    -3804    -3576    -3327 
   -3114    -2948    -2817    -2731    -2698    -2694    -2687    -2660 
   -2631    -2635    -2668    -2663    -2548    -2288    -1914    -1540 
   -1306    -1310    -1578    -2062    -2662    -3258    -3742    -4035 
   -4137    -4109    -3989    -3771    -3454    -3090    -2774    -2592 
   -2555    -2574    -2512    -2308    -2016    -1750    -1575    -1476 
   -1402    -1316    -1205    -1080     -984    -1016    -1274    -1769 
   -2440    -3181    -3848    -4317    -4523    -4472    -4222    -3850 
   -3414    -2959    -2538    -2216    -1998    -1792    -1524    -1202 
    -920     -781     -828    -1043    -1394    -1829    -2274    -2685 
   -3032    -3303    -3510    -3643    -3665    -3547    -3307    -2986 
   -2625    -2280    -2008    -1837    -1753    -1752    -1844    -2043 
   -2344    -2691    -3001    -3244    -3457    -3661    -3834    -3950 
   -3987    -3925    -3761    -3495    -3148    -2767    -2398    -2101 
   -1965    -2052    -2334    -2731    -3136    -3443    -3541    -3321 
   -2759    -1969    -1169     -575     -328     -454     -870    -1432 
   -2006    -2516    -2959    -3329    -3561    -3576    -3343    -2926 
   -2471    -2131    -1966    -1941    -1979    -2034    -2106    -2215 
   -2363    -2515    -2627    -2689    -2705    -2681    -2633    -2579 
   -2521    -2471    -2475    -2583    -2817    -3142    -3456    -3628 
   -3565    -3256    -2776    -2258    -1818    -1505    -1336    -1324 
   -1472    -1760    -2146    -2569    -2952    -3211    -3304    -3261 
   -3152    -3056    -3041    -3121    -3217    -3226    -3118    -2960 
   -2856    -2872    -3005    -3172    -3264    -3206    -2970    -2570 
   -2099    -1678    -1377    -1210    -1155    -1186    -1304    -1514 
   -1822    -2220    -2662    -3071    -3377    -3530    -3518    -3420 
   -3366    -3416    -3550    -3680    -3673    -3442    -2979    -2334 
   -1609     -939     -437     -164     -141     -342     -719    -1252 
   -1927    -2704    -3526    -4314    -4974    -5445    -5709    -5759 
   -5595    -5228    -4684    -4006    -3244    -2447    -1695    -1085 
