Origin Time       2024/04/02 04:24:00
Lat.              40.133
Long.             141.712
Depth. (km)       71
Mag.              6.0
Station Code      HKD144
Station Lat.      42.9059
Station Long.     140.7670
Station Height(m) 180
Record Time       2024/04/02 04:26:05
Sampling Freq(Hz) 100Hz
Duration Time(s)  60
Dir.              E-W
Scale Factor      7845(gal)/8223790
Max. Acc. (gal)   1.153
Last Correction   2024/04/02 04:26:06
Memo.             
[...]
  -15645   -15768   -15884   -15970   -16032   -16074   -16087   -16075 
  -16052   -16038   -16047   -16078   -16125   -16187   -16263   -16332 
  -16367   -16349   -16285   -16190   -16082   -15974   -15882   -15808 
  -15745   -15681   -15610   -15537   -15461   -15383   -15306   -15244 
  -15211   -15215   -15255   -15331   -15433   -15535   -15623   -15685 
  -15722   -15743   -15754   -15765   -15785   -15811   -15851   -15903 
  -15944   -15966   -15962   -15919   -15834   -15719   -15591   -15462 
  -15350   -15269   -15230   -15236   -15283   -15356   -15423   -15460 
  -15468   -15453   -15423   -15388   -15349   -15296   -15248   -15229 
  -15237   -15260   -15291   -15334   -15385   -15437   -15473   -15481 
  -15460   -15419   -15373   -15315   -15250   -15202   -15175   -15175 
  -15201   -15244   -15310   -15404   -15518   -15633   -15743   -15850 
  -15955   -16058   -16158   -16258   -16355   -16428   -16459   -16449 
  -16418   -16376   -16332   -16283   -16228   -16150   -16043   -15919 
  -15799   -15684   -15579   -15496   -15452   -15449   -15484   -15553 
  -15646   -15731   -15784   -15800   -15785   -15766   -15773   -15804 
  -15861   -15935   -16001   -16025   -15994   -15919   -15812   -15674 
  -15522   -15394   -15295   -15211   -15153   -15132   -15137   -15164 
  -15217   -15307   -15419   -15515   -15589   -15661   -15730   -15799 
  -15878   -15970   -16078   -16195   -16312   -16411   -16491   -16545 
  -16556   -16495   -16363   -16191   -16013   -15865   -15772   -15728 
  -15707   -15693   -15691   -15699   -15704   -15709   -15719   -15730 
  -15745   -15776   -15824   -15878   -15916   -15916   -15867   -15780 
  -15668   -15552   -15464   -15423   -15435   -15510   -15645   -15820 
  -16015   -16183   -16299   -16372   -16409   -16421   -16426   -16432 
  -16441   -16455   -16457   -16433   -16368   -16251   -16078   -15867 
  -15654   -15473   -15341   -15244   -15163   -15099   -15060   -15044 
  -15047   -15068   -15109   -15163   -15223   -15295   -15363   -15399 
  -15402   -15381   -15345   -15294   -15244   -15210   -15183   -15160 
  -15137   -15107   -15066   -15017   -14975   -14960   -14987   -15045 
  -15122   -15211   -15303   -15372   -15399   -15381   -15342   -15306 
  -15299   -15330   -15398   -15483   -15562   -15642   -15724   -15800 
  -15870   -15923   -15958   -15993   -16029   -16060   -16086   -16105 
  -16116   -16133   -16181   -16262   -16352   -16428   -16478   -16505 
  -16515   -16517   -16513   -16511   -16521   -16549   -16588   -16619 
  -16641   -16656   -16648   -16611   -16565   -16524   -16484   -16452 
  -16425   -16402   -16380   -16371   -16375   -16378   -16364   -16337 
  -16290   -16212   -16119   -16032   -15946   -15854   -15757   -15661 
  -15577   -15508   -15460   -15445   -15473   -15520   -15537   -15502 
  -15417   -15294   -15151   -15013   -14894   -14806   -14754   -14735 
  -14746   -14774   -14802   -14841   -14904   -14983   -15071   -15160 
  -15234   -15277   -15282   -15249   -15183   -15095   -15017   -14964 
  -14939   -14947   -14983   -15029   -15079   -15134   -15178   -15199 
  -15199   -15186   -15165   -15159   -15178   -15222   -15287   -15364 
  -15439   -15511   -15581   -15645   -15692   -15728   -15785   -15874 
  -15982   -16092   -16190   -16256   -16285   -16297   -16322   -16370 
  -16432   -16494   -16534   -16521   -16447   -16339   -16225   -16098 
  -15952   -15812   -15707   -15645   -15619   -15619   -15633   -15635 
  -15603   -15535   -15445   -15356   -15287   -15244   -15223   -15222 
  -15233   -15261   -15321   -15394   -15458   -15506   -15542   -15576 
  -15601   -15608   -15596   -15583   -15579   -15597   -15642   -15708 
  -15781   -15849   -15908   -15954   -15988   -16006   -16001   -15973 
  -15917   -15830   -15734   -15651   -15600   -15584   -15591   -15615 
  -15664   -15722   -15774   -15824   -15878   -15923   -15944   -15958 
  -15982   -16016   -16070   -16155   -16268   -16394   -16507   -16594 
  -16653   -16691   -16695   -16660   -16598   -16518   -16441   -16382 
  -16329   -16281   -16244   -16209   -16164   -16112   -16051   -15979 
  -15890   -15784   -15672   -15572   -15488   -15402   -15307   -15240 
  -15217   -15233   -15282   -15354   -15441   -15539   -15634   -15703 
  -15746   -15776   -15796   -15811   -15815   -15799   -15747   -15664 
  -15556   -15412   -15242   -15075   -14933   -14821   -14739   -14692 
  -14690   -14744   -14856   -15018   -15225   -15438   -15611   -15726 
  -15777   -15770   -15727   -15658   -15579   -15520   -15506   -15515 
  -15533   -15554   -15570   -15565   -15527   -15471   -15414   -15373 
  -15360   -15381   -15434   -15503   -15579   -15664   -15754   -15836 
  -15901   -15955   -15993   -16004   -16011   -16019   -16008   -15971 
  -15917   -15849   -15773   -15695   -15622   -15565   -15526   -15504 
  -15508   -15550   -15634   -15735   -15832   -15917   -15982   -16025 
  -16052   -16060   -16051   -16033   -16017   -16004   -15977   -15931 
  -15878   -15834   -15797   -15780   -15785   -15800   -15812   -15824 
  -15826   -15807   -15769   -15716   -15657   -15608   -15588   -15593 
  -15606   -15627   -15666   -15711   -15757   -15803   -15851   -15903 
  -15938   -15966   -16013   -16077   -16146   -16217   -16283   -16317 
  -16303   -16241   -16144   -16047   -15966   -15888   -15822   -15773 
  -15719   -15673   -15672   -15704   -15728   -15745   -15768   -15786 
  -15790   -15770   -15726   -15673   -15627   -15596   -15593   -15614 
  -15639   -15670   -15688   -15691   -15700   -15730   -15772   -15811 
  -15847   -15877   -15882   -15854   -15803   -15742   -15688   -15660 
  -15665   -15708   -15773   -15846   -15915   -15966   -15985   -15965 
  -15915   -15846   -15777   -15727   -15697   -15677   -15666   -15657 
  -15651   -15657   -15665   -15658   -15624   -15576   -15537   -15498 
  -15458   -15444   -15461   -15498   -15543   -15591   -15651   -15727 
  -15804   -15867   -15912   -15930   -15909   -15844   -15738   -15618 
  -15516   -15445   -15399   -15383   -15406   -15456   -15515   -15576 
  -15630   -15660   -15655   -15607   -15515   -15392   -15264   -15147 
  -15059   -15028   -15049   -15082   -15106   -15124   -15122   -15115 
  -15126   -15147   -15179   -15232   -15303   -15379   -15448   -15500 
  -15525   -15525   -15520   -15516   -15508   -15508   -15525   -15550 
  -15585   -15633   -15682   -15732   -15790   -15861   -15930   -15985 
  -16019   -16021   -15985   -15927   -15863   -15797   -15741   -15704 
  -15687   -15678   -15687   -15719   -15785   -15861   -15934   -16000 
  -16050   -16079   -16102   -16135   -16156   -16158   -16171   -16204 
  -16248   -16293   -16318   -16312   -16290   -16255   -16178   -16047 
  -15898   -15759   -15626   -15506   -15419   -15369   -15340   -15318 
  -15306   -15318   -15344   -15365   -15398   -15449   -15502   -15550 
  -15596   -15650   -15704   -15749   -15785   -15811   -15819   -15808 
  -15796   -15793   -15796   -15809   -15831   -15854   -15878   -15888 
  -15878   -15867   -15849   -15805   -15751   -15699   -15665   -15661 
  -15670   -15687   -15712   -15732   -15742   -15751   -15769   -15795 
  -15822   -15836   -15842   -15836   -15813   -15776   -15735   -15692 
  -15641   -15588   -15539   -15496   -15471   -15466   -15471   -15484 
  -15506   -15529   -15558   -15596   -15620   -15631   -15645   -15654 
  -15633   -15581   -15527   -15489   -15471   -15469   -15469   -15457 
  -15441   -15425   -15394   -15353   -15331   -15340   -15381   -15446 
  -15522   -15607   -15699   -15793   -15886   -15969   -16035   -16096 
  -16166   -16244   -16312   -16367   -16411   -16445   -16475   -16501 
  -16519   -16525   -16522   -16501   -16451   -16380   -16309   -16241 
  -16190   -16170   -16171   -16183   -16195   -16209   -16220   -16220 
  -16213   -16200   -16186   -16185   -16197   -16212   -16232   -16267 
  -16308   -16328   -16313   -16260   -16159   -16020   -15878   -15755 
  -15664   -15626   -15633   -15658   -15688   -15699   -15673   -15612 
  -15526   -15438   -15350   -15250   -15144   -15036   -14924   -14823 
  -14736   -14656   -14592   -14544   -14520   -14521   -14543   -14585 
  -14656   -14755   -14867   -14982   -15090   -15188   -15284   -15380 
  -15468   -15545   -15626   -15705   -15753   -15759   -15747   -15720 
  -15682   -15647   -15618   -15574   -15520   -15469   -15417   -15350 
  -15276   -15218   -15192   -15217   -15291   -15402   -15543   -15695 
  -15835   -15954   -16042   -16092   -16116   -16133   -16147   -16152 
  -16152   -16147   -16139   -16141   -16147   -16144   -16132   -16110 
  -16059   -15966   -15844   -15716   -15584   -15450   -15340   -15257 
  -15202   -15188   -15219   -15276   -15345   -15418   -15480   -15520 
  -15534   -15529   -15526   -15526   -15526   -15526   -15535   -15539 
  -15514   -15460   -15383   -15271   -15140   -15041   -14997   -14998 
  -15049   -15144   -15253   -15361   -15465   -15561   -15655   -15772 
  -15919   -16078   -16232   -16366   -16452   -16490   -16499   -16494 
  -16484   -16468   -16432   -16372   -16294   -16212   -16150   -16112 
  -16089   -16070   -16052   -16031   -15981   -15912   -15849   -15795 
  -15758   -15768   -15835   -15942   -16056   -16175   -16291   -16379 
  -16426   -16436   -16413   -16367   -16299   -16220   -16173   -16177 
  -16214   -16268   -16325   -16359   -16363   -16344   -16289   -16205 
  -16116   -16029   -15958   -15917   -15901   -15890   -15877   -15858 
  -15835   -15803   -15763   -15726   -15678   -15622   -15569   -15523 
  -15472   -15417   -15383   -15365   -15341   -15304   -15268   -15248 
  -15252   -15268   -15300   -15348   -15398   -15446   -15499   -15546 
  -15573   -15591   -15615   -15637   -15664   -15718   -15774   -15808 
  -15830   -15843   -15834   -15797   -15750   -15707   -15669   -15641 
  -15624   -15616   -15601   -15566   -15504   -15423   -15333   -15244 
  -15167   -15111   -15079   -15067   -15061   -15059   -15060   -15059 
  -15052   -15045   -15044   -15048   -15057   -15078   -15118   -15171 
  -15218   -15265   -15321   -15373   -15400   -15407   -15410   -15417 
  -15414   -15411   -15429   -15466   -15525   -15597   -15680   -15753 
  -15823   -15896   -15950   -15974   -15978   -15959   -15923   -15878 
  -15823   -15769   -15727   -15695   -15665   -15633   -15599   -15566 
  -15531   -15503   -15495   -15489   -15477   -15473   -15483   -15498 
  -15531   -15591   -15668   -15743   -15813   -15880   -15936   -15965 
  -15965   -15955   -15948   -15946   -15959   -16002   -16065   -16131 
  -16189   -16220   -16217   -16183   -16128   -16070   -16013   -15954 
  -15897   -15854   -15835   -15827   -15828   -15855   -15893   -15924 
  -15961   -16000   -16024   -16032   -16035   -16040   -16063   -16110 
  -16167   -16224   -16285   -16336   -16368   -16397   -16409   -16389 
  -16340   -16270   -16195   -16127   -16060   -16005   -15967   -15939 
  -15908   -15870   -15813   -15746   -15688   -15653   -15642   -15653 
  -15673   -15695   -15699   -15665   -15616   -15581   -15560   -15542 
  -15530   -15522   -15522   -15529   -15533   -15542   -15549   -15550 
  -15550   -15553   -15565   -15587   -15606   -15620   -15642   -15677 
  -15704   -15708   -15700   -15685   -15654   -15603   -15554   -15533 
  -15523   -15512   -15507   -15507   -15511   -15519   -15537   -15576 
  -15628   -15688   -15765   -15865   -15975   -16081   -16166   -16213 
  -16221   -16201   -16137   -16033   -15924   -15815   -15700   -15596 
  -15508   -15431   -15353   -15264   -15167   -15068   -14975   -14920 
  -14904   -14912   -14931   -14956   -14994   -15034   -15074   -15124 
  -15190   -15257   -15313   -15361   -15410   -15441   -15450   -15450 
  -15441   -15426   -15418   -15406   -15379   -15348   -15323   -15307 
  -15304   -15319   -15346   -15381   -15423   -15464   -15506   -15562 
  -15639   -15735   -15844   -15946   -16040   -16127   -16189   -16225 
  -16251   -16267   -16276   -16279   -16279   -16281   -16286   -16290 
  -16287   -16275   -16258   -16232   -16198   -16162   -16127   -16090 
  -16056   -16042   -16040   -16032   -16023   -16028   -16036   -16035 
  -16033   -16032   -16028   -16028   -16033   -16031   -16024   -16011 
  -15978   -15939   -15908   -15882   -15855   -15826   -15788   -15742 
  -15680   -15608   -15539   -15469   -15406   -15353   -15311   -15286 
  -15282   -15306   -15361   -15433   -15507   -15585   -15661   -15728 
  -15795   -15865   -15920   -15962   -15996   -16013   -16016   -16019 
  -16021   -16021   -16024   -16027   -16015   -15989   -15961   -15940 
  -15924   -15908   -15904   -15908   -15911   -15927   -15962   -16004 
  -16044   -16082   -16114   -16140   -16162   -16187   -16212   -16224 
  -16217   -16197   -16170   -16144   -16121   -16089   -16047   -15982 
  -15876   -15742   -15612   -15502   -15402   -15303   -15209   -15118 
  -15034   -14964   -14912   -14871   -14828   -14774   -14725   -14683 
  -14647   -14634   -14648   -14682   -14728   -14781   -14829   -14867 
  -14895   -14922   -14947   -14966   -14975   -14964   -14929   -14886 
  -14840   -14783   -14728   -14692   -14686   -14713   -14779   -14878 
  -14998   -15136   -15273   -15387   -15472   -15531   -15580   -15637 
  -15711   -15793   -15874   -15955   -16046   -16129   -16185   -16208 
  -16193   -16155   -16102   -16042   -15984   -15943   -15928   -15930 
  -15946   -15997   -16079   -16167   -16267   -16384   -16501   -16602 
  -16686   -16749   -16807   -16861   -16899   -16916   -16924   -16924 
  -16899   -16843   -16771   -16683   -16595   -16519   -16451   -16384 
  -16330   -16291   -16243   -16185   -16143   -16125   -16119   -16113 
  -16106   -16094   -16060   -16008   -15947   -15877   -15786   -15676 
  -15565   -15484   -15433   -15400   -15384   -15381   -15391   -15412 
  -15445   -15472   -15483   -15480   -15464   -15444   -15430   -15410 
  -15388   -15384   -15399   -15421   -15446   -15462   -15462   -15442 
  -15398   -15334   -15269   -15213   -15182   -15179   -15184   -15190 
  -15202   -15207   -15198   -15178   -15152   -15130   -15130   -15168 
  -15245   -15342   -15454   -15572   -15682   -15770   -15834   -15880 
  -15920   -15957   -15997   -16032   -16051   -16069   -16100   -16129 
  -16152   -16181   -16217   -16255   -16294   -16329   -16344   -16333 
  -16306   -16266   -16212   -16155   -16110   -16097   -16105   -16116 
  -16129   -16143   -16158   -16171   -16171   -16164   -16171   -16175 
  -16162   -16143   -16121   -16083   -16039   -15988   -15912   -15820 
  -15720   -15592   -15441   -15288   -15133   -14989   -14871   -14779 
  -14720   -14700   -14705   -14729   -14763   -14794   -14829   -14858 
  -14862   -14854   -14852   -14851   -14836   -14818   -14818   -14831 
  -14851   -14891   -14948   -15001   -15048   -15110   -15186   -15256 
  -15325   -15408   -15507   -15607   -15705   -15790   -15853   -15901 
  -15939   -15948   -15930   -15909   -15890   -15861   -15834   -15816 
  -15800   -15785   -15774   -15769   -15781   -15807   -15839   -15880 
  -15927   -15973   -16012   -16042   -16074   -16114   -16155   -16198 
  -16256   -16308   -16349   -16391   -16409   -16401   -16398   -16391 
  -16376   -16368   -16360   -16351   -16352   -16348   -16322   -16279 
  -16221   -16151   -16075   -15988   -15885   -15788   -15715   -15646 
  -15583   -15549   -15541   -15538   -15546   -15572   -15608   -15647 
  -15692   -15731   -15747   -15749   -15749   -15742   -15720   -15691 
  -15666   -15647   -15634   -15620   -15601   -15581   -15566   -15547 
  -15534   -15533   -15539   -15553   -15570   -15585   -15603   -15623 
  -15630   -15634   -15651   -15670   -15696   -15743   -15792   -15828 
  -15857   -15869   -15863   -15855   -15844   -15827   -15809   -15784 
  -15751   -15716   -15682   -15646   -15607   -15579   -15583   -15614 
  -15661   -15709   -15750   -15776   -15785   -15784   -15777   -15766 
  -15759   -15758   -15772   -15804   -15842   -15881   -15930   -15967 
  -15974   -15967   -15958   -15946   -15944   -15958   -15967   -15962 
  -15938   -15884   -15811   -15738   -15668   -15619   -15601   -15597 
  -15599   -15610   -15615   -15600   -15566   -15522   -15477   -15427 
  -15371   -15319   -15275   -15225   -15179   -15147   -15140   -15153 
  -15175   -15199   -15228   -15263   -15295   -15323   -15349   -15368 
  -15376   -15384   -15392   -15394   -15384   -15371   -15365   -15375 
  -15392   -15415   -15446   -15483   -15523   -15572   -15637   -15716 
  -15784   -15835   -15873   -15880   -15857   -15832   -15812   -15792 
  -15765   -15736   -15722   -15716   -15707   -15691   -15672   -15653 
  -15637   -15635   -15653   -15677   -15711   -15763   -15827   -15893 
  -15957   -16013   -16075   -16137   -16187   -16213   -16218   -16209 
  -16174   -16114   -16052   -15998   -15942   -15876   -15804   -15734 
  -15666   -15600   -15552   -15529   -15523   -15526   -15542   -15572 
  -15603   -15637   -15680   -15727   -15773   -15824   -15874   -15916 
  -15955   -15996   -16025   -16029   -16015   -15988   -15950   -15901 
  -15843   -15786   -15746   -15711   -15687   -15685   -15692   -15703 
  -15727   -15759   -15795   -15830   -15871   -15924   -15977   -16025 
  -16069   -16081   -16063   -16027   -15963   -15892   -15836   -15796 
  -15761   -15734   -15727   -15728   -15723   -15718   -15708   -15680 
  -15657   -15641   -15614   -15584   -15572   -15573   -15581   -15603 
  -15627   -15643   -15664   -15676   -15672   -15660   -15649   -15649 
  -15662   -15685   -15707   -15723   -15742   -15761   -15769   -15778 
  -15793   -15809   -15820   -15822   -15822   -15827   -15840   -15867 
  -15911   -15957   -16005   -16058   -16097   -16123   -16139   -16136 
  -16108   -16069   -16027   -15978   -15927   -15882   -15839   -15797 
  -15759   -15724   -15689   -15653   -15622   -15595   -15579   -15585 
  -15611   -15646   -15684   -15723   -15750   -15761   -15762   -15755 
  -15736   -15709   -15687   -15660   -15624   -15580   -15534   -15489 
  -15441   -15387   -15344   -15306   -15275   -15260   -15260   -15260 
  -15255   -15242   -15214   -15161   -15097   -15029   -14955   -14885 
  -14832   -14798   -14786   -14800   -14829   -14875   -14941   -15013 
  -15075   -15129   -15186   -15249   -15321   -15391   -15462   -15530 
  -15589   -15647   -15705   -15753   -15789   -15823   -15867   -15916 
  -15966   -16020   -16079   -16144   -16205   -16251   -16287   -16316 
  -16333   -16348   -16366   -16374   -16375   -16371   -16359   -16344 
  -16330   -16314   -16298   -16281   -16256   -16228   -16197   -16155 
  -16105   -16058   -16016   -15982   -15954   -15924   -15893   -15858 
  -15812   -15763   -15712   -15649   -15572   -15495   -15426   -15365 
  -15303   -15236   -15171   -15114   -15060   -15006   -14966   -14943 
  -14931   -14936   -14964   -15006   -15055   -15101   -15136   -15180 
  -15214   -15226   -15237   -15252   -15265   -15284   -15317   -15360 
  -15407   -15454   -15500   -15542   -15588   -15654   -15741   -15838 
  -15938   -16040   -16135   -16214   -16293   -16370   -16434   -16490 
  -16529   -16557   -16580   -16595   -16595   -16579   -16555   -16522 
  -16472   -16426   -16378   -16312   -16260   -16221   -16173   -16128 
  -16087   -16038   -15981   -15930   -15885   -15847   -15817   -15803 
