Origin Time       2024/04/02 04:24:00
Lat.              40.133
Long.             141.712
Depth. (km)       71
Mag.              6.0
Station Code      HKD136
Station Lat.      42.5901
Station Long.     140.6441
Station Height(m) 4
Record Time       2024/04/02 04:25:50
Sampling Freq(Hz) 100Hz
Duration Time(s)  60
Dir.              U-D
Scale Factor      7845(gal)/8223790
Max. Acc. (gal)   0.678
Last Correction   2024/04/02 04:25:50
Memo.             
[...]
    6636     6685     6725     6764     6748     6698     6708     6762 
    6783     6764     6728     6678     6624     6577     6556     6600 
    6683     6728     6690     6631     6647     6733     6758     6664 
    6559     6500     6432     6408     6488     6544     6512     6538 
    6635     6669     6677     6760     6833     6845     6863     6832 
    6705     6597     6563     6523     6480     6497     6534     6529 
    6547     6650     6731     6686     6608     6592     6596     6598 
    6640     6701     6716     6705     6758     6855     6876     6810 
    6756     6736     6697     6656     6647     6629     6575     6529 
    6550     6624     6679     6670     6647     6651     6639     6597 
    6590     6642     6683     6681     6687     6735     6723     6582 
    6475     6546     6667     6704     6674     6598     6520     6517 
    6554     6563     6594     6660     6686     6682     6712     6768 
    6806     6779     6718     6693     6662     6575     6550     6621 
    6623     6527     6489     6528     6552     6582     6635     6660 
    6663     6691     6740     6758     6729     6691     6673     6681 
    6691     6648     6598     6620     6667     6682     6678     6651 
    6601     6566     6565     6578     6589     6581     6547     6524 
    6516     6497     6502     6546     6551     6496     6446     6480 
    6613     6760     6824     6822     6816     6816     6839     6860 
    6821     6750     6725     6724     6696     6678     6663     6581 
    6478     6474     6521     6484     6423     6478     6588     6633 
    6636     6639     6616     6573     6590     6640     6606     6555 
    6600     6664     6689     6732     6762     6702     6632     6651 
    6716     6771     6787     6718     6655     6693     6705     6627 
    6589     6589     6525     6475     6525     6559     6505     6501 
    6585     6597     6520     6528     6647     6737     6767     6785 
    6795     6797     6755     6651     6562     6543     6552     6561 
    6593     6633     6632     6596     6574     6593     6624     6612 
    6588     6613     6637     6594     6555     6590     6632     6583 
    6489     6462     6486     6497     6536     6625     6693     6714 
    6723     6743     6812     6925     6982     6934     6843     6770 
    6759     6789     6717     6543     6489     6589     6625     6561 
    6561     6652     6710     6691     6650     6642     6673     6659 
    6570     6534     6558     6507     6413     6421     6517     6590 
    6644     6744     6837     6862     6886     6957     7047     7095 
    7014     6825     6674     6598     6536     6502     6543     6597 
    6596     6590     6594     6536     6462     6488     6569     6566 
    6486     6451     6465     6459     6459     6515     6592     6642 
    6646     6624     6621     6646     6652     6616     6552     6505 
    6520     6613     6729     6779     6768     6774     6791     6791 
    6775     6718     6619     6551     6552     6555     6532     6574 
    6690     6714     6647     6664     6758     6778     6736     6717 
    6690     6590     6466     6388     6351     6334     6361     6424 
    6438     6424     6528     6723     6887     7013     7051     6959 
    6866     6836     6779     6683     6598     6539     6532     6571 
    6610     6644     6678     6686     6655     6594     6504     6417 
    6409     6443     6419     6401     6474     6538     6540     6590 
    6685     6752     6837     6921     6890     6820     6858     6922 
    6848     6693     6642     6687     6687     6652     6664     6700 
    6693     6644     6565     6500     6507     6534     6507     6494 
    6521     6480     6412     6448     6525     6590     6724     6847 
    6836     6812     6851     6841     6805     6847     6871     6774 
    6670     6624     6571     6489     6401     6384     6459     6500 
    6471     6475     6485     6459     6473     6508     6485     6488 
    6575     6625     6627     6694     6775     6762     6714     6728 
    6744     6683     6615     6640     6683     6650     6632     6659 
    6631     6627     6724     6750     6693     6744     6816     6778 
    6764     6802     6748     6658     6662     6689     6677     6690 
    6733     6733     6704     6687     6646     6579     6606     6729 
    6756     6640     6561     6547     6505     6505     6585     6628 
    6627     6654     6679     6691     6748     6810     6812     6789 
    6790     6802     6770     6650     6531     6534     6608     6629 
    6581     6525     6489     6457     6427     6409     6394     6408 
    6463     6528     6590     6643     6660     6644     6654     6708 
    6712     6651     6655     6714     6679     6598     6615     6669 
    6637     6570     6574     6636     6640     6573     6548     6579 
    6546     6448     6412     6438     6474     6552     6648     6697 
    6733     6814     6914     6961     6902     6766     6646     6562 
    6504     6529     6582     6554     6528     6565     6563     6520 
    6561     6655     6663     6616     6588     6528     6462     6500 
    6593     6639     6644     6642     6635     6656     6729     6816 
    6837     6802     6777     6740     6705     6735     6737     6652 
    6621     6693     6731     6702     6709     6744     6714     6636 
    6593     6590     6588     6606     6669     6710     6708     6724 
    6745     6705     6659     6658     6627     6556     6525     6511 
    6465     6448     6528     6647     6710     6720     6739     6741 
    6658     6534     6484     6492     6477     6475     6523     6550 
    6554     6620     6714     6751     6735     6693     6660     6691 
    6729     6712     6702     6716     6673     6593     6581     6629 
    6635     6597     6600     6635     6651     6648     6646     6635 
    6598     6562     6573     6619     6658     6704     6758     6790 
    6812     6799     6729     6683     6694     6685     6651     6644 
    6651     6627     6617     6666     6682     6613     6554     6571 
    6579     6521     6501     6548     6531     6448     6453     6527 
    6559     6604     6725     6825     6813     6714     6610     6567 
    6579     6606     6635     6669     6698     6678     6600     6567 
    6644     6724     6731     6744     6766     6669     6515     6509 
    6604     6608     6551     6552     6592     6616     6673     6754 
    6752     6696     6686     6669     6556     6430     6389     6409 
    6475     6585     6667     6686     6647     6567     6532     6597 
    6701     6728     6662     6600     6608     6643     6670     6700 
    6721     6700     6639     6598     6605     6651     6725     6766 
    6741     6704     6671     6667     6708     6740     6766     6824 
    6844     6810     6806     6828     6790     6700     6640     6648 
    6659     6623     6589     6615     6681     6718     6714     6697 
    6677     6654     6619     6567     6538     6547     6532     6467 
    6430     6465     6500     6502     6548     6615     6583     6536 
    6605     6677     6660     6655     6689     6697     6705     6777 
    6870     6871     6795     6743     6683     6562     6470     6458 
    6465     6486     6534     6562     6571     6597     6617     6633 
    6697     6758     6744     6687     6655     6673     6685     6613 
    6532     6539     6578     6616     6686     6751     6795     6856 
    6864     6787     6729     6693     6606     6525     6512     6548 
    6620     6658     6598     6531     6508     6436     6357     6390 
    6482     6544     6586     6608     6604     6616     6669     6720 
    6701     6620     6574     6559     6494     6453     6523     6589 
    6562     6547     6600     6658     6700     6702     6648     6617 
    6663     6718     6706     6627     6544     6501     6501     6540 
    6570     6565     6569     6585     6571     6544     6554     6573 
    6556     6547     6582     6616     6616     6628     6681     6756 
    6818     6822     6781     6763     6806     6859     6875     6901 
    6991     7063     6990     6876     6867     6821     6617     6412 
    6312     6270     6253     6257     6292     6407     6581     6677 
    6658     6650     6704     6727     6683     6656     6690     6744 
    6770     6763     6725     6667     6625     6605     6598     6623 
    6671     6677     6617     6563     6542     6502     6481     6555 
    6631     6606     6593     6624     6577     6527     6623     6728 
    6694     6628     6662     6732     6731     6712     6739     6735 
    6687     6704     6771     6743     6640     6629     6651     6593 
    6616     6743     6741     6655     6701     6799     6817     6817 
    6790     6697     6669     6714     6698     6660     6682     6666 
    6606     6655     6764     6751     6670     6674     6706     6666 
    6625     6648     6636     6588     6621     6663     6606     6542 
    6527     6513     6492     6484     6520     6588     6625     6662 
    6727     6748     6720     6702     6660     6582     6548     6516 
    6428     6417     6511     6546     6528     6569     6628     6673 
    6739     6791     6799     6810     6844     6851     6801     6741 
    6706     6647     6577     6583     6628     6624     6625     6658 
    6605     6489     6474     6525     6502     6492     6596     6686 
    6673     6659     6700     6679     6548     6436     6431     6494 
    6569     6600     6577     6561     6569     6561     6583     6694 
    6795     6771     6671     6617     6655     6701     6660     6604 
    6644     6725     6748     6731     6725     6735     6721     6662 
    6590     6562     6563     6558     6562     6590     6588     6544 
    6550     6629     6670     6616     6581     6628     6663     6648 
    6678     6732     6716     6690     6724     6713     6617     6550 
    6551     6583     6647     6700     6682     6651     6651     6652 
    6669     6696     6669     6628     6660     6718     6712     6674 
    6647     6588     6497     6440     6443     6511     6621     6691 
    6666     6623     6673     6777     6799     6728     6673     6658 
    6610     6566     6596     6639     6632     6602     6583     6604 
    6681     6783     6882     6944     6926     6849     6771     6727 
    6731     6766     6783     6779     6729     6631     6590     6637 
    6660     6627     6593     6548     6485     6454     6490     6566 
    6602     6569     6547     6579     6598     6601     6628     6660 
    6679     6679     6674     6708     6781     6818     6774     6698 
    6660     6654     6640     6627     6637     6648     6615     6561 
    6551     6620     6736     6794     6767     6736     6741     6754 
    6756     6740     6705     6664     6646     6697     6790     6826 
    6814     6818     6789     6694     6616     6544     6434     6367 
    6373     6372     6377     6416     6451     6484     6529     6585 
    6663     6748     6794     6829     6872     6832     6708     6655 
    6698     6667     6536     6443     6405     6381     6400     6421 
    6412     6423     6474     6534     6559     6554     6563     6604 
    6625     6615     6644     6717     6720     6671     6689     6767 
    6832     6835     6787     6771     6744     6636     6556     6575 
    6605     6583     6502     6404     6397     6501     6592     6570 
    6512     6547     6624     6637     6670     6771     6793     6693 
    6616     6629     6658     6648     6628     6637     6663     6670 
    6664     6655     6647     6643     6605     6520     6474     6492 
    6500     6511     6567     6606     6610     6623     6592     6527 
    6517     6550     6594     6620     6552     6490     6558     6612 
    6555     6535     6617     6683     6697     6740     6816     6851 
    6822     6767     6737     6725     6683     6616     6548     6521 
    6548     6524     6408     6335     6367     6396     6367     6370 
    6458     6590     6706     6779     6835     6918     7002     7014 
    6929     6824     6779     6756     6683     6627     6654     6679 
    6646     6637     6660     6628     6575     6567     6561     6521 
    6484     6458     6436     6416     6403     6434     6501     6548 
    6602     6716     6791     6763     6737     6764     6770     6751 
    6763     6785     6763     6709     6675     6702     6747     6714 
    6625     6585     6569     6485     6361     6286     6272     6239 
    6176     6170     6261     6380     6473     6538     6581     6623 
    6698     6797     6875     6918     6968     7057     7114     7084 
    7061     7076     7007     6860     6741     6639     6516     6417 
    6373     6370     6389     6416     6470     6588     6759     6897 
    6926     6943     7048     7105     7009     6885     6814     6718 
    6593     6517     6486     6477     6521     6597     6643     6678 
    6686     6592     6417     6282     6224     6200     6195     6224 
    6331     6546     6767     6878     6930     6980     6972     6916 
    6845     6762     6693     6616     6500     6467     6579     6639 
    6501     6324     6276     6264     6183     6110     6085     6023 
    5944     5954     6031     6154     6408     6712     6886     7007 
    7190     7298     7257     7246     7311     7288     7146     7013 
    6932     6907     6955     6988     6929     6832     6732     6592 
    6435     6327     6266     6205     6115     6002     5927     5948 
    6034     6184     6451     6786     7020     7090     7117     7211 
    7300     7281     7177     7030     6887     6812     6781     6763 
    6786     6798     6754     6709     6673     6588     6466     6338 
    6199     6085     6077     6139     6188     6242     6297     6300 
    6305     6428     6667     6912     7098     7236     7319     7337 
    7330     7321     7248     7132     7063     6984     6818     6691 
    6678     6615     6411     6211     6115     6079     6083     6154 
    6284     6446     6598     6764     6999     7202     7221     7142 
    7102     7024     6851     6735     6741     6748     6712     6697 
    6662     6561     6462     6409     6439     6590     6704     6623 
    6523     6552     6609     6681     6791     6808     6747     6735 
    6697     6617     6664     6779     6759     6662     6616     6552 
    6408     6278     6259     6334     6442     6517     6484     6392 
    6386     6434     6442     6516     6724     6907     6968     7029 
    7155     7276     7333     7252     6999     6713     6529     6426 
    6367     6354     6340     6301     6268     6250     6301     6490 
    6714     6802     6781     6737     6655     6546     6478     6446 
    6419     6365     6246     6154     6197     6309     6388     6457 
    6548     6639     6706     6744     6750     6763     6818     6848 
    6813     6779     6754     6670     6552     6482     6453     6421 
    6399     6392     6353     6286     6276     6323     6378     6457 
    6581     6723     6840     6902     6933     6987     7061     7069 
    6997     6939     6930     6933     6947     6955     6952     6982 
    7026     7010     6914     6732     6486     6351     6396     6417 
    6353     6397     6570     6720     6851     6967     6970     6890 
    6812     6714     6620     6585     6547     6435     6303     6251 
    6316     6443     6539     6543     6492     6505     6639     6777 
    6843     6898     6910     6766     6554     6444     6399     6362 
    6411     6498     6521     6561     6650     6660     6617     6650 
    6729     6781     6799     6783     6709     6554     6377     6289 
    6277     6270     6277     6262     6207     6228     6355     6450 
    6482     6517     6502     6450     6489     6590     6673     6751 
    6797     6786     6758     6696     6612     6552     6527     6578 
    6689     6733     6723     6739     6759     6750     6710     6623 
    6524     6458     6432     6477     6633     6839     6930     6858 
    6764     6758     6758     6733     6740     6697     6554     6489 
    6563     6637     6674     6700     6694     6664     6620     6575 
    6563     6550     6497     6505     6624     6689     6647     6679 
    6808     6882     6926     7014     7074     7084     7106     7115 
    7024     6775     6458     6258     6228     6234     6187     6189 
    6335     6551     6747     6872     6894     6837     6791     6743 
    6601     6434     6408     6473     6474     6426     6399     6394 
    6463     6621     6733     6737     6728     6759     6804     6841 
    6845     6821     6805     6772     6663     6535     6496     6516 
    6524     6542     6552     6474     6353     6347     6473     6573 
    6583     6601     6660     6736     6871     7045     7125     7082 
    7002     6902     6793     6732     6720     6687     6597     6477 
    6394     6367     6385     6448     6524     6566     6633     6782 
    6937     7037     7060     6994     6903     6841     6775     6727 
    6724     6655     6463     6323     6381     6498     6489     6380 
    6295     6304     6403     6544     6702     6853     6926     6885 
    6818     6806     6793     6750     6723     6659     6512     6411 
    6461     6583     6667     6664     6586     6496     6436     6409 
    6407     6439     6536     6667     6756     6813     6872     6883 
    6856     6885     6895     6777     6644     6640     6713     6804 
    6887     6882     6783     6729     6748     6751     6733     6727 
    6702     6623     6485     6388     6436     6539     6605     6712 
    6856     6913     6907     6928     6943     6886     6741     6563 
    6451     6427     6455     6498     6525     6509     6462     6438 
    6469     6534     6625     6706     6728     6737     6798     6855 
    6837     6789     6725     6543     6259     6073     6052     6104 
    6210     6353     6458     6532     6631     6713     6748     6785 
    6840     6897     7001     7130     7156     7075     6982     6871 
    6758     6716     6710     6666     6590     6471     6319     6269 
    6362     6478     6565     6613     6586     6531     6555     6647 
    6674     6628     6617     6613     6542     6504     6596     6696 
    6639     6496     6463     6531     6542     6480     6436     6412 
    6386     6420     6538     6673     6754     6732     6656     6678 
    6786     6833     6835     6836     6748     6621     6646     6770 
    6789     6731     6704     6632     6505     6484     6586     6655 
    6624     6570     6574     6610     6604     6571     6563     6550 
    6489     6426     6382     6322     6274     6261     6255     6326 
    6481     6577     6579     6604     6714     6853     6947     7011 
    7095     7144     7144     7161     7123     6966     6840     6821 
    6754     6608     6528     6542     6563     6567     6574     6551 
    6466     6392     6428     6525     6589     6639     6697     6690 
    6625     6609     6682     6750     6706     6616     6594     6590 
    6552     6570     6639     6652     6619     6632     6673     6682 
    6679     6682     6669     6604     6517     6497     6512     6450 
    6366     6359     6357     6307     6336     6519     6697     6741 
