Origin Time       2024/04/02 04:24:00
Lat.              40.133
Long.             141.712
Depth. (km)       71
Mag.              6.0
Station Code      HKD100
Station Lat.      42.2864
Station Long.     143.3120
Station Height(m) 36
Record Time       2024/04/02 04:25:47
Sampling Freq(Hz) 100Hz
Duration Time(s)  60
Dir.              N-S
Scale Factor      7845(gal)/8223790
Max. Acc. (gal)   5.544
Last Correction   2024/04/02 04:25:47
Memo.             
[...]
    -765     -932    -1128    -1107     -957     -884     -855     -868 
    -819     -646     -553     -614     -723     -858     -985     -985 
    -791     -452     -133      -95     -434     -916    -1260    -1364 
   -1229     -963     -785     -793     -868     -816     -637     -599 
    -772     -882     -808     -696     -662     -585     -392     -330 
    -530     -788     -981    -1132    -1223    -1227    -1158    -1061 
    -954     -801     -603     -414     -322     -391     -558     -754 
    -997    -1248    -1432    -1539    -1532    -1395    -1173     -888 
    -572     -271       -8      122       27     -156     -236     -261 
    -369     -619     -928    -1121    -1183    -1189    -1209    -1366 
   -1599    -1686    -1476    -1001     -511     -198      -43        1 
     -16      -91     -294     -688    -1252    -1769    -1950    -1730 
   -1325     -954     -716     -625     -552     -483     -486     -499 
    -556     -665     -751     -846     -943    -1005    -1019     -927 
    -751     -587     -511     -542     -639     -804    -1034    -1242 
   -1325    -1251    -1080     -932     -815     -607     -426     -514 
    -753     -908    -1011    -1094    -1129    -1150    -1080     -859 
    -602     -361     -156      -12      116      163        8     -352 
    -788    -1111    -1277    -1399    -1591    -1838    -1922    -1664 
   -1162     -649     -288     -116      -93      -99      -13       78 
      40     -118     -394     -734    -1051    -1339    -1557    -1676 
   -1775    -1814    -1663    -1356     -954     -445       33      230 
     103     -163     -472     -795    -1073    -1340    -1598    -1761 
   -1741    -1393     -788     -283      -90     -103     -101      -64 
    -143     -326     -607    -1035    -1440    -1611    -1555    -1467 
   -1470    -1399    -1069     -672     -545     -645     -693     -589 
    -427     -367     -506     -823    -1209    -1413    -1244     -846 
    -450     -243     -307     -368     -225     -159     -344     -626 
    -828     -882     -909    -1021    -1115    -1131    -1225    -1393 
   -1432    -1266     -932     -573     -318     -218     -326     -465 
    -359      -72       91      -45     -441     -903    -1194    -1286 
   -1332    -1358    -1391    -1432    -1293    -1038     -888     -816 
    -804     -831     -664     -297      -78     -202     -631    -1128 
   -1377    -1417    -1431    -1432    -1412    -1277     -965     -604 
    -322     -189     -209     -325     -430     -444     -433     -473 
    -583     -743     -888     -940     -909     -903     -951    -1007 
   -1096    -1158    -1074     -874     -729     -854    -1196    -1406 
   -1308    -1001     -683     -530     -608     -837     -988     -900 
    -635     -423     -414     -430     -255       -2       63     -139 
    -492     -815    -1039    -1229    -1412    -1576    -1660    -1509 
   -1117     -716     -517     -503     -491     -357     -148       21 
      48     -175     -589     -936    -1131    -1189    -1128    -1054 
   -1024    -1101    -1316    -1529    -1610    -1497    -1177     -796 
    -581     -502     -342     -179      -99      -70     -241     -606 
    -978    -1228    -1197     -992     -936    -1093    -1227    -1119 
    -847     -633     -527     -453     -371     -307     -306     -407 
    -637     -985    -1312    -1408    -1314    -1152     -976     -903 
    -943    -1030    -1105    -1044     -881     -664     -326       75 
     394      514      318     -198     -765    -1100    -1225    -1269 
   -1350    -1478    -1505    -1476    -1506    -1479    -1337    -1085 
    -680     -162      313      495      265     -136     -384     -483 
    -649     -946    -1329    -1692    -1777    -1476    -1071     -889 
    -924     -900     -722     -546     -525     -675     -814     -901 
   -1028     -997     -838     -847     -954    -1007     -912     -648 
    -534     -633     -689     -699     -602     -441     -569     -908 
   -1136    -1179     -997     -720     -599     -611     -684     -839 
   -1012    -1177    -1306    -1263     -980     -479       47      197 
    -140     -679    -1104    -1159     -911     -778     -895    -1036 
   -1098    -1057     -912     -761     -608     -508     -580     -684 
    -703     -772     -976    -1134     -980     -607     -410     -530 
    -780     -955    -1031    -1098    -1135    -1065     -994     -982 
    -905     -837     -938    -1032     -963     -810     -616     -527 
    -565     -484     -275      -59        2     -376    -1038    -1540 
   -1715    -1567    -1286    -1080     -931     -777     -538     -205 
     -17     -155     -527     -912    -1097    -1069     -992     -962 
    -978    -1021    -1048     -988     -801     -604     -550     -675 
    -855     -911     -876     -854     -784     -654     -511     -396 
    -378     -488     -743    -1093    -1359    -1387    -1258    -1200 
   -1254    -1267    -1140     -912     -718     -556     -291       62 
     365      477      359      108     -294     -889    -1490    -1871 
   -1984    -1880    -1640    -1312     -981     -780     -670     -571 
    -506     -486     -572     -768     -858     -699     -337       45 
     233      130     -241     -780    -1350    -1759    -1868    -1782 
   -1555    -1236     -962     -706     -450     -257     -199     -403 
    -750     -920     -916     -965    -1059    -1165    -1282    -1223 
    -994     -753     -469     -291     -321     -297     -197     -265 
    -522     -805     -930     -784     -546     -426     -471     -747 
   -1132    -1395    -1567    -1659    -1640    -1555    -1439    -1210 
    -747     -292     -118     -126     -229     -282     -268     -522 
    -946    -1237    -1445    -1486    -1293    -1051     -741     -405 
    -197       -5       89     -151     -610    -1067    -1345    -1426 
   -1491    -1514    -1327     -957     -591     -398     -382     -436 
    -535     -691     -800     -772     -704     -765     -939    -1026 
    -882     -714     -664     -556     -471     -573     -718     -897 
   -1055    -1127    -1341    -1611    -1669    -1580    -1285     -683 
     -35      429      576      349       25     -295     -731    -1179 
   -1567    -1773    -1613    -1264     -988     -823     -788     -874 
    -988    -1104    -1162     -996     -712     -491     -233      -18 
     -39     -195     -338     -441     -631    -1117    -1711    -1942 
   -1764    -1404     -981     -656     -434     -247     -184     -213 
    -282     -491     -838    -1254    -1598    -1698    -1632    -1483 
   -1100     -472      101      369      341      194       27     -201 
    -498     -855    -1225    -1489    -1645    -1764    -1799    -1626 
   -1159     -517       14      221       64     -367     -939    -1433 
   -1679    -1671    -1447    -1129     -804     -464     -175      -32 
     -81     -197     -243     -329     -568     -950    -1363    -1582 
   -1485    -1070     -465      -25      -78     -556    -1104    -1422 
   -1425    -1277    -1062     -772     -641     -696     -645     -453 
    -303     -467     -939    -1267    -1316    -1285    -1216    -1112 
    -889     -585     -444     -418     -338     -345     -519     -714 
    -905    -1012     -854     -692     -788     -926    -1102    -1413 
   -1587    -1466    -1058     -531     -240     -159     -125     -251 
    -562     -951    -1258    -1320    -1190     -931     -568     -292 
    -256     -449     -780    -1059    -1182    -1188    -1073     -932 
    -957    -1074     -994     -691     -396     -187      -76     -221 
    -611    -1043    -1285    -1248    -1208    -1231     -970     -453 
     -44       40     -224     -585     -781     -788     -762     -943 
   -1236    -1374    -1439    -1530    -1571    -1499    -1310     -999 
    -544      -51      211       87     -205     -413     -641     -984 
   -1333    -1475    -1340    -1267    -1312    -1165     -851     -432 
     -17      114       47     -112     -388     -616     -783    -1034 
   -1306    -1343    -1055     -685     -461     -440     -583     -757 
    -904    -1032    -1124    -1217    -1291    -1182     -912     -716 
    -723     -935    -1197    -1298    -1225    -1001     -668     -378 
    -130      136      260      112     -220     -718    -1314    -1802 
   -2007    -1802    -1371    -1046     -851     -704     -425       20 
     322      383      230     -224     -769    -1101    -1278    -1472 
   -1628    -1534    -1196     -916     -878     -989    -1150    -1260 
   -1174     -926     -772     -861    -1063    -1177    -1063     -778 
    -488     -168       87       55      -91     -202     -371     -548 
    -776     -972     -862     -602     -394     -267     -334     -469 
    -575     -810    -1031    -1219    -1539    -1784    -1911    -1853 
   -1399    -1035    -1023     -958     -837     -783     -789     -824 
    -648     -345     -288     -522     -792     -869     -839     -822 
    -657     -386     -337     -621    -1004    -1178    -1127    -1080 
   -1092    -1008     -773     -544     -378     -245     -298     -595 
   -1004    -1345    -1466    -1372    -1167     -922     -594     -178 
     112      232      248       52     -336     -760    -1094    -1340 
   -1584    -1827    -2066    -2187    -1942    -1379     -751     -294 
     -75       51      167      252      319      314      113     -324 
    -788    -1054    -1282    -1750    -2363    -2791    -2772    -2268 
   -1537     -838     -270       51      132      160      311      522 
     542      352      183       95      -60     -440    -1031    -1553 
   -1823    -1911    -1813    -1584    -1443    -1463    -1502    -1350 
   -1007     -594     -121      373      770      915      710      203 
    -491    -1197    -1721    -2076    -2332    -2419    -2253    -1819 
   -1194     -618     -342     -341     -371     -298     -178      -94 
    -148     -405     -707     -822     -645     -305      -97     -113 
    -297     -633    -1129    -1809    -2421    -2624    -2434    -1987 
   -1359     -618      112      562      560      195     -286     -766 
   -1359    -2035    -2415    -2170    -1406     -422      568     1386 
    1884     1834     1179      270     -716    -1887    -2971    -3468 
   -3291    -2635    -1779    -1080     -638     -407     -373     -396 
    -411     -515     -703     -878     -927     -888     -931    -1038 
   -1044     -804     -303      137      168     -180     -625     -869 
    -854     -784     -773     -824     -994    -1086     -789     -298 
      37      210      236       81     -283     -957    -1703    -2191 
   -2450    -2343    -1698     -834     -128      221      152     -209 
    -803    -1603    -2432    -3073    -3222    -2673    -1705     -804 
    -209       76      116       74      216      629     1085     1197 
     818      247     -187     -361     -282     -209     -552    -1410 
   -2442    -3156    -3261    -2718    -1621     -341      575      945 
     839      365     -187     -660    -1158    -1765    -2432    -2893 
   -2901    -2531    -2020    -1553    -1139     -666     -152      352 
     795     1043     1084     1152     1404     1557     1244      467 
    -641    -1879    -2957    -3663    -3885    -3890    -3948    -3622 
   -2473     -857      460     1082     1283     1486     1837     2151 
    2039     1219     -325    -2066    -3049    -2840    -1872     -835 
    -310     -594    -1328    -1931    -2101    -1787    -1343    -1154 
   -1155    -1089     -612      399     1490     2118     2253     2050 
    1424      319    -1148    -2808    -4172    -4766    -4671    -4124 
   -3245    -2188    -1011      109      873     1201     1009      299 
    -634    -1421    -1718    -1413     -777     -124      460      881 
     938      591     -128    -1205    -2438    -3489    -3947    -3460 
   -2080     -426      656      876      550       17     -388     -405 
     -14      653     1201     1227      900      619      364     -243 
   -1456    -2957    -3982    -4101    -3445    -2354    -1224     -305 
     217      206      -78     -550    -1344    -2020    -2056    -1432 
    -642     -452     -899    -1308    -1402    -1233     -727     -176 
     -56     -222     -288      -62      399      623      333     -306 
   -1175    -1972    -2266    -2057    -1688    -1360     -953     -313 
     484     1225     1607     1475      930      221     -351     -657 
    -822    -1019    -1336    -1732    -2043    -2251    -2440    -2489 
   -2266    -1838    -1437    -1382    -1647    -1894    -1958    -1910 
   -1800    -1437     -669      344     1414     2308     2628     2188 
    1223       89    -1101    -2403    -3603    -4131    -3622    -2380 
   -1016       10      540      757      841      696      201     -630 
   -1659    -2671    -3287    -3051    -2153    -1341     -934     -639 
     106     1422     2604     3018     2520     1254     -382    -1944 
   -3049    -3597    -3793    -3765    -3408    -2486    -1179     -206 
      79     -141     -614    -1050    -1258    -1132     -475      585 
    1424     1675     1470      932      175     -534     -899     -876 
   -1016    -1871    -3011    -3608    -3461    -2791    -1914    -1094 
    -274      537     1055     1217     1069      675      373      274 
      31     -614    -1529    -2138    -1975    -1483    -1314    -1463 
   -1679    -1680    -1282     -606      213      984     1435     1537 
    1448     1074       12    -1826    -4010    -5873    -6608    -5764 
   -3661    -1194      756     1865     2235     2182     2101     1962 
    1441      490     -638    -1575    -2149    -2459    -2575    -2506 
   -2112    -1247      -72     1200     2154     2095      908     -810 
   -2369    -3276    -3534    -3457    -3024    -1968     -353     1553 
    3257     3794     2898     1391      -45    -1017    -1503    -2158 
   -3350    -4750    -5644    -5316    -3798    -1906     -463      261 
     568      996     1784     2470     2336     1208     -298    -1263 
   -1329     -857     -398     -346     -797    -1579    -2327    -2691 
   -2586    -2189    -1733    -1250     -723     -274      190      808 
    1314     1325      639     -546    -1420    -1506    -1181     -804 
    -603     -808    -1298    -1729    -1837    -1621    -1336    -1151 
    -993     -788     -523     -270     -400    -1143    -2012    -2328 
   -1857     -868       67      481      274     -372     -994    -1221 
   -1190    -1240    -1463    -1620    -1360     -631      263      931 
    1024      409     -614    -1491    -1891    -1973    -2079    -2155 
   -1856    -1146     -380       18       17       37      288      560 
     572      133     -723    -1729    -2558    -3044    -3231    -3076 
   -2511    -1544     -240      965     1507     1243      375     -646 
   -1333    -1543    -1371     -961     -495     -147      -20      -60 
     -48      102      189       89      -87     -326     -838    -1771 
   -2889    -3681    -3867    -3416    -2266     -726      402      662 
     276     -102      144      904     1594     1826     1382      430 
    -386     -834    -1383    -2467    -3912    -5058    -5347    -4734 
   -3493    -1954     -480      657     1568     2465     3126     3180 
    2473     1286      259     -472    -1259    -2104    -2824    -3245 
   -3285    -3130    -2948    -2737    -2350    -1520     -357      457 
     379     -392    -1101    -1124     -579      -52      170      249 
     364      561      787      770      295     -513    -1358    -1777 
   -1540    -1065     -801     -670     -383       24      248        1 
    -842    -1869    -2506    -2631    -2365    -2096    -2126    -2154 
   -1792     -934      180     1147     1879     2303     2149     1378 
     211     -985    -1833    -2211    -2295    -2272    -2126    -1784 
   -1422    -1390    -1807    -2458    -2972    -2925    -2134     -791 
     756     1950     2389     2166     1471      560     -259     -924 
   -1416    -1773    -2138    -2450    -2506    -2251    -1710     -835 
     330     1495     2350     2559     1852      600     -693    -2052 
   -3449    -4571    -5105    -4776    -3480    -1572      205     1235 
    1399     1147     1088     1098      499     -673    -1660    -1988 
   -1696    -1227     -985     -847     -749     -783     -708     -535 
    -460     -338     -272     -264       44      386      264     -275 
   -1050    -1815    -2367    -2808    -3167    -3271    -3134    -2839 
   -2365    -1880    -1333     -329     1098     2597     3829     4317 
    3917     2841     1271     -369    -1629    -2469    -2941    -3196 
   -3468    -3628    -3673    -3809    -3844    -3622    -3141    -2272 
   -1300     -604       24      830     1856     3057     3948     4078 
    3549     2546     1209     -252    -1777    -3200    -4205    -4634 
   -4421    -3661    -2691    -1796    -1243    -1063     -753      -43 
     631      919      733      156     -353     -619     -849    -1113 
   -1526    -1956    -1914    -1439     -922     -475     -247     -294 
    -337     -333     -507     -946    -1633    -2282    -2354    -1698 
    -621      506     1193     1220      922      444     -136     -564 
    -970    -1445    -1860    -2196    -2209    -1823    -1341     -861 
    -373      101      515      666      386     -284    -1098    -1783 
   -2259    -2628    -2899    -2933    -2675    -2026     -880      561 
    1907     2660     2509     1768     1000      334     -421    -1196 
   -1737    -1964    -1881    -1633    -1350    -1012     -781     -800 
    -954    -1109    -1240    -1433    -1651    -1713    -1548    -1134 
    -541      -64      174      314      361      153     -456    -1336 
   -1987    -2053    -1648    -1146     -801     -657     -627     -430 
      95      595      652      228     -461    -1183    -1903    -2570 
   -2945    -2933    -2515    -1566     -214     1082     1921     2164 
    1903     1206       85    -1219    -2289    -2918    -3165    -3237 
   -3262    -3021    -2205     -831      672     1656     1825     1343 
     515     -291     -935    -1474    -1794    -1841    -1706    -1418 
   -1100     -830     -504      -83      365      742      886      699 
     210     -560    -1422    -1972    -2047    -1904    -1952    -2268 
   -2616    -2848    -2866    -2658    -2285    -1669     -727      500 
    1809     2754     2941     2421     1642     1007      527      -76 
    -930    -1898    -3013    -4194    -4939    -4972    -4469    -3742 
   -3073    -2434    -1642     -826     -145      407      839     1213 
    1656     2104     2219     1674      629     -395    -1112    -1540 
   -1829    -2174    -2525    -2691    -2666    -2351    -1629     -604 
     526     1409     1665     1390     1008      711      405       29 
    -461    -1080    -1729    -2373    -2767    -2581    -1934    -1061 
    -125      627     1081     1251     1119      603     -315    -1489 
   -2560    -3145    -3118    -2596    -1857    -1262     -915     -681 
    -507     -464     -646    -1016    -1336    -1436    -1317     -899 
    -124      664     1030      888      288     -625    -1576    -2315 
   -2687    -2627    -2166    -1420     -429      700     1641     2141 
    2142     1695      907     -129    -1327    -2513    -3473    -3983 
