Origin Time       2024/04/02 04:24:00
Lat.              40.133
Long.             141.712
Depth. (km)       71
Mag.              6.0
Station Code      HKD161
Station Lat.      41.6800
Station Long.     140.4329
Station Height(m) 4
Record Time       2024/04/02 04:25:32
Sampling Freq(Hz) 100Hz
Duration Time(s)  82
Dir.              N-S
Scale Factor      7845(gal)/8223790
Max. Acc. (gal)   4.991
Last Correction   2024/04/02 04:25:32
Memo.             
[...]
     217      410      515      541      506      400      218      -18 
    -280     -540     -758     -903     -967     -980     -980    -1001 
   -1043    -1088    -1134    -1169    -1147    -1071    -1003    -1005 
   -1105    -1269    -1410    -1466    -1466    -1470    -1475    -1483 
   -1551    -1714    -1942    -2158    -2292    -2309    -2238    -2151 
   -2095    -2053    -1993    -1915    -1831    -1738    -1637    -1521 
   -1385    -1244    -1102     -955     -847     -838     -918    -1038 
   -1183    -1332    -1428    -1431    -1351    -1232    -1109     -982 
    -842     -679     -499     -349     -288     -315     -376     -425 
    -438     -410     -359     -298     -213      -86       47      106 
      28     -170     -407     -611     -768     -888     -993    -1125 
   -1323    -1574    -1822    -2016    -2126    -2150    -2106    -2008 
   -1908    -1879    -1935    -2020    -2072    -2085    -2089    -2095 
   -2080    -2042    -2004    -1953    -1833    -1602    -1302    -1048 
    -919     -892     -919     -962     -959     -864     -704     -569 
    -531     -598     -729     -877    -1003    -1077    -1094    -1066 
   -1038    -1042    -1066    -1067    -1013     -907     -764     -591 
    -405     -210      -25       86       58     -121     -379     -615 
    -797     -958    -1136    -1323    -1458    -1479    -1382    -1231 
   -1113    -1047     -997     -938     -868     -812     -797     -823 
    -895    -1011    -1146    -1237    -1233    -1128     -981     -900 
    -951    -1092    -1229    -1325    -1379    -1420    -1489    -1580 
   -1644    -1615    -1468    -1242    -1007     -841     -785     -832 
    -945    -1074    -1194    -1304    -1393    -1420    -1347    -1178 
    -951     -719     -534     -430     -400     -399     -384     -376 
    -426     -587     -868    -1173    -1382    -1466    -1495    -1560 
   -1671    -1756    -1752    -1663    -1501    -1277    -1062     -951 
    -947     -985    -1023    -1035    -1011     -970     -930     -882 
    -853     -855     -855     -846     -881    -1035    -1341    -1746 
   -2112    -2331    -2382    -2303    -2137    -1914    -1641    -1344 
   -1075     -876     -784     -843    -1023    -1223    -1362    -1409 
   -1371    -1281    -1167    -1043     -918     -832     -814     -841 
    -899     -974    -1042    -1119    -1251    -1431    -1593    -1668 
   -1611    -1449    -1252    -1075     -938     -849     -805     -772 
    -704     -622     -607     -726     -936    -1117    -1193    -1152 
   -1020     -834     -646     -533     -542     -665     -842    -1001 
   -1111    -1189    -1220    -1156     -980     -695     -344      -21 
     202      325      361      342      291      180      -37     -384 
    -819    -1240    -1576    -1827    -2006    -2089    -2061    -1953 
   -1786    -1578    -1395    -1302    -1366    -1632    -2049    -2494 
   -2840    -2990    -2928    -2722    -2452    -2200    -2049    -2027 
   -2085    -2162    -2222    -2261    -2263    -2200    -2061    -1860 
   -1602    -1270     -873     -436        0      378      638      747 
     727      631      511      425      400      425      477      523 
     535      511      453      344      190       63      -13     -116 
    -319     -635     -989    -1262    -1367    -1305    -1162    -1057 
   -1043    -1120    -1279    -1525    -1840    -2199    -2560    -2840 
   -2968    -2968    -2918    -2867    -2803    -2705    -2565    -2389 
   -2197    -2034    -1969    -2012    -2084    -2108    -2042    -1895 
   -1715    -1529    -1337    -1156    -1007     -876     -710     -460 
    -163       83      218      217       86     -114     -280     -338 
    -272     -122       43      168      240      253      190       52 
    -112     -268     -419     -603     -839    -1111    -1372    -1584 
   -1705    -1698    -1579    -1431    -1351    -1398    -1544    -1706 
   -1834    -1917    -1979    -2066    -2181    -2269    -2307    -2309 
   -2261    -2137    -1973    -1861    -1852    -1923    -2008    -2050 
   -2014    -1872    -1633    -1372    -1179    -1080    -1012     -874 
    -616     -313      -83       31       54       14      -44     -108 
    -179     -252     -315     -360     -380     -405     -472     -564 
    -621     -618     -556     -450     -349     -334     -430     -577 
    -695     -722     -656     -569     -552     -623     -741     -838 
    -876     -882     -919    -1005    -1104    -1173    -1212    -1244 
   -1283    -1317    -1339    -1360    -1399    -1483    -1634    -1852 
   -2099    -2335    -2519    -2605    -2567    -2430    -2254    -2088 
   -1930    -1763    -1580    -1382    -1197    -1081    -1071    -1163 
   -1296    -1391    -1413    -1360    -1258    -1131     -974     -768 
    -519     -280     -116      -71     -132     -232     -311     -356 
    -384     -419     -444     -395     -256      -91       29       62 
     -44     -291     -614     -920    -1121    -1188    -1175    -1152 
   -1150    -1156    -1134    -1063     -945     -799     -685     -641 
    -653     -714     -808     -907    -1036    -1247    -1543    -1881 
   -2205    -2452    -2594    -2652    -2667    -2656    -2640    -2646 
   -2667    -2682    -2687    -2670    -2601    -2444    -2176    -1830 
   -1470    -1132     -865     -710     -662     -689     -738     -753 
    -715     -646     -607     -660     -783     -884     -889     -785 
    -595     -364     -136       39      114       98       62       56 
      70       54      -12     -112     -206     -259     -261     -241 
    -236     -268     -356     -529     -787    -1092    -1398    -1680 
   -1937    -2169    -2361    -2513    -2656    -2791    -2902    -2986 
   -3026    -2965    -2770    -2498    -2258    -2114    -2047    -2003 
   -1929    -1813    -1678    -1552    -1416    -1240    -1027     -770 
    -468     -152      144      405      589      652      611      525 
     440      394      387      367      292      160      -14     -180 
    -279     -286     -234     -203     -257     -402     -585     -747 
    -878    -1012    -1173    -1336    -1486    -1641    -1794    -1894 
   -1906    -1841    -1732    -1624    -1553    -1539    -1582    -1656 
   -1703    -1692    -1660    -1657    -1701    -1765    -1804    -1779 
   -1696    -1599    -1503    -1420    -1383    -1409    -1464    -1502 
   -1474    -1359    -1221    -1148    -1163    -1248    -1359    -1447 
   -1497    -1507    -1444    -1301    -1139    -1028     -992    -1005 
   -1004     -918     -710     -405     -124       -2      -63     -243 
    -463     -660     -793     -850     -869     -911    -1015    -1193 
   -1416    -1599    -1699    -1763    -1856    -1993    -2138    -2214 
   -2173    -2066    -1975    -1896    -1796    -1692    -1599    -1487 
   -1336    -1169    -1007     -881     -827     -834     -870     -947 
   -1062    -1185    -1263    -1235    -1067     -781     -449     -166 
       0       14      -91     -237     -386     -545     -699     -814 
    -861     -847     -818     -778     -681     -521     -380     -338 
    -413     -589     -845    -1120    -1354    -1513    -1603    -1648 
   -1680    -1733    -1790    -1814    -1818    -1830    -1854    -1898 
   -1954    -1979    -1953    -1903    -1807    -1641    -1420    -1166 
    -895     -633     -406     -263     -255     -394     -657     -994 
   -1318    -1540    -1614    -1545    -1389    -1221    -1097    -1028 
    -992     -949     -865     -741     -607     -476     -315     -122 
      47      160      229      256      234      145        8     -113 
    -178     -210     -278     -425     -646     -920    -1232    -1552 
   -1814    -1960    -1964    -1848    -1672    -1487    -1318    -1196 
   -1152    -1212    -1374    -1599    -1830    -2012    -2114    -2126 
   -2054    -1931    -1788    -1634    -1487    -1393    -1382    -1441 
   -1529    -1601    -1602    -1505    -1314    -1044     -735     -463 
    -309     -299     -372     -436     -437     -368     -247     -109 
      12       93      116       90       40        0      -10       -8 
     -39     -147     -346     -614     -919    -1237    -1525    -1721 
   -1777    -1707    -1587    -1499    -1470    -1476    -1479    -1467 
   -1458    -1470    -1512    -1580    -1659    -1737    -1817    -1910 
   -2031    -2188    -2342    -2447    -2520    -2574    -2571    -2516 
   -2424    -2282    -2115    -1953    -1772    -1536    -1246     -951 
    -685     -411     -102      183      387      465      400      236 
      39     -162     -338     -460     -534     -604     -707     -850 
   -1008    -1148    -1244    -1305    -1343    -1354    -1318    -1229 
   -1098     -951     -810     -702     -637     -611     -621     -662 
    -751     -882    -1011    -1104    -1181    -1291    -1463    -1679 
   -1887    -2062    -2245    -2457    -2651    -2770    -2801    -2752 
   -2616    -2397    -2150    -1968    -1904    -1922    -1921    -1834 
   -1694    -1563    -1448    -1345    -1283    -1273    -1286    -1306 
   -1293    -1198    -1034     -859     -702     -571     -475     -402 
    -346     -284     -174      -25      108      207      299      395 
     487      557      565      490      353      167      -74     -352 
    -680    -1082    -1526    -1981    -2430    -2816    -3100    -3285 
   -3350    -3314    -3238    -3152    -3057    -3005    -3041    -3136 
   -3218    -3215    -3069    -2810    -2524    -2265    -2062    -1923 
   -1796    -1606    -1341    -1027     -681     -351      -89       89 
     217      352      517      668      726      633      386       66 
    -220     -395     -442     -426     -441     -517     -618     -716 
    -796     -838     -832     -781     -712     -695     -765     -866 
    -931     -954     -955     -942     -900     -824     -745     -715 
    -774     -923    -1140    -1387    -1605    -1752    -1817    -1787 
   -1652    -1452    -1260    -1131    -1116    -1227    -1440    -1768 
   -2178    -2551    -2808    -2957    -2961    -2781    -2435    -1941 
   -1362     -824     -419     -183      -91     -103     -180     -272 
    -324     -299     -159      113      468      797      994     1046 
    1001      903      797      716      625      508      400      298 
     191      109       36      -64     -193     -333     -448     -500 
    -496     -476     -496     -614     -827    -1084    -1327    -1502 
   -1587    -1609    -1621    -1636    -1594    -1444    -1204     -927 
    -704     -623     -697     -870    -1096    -1358    -1640    -1921 
   -2176    -2343    -2404    -2416    -2413    -2400    -2434    -2544 
   -2682    -2795    -2824    -2701    -2451    -2180    -1934    -1667 
   -1323     -896     -434      -62       79      -21     -294     -684 
   -1096    -1405    -1536    -1441    -1146     -784     -461     -179 
      56      201      256      288      357      490      676      854 
     945      878      626      244     -136     -423     -602     -734 
    -930    -1240    -1648    -2092    -2477    -2733    -2866    -2933 
   -2987    -3026    -2987    -2813    -2515    -2161    -1825    -1560 
   -1395    -1324    -1304    -1296    -1296    -1290    -1242    -1125 
    -935     -706     -515     -413     -409     -473     -523     -495 
    -395     -267     -167     -160     -270     -460     -688     -882 
    -970     -958     -913     -869     -827     -805     -824     -926 
   -1151    -1467    -1771    -2004    -2162    -2262    -2354    -2475 
   -2601    -2689    -2737    -2791    -2895    -3053    -3215    -3318 
   -3330    -3264    -3130    -2911    -2609    -2253    -1871    -1486 
   -1129     -842     -672     -637     -693     -769     -822     -824 
    -739     -564     -329      -76      166      406      660      881 
     978      896      625      207     -271     -720    -1063    -1248 
   -1250    -1085     -807     -465     -102      236      502      669 
     724      664      499      253      -51     -379     -669     -903 
   -1132    -1441    -1856    -2331    -2787    -3140    -3353    -3451 
   -3524    -3676    -3909    -4079    -4056    -3840    -3500    -3100 
   -2690    -2277    -1853    -1448    -1109     -878     -799     -915 
   -1232    -1713    -2268    -2735    -2956    -2878    -2546    -2049 
   -1480     -931     -452      -22      391      789     1169     1522 
    1813     2002     2079     2029     1903     1806     1775     1782 
    1761     1620     1285      792      256     -207     -531     -739 
    -915    -1088    -1236    -1355    -1422    -1386    -1228     -985 
    -716     -506     -425     -504     -762    -1185    -1694    -2199 
   -2650    -3044    -3431    -3858    -4295    -4665    -4923    -5062 
   -5105    -5132    -5223    -5348    -5428    -5375    -5135    -4737 
   -4280    -3811    -3298    -2722    -2108    -1487     -903     -382 
      81      473      733      823      772      629      494      488 
     656      959     1336     1701     1983     2176     2309     2424 
    2560     2698     2749     2693     2573     2407     2236     2122 
    2049     1950     1765     1462     1069      680      390      213 
      94      -40     -249     -533     -838    -1113    -1312    -1401 
   -1389    -1345    -1347    -1433    -1594    -1779    -1929    -2029 
   -2108    -2192    -2327    -2560    -2866    -3187    -3504    -3801 
   -4060    -4276    -4449    -4612    -4826    -5104    -5417    -5761 
   -6096    -6315    -6335    -6141    -5725    -5098    -4301    -3387 
   -2488    -1753    -1225     -880     -699     -591     -422     -118 
     375     1062     1830     2532     3088     3434     3505     3331 
    2986     2494     1894     1250      615       63     -297     -392 
    -226      144      600     1015     1313     1466     1471     1336 
    1065      654      126     -441     -966    -1422    -1818    -2180 
   -2566    -2994    -3406    -3740    -3950    -4000    -3888    -3628 
   -3257    -2847    -2492    -2209    -1948    -1688    -1485    -1406 
   -1483    -1669    -1849    -1942    -1988    -2060    -2189    -2371 
   -2606    -2903    -3283    -3716    -4113    -4364    -4375    -4124 
   -3667    -3052    -2317    -1557     -834     -162      429      957 
    1475     1952     2286     2425     2357     2080     1690     1291 
     862      364     -174     -677    -1059    -1239    -1189     -940 
    -553      -95      369      801     1135     1312     1314     1181 
     931      556       59     -506    -1054    -1491    -1775    -1921 
   -1998    -2106    -2303    -2585    -2921    -3262    -3539    -3677 
   -3612    -3316    -2826    -2239    -1671    -1240    -1031    -1035 
   -1170    -1336    -1432    -1395    -1242    -1043     -876     -803 
    -864    -1032    -1200    -1240    -1082     -738     -294      139 
     523      868     1178     1455     1687     1848     1918     1890 
    1748     1493     1162      770      322     -121     -519     -876 
   -1181    -1420    -1606    -1736    -1788    -1749    -1602    -1391 
   -1220    -1200    -1443    -1945    -2542    -3049    -3354    -3376 
   -3087    -2538    -1871    -1273     -903     -839    -1027    -1354 
   -1723    -2034    -2235    -2397    -2609    -2879    -3196    -3504 
   -3653    -3538    -3173    -2632    -2029    -1467     -950     -484 
    -121      141      324      373      261       36     -230     -442 
    -496     -400     -272     -252     -432     -823    -1324    -1814 
   -2211    -2458    -2548    -2486    -2261    -1892    -1451    -1043 
    -757     -581     -438     -284     -147      -91     -190     -449 
    -774    -1021    -1086     -932     -643     -382     -259     -252 
    -259     -214     -129      -62      -98     -290     -592     -905 
   -1123    -1188    -1128    -1058    -1111    -1340    -1703    -2130 
   -2535    -2856    -3086    -3230    -3300    -3337    -3365    -3373 
   -3304    -3096    -2767    -2416    -2143    -1983    -1945    -2007 
   -2072    -2064    -2008    -1968    -1983    -2058    -2143    -2150 
   -2014    -1741    -1374     -953     -518     -106      209      346 
     318      228      168      166      206      268      338      417 
     526      687      903     1136     1339     1506     1649     1740 
    1702     1485     1108      683      317       25     -232     -460 
    -625     -702     -708     -706     -770     -959    -1267    -1634 
   -1996    -2276    -2430    -2475    -2479    -2471    -2416    -2276 
   -2033    -1675    -1239     -824     -560     -544     -787    -1188 
   -1590    -1871    -2010    -2070    -2139    -2270    -2461    -2632 
   -2667    -2520    -2257    -1984    -1814    -1833    -2030    -2265 
   -2354    -2178    -1742    -1162     -635     -333     -267     -326 
    -400     -421     -388     -361     -411     -568     -823    -1124 
   -1382    -1497    -1395    -1067     -568        1      500      820 
     977     1081     1251     1522     1837     2087     2153     1964 
    1543      982      402     -112     -544     -930    -1313    -1710 
   -2101    -2440    -2683    -2822    -2914    -3037    -3214    -3397 
   -3524    -3578    -3607    -3663    -3761    -3869    -3969    -4064 
   -4164    -4267    -4352    -4391    -4337    -4128    -3770    -3364 
   -2984    -2655    -2392    -2196    -2047    -1912    -1730    -1453 
   -1085     -660     -214      228      618      878      985      997 
     988      967      927      892      888      920      993     1102 
    1248     1482     1856     2320     2748     3019     3072     2938 
    2708     2435     2108     1692     1167      529     -202     -986 
   -1782    -2533    -3194    -3724    -4105    -4364    -4569    -4753 
   -4882    -4892    -4738    -4423    -3987    -3504    -3065    -2710 
   -2438    -2222    -2057    -1965    -1937    -1894    -1771    -1553 
   -1279    -1028     -877     -839     -866     -897     -900     -868 
    -828     -797     -768     -727     -658     -549     -386     -148 
     139      375      484      477      410      340      309      321 
     336      298      182        6     -172     -287     -328     -369 
    -486     -691     -954    -1248    -1557    -1856    -2088    -2203 
   -2191    -2089    -1958    -1864    -1858    -1937    -2046    -2172 
   -2311    -2430    -2481    -2446    -2373    -2350    -2420    -2560 
   -2751    -2999    -3280    -3508    -3632    -3680    -3672    -3574 
   -3358    -3025    -2587    -2050    -1459     -900     -436      -72 
     233      544      909     1341     1773     2084     2193     2119 
    1937     1684     1372     1043      757      542      386      274 
     216      226      291      373      440      464      423      307 
     102     -190     -506     -784    -1038    -1287    -1512    -1669 
   -1753    -1769    -1728    -1624    -1464    -1286    -1131    -1007 
    -923     -882     -859     -823     -741     -611     -471     -387 
    -440     -670    -1044    -1458    -1814    -2092    -2311    -2500 
   -2698    -2911    -3100    -3227    -3300    -3318    -3253    -3099 
   -2878    -2606    -2285    -1898    -1440     -976     -600     -399 
    -400     -545     -750     -986    -1251    -1532    -1800    -2026 
   -2170    -2185    -2049    -1811    -1583    -1463    -1471    -1536 
