Origin Time       2024/04/02 04:24:00
Lat.              40.133
Long.             141.712
Depth. (km)       71
Mag.              6.0
Station Code      HKD124
Station Lat.      42.9986
Station Long.     141.7903
Station Height(m) 38
Record Time       2024/04/02 04:25:58
Sampling Freq(Hz) 100Hz
Duration Time(s)  60
Dir.              N-S
Scale Factor      7845(gal)/8223790
Max. Acc. (gal)   2.454
Last Correction   2024/04/02 04:25:58
Memo.             
[...]
    8419     8406     8375     8332     8286     8263     8274     8294 
    8321     8343     8336     8318     8307     8278     8233     8201 
    8210     8268     8341     8387     8394     8364     8303     8226 
    8143     8058     7993     7978     8044     8163     8248     8264 
    8240     8206     8198     8225     8256     8270     8278     8309 
    8386     8491     8565     8559     8484     8403     8353     8348 
    8378     8407     8429     8465     8507     8525     8511     8457 
    8360     8275     8247     8267     8309     8351     8397     8459 
    8532     8591     8588     8499     8363     8232     8147     8140 
    8203     8295     8388     8467     8507     8505     8471     8397 
    8289     8213     8210     8278     8388     8491     8552     8556 
    8484     8349     8199     8083     8029     8046     8121     8222 
    8302     8336     8318     8255     8187     8159     8179     8243 
    8340     8440     8518     8546     8487     8351     8193     8071 
    8050     8166     8371     8556     8617     8549     8424     8321 
    8289     8320     8368     8394     8380     8322     8233     8172 
    8198     8307     8426     8476     8445     8361     8257     8181 
    8162     8197     8259     8294     8294     8306     8329     8330 
    8317     8294     8263     8237     8209     8193     8221     8280 
    8336     8365     8341     8264     8164     8071     8036     8089 
    8217     8406     8598     8716     8718     8602     8430     8284 
    8194     8152     8159     8194     8230     8275     8343     8436 
    8532     8586     8567     8487     8379     8283     8224     8209 
    8240     8301     8360     8421     8467     8471     8430     8353 
    8256     8176     8143     8158     8208     8255     8264     8249 
    8259     8330     8429     8484     8459     8355     8221     8125 
    8090     8120     8214     8313     8352     8343     8313     8274 
    8235     8203     8179     8172     8198     8279     8417     8567 
    8650     8623     8503     8348     8217     8159     8172     8217 
    8270     8324     8368     8386     8356     8284     8221     8222 
    8310     8441     8559     8615     8572     8465     8374     8328 
    8324     8321     8286     8252     8267     8310     8345     8356 
    8330     8303     8316     8364     8434     8506     8521     8457 
    8340     8216     8129     8124     8221     8363     8467     8502 
    8467     8387     8307     8251     8213     8201     8216     8240 
    8268     8289     8297     8307     8333     8370     8391     8375 
    8344     8324     8301     8279     8286     8325     8397     8499 
    8573     8559     8453     8314     8213     8187     8243     8336 
    8387     8380     8355     8344     8372     8419     8430     8409 
    8374     8306     8209     8125     8102     8167     8268     8344 
    8382     8357     8284     8232     8225     8252     8294     8295 
    8244     8198     8185     8221     8316     8424     8521     8581 
    8541     8429     8341     8316     8355     8437     8500     8502 
    8444     8328     8218     8205     8291     8421     8553     8626 
    8581     8442     8282     8141     8068     8114     8230     8320 
    8343     8316     8266     8230     8248     8289     8299     8268 
    8232     8232     8293     8390     8464     8496     8495     8479 
    8464     8437     8374     8303     8256     8244     8279     8324 
    8324     8276     8206     8148     8136     8183     8252     8291 
    8290     8283     8291     8303     8271     8166     8056     8059 
    8203     8419     8590     8630     8544     8395     8270     8233 
    8301     8415     8513     8573     8592     8541     8432     8336 
    8289     8274     8283     8267     8186     8094     8068     8139 
    8295     8446     8479     8398     8299     8270     8363     8530 
    8641     8634     8541     8410     8306     8266     8256     8236 
    8197     8149     8135     8159     8174     8166     8151     8156 
    8201     8263     8303     8325     8338     8356     8403     8473 
    8521     8509     8433     8313     8208     8186     8256     8341 
    8378     8368     8318     8240     8183     8164     8163     8190 
    8240     8295     8370     8453     8498     8483     8407     8298 
    8247     8293     8391     8500     8579     8583     8506     8383 
    8268     8202     8193     8221     8266     8318     8375     8434 
    8472     8448     8376     8294     8221     8175     8164     8179 
    8208     8232     8264     8313     8348     8356     8341     8309 
    8303     8374     8480     8565     8602     8568     8471     8351 
    8245     8189     8201     8270     8364     8440     8461     8430 
    8363     8289     8252     8253     8263     8270     8257     8213 
    8164     8136     8136     8160     8213     8290     8395     8517 
    8608     8626     8567     8460     8343     8221     8116     8074 
    8106     8198     8343     8463     8478     8394     8262     8137 
    8078     8104     8193     8303     8384     8387     8311     8208 
    8149     8182     8303     8482     8667     8803     8842     8764 
    8588     8370     8176     8064     8058     8139     8245     8295 
    8279     8243     8230     8276     8370     8461     8515     8519 
    8478     8405     8326     8244     8158     8108     8125     8198 
    8293     8357     8352     8294     8235     8210     8222     8253 
    8297     8352     8425     8498     8526     8495     8417     8295 
    8189     8162     8201     8271     8341     8357     8314     8257 
    8202     8170     8186     8243     8324     8379     8348     8271 
    8237     8274     8374     8480     8519     8502     8467     8422 
    8383     8356     8310     8255     8247     8290     8351     8442 
    8533     8568     8575     8542     8456     8376     8332     8302 
    8305     8313     8263     8182     8127     8097     8097     8110 
    8091     8063     8077     8121     8183     8260     8325     8370 
    8394     8392     8384     8388     8379     8344     8314     8291 
    8264     8264     8311     8371     8418     8442     8433     8414 
    8414     8419     8406     8383     8367     8351     8330     8309 
    8286     8289     8349     8445     8513     8525     8484     8391 
    8299     8276     8301     8332     8368     8397     8409     8415 
    8391     8325     8232     8133     8086     8147     8286     8444 
    8586     8671     8662     8577     8453     8299     8156     8097 
    8131     8218     8295     8287     8199     8109     8083     8160 
    8301     8387     8352     8232     8128     8105     8160     8247 
    8307     8318     8333     8391     8457     8494     8473     8392 
    8329     8340     8383     8424     8428     8388     8379     8419 
    8448     8410     8306     8199     8171     8251     8405     8571 
    8677     8673     8571     8424     8266     8132     8081     8137 
    8266     8424     8534     8505     8363     8195     8050     8006 
    8105     8243     8367     8459     8449     8368     8318     8301 
    8306     8374     8440     8419     8359     8307     8244     8194 
    8167     8124     8097     8129     8178     8221     8252     8213 
    8141     8116     8104     8109     8187     8287     8387     8510 
    8577     8533     8419     8260     8122     8094     8151     8240 
    8332     8356     8306     8252     8216     8217     8303     8436 
    8565     8694     8776     8750     8625     8472     8361     8309 
    8318     8394     8503     8608     8673     8641     8487     8262 
    8067     7979     8008     8129     8299     8426     8449     8395 
    8337     8328     8367     8388     8341     8243     8148     8112 
    8160     8257     8337     8371     8352     8295     8257     8280 
    8341     8401     8440     8468     8488     8471     8398     8326 
    8307     8329     8374     8422     8418     8333     8229     8179 
    8209     8302     8421     8509     8510     8442     8394     8394 
    8414     8429     8425     8409     8392     8380     8360     8340 
    8338     8355     8367     8371     8390     8422     8456     8500 
    8532     8495     8374     8185     8006     7940     7986     8090 
    8225     8341     8388     8392     8368     8324     8295     8289 
    8293     8310     8303     8274     8241     8185     8140     8164 
    8232     8320     8422     8482     8487     8482     8442     8353 
    8276     8233     8208     8229     8302     8371     8446     8538 
    8567     8502     8402     8282     8175     8145     8176     8226 
    8302     8382     8399     8363     8318     8289     8297     8328 
    8338     8309     8214     8082     8031     8139     8364     8599 
    8719     8649     8464     8311     8241     8241     8280     8297 
    8278     8262     8262     8270     8259     8205     8141     8129 
    8202     8361     8557     8700     8702     8576     8422     8302 
    8210     8152     8145     8209     8328     8425     8432     8321 
    8117     7948     7969     8171     8425     8629     8723     8673 
    8515     8321     8181     8152     8221     8349     8487     8567 
    8573     8544     8502     8442     8357     8289     8260     8251 
    8284     8341     8313     8187     8041     7958     8021     8183 
    8325     8428     8500     8480     8401     8378     8399     8392 
    8351     8283     8201     8131     8106     8141     8194     8245 
    8318     8359     8336     8298     8248     8193     8181     8209 
    8252     8271     8216     8127     8097     8132     8182     8213 
    8230     8253     8249     8181     8108     8082     8086     8128 
    8214     8276     8252     8167     8112     8143     8210     8218 
    8131     7958     7763     7677     7778     8013     8267     8419 
    8401     8229     7977     7755     7680     7780     8023     8343 
    8637     8802     8776     8577     8313     8095     7975     7985 
    8137     8336     8425     8365     8228     8086     8021     8090 
    8267     8475     8657     8777     8802     8702     8487     8239 
    8067     8063     8266     8599     8892     9004     8907     8661 
    8390     8221     8182     8201     8236     8293     8374     8475 
    8519     8390     8077     7709     7485     7587     8047     8704 
    9288     9595     9572     9283     8880     8532     8333     8294 
    8372     8496     8576     8560     8445     8282     8112     7931 
    7774     7724     7821     8058     8375     8661     8830     8866 
    8829     8764     8677     8600     8580     8640     8768     8884 
    8884     8714     8374     7978     7738     7789     8086     8482 
    8757     8758     8548     8302     8160     8214     8425     8648 
    8761     8735     8579     8340     8098     7904     7766     7722 
    7773     7881     8028     8208     8403     8575     8656     8591 
    8402     8197     8077     8040     8020     8012     8090     8301 
    8581     8766     8727     8498     8230     8110     8256     8625 
    9012     9209     9154     8941     8712     8572     8518     8457 
    8314     8113     7954     7938     8089     8289     8364     8243 
    7978     7707     7603     7763     8145     8650     9147     9456 
    9489     9263     8850     8407     8137     8128     8321     8577 
    8733     8731     8631     8495     8367     8251     8097     7888 
    7678     7555     7589     7766     7994     8206     8394     8583 
    8797     8995     9094     9080     9004     8939     8893     8796 
    8592     8275     7893     7562     7400     7479     7744     8019 
    8149     8081     7863     7663     7628     7751     7933     8082 
    8151     8144     8120     8162     8305     8527     8788     9038 
    9208     9224     9016     8576     8023     7546     7281     7254 
    7380     7518     7564     7561     7616     7761     7948     8114 
    8182     8147     8108     8140     8289     8560     8843     9035 
    9101     8999     8742     8387     7944     7518     7269     7269 
    7520     7935     8309     8496     8456     8221     7936     7749 
    7693     7777     8020     8376     8769     9081     9184     9073 
    8846     8610     8484     8529     8689     8885     9024     8995 
    8745     8344     7954     7751     7863     8279     8804     9170 
    9225     9004     8654     8348     8214     8259     8394     8552 
    8722     8928     9146     9235     9101     8815     8548     8478 
    8664     8964     9166     9146     8895     8509     8128     7835 
    7665     7668     7855     8182     8615     9130     9618     9915 
    9860     9367     8509     7564     6871     6652     6947     7604 
    8380     9065     9501     9613     9420     8965     8318     7632 
    7080     6772     6770     7074     7615     8240     8756     8986 
    8858     8436     7875     7346     7029     7052     7381     7873 
    8355     8630     8587     8352     8170     8154     8252     8361 
    8394     8270     7978     7646     7426     7372     7441     7584 
    7804     8093     8378     8590     8667     8546     8248     7904 
    7704     7750     7994     8351     8722     8955     8981     8857 
    8660     8429     8185     7936     7723     7601     7612     7758 
    7973     8156     8255     8330     8530     8985     9695    10443 
   10899    10798    10069     8959     7875     7114     6844     7090 
    7689     8402     9024     9414     9498     9306     8966     8613 
    8316     8064     7794     7503     7273     7192     7300     7565 
    7916     8287     8596     8806     8943     8996     8932     8796 
    8623     8370     8047     7789     7731     7911     8248     8591 
    8803     8818     8635     8356     8089     7861     7726     7804 
    8095     8453     8684     8679     8503     8321     8293     8461 
    8714     8874     8777     8434     8074     7847     7769     7798 
    7839     7836     7816     7846     7950     8079     8201     8305 
    8390     8521     8725     8922     9040     9013     8806     8559 
    8403     8332     8305     8255     8132     7975     7911     8055 
    8410     8839     9078     8950     8545     8098     7877     8019 
    8387     8710     8777     8544     8166     7869     7776     7859 
    7963     7965     7893     7848     7905     8040     8152     8198 
    8226     8321     8487     8602     8564     8370     8120     7958 
    7927     7992     8058     7998     7796     7595     7577     7827 
    8289     8741     8946     8843     8537     8239     8112     8183 
    8387     8591     8660     8565     8398     8249     8174     8228 
    8436     8752     9061     9208     9097     8772     8371     8059 
    7932     7974     8101     8221     8336     8495     8723     8981 
    9151     9099     8815     8378     7912     7587     7512     7697 
    8101     8619     9126     9486     9556     9247     8631     7939 
    7468     7430     7820     8426     8959     9215     9099     8648 
    8052     7546     7299     7376     7689     8033     8220     8202 
    8075     7989     8063     8317     8627     8800     8721     8455 
    8191     8108     8280     8638     8951     8973     8626     8017 
    7395     7011     7001     7368     7955     8557     8992     9148 
    9093     8938     8735     8530     8316     8046     7782     7641 
    7678     7905     8284     8754     9159     9277     9070     8691 
    8338     8203     8337     8587     8715     8631     8434     8247 
    8193     8379     8729     9059     9265     9301     9165     8915 
    8660     8444     8248     8035     7798     7614     7569     7693 
    7962     8270     8452     8422     8220     7965     7824     7889 
    8121     8368     8430     8260     8012     7858     7890     8074 
    8286     8429     8479     8456     8403     8307     8108     7805 
    7519     7461     7758     8318     8935     9366     9406     9089 
    8640     8268     8090     8121     8284     8428     8424     8235 
    7894     7466     7041     6785     6841     7248     7921     8665 
    9224     9408     9150     8563     7896     7396     7229     7447 
    7939     8511     9012     9316     9339     9143     8850     8532 
    8276     8143     8101     8137     8247     8392     8556     8704 
    8764     8700     8536     8320     8136     8055     8120     8326 
    8603     8862     9054     9147     9147     9105     9046     8927 
    8694     8347     7973     7734     7769     8051     8361     8473 
    8343     8108     7974     8037     8203     8311     8276     8135 
    8025     8041     8137     8201     8183     8145     8221     8490 
    8883     9209     9279     9026     8586     8212     8068     8163 
    8367     8484     8403     8151     7866     7692     7663     7757 
    7952     8195     8417     8557     8548     8367     8083     7820 
    7701     7773     8008     8357     8706     8931     9000     8904 
    8646     8299     7944     7704     7724     7967     8222     8332 
    8226     7928     7599     7431     7514     7793     8125     8370 
    8479     8480     8444     8428     8413     8370     8337     8382 
    8510     8676     8822     8868     8731     8459     8186     8006 
    7960     8001     8039     8081     8201     8468     8905     9400 
    9732     9710     9286     8604     7939     7562     7628     8091 
    8710     9177     9304     9100     8714     8349     8144     8102 
    8132     8128     8036     7900     7820     7873     8073     8307 
    8432     8365     8152     7954     7931     8121     8429     8700 
    8851     8877     8838     8841     8935     9043     9039     8837 
    8433     7979     7678     7639     7859     8235     8565     8702 
    8600     8275     7800     7319     6978     6868     7029     7425 
    7969     8541     8976     9147     9058     8815     8576     8464 
    8498     8618     8725     8727     8584     8330     8064     7867 
    7769     7794     7936     8114     8239     8249     8143     7973 
    7848     7840     7916     8027     8147     8274     8415     8544 
    8626     8668     8685     8700     8702     8652     8586     8573 
    8623     8703     8735     8626     8380     8104     7915     7924 
    8122     8371     8544     8587     8515     8379     8212     8029 
    7794     7524     7395     7533     7869     8276     8610     8696 
    8482     8120     7862     7862     8082     8398     8700     8837 
    8722     8491     8310     8189     8104     8083     8116     8151 
    8186     8248     8316     8357     8413     8568     8816     9081 
    9308     9441     9466     9417     9282     9047     8739     8376 
    8008     7758     7717     7840     8016     8183     8328     8415 
    8405     8284     8097     7915     7820     7847     7979     8167 
    8332     8428     8475     8549     8716     8941     9099     9120 
    8993     8734     8395     8062     7821     7731     7828     8154 
    8654     9138     9394     9337     9012     8572     8206     8017 
    7981     8029     8118     8226     8340     8442     8538     8613 
    8634     8587     8473     8313     8120     7909     7722     7628 
