Origin Time       2024/04/02 04:24:00
Lat.              40.133
Long.             141.712
Depth. (km)       71
Mag.              6.0
Station Code      HKD132
Station Lat.      42.3484
Station Long.     141.0318
Station Height(m) 3
Record Time       2024/04/02 04:25:17
Sampling Freq(Hz) 100Hz
Duration Time(s)  103
Dir.              N-S
Scale Factor      7845(gal)/8223790
Max. Acc. (gal)   5.441
Last Correction   2024/04/02 04:25:17
Memo.             
[...]
   -3990    -3906    -3996    -4255    -4627    -5049    -5462    -5788 
   -5944    -5902    -5707    -5443    -5182    -5000    -4977    -5113 
   -5252    -5266    -5209    -5158    -5053    -4841    -4568    -4324 
   -4195    -4217    -4326    -4457    -4612    -4779    -4927    -5059 
   -5178    -5273    -5367    -5462    -5510    -5505    -5460    -5402 
   -5358    -5309    -5186    -4978    -4743    -4573    -4540    -4621 
   -4747    -4892    -5047    -5161    -5146    -4968    -4679    -4399 
   -4251    -4297    -4473    -4662    -4807    -4932    -5028    -5047 
   -4977    -4785    -4460    -4156    -4135    -4449    -4885    -5202 
   -5312    -5220    -4949    -4618    -4429    -4457    -4627    -4870 
   -5142    -5368    -5441    -5335    -5131    -4896    -4677    -4542 
   -4514    -4571    -4688    -4860    -5074    -5262    -5314    -5202 
   -5055    -5081    -5344    -5690    -5892    -5877    -5768    -5659 
   -5497    -5256    -5009    -4841    -4853    -5063    -5323    -5454 
   -5394    -5177    -4834    -4423    -4087    -3964    -4066    -4309 
   -4603    -4904    -5169    -5292    -5193    -4908    -4553    -4268 
   -4172    -4314    -4669    -5073    -5275    -5196    -4965    -4699 
   -4432    -4224    -4180    -4360    -4703    -5135    -5575    -5903 
   -6030    -5942    -5684    -5313    -4888    -4550    -4460    -4633 
   -5009    -5475    -5786    -5826    -5717    -5556    -5339    -5082 
   -4868    -4789    -4870    -5073    -5335    -5513    -5474    -5243 
   -4927    -4580    -4272    -4120    -4224    -4569    -5069    -5622 
   -6070    -6235    -6079    -5688    -5189    -4729    -4432    -4293 
   -4245    -4342    -4594    -4793    -4819    -4761    -4638    -4378 
   -4104    -3977    -3936    -3947    -4120    -4426    -4679    -4807 
   -4900    -5053    -5285    -5570    -5865    -6099    -6222    -6261 
   -6237    -6104    -5826    -5428    -4954    -4491    -4190    -4143 
   -4309    -4594    -4926    -5173    -5190    -5039    -4900    -4841 
   -4858    -4901    -4903    -4903    -4961    -5051    -5105    -5035 
   -4837    -4658    -4625    -4734    -4918    -5081    -5140    -5074 
   -4905    -4637    -4279    -3900    -3612    -3487    -3538    -3738 
   -4000    -4233    -4388    -4441    -4425    -4433    -4521    -4718 
   -5015    -5367    -5744    -6103    -6393    -6567    -6604    -6540 
   -6401    -6195    -5938    -5670    -5439    -5265    -5132    -5055 
   -5039    -5034    -4990    -4881    -4707    -4510    -4353    -4294 
   -4367    -4554    -4808    -5092    -5385    -5672    -5918    -6064 
   -6015    -5744    -5371    -5000    -4650    -4394    -4274    -4243 
   -4328    -4580    -4893    -5111    -5170    -5088    -4899    -4630 
   -4355    -4140    -3998    -3956    -4055    -4240    -4433    -4610 
   -4756    -4864    -4963    -5101    -5248    -5340    -5393    -5491 
   -5653    -5765    -5734    -5583    -5358    -5077    -4812    -4679 
   -4741    -4993    -5329    -5545    -5547    -5428    -5266    -5071 
   -4908    -4788    -4619    -4423    -4340    -4430    -4662    -4961 
   -5201    -5314    -5312    -5167    -4878    -4545    -4301    -4239 
   -4359    -4587    -4855    -5073    -5170    -5179    -5138    -5030 
   -4904    -4916    -5169    -5583    -5992    -6266    -6339    -6187 
   -5819    -5273    -4652    -4129    -3829    -3775    -3881    -4009 
   -4118    -4233    -4355    -4507    -4684    -4810    -4888    -4984 
   -5109    -5208    -5290    -5463    -5678    -5752    -5665    -5489 
   -5242    -5012    -4951    -5078    -5197    -5109    -4877    -4677 
   -4563    -4531    -4565    -4598    -4618    -4712    -4912    -5111 
   -5216    -5269    -5281    -5188    -5022    -4842    -4611    -4352 
   -4230    -4352    -4631    -4891    -5043    -5136    -5254    -5401 
   -5487    -5447    -5286    -5049    -4839    -4797    -4924    -5088 
   -5181    -5179    -5109    -4986    -4865    -4868    -5051    -5283 
   -5400    -5371    -5256    -5084    -4896    -4753    -4623    -4464 
   -4353    -4392    -4568    -4779    -4958    -5140    -5339    -5439 
   -5366    -5170    -4907    -4665    -4575    -4660    -4792    -4838 
   -4803    -4783    -4843    -4950    -4996    -4931    -4826    -4753 
   -4738    -4842    -5120    -5498    -5807    -5910    -5753    -5351 
   -4819    -4355    -4171    -4395    -4909    -5449    -5863    -6103 
   -6166    -6104    -5983    -5832    -5607    -5258    -4843    -4477 
   -4257    -4237    -4356    -4515    -4722    -4957    -5103    -5071 
   -4923    -4797    -4756    -4754    -4708    -4565    -4392    -4356 
   -4510    -4756    -5020    -5220    -5202    -4955    -4666    -4491 
   -4414    -4365    -4363    -4460    -4648    -4839    -4938    -4899 
   -4702    -4380    -4149    -4201    -4477    -4845    -5240    -5603 
   -5834    -5873    -5719    -5422    -5140    -5023    -5089    -5324 
   -5651    -5863    -5830    -5628    -5387    -5202    -5101    -5015 
   -4892    -4772    -4708    -4747    -4891    -5040    -5128    -5165 
   -5173    -5184    -5212    -5236    -5216    -5162    -5096    -4969 
   -4783    -4630    -4545    -4472    -4396    -4369    -4405    -4476 
   -4563    -4639    -4698    -4753    -4742    -4577    -4294    -4031 
   -3906    -3991    -4311    -4773    -5213    -5466    -5440    -5213 
   -4976    -4799    -4653    -4560    -4565    -4676    -4881    -5139 
   -5348    -5443    -5433    -5348    -5248    -5194    -5192    -5258 
   -5394    -5487    -5425    -5238    -5005    -4800    -4718    -4814 
   -5038    -5329    -5611    -5714    -5443    -4837    -4178    -3735 
   -3634    -3832    -4197    -4583    -4855    -4959    -4955    -4892 
   -4788    -4691    -4661    -4737    -4954    -5289    -5668    -6018 
   -6264    -6354    -6285    -6097    -5904    -5787    -5713    -5634 
   -5566    -5528    -5472    -5362    -5239    -5144    -5049    -4889 
   -4650    -4395    -4209    -4110    -4087    -4159    -4288    -4398 
   -4496    -4623    -4772    -4962    -5193    -5317    -5171    -4815 
   -4448    -4197    -4098    -4187    -4452    -4750    -4927    -4962 
   -4880    -4688    -4482    -4382    -4425    -4567    -4719    -4838 
   -4959    -5101    -5221    -5255    -5152    -4977    -4897    -5008 
   -5251    -5541    -5817    -5965    -5911    -5707    -5400    -4976 
   -4519    -4172    -3989    -4020    -4330    -4853    -5414    -5881 
   -6199    -6291    -6060    -5597    -5121    -4729    -4472    -4495 
   -4820    -5232    -5514    -5606    -5495    -5190    -4810    -4540 
   -4453    -4495    -4627    -4862    -5138    -5344    -5397    -5209 
   -4789    -4342    -4108    -4153    -4405    -4747    -5049    -5221 
   -5277    -5260    -5130    -4800    -4338    -3924    -3662    -3582 
   -3669    -3862    -4174    -4617    -5132    -5663    -6112    -6336 
   -6276    -6002    -5680    -5455    -5355    -5373    -5468    -5587 
   -5753    -5967    -6139    -6177    -5989    -5547    -4930    -4306 
   -3912    -3889    -4136    -4472    -4807    -5124    -5367    -5402 
   -5177    -4788    -4379    -4102    -4039    -4129    -4330    -4649 
   -5026    -5355    -5566    -5599    -5441    -5182    -4955    -4841 
   -4857    -5001    -5216    -5390    -5397    -5174    -4827    -4529 
   -4402    -4507    -4784    -5067    -5265    -5385    -5441    -5429 
   -5347    -5194    -5001    -4843    -4806    -4895    -5001    -5007 
   -4934    -4888    -4876    -4783    -4592    -4457    -4450    -4511 
   -4610    -4711    -4745    -4725    -4723    -4757    -4777    -4757 
   -4731    -4719    -4730    -4812    -5005    -5244    -5393    -5375 
   -5231    -5044    -4932    -4947    -5001    -5040    -5134    -5312 
   -5493    -5540    -5408    -5205    -5028    -4868    -4747    -4712 
   -4730    -4787    -4947    -5227    -5481    -5505    -5287    -5017 
   -4847    -4804    -4855    -4915    -4908    -4841    -4739    -4607 
   -4494    -4488    -4595    -4712    -4768    -4822    -4973    -5232 
   -5526    -5760    -5827    -5698    -5481    -5292    -5107    -4839 
   -4509    -4226    -4087    -4082    -4135    -4189    -4264    -4401 
   -4560    -4666    -4691    -4615    -4487    -4437    -4533    -4725 
   -4897    -4984    -5070    -5233    -5417    -5571    -5698    -5779 
   -5790    -5730    -5668    -5678    -5706    -5598    -5274    -4860 
   -4534    -4298    -4081    -3931    -3892    -3904    -3960    -4143 
   -4444    -4739    -4949    -5085    -5136    -5031    -4752    -4390 
   -4153    -4243    -4669    -5275    -5908    -6442    -6758    -6787 
   -6523    -6018    -5374    -4760    -4395    -4357    -4526    -4826 
   -5244    -5634    -5749    -5487    -5026    -4585    -4203    -3915 
   -3869    -4102    -4457    -4752    -4909    -4954    -4955    -4946 
   -4922    -4969    -5216    -5648    -6091    -6355    -6413    -6349 
   -6114    -5653    -5127    -4712    -4390    -4074    -3824    -3767 
   -3888    -4079    -4347    -4715    -5094    -5394    -5603    -5705 
   -5688    -5590    -5427    -5201    -4992    -4953    -5135    -5409 
   -5648    -5795    -5769    -5557    -5270    -4928    -4479    -3994 
   -3620    -3442    -3511    -3807    -4201    -4572    -4932    -5328 
   -5674    -5813    -5729    -5567    -5413    -5293    -5321    -5559 
   -5854    -6084    -6305    -6536    -6631    -6469    -6077    -5549 
   -4951    -4383    -3998    -3910    -4083    -4369    -4675    -4954 
   -5144    -5242    -5308    -5352    -5371    -5401    -5486    -5637 
   -5819    -5995    -6138    -6156    -5971    -5621    -5181    -4756 
   -4504    -4457    -4469    -4425    -4347    -4309    -4275    -4156 
   -3975    -3819    -3744    -3789    -3947    -4126    -4247    -4334 
   -4428    -4492    -4491    -4402    -4167    -3777    -3334    -2983 
   -2832    -2884    -3127    -3615    -4286    -4889    -5215    -5236 
   -5004    -4565    -4039    -3584    -3268    -3173    -3441    -4077 
   -4932    -5799    -6450    -6750    -6733    -6502    -6122    -5649 
   -5174    -4799    -4579    -4536    -4626    -4770    -4930    -5100 
   -5252    -5324    -5209    -4865    -4396    -3982    -3769    -3815 
   -4077    -4517    -5188    -6097    -7072    -7842    -8259    -8316 
   -8043    -7534    -6952    -6446    -6075    -5818    -5667    -5667 
   -5810    -5989    -6129    -6192    -6111    -5798    -5236    -4529 
   -3790    -3057    -2374    -1831    -1555    -1701    -2295    -3176 
   -4183    -5206    -6102    -6723    -7053    -7209    -7222    -6974 
   -6384    -5579    -4804    -4224    -3843    -3627    -3640    -3981 
   -4608    -5320    -5900    -6261    -6377    -6249    -5995    -5757 
   -5572    -5447    -5459    -5707    -6127    -6455    -6428    -5958 
   -5201    -4407    -3703    -3190    -3055    -3358    -3986    -4787 
   -5566    -6075    -6110    -5607    -4742    -3859    -3219    -2893 
   -2875    -3180    -3770    -4538    -5348    -6038    -6478    -6590 
   -6293    -5586    -4673    -3815    -3090    -2479    -2085    -2061 
   -2428    -3095    -3948    -4819    -5530    -5931    -5950    -5724 
   -5536    -5509    -5517    -5408    -5123    -4671    -4158    -3808 
   -3750    -3881    -4094    -4421    -4889    -5433    -5892    -6035 
   -5751    -5185    -4644    -4374    -4471    -4868    -5383    -5826 
   -6049    -5933    -5489    -4916    -4425    -4085    -3905    -3878 
   -3975    -4162    -4383    -4525    -4456    -4222    -4063    -4151 
   -4514    -5128    -5923    -6820    -7703    -8347    -8577    -8494 
   -8422    -8599    -8876    -8903    -8510    -7682    -6532    -5341 
   -4361    -3667    -3252    -3165    -3488    -4122    -4749    -5073 
   -4997    -4557    -3908    -3315    -2968    -2914    -3198    -3892 
   -4899    -5894    -6554    -6709    -6319    -5402    -4062    -2579 
   -1363     -747     -903    -1744    -2897    -3929    -4592    -4851 
   -4878    -4930    -5104    -5306    -5490    -5706    -5938    -6100 
   -6137    -5981    -5562    -5007    -4669    -4796    -5341    -6083 
   -6798    -7357    -7654    -7580    -7086    -6205    -5069    -3873 
   -2754    -1783    -1015     -461     -180     -245     -665    -1526 
   -2932    -4760    -6635    -8160    -9058    -9127    -8297    -6826 
   -5290    -4216    -3823    -4067    -4761    -5649    -6501    -7123 
   -7383    -7277    -6906    -6453    -6107    -5896    -5674    -5265 
   -4626    -3854    -3091    -2473    -2083    -1962    -2169    -2693 
   -3411    -4190    -4862    -5208    -5121    -4688    -4059    -3416 
   -3009    -3011    -3414    -4128    -4985    -5769    -6443    -7130 
   -7844    -8418    -8672    -8571    -8208    -7740    -7299    -6918 
   -6602    -6350    -6115    -5845    -5471    -4980    -4437    -3850 
   -3223    -2631    -2077    -1572    -1277    -1414    -2011    -2812 
   -3601    -4386    -5182    -5910    -6494    -6879    -6971    -6732 
   -6318    -5996    -5890    -5873    -5802    -5683    -5509    -5219 
   -4791    -4182    -3368    -2529    -1966    -1846    -2203    -3038 
   -4203    -5275    -5850    -5796    -5227    -4432    -3759    -3495 
   -3811    -4695    -5992    -7466    -8738    -9371    -9072    -7861 
   -6127    -4467    -3392    -3113    -3628    -4905    -6681    -8426 
   -9633   -10023    -9585    -8490    -7011    -5459    -4048    -2992 
   -2596    -3007    -3939    -4815    -5248    -5184    -4662    -3746 
   -2527    -1156       59      737      623     -226    -1474    -2704 
   -3692    -4445    -4965    -5162    -5058    -4842    -4750    -4942 
   -5390    -5926    -6451    -7042    -7763    -8442    -8810    -8733 
   -8276    -7654    -7047    -6377    -5472    -4367    -3276    -2400 
   -1894    -1885    -2384    -3230    -4203    -5070    -5678    -6006 
   -6050    -5810    -5346    -4783    -4313    -4090    -4175    -4556 
   -5062    -5435    -5613    -5709    -5715    -5548    -5285    -5092 
   -5000    -4912    -4753    -4514    -4253    -4118    -4185    -4310 
   -4326    -4253    -4228    -4374    -4784    -5499    -6372    -7156 
   -7800    -8311    -8461    -8033    -7138    -6093    -5209    -4677 
   -4518    -4541    -4504    -4336    -4078    -3707    -3184    -2604 
   -2182    -2145    -2654    -3744    -5209    -6669    -7831    -8553 
   -8791    -8649    -8360    -8032    -7562    -6870    -6056    -5263 
   -4542    -3913    -3403    -2999    -2704    -2540    -2475    -2488 
   -2600    -2802    -3079    -3457    -3954    -4513    -5007    -5323 
   -5436    -5425    -5439    -5595    -5868    -6052    -5876    -5252 
   -4417    -3744    -3480    -3631    -4008    -4332    -4394    -4141 
   -3636    -3002    -2489    -2425    -2947    -3925    -5113    -6177 
   -6848    -7051    -6875    -6486    -6022    -5556    -5146    -4787 
   -4452    -4152    -3892    -3670    -3550    -3605    -3840    -4225 
   -4734    -5236    -5563    -5718    -5771    -5729    -5643    -5539 
   -5381    -5192    -5085    -5188    -5525    -6002    -6574    -7291 
   -8040    -8545    -8607    -8179    -7256    -5922    -4434    -3117 
   -2236    -1989    -2430    -3391    -4529    -5491    -6091    -6293 
   -6120    -5676    -5152    -4741    -4580    -4684    -4978    -5409 
   -5887    -6222    -6281    -6130    -5913    -5660    -5331    -4981 
   -4729    -4639    -4679    -4695    -4500    -4010    -3319    -2668 
   -2295    -2265    -2489    -2844    -3249    -3680    -4082    -4398 
   -4639    -4853    -5096    -5385    -5603    -5648    -5539    -5358 
   -5162    -4931    -4619    -4291    -4089    -4018    -3935    -3743 
   -3497    -3321    -3285    -3391    -3631    -4012    -4518    -5088 
   -5625    -6073    -6350    -6307    -5925    -5408    -5032    -4895 
   -4915    -5093    -5566    -6376    -7341    -8110    -8379    -8114 
   -7578    -7161    -7048    -7080    -7033    -6902    -6812    -6764 
   -6597    -6183    -5591    -5077    -4928    -5196    -5583    -5736 
   -5520    -5026    -4442    -3960    -3646    -3435    -3312    -3384 
   -3673    -4014    -4241    -4340    -4299    -4010    -3460    -2795 
   -2160    -1644    -1337    -1304    -1602    -2303    -3372    -4577 
   -5593    -6218    -6447    -6305    -5779    -5011    -4248    -3636 
   -3388    -3757    -4689    -5841    -6894    -7712    -8220    -8341 
   -8068    -7419    -6447    -5417    -4671    -4321    -4302    -4546 
   -4993    -5506    -5898    -6014    -5786    -5243    -4541    -3948 
   -3658    -3697    -4044    -4621    -5251    -5711    -5825    -5533 
   -4949    -4301    -3794    -3555    -3627    -3996    -4576    -5223 
   -5759    -6054    -6031    -5706    -5233    -4804    -4519    -4356 
   -4247    -4230    -4372    -4600    -4803    -4965    -5107    -5209 
   -5256    -5262    -5252    -5279    -5425    -5752    -6197    -6534 
   -6540    -6162    -5552    -4962    -4592    -4550    -4803    -5158 
   -5379    -5298    -4945    -4514    -4194    -4102    -4220    -4418 
   -4653    -4972    -5312    -5541    -5653    -5714    -5706    -5518 
   -5053    -4325    -3505    -2833    -2447    -2342    -2469    -2766 
   -3159    -3634    -4141    -4502    -4617    -4564    -4450    -4387 
   -4510    -4897    -5490    -6134    -6785    -7469    -8079    -8430 
   -8446    -8152    -7626    -6991    -6394    -5896    -5397    -4814 
   -4214    -3728    -3416    -3287    -3331    -3535    -3843    -4190 
   -4504    -4716    -4814    -4800    -4630    -4276    -3851    -3595 
   -3677    -4109    -4831    -5756    -6723    -7508    -7889    -7770 
   -7236    -6393    -5310    -4131    -3165    -2710    -2794    -3237 
   -3896    -4622    -5142    -5255    -4984    -4425    -3692    -2963 
   -2430    -2219    -2340    -2758    -3473    -4395    -5313    -6122 
   -6822    -7331    -7527    -7375    -6916    -6297    -5809    -5665 
   -5854    -6230    -6559    -6644    -6517    -6238    -5672    -4715 
   -3505    -2330    -1432     -961    -1011    -1659    -2868    -4369 
   -5738    -6660    -7052    -6957    -6497    -5896    -5460    -5389 
   -5665    -6166    -6759    -7226    -7326    -6940    -6124    -5090 
   -4082    -3276    -2841    -2916    -3418    -4063    -4595    -4958 
   -5170    -5189    -4996    -4702    -4498    -4564    -4939    -5483 
   -6039    -6497    -6681    -6482    -5996    -5435    -4966    -4590 
   -4164    -3607    -3011    -2496    -2091    -1836    -1760    -1788 
   -1892    -2168    -2647    -3211    -3765    -4322    -4923    -5572 
   -6250    -6878    -7372    -7755    -8083    -8375    -8584    -8561 
   -8164    -7396    -6388    -5373    -4599    -4179    -4116    -4410 
   -5035    -5813    -6413    -6573    -6241    -5528    -4604    -3708 
   -3106    -2982    -3393    -4241    -5263    -6142    -6627    -6624 
   -6245    -5660    -4993    -4361    -3882    -3592    -3477    -3589 
   -3954    -4486    -5081    -5683    -6208    -6551    -6655    -6592 
   -6520    -6531    -6593    -6552    -6150    -5265    -4143    -3204 
   -2697    -2636    -2940    -3481    -4087    -4602    -4891    -4920 
   -4814    -4699    -4550    -4263    -3829    -3391    -3082    -2930 
   -2951    -3136    -3406    -3696    -4020    -4386    -4749    -5046 
   -5217    -5244    -5173    -5082    -5016    -4945    -4865    -4853 
