Origin Time       2024/04/02 04:24:00
Lat.              40.133
Long.             141.712
Depth. (km)       71
Mag.              6.0
Station Code      HKD106
Station Lat.      42.3414
Station Long.     142.3688
Station Height(m) 5
Record Time       2024/04/02 04:25:46
Sampling Freq(Hz) 100Hz
Duration Time(s)  60
Dir.              E-W
Scale Factor      7845(gal)/8223790
Max. Acc. (gal)   3.251
Last Correction   2024/04/02 04:25:47
Memo.             
[...]
    1796     1895     2023     2133     2178     2127     1984     1794 
    1613     1487     1422     1424     1512     1661     1800     1891 
    1933     1945     1956     1981     2014     2019     1999     2004 
    2072     2176     2277     2385     2516     2666     2816     2937 
    2987     2938     2766     2475     2120     1796     1594     1563 
    1672     1827     1954     2045     2119     2197     2277     2326 
    2311     2231     2114     2010     1966     1987     2041     2103 
    2141     2147     2130     2095     2062     2046     2043     2043 
    2015     1938     1829     1738     1709     1718     1717     1686 
    1638     1599     1610     1691     1857     2118     2431     2706 
    2886     2955     2901     2741     2532     2324     2146     2020 
    1946     1918     1937     1989     2061     2149     2226     2234 
    2157     2027     1884     1760     1676     1618     1606     1702 
    1900     2147     2374     2496     2481     2404     2336     2280 
    2234     2218     2209     2187     2130     2006     1834     1686 
    1603     1622     1776     2016     2274     2520     2690     2721 
    2627     2458     2284     2178     2122     2039     1926     1811 
    1736     1730     1786     1864     1935     1958     1894     1767 
    1640     1567     1593     1740     1981     2258     2490     2589 
    2524     2339     2120     1952     1890     1944     2068     2166 
    2164     2065     1923     1796     1729     1719     1756     1829 
    1914     1981     1998     1960     1895     1818     1741     1699 
    1707     1769     1895     2060     2214     2295     2262     2147 
    2025     1949     1950     2011     2062     2070     2062     2092 
    2178     2311     2451     2543     2548     2485     2407     2366 
    2358     2332     2269     2184     2130     2153     2230     2282 
    2266     2170     2023     1892     1841     1898     2033     2150 
    2184     2146     2076     1980     1853     1721     1638     1645 
    1734     1858     1989     2124     2247     2342     2436     2566 
    2713     2793     2722     2489     2166     1898     1777     1813 
    1942     2072     2135     2142     2126     2104     2092     2061 
    1973     1858     1764     1686     1626     1625     1694     1837 
    2065     2338     2589     2771     2852     2805     2635     2362 
    2031     1728     1534     1453     1444     1472     1517     1555 
    1586     1622     1659     1694     1749     1867     2079     2376 
    2689     2909     2957     2845     2650     2467     2373     2385 
    2465     2513     2446     2259     2002     1725     1503     1382 
    1341     1345     1372     1401     1433     1487     1559     1630 
    1692     1750     1818     1923     2091     2319     2578     2806 
    2914     2848     2652     2425     2245     2161     2164     2208 
    2258     2281     2239     2150     2074     2054     2096     2164 
    2191     2161     2100     2019     1948     1946     2041     2203 
    2389     2539     2609     2601     2512     2347     2127     1872 
    1622     1456     1420     1487     1644     1877     2128     2336 
    2474     2509     2439     2307     2164     2061     2043     2097 
    2155     2160     2085     1948     1780     1622     1498     1424 
    1429     1507     1622     1753     1880     1965     2004     2010 
    1987     1946     1911     1894     1899     1941     2061     2269 
    2517     2736     2867     2872     2756     2562     2344     2126 
    1919     1771     1725     1764     1814     1799     1686     1497 
    1305     1194     1205     1318     1503     1741     2011     2272 
    2498     2679     2805     2882     2897     2816     2650     2452 
    2289     2242     2338     2511     2675     2782     2825     2822 
    2789     2733     2640     2528     2452     2398     2301     2137 
    1896     1588     1297     1144     1192     1408     1679     1852 
    1867     1784     1656     1517     1416     1372     1399     1529 
    1744     1972     2162     2270     2268     2154     1964     1730 
    1514     1409     1494     1771     2138     2436     2550     2484 
    2319     2165     2106     2139     2200     2222     2169     2047 
    1903     1830     1908     2119     2365     2546     2594     2520 
    2369     2182     2014     1915     1898     1958     2099     2297 
    2470     2523     2438     2276     2115     2003     1934     1904 
    1935     2054     2242     2415     2465     2322     2015     1694 
    1530     1593     1809     2030     2130     2073     1912     1740 
    1622     1563     1507     1451     1447     1545     1755     2030 
    2286     2461     2527     2488     2392     2317     2305     2319 
    2312     2255     2172     2123     2138     2224     2359     2469 
    2489     2419     2296     2160     2053     2026     2080     2180 
    2269     2278     2177     2027     1921     1904     1976     2091 
    2193     2249     2266     2277     2301     2336     2384     2451 
    2516     2524     2450     2312     2151     1999     1860     1748 
    1687     1676     1674     1655     1633     1638     1691     1787 
    1880     1922     1898     1829     1744     1664     1601     1560 
    1552     1572     1609     1682     1813     1987     2153     2266 
    2327     2361     2389     2439     2519     2590     2629     2636 
    2605     2546     2478     2408     2344     2301     2257     2205 
    2196     2266     2384     2486     2517     2430     2226     1957 
    1702     1526     1444     1424     1421     1413     1391     1362 
    1350     1383     1489     1698     2037     2467     2895     3172 
    3187     2953     2577     2187     1911     1837     1960     2196 
    2423     2525     2451     2247     2037     1918     1906     1935 
    1923     1840     1711     1580     1505     1529     1647     1787 
    1861     1856     1813     1803     1892     2097     2357     2548 
    2579     2455     2249     2047     1926     1875     1858     1883 
    1956     2056     2158     2246     2305     2354     2411     2452 
    2451     2409     2323     2197     2079     2014     2011     2041 
    2065     2052     1991     1892     1753     1572     1418     1391 
    1509     1717     1929     2057     2074     2049     2054     2106 
    2181     2250     2301     2339     2358     2358     2354     2347 
    2322     2266     2192     2118     2070     2076     2116     2123 
    2062     1944     1798     1705     1725     1848     2019     2178 
    2262     2239     2122     1957     1815     1736     1725     1798 
    1953     2133     2265     2322     2315     2269     2203     2138 
    2110     2149     2246     2380     2511     2600     2616     2544 
    2405     2258     2141     2065     1999     1914     1838     1818 
    1856     1933     2039     2151     2258     2367     2485     2600 
    2693     2706     2578     2305     1950     1606     1358     1244 
    1267     1389     1586     1869     2216     2511     2636     2566 
    2371     2169     2045     2016     2049     2097     2143     2178 
    2173     2092     1944     1795     1717     1714     1748     1775 
    1765     1713     1648     1622     1679     1825     2023     2218 
    2376     2497     2551     2508     2380     2209     2039     1921 
    1903     2011     2191     2331     2363     2313     2247     2226 
    2266     2322     2309     2177     1954     1726     1586     1571 
    1634     1725     1818     1864     1834     1783     1760     1791 
    1914     2099     2262     2343     2323     2235     2147     2092 
    2052     2023     1998     1954     1934     1989     2103     2234 
    2330     2285     2039     1675     1345     1192     1262     1474 
    1687     1826     1904     1973     2074     2199     2277     2295 
    2300     2327     2365     2377     2343     2293     2297     2389 
    2531     2646     2663     2547     2355     2201     2164     2274 
    2474     2632     2677     2609     2457     2266     2100     1975 
    1858     1760     1701     1664     1638     1618     1595     1570 
    1564     1605     1717     1888     2037     2096     2079     2031 
    1993     1988     2011     2058     2131     2218     2300     2373 
    2427     2447     2411     2311     2177     2072     2033     2058 
    2134     2234     2322     2353     2282     2111     1898     1738 
    1715     1858     2130     2424     2632     2717     2736     2768 
    2820     2835     2760     2589     2384     2236     2182     2168 
    2087     1864     1536     1244     1094     1123     1332     1667 
    2023     2320     2475     2463     2361     2253     2153     2046 
    1931     1836     1827     1957     2192     2439     2600     2616 
    2511     2377     2286     2222     2151     2069     1958     1821 
    1680     1555     1495     1545     1688     1899     2158     2396 
    2519     2471     2247     1903     1547     1294     1247     1463 
    1884     2361     2731     2868     2741     2461     2168     1919 
    1732     1624     1593     1628     1706     1787     1837     1863 
    1895     1923     1914     1852     1757     1690     1721     1880 
    2130     2374     2511     2490     2359     2204     2092     2085 
    2223     2459     2666     2717     2569     2268     1918     1610 
    1398     1278     1221     1216     1281     1418     1582     1725 
    1825     1906     2029     2211     2421     2613     2728     2708 
    2533     2285     2092     2046     2154     2323     2419     2361 
    2150     1827     1472     1192     1042     1024     1113     1256 
    1387     1462     1455     1390     1351     1375     1431     1489 
    1539     1561     1572     1615     1696     1818     1968     2101 
    2218     2350     2490     2597     2633     2556     2366     2153 
    2025     2034     2185     2412     2569     2575     2479     2344 
    2218     2133     2088     2060     2049     2049     2058     2118 
    2246     2415     2605     2798     2947     3018     3002     2845 
    2513     2085     1686     1391     1242     1215     1239     1279 
    1355     1482     1647     1811     1933     2015     2130     2344 
    2633     2905     3083     3161     3164     3119     3061     2986 
    2864     2702     2511     2273     1965     1588     1213      999 
    1086     1449     1903     2235     2301     2089     1732     1381 
    1129     1020     1024     1081     1193     1355     1536     1733 
    1948     2168     2376     2546     2666     2763     2857     2930 
    2964     2974     2991     3003     2957     2829     2629     2409 
    2253     2201     2231     2311     2411     2515     2631     2716 
    2670     2430     2038     1638     1433     1563     2006     2593 
    3084     3287     3153     2758     2250     1780     1429     1255 
    1275     1431     1661     1930     2161     2262     2169     1881 
    1530     1329     1425     1800     2266     2575     2624     2525 
    2454     2485     2581     2624     2504     2207     1825     1493 
    1321     1314     1387     1447     1448     1420     1398     1363 
    1291     1232     1301     1599     2108     2644     2955     2891 
    2544     2170     2006     2135     2444     2722     2835     2762 
    2569     2355     2158     1941     1728     1601     1630     1822 
    2106     2359     2481     2413     2188     1921     1741     1726 
    1898     2192     2482     2658     2687     2627     2579     2637 
    2837     3121     3362     3476     3451     3250     2821     2220 
    1591     1071      750      629      657      765      866      877 
     792      695      648      668      772      970     1217     1417 
    1466     1343     1156     1053     1125     1371     1715     2047 
    2245     2245     2097     1933     1858     1925     2154     2506 
    2828     2952     2841     2577     2309     2209     2357     2706 
    3207     3805     4384     4815     4961     4676     3954     3001 
    2122     1597     1564     1929     2457     2932     3227     3306 
    3177     2876     2473     2056     1696     1428     1235     1078 
     957      930     1039     1282     1621     1991     2349     2650 
    2830     2866     2774     2592     2350     2101     1921     1849 
    1888     2008     2137     2208     2184     2019     1736     1433 
    1215     1124     1146     1243     1393     1599     1819     1938 
    1872     1659     1422     1332     1525     2006     2614     3114 
    3334     3257     2971     2574     2120     1624     1119      673 
     294      -74     -452     -796    -1028    -1027     -645      184 
    1368     2704     3948     4834     5201     5085     4625     4016 
    3476     3140     3056     3184     3377     3485     3491     3468 
    3489     3581     3694     3726     3591     3250     2748     2185 
    1655     1250     1061     1077     1220     1377     1432     1372 
    1239     1077      985     1030     1183     1441     1776     2056 
    2173     2103     1841     1453     1070      776      633      712 
    1034     1572     2232     2799     3125     3229     3169     2998 
    2810     2666     2527     2334     2064     1745     1489     1426 
    1560     1803     2083     2301     2388     2335     2138     1848 
    1547     1260      973      642      221     -290     -815    -1202 
   -1335    -1192     -807     -278      260      727     1096     1383 
    1671     2014     2390     2736     2956     3030     3065     3203 
    3526     3963     4333     4490     4337     3885     3304     2805 
    2506     2420     2497     2697     2979     3256     3449     3520 
    3487     3404     3307     3180     2988     2667     2165     1543 
    1003      696      618      712      922     1173     1383     1503 
    1548     1543     1497     1390     1169      891      699      687 
     953     1453     1944     2300     2542     2705     2932     3287 
    3611     3771     3771     3676     3635     3767     3970     4067 
    3996     3744     3327     2879     2543     2366     2384     2516 
    2516     2270     1818     1147      344     -409    -1015    -1321 
   -1139     -554      237     1109     1803     2106     2080     1857 
    1591     1524     1732     2119     2624     3102     3291     3103 
    2651     2035     1449     1142     1159     1467     2058     2748 
    3294     3672     3900     3943     3904     3858     3717     3458 
    3119     2725     2390     2220     2201     2245     2243     2160 
    2066     2002     1954     1887     1728     1507     1354     1337 
    1555     2072     2732     3350     3867     4164     4180     4050 
    3847     3580     3369     3285     3245     3202     3096     2771 
    2241     1667     1108      658      442      317      163       86 
      45      -40      -33       44       55      106      263      427 
     676     1026     1297     1486     1657     1732     1768     1925 
    2139     2268     2266     2058     1638     1225      951      818 
     918     1227     1570     1899     2203     2466     2802     3249 
    3666     3943     4028     3882     3537     3111     2763     2552 
    2479     2535     2596     2578     2573     2539     2327     1975 
    1514      949      494      292      311      595     1134     1767 
    2392     2907     3160     3122     2817     2255     1602     1119 
     942     1125     1676     2397     2978     3235     3064     2458 
    1686     1088      818      965     1478     2064     2519     2803 
    2852     2710     2501     2188     1760     1348     1008      795 
     854     1136     1421     1636     1777     1840     1952     2176 
    2354     2392     2273     1929     1444     1031      756      627 
     746     1119     1621     2160     2629     2910     2968     2879 
    2751     2663     2610     2520     2343     2137     2012     2018 
    2139     2362     2666     3049     3523     4001     4306     4314 
    3969     3314     2550     1938     1679     1858     2384     3024 
    3511     3622     3252     2513     1678     1028      756      919 
    1418     2053     2594     2859     2791     2482     2095     1787 
    1653     1686     1782     1833     1811     1707     1536     1390 
    1331     1337     1422     1595     1760     1814     1726     1476 
    1136      884      824      978     1312     1661     1877     1984 
    2057     2134     2265     2457     2608     2658     2677     2709 
    2775     2928     3109     3190     3194     3175     3073     2902 
    2716     2516     2378     2385     2509     2691     2835     2798 
    2593     2411     2374     2459     2577     2597     2432     2142 
    1868     1706     1714     1888     2133     2366     2552     2647 
    2641     2582     2473     2334     2226     2157     2110     2083 
    2008     1815     1556     1310     1123     1055     1173     1470 
    1868     2228     2398     2313     2020     1579     1053      529 
      82     -197     -216       41      531     1169     1876     2600 
    3217     3589     3697     3554     3214     2803     2353     1842 
    1350      928      604      513      734     1188     1772     2369 
    2860     3195     3343     3262     2918     2363     1717     1109 
     727      754     1170     1804     2454     2898     3021     2860 
    2443     1804     1080      459       95       83      395      900 
    1501     2133     2687     3088     3322     3366     3226     3026 
    2917     2957     3105     3242     3260     3123     2866     2570 
    2323     2111     1922     1795     1790     1975     2344     2805 
    3252     3558     3624     3445     3073     2551     1944     1332 
     757      241     -194     -541     -769     -815     -625     -199 
     449     1235     1952     2481     2821     2953     2913     2790 
    2583     2332     2123     1894     1606     1351     1132      972 
     993     1206     1561     2054     2585     2990     3214     3280 
    3213     3106     3057     3029     3003     3030     3076     3148 
    3312     3499     3619     3650     3462     2975     2304     1602 
    1032      789      881     1128     1414     1649     1737     1699 
    1598     1435     1246     1109     1097     1233     1498     1768 
    1899     1884     1799     1706     1761     2070     2558     3078 
    3460     3534     3304     2924     2533     2277     2245     2304 
    2290     2182     1953     1603     1285     1109     1109     1320 
    1690     2069     2370     2533     2493     2285     2015     1710 
    1409     1208     1121     1124     1246     1458     1676     1876 
    2061     2209     2303     2332     2266     2115     1966     1894 
    1960     2205     2571     2940     3250     3481     3653     3827 
    4032     4191     4175     3889     3343     2666     2020     1540 
    1317     1378     1630     1925     2122     2123     1922     1586 
    1208      886      699      702      896     1225     1599     1900 
    2039     2054     2003     1904     1858     1964     2193     2481 
    2767     2953     2997     2947     2847     2721     2633     2575 
    2490     2386     2273     2126     2002     1956     1956     1980 
