Origin Time       2024/04/02 04:24:00
Lat.              40.133
Long.             141.712
Depth. (km)       71
Mag.              6.0
Station Code      HKD169
Station Lat.      41.9351
Station Long.     140.3678
Station Height(m) 111
Record Time       2024/04/02 04:25:42
Sampling Freq(Hz) 100Hz
Duration Time(s)  73
Dir.              N-S
Scale Factor      7845(gal)/8223790
Max. Acc. (gal)   2.222
Last Correction   2024/04/02 04:25:44
Memo.             
[...]
    4174     4237     4301     4352     4368     4351     4301     4229 
    4187     4253     4438     4618     4634     4499     4367     4337 
    4391     4407     4256     4006     3881     3981     4189     4333 
    4325     4155     3867     3604     3545     3743     4090     4395 
    4483     4333     4106     3975     3975     4048     4099     4008 
    3717     3311     2976     2856     2930     3041     3029     2889 
    2771     2812     2994     3213     3420     3639     3825     3902 
    3881     3847     3863     3923     3981     3994     3966     3928 
    3882     3842     3850     3908     3975     4008     3985     3931 
    3904     3896     3809     3603     3358     3148     2978     2863 
    2835     2911     3090     3339     3599     3780     3851     3866 
    3865     3834     3754     3653     3593     3620     3755     3967 
    4148     4217     4179     4067     3916     3748     3559     3384 
    3323     3433     3646     3843     3939     3912     3819     3786 
    3906     4105     4225     4210     4132     4106     4194     4360 
    4531     4637     4627     4491     4267     4012     3808     3730 
    3743     3738     3662     3591     3670     3960     4349     4664 
    4800     4750     4587     4423     4333     4301     4288     4301 
    4334     4367     4387     4353     4226     4054     3920     3866 
    3890     3956     4028     4093     4152     4220     4299     4369 
    4418     4448     4445     4398     4315     4221     4168     4224 
    4379     4518     4549     4476     4324     4110     3913     3843 
    3916     4062     4234     4457     4727     4939     5005     4951 
    4841     4719     4626     4557     4513     4544     4650     4749 
    4803     4855     4938     4968     4801     4428     4006     3703 
    3576     3596     3693     3813     3948     4082     4152     4117 
    3987     3827     3693     3618     3604     3640     3759     4009 
    4344     4665     4935     5158     5309     5344     5252     5111 
    5005     4932     4827     4625     4345     4085     3901     3789 
    3744     3766     3798     3743     3554     3330     3233     3295 
    3365     3302     3138     2991     2913     2909     3007     3179 
    3298     3262     3125     3060     3206     3547     3910     4112 
    4128     4091     4110     4172     4256     4399     4571     4631 
    4519     4351     4245     4205     4178     4122     4002     3807 
    3581     3402     3310     3308     3373     3443     3438     3319 
    3130     2970     2938     3064     3248     3346     3307     3195 
    3138     3264     3572     3933     4256     4531     4729     4800 
    4699     4406     4014     3705     3554     3501     3483     3450 
    3375     3306     3322     3402     3424     3288     3033     2821 
    2793     2932     3078     3079     2925     2714     2593     2660 
    2894     3172     3372     3457     3522     3682     3921     4108 
    4170     4171     4217     4311     4367     4348     4341     4422 
    4503     4442     4278     4167     4143     4125     4095     4105 
    4171     4251     4275     4191     4031     3892     3801     3697 
    3554     3404     3273     3202     3279     3558     3947     4229 
    4283     4193     4083     4045     4105     4201     4267     4282 
    4222     4085     3917     3804     3809     3917     4037     4097 
    4055     3909     3708     3531     3420     3343     3276     3257 
    3327     3484     3678     3866     4035     4183     4260     4226 
    4190     4321     4627     4931     5062     5012     4904     4823 
    4806     4880     5027     5193     5320     5383     5397     5382 
    5319     5158     4878     4572     4407     4415     4480     4503 
    4449     4355     4280     4255     4267     4264     4191     4066 
    3937     3815     3696     3607     3580     3635     3746     3840 
    3870     3877     3935     4047     4145     4213     4315     4450 
    4513     4434     4279     4151     4132     4236     4401     4498 
    4415     4141     3757     3400     3210     3206     3283     3369 
    3456     3522     3532     3474     3419     3503     3815     4295 
    4747     4974     4947     4776     4573     4473     4581     4842 
    5054     5059     4874     4594     4278     3977     3753     3658 
    3696     3812     3890     3850     3754     3735     3844     4016 
    4133     4098     3846     3384     2886     2602     2667     3025 
    3462     3740     3794     3716     3647     3689     3819     3906 
    3855     3713     3613     3595     3584     3564     3565     3555 
    3483     3372     3325     3380     3462     3491     3449     3399 
    3454     3676     3986     4212     4214     3997     3677     3404 
    3303     3377     3491     3501     3442     3462     3630     3894 
    4217     4531     4723     4756     4695     4604     4521     4473 
    4472     4477     4433     4347     4264     4221     4206     4170 
    4036     3777     3493     3330     3360     3553     3794     3973 
    4067     4118     4160     4199     4197     4116     3956     3766 
    3643     3665     3811     3987     4098     4117     4097     4101 
    4108     4048     3902     3726     3604     3601     3717     3902 
    4110     4311     4480     4585     4618     4606     4604     4657 
    4741     4774     4707     4558     4376     4212     4102     4068 
    4120     4291     4572     4851     5022     5105     5162     5155 
    4995     4648     4187     3773     3526     3461     3530     3699 
    3912     4081     4129     4082     4062     4145     4303     4476 
    4627     4753     4835     4812     4642     4391     4214     4212 
    4348     4503     4585     4564     4444     4268     4112     4051 
    4112     4218     4220     4013     3634     3268     3098     3125 
    3199     3200     3099     2948     2837     2840     2956     3105 
    3219     3307     3437     3650     3889     4023     3964     3735 
    3435     3173     3006     2929     2909     2911     2903     2855 
    2764     2685     2693     2826     3076     3416     3793     4094 
    4248     4305     4333     4334     4326     4314     4209     3981 
    3777     3704     3682     3601     3456     3331     3349     3538 
    3809     4036     4112     3971     3622     3167     2793     2694 
    2952     3442     3928     4286     4560     4795     4909     4785 
    4422     3944     3514     3245     3164     3250     3480     3767 
    4008     4183     4391     4710     5046     5208     5135     4928 
    4718     4579     4546     4599     4635     4564     4428     4345 
    4364     4434     4453     4342     4132     3932     3839     3846 
    3825     3707     3585     3609     3825     4148     4445     4604 
    4573     4349     4028     3793     3744     3802     3817     3746 
    3651     3589     3547     3481     3377     3296     3357     3662 
    4190     4754     5143     5231     5019     4656     4301     3991 
    3724     3565     3603     3850     4202     4514     4664     4639 
    4536     4449     4384     4282     4135     4028     4031     4087 
    4093     4018     3928     3900     3959     4087     4230     4337 
    4359     4274     4144     4068     4070     4097     4093     4058 
    4040     4058     4070     4036     3908     3655     3321     2988 
    2713     2509     2404     2439     2614     2895     3242     3607 
    3955     4286     4575     4727     4685     4522     4368     4244 
    4074     3855     3699     3688     3785     3856     3801     3636 
    3453     3300     3173     3087     3086     3140     3100     2875 
    2570     2423     2606     3096     3673     4105     4298     4324 
    4314     4320     4310     4259     4137     3939     3747     3708 
    3919     4318     4688     4792     4572     4189     3854     3677 
    3658     3747     3889     4054     4240     4464     4702     4845 
    4785     4513     4122     3774     3613     3700     3951     4183 
    4249     4170     4102     4171     4380     4637     4833     4924 
    4911     4795     4612     4461     4423     4537     4816     5170 
    5437     5551     5575     5591     5605     5560     5377     5034 
    4661     4473     4531     4708     4839     4835     4711     4544 
    4403     4351     4391     4422     4344     4185     4083     4110 
    4187     4213     4197     4191     4159     4016     3761     3472 
    3218     3011     2835     2721     2732     2859     3026     3172 
    3241     3184     3021     2857     2820     2947     3179     3458 
    3763     4031     4149     4050     3739     3322     3001     2972 
    3299     3807     4171     4218     4083     4047     4249     4526 
    4591     4379     4101     3982     4071     4305     4625     4969 
    5266     5456     5529     5537     5553     5634     5787     5898 
    5765     5281     4530     3775     3289     3172     3306     3470 
    3480     3262     2876     2457     2146     2011     2006     2045 
    2161     2488     3040     3596     3882     3832     3639     3538 
    3580     3662     3672     3569     3429     3376     3424     3445 
    3319     3046     2729     2515     2504     2678     2913     3084 
    3169     3284     3558     3928     4166     4170     4051     3986 
    4060     4195     4216     4039     3755     3526     3449     3503 
    3596     3708     3890     4124     4287     4298     4190     4083 
    4051     4075     4108     4145     4237     4444     4774     5188 
    5583     5803     5705     5274     4696     4261     4162     4367 
    4644     4735     4600     4418     4387     4537     4708     4746 
    4688     4684     4741     4700     4407     3870     3265     2837 
    2741     2968     3319     3516     3423     3156     2924     2822 
    2775     2636     2362     2049     1819     1733     1800     2019 
    2359     2743     3049     3241     3460     3859     4387     4833 
    5022     4935     4677     4417     4330     4476     4707     4820 
    4760     4631     4545     4517     4459     4263     3933     3635 
    3534     3616     3765     3923     4052     4066     3939     3801 
    3812     4002     4266     4476     4580     4568     4432     4237 
    4121     4179     4352     4461     4363     4087     3817     3726 
    3855     4093     4236     4141     3842     3527     3427     3667 
    4141     4556     4714     4664     4556     4488     4484     4498 
    4432     4232     3971     3784     3738     3794     3883     3969 
    4051     4129     4241     4442     4680     4812     4781     4671 
    4637     4789     5094     5381     5513     5502     5406     5233 
    5043     4981     5049     5013     4725     4356     4190     4266 
    4361     4271     4012     3800     3820     4031     4239     4314 
    4280     4217     4190     4236     4320     4321     4162     3896 
    3616     3368     3199     3184     3350     3574     3647     3497 
    3242     3002     2801     2606     2411     2277     2307     2502 
    2740     2921     3045     3154     3287     3465     3649     3765 
    3807     3815     3820     3816     3775     3713     3693     3742 
    3777     3697     3546     3520     3763     4167     4438     4391 
    4125     3858     3707     3665     3667     3630     3541     3477 
    3534     3767     4149     4554     4854     5038     5217     5485 
    5759     5852     5664     5262     4823     4513     4328     4122 
    3807     3439     3152     3028     3090     3321     3623     3808 
    3701     3357     3034     2971     3219     3627     3981     4159 
    4195     4228     4347     4480     4479     4280     3978     3742 
    3673     3743     3802     3727     3546     3402     3391     3497 
    3631     3692     3640     3545     3516     3599     3761     3983 
    4288     4637     4907     5020     4995     4893     4788     4749 
    4799     4895     4957     4904     4707     4448     4278     4261 
    4340     4419     4421     4256     3924     3593     3426     3422 
    3468     3438     3316     3206     3227     3418     3681     3875 
    3986     4149     4488     4923     5217     5254     5146     5051 
    4982     4862     4665     4445     4288     4236     4261     4320 
    4417     4544     4600     4488     4214     3840     3429     3057 
    2825     2751     2748     2683     2508     2342     2315     2411 
    2492     2434     2273     2216     2459     2986     3557     3905 
    3942     3839     3898     4248     4706     5004     5050     4951 
    4905     5049     5309     5468     5352     4986     4534     4108 
    3767     3538     3357     3164     2997     2928     2986     3165 
    3456     3824     4147     4293     4274     4189     4122     4171 
    4406     4746     5023     5142     5119     5051     5063     5159 
    5139     4842     4388     4056     3942     3924     3858     3661 
    3337     3028     2894     2967     3150     3326     3434     3481 
    3534     3647     3777     3823     3763     3663     3543     3354 
    3083     2814     2619     2479     2377     2301     2212     2103 
    2073     2192     2370     2482     2509     2550     2770     3211 
    3634     3727     3487     3226     3256     3634     4179     4660 
    4972     5142     5194     5101     4876     4611     4398     4259 
    4149     4052     4032     4140     4318     4467     4565     4715 
    4992     5354     5702     5981     6189     6305     6278     6083 
    5822     5657     5578     5427     5159     4904     4789     4811 
    4857     4807     4652     4469     4311     4151     3939     3665 
    3372     3119     2956     2932     3059     3273     3488     3631 
    3612     3410     3152     3017     3076     3242     3341     3273 
    3125     3069     3150     3253     3284     3300     3388     3550 
    3720     3807     3771     3669     3557     3431     3281     3159 
    3138     3242     3441     3674     3869     3969     3998     4078 
    4315     4665     4951     5059     5016     4897     4776     4722 
    4772     4892     5004     5032     4945     4760     4595     4621 
    4916     5367     5728     5773     5462     4965     4558     4436 
    4588     4785     4783     4571     4369     4378     4592     4831 
    4903     4784     4618     4517     4449     4325     4143     3987 
    3890     3780     3631     3530     3550     3690     3883     3985 
    3892     3654     3369     3083     2867     2817     2918     3042 
    3092     3084     3146     3396     3793     4167     4349     4317 
    4191     4097     4037     3966     3866     3730     3545     3368 
    3303     3402     3604     3775     3816     3751     3684     3686 
    3767     3875     3979     4072     4083     3937     3677     3416 
    3268     3284     3416     3557     3620     3595     3516     3407 
    3264     3113     3006     2984     3083     3287     3528     3743 
    3908     4039     4176     4340     4486     4553     4522     4421 
    4324     4268     4185     3993     3736     3520     3393     3354 
    3408     3555     3784     4014     4101     3989     3842     3878 
    4117     4372     4496     4561     4733     5034     5297     5306 
    4995     4510     4060     3692     3319     2898     2477     2176 
    2103     2212     2339     2358     2285     2249     2390     2714 
    3067     3242     3159     2956     2857     2952     3153     3308 
    3356     3384     3492     3676     3873     4029     4129     4190 
    4217     4194     4118     4058     4101     4245     4401     4513 
    4581     4612     4600     4533     4406     4266     4209     4271 
    4341     4294     4147     3994     3862     3746     3709     3831 
    4090     4357     4495     4531     4626     4858     5161     5413 
    5572     5683     5783     5857     5871     5792     5611     5332 
    4981     4648     4444     4438     4607     4838     4993     5016 
    4946     4874     4830     4712     4472     4206     4014     3928 
    3927     3936     3869     3701     3472     3252     3088     2976 
    2864     2716     2609     2695     3011     3399     3642     3661 
    3595     3669     3937     4228     4336     4244     4114     4108 
    4257     4467     4549     4380     4050     3770     3667     3705 
    3789     3863     3898     3850     3689     3446     3244     3219 
    3368     3577     3788     4010     4243     4442     4572     4630 
    4637     4600     4548     4567     4712     4903     4982     4846 
    4510     4132     3893     3836     3847     3785     3619     3437 
    3357     3414     3497     3472     3335     3200     3150     3196 
    3342     3615     3985     4332     4537     4590     4531     4398 
    4253     4214     4345     4579     4752     4726     4525     4286 
    4101     3935     3738     3534     3376     3271     3204     3171 
    3179     3217     3249     3253     3240     3231     3252     3312 
    3429     3586     3716     3778     3804     3854     3964     4097 
    4133     3996     3769     3682     3932     4441     4908     5073 
    4900     4554     4261     4132     4112     4079     3975     3863 
    3861     4006     4202     4290     4163     3901     3724     3778 
    3998     4176     4172     4052     3981     4005     4005     3856 
    3581     3307     3133     3079     3125     3195     3192     3096 
    2988     2984     3153     3414     3581     3566     3501     3578 
    3817     4052     4132     4079     4029     4066     4212     4463 
    4752     4946     4978     4899     4779     4642     4492     4360 
    4303     4340     4396     4394     4341     4288     4234     4180 
    4167     4197     4232     4293     4425     4575     4629     4579 
    4513     4465     4415     4374     4388     4452     4521     4579 
    4608     4575     4482     4382     4268     4072     3790     3503 
    3311     3302     3500     3807     4078     4245     4329     4372 
    4382     4349     4307     4317     4388     4492     4571     4545 
    4382     4129     3894     3778     3780     3797     3758     3678 
    3599     3515     3406     3308     3289     3345     3388     3377 
    3383     3469     3612     3758     3889     3971     3963     3871 
    3766     3734     3815     3977     4121     4168     4149     4152 
    4212     4287     4334     4360     4379     4367     4287     4155 
    4039     3998     4009     3986     3916     3852     3796     3665 
    3412     3136     2999     3086     3342     3647     3877     3966 
    3924     3805     3669     3543     3454     3415     3399     3350 
    3262     3181     3173     3272     3423     3538     3577     3538 
    3426     3273     3169     3210     3373     3520     3562     3542 
    3553     3603     3600     3495     3377     3354     3430     3518 
    3539     3495     3453     3429     3399     3408     3550     3836 
    4180     4494     4720     4834     4831     4764     4684     4623 
    4579     4502     4342     4174     4136     4294     4569     4815 
    4926     4872     4702     4531     4494     4602     4731     4750 
    4665     4590     4614     4731     4857     4912     4878     4749 
    4498     4153     3834     3626     3561     3650     3842     4021 
