Origin Time       2024/04/02 04:24:00
Lat.              40.133
Long.             141.712
Depth. (km)       71
Mag.              6.0
Station Code      HKD154
Station Lat.      42.0965
Station Long.     140.5636
Station Height(m) 83
Record Time       2024/04/02 04:25:15
Sampling Freq(Hz) 100Hz
Duration Time(s)  95
Dir.              U-D
Scale Factor      7845(gal)/8223790
Max. Acc. (gal)   1.720
Last Correction   2024/04/02 04:25:15
Memo.             
[...]
   -7994    -7998    -8002    -8002    -7998    -7994    -7993    -7993 
   -7996    -8000    -8002    -8004    -7998    -7992    -7993    -7993 
   -7993    -7998    -8005    -8006    -8004    -7998    -7992    -7992 
   -7993    -7993    -7997    -8002    -8001    -8000    -7998    -7997 
   -7994    -7993    -7993    -7997    -7998    -8000    -8000    -7997 
   -7994    -7992    -7992    -7993    -7996    -8000    -8001    -7998 
   -7994    -7993    -7994    -7996    -7994    -7997    -8002    -8005 
   -8002    -7997    -7993    -7992    -7989    -7993    -7998    -8000 
   -8002    -8001    -7996    -7993    -7992    -7990    -7990    -7994 
   -7996    -7998    -7998    -7996    -7993    -7990    -7992    -7998 
   -8002    -7998    -7996    -7996    -7996    -7994    -7993    -7996 
   -8002    -8002    -7998    -7998    -7998    -7996    -7994    -7994 
   -7992    -7994    -7998    -8001    -8001    -8000    -7997    -7993 
   -7992    -7992    -7994    -8000    -8000    -7997    -7998    -7998 
   -7996    -7993    -7994    -7998    -8000    -8000    -8001    -7998 
   -7994    -7994    -7996    -8001    -8005    -8005    -8002    -7997 
   -7992    -7992    -7994    -7997    -8000    -8002    -8002    -7998 
   -7997    -7996    -7994    -7993    -7994    -7998    -8000    -7998 
   -7998    -7998    -7994    -7994    -7996    -7996    -7996    -7998 
   -8000    -8000    -7998    -7996    -7994    -7996    -8000    -8002 
   -8000    -7998    -7996    -7996    -7996    -7997    -7998    -7997 
   -7998    -8001    -7998    -7996    -7997    -7996    -7994    -7997 
   -8001    -8001    -7996    -7993    -7996    -7996    -7993    -7993 
   -7993    -7994    -7997    -8001    -8001    -7997    -7994    -7990 
   -7987    -7989    -7994    -8002    -8006    -8002    -7998    -7994 
   -7989    -7990    -7997    -8000    -8002    -8005    -8002    -7994 
   -7987    -7987    -7989    -7993    -8000    -8004    -8000    -7994 
   -7990    -7987    -7989    -7990    -7992    -7997    -8002    -8004 
   -8004    -8002    -7998    -7994    -7987    -7985    -7992    -7994 
   -7996    -8004    -8012    -8008    -8000    -7992    -7987    -7992 
   -7997    -7997    -7997    -7996    -7992    -7990    -7996    -7997 
   -7992    -7996    -8001    -8004    -8002    -7997    -7990    -7989 
   -7992    -7996    -8000    -8002    -8004    -8004    -7998    -7993 
   -7990    -7994    -8000    -8005    -8006    -8001    -7993    -7987 
   -7986    -7983    -7987    -7997    -8002    -8005    -8008    -8004 
   -7996    -7989    -7985    -7985    -7993    -8000    -8006    -8010 
   -8005    -7994    -7990    -7992    -7996    -8002    -8002    -8002 
   -8004    -7998    -7990    -7989    -7993    -7994    -7996    -8000 
   -8002    -8000    -7997    -7996    -7993    -7993    -7996    -7996 
   -7998    -8001    -8001    -7998    -7996    -7994    -7994    -8000 
   -8005    -8004    -8000    -7997    -7993    -7990    -7987    -7985 
   -7987    -7992    -7996    -8000    -8004    -8006    -8001    -7993 
   -7992    -7993    -7994    -7998    -8000    -7998    -7997    -7996 
   -7996    -7997    -7998    -7997    -7994    -7997    -8000    -7996 
   -7996    -7996    -7993    -7993    -7996    -7998    -7998    -7997 
   -7996    -7993    -7993    -7997    -7997    -7996    -8000    -8002 
   -8000    -7996    -7993    -7992    -7990    -7990    -7997    -8004 
   -8005    -8001    -7997    -7994    -7993    -7993    -7997    -8000 
   -8000    -7998    -7994    -7992    -7993    -7994    -7996    -7997 
   -7998    -7997    -7997    -7996    -7992    -7992    -7992    -7992 
   -7994    -8000    -8002    -8001    -7996    -7989    -7990    -7996 
   -8001    -8004    -8004    -8002    -8001    -7994    -7989    -7990 
   -7996    -8001    -8004    -8004    -8001    -8000    -7990    -7983 
   -7986    -7990    -7997    -8005    -8008    -8006    -8002    -7996 
   -7993    -7992    -7993    -7998    -8004    -8006    -8004    -7997 
   -7989    -7986    -7990    -7994    -7996    -8000    -8001    -7998 
   -8000    -8001    -7993    -7989    -7993    -7998    -8001    -8005 
   -8005    -8001    -7994    -7992    -7993    -7994    -8000    -8004 
   -8006    -8008    -8000    -7987    -7985    -7989    -7994    -7998 
   -8002    -8004    -8000    -7994    -7994    -7997    -7997    -7994 
   -7996    -7997    -7996    -7997    -8001    -8002    -8000    -7994 
   -7989    -7989    -7992    -7993    -7998    -8004    -8004    -8000 
   -7996    -7994    -7996    -7998    -7998    -7998    -7997    -7996 
   -7996    -7996    -7996    -7998    -8001    -8001    -7997    -7993 
   -7992    -7994    -7993    -7993    -7996    -8000    -8000    -7997 
   -7992    -7992    -7996    -7997    -7997    -7996    -7994    -8000 
   -8000    -7998    -7997    -7993    -7990    -7994    -7997    -7997 
   -7998    -7998    -7996    -7994    -7992    -7987    -7990    -7996 
   -8001    -8005    -8002    -7996    -7993    -7993    -7992    -7994 
   -7998    -8002    -8004    -8001    -7994    -7990    -7993    -7996 
   -7997    -7997    -7998    -8002    -8002    -7996    -7992    -7992 
   -7994    -7997    -8000    -8000    -8000    -7998    -7994    -7993 
   -7994    -7994    -7996    -8000    -8001    -7998    -7996    -7997 
   -7996    -7989    -7985    -7987    -7998    -8002    -8002    -8002 
   -7998    -7992    -7992    -7990    -7993    -8001    -8004    -7997 
   -7993    -7990    -7989    -7993    -7994    -7996    -8001    -8002 
   -8000    -7997    -7993    -7994    -7998    -7996    -7993    -7996 
   -8000    -8004    -8001    -7994    -7993    -7994    -7996    -7996 
   -7996    -7998    -8002    -8001    -7997    -7992    -7989    -7989 
   -7994    -7998    -8002    -8004    -8000    -7994    -7993    -7996 
   -8000    -8002    -8001    -7998    -7996    -7996    -7994    -7992 
   -7990    -7993    -8001    -8002    -7997    -7996    -7993    -7987 
   -7985    -7989    -7998    -8005    -8006    -8002    -7996    -7990 
   -7990    -7987    -7992    -8002    -8004    -8005    -8008    -8002 
   -7993    -7990    -7990    -7990    -7997    -8002    -8002    -8002 
   -8001    -7997    -7994    -7990    -7987    -7996    -8002    -8004 
   -8004    -8002    -7996    -7990    -7989    -7992    -7998    -8004 
   -8004    -8005    -8001    -7992    -7985    -7987    -7994    -7997 
   -7998    -8001    -8002    -7997    -7992    -7989    -7987    -7990 
   -7997    -8000    -8000    -8004    -8002    -7997    -7993    -7989 
   -7989    -7996    -8001    -8005    -8004    -7998    -7993    -7990 
   -7987    -7989    -7994    -8000    -8005    -8004    -7994    -7990 
   -7990    -7990    -7993    -7998    -8001    -8004    -8002    -7993 
   -7983    -7985    -7992    -7998    -8004    -8002    -7998    -7997 
   -7994    -7992    -7993    -7994    -7990    -7990    -7998    -8004 
   -8004    -8001    -7992    -7987    -7992    -7992    -7994    -8001 
   -8002    -7998    -7993    -7992    -7994    -7994    -7994    -7997 
   -8000    -8001    -8001    -7997    -7993    -7992    -7992    -7996 
   -8001    -8002    -8001    -7997    -7993    -7992    -7993    -7994 
   -7993    -7993    -7996    -8000    -8000    -7993    -7992    -7993 
   -7992    -7992    -7994    -7998    -8002    -7998    -7996    -7996 
   -7994    -7992    -7996    -8002    -8008    -8005    -7998    -7990 
   -7989    -7989    -7990    -7996    -8000    -8001    -8001    -7996 
   -7992    -7994    -7997    -7997    -7996    -7997    -8001    -8004 
   -7998    -7996    -8000    -7998    -7998    -8000    -7998    -7997 
   -7996    -7994    -7996    -8001    -8004    -8004    -8001    -7996 
   -7993    -7994    -7996    -7994    -7997    -7997    -7994    -7997 
   -8000    -7998    -7997    -7994    -7992    -7994    -7997    -7996 
   -7997    -8002    -8004    -8001    -7997    -7993    -7994    -7996 
   -7996    -7997    -8001    -8002    -7997    -7993    -7994    -7996 
   -7998    -8002    -8002    -8002    -8001    -7996    -7992    -7990 
   -7992    -7996    -8002    -8008    -8009    -8006    -7996    -7987 
   -7987    -7992    -7997    -8002    -8005    -8000    -7994    -7994 
   -7996    -7998    -7998    -7993    -7990    -7994    -8000    -8001 
   -7998    -7996    -7996    -7993    -7994    -7997    -7996    -7996 
   -7997    -7992    -7990    -7994    -7997    -7997    -7996    -7996 
   -7998    -7996    -7994    -7994    -7994    -7996    -7997    -7997 
   -8000    -8000    -7997    -7996    -7996    -7994    -7994    -7993 
   -7993    -7996    -7996    -8001    -8004    -7998    -7994    -7990 
   -7989    -7993    -7997    -8000    -8004    -8001    -7996    -7994 
   -7993    -7992    -7994    -7996    -7996    -8000    -8000    -8000 
   -7998    -7992    -7990    -7997    -8000    -7994    -7993    -7993 
   -7993    -7994    -7997    -8000    -8001    -8002    -8004    -8002 
   -8000    -7996    -7993    -7990    -7993    -8000    -8004    -8004 
   -8002    -7998    -7993    -7989    -7987    -7993    -8000    -7997 
   -7997    -7998    -7998    -7998    -7997    -7993    -7992    -7990 
   -7993    -7996    -7997    -8000    -8000    -7994    -7989    -7986 
   -7992    -8001    -8008    -8009    -7998    -7987    -7985    -7990 
   -7997    -8002    -8004    -8002    -7996    -7990    -7989    -7992 
   -7996    -7997    -7997    -7998    -8000    -8001    -8000    -7994 
   -7992    -7992    -7996    -8000    -8004    -8004    -8000    -7996 
   -7993    -7992    -7997    -8002    -7998    -7994    -7997    -8000 
   -7997    -7996    -7996    -7996    -7996    -7998    -8001    -8001 
   -7998    -7993    -7989    -7989    -7992    -7997    -8001    -8004 
   -8005    -8000    -7992    -7992    -7996    -7997    -8002    -8002 
   -7997    -7993    -7993    -7994    -7994    -8000    -8000    -7997 
   -7996    -7996    -7997    -7998    -7994    -7990    -7990    -7994 
   -7998    -8002    -8006    -8004    -7998    -7996    -7994    -7994 
   -7996    -7996    -8001    -8008    -8008    -8005    -8008    -8012 
   -8016    -8024    -8031    -8039    -8043    -8044    -8040    -8032 
   -8021    -8009    -7994    -7982    -7970    -7955    -7943    -7938 
   -7944    -7956    -7974    -7998    -8024    -8058    -8104    -8154 
   -8201    -8243    -8272    -8287    -8279    -8248    -8197    -8139 
   -8083    -8044    -8027    -8028    -8046    -8073    -8100    -8131 
   -8155    -8149    -8117    -8062    -7977    -7866    -7746    -7643 
   -7597    -7619    -7686    -7786    -7913    -8054    -8189    -8293 
   -8347    -8348    -8303    -8229    -8144    -8068    -8006    -7948 
   -7886    -7820    -7773    -7766    -7792    -7825    -7850    -7852 
   -7830    -7796    -7780    -7800    -7858    -7931    -7992    -8051 
   -8133    -8236    -8326    -8359    -8322    -8260    -8217    -8194 
   -8190    -8214    -8263    -8294    -8282    -8239    -8183    -8140 
   -8133    -8137    -8112    -8024    -7846    -7601    -7387    -7291 
   -7333    -7465    -7612    -7717    -7773    -7788    -7767    -7695 
   -7549    -7372    -7265    -7281    -7385    -7491    -7557    -7605 
   -7636    -7623    -7573    -7541    -7574    -7673    -7804    -7946 
   -8078    -8158    -8143    -8025    -7840    -7651    -7508    -7434 
   -7419    -7470    -7591    -7750    -7920    -8104    -8305    -8509 
   -8673    -8745    -8675    -8433    -8085    -7796    -7701    -7790 
   -7943    -8048    -8087    -8120    -8193    -8293    -8374    -8407 
   -8413    -8422    -8436    -8422    -8364    -8274    -8132    -7920 
   -7676    -7485    -7462    -7663    -8019    -8380    -8649    -8779 
   -8749    -8571    -8298    -8035    -7893    -7885    -7933    -7997 
   -8104    -8268    -8432    -8494    -8422    -8287    -8199    -8220 
   -8330    -8434    -8409    -8221    -7970    -7792    -7731    -7751 
   -7798    -7812    -7769    -7705    -7684    -7719    -7794    -7897 
   -8041    -8236    -8419    -8499    -8426    -8206    -7901    -7626 
   -7465    -7425    -7497    -7672    -7893    -8087    -8182    -8122 
   -7938    -7719    -7573    -7574    -7700    -7844    -7954    -8077 
   -8233    -8365    -8426    -8436    -8421    -8348    -8209    -8085 
   -8046    -8063    -8050    -7951    -7788    -7593    -7406    -7290 
   -7299    -7465    -7796    -8193    -8482    -8568    -8484    -8305 
   -8121    -8028    -8043    -8116    -8194    -8253    -8316    -8430 
   -8588    -8706    -8718    -8648    -8581    -8544    -8460    -8270 
   -8012    -7792    -7703    -7731    -7796    -7866    -7975    -8118 
   -8229    -8244    -8178    -8093    -8025    -7948    -7863    -7825 
   -7843    -7865    -7859    -7857    -7924    -8073    -8232    -8348 
   -8425    -8472    -8459    -8316    -7998    -7580    -7204    -6993 
   -6999    -7204    -7507    -7751    -7834    -7815    -7832    -7894 
   -7928    -8000    -8218    -8499    -8637    -8533    -8268    -7938 
   -7519    -7020    -6628    -6571    -6880    -7395    -7951    -8473 
   -8919    -9189    -9158    -8799    -8271    -7786    -7429    -7188 
   -7084    -7156    -7422    -7843    -8279    -8572    -8638    -8475 
   -8185    -7913    -7711    -7534    -7375    -7311    -7430    -7736 
   -8114    -8376    -8370    -8108    -7751    -7479    -7352    -7349 
   -7495    -7823    -8230    -8545    -8706    -8742    -8656    -8333 
   -7700    -6943    -6380    -6197    -6426    -7033    -7925    -8885 
   -9586    -9799    -9552    -9035    -8394    -7719    -7161    -6916 
   -7038    -7392    -7816    -8236    -8608    -8873    -8949    -8850 
   -8726    -8676    -8637    -8519    -8336    -8190    -8168    -8235 
   -8244    -8063    -7700    -7311    -7071    -7037    -7169    -7426 
   -7792    -8203    -8510    -8559    -8324    -7905    -7487    -7263 
   -7346    -7719    -8229    -8672    -8897    -8896    -8764    -8546 
   -8230    -7846    -7499    -7307    -7303    -7396    -7514    -7654 
   -7831    -8046    -8266    -8417    -8455    -8394    -8275    -8136 
   -7998    -7861    -7712    -7565    -7464    -7462    -7557    -7689 
   -7815    -7954    -8154    -8434    -8760    -9057    -9265    -9316 
   -9167    -8850    -8410    -7862    -7252    -6693    -6336    -6289 
   -6559    -7084    -7701    -8220    -8536    -8653    -8654    -8629 
   -8577    -8465    -8343    -8311    -8406    -8537    -8580    -8506 
   -8348    -8137    -7885    -7595    -7330    -7245    -7415    -7754 
   -8101    -8334    -8410    -8341    -8162    -7916    -7653    -7480 
   -7530    -7842    -8268    -8563    -8607    -8469    -8253    -8001 
   -7761    -7624    -7589    -7526    -7412    -7427    -7708    -8149 
   -8479    -8480    -8174    -7789    -7551    -7537    -7647    -7746 
   -7788    -7840    -7979    -8187    -8398    -8563    -8617    -8487 
   -8182    -7828    -7614    -7659    -7950    -8357    -8725    -8916 
   -8878    -8644    -8295    -7917    -7577    -7318    -7199    -7299 
   -7614    -7992    -8268    -8382    -8386    -8360    -8313    -8194 
   -7986    -7712    -7441    -7258    -7213    -7312    -7557    -7938 
   -8359    -8629    -8596    -8284    -7839    -7399    -7061    -6890 
   -6897    -7078    -7418    -7869    -8336    -8708    -8872    -8768 
   -8446    -8048    -7751    -7670    -7758    -7871    -7911    -7890 
   -7919    -8094    -8409    -8735    -8935    -8924    -8696    -8344 
   -8013    -7809    -7739    -7755    -7797    -7823    -7836    -7851 
   -7890    -7933    -7896    -7735    -7588    -7657    -7956    -8276 
   -8463    -8560    -8627    -8577    -8328    -7959    -7635    -7423 
   -7307    -7321    -7510    -7811    -8073    -8162    -8070    -7911 
   -7788    -7747    -7808    -7960    -8159    -8333    -8413    -8336 
   -8095    -7770    -7506    -7414    -7534    -7834    -8241    -8644 
   -8885    -8849    -8546    -8110    -7688    -7349    -7152    -7168 
   -7418    -7857    -8353    -8710    -8784    -8588    -8264    -8002 
   -7888    -7875    -7904    -7989    -8164    -8390    -8533    -8518 
   -8405    -8268    -8106    -7897    -7678    -7542    -7534    -7620 
   -7758    -7925    -8066    -8121    -8110    -8110    -8172    -8245 
   -8233    -8097    -7874    -7628    -7423    -7323    -7364    -7539 
   -7815    -8112    -8370    -8572    -8695    -8668    -8437    -8062 
   -7759    -7713    -7857    -7970    -7932    -7765    -7534    -7273 
   -7018    -6867    -6928    -7187    -7526    -7825    -8017    -8090 
   -8075    -8025    -7998    -8040    -8175    -8387    -8621    -8784 
   -8802    -8689    -8550    -8478    -8475    -8465    -8364    -8162 
   -7917    -7713    -7622    -7681    -7855    -8054    -8190    -8243 
   -8209    -8054    -7803    -7585    -7506    -7553    -7686    -7920 
   -8241    -8523    -8627    -8538    -8397    -8336    -8336    -8314 
   -8241    -8117    -7956    -7780    -7645    -7601    -7611    -7596 
   -7580    -7666    -7858    -8005    -7994    -7874    -7744    -7649 
   -7555    -7454    -7425    -7565    -7884    -8279    -8590    -8706 
   -8641    -8506    -8394    -8340    -8359    -8395    -8332    -8128 
   -7855    -7612    -7456    -7371    -7323    -7331    -7434    -7618 
   -7827    -8024    -8197    -8332    -8392    -8337    -8178    -7993 
   -7850    -7763    -7707    -7662    -7655    -7724    -7877    -8090 
   -8324    -8529    -8654    -8648    -8484    -8221    -7946    -7713 
   -7574    -7582    -7744    -7971    -8136    -8170    -8108    -8017 
   -7939    -7897    -7897    -7913    -7909    -7894    -7921    -8002 
   -8066    -8063    -8012    -7967    -7989    -8100    -8283    -8513 
   -8753    -8927    -8954    -8827    -8611    -8380    -8163    -7946 
   -7728    -7573    -7530    -7580    -7657    -7713    -7759    -7789 
   -7753    -7603    -7396    -7276    -7335    -7534    -7744    -7877 
   -7952    -8024    -8095    -8154    -8214    -8284    -8317    -8248 
   -8101    -7994    -8024    -8160    -8306    -8370    -8325    -8206 
   -8066    -7981    -7990    -8068    -8167    -8226    -8205    -8120 
   -8023    -7965    -8001    -8136    -8305    -8436    -8498    -8496 
   -8432    -8297    -8113    -7942    -7813    -7719    -7680    -7727 
   -7839    -7933    -7913    -7750    -7511    -7264    -7037    -6891 
   -6924    -7176    -7560    -7942    -8239    -8391    -8352    -8124 
   -7817    -7607    -7614    -7848    -8218    -8559    -8721    -8669 
   -8483    -8282    -8148    -8101    -8104    -8105    -8097    -8113 
   -8171    -8248    -8314    -8344    -8287    -8110    -7865    -7658 
   -7593    -7680    -7800    -7831    -7777    -7722    -7723    -7770 
   -7852    -7978    -8121    -8201    -8156    -7985    -7749    -7538 
   -7403    -7348    -7384    -7527    -7750    -7963    -8079    -8094 
   -8082    -8083    -8077    -8062    -8085    -8175    -8291    -8364 
   -8371    -8307    -8155    -7928    -7700    -7553    -7543    -7658 
   -7807    -7916    -7975    -7990    -7987    -8010    -8071    -8148 
   -8193    -8159    -8071    -8004    -7962    -7890    -7751    -7591 
   -7488    -7500    -7615    -7767    -7898    -8001    -8097    -8179 
   -8218    -8222    -8225    -8206    -8127    -7997    -7898    -7915 
   -8035    -8151    -8191    -8171    -8158    -8175    -8178    -8133 
