Origin Time       2024/04/02 04:24:00
Lat.              40.133
Long.             141.712
Depth. (km)       71
Mag.              6.0
Station Code      HKD162
Station Lat.      41.4859
Station Long.     140.2469
Station Height(m) 17
Record Time       2024/04/02 04:25:06
Sampling Freq(Hz) 100Hz
Duration Time(s)  106
Dir.              U-D
Scale Factor      7845(gal)/8223790
Max. Acc. (gal)   4.544
Last Correction   2024/04/02 04:25:06
Memo.             
[...]
   -7631    -7632    -7632    -7632    -7632    -7632    -7632    -7634 
   -7631    -7630    -7630    -7631    -7632    -7634    -7632    -7632 
   -7632    -7630    -7630    -7632    -7631    -7631    -7632    -7631 
   -7631    -7631    -7631    -7631    -7632    -7632    -7631    -7628 
   -7630    -7630    -7628    -7631    -7632    -7630    -7630    -7632 
   -7630    -7630    -7632    -7632    -7631    -7632    -7634    -7628 
   -7630    -7632    -7632    -7631    -7631    -7631    -7630    -7632 
   -7632    -7631    -7632    -7632    -7631    -7631    -7632    -7631 
   -7628    -7632    -7634    -7628    -7628    -7634    -7636    -7632 
   -7630    -7630    -7631    -7631    -7631    -7632    -7631    -7632 
   -7632    -7631    -7631    -7631    -7630    -7630    -7628    -7630 
   -7631    -7630    -7628    -7630    -7632    -7631    -7630    -7632 
   -7635    -7632    -7630    -7631    -7630    -7630    -7630    -7630 
   -7631    -7630    -7628    -7631    -7631    -7631    -7631    -7632 
   -7632    -7631    -7631    -7634    -7632    -7630    -7631    -7631 
   -7632    -7632    -7630    -7631    -7631    -7628    -7631    -7635 
   -7631    -7630    -7635    -7635    -7631    -7631    -7634    -7631 
   -7631    -7632    -7632    -7630    -7631    -7632    -7631    -7631 
   -7634    -7634    -7634    -7634    -7634    -7632    -7632    -7634 
   -7631    -7631    -7635    -7634    -7630    -7631    -7632    -7631 
   -7631    -7634    -7634    -7631    -7630    -7631    -7631    -7630 
   -7631    -7631    -7630    -7632    -7635    -7634    -7634    -7632 
   -7630    -7631    -7632    -7634    -7632    -7632    -7631    -7632 
   -7632    -7631    -7631    -7632    -7632    -7632    -7632    -7632 
   -7632    -7634    -7635    -7632    -7630    -7631    -7632    -7632 
   -7631    -7634    -7634    -7632    -7634    -7634    -7634    -7632 
   -7631    -7631    -7634    -7631    -7631    -7634    -7634    -7632 
   -7631    -7630    -7631    -7632    -7632    -7631    -7631    -7632 
   -7634    -7634    -7634    -7634    -7632    -7631    -7631    -7632 
   -7632    -7631    -7630    -7630    -7632    -7634    -7635    -7632 
   -7632    -7634    -7632    -7631    -7631    -7632    -7632    -7632 
   -7634    -7634    -7632    -7630    -7630    -7634    -7635    -7631 
   -7631    -7634    -7631    -7630    -7632    -7634    -7632    -7630 
   -7630    -7631    -7631    -7631    -7634    -7634    -7631    -7632 
   -7634    -7632    -7631    -7632    -7632    -7632    -7631    -7630 
   -7630    -7632    -7634    -7632    -7630    -7631    -7634    -7632 
   -7628    -7630    -7632    -7630    -7630    -7632    -7631    -7628 
   -7630    -7631    -7631    -7630    -7631    -7634    -7632    -7631 
   -7632    -7632    -7631    -7632    -7632    -7631    -7634    -7635 
   -7632    -7631    -7632    -7631    -7631    -7632    -7634    -7631 
   -7631    -7631    -7631    -7632    -7632    -7631    -7632    -7632 
   -7632    -7634    -7632    -7630    -7630    -7631    -7630    -7630 
   -7632    -7632    -7632    -7632    -7630    -7630    -7632    -7632 
   -7631    -7631    -7632    -7632    -7630    -7628    -7631    -7632 
   -7631    -7628    -7630    -7632    -7631    -7632    -7632    -7632 
   -7630    -7630    -7631    -7631    -7631    -7632    -7634    -7632 
   -7631    -7630    -7628    -7630    -7634    -7632    -7630    -7632 
   -7634    -7631    -7631    -7632    -7631    -7631    -7630    -7630 
   -7631    -7632    -7628    -7630    -7634    -7634    -7632    -7634 
   -7632    -7631    -7631    -7631    -7630    -7628    -7628    -7631 
   -7632    -7631    -7632    -7634    -7632    -7632    -7634    -7634 
   -7632    -7630    -7631    -7632    -7632    -7631    -7631    -7630 
   -7631    -7631    -7631    -7632    -7632    -7632    -7631    -7630 
   -7630    -7632    -7634    -7634    -7632    -7631    -7630    -7634 
   -7634    -7628    -7631    -7631    -7628    -7631    -7634    -7634 
   -7632    -7631    -7631    -7632    -7632    -7632    -7631    -7631 
   -7631    -7631    -7632    -7632    -7631    -7631    -7634    -7634 
   -7632    -7632    -7635    -7635    -7631    -7630    -7632    -7634 
   -7634    -7632    -7632    -7634    -7632    -7628    -7631    -7635 
   -7632    -7630    -7632    -7634    -7632    -7632    -7634    -7632 
   -7632    -7632    -7631    -7632    -7635    -7634    -7631    -7631 
   -7631    -7632    -7632    -7632    -7632    -7632    -7634    -7635 
   -7634    -7632    -7632    -7631    -7631    -7630    -7632    -7634 
   -7634    -7632    -7631    -7631    -7634    -7634    -7632    -7631 
   -7632    -7632    -7632    -7632    -7632    -7631    -7634    -7636 
   -7632    -7631    -7632    -7632    -7632    -7632    -7632    -7632 
   -7631    -7631    -7631    -7630    -7630    -7631    -7631    -7630 
   -7632    -7634    -7631    -7631    -7631    -7631    -7634    -7634 
   -7631    -7631    -7632    -7632    -7631    -7630    -7632    -7632 
   -7632    -7632    -7632    -7631    -7632    -7634    -7631    -7631 
   -7634    -7631    -7631    -7634    -7631    -7628    -7630    -7632 
   -7632    -7631    -7630    -7630    -7631    -7630    -7630    -7631 
   -7628    -7628    -7631    -7630    -7627    -7631    -7634    -7632 
   -7631    -7632    -7630    -7628    -7630    -7634    -7632    -7631 
   -7631    -7631    -7632    -7631    -7630    -7632    -7631    -7630 
   -7631    -7631    -7628    -7628    -7630    -7630    -7631    -7634 
   -7632    -7631    -7631    -7631    -7632    -7632    -7630    -7631 
   -7634    -7631    -7630    -7632    -7632    -7632    -7634    -7634 
   -7632    -7630    -7630    -7632    -7631    -7631    -7632    -7631 
   -7630    -7631    -7631    -7631    -7632    -7632    -7630    -7628 
   -7632    -7635    -7634    -7632    -7634    -7632    -7631    -7632 
   -7632    -7630    -7631    -7634    -7634    -7631    -7630    -7630 
   -7630    -7632    -7634    -7630    -7628    -7632    -7632    -7631 
   -7632    -7631    -7630    -7632    -7632    -7631    -7632    -7634 
   -7632    -7631    -7631    -7631    -7632    -7632    -7634    -7635 
   -7632    -7630    -7632    -7632    -7630    -7632    -7635    -7634 
   -7632    -7631    -7631    -7632    -7630    -7628    -7632    -7635 
   -7632    -7632    -7631    -7632    -7634    -7632    -7632    -7632 
   -7630    -7632    -7635    -7635    -7631    -7630    -7632    -7634 
   -7632    -7631    -7631    -7631    -7631    -7631    -7631    -7630 
   -7630    -7630    -7634    -7634    -7631    -7631    -7632    -7635 
   -7635    -7630    -7628    -7634    -7634    -7632    -7634    -7634 
   -7631    -7630    -7631    -7632    -7634    -7632    -7631    -7632 
   -7632    -7632    -7632    -7635    -7634    -7630    -7631    -7632 
   -7630    -7630    -7632    -7635    -7634    -7631    -7630    -7632 
   -7632    -7630    -7631    -7634    -7634    -7632    -7630    -7631 
   -7632    -7631    -7630    -7632    -7634    -7632    -7630    -7632 
   -7634    -7631    -7631    -7632    -7631    -7628    -7630    -7632 
   -7632    -7632    -7632    -7632    -7630    -7630    -7630    -7631 
   -7632    -7634    -7631    -7631    -7632    -7632    -7631    -7632 
   -7634    -7632    -7634    -7634    -7630    -7630    -7631    -7630 
   -7631    -7632    -7630    -7631    -7634    -7632    -7628    -7630 
   -7631    -7630    -7630    -7631    -7631    -7628    -7628    -7628 
   -7630    -7632    -7635    -7634    -7630    -7630    -7630    -7631 
   -7632    -7634    -7632    -7631    -7630    -7631    -7630    -7630 
   -7631    -7632    -7632    -7632    -7631    -7630    -7630    -7631 
   -7632    -7631    -7631    -7634    -7631    -7631    -7632    -7631 
   -7630    -7631    -7631    -7631    -7631    -7628    -7628    -7631 
   -7631    -7631    -7631    -7632    -7631    -7631    -7631    -7630 
   -7628    -7630    -7631    -7631    -7632    -7631    -7631    -7630 
   -7630    -7631    -7632    -7631    -7631    -7631    -7631    -7632 
   -7631    -7630    -7630    -7631    -7630    -7632    -7635    -7632 
   -7627    -7630    -7634    -7630    -7630    -7634    -7634    -7632 
   -7634    -7632    -7631    -7630    -7631    -7632    -7634    -7631 
   -7628    -7631    -7632    -7628    -7627    -7631    -7631    -7630 
   -7631    -7634    -7631    -7630    -7630    -7628    -7630    -7635 
   -7632    -7628    -7631    -7634    -7631    -7632    -7634    -7631 
   -7627    -7630    -7631    -7630    -7632    -7635    -7632    -7630 
   -7631    -7632    -7631    -7632    -7634    -7631    -7631    -7632 
   -7634    -7631    -7630    -7631    -7632    -7632    -7631    -7634 
   -7634    -7632    -7634    -7632    -7631    -7632    -7634    -7631 
   -7630    -7634    -7634    -7631    -7630    -7632    -7635    -7632 
   -7631    -7631    -7631    -7631    -7631    -7632    -7632    -7630 
   -7630    -7634    -7631    -7630    -7634    -7634    -7631    -7630 
   -7632    -7632    -7632    -7634    -7634    -7631    -7630    -7632 
   -7634    -7631    -7631    -7632    -7632    -7631    -7632    -7632 
   -7631    -7632    -7632    -7630    -7632    -7635    -7632    -7631 
   -7632    -7632    -7631    -7630    -7630    -7632    -7632    -7631 
   -7631    -7632    -7631    -7631    -7631    -7632    -7631    -7630 
   -7631    -7631    -7631    -7631    -7630    -7631    -7632    -7632 
   -7631    -7631    -7632    -7630    -7630    -7631    -7631    -7631 
   -7634    -7632    -7630    -7631    -7634    -7631    -7630    -7631 
   -7630    -7630    -7631    -7628    -7628    -7632    -7632    -7631 
   -7632    -7630    -7627    -7628    -7630    -7630    -7632    -7631 
   -7630    -7631    -7630    -7628    -7628    -7631    -7631    -7631 
   -7631    -7631    -7631    -7630    -7630    -7630    -7632    -7631 
   -7628    -7631    -7631    -7628    -7628    -7628    -7630    -7632 
   -7631    -7630    -7631    -7632    -7631    -7632    -7632    -7628 
   -7628    -7631    -7630    -7630    -7634    -7632    -7628    -7628 
   -7631    -7631    -7628    -7630    -7634    -7634    -7631    -7632 
   -7634    -7630    -7631    -7632    -7631    -7632    -7634    -7632 
   -7631    -7631    -7628    -7630    -7634    -7634    -7632    -7632 
   -7631    -7634    -7632    -7631    -7632    -7631    -7631    -7632 
   -7632    -7632    -7631    -7631    -7631    -7630    -7630    -7630 
   -7628    -7630    -7632    -7631    -7631    -7632    -7632    -7632 
   -7632    -7631    -7632    -7632    -7631    -7631    -7630    -7631 
   -7631    -7630    -7630    -7632    -7632    -7631    -7632    -7634 
   -7634    -7631    -7630    -7632    -7634    -7634    -7632    -7634 
   -7632    -7632    -7631    -7630    -7628    -7631    -7634    -7635 
   -7631    -7630    -7631    -7632    -7634    -7631    -7630    -7631 
   -7632    -7632    -7634    -7635    -7634    -7632    -7632    -7632 
   -7632    -7631    -7632    -7632    -7631    -7632    -7632    -7631 
   -7630    -7628    -7631    -7635    -7634    -7634    -7634    -7630 
   -7631    -7634    -7632    -7630    -7630    -7631    -7631    -7632 
   -7634    -7632    -7630    -7630    -7632    -7632    -7630    -7632 
   -7634    -7631    -7632    -7632    -7632    -7634    -7632    -7630 
   -7631    -7631    -7630    -7631    -7634    -7632    -7631    -7632 
   -7631    -7631    -7635    -7635    -7630    -7630    -7632    -7631 
   -7630    -7632    -7631    -7632    -7634    -7634    -7632    -7631 
   -7632    -7631    -7628    -7631    -7635    -7631    -7631    -7634 
   -7634    -7632    -7632    -7632    -7631    -7630    -7631    -7632 
   -7634    -7632    -7631    -7630    -7631    -7632    -7631    -7631 
   -7632    -7632    -7632    -7632    -7630    -7630    -7632    -7634 
   -7632    -7630    -7634    -7635    -7631    -7630    -7632    -7631 
   -7631    -7631    -7631    -7632    -7632    -7632    -7634    -7631 
   -7628    -7632    -7632    -7631    -7631    -7631    -7632    -7632 
   -7632    -7632    -7631    -7630    -7631    -7631    -7632    -7631 
   -7631    -7631    -7631    -7632    -7632    -7631    -7631    -7630 
   -7632    -7634    -7632    -7631    -7631    -7632    -7634    -7632 
   -7632    -7632    -7630    -7628    -7631    -7628    -7627    -7631 
   -7634    -7631    -7630    -7631    -7632    -7630    -7631    -7632 
   -7630    -7631    -7632    -7631    -7630    -7631    -7631    -7630 
   -7628    -7630    -7631    -7628    -7626    -7627    -7630    -7631 
   -7641    -7658    -7686    -7722    -7763    -7811    -7854    -7890 
   -7916    -7917    -7885    -7816    -7709    -7568    -7410    -7265 
   -7149    -7067    -7010    -6972    -6968    -7013    -7095    -7200 
   -7341    -7538    -7807    -8141    -8521    -8887    -9177    -9355 
   -9387    -9267    -9055    -8816    -8545    -8251    -7916    -7456 
   -6899    -6451    -6232    -6165    -6178    -6289    -6515    -6835 
   -7156    -7277    -7117    -6856    -6650    -6469    -6416    -6832 
   -7784    -8800    -9459    -9782    -9849    -9579    -8946    -8033 
   -7052    -6335    -5913    -5491    -5124    -5211    -5809    -6664 
   -7639    -8556    -9107    -9238    -9054    -8506    -7622    -6669 
   -6042    -6095    -6849    -8040    -9329   -10350   -10860   -10862 
  -10461    -9927    -9566    -9315    -8947    -8446    -7771    -6913 
   -6270    -6150    -6183    -6070    -6166    -6628    -7092    -7242 
   -6812    -5775    -4671    -3875    -3252    -2868    -3059    -3782 
   -4592    -5277    -6068    -7061    -7948    -8359    -8257    -8168 
   -8665    -9463    -9672    -9065    -8415    -8426    -8731    -8568 
   -8163    -8422    -9364    -9992    -9823    -9468    -9424    -9394 
   -9076    -8758    -9104   -10184   -10963   -10673    -9840    -9170 
   -8743    -8283    -7545    -6894    -6864    -7246    -7546    -7423 
   -6832    -6478    -6961    -7755    -8139    -8124    -8078    -8170 
   -8178    -7738    -6957    -6446    -6609    -7285    -8023    -8537 
   -8868    -8968    -8398    -7060    -5819    -5433    -5641    -6127 
   -7005    -7839    -7817    -6999    -6149    -5713    -5787    -6291 
   -6918    -7549    -8167    -8397    -7973    -7214    -6567    -6354 
   -6783    -7635    -8235    -8172    -7558    -6511    -5293    -4716 
   -5320    -6666    -8074    -9167    -9535    -8922    -7744    -6786 
   -6597    -7308    -8584    -9904   -10885   -10997    -9946    -8472 
   -7322    -6377    -5706    -5732    -6454    -7535    -8483    -8849 
   -8802    -8872    -9007    -8741    -8213    -7993    -8101    -7898 
   -7086    -6443    -6585    -6957    -7129    -7384    -7672    -7703 
   -7678    -7641    -7156    -6461    -6543    -7514    -8299    -8469 
   -8779    -9134    -8514    -7317    -6794    -6822    -6682    -6619 
   -7242    -8333    -9022    -9073    -8861    -8301    -7519    -7311 
   -7735    -8145    -8217    -7881    -7615    -7954    -8160    -7593 
   -7014    -6714    -6048    -5301    -5482    -6389    -6731    -6346 
   -6401    -7036    -7446    -7781    -8217    -8097    -7495    -7168 
   -7150    -7265    -7844    -8733    -9043    -8640    -8553    -9363 
  -10250   -10187    -9267    -8240    -7392    -6554    -5737    -5317 
   -5525    -6124    -6771    -7169    -7125    -6961    -7188    -7682 
   -8016    -8136    -8118    -7973    -7888    -7854    -7541    -7068 
   -6912    -6993    -7114    -7615    -8469    -8953    -8924    -8870 
   -8779    -8455    -8010    -7539    -7339    -7528    -7416    -6863 
   -6720    -7010    -7006    -6787    -6921    -7523    -8364    -9111 
   -9340    -9026    -8704    -8498    -7992    -7533    -7608    -7491 
   -6721    -6126    -6134    -6393    -6736    -7037    -7222    -7573 
   -8039    -8181    -8063    -7815    -7223    -6554    -6365    -6743 
   -7396    -7985    -8392    -8592    -8409    -7981    -7753    -7744 
   -7753    -7967    -8583    -9188    -9286    -9094    -8919    -8545 
   -7977    -7555    -7342    -7331    -7658    -8218    -8565    -8252 
   -7210    -5918    -5260    -5764    -6876    -7708    -8195    -8467 
   -8168    -7479    -7142    -7169    -7176    -7291    -7596    -7821 
   -7753    -7271    -6660    -6550    -6890    -7172    -7303    -7253 
   -7025    -6835    -6598    -6250    -6177    -6531    -7123    -7965 
   -8896    -9410    -9479    -9491    -9319    -8677    -7932    -7581 
   -7627    -7992    -8689    -9271    -9270    -8985    -8675    -8116 
   -7488    -7157    -7159    -7400    -7457    -7123    -7074    -7500 
   -7572    -7005    -6385    -6037    -5895    -5958    -6255    -6729 
   -7203    -7578    -7993    -8374    -8476    -8364    -8094    -7777 
   -7847    -8218    -8467    -8581    -8378    -7866    -7819    -8318 
   -8557    -8330    -7982    -7659    -7466    -7420    -7307    -7109 
   -6980    -6837    -6682    -6702    -6682    -6288    -5837    -5980 
   -6804    -7681    -8046    -8077    -8252    -8492    -8384    -7950 
   -7497    -7173    -7076    -7348    -7830    -8063    -7975    -7989 
   -8094    -7865    -7545    -7474    -7237    -6841    -6913    -7281 
   -7389    -7457    -7912    -8484    -8779    -8893    -8901    -8711 
   -8459    -8147    -7701    -7485    -7492    -7226    -6986    -7375 
   -8108    -8594    -8537    -8048    -7767    -7898    -7781    -7229 
   -6783    -6654    -6716    -6831    -6845    -6902    -7061    -6983 
   -6799    -7037    -7735    -8688    -9481    -9404    -8491    -7577 
   -7029    -6772    -6930    -7469    -8046    -8476    -8896    -9360 
   -9385    -8656    -7762    -7188    -6708    -6292    -6228    -6450 
   -6774    -7121    -7198    -6983    -7017    -7326    -7368    -7161 
   -7061    -7067    -7032    -6924    -7055    -7739    -8484    -8657 
   -8309    -7798    -7557    -7680    -7713    -7549    -7587    -7989 
   -8433    -8448    -8149    -8148    -8425    -8375    -7896    -7468 
   -7477    -7935    -8541    -8899    -8892    -8706    -8498    -8222 
   -7773    -7307    -7088    -7018    -6821    -6542    -6528    -6794 
   -6883    -6779    -6868    -6993    -6885    -6809    -6972    -7246 
   -7506    -7622    -7589    -7622    -7830    -8193    -8664    -9004 
   -8980    -8680    -8307    -7996    -7732    -7329    -6880    -6729 
   -6917    -7263    -7609    -7935    -8310    -8465    -7977    -7117 
   -6636    -6783    -7246    -7624    -7631    -7381    -7206    -7152 
   -7242    -7616    -8144    -8634    -8891    -8710    -8432    -8334 
   -8005    -7524    -7506    -7739    -7732    -7611    -7395    -7020 
   -6870    -7121    -7489    -7848    -8154    -8326    -8391    -8187 
   -7562    -6852    -6378    -6042    -5810    -5842    -6204    -6907 
   -7751    -8208    -8109    -7881    -7807    -7744    -7595    -7600 
   -7979    -8349    -8218    -7798    -7511    -7383    -7338    -7410 
   -7558    -7626    -7614    -7657    -7720    -7801    -7912    -7844 
   -7700    -7888    -8262    -8286    -7879    -7464    -7325    -7380 
   -7507    -7692    -7952    -8330    -8598    -8407    -8025    -7963 
   -8074    -7894    -7489    -7322    -7392    -7299    -7102    -7172 
   -7414    -7402    -7165    -7175    -7423    -7412    -7211    -7287 
   -7466    -7345    -7123    -7184    -7603    -8148    -8316    -7965 
