Origin Time       2024/04/02 04:24:00
Lat.              40.133
Long.             141.712
Depth. (km)       71
Mag.              6.0
Station Code      HKD113
Station Lat.      42.1287
Station Long.     143.3153
Station Height(m) 15
Record Time       2024/04/02 04:25:44
Sampling Freq(Hz) 100Hz
Duration Time(s)  60
Dir.              U-D
Scale Factor      3920(gal)/6182761
Max. Acc. (gal)   0.776
Last Correction   2024/04/02 04:25:44
Memo.             
[...]
  -15109   -15318   -15507   -15521   -15476   -15364   -15378   -15628 
  -15687   -15491   -15437   -15488   -15462   -15464   -15484   -15444 
  -15396   -15325   -15267   -15258   -15142   -15043   -15249   -15486 
  -15407   -15312   -15473   -15568   -15404   -15257   -15271   -15310 
  -15274   -15206   -15192   -15314   -15522   -15591   -15425   -15184 
  -15136   -15352   -15487   -15418   -15395   -15420   -15378   -15337 
  -15344   -15331   -15257   -15201   -15233   -15287   -15232   -15196 
  -15415   -15577   -15345   -15185   -15380   -15521   -15474   -15401 
  -15379   -15458   -15475   -15335   -15311   -15500   -15663   -15638 
  -15431   -15189   -15170   -15387   -15489   -15348   -15246   -15345 
  -15579   -15710   -15522   -15264   -15268   -15455   -15628   -15652 
  -15509   -15399   -15400   -15339   -15297   -15438   -15473   -15311 
  -15301   -15386   -15404   -15487   -15501   -15325   -15215   -15279 
  -15380   -15436   -15338   -15229   -15448   -15593   -15247   -15074 
  -15351   -15439   -15205   -14967   -14997   -15341   -15461   -15201 
  -15190   -15449   -15438   -15231   -15331   -15693   -15770   -15571 
  -15491   -15471   -15464   -15529   -15538   -15539   -15431   -15107 
  -15056   -15372   -15443   -15214   -15126   -15301   -15545   -15584 
  -15408   -15281   -15275   -15320   -15397   -15433   -15350   -15262 
  -15312   -15316   -15163   -15154   -15312   -15415   -15449   -15329 
  -15268   -15505   -15481   -15148   -15205   -15499   -15557   -15443 
  -15216   -15020   -15132   -15396   -15434   -15304   -15325   -15403 
  -15287   -15171   -15284   -15474   -15421   -15158   -15141   -15325 
  -15252   -15121   -15348   -15637   -15601   -15530   -15600   -15507 
  -15291   -15165   -15104   -15147   -15274   -15394   -15540   -15548 
  -15365   -15305   -15289   -15136   -15150   -15336   -15426   -15489 
  -15502   -15352   -15286   -15389   -15371   -15256   -15216   -15177 
  -15313   -15672   -15725   -15477   -15437   -15582   -15633   -15410 
  -15165   -15410   -15696   -15425   -15200   -15372   -15491   -15446 
  -15289   -15068   -15097   -15386   -15458   -15148   -14902   -15036 
  -15334   -15462   -15311   -15103   -15106   -15214   -15176   -15143 
  -15369   -15536   -15391   -15308   -15414   -15454   -15408   -15318 
  -15210   -15298   -15530   -15603   -15588   -15551   -15351   -15209 
  -15288   -15339   -15408   -15649   -15771   -15625   -15473   -15508 
  -15588   -15449   -15218   -15217   -15406   -15524   -15463   -15337 
  -15247   -15225   -15304   -15433   -15595   -15614   -15319   -15187 
  -15448   -15518   -15253   -15101   -15213   -15376   -15383   -15251 
  -15168   -15305   -15490   -15443   -15413   -15566   -15546   -15357 
  -15222   -15065   -15021   -15298   -15481   -15266   -15180   -15466 
  -15687   -15583   -15254   -15073   -15208   -15395   -15494   -15420 
  -15185   -15153   -15447   -15658   -15518   -15366   -15476   -15496 
  -15291   -15250   -15406   -15451   -15241   -15004   -15121   -15411 
  -15457   -15315   -15246   -15395   -15597   -15602   -15477   -15375 
  -15376   -15393   -15259   -15191   -15408   -15549   -15338   -15126 
  -15248   -15511   -15563   -15446   -15411   -15432   -15393   -15369 
  -15435   -15547   -15660   -15611   -15303   -15120   -15352   -15651 
  -15593   -15239   -15051   -15216   -15331   -15176   -15067   -15263 
  -15531   -15457   -15253   -15455   -15714   -15498   -15185   -15232 
  -15512   -15629   -15510   -15397   -15222   -14993   -15073   -15317 
  -15310   -15194   -15277   -15549   -15690   -15473   -15344   -15489 
  -15351   -15097   -15242   -15414   -15334   -15314   -15361   -15305 
  -15338   -15490   -15527   -15472   -15382   -15282   -15313   -15398 
  -15321   -15161   -15193   -15396   -15602   -15765   -15721   -15455 
  -15254   -15248   -15366   -15433   -15411   -15478   -15493   -15372 
  -15450   -15680   -15725   -15502   -15243   -15340   -15641   -15641 
  -15399   -15266   -15262   -15165   -15033   -15174   -15455   -15527 
  -15424   -15295   -15239   -15271   -15324   -15445   -15520   -15435 
  -15359   -15262   -15141   -15229   -15318   -15184   -15103   -15240 
  -15440   -15534   -15451   -15337   -15424   -15545   -15345   -15027 
  -15012   -15242   -15386   -15388   -15488   -15577   -15409   -15274 
  -15319   -15301   -15260   -15246   -15219   -15341   -15574   -15617 
  -15405   -15136   -14991   -15071   -15341   -15593   -15700   -15601 
  -15327   -15315   -15662   -15736   -15362   -15045   -15191   -15581 
  -15624   -15371   -15232   -15216   -15376   -15662   -15661   -15299 
  -15085   -15246   -15314   -15217   -15443   -15818   -15767   -15345 
  -15115   -15358   -15644   -15520   -15303   -15391   -15470   -15325 
  -15301   -15470   -15563   -15482   -15364   -15337   -15342   -15315 
  -15314   -15364   -15267   -15040   -15085   -15309   -15342   -15294 
  -15299   -15319   -15345   -15407   -15534   -15563   -15381   -15163 
  -15169   -15325   -15247   -15031   -15076   -15235   -15279   -15302 
  -15421   -15690   -15902   -15746   -15335   -15028   -15050   -15333 
  -15456   -15231   -15172   -15518   -15690   -15468   -15234   -15159 
  -15205   -15239   -15252   -15407   -15520   -15412   -15362   -15547 
  -15578   -15207   -15036   -15357   -15579   -15502   -15354   -15311 
  -15488   -15491   -15193   -15197   -15472   -15444   -15282   -15413 
  -15580   -15439   -15307   -15469   -15540   -15337   -15226   -15294 
  -15377   -15431   -15443   -15504   -15599   -15486   -15307   -15356 
  -15322   -15089   -15148   -15481   -15650   -15533   -15251   -15164 
  -15412   -15644   -15690   -15589   -15304   -15131   -15386   -15597 
  -15263   -14903   -15086   -15447   -15510   -15342   -15234   -15368 
  -15558   -15483   -15229   -15194   -15456   -15572   -15262   -14916 
  -15045   -15548   -15826   -15652   -15403   -15401   -15537   -15537 
  -15359   -15155   -15088   -15225   -15337   -15273   -15200   -15160 
  -15104   -15176   -15465   -15690   -15554   -15316   -15307   -15410 
  -15499   -15613   -15626   -15363   -15087   -15140   -15266   -15203 
  -15106   -15068   -15227   -15575   -15656   -15422   -15288   -15336 
  -15438   -15454   -15311   -15266   -15350   -15155   -14840   -14863 
  -15208   -15676   -15755   -15273   -15108   -15587   -15891   -15690 
  -15525   -15547   -15349   -15042   -15038   -15250   -15450   -15519 
  -15420   -15380   -15439   -15373   -15282   -15320   -15410   -15544 
  -15591   -15366   -15097   -15101   -15348   -15603   -15714   -15732 
  -15695   -15429   -15032   -15033   -15416   -15624   -15554   -15384 
  -15241   -15299   -15455   -15456   -15339   -15154   -14912   -14962 
  -15333   -15391   -15154   -15238   -15514   -15554   -15448   -15467 
  -15535   -15408   -15216   -15237   -15385   -15362   -15189   -15245 
  -15394   -15205   -15005   -15190   -15441   -15382   -15166   -15222 
  -15428   -15313   -15143   -15405   -15749   -15609   -15220   -15118 
  -15237   -15332   -15272   -15047   -15055   -15290   -15345   -15389 
  -15545   -15587   -15589   -15555   -15338   -15230   -15449   -15604 
  -15429   -15218   -15282   -15547   -15692   -15567   -15465   -15587 
  -15527   -15271   -15378   -15603   -15438   -15119   -14988   -15179 
  -15465   -15413   -15268   -15393   -15497   -15500   -15448   -15127 
  -14910   -15265   -15669   -15457   -15032   -15168   -15621   -15606 
  -15285   -15385   -15714   -15680   -15534   -15572   -15438   -15005 
  -14710   -14904   -15281   -15260   -14972   -15011   -15356   -15586 
  -15733   -15907   -15736   -15270   -15151   -15255   -15141   -15148 
  -15405   -15451   -15227   -15159   -15431   -15787   -15801   -15413 
  -15263   -15575   -15700   -15521   -15496   -15664   -15755   -15588 
  -15266   -15097   -15221   -15497   -15601   -15341   -15135   -15492 
  -15928   -15722   -15170   -14948   -15205   -15543   -15483   -15120 
  -15048   -15501   -15762   -15269   -14801   -15133   -15697   -15713 
  -15416   -15327   -15337   -15344   -15466   -15514   -15369   -15213 
  -15174   -15234   -15217   -15095   -15183   -15495   -15548   -15271 
  -15258   -15611   -15752   -15569   -15364   -15229   -15297   -15438 
  -15247   -15091   -15371   -15493   -15316   -15372   -15502   -15446 
  -15315   -15086   -14890   -15029   -15471   -15624   -15094   -14727 
  -15292   -15954   -15756   -15269   -15372   -15704   -15756   -15695 
  -15484   -15149   -14952   -14848   -14865   -15129   -15545   -16060 
  -16350   -16033   -15656   -15653   -15418   -14943   -14958   -15366 
  -15605   -15566   -15417   -15272   -15218   -15383   -15610   -15621 
  -15450   -15236   -15185   -15447   -15709   -15589   -15272   -15202 
  -15367   -15442   -15398   -15458   -15615   -15504   -15000   -14576 
  -14643   -15062   -15424   -15413   -15110   -15011   -15348   -15737 
  -15733   -15291   -14847   -14783   -14849   -14845   -14994   -15218 
  -15363   -15567   -15643   -15425   -15284   -15411   -15518   -15411 
  -15327   -15506   -15678   -15580   -15412   -15289   -15183   -15253 
  -15461   -15600   -15741   -15867   -15789   -15507   -15095   -14945 
  -15319   -15498   -15125   -14967   -15421   -16054   -16160   -15615 
  -15182   -15256   -15528   -15665   -15509   -15241   -14964   -14688 
  -14871   -15532   -15953   -15945   -15854   -15738   -15440   -15046 
  -14931   -15200   -15457   -15329   -15101   -15313   -15635   -15447 
  -15065   -14992   -15197   -15451   -15510   -15466   -15600   -15580 
  -15117   -14700   -14651   -14830   -15065   -15142   -15083   -15254 
  -15815   -16201   -15854   -15413   -15505   -15596   -15485   -15556 
  -15536   -15025   -14512   -14771   -15581   -15901   -15614   -15665 
  -16109   -16023   -15419   -15181   -15320   -15248   -15144   -15281 
  -15316   -15196   -15289   -15527   -15580   -15566   -15661   -15658 
  -15429   -15190   -15273   -15503   -15302   -14879   -14724   -14689 
  -14906   -15569   -15944   -15600   -15199   -15214   -15511   -15802 
  -15790   -15561   -15384   -15242   -15203   -15379   -15551   -15459 
  -15233   -15109   -15139   -15426   -15722   -15545   -15239   -15172 
  -15033   -14965   -15152   -15195   -15166   -15344   -15517   -15585 
  -15670   -15763   -15783   -15559   -15005   -14635   -14995   -15522 
  -15410   -15023   -15024   -15286   -15421   -15399   -15334   -15215 
  -15163   -15285   -15355   -15466   -15861   -15989   -15526   -15180 
  -15244   -15220   -15028   -15001   -15192   -15538   -15860   -15772 
  -15442   -15355   -15380   -15367   -15403   -15242   -15020   -15277 
  -15741   -15926   -15913   -15653   -15319   -15257   -15097   -14800 
  -14921   -15301   -15450   -15309   -15215   -15473   -15705   -15439 
  -14991   -15022   -15596   -15934   -15656   -15453   -15661   -15758 
  -15544   -15319   -15053   -14620   -14452   -14757   -15102   -15341 
  -15519   -15461   -15382   -15537   -15630   -15529   -15360   -15220 
  -15342   -15550   -15436   -15294   -15439   -15580   -15568   -15450 
  -15202   -15029   -15028   -15016   -15182   -15673   -15957   -15828 
  -15646   -15420   -15207   -15300   -15360   -15096   -15127   -15625 
  -15855   -15587   -15202   -14986   -15050   -15251   -15307   -15176 
  -15103   -15159   -15265   -15512   -15794   -15739   -15306   -14956 
  -15096   -15537   -15784   -15688   -15637   -15793   -15729   -15517 
  -15589   -15646   -15337   -14965   -14981   -15345   -15479   -15170 
  -14950   -15073   -15210   -15251   -15173   -14884   -14822   -15384 
  -15902   -15658   -15248   -15374   -15600   -15596   -15529   -15268 
  -14931   -14940   -15298   -15718   -15876   -15767   -15705   -15537 
  -15005   -14703   -15064   -15406   -15396   -15486   -15654   -15712 
  -15729   -15566   -15161   -14765   -14707   -15107   -15701   -16087 
  -15988   -15601   -15399   -15277   -14988   -14775   -14717   -14709 
  -15018   -15703   -16098   -15752   -15072   -14617   -14643   -14979 
  -15125   -15106   -15382   -15909   -16260   -16254   -16010   -15609 
  -15170   -15101   -15467   -15604   -15220   -14885   -14987   -15338 
  -15606   -15580   -15291   -14922   -14927   -15545   -16100   -16084 
  -15848   -15557   -15203   -15153   -15373   -15367   -15310   -15644 
  -16017   -16036   -15907   -15804   -15758   -15635   -15192   -14763 
  -14809   -14988   -14946   -15013   -15316   -15542   -15636   -15675 
  -15624   -15518   -15348   -15169   -15165   -15261   -15292   -15334 
  -15384   -15264   -15133   -15196   -15094   -14851   -15010   -15296 
  -15253   -15186   -15313   -15430   -15463   -15371   -15104   -15028 
  -15251   -15271   -15229   -15497   -15617   -15388   -15241   -15275 
  -15221   -15112   -15165   -15171   -15137   -15344   -15513   -15446 
  -15264   -15082   -15174   -15417   -15291   -14895   -14852   -15305 
  -15784   -15865   -15593   -15322   -15209   -15279   -15541   -15558 
  -15244   -15290   -15562   -15398   -15121   -15172   -15289   -15193 
  -14978   -15001   -15304   -15471   -15488   -15579   -15513   -15306 
  -15350   -15430   -15169   -14882   -14966   -15451   -15938   -15838 
  -15453   -15427   -15515   -15317   -15047   -15134   -15569   -15876 
  -15799   -15625   -15765   -15926   -15591   -15245   -15388   -15507 
  -15359   -15230   -15168   -15354   -15807   -15971   -15573   -15001 
  -14784   -15074   -15435   -15359   -15258   -15670   -15921   -15545 
  -15246   -15087   -14511   -14142   -14723   -15495   -15683   -15569 
  -15561   -15610   -15383   -14987   -14878   -14889   -14826   -15165 
  -15777   -15873   -15568   -15316   -15092   -15006   -15051   -15087 
  -15218   -15460   -15813   -16105   -16096   -15943   -15729   -15469 
  -15405   -15561   -15804   -15910   -15653   -15414   -15473   -15391 
  -15173   -15115   -15110   -15220   -15514   -15804   -15944   -15911 
  -15864   -15765   -15518   -15408   -15351   -14998   -14767   -15195 
  -15809   -15780   -15221   -14965   -15221   -15490   -15679   -15890 
  -15788   -15478   -15512   -15754   -15609   -15044   -14739   -14903 
  -14979   -14969   -15185   -15549   -15945   -16116   -16012   -15838 
  -15392   -14772   -14491   -14660   -15152   -15586   -15598   -15402 
  -15270   -15265   -15307   -15240   -15188   -15221   -15258   -15385 
  -15532   -15570   -15575   -15454   -15133   -15064   -15408   -15618 
  -15633   -15754   -15684   -15356   -15314   -15491   -15385   -15156 
  -15117   -15152   -15231   -15469   -15805   -16063   -16092   -15847 
  -15435   -15057   -14808   -14765   -15027   -15271   -15288   -15383 
  -15577   -15808   -16088   -15965   -15419   -15111   -15208   -15470 
  -15681   -15620   -15406   -15231   -15155   -15364   -15657   -15578 
  -15331   -15266   -15273   -15193   -14971   -14841   -15035   -15241 
  -15199   -15047   -15007   -15112   -15189   -15323   -15612   -15779 
  -15712   -15572   -15387   -15303   -15553   -15803   -15657   -15367 
  -15213   -15211   -15296   -15380   -15474   -15478   -15274   -15073 
  -15105   -15251   -15192   -15019   -15238   -15730   -15897   -15642 
  -15305   -15328   -15542   -15346   -15119   -15287   -15394   -15394 
  -15489   -15486   -15428   -15339   -15008   -14826   -15145   -15412 
  -15411   -15416   -15278   -15006   -14957   -15049   -14981   -14894 
  -15039   -15343   -15530   -15391   -15080   -14900   -15002   -15182 
  -15124   -15049   -15101   -15081   -15129   -15189   -15112   -15212 
  -15392   -15191   -14860   -14957   -15338   -15569   -15547   -15347 
  -15233   -15383   -15466   -15334   -15310   -15409   -15479   -15524 
  -15376   -15237   -15471   -15599   -15433   -15484   -15553   -15403 
  -15387   -15447   -15445   -15495   -15418   -15148   -15049   -15228 
  -15337   -15254   -15174   -15167   -15210   -15250   -15291   -15368 
  -15380   -15435   -15684   -15870   -15793   -15530   -15248   -15156 
  -15345   -15614   -15619   -15531   -15721   -15800   -15452   -15158 
  -15210   -15328   -15219   -14996   -15140   -15681   -15869   -15420 
  -14939   -14829   -15041   -15340   -15400   -15390   -15727   -16046 
  -15823   -15494   -15480   -15485   -15338   -15034   -14702   -14932 
  -15648   -15844   -15475   -15391   -15682   -15840   -15633   -15319 
  -15217   -15269   -15291   -15174   -14953   -14944   -15239   -15403 
  -15307   -15272   -15372   -15538   -15640   -15594   -15623   -15663 
  -15403   -15080   -15152   -15459   -15487   -15242   -15211   -15506 
  -15624   -15324   -15126   -15405   -15711   -15454   -14934   -14851 
  -15163   -15413   -15326   -15134   -15285   -15482   -15392   -15298 
  -15357   -15593   -15849   -15739   -15387   -15276   -15422   -15384 
  -15013   -14881   -15363   -15858   -15759   -15330   -15172   -15422 
  -15579   -15317   -15065   -15227   -15549   -15647   -15640   -15738 
  -15768   -15707   -15656   -15486   -15251   -15231   -15506   -15802 
  -15704   -15286   -15148   -15281   -15156   -14886   -14729   -14700 
  -14934   -15295   -15607   -15900   -15955   -15654   -15269   -15120 
  -15258   -15339   -15248   -15313   -15542   -15712   -15698   -15415 
  -15188   -15291   -15303   -15087   -14942   -14970   -15359   -15745 
  -15546   -15343   -15612   -15861   -15720   -15350   -15198   -15433 
  -15642   -15451   -15162   -15226   -15396   -15261   -15015   -15018 
  -15212   -15412   -15533   -15428   -15289   -15449   -15619   -15593 
  -15655   -15746   -15657   -15498   -15366   -15439   -15781   -15892 
  -15589   -15336   -15275   -15230   -15193   -15186   -15238   -15354 
  -15444   -15486   -15496   -15528   -15583   -15515   -15457   -15649 
  -15761   -15488   -15229   -15310   -15529   -15506   -15144   -15006 
  -15349   -15578   -15496   -15439   -15501   -15495   -15298   -15195 
  -15300   -15276   -15143   -15222   -15467   -15607   -15548   -15356 
  -15211   -15322   -15588   -15609   -15326   -15184   -15301   -15346 
  -15349   -15399   -15287   -15149   -15186   -15198   -15164   -15253 
  -15353   -15320   -15259   -15341   -15508   -15531   -15322   -15089 
  -15115   -15236   -15187   -15132   -15162   -15177   -15262   -15365 
  -15222   -14993   -15088   -15402   -15552   -15463   -15427   -15562 
  -15525   -15231   -15073   -15220   -15381   -15246   -15021   -15109 
  -15420   -15601   -15553   -15397   -15253   -15155   -15074   -15026 
  -15134   -15476   -15792   -15701   -15339   -15132   -15149   -15237 
  -15353   -15542   -15722   -15671   -15380   -15226   -15410   -15564 
  -15403   -15202   -15301   -15510   -15487   -15434   -15561   -15649 
  -15517   -15283   -15269   -15441   -15371   -15157   -15247   -15408 
  -15210   -14968   -15019   -15231   -15457   -15378   -14992   -14918 
  -15258   -15531   -15414   -14991   -14796   -15100   -15430   -15352 
  -15251   -15530   -15680   -15411   -15304   -15424   -15356   -15244 
  -15250   -15323   -15470   -15496   -15372   -15299   -15249   -15262 
  -15412   -15472   -15366   -15390   -15617   -15768   -15648   -15328 
  -15176   -15370   -15457   -15298   -15323   -15372   -15121   -15002 
  -15208   -15329   -15349   -15463   -15436   -15227   -15226   -15367 
  -15308   -15215   -15198   -15056   -15043   -15355   -15548   -15560 
  -15621   -15676   -15813   -15827   -15462   -15317   -15559   -15535 
