Origin Time       2024/04/02 04:24:00
Lat.              40.133
Long.             141.712
Depth. (km)       71
Mag.              6.0
Station Code      HKD180
Station Lat.      43.1391
Station Long.     141.3513
Station Height(m) 3
Record Time       2024/04/02 04:26:00
Sampling Freq(Hz) 100Hz
Duration Time(s)  66
Dir.              E-W
Scale Factor      7845(gal)/8223790
Max. Acc. (gal)   1.783
Last Correction   2024/04/02 04:26:01
Memo.             
[...]
   22023    21990    21942    21922    21948    21968    21956    21918 
   21874    21838    21807    21779    21759    21724    21624    21498 
   21438    21477    21564    21644    21713    21789    21844    21852 
   21865    21932    22017    22045    22014    21967    21915    21867 
   21853    21897    21961    21990    21973    21959    21965    21975 
   21983    22003    22023    22000    21928    21865    21894    22000 
   22087    22113    22113    22110    22091    22075    22094    22129 
   22145    22113    22032    21959    21937    21965    22021    22073 
   22091    22056    21999    21984    22032    22102    22131    22107 
   22059    22002    21937    21897    21886    21875    21843    21780 
   21716    21664    21625    21636    21691    21725    21712    21693 
   21698    21712    21739    21798    21863    21890    21892    21903 
   21905    21884    21875    21880    21856    21798    21757    21745 
   21729    21706    21706    21739    21784    21852    21951    22050 
   22110    22123    22134    22154    22141    22098    22068    22059 
   22071    22081    22071    22060    22068    22084    22117    22172 
   22235    22281    22283    22238    22177    22133    22119    22118 
   22090    22034    21979    21942    21941    21975    22015    22019 
   21987    21957    21951    21946    21926    21902    21901    21922 
   21957    22015    22077    22100    22076    22014    21951    21907 
   21876    21861    21871    21884    21878    21870    21891    21938 
   21980    22002    22032    22080    22121    22141    22137    22119 
   22118    22138    22158    22152    22099    21999    21874    21775 
   21741    21764    21801    21801    21756    21702    21644    21587 
   21566    21613    21721    21837    21899    21913    21915    21906 
   21874    21829    21797    21799    21830    21852    21833    21795 
   21793    21829    21853    21845    21828    21845    21905    21973 
   22041    22102    22133    22125    22104    22117    22158    22181 
   22180    22158    22099    22007    21911    21843    21829    21870 
   21898    21884    21872    21890    21928    21982    22053    22108 
   22118    22080    22019    21961    21905    21864    21860    21867 
   21848    21818    21802    21801    21803    21803    21810    21847 
   21909    21984    22071    22131    22125    22049    21940    21844 
   21793    21789    21811    21837    21848    21829    21774    21695 
   21631    21604    21604    21621    21667    21757    21878    21968 
   22036    22122    22195    22204    22165    22131    22121    22104 
   22069    22041    22022    21998    21971    21949    21926    21905 
   21906    21953    22032    22096    22106    22075    22034    22009 
   22018    22050    22075    22080    22048    21969    21891    21863 
   21863    21848    21828    21816    21807    21791    21774    21793 
   21852    21903    21928    21942    21955    21959    21953    21942 
   21936    21937    21953    21975    21984    21980    21969    21961 
   21957    21942    21924    21930    21972    22042    22135    22235 
   22299    22291    22223    22164    22162    22191    22206    22207 
   22206    22181    22117    22056    22034    22013    21955    21886 
   21840    21821    21811    21813    21824    21822    21818    21865 
   21967    22048    22059    22034    22022    22011    21984    21975 
   21996    22011    22007    21999    21996    22000    22010    22015 
   22011    21976    21906    21826    21783    21780    21790    21799 
   21801    21791    21771    21733    21686    21651    21647    21691 
   21791    21895    21936    21909    21864    21847    21865    21897 
   21915    21919    21913    21903    21909    21941    21984    21995 
   21975    21972    21994    21992    21959    21911    21843    21752 
   21713    21774    21895    22013    22075    22071    22026    21991 
   22019    22098    22156    22161    22133    22102    22084    22080 
   22091    22094    22059    22006    21979    21998    22068    22149 
   22180    22157    22114    22084    22064    22022    21957    21892 
   21830    21779    21768    21805    21848    21868    21880    21892 
   21883    21847    21801    21776    21789    21834    21919    22011 
   22057    22044    21999    21961    21940    21922    21924    21940 
   21949    21922    21847    21779    21747    21701    21625    21558 
   21550    21591    21628    21672    21757    21857    21929    21973 
   22036    22113    22156    22181    22238    22296    22292    22211 
   22102    22000    21913    21864    21857    21879    21928    21994 
   22046    22048    22006    21979    21983    21996    22010    22029 
   22033    21995    21925    21855    21798    21752    21730    21748 
   21805    21856    21883    21919    21979    22025    22034    22022 
   21994    21944    21905    21902    21917    21914    21890    21856 
   21817    21786    21775    21784    21824    21898    21986    22067 
   22129    22180    22233    22281    22324    22364    22376    22338 
   22258    22150    22036    21937    21857    21780    21716    21682 
   21683    21712    21737    21747    21752    21764    21784    21821 
   21875    21921    21930    21907    21876    21859    21867    21888 
   21907    21933    21972    21991    21967    21917    21861    21836 
   21855    21878    21857    21813    21801    21864    21980    22092 
   22153    22144    22056    21905    21770    21725    21752    21798 
   21844    21884    21906    21879    21817    21787    21821    21879 
   21915    21938    21996    22083    22146    22165    22156    22134 
   22095    22053    22050    22099    22156    22188    22192    22168 
   22118    22046    21972    21945    21988    22056    22087    22060 
   21991    21929    21895    21888    21901    21929    21955    21969 
   22003    22077    22161    22212    22198    22115    22007    21928 
   21903    21914    21925    21919    21899    21874    21863    21887 
   21937    21973    21971    21936    21907    21933    22014    22106 
   22169    22195    22191    22153    22092    22029    21973    21937 
   21907    21863    21807    21755    21701    21667    21675    21701 
   21720    21747    21810    21897    21986    22072    22150    22194 
   22192    22164    22122    22071    22018    21986    21968    21942 
   21892    21813    21736    21718    21778    21867    21930    21945 
   21906    21836    21779    21759    21782    21855    21944    21996 
   22000    21998    22015    22037    22056    22069    22049    21982 
   21899    21841    21821    21816    21803    21774    21745    21752 
   21809    21887    21940    21932    21865    21774    21689    21641 
   21645    21687    21747    21798    21832    21864    21911    21972 
   22030    22060    22042    21984    21902    21803    21720    21670 
   21632    21602    21594    21586    21581    21637    21780    21956 
   22100    22179    22181    22145    22111    22103    22121    22130 
   22103    22033    21932    21840    21807    21848    21921    21969 
   21973    21942    21917    21933    22005    22108    22173    22158 
   22108    22094    22125    22169    22176    22121    22036    21976 
   21998    22103    22222    22285    22281    22246    22235    22270 
   22312    22324    22311    22252    22137    21998    21886    21841 
   21852    21875    21897    21919    21944    21975    22010    22026 
   22000    21956    21946    21979    22017    22036    22022    21973 
   21918    21883    21865    21837    21780    21705    21635    21577 
   21520    21481    21482    21520    21577    21647    21718    21779 
   21825    21872    21941    22029    22121    22203    22234    22181 
   22100    22064    22053    22011    21960    21955    21983    21992 
   21976    21979    21991    21956    21886    21867    21948    22081 
   22185    22215    22183    22127    22100    22127    22195    22262 
   22276    22214    22126    22073    22068    22072    22053    22026 
   21999    21965    21948    21969    22013    22052    22086    22118 
   22135    22123    22102    22102    22104    22079    22026    21963 
   21878    21787    21737    21753    21798    21809    21772    21726 
   21717    21770    21864    21948    21982    21942    21853    21770 
   21745    21783    21811    21774    21683    21587    21514    21475 
   21471    21505    21571    21645    21718    21793    21859    21913 
   21949    21961    21952    21933    21913    21886    21849    21810 
   21794    21803    21814    21811    21793    21768    21766    21805 
   21865    21907    21922    21941    21978    22002    22006    22023 
   22068    22117    22144    22169    22204    22218    22204    22200 
   22233    22258    22221    22168    22154    22134    22059    21961 
   21892    21857    21828    21825    21890    21973    22006    21992 
   21986    21998    22009    22032    22083    22122    22118    22084 
   22034    21968    21905    21867    21853    21838    21807    21782 
   21778    21779    21783    21793    21798    21793    21791    21816 
   21876    21937    21959    21930    21867    21811    21805    21852 
   21911    21949    21978    22005    22013    21991    21960    21926 
   21888    21863    21860    21891    21946    21979    21972    21948 
   21929    21921    21911    21911    21934    21972    22006    22026 
   22044    22065    22059    22015    21994    22032    22096    22138 
   22141    22121    22080    22026    21991    21988    21979    21929 
   21849    21783    21767    21814    21878    21899    21876    21845 
   21829    21830    21857    21917    21990    22049    22083    22079 
   22029    21968    21936    21917    21897    21905    21964    22037 
   22075    22092    22115    22117    22088    22064    22049    22026 
   22005    22005    22018    21994    21903    21790    21725    21737 
   21780    21813    21833    21843    21845    21856    21868    21880 
   21909    21938    21942    21924    21903    21902    21925    21946 
   21930    21883    21821    21764    21753    21810    21895    21965 
   22013    22044    22040    21978    21892    21856    21884    21944 
   22026    22130    22214    22261    22319    22404    22464    22454 
   22397    22329    22249    22152    22048    21938    21833    21751 
   21718    21757    21852    21938    21982    21999    21986    21926 
   21847    21801    21786    21757    21718    21705    21716    21724 
   21740    21806    21913    22030    22152    22273    22365    22415 
   22457    22499    22480    22374    22235    22118    22049    22019 
   22013    22009    21930    21760    21583    21474    21446    21477 
   21527    21593    21691    21805    21932    22090    22241    22318 
   22299    22194    22044    21910    21847    21852    21870    21880 
   21909    21945    21980    22014    22061    22135    22219    22280 
   22295    22260    22212    22176    22145    22114    22056    21946 
   21813    21708    21662    21651    21627    21579    21520    21442 
   21354    21307    21338    21417    21477    21485    21458    21423 
   21394    21408    21470    21541    21605    21710    21901    22162 
   22442    22661    22740    22673    22520    22324    22126    21964 
   21837    21714    21581    21467    21425    21477    21616    21821 
   22064    22312    22534    22723    22890    23010    23032    22933 
   22739    22496    22262    22103    22049    22067    22075    22023 
   21917    21768    21602    21444    21300    21184    21127    21157 
   21282    21479    21724    21964    22156    22323    22493    22632 
   22705    22736    22752    22708    22558    22335    22079    21802 
   21525    21308    21195    21157    21126    21072    21014    20968 
   20949    20984    21074    21190    21286    21321    21278    21188 
   21104    21051    21030    21045    21123    21281    21501    21743 
   21971    22162    22316    22438    22553    22693    22848    22974 
   23035    23041    23037    23016    22963    22901    22840    22783 
   22736    22696    22669    22665    22696    22763    22835    22854 
   22809    22725    22620    22509    22419    22358    22281    22138 
   21915    21637    21332    21034    20815    20725    20744    20829 
   20961    21163    21428    21695    21930    22131    22280    22364 
   22411    22438    22414    22296    22069    21755    21400    21034 
   20702    20488    20455    20579    20781    20968    21096    21180 
   21257    21350    21444    21517    21581    21670    21784    21884 
   21932    21917    21871    21852    21895    22015    22199    22391 
   22542    22644    22705    22732    22716    22638    22492    22315 
   22152    22040    22013    22060    22144    22227    22279    22308 
   22361    22469    22627    22820    23036    23218    23271    23174 
   22989    22774    22555    22361    22243    22221    22219    22162 
   22053    21915    21739    21532    21359    21261    21208    21165 
   21118    21065    21010    20947    20872    20802    20764    20787 
   20884    21027    21147    21197    21166    21065    20903    20748 
   20718    20883    21195    21558    21902    22173    22319    22353 
   22356    22410    22545    22715    22860    22958    22968    22862 
   22651    22388    22107    21824    21568    21396    21348    21436 
   21641    21925    22250    22585    22920    23240    23518    23719 
   23815    23776    23600    23334    23009    22619    22206    21833 
   21519    21284    21176    21197    21307    21473    21674    21875 
   22042    22134    22134    22095    22076    22118    22233    22364 
   22414    22326    22119    21868    21649    21521    21490    21512 
   21539    21514    21394    21207    21042    20945    20896    20896 
   20979    21150    21350    21489    21505    21392    21176    20922 
   20750    20768    20987    21324    21670    21936    22100    22181 
   22188    22126    22045    21984    21951    21963    22056    22219 
   22397    22531    22603    22619    22558    22434    22322    22270 
   22275    22318    22392    22491    22578    22630    22661    22688 
   22704    22716    22758    22856    22991    23078    23028    22832 
   22532    22180    21859    21625    21473    21396    21415    21508 
   21605    21651    21674    21717    21780    21861    21968    22083 
   22162    22173    22119    22041    21990    22029    22168    22347 
   22504    22616    22681    22659    22505    22234    21897    21537 
   21220    21010    20892    20806    20704    20591    20503    20483 
   20557    20729    20979    21257    21512    21740    21983    22265 
   22558    22802    22920    22848    22607    22276    21925    21582 
   21273    21042    20949    21030    21267    21595    21928    22211 
   22439    22634    22816    22987    23120    23167    23095    22923 
   22693    22462    22279    22173    22140    22137    22111    22027 
   21882    21701    21527    21392    21308    21290    21358    21502 
   21689    21899    22131    22368    22542    22608    22584    22476 
   22268    21969    21620    21266    20947    20706    20591    20644 
   20835    21095    21373    21644    21884    22099    22292    22468 
   22615    22693    22655    22486    22225    21937    21678    21497 
   21415    21401    21433    21528    21685    21894    22122    22338 
   22547    22752    22941    23099    23206    23234    23155    22944 
   22651    22366    22135    21967    21860    21828    21848    21860 
   21837    21780    21685    21564    21465    21431    21487    21598 
   21686    21720    21703    21643    21578    21543    21527    21496 
   21458    21435    21420    21397    21367    21344    21317    21255 
   21199    21243    21428    21730    22092    22432    22678    22797 
   22794    22701    22545    22357    22185    22061    21998    21990 
   22015    22053    22092    22110    22080    22010    21930    21872 
   21868    21925    22015    22102    22145    22137    22117    22125 
   22167    22227    22295    22381    22481    22554    22580    22592 
   22613    22650    22705    22766    22808    22815    22778    22698 
   22596    22495    22397    22291    22173    22075    21994    21910 
   21830    21732    21567    21323    21039    20791    20646    20622 
   20703    20873    21096    21327    21525    21660    21729    21757 
   21772    21774    21740    21659    21544    21417    21284    21145 
   21016    20942    20980    21149    21415    21710    21953    22100 
   22196    22324    22512    22700    22833    22893    22847    22686 
   22476    22258    22033    21816    21639    21532    21498    21509 
   21529    21536    21512    21458    21429    21504    21695    21969 
   22280    22558    22751    22855    22871    22792    22638    22458 
   22326    22281    22302    22331    22327    22266    22135    21960 
   21779    21631    21544    21509    21523    21597    21708    21822 
   21921    21984    21999    21972    21918    21837    21732    21613 
   21474    21293    21069    20833    20650    20596    20707    20942 
   21231    21509    21748    21934    22063    22141    22196    22269 
   22377    22500    22639    22786    22897    22927    22885    22798 
   22662    22492    22351    22285    22257    22215    22141    22061 
   22021    22036    22096    22177    22230    22219    22141    22042 
   21984    21975    21984    21990    21955    21851    21685    21532 
   21465    21497    21612    21799    22029    22262    22455    22566 
   22559    22441    22258    22059    21880    21751    21629    21463 
   21257    21055    20877    20715    20610    20628    20804    21116 
   21485    21836    22129    22329    22430    22488    22563    22632 
   22632    22543    22392    22219    22056    21911    21791    21681 
   21529    21311    21080    20941    20947    21073    21267    21508 
   21786    22107    22481    22886    23261    23535    23685    23718 
   23649    23495    23286    23039    22771    22485    22173    21861 
   21601    21420    21327    21324    21398    21497    21550    21531 
   21489    21469    21487    21579    21755    21951    22106    22185 
   22173    22072    21894    21705    21581    21554    21640    21833 
   22068    22269    22378    22357    22203    21955    21682    21466 
   21352    21338    21377    21413    21396    21315    21226    21182 
   21208    21307    21446    21574    21671    21728    21755    21787 
   21859    21968    22084    22177    22264    22350    22416    22455 
   22453    22391    22280    22144    22010    21903    21840    21834 
   21883    21928    21932    21929    21963    22046    22176    22330 
   22451    22499    22470    22418    22400    22423    22431    22370 
   22212    21988    21755    21573    21506    21578    21751    21967 
   22165    22327    22473    22596    22671    22678    22620    22516 
   22404    22319    22277    22239    22138    21953    21726    21523 
   21406    21415    21529    21690    21834    21932    21976    21971 
   21930    21871    21795    21693    21563    21438    21361    21365 
   21444    21537    21585    21570    21524    21505    21548    21643 
   21743    21813    21856    21899    21959    22025    22073    22099 
