Origin Time       2024/04/02 04:24:00
Lat.              40.133
Long.             141.712
Depth. (km)       71
Mag.              6.0
Station Code      HKD159
Station Lat.      41.7160
Station Long.     141.0046
Station Height(m) 23
Record Time       2024/04/02 04:25:05
Sampling Freq(Hz) 100Hz
Duration Time(s)  134
Dir.              E-W
Scale Factor      7845(gal)/8223790
Max. Acc. (gal)   24.999
Last Correction   2024/04/02 04:25:05
Memo.             
[...]
   -9408    -9655    -9940   -10054    -9857    -9431    -8857    -8222 
   -7804    -7793    -7959    -7948    -7681    -7295    -7061    -7267 
   -7782    -8155    -8244    -8213    -8106    -7952    -7857    -7757 
   -7569    -7430    -7501    -7762    -8025    -8132    -8044    -7774 
   -7450    -7319    -7497    -7939    -8515    -9007    -9377    -9756 
   -9957    -9690    -9146    -8667    -8257    -7970    -8016    -8220 
   -8162    -7785    -7291    -6812    -6436    -6266    -6336    -6601 
   -6955    -7348    -7831    -8426    -9040    -9544    -9909   -10212 
  -10484   -10686   -10709   -10291    -9374    -8384    -7746    -7442 
   -7335    -7331    -7160    -6694    -6253    -6089    -6031    -5899 
   -5741    -5671    -5852    -6447    -7352    -8279    -9103    -9829 
  -10386   -10706   -10879   -11017   -11032   -10754   -10195    -9535 
   -8860    -8081    -7087    -6010    -5225    -4981    -5101    -5283 
   -5502    -5925    -6592    -7392    -8132    -8723    -9290    -9900 
  -10440   -10858   -11183   -11254   -10874   -10228    -9613    -9020 
   -8401    -7780    -7076    -6274    -5587    -5225    -5184    -5333 
   -5568    -5822    -6196    -6920    -8008    -9139    -9913   -10116 
   -9958    -9940   -10284   -10683   -10696   -10152    -9171    -8078 
   -7298    -7032    -7069    -7052    -6809    -6444    -6172    -6135 
   -6392    -6880    -7408    -7765    -7885    -7915    -8059    -8391 
   -8888    -9510   -10143   -10528   -10439    -9965    -9490    -9385 
   -9637    -9774    -9274    -8122    -6840    -5953    -5626    -5699 
   -5846    -5822    -5682    -5706    -6169    -7138    -8340    -9360 
  -10046   -10434   -10542   -10458   -10285    -9968    -9443    -8856 
   -8467    -8322    -8203    -7923    -7426    -6716    -5983    -5559 
   -5498    -5584    -5826    -6385    -7177    -8035    -8838    -9416 
   -9721    -9856    -9852    -9744    -9666    -9612    -9425    -9076 
   -8606    -8089    -7751    -7744    -7923    -8033    -7925    -7550 
   -6968    -6345    -5908    -5842    -6145    -6717    -7477    -8363 
   -9270   -10003   -10386   -10409   -10126    -9552    -8784    -8066 
   -7572    -7360    -7515    -7958    -8338    -8459    -8437    -8363 
   -8128    -7751    -7526    -7550    -7599    -7577    -7584    -7663 
   -7732    -7624    -7385    -7246    -7298    -7519    -7851    -8147 
   -8306    -8379    -8495    -8730    -9053    -9427    -9759    -9853 
   -9601    -9072    -8432    -7789    -7133    -6548    -6297    -6555 
   -7148    -7697    -8041    -8256    -8363    -8306    -8031    -7492 
   -6866    -6524    -6698    -7391    -8509    -9732   -10532   -10619 
  -10131    -9401    -8810    -8575    -8532    -8403    -8136    -7859 
   -7641    -7473    -7419    -7511    -7604    -7524    -7265    -6926 
   -6544    -6212    -6268    -6852    -7632    -8344    -9058    -9761 
  -10276   -10505   -10462   -10088    -9432    -8799    -8311    -7863 
   -7512    -7365    -7344    -7299    -7206    -7172    -7325    -7627 
   -7863    -7792    -7333    -6737    -6424    -6586    -7171    -8058 
   -8964    -9509    -9582    -9383    -9182    -9123    -9169    -9212 
   -9166    -8957    -8664    -8515    -8561    -8573    -8425    -8270 
   -8152    -7897    -7411    -6724    -5904    -5140    -4760    -4999 
   -5683    -6470    -7319    -8280    -9211   -10015   -10670   -10983 
  -10767   -10237    -9855    -9890   -10309   -10813   -10940   -10430 
   -9304    -7701    -5915    -4402    -3584    -3573    -4102    -4804 
   -5494    -6153    -6855    -7681    -8548    -9274    -9863   -10426 
  -10858   -11011   -11011   -10986   -10752   -10085    -9057    -7935 
   -6960    -6261    -5864    -5672    -5522    -5374    -5352    -5645 
   -6382    -7520    -8822    -9887   -10403   -10427   -10254   -10019 
   -9679    -9275    -8927    -8669    -8463    -8120    -7523    -6966 
   -6755    -6756    -6783    -6832    -6934    -7240    -7915    -8812 
   -9535    -9767    -9501    -8989    -8518    -8282    -8348    -8545 
   -8573    -8402    -8278    -8245    -8050    -7589    -7090    -6781 
   -6674    -6710    -6883    -7149    -7403    -7560    -7678    -7974 
   -8602    -9447   -10142   -10345    -9995    -9396    -8927    -8635 
   -8294    -7816    -7273    -6724    -6305    -6253    -6625    -7132 
   -7420    -7457    -7506    -7827    -8425    -9143    -9819   -10230 
  -10184    -9751    -9277    -9108    -9242    -9391    -9258    -8672 
   -7715    -6670    -5694    -4857    -4434    -4635    -5248    -5973 
   -6713    -7411    -8055    -8826    -9841   -10849   -11495   -11666 
  -11441   -11034   -10795   -10783   -10573    -9787    -8507    -7141 
   -6108    -5582    -5405    -5269    -4970    -4483    -4033    -4136 
   -5113    -6702    -8337    -9537   -10138   -10328   -10395   -10528 
  -10736   -10802   -10520    -9922    -9181    -8540    -8279    -8455 
   -8784    -8845    -8363    -7383    -6231    -5301    -4839    -4893 
   -5339    -5921    -6450    -7114    -8267    -9801   -11164   -11951 
  -12015   -11314   -10026    -8541    -7223    -6243    -5629    -5362 
   -5386    -5668    -6215    -6970    -7747    -8334    -8688    -8891 
   -8947    -8876    -8919    -9405   -10288   -11099   -11472   -11389 
  -10893   -10092    -9213    -8279    -7128    -5868    -4828    -4087 
   -3574    -3352    -3504    -4013    -4801    -5853    -7117    -8407 
   -9753   -11327   -12830   -13676   -13694   -13078   -12147   -11331 
  -10833   -10466    -9958    -8978    -7265    -5105    -3254    -2218 
   -1964    -2282    -2982    -3912    -5062    -6399    -7803    -9198 
  -10521   -11799   -13084   -14118   -14490   -14133   -13288   -12100 
  -10594    -9018    -7677    -6555    -5494    -4450    -3439    -2575 
   -2185    -2478    -3184    -3967    -4982    -6462    -8166    -9709 
  -10987   -12140   -13239   -14057   -14234   -13668   -12571   -11198 
   -9747    -8434    -7442    -6723    -5972    -5043    -4193    -3646 
   -3369    -3310    -3460    -3817    -4386    -5086    -5913    -7099 
   -8833   -10899   -12865   -14378   -15201   -15287   -14823   -13907 
  -12476   -10631    -8679    -6876    -5314    -4095    -3433    -3383 
   -3694    -4099    -4530    -4997    -5377    -5618    -6050    -7037 
   -8550   -10216   -11569   -12299   -12339   -11869   -11203   -10498 
   -9764    -9120    -8631    -8178    -7812    -7744    -7803    -7565 
   -6993    -6374    -5923    -5779    -5980    -6316    -6556    -6714 
   -6994    -7561    -8371    -9200    -9801    -9964    -9518    -8536 
   -7466    -6833    -6797    -7227    -8014    -9026    -9933   -10605 
  -11291   -11911   -11939   -11218   -10029    -8505    -6741    -5080 
   -3848    -3100    -2848    -3106    -3765    -4746    -5945    -7126 
   -8178    -9099    -9815   -10262   -10530   -10855   -11350   -11907 
  -12405   -12712   -12637   -12073   -11090    -9892    -8623    -7302 
   -5879    -4336    -2851    -1669     -953     -940    -1767    -3202 
   -4926    -6791    -8692   -10486   -12237   -14045   -15562   -16332 
  -16343   -15714   -14318   -12139    -9567    -7064    -4854    -3123 
   -2012    -1421    -1201    -1364    -1872    -2529    -3353    -4685 
   -6663    -8924   -10953   -12421   -13281   -13734   -14044   -14347 
  -14536   -14193   -12966   -11055    -9053    -7342    -5957    -4806 
   -3751    -2677    -1813    -1672    -2428    -3870    -5778    -7767 
   -9274   -10165   -10825   -11558   -12320   -12852   -12937   -12598 
  -11943   -10964    -9666    -8228    -6858    -5544    -4345    -3661 
   -3759    -4455    -5389    -6262    -6817    -6944    -6872    -6937 
   -7288    -7960    -8935   -10080   -11178   -11988   -12333   -12209 
  -11772   -11241   -10642    -9795    -8700    -7535    -6420    -5479 
   -4718    -3856    -2845    -2053    -1741    -2030    -3172    -5182 
   -7504    -9549   -11200   -12549   -13549   -14058   -13988   -13436 
  -12694   -12021   -11520   -11280   -11314   -11303   -10813    -9629 
   -7709    -5263    -2818     -882      233      395     -319    -1748 
   -3794    -6338    -9121   -11774   -13813   -14729   -14370   -12978 
  -10782    -8044    -5356    -3379    -2425    -2536    -3634    -5424 
   -7423    -9140   -10164   -10284    -9686    -8824    -8097    -7758 
   -7948    -8599    -9471   -10374   -11106   -11441   -11426   -11322 
  -11225   -10955   -10374    -9471    -8124    -6328    -4457    -2887 
   -1707     -747      110      610      317     -953    -3053    -5613 
   -8136   -10315   -12326   -14476   -16707   -18771   -20331   -20919 
  -20240   -18474   -16283   -14300   -12579   -10786    -8608    -5859 
   -2700      356     2987     5269     7165     8171     7632     5225 
    1080    -4207    -9644   -14235   -17539   -19712   -21023   -21837 
  -22580   -23025   -22480   -20673   -17713   -13640    -8687    -3580 
     934     4510     7030     8424     8615     7762     6400     4884 
    3068      673    -2427    -6033    -9593   -12610   -15020   -17201 
  -19588   -22212   -24656   -26215   -26055   -23780   -19974   -15719 
  -11724    -8063    -4602    -1579      384      908      225     -988 
   -1782    -1320      442     2759     4730     5757     5501     3701 
     222    -4729   -10671   -16999   -22769   -26862   -28702   -28532 
  -27044   -24826   -22126   -19133   -16081   -13073   -10153    -7353 
   -4602    -1709     1460     4812     8187    11475    14196    15454 
   14620    11681     6755      -91    -8019   -15584   -21965   -26827 
  -29749   -30523   -29432   -26923   -23202   -18875   -15138   -12469 
  -10408    -8536    -6374    -3226      912     5111     8268     9805 
    9814     8445     5568     1213    -4237   -10049   -15138   -18585 
  -20074   -19558   -17213   -13902   -11005    -9691   -10274   -12202 
  -14602   -16542   -16927   -14804   -10145    -3993     2181     6963 
    9278     8680     5463      468    -5335   -10922   -15187   -17444 
  -17724   -16583   -14886   -13575   -13323   -14006   -14766   -14821 
  -14038   -12688   -10806    -8171    -4766     -897     2739     5080 
    5437     3982     1147    -2745    -7171   -11304   -14229   -15323 
  -14631   -12588    -9842    -7326    -5778    -5305    -5823    -7317 
   -9601   -12552   -15843   -18443   -19720   -19847   -18480   -15299 
  -10993    -6102     -845     4048     7844    10025     9948     7296 
    2597    -2944    -8163   -12413   -15531   -17768   -19460   -20511 
  -20380   -18535   -15164   -11422    -8614    -7304    -7242    -7736 
   -8043    -7722    -6812    -5674    -4507    -3144    -1472      373 
    2172     3229     2232    -1579    -7350   -13200   -17429   -19067 
  -18214   -15969   -13406   -10947    -8495    -5868    -3487    -2212 
   -2624    -4793    -8001   -10962   -12835   -13539   -13474   -13198 
  -12823   -11929   -10165    -7511    -4340    -1426      529     1479 
    1961     2232     1800      310    -2133    -5462    -9437   -13548 
  -17382   -20756   -23743   -26288   -27845   -27754   -25475   -20841 
  -14557    -7851    -1682     3465     7371     9890    11047    11281 
   11065    10130     7619     3192    -2405    -8023   -13011   -17205 
  -20484   -22955   -25242   -27627   -29255   -28972   -26385   -22019 
  -17065   -12506    -8050    -2766     3389     9366    13790    15786 
   15318    12893     9354     5553     1653    -2986    -8968   -16039 
  -22987   -28428   -31479   -31689   -29409   -25906   -21942   -17199 
  -11485    -5647     -886     2396     4590     6177     7542     8811 
    9549     9012     6835     3194    -1482    -6717   -12129   -17377 
  -21879   -24814   -25569   -24227   -21648   -18982   -16835   -15064 
  -13277   -11268    -8982    -6210    -2808      866     4060     6062 
    6679     6002     4058     1264    -1841    -5386    -9675   -14314 
  -18470   -21525   -23156   -23144   -21467   -18399   -14145    -8835 
   -3033     2311     6162     7479     5709     1736    -2516    -5846 
   -8213    -9983   -11740   -13782   -15553   -16206   -15325   -13369 
  -11484   -10570   -10899   -12079   -13059   -12946   -11705    -9780 
   -7468    -4691    -1337     2253     5198     6367     5135     1853 
   -2555    -7238   -11611   -15277   -18041   -19977   -21139   -21151 
  -19539   -16291   -11985    -7719    -4418    -2119     -386     1039 
    1952     1740       81    -2533    -5157    -7052    -8047    -8518 
   -9135   -10496   -12663   -14970   -16524   -16893   -16303   -15055 
  -13189   -10866    -8371    -5950    -3932    -2586    -1811    -1244 
    -784     -751    -1412    -2594    -3900    -5269    -7103    -9612 
  -12395   -14986   -17392   -19796   -21975   -23278   -22956   -20575 
  -16256   -10590    -4313     2016     8051    13194    16306    16256 
   12761     6644     -681    -7893   -13927   -18301   -21222   -23041 
  -24071   -24609   -24702   -23989   -22013   -18885   -15087   -10879 
   -6605    -2741      584     3489     5957     7828     8974     9169 
    8086     5813     2720    -1178    -5856   -10675   -14925   -18324 
  -20995   -23230   -25010   -25936   -25774   -24638   -22659   -19710 
  -15538   -10223    -4364     1240     5729     8422     9414     9406 
    9045     8638     8067     6939     4962     2081    -1780    -6859 
  -13028   -19356   -24633   -28263   -30392   -31218   -30708   -28969 
  -26271   -22844   -18931   -14607    -9806    -4679      504     5567 
   10316    14374    17166    18098    16707    12984     7596     1371 
   -5212   -11785   -17855   -22987   -26896   -29330   -30063   -29303 
  -27797   -25948   -23418   -19827   -15201    -9975    -4795       -8 
    4673     9575    14181    17311    17944    15682    10945     4810 
   -1630    -7753   -13398   -18658   -23660   -28138   -31159   -31783 
  -29901   -26245   -21898   -17690   -13729    -9486    -4584      650 
    5605     9574    11581    11175     9165     6652     3944      814 
   -3057    -7870   -13074   -17284   -19425   -19737   -19321   -18933 
  -18496   -17543   -15726   -13041    -9949    -7160    -4905    -2713 
    -309     1825     2968     2583      464    -2982    -6879   -10497 
  -13518   -15840   -17285   -17560   -16563   -14571   -12243   -10307 
   -8955    -7728    -6007    -3659    -1215      710     1675     1463 
     280    -1563    -3883    -6498    -9394   -12684   -16233   -19400 
  -21366   -21780   -20706   -18469   -15687   -12811    -9999    -7353 
   -4876    -2502     -184     2081     4209     6088     7366     7383 
    5568     1692    -3836    -9810   -14848   -18338   -20650   -22365 
  -23471   -23467   -21955   -19052   -15506   -12241    -9435    -6482 
   -3137      -59     1908     2556     2203     1390      905     1190 
    1644     1240     -538    -3662    -7715   -12174   -16665   -20696 
  -23473   -24382   -23384   -20642   -16344   -11171    -6243    -2389 
     209     1690     2258     2239     1888     1269      522     -284 
   -1602    -3882    -6813    -9818   -12733   -15507   -17876   -19410 
  -19835   -19394   -18362   -16576   -14135   -11620    -9175    -6430 
   -3246      -78     2161     2682     1549     -283    -1776    -2701 
   -3688    -5385    -7851   -10791   -13720   -15930   -17030   -17409 
  -17729   -17999   -17421   -15273   -11627    -7261    -3234     -456 
     657      591      434      739     1071      642    -1040    -3917 
   -7354   -10409   -12398   -13450   -14388   -15907   -17901   -19608 
  -20185   -19197   -16868   -13946   -11110    -8368    -5413    -2633 
    -911     -373     -256      332     1769     3520     4579     4369 
    2749     -361    -4712    -9548   -14153   -18161   -21188   -22631 
  -22265   -20580   -18277   -15793   -13329   -11001    -8788    -6534 
   -4167    -1813      155     1267     1471     1250      922       72 
   -1979    -5225    -8799   -11821   -13942   -15033   -15163   -14796 
  -14451   -14253   -13807   -12459   -10026    -7389    -5709    -5335 
   -5957    -7105    -8006    -7967    -7160    -6174    -5260    -4479 
   -3836    -3437    -3632    -4806    -7021    -9752   -12160   -13720 
  -14353   -14150   -13208   -11678    -9814    -7749    -5408    -2971 
   -1205     -936    -2285    -4648    -7169    -9115   -10233   -10995 
  -11996   -13100   -13682   -13329   -12054   -10390    -9123    -8438 
   -7813    -6812    -5549    -4438    -3734    -3456    -3577    -3966 
   -4392    -4791    -5343    -6319    -7662    -8941   -10037   -11271 
  -12749   -14304   -15728   -16642   -16379   -14432   -11080    -7223 
   -3753    -1124      811     2376     3250     2573       39    -3508 
   -6967    -9967   -12536   -14605   -16286   -17811   -18999   -19307 
  -18393   -16347   -13668   -11020    -8760    -6678    -4361    -1790 
     785     3206     5070     5537     4052      974    -2806    -6531 
   -9840   -12795   -15473   -17540   -18604   -18669   -17895   -16506 
  -14966   -13620   -12248   -10388    -7888    -4957    -1950      650 
    2215     2427     1741      805     -228    -1426    -2851    -4719 
   -7146    -9895   -12544   -14810   -16630   -18069   -19160   -19581 
  -18868   -17004   -14374   -11480    -8741    -6416    -4537    -2787 
    -854     1086     2639     3558     3454     1846    -1159    -4984 
   -9131   -13090   -16179   -17942   -18432   -17963   -16853   -15336 
  -13545   -11578    -9641    -8078    -7114    -6727    -6597    -6050 
   -4544    -2303     -117     1308     1518      351    -1934    -4924 
   -8217   -11287   -13682   -15295   -16225   -16552   -16248   -15209 
  -13386   -10945    -8294    -5946    -4224    -3100    -2452    -2241 
   -2269    -2280    -2490    -3449    -5293    -7547    -9506   -10652 
  -10910   -10773   -10906   -11466   -12174   -12727   -12731   -11936 
  -10771    -9818    -9072    -8248    -7029    -5101    -2806    -1232 
   -1151    -2340    -4104    -5898    -7368    -8482    -9633   -11107 
  -12798   -14300   -14895   -14111   -12424   -10801    -9683    -8780 
   -7581    -5845    -3834    -2255    -1827    -2743    -4499    -6173 
   -6941    -6727    -6292    -6496    -7572    -9103   -10669   -12275 
  -13932   -15395   -16406   -16659   -15709   -13352    -9861    -5814 
   -2049      473     1317     1063      691      417     -417    -2278 
   -4882    -7816   -10808   -13258   -14675   -15294   -15480   -15203 
  -14462   -13494   -12382   -11047    -9545    -7960    -6210    -4390 
   -2925    -2103    -1894    -2147    -2700    -3412    -4141    -4995 
   -6465    -8816   -11584   -13960   -15499   -16312   -16627   -16352 
  -15288   -13497   -11200    -8672    -6173    -3896    -2030     -868 
    -646    -1205    -2227    -3667    -5481    -7276    -8568    -9213 
   -9468    -9747   -10343   -11280   -12379   -13367   -13914   -13543 
  -12060   -10091    -8390    -7011    -5833    -5046    -4698    -4600 
   -4864    -5729    -6895    -7614    -7395    -6388    -5205    -4557 
   -4949    -6336    -8001    -9197    -9906   -10525   -11110   -11462 
  -11645   -11707   -11415   -10616    -9477    -8367    -7599    -7244 
   -7256    -7501    -7546    -7021    -6224    -5644    -5198    -4519 
   -3607    -2961    -3206    -4654    -7095    -9822   -12066   -13404 
  -13838   -13714   -13414   -13154   -12918   -12432   -11469   -10003 
