Origin Time       2024/04/02 04:24:00
Lat.              40.133
Long.             141.712
Depth. (km)       71
Mag.              6.0
Station Code      IBR011
Station Lat.      36.1256
Station Long.     140.0901
Station Height(m) 27
Record Time       2024/04/02 04:26:28
Sampling Freq(Hz) 100Hz
Duration Time(s)  82
Dir.              E-W
Scale Factor      7845(gal)/8223790
Max. Acc. (gal)   2.703
Last Correction   2024/04/02 04:26:28
Memo.             
[...]
  -14690   -14611   -14551   -14536   -14597   -14721   -14832   -14924 
  -14962   -14949   -14964   -14982   -14994   -14997   -14971   -14940 
  -14874   -14813   -14893   -15030   -15107   -15137   -15118   -15124 
  -15182   -15164   -15070   -15017   -15002   -14990   -15044   -15106 
  -15007   -14812   -14669   -14581   -14588   -14682   -14789   -14847 
  -14797   -14679   -14577   -14519   -14532   -14523   -14435   -14426 
  -14530   -14635   -14731   -14804   -14774   -14690   -14666   -14689 
  -14712   -14754   -14823   -14875   -14895   -14874   -14759   -14620 
  -14646   -14845   -15066   -15244   -15279   -15120   -14922   -14764 
  -14698   -14825   -15041   -15186   -15233   -15221   -15174   -15118 
  -15136   -15174   -15183   -15259   -15326   -15299   -15276   -15302 
  -15337   -15300   -15206   -15117   -15029   -15043   -15207   -15350 
  -15396   -15369   -15218   -14970   -14773   -14698   -14705   -14774 
  -14856   -14867   -14879   -14870   -14706   -14516   -14424   -14399 
  -14465   -14581   -14656   -14661   -14592   -14481   -14391   -14407 
  -14562   -14800   -14998   -15060   -15022   -14901   -14705   -14615 
  -14667   -14735   -14844   -15001   -15101   -15167   -15210   -15178 
  -15105   -15055   -15067   -15128   -15155   -15128   -15109   -15117 
  -15115   -15118   -15106   -15014   -14955   -15005   -15006   -14980 
  -15072   -15179   -15172   -15095   -15021   -14953   -14897   -14906 
  -14980   -15055   -15094   -15078   -14976   -14881   -14901   -14848 
  -14619   -14499   -14550   -14584   -14598   -14694   -14833   -14858 
  -14767   -14704   -14642   -14569   -14573   -14602   -14558   -14388 
  -14168   -14065   -14060   -14127   -14322   -14513   -14596   -14616 
  -14559   -14470   -14503   -14686   -14878   -14983   -15030   -15029 
  -14990   -14967   -15003   -15056   -15061   -15067   -15094   -15061 
  -14971   -14856   -14704   -14600   -14647   -14783   -14895   -14976 
  -15097   -15232   -15280   -15215   -15074   -14937   -14886   -14891 
  -14932   -15001   -15068   -15179   -15286   -15300   -15241   -15087 
  -14875   -14728   -14661   -14681   -14814   -15006   -15195   -15313 
  -15283   -15113   -14899   -14848   -15040   -15259   -15400   -15531 
  -15550   -15318   -14976   -14777   -14724   -14750   -14916   -15110 
  -15125   -15006   -14910   -14862   -14828   -14810   -14810   -14820 
  -14854   -14925   -14989   -15026   -15074   -15093   -15086   -15075 
  -14962   -14775   -14670   -14613   -14571   -14562   -14501   -14422 
  -14411   -14451   -14540   -14690   -14893   -15045   -15018   -14912 
  -14820   -14665   -14493   -14391   -14323   -14303   -14369   -14427 
  -14395   -14377   -14412   -14386   -14397   -14523   -14535   -14432 
  -14395   -14338   -14278   -14361   -14527   -14737   -14979   -15106 
  -15072   -14976   -14916   -14951   -15066   -15192   -15282   -15326 
  -15292   -15210   -15190   -15187   -15115   -15026   -14997   -15072 
  -15217   -15337   -15358   -15279   -15157   -15030   -14952   -14994 
  -15109   -15190   -15161   -15057   -14986   -14949   -14926   -14987 
  -15137   -15250   -15234   -15105   -14902   -14748   -14760   -14839 
  -14887   -14975   -15074   -15052   -14882   -14743   -14778   -14948 
  -15209   -15385   -15342   -15218   -15105   -15017   -14971   -14925 
  -14893   -14845   -14746   -14659   -14563   -14500   -14575   -14632 
  -14608   -14647   -14654   -14601   -14613   -14638   -14667   -14756 
  -14860   -14929   -14941   -14908   -14854   -14823   -14848   -14870 
  -14816   -14713   -14611   -14517   -14432   -14327   -14226   -14226 
  -14365   -14640   -14949   -15088   -14986   -14779   -14712   -14854 
  -15083   -15327   -15421   -15246   -15030   -14918   -14812   -14767 
  -14852   -14935   -14916   -14881   -14935   -14959   -14787   -14586 
  -14581   -14701   -14827   -14955   -15017   -14970   -14895   -14829 
  -14825   -14975   -15111   -15080   -15071   -15141   -15147   -15086 
  -15017   -15005   -15078   -15134   -15160   -15226   -15287   -15245 
  -15114   -15070   -15175   -15259   -15226   -15118   -15007   -14935 
  -14860   -14810   -14831   -14872   -14893   -14916   -14931   -14841 
  -14682   -14648   -14748   -14850   -14962   -15037   -14987   -14895 
  -14804   -14661   -14546   -14551   -14631   -14715   -14755   -14748 
  -14729   -14706   -14727   -14818   -14936   -15013   -14949   -14804 
  -14740   -14750   -14760   -14742   -14696   -14667   -14677   -14706 
  -14709   -14652   -14580   -14551   -14593   -14675   -14688   -14612 
  -14571   -14580   -14582   -14601   -14651   -14689   -14688   -14663 
  -14669   -14704   -14725   -14762   -14860   -14936   -14902   -14820 
  -14746   -14732   -14818   -14952   -15097   -15261   -15348   -15214 
  -15005   -15017   -15147   -15203   -15299   -15419   -15402   -15311 
  -15257   -15240   -15257   -15313   -15365   -15371   -15337   -15342 
  -15390   -15410   -15415   -15384   -15280   -15176   -15107   -15032 
  -14948   -14818   -14627   -14492   -14461   -14505   -14632   -14720 
  -14681   -14613   -14550   -14480   -14500   -14665   -14885   -14997 
  -14968   -14926   -14872   -14760   -14697   -14721   -14732   -14708 
  -14685   -14650   -14646   -14732   -14837   -14908   -14993   -15024 
  -14999   -15026   -15014   -14945   -14941   -14933   -14833   -14665 
  -14493   -14435   -14532   -14683   -14790   -14839   -14847   -14851 
  -14871   -14832   -14747   -14735   -14785   -14860   -14962   -14994 
  -14914   -14835   -14821   -14862   -14948   -14978   -14902   -14824 
  -14770   -14716   -14638   -14504   -14427   -14503   -14620   -14663 
  -14607   -14492   -14445   -14519   -14640   -14783   -14949   -15066 
  -15083   -15056   -15032   -15012   -15028   -15099   -15176   -15182 
  -15118   -15064   -15002   -14917   -14916   -14956   -14901   -14854 
  -14941   -15012   -14991   -15043   -15157   -15191   -15102   -14886 
  -14679   -14662   -14721   -14692   -14581   -14450   -14415   -14542 
  -14758   -14937   -14998   -14968   -14935   -14960   -15018   -15078 
  -15128   -15111   -15080   -15147   -15232   -15230   -15153   -15091 
  -15063   -14976   -14908   -14887   -14767   -14636   -14611   -14638 
  -14710   -14789   -14817   -14801   -14786   -14771   -14658   -14548 
  -14574   -14586   -14563   -14682   -14847   -14825   -14661   -14555 
  -14538   -14553   -14667   -14829   -14905   -14967   -15067   -15122 
  -15122   -15024   -14832   -14708   -14706   -14813   -14983   -15080 
  -15086   -15057   -15047   -15067   -14986   -14840   -14848   -14982 
  -15133   -15271   -15345   -15352   -15284   -15134   -15034   -15074 
  -15174   -15261   -15288   -15233   -15157   -15097   -15051   -15043 
  -15106   -15244   -15342   -15272   -15083   -14935   -14898   -14929 
  -14940   -14887   -14825   -14809   -14771   -14706   -14755   -14859 
  -14899   -14949   -14958   -14835   -14719   -14644   -14534   -14513 
  -14696   -14895   -14922   -14937   -15049   -15083   -15032   -15029 
  -15034   -14968   -14791   -14563   -14473   -14570   -14712   -14747 
  -14662   -14559   -14515   -14544   -14584   -14609   -14675   -14729 
  -14758   -14820   -14810   -14663   -14500   -14391   -14337   -14369 
  -14523   -14659   -14662   -14696   -14717   -14526   -14319   -14268 
  -14301   -14447   -14693   -14866   -14913   -14966   -15024   -14982 
  -14939   -14998   -15074   -15111   -15174   -15240   -15248   -15246 
  -15256   -15241   -15192   -15098   -14971   -14864   -14856   -14949 
  -15032   -15006   -14916   -14895   -14909   -14879   -14914   -15024 
  -15083   -15066   -14955   -14835   -14856   -14963   -15056   -15110 
  -15121   -15124   -15034   -14894   -14897   -14949   -14932   -14898 
  -14848   -14793   -14750   -14709   -14667   -14646   -14720   -14827 
  -14882   -14937   -14947   -14895   -14866   -14882   -15001   -15161 
  -15241   -15272   -15174   -14885   -14671   -14733   -14901   -14937 
  -14773   -14528   -14359   -14297   -14353   -14499   -14590   -14598 
  -14567   -14501   -14534   -14719   -14883   -15003   -15149   -15160 
  -15033   -14978   -14958   -14935   -15012   -15121   -15245   -15383 
  -15352   -15190   -15082   -15025   -15043   -15094   -15048   -14948 
  -14913   -14975   -15034   -14940   -14743   -14617   -14567   -14535 
  -14563   -14624   -14694   -14856   -14983   -14898   -14742   -14686 
  -14713   -14767   -14851   -14958   -15084   -15236   -15306   -15249 
  -15223   -15300   -15356   -15298   -15156   -15002   -14879   -14786 
  -14715   -14640   -14542   -14489   -14516   -14551   -14612   -14737 
  -14889   -15115   -15356   -15417   -15352   -15280   -15164   -14999 
  -14833   -14712   -14631   -14485   -14349   -14407   -14548   -14501 
  -14291   -14200   -14296   -14450   -14638   -14859   -15079   -15179 
  -15041   -14817   -14713   -14721   -14773   -14891   -15128   -15394 
  -15525   -15406   -15137   -14956   -14845   -14725   -14662   -14536 
  -14350   -14397   -14638   -14752   -14735   -14708   -14644   -14527 
  -14382   -14365   -14647   -15097   -15354   -15252   -15070   -15021 
  -14989   -15147   -15599   -15935   -15923   -15661   -15264   -14935 
  -14812   -14835   -14958   -15174   -15381   -15415   -15223   -14997 
  -14933   -15014   -15114   -15098   -14910   -14686   -14620   -14682 
  -14675   -14558   -14407   -14293   -14296   -14362   -14473   -14731 
  -15057   -15250   -15252   -15091   -14855   -14694   -14705   -14905 
  -15172   -15234   -15074   -14874   -14634   -14397   -14270   -14254 
  -14415   -14675   -14767   -14651   -14565   -14625   -14764   -14929 
  -15122   -15310   -15472   -15615   -15611   -15354   -14983   -14712 
  -14689   -14864   -14980   -14956   -14871   -14658   -14289   -13929 
  -13775   -13899   -14169   -14443   -14682   -14800   -14829   -14860 
  -14832   -14901   -15164   -15407   -15608   -15734   -15606   -15238 
  -14798   -14546   -14615   -14885   -15240   -15581   -15727   -15523 
  -15093   -14785   -14779   -15005   -15205   -15202   -15057   -14817 
  -14616   -14632   -14817   -15068   -15226   -15164   -14948   -14612 
  -14320   -14368   -14739   -15164   -15294   -15040   -14717   -14589 
  -14611   -14634   -14720   -14951   -15115   -15157   -15199   -15125 
  -14866   -14619   -14566   -14666   -14762   -14800   -14877   -15006 
  -15049   -14932   -14685   -14478   -14436   -14428   -14458   -14748 
  -15240   -15608   -15627   -15360   -15017   -14642   -14318   -14266 
  -14478   -14759   -14924   -14854   -14565   -14154   -13898   -13952 
  -14154   -14543   -15091   -15375   -15375   -15326   -15071   -14638 
  -14378   -14345   -14420   -14609   -14874   -15049   -15045   -14978 
  -14887   -14754   -14817   -15164   -15538   -15708   -15449   -14793 
  -14269   -14239   -14496   -14723   -14891   -15040   -15082   -15113 
  -15280   -15492   -15668   -15718   -15520   -15142   -14782   -14615 
  -14531   -14438   -14590   -14959   -15175   -15153   -14968   -14662 
  -14451   -14615   -15167   -15782   -15982   -15444   -14362   -13432 
  -13230   -13672   -14312   -14901   -15244   -15244   -15048   -14593 
  -13968   -13810   -14334   -15010   -15313   -15184   -14894   -14624 
  -14434   -14459   -14828   -15388   -15705   -15580   -15240   -14823 
  -14442   -14416   -14696   -14833   -14600   -14164   -14042   -14461 
  -15013   -15464   -15849   -16077   -15978   -15364   -14467   -13791 
  -13477   -13621   -14195   -14804   -15198   -15263   -14935   -14474 
  -14269   -14505   -15061   -15654   -15998   -15849   -15309   -14764 
  -14427   -14488   -14939   -15383   -15635   -15723   -15600   -15255 
  -14667   -14000   -13539   -13510   -13921   -14449   -15039   -15769 
  -16371   -16713   -16677   -16193   -15655   -15314   -15086   -15026 
  -15206   -15417   -15264   -14848   -14609   -14426   -14153   -14131 
  -14334   -14542   -14990   -15653   -16042   -15994   -15647   -15136 
  -14658   -14439   -14573   -14920   -15315   -15661   -15776   -15512 
  -14875   -14108   -13707   -13937   -14774   -16011   -16887   -16683 
  -15596   -14328   -13564   -13779   -14715   -15624   -16101   -16073 
  -15566   -14890   -14411   -14183   -14264   -14829   -15622   -16044 
  -15827   -15114   -14292   -13791   -13797   -14127   -14447   -14671 
  -14893   -15053   -15191   -15294   -15175   -14913   -14623   -14353 
  -14297   -14428   -14555   -14627   -14601   -14474   -14328   -14273 
  -14347   -14526   -14809   -15075   -15080   -14774   -14400   -14242 
  -14274   -14234   -14056   -13863   -13851   -14158   -14683   -15273 
  -15786   -15993   -15789   -15232   -14534   -13987   -13701   -13684 
  -13886   -14089   -14243   -14507   -14827   -15071   -15276   -15364 
  -15330   -15384   -15452   -15341   -15113   -14899   -14935   -15373 
  -15903   -16048   -15687   -15102   -14688   -14620   -14709   -14762 
  -14821   -14743   -14338   -13767   -13324   -13336   -13942   -14814 
  -15499   -15844   -15900   -15561   -14868   -14235   -13915   -14017 
  -14593   -15292   -15620   -15426   -15020   -14805   -14755   -14771 
  -14797   -14596   -14266   -14153   -14289   -14401   -14170   -13745 
  -13562   -13755   -14354   -15163   -15745   -16019   -16040   -15724 
  -15184   -14625   -14208   -14107   -14411   -15041   -15720   -16059 
  -15677   -14554   -13366   -12825   -12943   -13441   -14272   -15228 
  -15677   -15323   -14540   -13755   -13298   -13470   -14349   -15765 
  -17132   -17709   -17231   -16104   -14997   -14210   -13767   -13743 
  -14061   -14450   -14781   -15149   -15589   -16012   -16249   -16129 
  -15943   -16171   -16551   -16461   -15844   -15018   -14295   -13936 
  -13994   -14328   -14735   -14979   -15013   -15030   -15016   -14777 
  -14501   -14580   -15032   -15552   -15653   -15091   -14438   -14413 
  -15013   -15796   -16275   -16182   -15593   -14771   -14143   -14069 
  -14466   -14850   -14814   -14443   -14052   -13932   -14397   -15318 
  -15961   -15889   -15441   -14975   -14420   -13871   -13684   -13906 
  -14323   -14694   -14854   -14845   -14812   -14901   -15057   -15075 
  -14993   -14794   -14422   -14292   -14671   -15291   -15763   -15784 
  -15390   -14897   -14582   -14746   -15527   -16399   -16560   -16082 
  -15673   -15504   -15348   -15205   -15141   -14990   -14565   -14025 
  -13737   -13938   -14411   -14661   -14612   -14493   -14281   -13956 
  -13744   -13853   -14411   -15392   -16418   -16957   -16703   -15915 
  -15256   -15051   -15175   -15394   -15435   -15264   -15137   -15232 
  -15562   -16074   -16537   -16640   -16278   -15520   -14609   -13890 
  -13390   -12987   -12730   -12818   -13456   -14540   -15699   -16503 
  -16611   -16112   -15427   -14833   -14335   -13861   -13416   -13105 
  -13132   -13648   -14381   -14710   -14577   -14659   -15236   -15862 
  -16170   -16210   -16217   -16237   -16116   -15788   -15272   -14655 
  -14061   -13514   -13304   -13753   -14472   -14951   -15155   -15086 
  -14697   -14088   -13567   -13435   -13694   -14172   -14690   -15048 
  -15013   -14612   -14345   -14666   -15664   -16908   -17456   -16839 
  -15518   -14166   -13254   -12860   -12777   -12991   -13517   -14080 
  -14411   -14539   -14744   -15228   -15805   -15998   -15468   -14486 
  -13640   -13284   -13578   -14368   -15252   -15853   -15704   -14773 
  -13802   -13482   -13828   -14449   -14998   -15252   -15068   -14575 
  -14038   -13614   -13544   -14053   -14918   -15607   -15805   -15574 
  -15130   -14775   -14831   -15376   -16117   -16555   -16395   -15728 
  -14758   -13783   -13238   -13389   -14053   -14769   -15404   -16202 
  -16999   -17328   -17203   -16811   -16104   -15194   -14396   -13907 
  -13752   -13801   -13865   -13999   -14319   -14752   -15234   -15620 
  -15682   -15419   -14883   -14172   -13647   -13603   -13929   -14283 
  -14450   -14366   -14154   -14181   -14665   -15399   -16017   -16294 
  -16209   -15839   -15268   -14658   -14330   -14504   -15034   -15539 
  -15704   -15380   -14677   -14029   -13851   -14264   -15036   -15746 
  -16200   -16212   -15589   -14688   -14045   -13868   -14037   -14238 
  -14380   -14551   -14700   -14816   -14890   -14878   -14897   -15099 
  -15489   -15897   -16051   -15809   -15272   -14725   -14351   -14141 
  -14095   -14143   -14181   -14249   -14408   -14747   -15291   -15714 
  -15653   -15132   -14431   -13833   -13482   -13424   -13628   -14094 
  -14850   -15558   -15847   -15785   -15547   -15476   -15774   -15951 
  -15705   -15327   -15021   -14898   -15044   -15357   -15709   -16085 
  -16411   -16478   -16235   -15834   -15337   -14769   -14207   -13738 
  -13482   -13549   -13954   -14558   -15109   -15417   -15519   -15653 
  -15928   -16094   -15890   -15419   -14835   -14141   -13467   -13005 
  -12933   -13355   -14064   -14740   -15248   -15579   -15745   -15657 
  -15307   -15034   -15094   -15322   -15465   -15479   -15376   -15172 
  -15018   -15006   -15060   -15225   -15568   -15920   -16177   -16301 
  -16060   -15406   -14586   -13878   -13471   -13329   -13370   -13639 
  -14014   -14449   -15029   -15473   -15456   -15052   -14505   -14177 
  -14220   -14264   -14192   -14299   -14396   -14146   -13902   -14130 
  -14663   -15118   -15369   -15452   -15323   -15002   -14717   -14482 
  -14077   -13656   -13450   -13319   -13333   -13636   -13987   -14374 
  -14886   -15209   -15280   -15371   -15557   -15720   -15693   -15577 
  -15553   -15476   -15318   -15186   -15048   -15033   -15302   -15801 
  -16262   -16318   -15974   -15569   -15188   -14781   -14370   -13934 
  -13613   -13645   -13979   -14382   -14719   -15067   -15583   -16191 
  -16638   -16640   -16102   -15350   -14790   -14509   -14451   -14580 
  -14683   -14575   -14513   -14717   -14993   -15153   -15082   -14794 
  -14500   -14204   -13837   -13622   -13825   -14449   -15165   -15566 
  -15572   -15387   -15168   -14956   -14790   -14787   -15013   -15273 
  -15273   -14939   -14458   -14035   -13774   -13732   -13828   -13903 
  -13929   -13869   -13705   -13567   -13593   -13857   -14404   -15175 
  -15898   -16170   -15790   -15005   -14169   -13423   -12945   -12945 
  -13313   -13896   -14727   -15537   -15911   -15884   -15635   -15253 
  -14936   -14814   -14878   -15052   -15221   -15321   -15340   -15288 
  -15198   -15034   -14850   -14812   -14924   -15063   -15184   -15221 
  -15199   -15346   -15642   -15808   -15822   -15724   -15520   -15430 
  -15553   -15705   -15723   -15573   -15368   -15182   -14978   -14837 
  -14840   -14947   -15091   -15088   -14812   -14470   -14292   -14351 
  -14732   -15398   -16077   -16488   -16572   -16515   -16491   -16484 
  -16414   -16197   -15885   -15681   -15611   -15500   -15175   -14585 
  -13838   -13116   -12611   -12506   -12820   -13363   -13902   -14273 
  -14403   -14458   -14737   -15265   -15865   -16430   -16764   -16687 
  -16317   -15850   -15554   -15529   -15431   -15253   -15311   -15429 
  -15356   -15228   -15120   -14974   -14839   -14656   -14269   -13922 
  -13963   -14197   -14335   -14423   -14490   -14430   -14299   -14256 
  -14341   -14454   -14443   -14305   -14185   -14193   -14389   -14689 
  -14902   -14926   -14866   -14881   -14908   -14793   -14584   -14423 
  -14370   -14380   -14339   -14208   -14035   -13833   -13687   -13743 
