Origin Time       2024/04/02 04:24:00
Lat.              40.133
Long.             141.712
Depth. (km)       71
Mag.              6.0
Station Code      IBR009
Station Lat.      36.1850
Station Long.     139.7037
Station Height(m) 17
Record Time       2024/04/02 04:26:32
Sampling Freq(Hz) 100Hz
Duration Time(s)  60
Dir.              N-S
Scale Factor      7845(gal)/8223790
Max. Acc. (gal)   1.177
Last Correction   2024/04/02 04:26:31
Memo.             
[...]
     364      419      560      631      589      556      596      619 
     558      511      540      534      475      523      681      733 
     656      621      603      436      201      143      213      190 
     140      206      287      292      332      484      634      711 
     838     1012     1042      901      683      438      286      309 
     429      535      565      554      535      461      399      452 
     569      710      823      859      901      954      897      714 
     544      492      473      434      507      658      670      515 
     330      190      129      184      318      426      496      545 
     540      527      506      363      159       20      -56      -58 
      24      166      311      360      369      468      560      602 
     697      781      768      718      654      541      382      249 
     230      295      399      575      765      854      845      776 
     726      741      711      619      577      506      295       90 
      99      274      406      490      639      810      858      710 
     405       67     -120        2      380      830     1240     1489 
    1503     1333     1000      587      252       28      -62       63 
     342      603      700      588      361      140        4        8 
     124      334      631      895     1012      963      742      402 
      47     -224     -314     -155      179      496      645      599 
     422      175      -17        1      213      454      633      684 
     580      421      315      284      310      355      391      472 
     646      773      692      461      209       32       17      124 
     230      272      247      217      249      275      195       32 
     -82      -37      178      518      903     1162     1148      911 
     595      305      145      164      220      209      271      508 
     751      816      731      519      155     -140     -105      193 
     585     1012     1325     1264      882      581      518      513 
     514      581      650      629      500      321      149       54 
      97      274      562      873      990      847      544      168 
    -128     -145      172      654     1031     1166     1080      853 
     557      252       78      143      326      503      727      934 
     928      708      419      206      201      438      807     1084 
    1080      853      594      337       81      -75     -116     -153 
    -195      -74      257      572      718      810      896      845 
     683      614      645      569      338      148      141      270 
     449      621      706      616      387      170       67       51 
      86      225      492      753      885      913      841      587 
     252       54       10       48      172      351      479      483 
     405      340      234       33     -108     -116      -48      145 
     469      735      738      391      -78     -326     -270       32 
     438      734      853      824      731      677      596      449 
     387      432      487      577      741      841      668      287 
      41      118      394      683      851      826      714      685 
     729      753      778      784      693      569      546      645 
     795      930      946      747      465      348      371      364 
     357      405      422      419      506      665      720      596 
     426      294      202      202      317      453      507      481 
     472      494      469      363      253      253      396      646 
     895      969      810      594      511      548      600      612 
     487      198      -79     -168      -20      279      538      643 
     611      483      380      402      471      473      438      495 
     672      818      783      556      224      -40      -81      113 
     456      795      999     1023      872      708      731      826 
     799      733      683      522      280      155      234      422 
     557      568      522      492      467      418      349      283 
     301      504      849     1043      876      535      267       98 
      83      305      594      688      545      261      -70     -357 
    -456     -268       76      395      722     1057     1196     1016 
     562       -6     -472     -712     -602     -102      433      629 
     533      317       85      -10      128      456      781      881 
     715      373       58        9      147      274      492      882 
    1228     1381     1385     1190      741      268       36       21 
      58      141      333      491      486      465      525      585 
     666      757      746      684      660      603      499      481 
     629      858      996      926      687      400      170       -8 
    -203     -344     -328     -261     -245     -187       -1      299 
     650      967     1165     1169     1023      885      769      595 
     434      406      477      541      625      838     1069     1107 
     988      812      598      415      409      642      997     1254 
    1206      795      319      218      526      931     1181     1140 
     827      440      166       60       85      121      149      229 
     345      483      676      892      994      853      568      441 
     550      672      625      402      151       85      265      569 
     839     1012     1051      918      662      359        0     -313 
    -332       14      553     1113     1567     1667     1254      585 
      93      -85      -13      287      722     1028     1032      823 
     502       89     -236     -278     -120       76      342      710 
    1015     1089      967      753      496      299      315      527 
     741      814      737      507      184      -41      -60       52 
     206      351      418      394      375      410      418      365 
     341      398      545      784     1026     1092      905      596 
     346      168       14      -33       97      321      537      697 
     729      627      557      631      730      687      535      442 
     475      602      792      919      789      459      225      225 
     363      550      738      797      619      336      184      171 
     160      148      221      392      571      641      561      334 
      43     -110        5      279      534      710      733      526 
     213      -13     -125     -132       17      271      483      634 
     795      837      585      213       18       21      151      371 
     553      588      494      367      249      132       91      153 
     187      209      299      357      356      325      221       86 
      28      117      417      851     1194     1259     1063      773 
     515      334      298      392      488      525      515      521 
     641      859     1009      959      765      645      716      878 
     996      982      818      577      340      186      201      391 
     648      799      796      718      603      494      464      457 
     402      380      433      444      391      396      398      236 
     -22     -209     -267     -238     -160      -39       78      110 
      29     -126     -272     -311     -237     -130      -40       76 
     236      371      437      410      249       64       18       62 
      75      137      368      670      834      789      631      461 
     349      337      415      544      696      787      703      504 
     325      220      198      252      367      542      706      722 
     546      330      265      369      561      774      943     1057 
    1128     1173     1201     1121      885      649      487      299 
      97        8       82      240      392      522      604      618 
     588      544      503      487      522      623      765      899 
     958      930      889      812      623      376      172       94 
     175      291      342      326      194       27      -25       39 
     191      425      664      831      881      858      822      753 
     712      766      735      569      517      637      718      669 
     556      414      249      157      252      491      738      969 
    1169     1263     1283     1316     1321     1204      959      718 
     587      518      504      599      720      788      862      934 
     891      710      494      297       82      -71      -12      213 
     427      549      606      631      579      417      228       71 
     -24      -28       29      122      248      342      391      414 
     390      348      295      157      -40     -232     -384     -405 
    -278     -163     -149     -136      -22      125      182      198 
     282      387      449      477      491      480      444      454 
     510      486      427      460      514      491      418      384 
     432      518      670      877      942      804      596      341 
      39     -191     -260     -166       27      261      504      666 
     680      584      446      336      334      441      588      756 
     940     1075     1123     1096     1000      884      804      739 
     687      673      691      712      685      584      465      396 
     430      552      681      819      932      934      869      822 
     783      766      796      812      747      670      669      666 
     603      579      619      606      511      426      391      338 
     241      160      135      180      301      472      680      874 
     961      911      739      475      225       89       55      103 
     238      419      535      500      368      220       58      -64 
     -55       87      288      471      598      710      843      962 
    1013      974      912      947     1067     1138     1070      874 
     662      530      440      375      405      527      670      797 
     912      988      977      886      753      616      522      476 
     449      448      519      654      710      594      400      228 
      56      -99     -130      -35       82      206      325      338 
     265      218      205      184      179      211      214      114 
      -4      -28      -20      -63     -108     -110     -132     -152 
     -52      113      187      191      189      166      163      205 
     213      129       33       31       40      -28      -24      124 
     261      333      403      507      630      742      832      864 
     807      739      716      702      680      664      626      585 
     589      591      521      391      259      221      318      502 
     731      967     1174     1332     1401     1368     1306     1256 
    1178     1051      915      815      739      665      592      542 
     558      629      683      699      704      706      710      770 
     928     1066     1077     1054     1026      919      792      688 
     581      480      378      332      360      348      297      268 
     218      176      233      368      511      591      595      583 
     552      494      486      508      487      490      561      607 
     581      529      471      402      341      313      306      314 
     313      233       60     -106     -162     -141     -137     -143 
    -124     -114     -116      -89      -66      -54       -1       55 
      51       14        8       41       32      -45     -103     -124 
    -121      -17      151      267      351      442      518      573 
     603      604      562      479      476      581      643      631 
     621      592      514      442      418      442      487      506 
     477      446      514      697      865      943      967      940 
     870      834      838      835      854      903      938      974 
    1046     1132     1154     1059      888      731      654      675 
     751      818      845      824      731      607      506      400 
     267      112      -52     -159     -121       22      180      328 
     409      344      170      -10     -155     -245     -260     -176 
       6      233      403      448      380      236       25     -206 
    -330     -240       20      279      398      342      155      -83 
    -287     -380     -321     -133      108      342      503      527 
     417      260      166      135      151      287      531      754 
     927     1063     1102     1042      961      916      899      893 
     930     1007     1024      962      886      795      673      571 
     535      583      658      699      750      832      873      847 
     774      681      633      645      722      858      951      923 
     814      695      599      479      311      205      245      384 
     541      661      697      648      584      589      666      753 
     788      768      726      688      662      664      681      654 
     561      481      514      648      807      930      922      761 
     552      365      229      182      199      230      255      247 
     209      191      234      297      309      287      274      240 
     167       95       51       32       31       45      101      184 
     234      216      120      -60     -251     -324     -287     -234 
    -170      -48       71       98       82      121      157      124 
     116      194      303      406      469      402      213       54 
      24       83      220      445      618      621      571      587 
     626      642      649      665      715      843     1085     1385 
    1609     1703     1696     1583     1382     1197     1073      946 
     792      670      623      643      730      854      908      810 
     642      542      507      486      500      558      610      611 
     565      499      410      291      207      205      259      348 
     413      418      440      481      477      453      453      473 
     477      427      344      260      193      178      209      240 
     284      344      365      326      264      221      213      221 
     270      395      550      668      726      700      608      534 
     507      469      421      442      517      556      553      573 
     611      583      519      533      608      677      731      765 
     750      700      700      791      885      919      920      892 
     846      810      769      710      626      508      357      201 
     135      206      309      321      271      251      271      265 
     218      175      152      143      178      284      444      595 
     706      783      796      743      697      681      657      642 
     660      673      608      467      369      396      468      519 
     561      591      615      652      695      724      707      670 
     684      734      751      760      795      797      702      556 
     426      299      186      151      206      307      386      396 
     341      233      110       25       18      101      209      290 
     378      486      538      494      383      260      156       75 
      43      116      253      342      346      295      205      113 
      97      166      251      334      433      495      454      337 
     232      180      178      241      351      441      479      475 
     437      356      249      174      130       89      110      264 
     480      625      610      459      272      129       36      -13 
      16      141      290      402      498      577      598      546 
     454      390      373      396      460      538      587      631 
     677      670      614      560      529      538      592      664 
     729      773      777      751      693      583      460      372 
     287      222      237      305      349      349      351      372 
     336      248      241      322      411      531      680      791 
     864      904      878      760      572      425      341      240 
     179      245      409      656      913     1047     1036      928 
     784      657      545      437      361      361      437      495 
     479      442      410      315      190      175      303      463 
     598      720      739      587      375      238      176      160 
     211      336      473      560      565      483      318      155 
      81       95      152      226      326      461      607      724 
     784      741      619      494      399      359      380      442 
     533      645      762      866      928      972     1035     1062 
    1017      973      938      874      792      696      580      467 
     390      382      450      572      707      797      807      756 
     688      621      587      583      535      437      342      275 
     216      133       45       21       89      232      418      554 
     585      571      584      626      648      661      722      772 
     741      672      587      456      295      182      147      148 
     189      288      395      464      502      502      476      484 
     553      645      742      845      891      842      751      642 
     530      492      554      650      730      819      950     1062 
    1097     1058      966      878      810      754      756      788 
     789      768      757      780      818      819      820      847 
     842      834      896      963      957      899      822      708 
     552      417      342      253      143      106      128      128 
     101       33      -98     -257     -367     -372     -322     -272 
    -179      -59        0       13       28       18      -10       20 
     126      216      244      284      359      396      399      391 
     337      238      166      162      209      284      330      301 
     220      120       35       -5      -25        5      116      222 
     263      255      228      203      171      120       91      102 
     130      180      247      307      359      405      423      400 
     369      353      311      252      244      283      287      252 
     236      257      330      465      606      645      580      537 
     575      575      491      438      445      441      449      496 
     523      508      477      423      372      357      372      399 
     425      440      471      535      616      668      635      552 
     508      533      619      768      930     1047     1113     1144 
    1162     1173     1159     1136     1120     1074     1007      958 
     927      916      919      899      870      842      792      737 
     681      607      515      437      444      535      596      610 
     622      573      456      359      313      299      292      292 
     348      444      506      529      523      486      440      409 
     403      442      479      453      379      291      221      202 
     249      306      279      152       18      -58      -91     -110 
    -121     -149     -224     -324     -391     -383     -297     -179 
     -63       56      174      264      319      357      402      457 
     511      556      606      672      738      776      764      729 
     710      714      753      858      999     1065     1051     1055 
    1084     1082     1055     1016      935      826      757      741 
     688      579      488      423      361      351      378      352 
     276      232      248      279      291      291      265      199 
