Origin Time       2024/04/02 04:24:00
Lat.              40.133
Long.             141.712
Depth. (km)       71
Mag.              6.0
Station Code      IBR006
Station Lat.      36.3665
Station Long.     140.4543
Station Height(m) 30
Record Time       2024/04/02 04:25:42
Sampling Freq(Hz) 100Hz
Duration Time(s)  112
Dir.              U-D
Scale Factor      7845(gal)/8223790
Max. Acc. (gal)   1.646
Last Correction   2024/04/02 04:25:41
Memo.             
[...]
   25832    25963    26056    26034    26013    26059    26154    26268 
   26261    26094    25867    25716    25795    26019    26068    25860 
   25736    25933    26165    26158    25948    25575    25259    25254 
   25515    25988    26514    26775    26689    26339    25937    25778 
   25949    26244    26303    26123    26057    26152    26284    26370 
   26203    25871    25729    25894    26246    26496    26369    26003 
   25814    25947    26167    26279    26262    26227    26326    26481 
   26427    26133    25894    25921    26011    25920    25712    25623 
   25902    26449    26694    26368    25857    25613    25714    25906 
   25886    25679    25645    25991    26422    26411    25852    25288 
   25330    25925    26532    26734    26485    26190    26323    26736 
   26798    26293    25748    25720    26206    26762    26952    26779 
   26403    25844    25451    25571    25938    26226    26407    26542 
   26634    26595    26438    26248    26044    25874    25801    25907 
   26227    26550    26603    26323    25974    25884    26009    26017 
   25735    25366    25209    25347    25752    26183    26310    26163 
   26025    26137    26383    26298    25876    25636    25721    25829 
   25776    25674    25744    26013    26222    26195    26080    26014 
   25936    25762    25501    25370    25596    26055    26450    26538 
   26235    25782    25535    25585    25756    25884    25897    25848 
   26018    26458    26669    26271    25552    25096    25193    25632 
   25975    25990    25743    25613    25961    26497    26616    26300 
   26044    26119    26257    26113    25847    25786    25868    25914 
   25911    25987    26233    26438    26411    26257    26055    25930 
   26022    26126    26118    26158    26254    26364    26481    26477 
   26377    26369    26509    26678    26662    26476    26384    26374 
   26227    25991    25905    26080    26337    26369    26156    26010 
   26146    26308    26149    25809    25606    25639    25882    26190 
   26379    26349    26104    25884    25859    25826    25641    25361 
   25218    25520    26045    26244    26088    25940    26063    26293 
   26199    25785    25490    25554    25839    26098    26277    26419 
   26341    25925    25544    25501    25628    25840    26136    26277 
   26098    25627    25253    25481    26001    26152    25934    25736 
   25883    26326    26615    26528    26152    25694    25577    25961 
   26484    26720    26559    26315    26299    26296    26023    25627 
   25438    25756    26427    26705    26376    26018    25982    26252 
   26574    26457    25974    25733    25857    26038    26096    25968 
   25760    25812    26163    26349    26114    25791    25829    26238 
   26601    26627    26415    26203    26137    26203    26314    26404 
   26388    26257    26094    25971    26005    26161    26234    26150 
   25967    25847    25987    26271    26403    26347    26245    26087 
   25925    25955    26082    26065    25975    25899    25740    25543 
   25482    25606    25860    26088    26045    25772    25637    25677 
   25656    25644    25751    25883    25980    26015    26011    26083 
   26181    26084    25851    25786    25944    26134    26288    26438 
   26496    26268    25816    25609    25915    26389    26557    26322 
   26021    26067    26333    26339    25964    25390    25006    25246 
   25917    26424    26516    26268    26015    26032    26134    26100 
   25944    25794    25803    25975    26148    26211    26203    26203 
   26231    26246    26203    26130    26095    26142    26252    26327 
   26341    26325    26288    26215    25996    25770    25917    26285 
   26377    26169    26017    26185    26549    26682    26423    26010 
   25756    25770    25878    25924    25976    26181    26616    27059 
   27056    26534    25921    25562    25465    25542    25744    25974 
   26133    26229    26288    26322    26300    26095    25803    25733 
   25861    25922    25936    26165    26528    26576    26229    25814 
   25504    25354    25398    25482    25455    25425    25570    25894 
   26244    26441    26370    26075    25718    25489    25585    26060 
   26626    26847    26626    26275    26138    26219    26260    26107 
   25840    25608    25602    25996    26585    26736    26194    25597 
   25579    25893    26001    25906    25928    26152    26469    26638 
   26397    25878    25474    25510    26069    26638    26644    26268 
   26006    26115    26447    26546    26175    25591    25362    25802 
   26441    26593    26222    25809    25779    26063    26250    26168 
   25929    25729    25766    26061    26397    26535    26373    26049 
   25857    25845    25712    25344    25078    25301    25928    26369 
   26242    25866    25717    25798    25891    25980    26044    25995 
   26038    26273    26388    26207    25969    26011    26285    26334 
   25980    25551    25525    26045    26558    26536    26196    25953 
   25948    26077    26137    26056    25948    25967    26106    26172 
   26080    26013    26152    26374    26431    26256    26013    25899 
   26057    26411    26613    26528    26354    26183    26048    26040 
   26082    25986    25705    25558    25856    26368    26677    26539 
   26091    25871    25980    26061    26064    26055    26076    26123 
   25982    25786    25779    25816    25949    26244    26516    26725 
   26662    26291    26130    26269    26307    26173    26052    26075 
   26196    26245    26187    26104    26068    26118    26196    26241 
   26264    26207    26002    25701    25431    25439    25851    26223 
   26104    25806    25863    26206    26492    26539    26350    26177 
   26118    25921    25566    25301    25247    25446    25866    26266 
   26395    26231    25929    25737    25809    25907    25782    25737 
   26090    26531    26581    26150    25571    25303    25485    25807 
   25952    26029    26183    26237    26160    26068    25830    25415 
   25191    25585    26470    26981    26445    25419    25045    25500 
   25999    26137    26086    26030    26109    26334    26542    26557 
   26387    26187    26028    25913    25771    25485    25245    25393 
   26009    26739    26935    26503    26048    25969    26227    26461 
   26334    26052    25868    25733    25741    25942    26141    26226 
   26181    26042    25934    25955    26096    26202    26118    25934 
   25867    25949    25922    25662    25505    25752    26276    26712 
   26750    26466    26190    26102    26196    26231    26001    25721 
   25675    25903    26242    26372    26244    26154    26273    26505 
   26550    26285    26050    26005    25934    25822    25807    25964 
   26296    26613    26634    26258    25802    25739    26056    26368 
   26404    26175    25955    25866    25713    25455    25277    25411 
   25934    26488    26620    26335    25988    25895    26042    26076 
   25802    25498    25477    25863    26572    27109    27071    26612 
   26113    25929    26083    26114    25739    25370    25540    26071 
   26361    26266    26098    26121    26327    26406    26125    25699 
   25520    25623    25743    25802    25848    25802    25710    25763 
   26026    26346    26423    26138    25794    25806    26172    26427 
   26250    25778    25490    25755    26258    26412    26176    25990 
   26218    26639    26680    26246    25720    25510    25899    26565 
   26739    26287    25744    25562    25822    26146    26079    25783 
   25786    26212    26701    26840    26493    25971    25699    25686 
   25705    25643    25570    25803    26435    26886    26636    26010 
   25690    25767    25860    25857    25861    25867    25979    26335 
   26766    26936    26676    26158    25720    25486    25404    25482 
   25768    26229    26667    26828    26716    26531    26322    25980 
   25564    25321    25312    25509    25980    26612    27033    26906 
   26337    25813    25606    25563    25529    25648    26022    26347 
   26293    25829    25274    25162    25535    25965    26231    26276 
   26212    26256    26369    26518    26622    26364    25809    25502 
   25682    26095    26411    26418    26187    25969    25952    26292 
   26752    26723    26171    25520    25064    25039    25419    25988 
   26528    26632    26281    25926    25782    25755    25755    25867 
   26158    26362    26268    26082    26073    26156    26141    26102 
   26034    25915    25999    26260    26354    26280    26206    26096 
   25955    25902    26060    26410    26705    26734    26443    25902 
   25400    25215    25397    25802    26125    26196    26102    25987 
   25952    25901    25816    25917    26244    26508    26387    25986 
   25802    26037    26415    26504    26256    25994    25826    25920 
   26404    26627    26076    25397    25432    26053    26570    26630 
   26302    25988    26022    26032    25737    25573    25802    26323 
   26858    26887    26333    25794    25608    25596    25663    25791 
   25760    25558    25539    25915    26449    26680    26438    26073 
   25975    26129    26167    25867    25573    25668    26042    26358 
   26420    26322    26221    26119    25967    25775    25652    25718 
   25936    26203    26416    26403    26053    25613    25587    25994 
   26376    26496    26244    25762    25579    25749    25886    25844 
   25590    25350    25539    26050    26377    26234    25801    25652 
   26049    26501    26520    26195    25833    25675    25886    26284 
   26418    26126    25714    25706    26264    26763    26559    25922 
   25581    25759    26117    26354    26431    26310    26111    26192 
   26541    26801    26732    26265    25789    25735    25897    26014 
   26068    26100    26356    26707    26635    26187    25772    25548 
   25578    25901    26271    26307    26046    25797    25714    25921 
   26273    26366    26150    25868    25762    25801    25728    25679 
   25974    26411    26588    26377    26009    25876    26057    26249 
   26158    25713    25212    25199    25828    26623    27037    26881 
   26323    25880    25910    26117    26115    25910    25598    25386 
   25463    25621    25764    26056    26415    26670    26666    26360 
   26028    25888    25971    26102    25980    25809    25920    26156 
   26435    26698    26596    26018    25307    25019    25393    26003 
   26391    26508    26457    26333    26134    25770    25439    25536 
   26003    26300    26157    25971    26118    26392    26476    26353 
   26121    25812    25542    25559    25859    26142    26167    25840 
   25556    25868    26520    26811    26350    25405    24921    25334 
   26133    26654    26454    25859    25677    26001    26369    26430 
   26204    26061    26102    26194    26368    26431    26187    25910 
   25755    25597    25562    25790    26150    26516    26715    26507 
   26136    26045    26103    26032    25947    25872    25728    25817 
   26212    26396    26229    26102    26289    26734    26923    26466 
   25833    25662    25968    26380    26546    26310    25753    25400 
   25795    26454    26487    25947    25429    25357    25866    26636 
   27032    26643    25733    25054    25154    25845    26418    26519 
   26442    26520    26692    26603    26118    25691    25660    25689 
   25515    25332    25331    25712    26497    27079    26882    26171 
   25681    25880    26496    26851    26654    26118    25593    25389 
   25631    25998    26022    25740    25571    25749    26165    26580 
   26800    26686    26279    25879    25664    25494    25282    25253 
   25612    26158    26461    26361    26103    26022    26176    26264 
   25905    25334    25332    25992    26674    26860    26281    25371 
   24983    25226    25797    26391    26582    26414    26230    26117 
   25957    25498    25072    25378    26076    26406    26339    26257 
   26426    26577    26218    25566    25336    25786    26563    27140 
   27087    26370    25490    25056    25346    26064    26489    26407 
   26377    26758    27244    27311    26657    25693    25222    25332 
   25728    26289    26630    26493    26121    25785    25803    26248 
   26623    26528    26117    25864    26025    26175    25810    25224 
   25112    25724    26635    27016    26674    26362    26469    26538 
   26242    25830    25461    25143    25257    25886    26566    26835 
   26341    25554    25382    25837    26422    26527    25888    25267 
   25263    25617    26001    26300    26585    26748    26404    25606 
   25023    25201    25897    26493    26878    27287    27594    27325 
   26438    25427    24664    24451    24946    25759    26424    26778 
   26829    26889    27066    26950    26420    25845    25386    25127 
   25390    26068    26395    25922    25263    25363    26195    26993 
   27407    27395    26701    25540    24862    25039    25482    25752 
   25886    26067    26415    26692    26500    25830    25277    25288 
   25544    25821    26092    26075    25974    26150    26437    26582 
   26146    25047    24351    24895    26123    26902    26785    26279 
   25982    26063    26431    26676    26333    25627    25292    25470 
   25709    25882    26006    26069    26314    26639    26534    26046 
   25907    26435    26925    26708    26117    25840    26026    26334 
   26388    26119    25774    25392    24977    25168    26225    27261 
   27521    26995    26065    25078    24329    24582    25914    27082 
   27414    27182    26781    26642    26632    26234    25562    25176 
   25342    25914    26592    26882    26450    25720    25246    25147 
   25434    25945    26366    26646    26811    26516    25643    24956 
   24977    25280    25583    26067    26786    27456    27654    27144 
   26092    25230    25126    25348    25463    25741    26214    26509 
   26520    26389    26206    25998    25749    25447    25299    25501 
   25731    25698    25763    26167    26565    26589    26145    25539 
   25186    25165    25504    26207    26878    27079    26840    26492 
   26272    26212    26104    25735    25324    25266    25672    26322 
   26589    26125    25501    25377    25872    26542    26611    26088 
   25882    26383    26975    26898    26202    25567    25416    25718 
   25961    25575    25077    25386    26383    27279    27368    26520 
   25574    25319    25417    25218    24865    24976    25785    26851 
   27427    27039    25878    24865    24941    26006    26970    26935 
   26099    25404    25427    25926    26372    26381    25864    25304 
   25509    26368    26778    26419    26028    26050    26383    26676 
   26650    26466    26191    25643    25069    24910    25188    25548 
   25767    26113    26790    27294    26935    25798    24794    24729 
   25496    26271    26576    26632    26481    26064    25952    26431 
   26883    26856    26523    26083    25674    25574    25725    25760 
   25806    26104    26373    26302    26100    26079    26001    25798 
   25975    26566    27124    27143    26384    25515    25292    25492 
   25613    25739    26217    26789    26855    26422    25834    25431 
   25552    26003    26385    26681    26627    25942    25145    24879 
   25173    25772    26493    27106    27310    27028    26481    25826 
   25247    25299    26111    26811    26732    26171    25733    25856 
   26266    26206    25699    25396    25739    26613    27253    27259 
   26858    26226    25709    25555    25546    25548    25456    25245 
   25504    26530    27473    27595    27202    26676    25974    25296 
   25076    25407    25918    26145    25933    25604    25644    26001 
   26250    26292    26179    26091    26238    26426    26505    26395 
   25863    25238    25165    25771    26623    27040    26757    26049 
   25393    25412    26060    26576    26665    26374    25794    25427 
   25547    25828    25959    25797    25523    25600    26075    26536 
   26581    26059    25267    24862    25320    26211    26565    26235 
   25932    26235    26983    27184    26295    25083    24447    24633 
   25440    26356    26898    26900    26512    26019    25501    25095 
   25158    25717    26424    26897    26952    26825    26786    26825 
   26892    26804    26349    25651    25101    25157    25659    25983 
   26204    26454    26377    26065    25674    25272    25326    25876 
   26431    26642    26599    26808    27207    27217    26766    26057 
   25560    25780    26380    26854    27074    26863    26273    25616 
   25192    25153    25335    25704    26287    26735    26762    26260 
   25375    24840    25120    25826    26420    26754    26910    26711 
   25957    25199    25099    25564    26076    26145    25914    25948 
   26106    26079    26021    25882    25709    25812    26168    26451 
   26291    25778    25420    25323    25170    24903    25031    25787 
   26657    27109    26871    26160    25563    25284    25374    25763 
   26018    26100    26384    26805    26763    25976    24948    24424 
   24834    25778    26501    26956    27135    26827    26300    25868 
   25739    25984    26352    26766    27052    26844    26368    26026 
   25899    25763    25303    24825    24952    25790    26973    27773 
   27646    26796    25887    25506    25542    25463    25374    25671 
   26279    26870    27163    27018    26392    25326    24435    24476 
   25161    25756    26250    26786    27193    27171    26601    25937 
   25512    25154    25038    25590    26636    27328    27118    26581 
   26365    26254    25868    25242    24888    25259    25998    26372 
   26001    25224    25010    25663    26527    27067    26901    25879 
   24831    24807    25762    26789    27164    26850    26446    26516 
   26811    26640    25895    25251    25359    25956    26276    26265 
   26319    26325    26029    25643    25434    25332    25297    25586 
   26233    26725    26705    26460    26538    26932    27002    26474 
   25847    25685    25922    25926    25489    25234    25660    26508 
   27095    26963    26354    25806    25583    25694    25868    25817 
   25582    25397    25610    26362    27093    27275    27049    26659 
   26261    26028    25925    26001    26314    26414    26028    25712 
   25980    26480    26589    26276    25852    25564    25537    25577 
   25429    25087    24808    25110    25984    26678    26698    26343 
   26287    26658    26712    25986    25145    25092    25682    26150 
   26302    26234    26060    25937    25698    25358    25284    25477 
   25751    26026    26287    26508    26514    26280    26005    25729 
   25475    25305    25255    25502    26215    27136    27607    27244 
   26331    25529    25330    25501    25520    25581    25936    26222 
   26422    26636    26600    26430    26219    25829    25702    26106 
   26568    26627    26196    25694    25627    25948    26478    26960 
   26920    26464    26091    25914    25926    25969    25801    25760 
   26142    26555    26563    26092    25535    25443    25807    26334 
   26740    26627    26152    26002    26284    26508    26157    25211 
   24422    24478    25384    26507    26947    26590    26025    25694 
   25786    25988    25836    25456    25316    25736    26451    26793 
