Origin Time       2024/04/02 04:24:00
Lat.              40.133
Long.             141.712
Depth. (km)       71
Mag.              6.0
Station Code      IBR007
Station Lat.      36.3526
Station Long.     140.5954
Station Height(m) 24
Record Time       2024/04/02 04:26:20
Sampling Freq(Hz) 100Hz
Duration Time(s)  61
Dir.              N-S
Scale Factor      7845(gal)/8223790
Max. Acc. (gal)   4.544
Last Correction   2024/04/02 04:26:19
Memo.             
[...]
   -3771    -3584    -3565    -3640    -3766    -3944    -4085    -4137 
   -4166    -4166    -4068    -4024    -4252    -4630    -4854    -4814 
   -4557    -4125    -3659    -3485    -3769    -4243    -4515    -4453 
   -4141    -3824    -3757    -3896    -3989    -3959    -3881    -3829 
   -3893    -4044    -4085    -3986    -3994    -4197    -4425    -4572 
   -4614    -4531    -4384    -4217    -4008    -3820    -3807    -3970 
   -4081    -4032    -3946    -3850    -3742    -3738    -3831    -3897 
   -3964    -4129    -4298    -4322    -4255    -4166    -3955    -3666 
   -3570    -3699    -3886    -4160    -4544    -4827    -4833    -4599 
   -4344    -4256    -4325    -4384    -4245    -3879    -3554    -3532 
   -3765    -4068    -4341    -4598    -4846    -4900    -4610    -4106 
   -3677    -3550    -3661    -3775    -3824    -3865    -3964    -4085 
   -4083    -4055    -4224    -4471    -4596    -4668    -4733    -4652 
   -4372    -4075    -3996    -4136    -4284    -4276    -4106    -3848 
   -3589    -3469    -3596    -3874    -4167    -4464    -4638    -4552 
   -4410    -4487    -4666    -4746    -4762    -4731    -4581    -4376 
   -4205    -4031    -3828    -3669    -3653    -3796    -4023    -4230 
   -4315    -4234    -4082    -3956    -3852    -3800    -3897    -4101 
   -4267    -4390    -4553    -4720    -4661    -4268    -3804    -3588 
   -3693    -3991    -4244    -4280    -4159    -4082    -4102    -4066 
   -3904    -3757    -3727    -3809    -4014    -4268    -4415    -4414 
   -4322    -4214    -4156    -4187    -4307    -4440    -4452    -4291 
   -3990    -3667    -3515    -3578    -3766    -4016    -4220    -4279 
   -4240    -4168    -4063    -3921    -3769    -3646    -3589    -3689 
   -3985    -4342    -4618    -4723    -4615    -4410    -4213    -3971 
   -3731    -3657    -3723    -3808    -3929    -4117    -4295    -4383 
   -4367    -4278    -4216    -4249    -4267    -4195    -4209    -4363 
   -4406    -4216    -3987    -3910    -3927    -3915    -3897    -3981 
   -4144    -4252    -4280    -4272    -4245    -4252    -4263    -4226 
   -4243    -4299    -4275    -4205    -4152    -4167    -4245    -4237 
   -4178    -4241    -4384    -4490    -4486    -4332    -4153    -4045 
   -3931    -3771    -3643    -3669    -3889    -4141    -4266    -4347 
   -4506    -4635    -4571    -4429    -4422    -4418    -4185    -3816 
   -3566    -3545    -3732    -4028    -4236    -4244    -4120    -3944 
   -3812    -3862    -4114    -4452    -4668    -4598    -4355    -4179 
   -4104    -4087    -4143    -4213    -4234    -4232    -4255    -4310 
   -4328    -4318    -4374    -4382    -4221    -4008    -3850    -3797 
   -3896    -3969    -3819    -3669    -3823    -4113    -4245    -4247 
   -4152    -3861    -3497    -3335    -3472    -3832    -4261    -4569 
   -4635    -4556    -4571    -4712    -4756    -4587    -4365    -4252 
   -4234    -4256    -4332    -4433    -4422    -4237    -3964    -3796 
   -3940    -4305    -4506    -4348    -3983    -3759    -3882    -4156 
   -4307    -4278    -4101    -3898    -3829    -3940    -4183    -4360 
   -4217    -3901    -3812    -3924    -3998    -4113    -4279    -4293 
   -4190    -4117    -4105    -4203    -4338    -4317    -4122    -3852 
   -3632    -3569    -3636    -3815    -4066    -4228    -4276    -4368 
   -4513    -4569    -4430    -4097    -3762    -3615    -3589    -3530 
   -3512    -3653    -3813    -3882    -3997    -4191    -4336    -4388 
   -4334    -4162    -4037    -4147    -4413    -4577    -4476    -4152 
   -3796    -3599    -3646    -3936    -4386    -4784    -4882    -4668 
   -4436    -4396    -4388    -4214    -3998    -3971    -4164    -4372 
   -4390    -4225    -4033    -3956    -4098    -4384    -4563    -4542 
   -4457    -4329    -4085    -3850    -3790    -3832    -3819    -3739 
   -3743    -4031    -4490    -4712    -4584    -4315    -4064    -3955 
   -4012    -4104    -4256    -4666    -5219    -5412    -4939    -4059 
   -3227    -2724    -2714    -3144    -3640    -3933    -4009    -3908 
   -3798    -3959    -4336    -4560    -4518    -4401    -4330    -4317 
   -4336    -4338    -4291    -4230    -4122    -3909    -3773    -3878 
   -4014    -3993    -3909    -3905    -3996    -4170    -4457    -4739 
   -4765    -4557    -4355    -4180    -4001    -3908    -3879    -3865 
   -3943    -4105    -4284    -4502    -4657    -4577    -4256    -3874 
   -3727    -3854    -3942    -3915    -3942    -4014    -4078    -4160 
   -4257    -4403    -4575    -4637    -4538    -4320    -4050    -3873 
   -3862    -3989    -4137    -4129    -3951    -3720    -3534    -3499 
   -3662    -3910    -4089    -4178    -4283    -4415    -4513    -4599 
   -4631    -4495    -4306    -4210    -4101    -3962    -3916    -3944 
   -4109    -4473    -4654    -4436    -4197    -4122    -4005    -3781 
   -3578    -3541    -3701    -3956    -4193    -4348    -4428    -4463 
   -4444    -4380    -4305    -4264    -4313    -4411    -4475    -4492 
   -4410    -4172    -3916    -3815    -3827    -3820    -3873    -4193 
   -4631    -4773    -4554    -4224    -3973    -3894    -3894    -3786 
   -3645    -3677    -3865    -4035    -4133    -4240    -4309    -4267 
   -4275    -4452    -4629    -4577    -4314    -4054    -3909    -3883 
   -3982    -4060    -3955    -3797    -3766    -3871    -4147    -4510 
   -4654    -4504    -4255    -4025    -3912    -3975    -4045    -3955 
   -3844    -3882    -4041    -4260    -4476    -4552    -4398    -4128 
   -3905    -3786    -3786    -3924    -4182    -4449    -4471    -4151 
   -3886    -4009    -4240    -4217    -4006    -3873    -3925    -4066 
   -4099    -3920    -3689    -3600    -3534    -3416    -3547    -4102 
   -4693    -4924    -4884    -4673    -4202    -3786    -3816    -4021 
   -4139    -4399    -4758    -4788    -4465    -4105    -3794    -3538 
   -3473    -3607    -3812    -4048    -4303    -4553    -4730    -4725 
   -4515    -4183    -3870    -3777    -4004    -4374    -4603    -4600 
   -4450    -4302    -4274    -4260    -4078    -3774    -3526    -3465 
   -3615    -3825    -3962    -4085    -4293    -4492    -4575    -4698 
   -4939    -5042    -4833    -4444    -4072    -3801    -3601    -3543 
   -3739    -4093    -4336    -4311    -4135    -4051    -4149    -4320 
   -4428    -4376    -4190    -4027    -3927    -3823    -3754    -3807 
   -4047    -4406    -4669    -4820    -4969    -4923    -4513    -3923 
   -3456    -3364    -3690    -4151    -4450    -4571    -4533    -4271 
   -3828    -3400    -3222    -3366    -3666    -4008    -4368    -4614 
   -4685    -4658    -4504    -4248    -4079    -3959    -3707    -3488 
   -3572    -3893    -4222    -4465    -4575    -4513    -4396    -4306 
   -4162    -3996    -3893    -3885    -4000    -4098    -4059    -4051 
   -4202    -4266    -4005    -3661    -3588    -3708    -3789    -3835 
   -3969    -4256    -4614    -4780    -4600    -4282    -4121    -4117 
   -4029    -3836    -3824    -3974    -3970    -3834    -3808    -3950 
   -4186    -4344    -4345    -4338    -4355    -4255    -4047    -3893 
   -3920    -4126    -4419    -4602    -4426    -4028    -3925    -4172 
   -4340    -4395    -4509    -4526    -4367    -4253    -4253    -4137 
   -3852    -3669    -3705    -3748    -3770    -4023    -4425    -4542 
   -4299    -4098    -4163    -4299    -4332    -4318    -4329    -4326 
   -4241    -4094    -3962    -3896    -4031    -4329    -4432    -4255 
   -4089    -4018    -3932    -3906    -4025    -4187    -4271    -4201 
   -4047    -3955    -3873    -3827    -3966    -4121    -4131    -4131 
   -4159    -4166    -4212    -4283    -4256    -4104    -3970    -4012 
   -4247    -4573    -4833    -4907    -4747    -4305    -3724    -3404 
   -3496    -3746    -3970    -4143    -4155    -4040    -4004    -4016 
   -3998    -4135    -4413    -4549    -4511    -4407    -4152    -3736 
   -3454    -3561    -3901    -4197    -4445    -4700    -4885    -4922 
   -4722    -4384    -4228    -4321    -4403    -4270    -3912    -3538 
   -3391    -3427    -3505    -3623    -3829    -4213    -4668    -4846 
   -4722    -4536    -4382    -4387    -4510    -4414    -4083    -3770 
   -3559    -3584    -3967    -4446    -4715    -4807    -4719    -4298 
   -3770    -3546    -3595    -3665    -3627    -3426    -3183    -3221 
   -3805    -4792    -5609    -5794    -5381    -4699    -4037    -3589 
   -3531    -3846    -4205    -4311    -4206    -4124    -4198    -4371 
   -4537    -4618    -4429    -3873    -3308    -3109    -3107    -3099 
   -3299    -3870    -4602    -5225    -5560    -5452    -5050    -4656 
   -4234    -3678    -3152    -2808    -2701    -2832    -3056    -3217 
   -3362    -3603    -3933    -4398    -4963    -5351    -5394    -5157 
   -4733    -4302    -4018    -3928    -4060    -4286    -4326    -4113 
   -3843    -3717    -3748    -3789    -3802    -3977    -4320    -4542 
   -4541    -4460    -4380    -4293    -4178    -4058    -4044    -4224 
   -4529    -4749    -4784    -4708    -4467    -3974    -3489    -3311 
   -3393    -3561    -3726    -3896    -4089    -4272    -4402    -4394 
   -4267    -4247    -4405    -4495    -4432    -4450    -4668    -4866 
   -4860    -4741    -4557    -4151    -3607    -3180    -2928    -2903 
   -3137    -3431    -3703    -3971    -4118    -4216    -4461    -4706 
   -4810    -4887    -4873    -4611    -4212    -3827    -3484    -3289 
   -3454    -3966    -4510    -4899    -5113    -4974    -4415    -3832 
   -3700    -4013    -4410    -4668    -4698    -4434    -4066    -3819 
   -3666    -3599    -3624    -3645    -3645    -3684    -3852    -4298 
   -4843    -5032    -4766    -4345    -3962    -3549    -3126    -2986 
   -3244    -3728    -4241    -4564    -4639    -4648    -4611    -4495 
   -4509    -4723    -4943    -5067    -5028    -4731    -4247    -3690 
   -3117    -2543    -2080    -2027    -2421    -2891    -3350    -3959 
   -4546    -4961    -5332    -5620    -5719    -5680    -5451    -4936 
   -4186    -3377    -2830    -2775    -3100    -3531    -3933    -4325 
   -4685    -4926    -5031    -4989    -4706    -4221    -3800    -3578 
   -3527    -3700    -3963    -3936    -3612    -3369    -3385    -3608 
   -3920    -4072    -4012    -4082    -4460    -4893    -5074    -4965 
   -4824    -4986    -5418    -5598    -5148    -4283    -3356    -2540 
   -2042    -1958    -2168    -2651    -3420    -4178    -4598    -4783 
   -5035    -5368    -5613    -5664    -5400    -4830    -4209    -3720 
   -3442    -3497    -3850    -4326    -4869    -5435    -5815    -5724 
   -5143    -4407    -3808    -3442    -3314    -3460    -3889    -4278 
   -4341    -4326    -4332    -4190    -4247    -4800    -5389    -5452 
   -5022    -4633    -4673    -4792    -4452    -3661    -2718    -1930 
   -1572    -1679    -2112    -2801    -3607    -4363    -5031    -5543 
   -5737    -5579    -5289    -5092    -4815    -4182    -3333    -2544 
   -1995    -1966    -2643    -3869    -5270    -6390    -6880    -6648 
   -5771    -4483    -3177    -2363    -2436    -3211    -4071    -4583 
   -4587    -4226    -3847    -3472    -3014    -2760    -2886    -3113 
   -3138    -2887    -2492    -2326    -2686    -3375    -4081    -4808 
   -5512    -5950    -6029    -5757    -5247    -4803    -4571    -4272 
   -3831    -3585    -3649    -3886    -4207    -4434    -4326    -3820 
   -3334    -3505    -4153    -4406    -4018    -3457    -3156    -3337 
   -3862    -4514    -5363    -6160    -6280    -5645    -4741    -4077 
   -4000    -4441    -4986    -5381    -5587    -5478    -4835    -3627 
   -2187    -1148    -1070    -1948    -3300    -4626    -5456    -5514 
   -5003    -4305    -3601    -2980    -2654    -2898    -3834    -5090 
   -5822    -5617    -4927    -4256    -3804    -3820    -4523    -5692 
   -6624    -6606    -5383    -3265    -1039      337      225    -1258 
   -3262    -4973    -6073    -6420    -6037    -5359    -4924    -4905 
   -5086    -5205    -5055    -4536    -3882    -3333    -2797    -2350 
   -2366    -3076    -4382    -5849    -6894    -7105    -6292    -4677 
   -3095    -2177    -1746    -1575    -1753    -2200    -2808    -3682 
   -4711    -5495    -5807    -5663    -5269    -4896    -4557    -4136 
   -3711    -3326    -2984    -2879    -3106    -3487    -3915    -4519 
   -5254    -5690    -5532    -4930    -4274    -3956    -4209    -4936 
   -5682    -5761    -4765    -3076    -1632    -1167    -1705    -2647 
   -3592    -4710    -5876    -6359    -5833    -4932    -4495    -4696 
   -5063    -5011    -4380    -3596    -3125    -2910    -2708    -2513 
   -2394    -2531    -3310    -4656    -5665    -5730    -5432    -5405 
   -5290    -4714    -3978    -3225    -2370    -1818    -2069    -3048 
   -4307    -5402    -6185    -6654    -6754    -6632    -6270    -5192 
   -3358    -1652     -850     -812    -1156    -1861    -2832    -3800 
   -4604    -5194    -5571    -5778    -5772    -5464    -5007    -4650 
   -4349    -3927    -3388    -2952    -2937    -3391    -3929    -4341 
   -4939    -5872    -6787    -7344    -7284    -6497    -5282    -4045 
   -3110    -2724    -2741    -2964    -3516    -4152    -4193    -3489 
   -2498    -1726    -1674    -2583    -4045    -5248    -5621    -5159 
   -4263    -3460    -3123    -3190    -3385    -3697    -4347    -5490 
   -6875    -7800    -7726    -6741    -5386    -4101    -3013    -2249 
   -1786    -1235     -513       89      245     -592    -2681    -5377 
   -7677    -8900    -8829    -7481    -5215    -2952    -1645    -1509 
   -2153    -3231    -4428    -5282    -5560    -5401    -5093    -4835 
   -4560    -4158    -3707    -3319    -3033    -2867    -2967    -3549 
   -4403    -4884    -4695    -4220    -4091    -4598    -5366    -5653 
   -5103    -4001    -2882    -2332    -2835    -4024    -4854    -4949 
   -4777    -4629    -4390    -4040    -3851    -4012    -4233    -4128 
   -3663    -2948    -2320    -2316    -2852    -3292    -3384    -3292 
   -3327    -3919    -5093    -6241    -6826    -6822    -6444    -5836 
   -5148    -4564    -4037    -3477    -3001    -2781    -3052    -3827 
   -4514    -4595    -4329    -4168    -4044    -3732    -3325    -2917 
   -2520    -2471    -3137    -4305    -5439    -6303    -6870    -6859 
   -6002    -4793    -4125    -4085    -3997    -3512    -2771    -1902 
   -1252    -1433    -2592    -4271    -5841    -6727    -6735    -6228 
   -5597    -4770    -3680    -2825    -2853    -3686    -4433    -4471 
   -4106    -3786    -3588    -3600    -3916    -4392    -4814    -5028 
   -4928    -4657    -4612    -4792    -4665    -4017    -3196    -2662 
   -2616    -2952    -3615    -4473    -5007    -4893    -4166    -2781 
   -1124     -133     -202     -986    -2239    -3835    -5211    -5926 
   -6334    -6802    -7092    -6964    -6660    -6670    -7038    -7105 
   -6211    -4473    -2592    -1244     -811    -1260    -2184    -3065 
   -3605    -3842    -4029    -4313    -4465    -4183    -3600    -3148 
   -3145    -3578    -4125    -4592    -5036    -5367    -5489    -5506 
   -5552    -5755    -6011    -5929    -5341    -4507    -3793    -3262 
   -2731    -2338    -2470    -2945    -3261    -3464    -3900    -4490 
   -4849    -4700    -4004    -3145    -2772    -2856    -2745    -2450 
   -2594    -3342    -4342    -5364    -6327    -6894    -6617    -5688 
   -4935    -4799    -5090    -5570    -5877    -5498    -4228    -2382 
    -577      418       25    -1507    -3346    -4949    -6165    -6779 
   -6466    -5359    -4183    -3369    -2809    -2567    -2848    -3588 
   -4519    -5278    -5595    -5571    -5486    -5460    -5454    -5344 
   -4977    -4406    -3908    -3686    -3782    -4050    -4047    -3483 
   -2673    -2060    -1813    -2022    -2512    -2840    -3041    -3789 
   -5374    -6979    -7570    -7157    -6331    -5437    -4781    -4483 
   -4156    -3711    -3569    -3766    -3856    -3559    -3059    -2612 
   -2201    -2018    -2457    -3310    -4089    -4792    -5516    -6029 
   -6002    -5474    -4896    -4456    -4051    -3731    -3429    -3103 
   -3122    -3580    -4077    -4521    -5166    -5830    -5926    -5270 
   -4183    -3017    -2247    -2354    -3265    -4414    -5111    -4878 
   -3788    -2380    -1433    -1692    -3221    -5146    -6485    -6860 
   -6319    -5157    -3998    -3410    -3349    -3318    -3060    -2763 
   -2820    -3570    -4868    -6033    -6682    -6918    -6702    -5958 
   -4908    -3819    -2813    -1861    -1088     -930    -1544    -2555 
   -3481    -4112    -4631    -5135    -5285    -4966    -4517    -4220 
   -4332    -4818    -5140    -5108    -5055    -5007    -4711    -4234 
   -4068    -4550    -5140    -4989    -4245    -3626    -3210    -2747 
   -2378    -2452    -2992    -3532    -3709    -3713    -3869    -4394 
   -5310    -6289    -6939    -6995    -6351    -5343    -4405    -3500 
   -2578    -1942    -1849    -2201    -2705    -3229    -3784    -4222 
   -4388    -4320    -4155    -4090    -4077    -3704    -2902    -2304 
   -2551    -3763    -5530    -6986    -7376    -6762    -5773    -4884 
   -4301    -4051    -3929    -3721    -3388    -2937    -2477    -2193 
   -2290    -2845    -3483    -3844    -4239    -4919    -5437    -5289 
   -4608    -4000    -3786    -3750    -3777    -4097    -4725    -5355 
   -5737    -5613    -4907    -4051    -3411    -2928    -2705    -2934 
   -3403    -3817    -4031    -3709    -2763    -1926    -2034    -3132 
   -4706    -6269    -7407    -7827    -7574    -6880    -5868    -4662 
   -3586    -2871    -2367    -1917    -1692    -1961    -2658    -3484 
   -4348    -5196    -5676    -5609    -5175    -4580    -4131    -4147 
   -4533    -4853    -4776    -4309    -3666    -3171    -3159    -3680 
   -4353    -4712    -4731    -4780    -4924    -4799    -4311    -3720 
   -3087    -2431    -2031    -2212    -3123    -4612    -6083    -6805 
   -6517    -5607    -4692    -4027    -3470    -2986    -2652    -2367 
   -2120    -2166    -2544    -2955    -3330    -3793    -4155    -4275 
   -4441    -4806    -5142    -5293    -5278    -5161    -5065    -4997 
   -4777    -4336    -3846    -3595    -3723    -3937    -3948    -3866 
   -3773    -3581    -3307    -3121    -3186    -3503    -3962    -4545 
   -5260    -6027    -6681    -6978    -6833    -6420    -5840    -5028 
   -4051    -3214    -2751    -2470    -2204    -2277    -2884    -3551 
   -3690    -3294    -2848    -2710    -2921    -3468    -4190    -4684 
   -4761    -4614    -4568    -4895    -5452    -5761    -5583    -5046 
   -4468    -4149    -4118    -4205    -4220    -4180    -4305    -4546 
   -4637    -4490    -4071    -3469    -3063    -3025    -3176    -3396 
   -3616    -3584    -3065    -2327    -2147    -3111    -4851    -6343 
   -6937    -6613    -5598    -4433    -3770    -3673    -3717    -3721 
   -3770    -3873    -3977    -4001    -3823    -3481    -3171    -2945 
   -2736    -2759    -3276    -3993    -4452    -4747    -5119    -5455 
   -5544    -5337    -5000    -4849    -4999    -5094    -4753    -4093 
   -3524    -3208    -3041    -3076    -3484    -4136    -4718    -5098 
   -5123    -4596    -3736    -3067    -2926    -3418    -4334    -5058 
   -5043    -4419    -3908    -4045    -4679    -5447    -6170    -6524 
   -6255    -5549    -4591    -3319    -1879     -877     -843    -1574 
