Origin Time       2024/04/02 04:24:00
Lat.              40.133
Long.             141.712
Depth. (km)       71
Mag.              6.0
Station Code      IBR014
Station Lat.      36.0729
Station Long.     140.1948
Station Height(m) 18
Record Time       2024/04/02 04:26:27
Sampling Freq(Hz) 100Hz
Duration Time(s)  66
Dir.              E-W
Scale Factor      7845(gal)/8223790
Max. Acc. (gal)   4.019
Last Correction   2024/04/02 04:26:27
Memo.             
[...]
   -1698    -1795    -1630    -1339    -1171    -1111    -1059    -1038 
   -1124    -1344    -1545    -1566    -1498    -1428    -1267    -1040 
    -876     -850    -1011    -1282    -1483    -1598    -1713    -1761 
   -1672    -1543    -1499    -1547    -1630    -1769    -1953    -2039 
   -1942    -1755    -1632    -1641    -1759    -1914    -2019    -2015 
   -1845    -1512    -1197    -1100    -1243    -1476    -1605    -1568 
   -1480    -1377    -1224    -1136    -1189    -1296    -1374    -1386 
   -1345    -1285    -1186    -1097    -1081    -1109    -1163    -1202 
   -1189    -1166    -1186    -1271    -1360    -1366    -1355    -1429 
   -1468    -1310    -1075    -1054    -1301    -1567    -1652    -1663 
   -1786    -1912    -1863    -1706    -1572    -1470    -1393    -1378 
   -1444    -1533    -1513    -1362    -1243    -1236    -1270    -1333 
   -1418    -1474    -1491    -1474    -1455    -1505    -1579    -1572 
   -1525    -1459    -1324    -1181    -1102    -1115    -1250    -1412 
   -1472    -1455    -1405    -1352    -1318    -1278    -1263    -1360 
   -1525    -1649    -1672    -1534    -1325    -1239    -1216    -1183 
   -1277    -1432    -1507    -1545    -1502    -1402    -1370    -1340 
   -1355    -1517    -1632    -1634    -1711    -1787    -1722    -1622 
   -1520    -1382    -1343    -1412    -1451    -1476    -1503    -1440 
   -1291    -1169    -1158    -1212    -1194    -1148    -1200    -1273 
   -1306    -1412    -1567    -1648    -1660    -1602    -1444    -1325 
   -1305    -1300    -1359    -1528    -1668    -1679    -1647    -1652 
   -1637    -1551    -1379    -1190    -1131    -1144    -1105    -1143 
   -1347    -1580    -1759    -1841    -1827    -1765    -1594    -1354 
   -1275    -1414    -1622    -1738    -1749    -1799    -1853    -1738 
   -1557    -1460    -1385    -1313    -1321    -1410    -1499    -1516 
   -1507    -1532    -1486    -1340    -1233    -1200    -1225    -1345 
   -1453    -1422    -1370    -1421    -1513    -1570    -1490    -1246 
   -1065    -1031     -896     -660     -575     -680     -857     -997 
   -1028    -1007    -1040    -1166    -1405    -1701    -1903    -1942 
   -1887    -1829    -1750    -1579    -1397    -1327    -1312    -1345 
   -1526    -1787    -1941    -1923    -1788    -1561    -1363    -1371 
   -1502    -1610    -1714    -1745    -1674    -1621    -1572    -1491 
   -1436    -1387    -1316    -1260    -1279    -1383    -1486    -1503 
   -1447    -1327    -1151     -977     -820     -734     -845    -1139 
   -1480    -1741    -1825    -1773    -1667    -1495    -1325    -1296 
   -1395    -1593    -1873    -2118    -2208    -2080    -1729    -1306 
    -984     -816     -822     -973    -1174    -1371    -1539    -1621 
   -1620    -1563    -1449    -1324    -1236    -1163    -1112    -1117 
   -1140    -1175    -1248    -1275    -1266    -1318    -1350    -1317 
   -1352    -1463    -1561    -1641    -1718    -1813    -1964    -2100 
   -2085    -1927    -1744    -1624    -1621    -1748    -1965    -2137 
   -2091    -1921    -1803    -1657    -1440    -1250    -1075     -953 
    -984    -1121    -1312    -1570    -1798    -1906    -1930    -1864 
   -1723    -1610    -1547    -1549    -1597    -1533    -1386    -1301 
   -1240    -1194    -1221    -1235    -1197    -1159    -1086     -989 
    -926     -789     -562     -442     -484     -664     -973    -1248 
   -1416    -1579    -1678    -1655    -1580    -1444    -1282    -1193 
   -1117    -1090    -1221    -1363    -1398    -1458    -1578    -1668 
   -1705    -1645    -1505    -1431    -1451    -1439    -1372    -1313 
   -1314    -1432    -1578    -1594    -1514    -1456    -1425    -1470 
   -1615    -1686    -1642    -1587    -1463    -1321    -1329    -1416 
   -1459    -1459    -1404    -1335    -1270    -1148    -1071    -1131 
   -1189    -1185    -1219    -1313    -1418    -1424    -1285    -1192 
   -1209    -1185    -1177    -1313    -1483    -1564    -1560    -1503 
   -1437    -1397    -1377    -1333    -1239    -1147    -1200    -1397 
   -1543    -1598    -1699    -1837    -1917    -1856    -1645    -1486 
   -1478    -1528    -1682    -1927    -2093    -2141    -2091    -1948 
   -1773    -1603    -1443    -1332    -1329    -1474    -1671    -1744 
   -1692    -1591    -1426    -1246    -1125    -1120    -1297    -1543 
   -1659    -1669    -1696    -1671    -1487    -1314    -1378    -1517 
   -1480    -1335    -1217    -1159    -1127    -1055    -1017    -1143 
   -1360    -1470    -1422    -1412    -1543    -1588    -1412    -1217 
   -1158    -1196    -1228    -1247    -1310    -1359    -1337    -1344 
   -1433    -1540    -1503    -1262    -1039    -1008    -1067    -1152 
   -1297    -1498    -1713    -1822    -1792    -1768    -1757    -1678 
   -1571    -1467    -1393    -1377    -1382    -1460    -1626    -1745 
   -1746    -1606    -1289     -988     -943    -1062    -1144    -1240 
   -1447    -1668    -1737    -1630    -1501    -1420    -1321    -1262 
   -1371    -1601    -1807    -1885    -1846    -1750    -1556    -1314 
   -1212    -1205    -1227    -1416    -1688    -1883    -2070    -2153 
   -1983    -1676    -1343    -1092    -1074    -1209    -1367    -1572 
   -1749    -1738    -1570    -1378    -1201    -1108    -1175    -1324 
   -1456    -1448    -1165     -830     -769     -842     -838     -967 
   -1314    -1557    -1528    -1327    -1059     -850     -824    -1024 
   -1316    -1490    -1503    -1433    -1356    -1269    -1183    -1260 
   -1520    -1706    -1748    -1771    -1746    -1625    -1517    -1486 
   -1472    -1520    -1728    -1957    -1999    -1875    -1679    -1462 
   -1333    -1328    -1358    -1399    -1401    -1316    -1270    -1291 
   -1283    -1278    -1305    -1383    -1543    -1628    -1509    -1314 
   -1132     -958     -896    -1044    -1358    -1647    -1763    -1768 
   -1713    -1502    -1215    -1108    -1215    -1298    -1281    -1239 
   -1154    -1071    -1109    -1221    -1324    -1456    -1659    -1769 
   -1625    -1452    -1468    -1533    -1597    -1679    -1692    -1688 
   -1667    -1583    -1587    -1690    -1783    -1831    -1769    -1660 
   -1559    -1382    -1209    -1161    -1196    -1304    -1432    -1485 
   -1543    -1645    -1702    -1730    -1763    -1761    -1667    -1414 
   -1138    -1055    -1081    -1088    -1120    -1094    -1017    -1028 
   -1071    -1147    -1356    -1634    -1834    -1875    -1798    -1691 
   -1571    -1525    -1624    -1759    -1802    -1695    -1509    -1347 
   -1221    -1175    -1212    -1240    -1286    -1417    -1524    -1536 
   -1552    -1524    -1398    -1366    -1413    -1381    -1336    -1290 
   -1224    -1244    -1302    -1335    -1379    -1381    -1309    -1205 
   -1123    -1179    -1350    -1516    -1659    -1683    -1514    -1310 
   -1152    -1026    -1011    -1100    -1275    -1601    -1883    -1911 
   -1759    -1543    -1387    -1308    -1127     -945    -1042    -1323 
   -1548    -1680    -1706    -1613    -1520    -1463    -1348    -1251 
   -1306    -1479    -1663    -1768    -1807    -1848    -1841    -1772 
   -1728    -1668    -1544    -1422    -1370    -1399    -1468    -1547 
   -1633    -1686    -1657    -1522    -1318    -1189    -1201    -1286 
   -1394    -1525    -1663    -1767    -1788    -1759    -1722    -1618 
   -1521    -1521    -1432    -1279    -1300    -1354    -1354    -1413 
   -1397    -1293    -1275    -1227    -1093    -1042    -1044    -1081 
   -1228    -1367    -1383    -1297    -1150    -1089    -1161    -1237 
   -1306    -1382    -1433    -1475    -1447    -1297    -1096     -886 
    -756     -743     -781     -943    -1198    -1416    -1711    -1921 
   -1771    -1570    -1509    -1371    -1221    -1182    -1215    -1386 
   -1605    -1699    -1745    -1745    -1588    -1375    -1254    -1224 
   -1302    -1520    -1726    -1742    -1586    -1321     -997     -831 
    -984    -1275    -1506    -1671    -1713    -1579    -1421    -1354 
   -1321    -1282    -1301    -1401    -1475    -1436    -1368    -1432 
   -1647    -1790    -1732    -1725    -1869    -1795    -1447    -1289 
   -1424    -1610    -1858    -2126    -2203    -2091    -1863    -1530 
   -1258    -1197    -1216    -1158    -1202    -1435    -1499    -1278 
   -1158    -1291    -1440    -1489    -1534    -1659    -1837    -1950 
   -1887    -1695    -1501    -1336    -1251    -1344    -1555    -1703 
   -1732    -1706    -1695    -1738    -1765    -1669    -1520    -1371 
   -1135     -859     -773     -980    -1313    -1601    -1860    -2052 
   -2020    -1799    -1512    -1225    -1039     -904     -745     -722 
    -878    -1092    -1259    -1224    -1085    -1073    -1024     -892 
   -1001    -1364    -1709    -1895    -1965    -2033    -2053    -1926 
   -1711    -1478    -1298    -1263    -1264    -1208    -1201    -1293 
   -1435    -1545    -1490    -1333    -1235    -1161    -1066     -976 
    -922     -962    -1119    -1390    -1745    -2004    -2016    -1783 
   -1375     -951     -722     -719     -801     -985    -1305    -1552 
   -1583    -1559    -1591    -1622    -1740    -2043    -2296    -2311 
   -2215    -1984    -1479     -909     -607     -625     -895    -1399 
   -1904    -2097    -1998    -1755    -1476    -1291    -1140     -938 
    -804     -796     -926    -1254    -1675    -2070    -2500    -2880 
   -2909    -2570    -2178    -1830    -1474    -1194    -1027     -976 
   -1063    -1224    -1393    -1451    -1328    -1200    -1185    -1242 
   -1389    -1541    -1540    -1516    -1580    -1601    -1537    -1340 
    -927     -545     -471     -727    -1318    -1961    -2039    -1509 
    -935     -529     -136       81     -162     -787    -1526    -2127 
   -2411    -2415    -2330    -2184    -1922    -1745    -1876    -2141 
   -2151    -1760    -1174     -614      -86      183     -113     -766 
   -1466    -2064    -2251    -2012    -1634    -1202     -961    -1158 
   -1555    -1961    -2339    -2432    -2068    -1300     -341      376 
     530       75     -873    -1965    -2724    -2868    -2469    -1849 
   -1210     -641     -419     -630     -980    -1323    -1632    -1825 
   -1875    -1796    -1738    -1850    -2015    -2146    -2162    -1767 
   -1105     -778     -912    -1212    -1532    -1844    -2088    -2189 
   -2097    -1934    -1813    -1555    -1200    -1143    -1395    -1564 
   -1472    -1225    -1027    -1053    -1225    -1393    -1696    -2209 
   -2613    -2635    -2301    -1692     -928     -375     -257     -419 
    -683     -869     -916    -1147    -1656    -2050    -2120    -2019 
   -1826    -1472     -976     -414       63      245      132      -99 
    -386     -826    -1474    -2084    -2425    -2589    -2583    -2319 
   -1846    -1242     -757     -614     -641     -843    -1356    -1800 
   -1788    -1462    -1274    -1539    -2023    -2425    -2816    -3100 
   -3042    -2658    -2015    -1270     -828     -942    -1383    -1696 
   -1594    -1152     -711     -550     -749    -1258    -1879    -2282 
   -2214    -1659     -796       -1      284     -168    -1344    -2762 
   -3511    -3364    -2980    -2640    -2128    -1471     -742      -33 
     394      476      328       -4     -557    -1294    -1881    -2093 
   -2169    -2212    -2161    -2230    -2474    -2558    -2192    -1441 
    -741     -399     -395     -808    -1568    -2231    -2650    -2852 
   -2598    -1956    -1314     -796     -518     -548     -643     -747 
    -899     -891     -751     -793    -1107    -1649    -2450    -3419 
   -4136    -4108    -3238    -1794     -228      895     1294     1020 
     116    -1163    -2350    -3180    -3381    -2770    -1721     -669 
      64      257      172     -112     -931    -2058    -2972    -3526 
   -3559    -2956    -2035    -1128     -409       -9      106     -124 
    -793    -1657    -2420    -2843    -2749    -2421    -2274    -2197 
   -1755     -872       18      600      693      -32    -1321    -2330 
   -2589    -2080    -1129     -386     -126     -318    -1050    -1964 
   -2529    -2717    -2382    -1467     -557       56      427      395 
       5     -589    -1386    -2169    -2689    -2929    -2957    -2830 
   -2450    -1723     -777      217      981     1132      580     -464 
   -1674    -2651    -3186    -3431    -3611    -3559    -2975    -1993 
    -916       22      425      191     -402    -1283    -2234    -2894 
   -3159    -2899    -2230    -1459     -638      -68      -75     -488 
   -1196    -1941    -2224    -2238    -2281    -2069    -1647    -1476 
   -1613    -1809    -1879    -1764    -1597    -1512    -1520    -1564 
   -1552    -1412    -1044     -599     -565     -927    -1128    -1078 
   -1109    -1428    -1977    -2417    -2546    -2370    -1800     -853 
     251     1009      891      171     -587    -1459    -2390    -2951 
   -3010    -2620    -2034    -1512     -909     -411     -334     -341 
    -310     -549    -1044    -1679    -2249    -2378    -2088    -1719 
   -1375    -1055     -950    -1275    -1926    -2394    -2358    -2137 
   -1912    -1310     -394       66     -325    -1135    -1988    -2956 
   -3804    -4008    -3476    -2544    -1710    -1290    -1077     -870 
    -799     -868     -891     -754     -670     -958    -1336    -1452 
   -1528    -1630    -1564    -1339     -935     -487     -376     -688 
   -1382    -2374    -3194    -3453    -3126    -2258    -1063       45 
     631      364     -708    -1960    -2488    -1917     -638      849 
    2184     2785     2091      249    -2006    -3962    -5112    -5521 
   -5475    -4595    -2803    -1028      184      832      737       32 
   -1019    -2350    -3341    -3514    -3338    -2932    -1956     -672 
     434      934      498     -567    -1615    -2257    -2407    -2216 
   -1833    -1267     -646     -383     -687    -1269    -2033    -3059 
   -3727    -3476    -2837    -2319    -1629     -518      919     2193 
    2590     1942      480    -1644    -3861    -5294    -5549    -4603 
   -2698     -596     1088     2110     2012      741     -927    -2335 
   -3141    -3099    -2469    -1705     -972     -349      -36     -263 
    -940    -1723    -2455    -3026    -3333    -3446    -3402    -3138 
   -2624    -1794     -745      112      503      418     -225    -1189 
   -1925    -2396    -2648    -2443    -1952    -1482    -1032     -661 
    -545     -743    -1229    -2016    -2852    -3033    -2367    -1389 
    -392      410      679      604      449      -10     -954    -2284 
   -3461    -3713    -3017    -1869     -650      105      139     -310 
   -1101    -1944    -2432    -2700    -2968    -3030    -2577    -1607 
    -546      259      766      824      341     -658    -2124    -3519 
   -4348    -4712    -4375    -3055    -1437     -182      594      665 
     168     -365     -855    -1486    -2103    -2378    -2328    -2143 
   -1850    -1683    -1925    -2230    -2139    -1899    -1899    -1931 
   -1543     -793     -209       90      382      529      261     -353 
   -1097    -1671    -1988    -2261    -2223    -1440     -526     -329 
    -753    -1460    -2223    -2803    -3292    -3730    -3919    -3846 
   -3419    -2516    -1470     -765     -490     -430     -558     -935 
   -1379    -1768    -2138    -2388    -2336    -1844    -1007     -275 
      52        9     -413    -1129    -1873    -2409    -2513    -2101 
   -1426     -909     -805     -911     -924     -940     -972     -822 
    -602     -360       22      283      233       70     -376    -1418 
   -2679    -3457    -3501    -2953    -1993     -881        6      341 
     -66    -1120    -2285    -2929    -2821    -2164    -1395     -878 
    -685     -750     -927    -1146    -1398    -1520    -1516    -1564 
   -1575    -1652    -2176    -3032    -3767    -4079    -3704    -2548 
    -891      751     1745     1687      719     -710    -2038    -2826 
   -3103    -3009    -2405    -1435     -664     -329     -190     -182 
    -467     -865    -1086    -1333    -1864    -2431    -2725    -2774 
   -2646    -2266    -1783    -1370     -726      270     1059     1179 
     642     -253    -1213    -2142    -2822    -2943    -2701    -2612 
   -2759    -2795    -2486    -1868    -1123     -402      189      318 
    -206     -959    -1614    -2317    -2951    -3165    -2903    -2191 
   -1119     -121      452      645      498     -180    -1421    -2790 
   -3731    -3843    -3080    -1960     -984     -302      -45     -103 
    -245     -556     -853     -877     -953    -1216    -1391    -1533 
   -1923    -2600    -3407    -4075    -4082    -3015    -1185      606 
    1606     1463      488     -749    -1918    -2717    -2975    -2870 
   -2538    -2111    -1935    -2104    -2365    -2370    -1858    -1136 
    -801     -742     -581     -550     -931    -1667    -2594    -3285 
   -3311    -2767    -2041    -1421    -1021     -783     -712     -845 
   -1011    -1255    -1817    -2467    -2829    -2843    -2447    -1769 
   -1086     -297      661     1417     1634     1179      167    -1007 
   -2193    -3410    -4140    -3873    -3059    -2339    -1605     -635 
     329      957     1026      564     -136     -982    -1952    -2735 
   -3190    -3407    -3327    -2866    -1979     -753      345      842 
     683       41     -857    -1799    -2631    -3061    -2965    -2681 
   -2370    -1933    -1617    -1552    -1347     -896     -475     -140 
     -13     -349    -1055    -1984    -3045    -3844    -4047    -3628 
   -2697    -1544     -449      463      990      927      275     -747 
   -1732    -2326    -2542    -2548    -2447    -2304    -2068    -1779 
   -1661    -1690    -1626    -1386    -1042     -803     -843     -981 
    -985     -989    -1074    -1074     -932     -807     -930    -1367 
   -1826    -2070    -2100    -1819    -1337    -1026     -928     -951 
   -1140    -1341    -1355    -1200     -977     -772     -594     -507 
    -710    -1075    -1372    -1653    -1910    -2064    -2157    -2281 
   -2459    -2616    -2833    -3069    -2866    -2088    -1104     -209 
     352      382      -49     -783    -1633    -2251    -2389    -2097 
   -1509     -851     -469     -460     -729    -1247    -1903    -2516 
   -2938    -2879    -2160    -1150     -322      232      461      241 
    -436    -1456    -2338    -2558    -2241    -1723    -1040     -338 
      98      286      275     -145     -957    -1783    -2338    -2501 
   -2326    -2015    -1721    -1579    -1641    -1807    -1977    -2096 
   -2203    -2328    -2350    -2192    -1825    -1271     -750     -415 
    -311     -453     -648     -828    -1134    -1393    -1321    -1007 
    -702     -680    -1155    -1915    -2566    -2971    -3063    -2812 
   -2398    -2042    -1838    -1761    -1737    -1709    -1536    -1097 
    -626     -587    -1100    -1741    -2107    -2196    -2120    -1899 
   -1520     -984     -457     -149      -36      -99     -494    -1098 
   -1513    -1657    -1659    -1499    -1198     -864     -649     -773 
   -1136    -1350    -1328    -1285    -1325    -1336    -1285    -1426 
   -1933    -2574    -2937    -2845    -2494    -2162    -1930    -1707 
   -1418    -1124     -967    -1019    -1198    -1445    -1765    -2033 
   -2079    -1915    -1602    -1175     -876    -1073    -1768    -2533 
   -2914    -2767    -2498    -2497    -2524    -2292    -1865    -1298 
