Origin Time       2024/04/02 04:24:00
Lat.              40.133
Long.             141.712
Depth. (km)       71
Mag.              6.0
Station Code      IBR002
Station Lat.      36.7126
Station Long.     140.7073
Station Height(m) 9
Record Time       2024/04/02 04:26:11
Sampling Freq(Hz) 100Hz
Duration Time(s)  60
Dir.              U-D
Scale Factor      7845(gal)/8223790
Max. Acc. (gal)   1.367
Last Correction   2024/04/02 04:26:10
Memo.             
[...]
    5815     5706     5644     5636     5510     5468     5640     5765 
    5802     5899     6004     6025     6010     6026     5975     5775 
    5513     5346     5397     5620     5859     5983     5953     5840 
    5698     5575     5552     5535     5524     5691     5868     5902 
    5967     6049     6068     6070     5949     5713     5594     5629 
    5757     5937     6043     6058     6045     5967     5829     5722 
    5683     5652     5599     5606     5695     5809     5954     6046 
    5958     5811     5748     5752     5796     5844     5834     5856 
    5952     5921     5756     5690     5722     5765     5848     5875 
    5854     5973     6048     5940     5859     5711     5485     5472 
    5525     5439     5447     5586     5652     5691     5788     5760 
    5572     5499     5545     5525     5530     5632     5711     5771 
    5872     5922     5876     5787     5656     5553     5555     5599 
    5718     5917     5967     5853     5814     5827     5826     5864 
    5798     5611     5497     5445     5409     5428     5491     5591 
    5722     5857     5925     5841     5687     5576     5497     5501 
    5594     5680     5794     5931     6007     6034     5991     5875 
    5740     5580     5476     5493     5584     5709     5784     5840 
    5930     5930     5761     5567     5557     5715     5888     6021 
    6066     6026     5987     5967     5915     5846     5761     5605 
    5501     5583     5668     5679     5724     5730     5713     5803 
    5915     5922     5807     5622     5513     5503     5454     5377 
    5387     5485     5643     5794     5794     5640     5536     5555 
    5594     5691     5822     5906     6007     6066     6033     6025 
    6008     5942     5919     5976     6084     6138     6038     5907 
    5873     5773     5574     5466     5439     5491     5692     5891 
    5964     5945     5908     5868     5817     5859     5957     5975 
    5957     5933     5895     5871     5786     5582     5336     5242 
    5418     5645     5629     5459     5337     5312     5468     5713 
    5756     5664     5641     5621     5541     5505     5589     5678 
    5634     5590     5645     5663     5622     5602     5580     5629 
    5782     5876     5942     6011     5956     5913     5899     5786 
    5768     5869     5948     6151     6367     6270     6079     5999 
    5829     5699     5745     5721     5702     5764     5695     5645 
    5749     5834     5879     5849     5718     5657     5670     5607 
    5566     5609     5603     5614     5699     5691     5593     5553 
    5605     5652     5651     5641     5659     5695     5670     5595 
    5529     5428     5427     5586     5674     5740     5900     5964 
    5910     5842     5724     5652     5667     5636     5632     5672 
    5597     5545     5606     5589     5609     5729     5751     5840 
    6073     6162     6095     5991     5926     5930     5850     5737 
    5745     5767     5805     5853     5760     5656     5730     5894 
    5949     5787     5607     5568     5512     5440     5440     5464 
    5586     5867     6127     6187     6120     6000     5805     5674 
    5703     5767     5734     5699     5818     5944     5930     5952 
    6002     5879     5688     5648     5680     5688     5736     5746 
    5684     5705     5798     5832     5876     5977     6008     5949 
    5853     5732     5637     5649     5683     5626     5624     5684 
    5603     5508     5560     5576     5524     5598     5742     5769 
    5778     5846     5776     5591     5539     5557     5541     5557 
    5553     5499     5441     5395     5482     5679     5779     5799 
    5857     5895     5887     5902     5886     5827     5872     5991 
    6053     6135     6234     6146     5925     5778     5738     5741 
    5653     5532     5560     5624     5640     5709     5783     5803 
    5786     5706     5609     5551     5547     5607     5630     5633 
    5788     5985     6089     6141     6062     5902     5800     5721 
    5656     5625     5607     5641     5692     5697     5644     5616 
    5675     5694     5607     5522     5476     5501     5590     5714 
    5929     6116     6118     6080     6000     5741     5560     5621 
    5665     5617     5626     5717     5795     5809     5826     5852 
    5772     5617     5525     5559     5653     5715     5760     5798 
    5823     5817     5759     5661     5493     5362     5362     5347 
    5336     5418     5495     5570     5702     5854     5967     5996 
    5987     5942     5865     5869     5942     6003     6023     5965 
    5854     5779     5769     5780     5821     5888     5921     5949 
    5941     5873     5864     5852     5745     5660     5645     5690 
    5810     5892     5891     5894     5884     5856     5864     5861 
    5776     5647     5541     5481     5489     5579     5722     5833 
    5832     5772     5675     5548     5528     5610     5692     5775 
    5841     5861     5763     5562     5487     5605     5755     5864 
    5919     5892     5844     5805     5741     5734     5724     5566 
    5466     5493     5494     5634     5857     5888     5900     5988 
    6015     6087     6174     6095     5962     5890     5803     5730 
    5643     5483     5420     5503     5512     5443     5459     5540 
    5655     5729     5656     5552     5505     5508     5629     5769 
    5830     5868     5867     5856     5853     5778     5701     5676 
    5586     5435     5398     5518     5679     5886     6115     6164 
    6056     5953     5861     5832     5859     5892     6003     6075 
    6008     5930     5809     5688     5694     5656     5566     5568 
    5626     5738     5849     5914     6003     6030     5968     5867 
    5671     5552     5609     5684     5771     5809     5780     5868 
    5902     5686     5482     5381     5274     5205     5211     5385 
    5636     5675     5610     5602     5524     5427     5466     5576 
    5680     5795     5906     5965     5919     5798     5738     5691 
    5514     5401     5522     5634     5630     5691     5815     5979 
    6139     6156     6160     6241     6127     5871     5779     5787 
    5806     5927     6042     6060     6091     6037     5877     5796 
    5752     5742     5759     5676     5601     5562     5578     5741 
    5759     5547     5483     5559     5553     5521     5479     5474 
    5617     5664     5533     5530     5516     5378     5404     5405 
    5179     5077     5255     5540     5760     5880     6025     6156 
    6142     6021     5786     5516     5421     5467     5564     5718 
    5865     6019     6118     6039     5946     5971     6058     6066 
    5863     5629     5586     5653     5775     5938     6006     5934 
    5765     5590     5562     5601     5540     5499     5508     5464 
    5436     5440     5513     5697     5813     5821     5829     5857 
    5904     5929     5925     5958     6049     6060     5980     5971 
    5863     5649     5636     5698     5713     5834     5998     6081 
    6038     5857     5629     5445     5455     5672     5887     6061 
    6161     6160     6157     6027     5779     5629     5521     5518 
    5736     5940     6085     6208     6176     6080     5977     5853 
    5857     5906     5767     5483     5232     5125     5159     5267 
    5437     5676     5930     5972     5630     5221     5150     5279 
    5387     5532     5730     5860     5875     5880     5894     5769 
    5559     5512     5678     5849     5888     5861     5795     5692 
    5710     5829     5879     5925     5910     5709     5487     5331 
    5239     5304     5536     5865     6201     6459     6496     6201 
    5802     5595     5611     5729     5833     5964     6087     6054 
    5934     5748     5449     5283     5436     5787     6178     6444 
    6390     6079     5756     5599     5636     5732     5850     5964 
    5923     5859     5850     5676     5436     5339     5308     5329 
    5406     5475     5514     5454     5431     5657     5902     6030 
    6158     6091     5946     6041     5948     5614     5625     5721 
    5579     5613     5818     5864     5868     5925     5903     5834 
    5802     5788     5825     5902     5938     5830     5570     5413 
    5497     5652     5784     5776     5516     5177     5027     5158 
    5410     5605     5819     6042     6022     5837     5763     5725 
    5580     5594     5908     6093     5991     5953     5949     5710 
    5444     5444     5653     5944     6164     6161     5944     5599 
    5385     5448     5603     5857     6286     6637     6678     6354 
    5803     5339     5132     5189     5502     5946     6347     6531 
    6262     5703     5364     5314     5381     5584     5815     5913 
    5832     5499     5076     4870     4961     5366     5926     6276 
    6397     6353     6041     5626     5356     5321     5475     5671 
    5852     5899     5719     5557     5533     5454     5444     5740 
    6085     6228     6192     5953     5583     5256     5146     5313 
    5549     5736     5892     5900     5799     5841     5980     5962 
    5815     5782     5861     5894     5871     5833     5737     5636 
    5732     5984     6135     6173     6143     5984     5796     5638 
    5427     5211     5057     4926     4892     5054     5320     5574 
    5784     5899     6012     6177     6089     5799     5755     5842 
    5742     5552     5454     5549     5780     5967     6072     6135 
    6207     6237     6149     6019     5881     5680     5474     5373 
    5363     5394     5514     5702     5927     6183     6376     6455 
    6401     6246     5948     5478     5151     5185     5368     5472 
    5513     5640     5840     6002     6052     5945     5718     5478 
    5294     5113     5034     5279     5679     5946     6034     5921 
    5687     5456     5302     5332     5485     5780     6301     6643 
    6431     5838     5127     4598     4521     4855     5464     6010 
    6273     6583     6716     6196     5768     5883     5803     5632 
    5949     6372     6628     6677     6208     5607     5354     5142 
    4973     5109     5424     5917     6566     6993     6952     6552 
    5999     5414     5049     5190     5613     5787     5661     5575 
    5575     5587     5729     5891     5903     5915     5975     5829 
    5413     5067     5003     5100     5475     6139     6617     6679 
    6438     5934     5292     4810     4677     4752     4942     5397 
    6056     6600     6848     6779     6358     5715     5262     5277 
    5607     5989     6241     6214     6164     6421     6640     6539 
    6438     6334     5961     5524     5216     4959     4849     4974 
    5300     5663     5802     5819     5790     5485     5165     5243 
    5495     5622     5676     5671     5556     5452     5391     5251 
    5208     5439     5688     5811     5840     5795     5830     5890 
    5903     5979     5859     5521     5371     5231     4958     5001 
    5327     5510     5664     5849     5786     5641     5567     5439 
    5553     5911     6034     6061     6197     6021     5526     5308 
    5319     5238     5557     6380     6937     7103     6939     6196 
    5370     5026     5028     5213     5400     5545     5877     6193 
    6277     6228     5915     5490     5293     5200     5220     5339 
    5321     5418     5626     5517     5455     5660     5818     6114 
    6288     5972     5948     6326     6331     6139     6019     5782 
    5597     5599     5737     6038     6334     6480     6505     6307 
    6016     5908     5752     5460     5324     5398     5665     5902 
    5767     5437     5273     5371     5621     5825     5919     5919 
    5949     6016     5856     5501     5244     5317     5722     6084 
    6378     6662     6559     6085     5563     5244     5324     5568 
    5594     5373     5205     5273     5458     5694     5810     5691 
    5634     5744     5837     5792     5555     5290     5070     4904 
    5034     5429     5899     6394     6721     6655     6184     5576 
    5302     5452     5641     5764     5950     5996     5779     5632 
    5676     5711     5806     6007     5999     5880     5942     5837 
    5478     5352     5421     5443     5590     5895     6195     6489 
    6666     6548     6172     5625     5193     5177     5348     5544 
    5892     6178     6195     6088     5995     5927     5849     5827 
    5871     5861     5888     5981     5925     5672     5498     5544 
    5674     5948     6160     5736     5013     4627     4619     5053 
    5595     5827     6011     6157     5998     5757     5651     5580 
    5636     5926     6087     5915     5852     5996     5952     5746 
    5652     5713     5887     6022     5980     5841     5709     5624 
    5594     5435     5227     5410     5914     6231     6147     5999 
    6011     5734     5260     5262     5616     6003     6338     6281 
    5879     5503     5159     4954     4972     4850     4716     5128 
    5913     6461     6462     6014     5570     5439     5509     5584 
    5498     5208     5003     5076     5258     5444     5645     5860 
    6073     6156     6058     5926     5865     5728     5452     5481 
    5949     6411     6679     6747     6583     6318     5999     5690 
    5543     5427     5244     5198     5282     5412     5657     5980 
    6311     6505     6496     6617     6982     7175     7029     6700 
    6187     5576     5186     5036     4857     4807     5158     5656 
    6027     6162     6041     5900     5806     5698     5763     5861 
    5578     5028     4671     4718     5097     5514     5633     5472 
    5383     5363     5097     4950     5314     5613     5557     5494 
    5513     5684     6022     6346     6621     6826     6847     6639 
    6316     6119     6188     6273     6092     5884     5815     5640 
    5409     5418     5566     5543     5402     5366     5487     5710 
    5838     5790     5671     5460     5312     5459     5587     5576 
    5794     5854     5485     5358     5377     5263     5517     5821 
    5741     5611     5333     5047     5274     5611     5737     5890 
    5829     5549     5590     5938     6295     6609     6735     6381 
    5597     4905     4657     4698     4919     5387     5981     6516 
    6839     6825     6554     6160     5722     5339     5166     5331 
    5728     6196     6534     6482     6188     5958     5921     6114 
    6318     6296     6243     6330     6103     5332     4675     4558 
    4850     5522     6299     6642     6446     5960     5393     4822 
    4384     4453     5238     6196     6592     6566     6461     6064 
    5579     5471     5613     5717     5799     5957     6031     6010 
    6088     5922     5310     4855     4827     5003     5294     5509 
    5552     5625     5682     5560     5463     5628     5863     5829 
    5543     5304     5192     5031     4927     5111     5475     5859 
    6147     6224     6076     5674     5227     5131     5296     5428 
    5524     5638     5818     6033     6138     6228     6447     6520 
    6273     6058     6111     6277     6493     6571     6184     5682 
    5556     5584     5630     5880     6185     6376     6511     6594 
    6574     6373     5975     5532     5193     5000     5028     5408 
    5971     6292     6282     6192     5975     5545     5275     5418 
    5848     6254     6220     5746     5212     4926     5088     5487 
    5768     5868     5698     5425     5468     5728     5753     5420 
    5090     5163     5567     5968     6085     5950     5857     5825 
    5665     5425     5308     5537     5980     6150     6041     5926 
    5697     5521     5776     6085     6000     5730     5486     5190 
    4949     4955     5119     5206     5275     5625     6075     6031 
    5580     5304     5366     5628     5906     5968     5787     5636 
    5684     5813     5927     6015     6083     6222     6336     6284 
    6138     5806     5428     5494     5837     6068     6300     6515 
    6527     6227     5697     5371     5443     5703     6018     6183 
    5984     5653     5422     5223     5273     5706     6122     6242 
    6143     5961     5713     5475     5362     5329     5382     5467 
    5606     5887     5921     5624     5452     5394     5340     5458 
    5582     5572     5718     6026     6282     6539     6619     6357 
    6084     5830     5516     5374     5296     5209     5270     5390 
    5632     6073     6330     6237     6126     6012     5825     5846 
    6027     6146     6269     6330     6180     5829     5503     5485 
    5682     5908     6102     6111     6022     6068     6066     5818 
    5528     5290     4982     4769     4877     5259     5736     5996 
    5973     6015     6137     6129     5961     5564     5073     4862 
    5027     5286     5556     5937     6127     6043     5971     5737 
    5321     5061     4990     5200     5660     5795     5503     5243 
    5023     4818     4976     5495     6034     6327     6313     6142 
    5998     5941     5827     5620     5486     5436     5462     5482 
    5358     5418     5864     6295     6547     6646     6349     5728 
    5140     4777     4861     5394     5918     6099     5991     5719 
    5362     5155     5294     5629     5998     6313     6307     6022 
    5864     5764     5636     5776     5895     5702     5632     5778 
    5954     6080     5919     5688     5796     6034     6197     6349 
    6342     6126     5965     5946     5908     5892     5989     5979 
    5846     5751     5493     5219     5219     5258     5364     5718 
    6046     6250     6423     6394     6185     5977     5761     5706 
    5838     5861     5840     5890     5890     5810     5687     5683 
    5827     5984     6172     6138     5832     5560     5200     4834 
    4719     4738     5001     5491     5744     5651     5489     5278 
    5043     5105     5302     5298     5340     5478     5547     5695 
    5946     6200     6443     6636     6693     6543     6274     6049 
    5890     5788     5806     5809     5638     5486     5463     5587 
    5887     6095     6220     6440     6525     6538     6596     6401 
    5964     5656     5630     5782     5979     6111     6058     5880 
    5633     5306     5215     5464     5630     5624     5575     5383 
    5178     5242     5553     5962     6424     6764     6608     5979 
    5319     5015     5147     5391     5630     5856     5721     5443 
    5481     5559     5501     5478     5464     5451     5494     5591 
    5656     5610     5586     5610     5466     5246     5186     5146 
    5159     5421     5699     5956     6303     6381     6138     5899 
    5769     5872     6147     6230     6038     5794     5526     5251 
    5206     5333     5408     5537     5748     5705     5377     5157 
    5101     5177     5547     5833     5732     5652     5686     5630 
    5605     5557     5377     5290     5236     5058     5032     5182 
    5324     5607     6010     6214     6154     6049     5980     5937 
    6062     6228     6149     5954     5868     5881     5942     6030 
    6080     6037     6014     6211     6658     7071     7048     6558 
