Origin Time       2024/04/02 04:24:00
Lat.              40.133
Long.             141.712
Depth. (km)       71
Mag.              6.0
Station Code      IBR011
Station Lat.      36.1256
Station Long.     140.0901
Station Height(m) 27
Record Time       2024/04/02 04:26:28
Sampling Freq(Hz) 100Hz
Duration Time(s)  82
Dir.              N-S
Scale Factor      7845(gal)/8223790
Max. Acc. (gal)   2.305
Last Correction   2024/04/02 04:26:28
Memo.             
[...]
   -5532    -5409    -5347    -5370    -5390    -5416    -5478    -5495 
   -5412    -5323    -5327    -5435    -5593    -5695    -5721    -5698 
   -5624    -5589    -5675    -5796    -5834    -5760    -5657    -5653 
   -5730    -5780    -5765    -5718    -5688    -5705    -5687    -5599 
   -5634    -5854    -6008    -6015    -6006    -5965    -5840    -5698 
   -5598    -5522    -5451    -5367    -5304    -5286    -5248    -5204 
   -5236    -5292    -5325    -5344    -5313    -5277    -5298    -5356 
   -5420    -5447    -5413    -5414    -5540    -5707    -5788    -5771 
   -5626    -5336    -5084    -5040    -5171    -5348    -5439    -5418 
   -5337    -5229    -5217    -5377    -5539    -5626    -5752    -5790 
   -5579    -5308    -5109    -4959    -4953    -5130    -5366    -5517 
   -5474    -5327    -5236    -5223    -5327    -5530    -5637    -5572 
   -5458    -5337    -5213    -5119    -5101    -5208    -5385    -5552 
   -5703    -5810    -5846    -5840    -5814    -5767    -5680    -5609 
   -5618    -5663    -5688    -5699    -5691    -5651    -5626    -5690 
   -5822    -5922    -5927    -5860    -5794    -5767    -5786    -5849 
   -5884    -5838    -5794    -5776    -5734    -5732    -5819    -5876 
   -5809    -5644    -5432    -5279    -5279    -5402    -5562    -5694 
   -5757    -5767    -5746    -5707    -5718    -5818    -5917    -5979 
   -6049    -6004    -5776    -5570    -5503    -5487    -5459    -5456 
   -5524    -5609    -5579    -5451    -5344    -5293    -5294    -5336 
   -5400    -5466    -5490    -5468    -5433    -5402    -5404    -5452 
   -5518    -5543    -5487    -5355    -5231    -5201    -5236    -5255 
   -5179    -5061    -5113    -5310    -5468    -5548    -5497    -5343 
   -5242    -5223    -5254    -5352    -5516    -5686    -5788    -5838 
   -5921    -6000    -5996    -5957    -5938    -5933    -5949    -5962 
   -5917    -5845    -5780    -5701    -5626    -5605    -5621    -5556 
   -5375    -5277    -5341    -5425    -5416    -5341    -5309    -5328 
   -5359    -5385    -5364    -5356    -5420    -5470    -5497    -5533 
   -5562    -5580    -5545    -5451    -5428    -5478    -5435    -5350 
   -5420    -5587    -5638    -5597    -5620    -5663    -5624    -5629 
   -5764    -5894    -5872    -5697    -5485    -5337    -5238    -5162 
   -5148    -5238    -5385    -5485    -5536    -5578    -5570    -5498 
   -5405    -5360    -5402    -5462    -5463    -5394    -5327    -5393 
   -5575    -5683    -5676    -5667    -5640    -5590    -5603    -5601 
   -5474    -5286    -5107    -4977    -4955    -5053    -5231    -5400 
   -5517    -5625    -5665    -5590    -5490    -5416    -5405    -5495 
   -5564    -5551    -5537    -5472    -5316    -5196    -5178    -5269 
   -5458    -5606    -5657    -5702    -5734    -5660    -5494    -5381 
   -5383    -5459    -5580    -5709    -5825    -5948    -6012    -5923 
   -5752    -5686    -5755    -5818    -5873    -5981    -6038    -5994 
   -5931    -5873    -5840    -5875    -5962    -6019    -5988    -5891 
   -5756    -5652    -5682    -5784    -5821    -5794    -5767    -5748 
   -5718    -5707    -5691    -5648    -5674    -5694    -5545    -5321 
   -5190    -5154    -5179    -5271    -5363    -5394    -5433    -5498 
   -5476    -5332    -5162    -5103    -5175    -5256    -5262    -5185 
   -5059    -4986    -4996    -4982    -4984    -5116    -5337    -5540 
   -5638    -5621    -5553    -5409    -5174    -4943    -4762    -4731 
   -4976    -5332    -5571    -5668    -5686    -5678    -5628    -5557 
   -5603    -5765    -5923    -6022    -6025    -5918    -5846    -5891 
   -5913    -5919    -5977    -5989    -5973    -5979    -5942    -5875 
   -5817    -5764    -5676    -5537    -5452    -5491    -5570    -5601 
   -5609    -5591    -5491    -5379    -5375    -5463    -5616    -5764 
   -5763    -5648    -5564    -5495    -5432    -5447    -5491    -5513 
   -5548    -5603    -5675    -5734    -5769    -5787    -5663    -5400 
   -5247    -5247    -5300    -5389    -5428    -5371    -5308    -5327 
   -5417    -5555    -5726    -5810    -5742    -5610    -5466    -5348 
   -5293    -5313    -5420    -5513    -5535    -5583    -5621    -5553 
   -5452    -5414    -5441    -5526    -5633    -5667    -5601    -5497 
   -5425    -5379    -5296    -5232    -5256    -5323    -5424    -5508 
   -5518    -5536    -5557    -5483    -5350    -5246    -5177    -5125 
   -5116    -5196    -5331    -5433    -5448    -5371    -5250    -5224 
   -5424    -5748    -6002    -6120    -6107    -5971    -5748    -5489 
   -5329    -5413    -5695    -5923    -5910    -5702    -5449    -5246 
   -5035    -4887    -5054    -5408    -5605    -5614    -5524    -5439 
   -5471    -5591    -5753    -5895    -5888    -5726    -5455    -5130 
   -4924    -4922    -5026    -5212    -5420    -5505    -5420    -5243 
   -5158    -5327    -5697    -6012    -6077    -5931    -5643    -5282 
   -5108    -5258    -5544    -5779    -5873    -5830    -5773    -5711 
   -5545    -5283    -5032    -4941    -5030    -5146    -5250    -5377 
   -5474    -5563    -5703    -5841    -5903    -5917    -5954    -6010 
   -6048    -6019    -5841    -5549    -5294    -5128    -5061    -5206 
   -5522    -5795    -5984    -6097    -6122    -6116    -6018    -5753 
   -5431    -5186    -5093    -5130    -5289    -5610    -5950    -6085 
   -6050    -5969    -5800    -5548    -5373    -5336    -5359    -5386 
   -5306    -5070    -4814    -4676    -4730    -5023    -5503    -5948 
   -6064    -5841    -5530    -5269    -5148    -5243    -5390    -5501 
   -5648    -5699    -5591    -5478    -5378    -5332    -5470    -5672 
   -5761    -5772    -5738    -5597    -5408    -5292    -5269    -5398 
   -5680    -5925    -6073    -6224    -6307    -6107    -5679    -5359 
   -5247    -5240    -5348    -5543    -5715    -5819    -5829    -5798 
   -5814    -5807    -5710    -5661    -5745    -5852    -5988    -6197 
   -6370    -6477    -6475    -6264    -5910    -5605    -5529    -5678 
   -5806    -5711    -5335    -4818    -4492    -4540    -4915    -5437 
   -5860    -6050    -5950    -5597    -5220    -5092    -5239    -5495 
   -5721    -5845    -5881    -5864    -5821    -5854    -5941    -5962 
   -5967    -5973    -5962    -5941    -5748    -5344    -4927    -4626 
   -4557    -4827    -5358    -6019    -6571    -6651    -6195    -5512 
   -5030    -5022    -5283    -5485    -5537    -5265    -4749    -4565 
   -4849    -5254    -5610    -5745    -5501    -5089    -4791    -4661 
   -4774    -5242    -5815    -6066    -5953    -5632    -5197    -4862 
   -4889    -5320    -5915    -6312    -6218    -5695    -5124    -4780 
   -4722    -4928    -5306    -5610    -5607    -5547    -5837    -6254 
   -6366    -6184    -5906    -5659    -5486    -5339    -5346    -5784 
   -6443    -6729    -6561    -6284    -5930    -5367    -4808    -4673 
   -4977    -5329    -5525    -5568    -5410    -5023    -4595    -4549 
   -5088    -5898    -6450    -6359    -5695    -4878    -4187    -3790 
   -3910    -4538    -5413    -6174    -6399    -5979    -5294    -4681 
   -4237    -4051    -4156    -4565    -5275    -6048    -6450    -6238 
   -5568    -4870    -4585    -4835    -5405    -6039    -6463    -6417 
   -5841    -4864    -3943    -3669    -4121    -4951    -5852    -6515 
   -6694    -6378    -5645    -4819    -4541    -5036    -5872    -6621 
   -7009    -6835    -6208    -5406    -4780    -4689    -5125    -5810 
   -6413    -6646    -6524    -6183    -5687    -5260    -5092    -5242 
   -5675    -6189    -6615    -6820    -6716    -6334    -5709    -5088 
   -4885    -5066    -5296    -5472    -5499    -5271    -5023    -4930 
   -4872    -4961    -5432    -6065    -6404    -6286    -5844    -5412 
   -5293    -5347    -5427    -5648    -5852    -5883    -5863    -5822 
   -5892    -6107    -6170    -6112    -6151    -6147    -6079    -6189 
   -6457    -6498    -6091    -5466    -4938    -4630    -4639    -4954 
   -5449    -5938    -6089    -5830    -5648    -5926    -6420    -6709 
   -6670    -6397    -6030    -5667    -5294    -5012    -5011    -5202 
   -5398    -5405    -4997    -4484    -4441    -4841    -5292    -5494 
   -5455    -5433    -5417    -5235    -5070    -5254    -5771    -6255 
   -6400    -6193    -5848    -5618    -5549    -5529    -5578    -5664 
   -5557    -5150    -4645    -4437    -4768    -5378    -5765    -5746 
   -5533    -5414    -5491    -5652    -5737    -5694    -5449    -4930 
   -4438    -4492    -5063    -5670    -6123    -6484    -6673    -6596 
   -6304    -5964    -5763    -5771    -5929    -5981    -5713    -5428 
   -5510    -5732    -5746    -5575    -5347    -5171    -5100    -5058 
   -4992    -4945    -4972    -5120    -5389    -5686    -5834    -5752 
   -5768    -6137    -6477    -6512    -6421    -6237    -5861    -5421 
   -5150    -5112    -5216    -5387    -5424    -5227    -5136    -5290 
   -5319    -5140    -5085    -5202    -5378    -5553    -5563    -5429 
   -5394    -5420    -5283    -4880    -4270    -3825    -3936    -4444 
   -4905    -5225    -5541    -5863    -6054    -6143    -6365    -6531 
   -6197    -5502    -4795    -4180    -3956    -4436    -5382    -6205 
   -6486    -6108    -5316    -4676    -4538    -4818    -5383    -6048 
   -6412    -6257    -5768    -5217    -4804    -4649    -4688    -4849 
   -5093    -5277    -5329    -5328    -5198    -4820    -4338    -4024 
   -4087    -4668    -5641    -6644    -7334    -7387    -6760    -5876 
   -5174    -4904    -5143    -5638    -5942    -5772    -5170    -4472 
   -4070    -4195    -4947    -6060    -6916    -7199    -6934    -6201 
   -5393    -5084    -5356    -5744    -5922    -6033    -6214    -6313 
   -6210    -5931    -5601    -5402    -5387    -5425    -5494    -5686 
   -5984    -6280    -6436    -6405    -6339    -6264    -6108    -6050 
   -6187    -6342    -6265    -5869    -5429    -5225    -5155    -5170 
   -5435    -5863    -6154    -6138    -5842    -5563    -5603    -5829 
   -5975    -6050    -6091    -5848    -5170    -4563    -4600    -5030 
   -5440    -5813    -6022    -6022    -6000    -5998    -6061    -6270 
   -6385    -6031    -5254    -4671    -4752    -5235    -5628    -5664 
   -5328    -4951    -4811    -4684    -4456    -4438    -4774    -5290 
   -5740    -5992    -6223    -6523    -6500    -5906    -5100    -4553 
   -4396    -4522    -4812    -5169    -5476    -5610    -5497    -5254 
   -5050    -4958    -5086    -5503    -5973    -6050    -5568    -4892 
   -4483    -4538    -5135    -6133    -7102    -7561    -7150    -6031 
   -4942    -4309    -4114    -4631    -5856    -6968    -7322    -6867 
   -5850    -4792    -4140    -4005    -4353    -4899    -5269    -5448 
   -5551    -5664    -5865    -6043    -6177    -6361    -6324    -5915 
   -5563    -5552    -5688    -5752    -5691    -5586    -5499    -5478 
   -5594    -5807    -6045    -6185    -5895    -5112    -4280    -3867 
   -4199    -5240    -6355    -6914    -6814    -6396    -6079    -5926 
   -5834    -5892    -6077    -6214    -6127    -5741    -5348    -5242 
   -5309    -5463    -5784    -6222    -6670    -7002    -6855    -6037 
   -5035    -4405    -4203    -4360    -4847    -5462    -5823    -5603 
   -4864    -4112    -3804    -4008    -4523    -5107    -5626    -5958 
   -5934    -5626    -5232    -4869    -4754    -5055    -5583    -6060 
   -6313    -6161    -5578    -4957    -4752    -4966    -5305    -5591 
   -5771    -5722    -5422    -5077    -4866    -4882    -5202    -5738 
   -6296    -6674    -6592    -6039    -5479    -5242    -5286    -5537 
   -5904    -6281    -6500    -6347    -5945    -5634    -5595    -5837 
   -6129    -6204    -6057    -5684    -5146    -4781    -4862    -5271 
   -5707    -5953    -5913    -5537    -4897    -4290    -4045    -4201 
   -4608    -5228    -5879    -6112    -5768    -5135    -4518    -4267 
   -4733    -5656    -6350    -6457    -6023    -5263    -4545    -4274 
   -4588    -5333    -6273    -7021    -7103    -6502    -5709    -5157 
   -5069    -5387    -5724    -5815    -5703    -5440    -5182    -5130 
   -5196    -5155    -4912    -4599    -4572    -4989    -5597    -6072 
   -6169    -5822    -5292    -4922    -4904    -5256    -5857    -6493 
   -6941    -7072    -6828    -6146    -5147    -4252    -3847    -3974 
   -4517    -5350    -6210    -6666    -6389    -5652    -5112    -5011 
   -5296    -5881    -6382    -6489    -6224    -5553    -4657    -4079 
   -4071    -4375    -4649    -4855    -5119    -5336    -5378    -5409 
   -5660    -6218    -6943    -7542    -7863    -7847    -7419    -6683 
   -5908    -5410    -5335    -5553    -5817    -5821    -5474    -4997 
   -4494    -4032    -3901    -4226    -4768    -5285    -5722    -6072 
   -6254    -6178    -5886    -5520    -5293    -5474    -6052    -6654 
   -6914    -6762    -6295    -5665    -5206    -5170    -5448    -5800 
   -6015    -6014    -5892    -5679    -5275    -4743    -4369    -4396 
   -4841    -5548    -6332    -7098    -7662    -7703    -7163    -6291 
   -5417    -4941    -5061    -5567    -6124    -6432    -6265    -5676 
   -5008    -4627    -4666    -4993    -5427    -5827    -6015    -5842 
   -5397    -4936    -4649    -4625    -4849    -5217    -5590    -5771 
   -5637    -5206    -4567    -3904    -3526    -3694    -4356    -5175 
   -5891    -6381    -6600    -6590    -6353    -6010    -5894    -6050 
   -6228    -6358    -6408    -6311    -6166    -6060    -5995    -6004 
   -6038    -5914    -5462    -4692    -3838    -3211    -3119    -3624 
   -4414    -5104    -5518    -5670    -5605    -5404    -5247    -5200 
   -5143    -5023    -4851    -4675    -4581    -4598    -4756    -5155 
   -5732    -6201    -6345    -6166    -5871    -5724    -5800    -6030 
   -6336    -6547    -6362    -5717    -5015    -4758    -5063    -5715 
   -6496    -7121    -7195    -6559    -5545    -4799    -4768    -5314 
   -5985    -6401    -6373    -5933    -5235    -4564    -4360    -4878 
   -5923    -6920    -7288    -6948    -6313    -5698    -5239    -5158 
   -5555    -6134    -6396    -6158    -5691    -5216    -4846    -4769 
   -4988    -5285    -5483    -5539    -5466    -5312    -5173    -5131 
   -5167    -5165    -5103    -5107    -5263    -5535    -5857    -6088 
   -6053    -5737    -5275    -4826    -4472    -4260    -4282    -4459 
   -4630    -4815    -4966    -5082    -5359    -5713    -5940    -5996 
   -5795    -5501    -5375    -5309    -5285    -5404    -5495    -5491 
   -5532    -5652    -5807    -5929    -5946    -5865    -5773    -5683 
   -5525    -5355    -5387    -5753    -6326    -6786    -6858    -6466 
   -5728    -4884    -4263    -4120    -4398    -4814    -5258    -5764 
   -6211    -6525    -6752    -6767    -6484    -6050    -5653    -5452 
   -5470    -5486    -5347    -5159    -5096    -5259    -5648    -6092 
   -6324    -6268    -6014    -5611    -5159    -4855    -4837    -5101 
   -5398    -5400    -5144    -4887    -4762    -4884    -5312    -5864 
   -6200    -6084    -5513    -4789    -4418    -4599    -5100    -5638 
   -5975    -5900    -5437    -4978    -4943    -5327    -5821    -6138 
   -6138    -5930    -5745    -5647    -5540    -5464    -5506    -5454 
   -5117    -4708    -4488    -4596    -5063    -5637    -6027    -6208 
   -6277    -6269    -6243    -6343    -6567    -6717    -6663    -6351 
   -5737    -4982    -4467    -4472    -4992    -5773    -6446    -6664 
   -6297    -5575    -4911    -4502    -4352    -4513    -4969    -5468 
   -5761    -5902    -6096    -6296    -6327    -6214    -6041    -5871 
   -5729    -5483    -5162    -5030    -5097    -5185    -5208    -5097 
   -4943    -4959    -5138    -5340    -5549    -5809    -6038    -6079 
   -5917    -5732    -5756    -6039    -6376    -6639    -6789    -6751 
   -6598    -6365    -5991    -5609    -5377    -5277    -5254    -5266 
   -5233    -5084    -4884    -4779    -4811    -4954    -5215    -5549 
   -5818    -5944    -5956    -5861    -5692    -5497    -5200    -4756 
   -4414    -4513    -5001    -5522    -5911    -6162    -6222    -6178 
   -6124    -5975    -5795    -5794    -5911    -5969    -5946    -5891 
   -5829    -5746    -5551    -5211    -4914    -4834    -4942    -5144 
   -5329    -5378    -5269    -4990    -4607    -4286    -4144    -4247 
   -4603    -5108    -5594    -5941    -6189    -6362    -6404    -6292 
   -5998    -5590    -5300    -5225    -5270    -5289    -5189    -4984 
   -4723    -4469    -4388    -4606    -5043    -5532    -5899    -6010 
   -5841    -5406    -4787    -4283    -4207    -4630    -5444    -6388 
   -7028    -7079    -6681    -6145    -5734    -5676    -5919    -6164 
   -6286    -6300    -6110    -5710    -5320    -5152    -5175    -5285 
   -5528    -5869    -6087    -6053    -5783    -5354    -4931    -4664 
   -4630    -4927    -5549    -6288    -6889    -7165    -7113    -6933 
   -6766    -6571    -6388    -6301    -6269    -6210    -5989    -5468 
   -4816    -4351    -4136    -4126    -4314    -4594    -4827    -4893 
   -4714    -4414    -4241    -4267    -4390    -4577    -4889    -5277 
   -5548    -5590    -5525    -5502    -5514    -5528    -5485    -5316 
   -5135    -5080    -5188    -5495    -5868    -6062    -6018    -5814 
   -5625    -5560    -5494    -5314    -5140    -5050    -4978    -5020 
   -5343    -5910    -6578    -7111    -7236    -6874    -6095    -5117 
   -4356    -4094    -4328    -4812    -5204    -5370    -5340    -5169 
   -5096    -5414    -6075    -6709    -7025    -6925    -6462    -5886 
   -5478    -5390    -5688    -6211    -6544    -6426    -5991    -5563 
   -5385    -5478    -5692    -5864    -5907    -5842    -5775    -5822 
   -6037    -6423    -6964    -7499    -7784    -7778    -7593    -7327 
   -7055    -6790    -6598    -6562    -6498    -6130    -5497    -4876 
   -4488    -4406    -4587    -4936    -5344    -5698    -5819    -5637 
   -5355    -5071    -4784    -4665    -4735    -4834    -4885    -4806 
   -4648    -4602    -4612    -4534    -4465    -4525    -4668    -4826 
   -4926    -4958    -5008    -5058    -5008    -4814    -4533    -4403 
   -4531    -4773    -5078    -5401    -5513    -5352    -5100    -4959 
   -5027    -5267    -5537    -5675    -5678    -5606    -5393    -5070 
   -4835    -4797    -4985    -5325    -5628    -5728    -5628    -5470 
   -5347    -5212    -5078    -5085    -5224    -5247    -4982    -4552 
   -4193    -4009    -4014    -4186    -4452    -4808    -5266    -5630 
   -5724    -5618    -5468    -5437    -5591    -5811    -6029    -6219 
   -6253    -6129    -6034    -6016    -5994    -5965    -5995    -6102 
   -6185    -6129    -5996    -5853    -5668    -5485    -5429    -5636 
   -6088    -6520    -6745    -6824    -6795    -6621    -6397    -6299 
   -6342    -6478    -6741    -7013    -7025    -6793    -6609    -6586 
   -6612    -6727    -7026    -7399    -7628    -7553    -7168    -6689 
   -6300    -5989    -5713    -5505    -5398    -5332    -5258    -5239 
   -5279    -5229    -5035    -4880    -4905    -5062    -5306    -5606 
   -5740    -5593    -5375    -5231    -5167    -5254    -5406    -5402 
   -5242    -5066    -4892    -4706    -4599    -4561    -4415    -4162 
   -3974    -3939    -4097    -4374    -4561    -4635    -4665    -4665 
   -4684    -4779    -4945    -5084    -5113    -5109    -5151    -5240 
