Origin Time       2024/04/02 04:24:00
Lat.              40.133
Long.             141.712
Depth. (km)       71
Mag.              6.0
Station Code      IBR011
Station Lat.      36.1256
Station Long.     140.0901
Station Height(m) 27
Record Time       2024/04/02 04:26:28
Sampling Freq(Hz) 100Hz
Duration Time(s)  82
Dir.              U-D
Scale Factor      7845(gal)/8223790
Max. Acc. (gal)   1.069
Last Correction   2024/04/02 04:26:28
Memo.             
[...]
   29538    29421    29006    28744    28750    29000    29319    29359 
   29182    28911    28636    28551    28420    28223    28359    28586 
   28475    28250    28366    28860    29226    29219    29189    29242 
   29255    29249    29177    29081    28977    28822    28726    28668 
   28698    28888    28969    28869    28825    28942    29138    29200 
   29065    28903    28910    28945    28642    28467    28953    29349 
   29097    28788    28899    29255    29436    29282    28983    28746 
   28767    28935    28811    28575    28741    29007    29057    29085 
   29003    28810    28769    28750    28597    28486    28524    28464 
   28128    27927    28175    28518    28699    28815    28918    29006 
   28979    28819    28725    28705    28719    28836    28865    28744 
   28702    28663    28512    28524    28711    28771    28780    28908 
   28964    28768    28367    27999    27986    28348    28821    29192 
   29338    29250    29060    28887    28726    28628    28833    29300 
   29454    29043    28559    28436    28661    29008    29353    29640 
   29658    29359    29020    28818    28680    28502    28432    28617 
   28817    28876    28937    28976    28971    29053    28975    28556 
   28302    28493    28732    28760    28696    28660    28584    28468 
   28524    28679    28609    28506    28641    28668    28491    28582 
   28860    28848    28679    28543    28354    28316    28448    28445 
   28339    28256    28223    28309    28486    28657    28713    28706 
   28838    29077    29286    29397    29197    28599    28197    28529 
   29079    29342    29597    29821    29511    28692    28181    28282 
   28426    28597    28935    28919    28551    28294    28213    28363 
   28738    29084    29197    29073    28992    29064    29057    28989 
   29029    29133    29103    28929    28904    29037    28966    28800 
   28881    28975    28822    28688    28787    29035    29285    29392 
   29339    29062    28568    28356    28618    28767    28570    28487 
   28873    29479    29713    29442    29107    28949    28867    28881 
   29160    29477    29413    29146    29042    29034    28927    28717 
   28663    28898    29212    29297    29097    28902    28732    28420 
   28228    28387    28651    28711    28675    28837    29160    29359 
   29376    29285    29000    28502    28169    28213    28297    28328 
   28543    28714    28655    28705    29046    29334    29182    28825 
   28775    28794    28486    28296    28521    28750    28734    28591 
   28479    28530    28695    28771    28746    28679    28551    28512 
   28580    28556    28641    29134    29714    29803    29369    28937 
   28776    28761    28911    29080    28877    28418    28119    28150 
   28482    28904    29170    29097    28755    28462    28328    28513 
   29151    29758    29930    29797    29377    28773    28372    28336 
   28587    28869    28849    28648    28505    28333    28240    28460 
   28895    29212    29146    28799    28483    28398    28721    29290 
   29463    29111    28783    28688    28777    29064    29270    29243 
   29141    28960    28737    28701    28922    29111    28915    28422 
   28054    27978    28193    28807    29439    29447    29022    28688 
   28603    28761    28938    28867    28638    28458    28317    28235 
   28274    28302    28362    28617    28929    29115    29101    28863 
   28483    28108    27966    28173    28421    28483    28528    28598 
   28680    28875    29008    28927    28848    28841    28740    28663 
   28869    29212    29343    29324    29330    29073    28598    28497 
   28602    28601    28867    29331    29610    29681    29473    29110 
   29015    29158    29143    28914    28560    28146    28013    28237 
   28499    28624    28555    28499    28686    28989    29343    29640 
   29679    29421    28811    28181    28169    28588    28881    29007 
   29074    29114    28969    28553    28318    28472    28588    28490 
   28429    28460    28379    28229    28283    28620    29083    29434 
   29566    29528    29228    28771    28657    28894    28937    28750 
   28775    29041    29141    28938    28736    28703    28721    28887 
   29305    29654    29637    29296    28931    28815    28775    28642 
   28656    28918    29119    29052    28919    28918    28934    28771 
   28509    28405    28385    28325    28483    28917    29165    29084 
   29104    29289    29359    29388    29447    29413    29292    29070 
   28718    28540    28615    28502    28335    28472    28591    28615 
   28759    28741    28451    28287    28416    28587    28688    28837 
   29010    29050    28941    28734    28530    28413    28345    28341 
   28391    28498    28756    28911    28738    28426    28140    28100 
   28405    28726    28891    28948    28939    28960    28919    28723 
   28522    28480    28680    29054    29365    29484    29432    29180 
   28757    28462    28483    28597    28637    28676    28749    28825 
   28856    28903    28934    28695    28355    28431    28884    29289 
   29432    29316    29080    28786    28471    28345    28401    28539 
   28792    29000    29006    28952    28995    29087    29077    28991 
   29033    29197    29195    28987    28765    28553    28424    28424 
   28381    28377    28597    28796    28732    28660    28800    28962 
   28972    28811    28536    28398    28548    28830    29124    29407 
   29461    29235    29065    29033    28923    28854    29003    29231 
   29334    29241    29123    29072    28966    28903    28853    28582 
   28451    28802    29089    28991    28881    28876    28759    28537 
   28482    28671    28846    28875    28813    28605    28274    28132 
   28351    28638    28841    29147    29431    29392    29157    28995 
   28962    29029    29022    28848    28771    28830    28687    28367 
   28196    28146    28101    28352    28981    29417    29365    29259 
   29259    29007    28656    28734    29089    29231    29205    29241 
   29231    29112    28927    28676    28563    28647    28632    28478 
   28480    28782    29052    29084    29104    28942    28490    28310 
   28517    28710    28842    28996    29097    29025    28750    28448 
   28212    28046    28135    28491    28810    28779    28358    28016 
   28077    28227    28359    28610    28798    28845    28942    29060 
   28968    28668    28393    28250    28309    28637    28988    29008 
   28796    28669    28475    28128    28115    28476    28773    28952 
   29104    29242    29361    29274    28971    28696    28541    28582 
   28750    28722    28607    28715    28869    28848    28875    29110 
   29209    28992    28759    28665    28678    28790    28983    29259 
   29498    29465    29223    29087    29081    29053    28995    28939 
   28906    28892    28906    29066    29290    29319    29349    29633 
   29776    29490    29154    29095    29104    28979    28927    29076 
   29274    29378    29214    28911    28840    28852    28737    28688 
   28655    28595    28852    29212    29095    28768    28711    28688 
   28576    28629    28806    28826    28649    28563    28660    28628 
   28507    28544    28618    28752    28968    28979    28860    28790 
   28587    28374    28506    28842    28991    28899    28771    28706 
   28610    28448    28282    28131    28089    28173    28232    28198 
   28112    28093    28186    28305    28467    28737    29026    29139 
   28992    28640    28235    28115    28417    28732    28819    28883 
   28896    28799    28792    28873    28931    28912    28837    28923 
   29000    28786    28695    28876    28917    28879    28993    29137 
   29223    29228    29056    28861    28873    28899    28752    28651 
   28721    28803    28821    28809    28829    28985    29123    29047 
   28923    28919    28954    28904    28838    28841    28840    28822 
   28756    28668    28759    28927    28956    28980    29034    28971 
   28881    28821    28621    28417    28537    28763    28707    28503 
   28409    28510    28786    29073    29185    29069    28852    28699 
   28726    28956    29249    29439    29444    29367    29436    29521 
   29343    29076    28887    28710    28669    28777    28844    28881 
   29000    29099    29045    29011    29158    29219    29034    28876 
   28880    28918    28962    29079    29204    29205    29100    28985 
   28833    28714    28837    29077    29150    29111    29035    28861 
   28723    28722    28694    28578    28520    28470    28293    28136 
   28090    27997    27920    28098    28410    28675    28954    29096 
   29004    28894    28819    28752    28664    28540    28475    28441 
   28451    28530    28564    28615    28638    28482    28289    28177 
   28264    28561    28757    28806    28841    28787    28695    28703 
   28729    28711    28698    28615    28490    28440    28436    28491 
   28671    28872    28980    28995    28980    29061    29161    29047 
   28841    28728    28634    28652    28929    29235    29309    29327 
   29466    29481    29227    28921    28696    28557    28516    28615 
   28864    29065    29101    29057    28965    28857    28780    28752 
   28885    29188    29397    29366    29247    29181    29139    29110 
   29027    28875    28852    28876    28733    28661    28830    28968 
   29014    29093    29065    28921    28826    28726    28610    28563 
   28593    28695    28803    28833    28784    28776    28960    29272 
   29436    29338    29126    28930    28787    28738    28765    28772 
   28657    28444    28316    28362    28460    28595    28822    28935 
   28804    28682    28733    28860    28976    29073    29084    28917 
   28653    28529    28588    28647    28644    28644    28651    28679 
   28738    28798    28826    28829    28807    28709    28656    28811 
   28973    29019    29087    29069    28938    28911    28944    28945 
   29006    29111    29177    29114    28858    28653    28665    28659 
   28653    28826    29007    29091    29027    28745    28491    28497 
   28683    28960    29191    29238    29139    28941    28710    28553 
   28441    28340    28232    28151    28210    28316    28252    28084 
   28032    28100    28135    28152    28224    28236    28173    28232 
   28356    28356    28306    28250    28231    28397    28591    28626 
   28667    28782    28837    28775    28707    28773    28892    28968 
   29093    29247    29363    29430    29328    29061    28760    28479 
   28417    28688    28999    29172    29268    29216    29011    28875 
   28964    29224    29479    29505    29269    29041    28966    28915 
   28858    28821    28729    28665    28760    28939    29131    29285 
   29350    29389    29430    29384    29218    29088    29139    29205 
   29203    29277    29470    29695    29691    29313    28865    28649 
   28713    28915    29006    28957    28937    28964    28914    28854 
   28981    29087    28941    28821    28915    29015    28953    28834 
   28858    29012    29178    29309    29355    29359    29366    29319 
   29201    28983    28734    28625    28676    28814    28875    28790 
   28669    28571    28530    28520    28432    28308    28277    28309 
   28304    28281    28337    28525    28745    28815    28746    28657 
   28571    28533    28594    28641    28537    28344    28221    28165 
   28081    27957    27796    27700    27756    27855    27951    28038 
   28038    28055    28212    28383    28514    28676    28836    28915 
   28888    28833    28826    28819    28779    28814    28993    29170 
   29181    29092    29066    29093    29042    28906    28776    28732 
   28767    28753    28628    28536    28598    28777    28981    29118 
   29165    29181    29241    29320    29322    29289    29324    29262 
   29058    28956    28977    29008    29050    29050    28992    28938 
   28939    29002    28962    28730    28553    28674    28979    29169 
   29182    29174    29170    29157    29128    29025    28903    28939 
   29096    29135    29057    28988    28918    28979    29177    29250 
   29246    29296    29238    29020    28786    28663    28707    28865 
   29020    29038    28926    28831    28725    28613    28566    28536 
   28617    28790    28792    28633    28529    28516    28540    28620 
   28669    28553    28404    28401    28429    28439    28520    28521 
   28359    28277    28310    28313    28366    28475    28537    28603 
   28691    28667    28555    28576    28779    29006    29205    29331 
   29222    28996    28910    28894    28771    28613    28545    28499 
   28466    28517    28544    28576    28684    28679    28598    28687 
   28884    29042    29154    29180    29076    28907    28791    28811 
   28964    29145    29231    29154    28961    28865    28933    28950 
   28880    28825    28732    28641    28680    28755    28767    28813 
   28877    28880    28912    28981    29027    29123    29195    29126 
   29008    28896    28752    28597    28485    28489    28607    28745 
   28841    28942    29093    29161    29050    29039    29300    29488 
   29435    29370    29293    29083    28898    28900    28965    28945 
   28935    28965    28912    28784    28687    28690    28819    29041 
   29250    29332    29258    29119    28984    28831    28741    28837 
   29056    29219    29232    29211    29231    29124    28917    28769 
   28618    28474    28412    28279    27966    27719    27724    27746 
   27693    27797    28023    28202    28358    28466    28487    28507 
   28543    28510    28497    28626    28694    28540    28363    28320 
   28350    28358    28313    28298    28372    28490    28537    28529 
   28632    28811    28900    28965    29080    29118    29026    29007 
   29165    29324    29396    29423    29382    29316    29292    29239 
   29134    29053    28960    28861    28929    29089    29130    29073 
   28964    28863    28849    28896    28958    28925    28792    28730 
   28752    28738    28660    28620    28686    28753    28790    28902 
   29023    28945    28721    28647    28794    28961    28991    28900 
   28803    28752    28753    28803    28806    28740    28767    28914 
   29050    29173    29238    29192    29216    29362    29484    29567 
   29555    29401    29293    29258    29157    29084    29096    29047 
   29014    29134    29197    29066    28980    29023    29015    28914 
   28779    28722    28856    29079    29230    29297    29309    29250 
   29151    29085    29010    28894    28745    28566    28466    28436 
   28329    28196    28159    28215    28269    28308    28345    28298 
   28275    28420    28544    28556    28556    28505    28416    28445 
   28586    28711    28772    28694    28444    28173    28001    27957 
   28034    28182    28348    28437    28455    28518    28560    28543 
   28567    28587    28559    28574    28618    28582    28536    28563 
   28487    28278    28216    28360    28514    28611    28629    28518 
   28449    28568    28740    28883    28981    28958    28883    28873 
   28926    28926    28838    28814    28819    28737    28730    28814 
   28811    28746    28795    28961    29056    29066    29122    29185 
   29220    29270    29322    29330    29331    29362    29365    29397 
   29404    29157    28845    28738    28719    28750    28818    28823 
   28864    29010    29157    29250    29253    29187    29178    29228 
   29262    29299    29313    29322    29419    29546    29612    29594 
   29452    29273    29137    28960    28827    28867    28972    29062 
   29118    29108    29043    28919    28783    28765    28871    28949 
   28984    29126    29295    29245    29053    28969    28984    29026 
   29066    28953    28667    28412    28266    28175    28143    28193 
   28277    28316    28290    28204    28100    28142    28362    28544 
   28618    28715    28799    28756    28664    28607    28571    28586 
   28628    28642    28641    28582    28458    28378    28386    28431 
   28471    28464    28431    28440    28513    28606    28676    28719 
   28730    28726    28810    28976    29029    28911    28814    28821 
   28844    28858    28900    28946    28971    28939    28840    28776 
   28796    28813    28756    28665    28625    28598    28571    28613 
   28722    28908    29060    29026    28964    28977    28973    28981 
   28987    28922    28858    28876    28953    29034    29069    29033 
   28933    28830    28722    28602    28578    28676    28771    28776 
   28740    28729    28695    28630    28691    28892    28991    28899 
   28815    28767    28613    28471    28444    28490    28633    28802 
   28875    28880    28892    28929    28987    29046    29031    28935 
   28840    28760    28692    28691    28803    28935    28999    29041 
   29030    28934    28860    28867    28908    28933    28927    28941 
   28975    28960    28892    28845    28867    28992    29123    29130 
   29097    29073    28988    28880    28809    28784    28796    28837 
   28934    29030    29027    28954    28865    28795    28799    28822 
   28858    29068    29328    29355    29282    29261    29160    29016 
   28958    28937    28863    28765    28729    28711    28603    28513 
   28547    28622    28672    28696    28760    28863    28841    28709 
   28634    28598    28499    28381    28391    28572    28760    28903 
   29058    29042    28788    28517    28362    28372    28476    28526 
   28606    28709    28655    28506    28420    28374    28343    28404 
   28516    28529    28466    28453    28459    28362    28198    28142 
   28260    28451    28621    28734    28736    28633    28499    28408 
   28393    28444    28574    28711    28715    28633    28606    28617 
   28636    28748    28968    29128    29188    29246    29251    29222 
   29255    29270    29259    29327    29400    29377    29265    29131 
   29070    29084    29085    29037    28996    28989    28971    28976 
   29068    29165    29188    29208    29268    29280    29246    29212 
   29128    29072    29180    29331    29335    29241    29180    29142 
   29049    28929    28903    28998    29120    29189    29187    29146 
   29101    29022    28929    28899    28912    28919    28949    28983 
   28991    29000    28971    28883    28811    28833    28948    29060 
   29106    29100    29073    29057    29066    29073    29023    28964 
   28927    28800    28591    28479    28514    28568    28548    28536 
   28576    28557    28501    28518    28524    28436    28379    28406 
   28425    28405    28327    28254    28324    28418    28347    28248 
   28266    28247    28128    28101    28174    28205    28247    28302 
   28255    28148    28081    28027    27966    27981    28084    28183 
   28278    28362    28387    28387    28435    28529    28601    28672 
   28783    28842    28846    28880    28885    28848    28849    28860 
   28884    28980    29073    29106    29161    29251    29274    29261 
   29320    29366    29322    29296    29313    29270    29203    29182 
   29135    29037    28987    29002    29004    29012    29054    29039 
   28958    28917    28952    28996    29002    29023    29022    28903 
   28807    28829    28833    28776    28725    28698    28719    28800 
   28848    28787    28699    28651    28613    28645    28779    28871 
