Origin Time       2024/04/02 04:24:00
Lat.              40.133
Long.             141.712
Depth. (km)       71
Mag.              6.0
Station Code      IBR004
Station Lat.      36.5516
Station Long.     140.4102
Station Height(m) 57
Record Time       2024/04/02 04:26:15
Sampling Freq(Hz) 100Hz
Duration Time(s)  73
Dir.              N-S
Scale Factor      7845(gal)/8223790
Max. Acc. (gal)   4.981
Last Correction   2024/04/02 04:26:15
Memo.             
[...]
   -2826    -2894    -2929    -2920    -2856    -2749    -2651    -2613 
   -2600    -2539    -2489    -2542    -2655    -2741    -2739    -2625 
   -2451    -2296    -2222    -2254    -2392    -2589    -2717    -2663 
   -2505    -2390    -2305    -2193    -2130    -2189    -2315    -2424 
   -2473    -2443    -2358    -2258    -2162    -2104    -2124    -2208 
   -2295    -2384    -2459    -2405    -2230    -2091    -2000    -1899 
   -1892    -2025    -2191    -2344    -2502    -2612    -2589    -2434 
   -2242    -2084    -1981    -1971    -2081    -2286    -2521    -2697 
   -2689    -2435    -2066    -1814    -1803    -1980    -2263    -2571 
   -2716    -2600    -2346    -2069    -1823    -1767    -2008    -2459 
   -2933    -3214    -3181    -2917    -2543    -2134    -1825    -1730 
   -1848    -2130    -2515    -2857    -2968    -2783    -2438    -2142 
   -2011    -2035    -2176    -2351    -2412    -2292    -2135    -2114 
   -2220    -2327    -2366    -2343    -2284    -2232    -2259    -2401 
   -2610    -2743    -2658    -2411    -2170    -1996    -1906    -1975 
   -2177    -2374    -2479    -2489    -2385    -2161    -1948    -1912 
   -2065    -2272    -2416    -2485    -2509    -2467    -2334    -2168 
   -2057    -2060    -2214    -2489    -2759    -2840    -2697    -2454 
   -2161    -1850    -1675    -1722    -1887    -2072    -2245    -2347 
   -2371    -2340    -2246    -2168    -2195    -2204    -2128    -2112 
   -2170    -2176    -2151    -2170    -2205    -2280    -2457    -2721 
   -2971    -3114    -3159    -3127    -2978    -2740    -2550    -2401 
   -2238    -2162    -2224    -2288    -2299    -2335    -2412    -2452 
   -2419    -2386    -2448    -2536    -2490    -2305    -2089    -1922 
   -1894    -2096    -2458    -2747    -2829    -2745    -2586    -2432 
   -2363    -2413    -2532    -2633    -2709    -2781    -2799    -2685 
   -2446    -2181    -2012    -2038    -2246    -2528    -2747    -2783 
   -2617    -2373    -2204    -2165    -2255    -2438    -2590    -2609 
   -2533    -2451    -2420    -2481    -2628    -2751    -2713    -2525 
   -2296    -2100    -2011    -2039    -2095    -2123    -2120    -2069 
   -2016    -2049    -2208    -2455    -2691    -2785    -2678    -2469 
   -2257    -2089    -2025    -2045    -2054    -2043    -2079    -2143 
   -2162    -2108    -2003    -1908    -1885    -1902    -1923    -2018 
   -2197    -2334    -2282    -2087    -1953    -2000    -2193    -2466 
   -2695    -2720    -2555    -2342    -2154    -2049    -2081    -2254 
   -2521    -2748    -2790    -2673    -2519    -2359    -2180    -2038 
   -1985    -1952    -1887    -1885    -2015    -2170    -2263    -2343 
   -2405    -2411    -2438    -2492    -2465    -2378    -2313    -2282 
   -2303    -2400    -2558    -2702    -2713    -2569    -2331    -2066 
   -1923    -2026    -2263    -2473    -2636    -2721    -2619    -2355 
   -2081    -1865    -1750    -1836    -2088    -2358    -2546    -2633 
   -2668    -2664    -2508    -2205    -2020    -2088    -2285    -2511 
   -2718    -2836    -2813    -2650    -2434    -2290    -2209    -2145 
   -2193    -2366    -2492    -2521    -2542    -2528    -2457    -2416 
   -2407    -2363    -2361    -2466    -2606    -2700    -2736    -2698 
   -2532    -2249    -1988    -1939    -2147    -2427    -2597    -2654 
   -2578    -2342    -2108    -2050    -2124    -2208    -2238    -2199 
   -2087    -1930    -1834    -1910    -2135    -2384    -2532    -2509 
   -2334    -2107    -1941    -1875    -1884    -1952    -2060    -2199 
   -2354    -2436    -2427    -2428    -2462    -2500    -2560    -2597 
   -2519    -2385    -2300    -2246    -2216    -2247    -2295    -2338 
   -2440    -2559    -2574    -2513    -2489    -2520    -2528    -2442 
   -2327    -2336    -2492    -2700    -2878    -2964    -2929    -2798 
   -2574    -2284    -2068    -2056    -2280    -2686    -3126    -3395 
   -3383    -3113    -2663    -2155    -1765    -1649    -1868    -2262 
   -2581    -2732    -2685    -2443    -2184    -2056    -2010    -2026 
   -2162    -2401    -2655    -2821    -2812    -2609    -2241    -1837 
   -1603    -1590    -1714    -1961    -2262    -2425    -2366    -2207 
   -2035    -1844    -1717    -1723    -1780    -1856    -1987    -2118 
   -2205    -2299    -2354    -2301    -2238    -2197    -2089    -1993 
   -2029    -2119    -2218    -2340    -2443    -2524    -2579    -2543 
   -2459    -2438    -2431    -2334    -2192    -2112    -2133    -2203 
   -2257    -2319    -2425    -2496    -2485    -2477    -2494    -2469 
   -2431    -2436    -2398    -2300    -2300    -2412    -2475    -2512 
   -2558    -2481    -2340    -2340    -2389    -2363    -2384    -2454 
   -2436    -2355    -2299    -2299    -2407    -2582    -2710    -2782 
   -2817    -2743    -2571    -2447    -2412    -2407    -2442    -2512 
   -2516    -2447    -2428    -2482    -2471    -2378    -2311    -2285 
   -2272    -2284    -2357    -2501    -2613    -2539    -2296    -2015 
   -1772    -1692    -1907    -2285    -2583    -2731    -2686    -2421 
   -2095    -1919    -1962    -2187    -2488    -2728    -2816    -2708 
   -2404    -2035    -1764    -1648    -1733    -2003    -2258    -2331 
   -2220    -1957    -1621    -1412    -1533    -1992    -2520    -2887 
   -3132    -3256    -3084    -2644    -2161    -1740    -1472    -1530 
   -1872    -2295    -2644    -2744    -2500    -2072    -1691    -1556 
   -1787    -2282    -2832    -3272    -3458    -3304    -2921    -2500 
   -2110    -1822    -1823    -2142    -2543    -2820    -2884    -2686 
   -2334    -2066    -2027    -2223    -2597    -2984    -3153    -3057 
   -2789    -2409    -2074    -1938    -1954    -2046    -2146    -2101 
   -1956    -1937    -2065    -2228    -2481    -2806    -3003    -3022 
   -2960    -2798    -2529    -2295    -2234    -2397    -2744    -3073 
   -3159    -2961    -2585    -2154    -1849    -1831    -2070    -2342 
   -2500    -2602    -2658    -2508    -2126    -1791    -1745    -1922 
   -2155    -2421    -2675    -2767    -2700    -2648    -2646    -2606 
   -2556    -2543    -2470    -2292    -2158    -2209    -2400    -2583 
   -2598    -2427    -2224    -2081    -1968    -1958    -2137    -2408 
   -2637    -2752    -2663    -2369    -2061    -1946    -2038    -2224 
   -2416    -2542    -2531    -2411    -2305    -2269    -2253    -2249 
   -2255    -2280    -2361    -2407    -2282    -2041    -1794    -1620 
   -1652    -1945    -2305    -2544    -2682    -2727    -2586    -2320 
   -2084    -1922    -1917    -2147    -2451    -2589    -2559    -2451 
   -2234    -1929    -1684    -1582    -1606    -1763    -2057    -2425 
   -2737    -2922    -2984    -2903    -2694    -2419    -2056    -1597 
   -1205    -1086    -1323    -1841    -2447    -2940    -3183    -3134 
   -2839    -2389    -1876    -1435    -1254    -1453    -1950    -2482 
   -2791    -2779    -2519    -2123    -1736    -1580    -1769    -2100 
   -2286    -2289    -2154    -1879    -1645    -1691    -1979    -2403 
   -2925    -3356    -3499    -3343    -2953    -2485    -2115    -1807 
   -1516    -1385    -1491    -1749    -2110    -2525    -2816    -2894 
   -2868    -2772    -2600    -2489    -2481    -2439    -2344    -2297 
   -2280    -2227    -2242    -2436    -2724    -2936    -2957    -2793 
   -2509    -2149    -1833    -1746    -1907    -2162    -2370    -2508 
   -2647    -2795    -2828    -2628    -2250    -1860    -1628    -1711 
   -2104    -2597    -3019    -3249    -3152    -2743    -2216    -1807 
   -1707    -1968    -2436    -2863    -3078    -3034    -2799    -2494 
   -2207    -1976    -1898    -2003    -2135    -2165    -2126    -2083 
   -2076    -2080    -2018    -1984    -2122    -2343    -2547    -2797 
   -3036    -3051    -2806    -2349    -1684    -1120    -1050    -1406 
   -1949    -2679    -3474    -3975    -3986    -3549    -2805    -2057 
   -1688    -1867    -2427    -3030    -3431    -3636    -3728    -3713 
   -3627    -3512    -3331    -3105    -2880    -2614    -2339    -2205 
   -2192    -2097    -1903    -1798    -1837    -1987    -2351    -2961 
   -3569    -3858    -3692    -3092    -2251    -1536    -1270    -1497 
   -2049    -2678    -3148    -3237    -2767    -1902    -1244    -1125 
   -1312    -1610    -2018    -2336    -2336    -2168    -2208    -2538 
   -2918    -3195    -3258    -2924    -2290    -1775    -1636    -1863 
   -2332    -2882    -3360    -3628    -3510    -2978    -2251    -1610 
   -1269    -1329    -1725    -2231    -2558    -2517    -2158    -1706 
   -1406    -1487    -2052    -2911    -3684    -4097    -4045    -3550 
   -2790    -2023    -1418    -1074    -1115    -1560    -2209    -2794 
   -3133    -3115    -2740    -2155    -1557    -1146    -1075    -1270 
   -1444    -1406    -1206    -1035    -1116    -1572    -2317    -2986 
   -3082    -2515    -1710    -1023     -608     -661    -1202    -1907 
   -2404    -2462    -2015    -1348     -920     -935    -1425    -2292 
   -3094    -3334    -2945    -2149    -1138     -202      140     -346 
   -1372    -2571    -3697    -4425    -4468    -3906    -3051    -2079 
   -1104     -346      -17      -81     -244     -403     -838    -1723 
   -2817    -3711    -4075    -3805    -3071    -2135    -1312     -994 
   -1321    -2031    -2887    -3763    -4337    -4332    -3794    -2944 
   -2123    -1679    -1710    -2115    -2673    -3088    -3176    -2893 
   -2290    -1572    -1021     -915    -1529    -2853    -4314    -5120 
   -4869    -3743    -2293    -1155     -761    -1159    -2110    -3246 
   -4175    -4545    -4260    -3545    -2706    -1999    -1652    -1676 
   -1776    -1784    -1829    -2068    -2543    -3113    -3476    -3376 
   -2775    -1942    -1356    -1248    -1441    -1788    -2296    -2848 
   -3306    -3661    -3867    -3879    -3705    -3281    -2613    -1945 
   -1539    -1510    -1823    -2293    -2737    -3078    -3256    -3285 
   -3280    -3307    -3334    -3202    -2759    -2161    -1798    -1921 
   -2484    -3140    -3505    -3491    -3175    -2709    -2436    -2512 
   -2675    -2740    -2718    -2540    -2228    -1991    -1875    -1863 
   -2065    -2390    -2651    -2976    -3365    -3393    -2826    -1896 
    -943     -268      -95     -480    -1350    -2459    -3384    -3816 
   -3708    -3144    -2311    -1506    -1003     -957    -1393    -2212 
   -3177    -3937    -4132    -3676    -2878    -2176    -1873    -2066 
   -2650    -3343    -3775    -3622    -2890    -1942    -1156     -797 
    -992    -1587    -2335    -3088    -3620    -3622    -3071    -2315 
   -1669    -1205    -1013    -1256    -1872    -2574    -3156    -3566 
   -3713    -3508    -3073    -2702    -2608    -2666    -2565    -2296 
   -2083    -1912    -1684    -1567    -1817    -2374    -2952    -3424 
   -3831    -4078    -3987    -3516    -2775    -1863     -893     -105 
     211     -125    -1031    -2150    -3190    -3947    -4102    -3551 
   -2648    -1836    -1308     -961     -626     -395     -379     -450 
    -606    -1054    -1807    -2596    -3095    -3060    -2419    -1354 
    -251      457      460     -259    -1390    -2497    -3179    -3217 
   -2686    -1926    -1382    -1286    -1439    -1521    -1433    -1155 
    -650     -102       67     -452    -1586    -2905    -3937    -4367 
   -3959    -2646     -949      136       52     -961    -2459    -3971 
   -4795    -4367    -2836     -963      550     1306      977     -494 
   -2573    -4369    -5267    -5071    -3825    -2061     -756     -491 
   -1102    -2127    -3076    -3545    -3416    -2822    -1985    -1231 
    -962    -1381    -2172    -2805    -3095    -3152    -3015    -2689 
   -2281    -1989    -1918    -2019    -2290    -2816    -3441    -3815 
   -3863    -3736    -3341    -2546    -1723    -1341    -1359    -1611 
   -2126    -2835    -3659    -4630    -5513    -5940    -5813    -5121 
   -3883    -2512    -1564    -1228    -1493    -2319    -3383    -4144 
   -4282    -3937    -3524    -3334    -3464    -3920    -4502    -4730 
   -4293    -3460    -2717    -2250    -2042    -2165    -2667    -3322 
   -3793    -3975    -3832    -3202    -2150    -1271    -1166    -1823 
   -2767    -3542    -3829    -3345    -2076     -580      267      -54 
   -1374    -3017    -4236    -4641    -4168    -2951    -1445     -222 
     313      -93    -1316    -2767    -3879    -4410    -4221    -3262 
   -1834     -576      -28     -263     -954    -1587    -1651    -1101 
    -498     -380     -931    -2106    -3403    -4045    -3720    -2620 
   -1119      148      472     -337    -1821    -3277    -4024    -3618 
   -2305     -976     -453     -963    -2139    -3264    -3685    -3229 
   -2137     -793      302      658        0    -1551    -3342    -4471 
   -4360    -3061    -1088      811     1798     1301     -587    -3087 
   -5162    -6129    -5783    -4244    -2161     -600     -298    -1152 
   -2420    -3322    -3470    -2872    -1964    -1553    -2157    -3392 
   -4402    -4621    -3834    -2120     -148     1074      961     -356 
   -2254    -3971    -4846    -4581    -3557    -2695    -2667    -3298 
   -3892    -3985    -3437    -2203     -749      -54     -583    -1968 
   -3730    -5328    -5983    -5437    -4140    -2457     -873     -232 
    -754    -1871    -3134    -4217    -4479    -3623    -2390    -1763 
   -1891    -2427    -3165    -3785    -3852    -3284    -2253    -1105 
    -486     -814    -1853    -3199    -4617    -5647    -5539    -4013 
   -1549     1048     2829     2882      989    -2031    -4776    -6080 
   -5583    -3677    -1196      762     1269      218    -1657    -3419 
   -4268    -3743    -2145     -492      410      367     -641    -2277 
   -3604    -3924    -3365    -2317     -984      237      660       32 
   -1233    -2721    -4086    -4676    -4108    -2849    -1556     -584 
    -328     -953    -1964    -2837    -3465    -3549    -2775    -1667 
   -1093    -1275    -1949    -2793    -3408    -3352    -2502    -1323 
    -297      475      658     -263    -1984    -3642    -4743    -5054 
   -4380    -3064    -1954    -1462    -1379    -1493    -1541    -1270 
    -970    -1140    -1732    -2471    -3365    -4307    -4893    -4897 
   -4290    -3110    -1864    -1327    -1726    -2764    -4050    -5100 
   -5467    -5005    -3885    -2556    -1645    -1610    -2400    -3454 
   -4163    -4287    -3905    -3222    -2425    -1637    -1105    -1221 
   -2065    -3145    -3804    -3771    -3172    -2247    -1279     -611 
    -513    -1009    -1903    -2849    -3516    -3821    -3842    -3601 
   -3153    -2621    -2118    -1723    -1436    -1204    -1082    -1181 
   -1463    -1790    -2189    -2691    -3091    -3264    -3252    -3068 
   -2835    -2725    -2668    -2434    -1999    -1636    -1575    -1741 
   -1972    -2253    -2635    -3033    -3190    -2911    -2269    -1570 
   -1066     -823     -996    -1687    -2614    -3366    -3665    -3451 
   -2937    -2407    -2060    -2091    -2520    -3033    -3214    -2837 
   -2010    -1113     -562     -545     -909    -1339    -1705    -2079 
   -2389    -2413    -2169    -1927    -1809    -1694    -1574    -1617 
   -1819    -2061    -2404    -2759    -2744    -2319    -1790    -1262 
    -847     -816    -1109    -1401    -1655    -1949    -2150    -2205 
   -2238    -2259    -2173    -1957    -1678    -1406    -1193    -1071 
   -1108    -1367    -1741    -2073    -2380    -2616    -2629    -2551 
   -2693    -3005    -3134    -2943    -2641    -2412    -2216    -2070 
   -2084    -2254    -2506    -2768    -2990    -3146    -3211    -3187 
   -3107    -3021    -3015    -3140    -3364    -3672    -3990    -4109 
   -3838    -3221    -2536    -2095    -2087    -2523    -3217    -3758 
   -3774    -3280    -2558    -1953    -1885    -2474    -3264    -3774 
   -3959    -3773    -3015    -1911    -1097     -931    -1348    -2270 
   -3554    -4567    -4510    -3287    -1611     -291      298       86 
    -889    -2311    -3581    -4275    -4353    -3904    -2978    -1899 
   -1227    -1197    -1713    -2664    -3694    -4209    -3985    -3245 
   -2247    -1360    -1070    -1462    -2161    -2787    -3134    -3063 
   -2547    -1737     -885     -313     -298     -846    -1779    -2871 
   -3613    -3523    -2756    -1779     -859     -286     -384    -1120 
   -2108    -2913    -3240    -3136    -2924    -2870    -3018    -3226 
   -3250    -2886    -2153    -1439    -1155    -1225    -1395    -1722 
   -2118    -2142    -1678    -1081     -666     -668    -1313    -2413 
   -3393    -3865    -3609    -2567    -1304     -591     -546    -1023 
   -1952    -2929    -3480    -3547    -3238    -2650    -2110    -1962 
   -2170    -2585    -3161    -3692    -3893    -3728    -3231    -2362 
   -1420    -1059    -1499    -2311    -3052    -3496    -3393    -2613 
   -1451     -487     -118     -388    -1189    -2323    -3485    -4359 
   -4634    -4108    -3015    -1894    -1058     -625     -787    -1545 
   -2419    -2960    -3202    -3217    -2961    -2601    -2366    -2311 
   -2381    -2500    -2594    -2548    -2239    -1787    -1470    -1401 
   -1547    -1849    -2254    -2821    -3558    -4140    -4212    -3740 
   -2868    -1791     -808     -214     -249     -986    -2066    -2984 
   -3584    -3881    -3665    -2790    -1649     -922     -909    -1377 
   -1968    -2555    -3053    -3198    -2799    -2060    -1391    -1125 
   -1443    -2200    -2929    -3316    -3372    -3114    -2567    -1938 
   -1564    -1729    -2373    -3125    -3786    -4252    -4140    -3296 
   -2224    -1449    -1112    -1321    -2099    -3014    -3547    -3541 
   -3042    -2278    -1745    -1780    -2266    -2972    -3670    -4052 
   -4001    -3700    -3414    -3310    -3338    -3300    -3044    -2571 
   -2054    -1707    -1701    -2097    -2652    -2913    -2682    -2130 
   -1468     -924     -868    -1437    -2272    -2937    -3246    -3121 
   -2587    -1786     -962     -499     -664    -1333    -2076    -2459 
   -2347    -1903    -1402    -1084    -1007    -1135    -1435    -1734 
   -1854    -1784    -1607    -1497    -1576    -1706    -1757    -1831 
   -2014    -2234    -2371    -2374    -2247    -1984    -1586    -1177 
    -989    -1197    -1802    -2596    -3206    -3345    -3032    -2486 
   -1927    -1537    -1385    -1347    -1395    -1651    -2045    -2385 
   -2686    -3069    -3414    -3392    -2948    -2430    -2165    -2211 
   -2505    -2990    -3542    -3889    -3812    -3424    -2955    -2479 
   -2137    -2200    -2736    -3399    -3704    -3404    -2654    -1887 
   -1517    -1776    -2656    -3798    -4679    -4984    -4569    -3356 
   -1736     -585     -352     -742    -1425    -2305    -3117    -3427 
   -3096    -2384    -1638    -1090     -981    -1533    -2554    -3445 
   -3819    -3744    -3360    -2758    -2215    -2030    -2166    -2451 
   -2790    -3024    -2926    -2403    -1649    -1105    -1085    -1486 
   -2002    -2471    -2764    -2697    -2403    -2282    -2408    -2593 
   -2897    -3325    -3434    -2847    -1814     -895     -426     -571 
   -1389    -2497    -3229    -3341    -3061    -2598    -2101    -1760 
   -1645    -1736    -2002    -2366    -2756    -3069    -3115    -2871 
   -2535    -2209    -1917    -1765    -1736    -1661    -1609    -1815 
   -2235    -2609    -2728    -2500    -2006    -1456    -1039     -912 
