Origin Time       2024/04/02 04:24:00
Lat.              40.133
Long.             141.712
Depth. (km)       71
Mag.              6.0
Station Code      IBR006
Station Lat.      36.3665
Station Long.     140.4543
Station Height(m) 30
Record Time       2024/04/02 04:25:42
Sampling Freq(Hz) 100Hz
Duration Time(s)  112
Dir.              E-W
Scale Factor      7845(gal)/8223790
Max. Acc. (gal)   3.759
Last Correction   2024/04/02 04:25:41
Memo.             
[...]
    2988     2381     1845     1822     2135     2277     2150     2002 
    2030     2284     2570     2539     2209     1973     1915     1833 
    1730     1768     1977     2158     2083     1841     1738     1944 
    2326     2515     2258     1825     1752     2079     2274     2041 
    1675     1649     2108     2650     2775     2582     2524     2643 
    2616     2327     1926     1630     1665     1971     2130     2056 
    2123     2438     2677     2608     2269     1929     1884     2033 
    2045     2020     2220     2496     2625     2563     2315     2046 
    1857     1638     1545     1771     2116     2394     2547     2528 
    2380     2062     1729     1742     1960     2061     2089     2003 
    1910     2158     2509     2521     2346     2236     2214     2214 
    2008     1606     1478     1818     2340     2755     2828     2573 
    2339     2330     2357     2231     2050     1985     2043     2174 
    2272     2284     2320     2371     2409     2496     2470     2319 
    2297     2324     2280     2265     2243     2282     2496     2637 
    2560     2482     2552     2709     2717     2376     1836     1498 
    1568     1822     1899     1846     2042     2511     2786     2579 
    2068     1667     1692     1952     2066     2142     2381     2573 
    2505     2285     2061     1925     1969     2134     2317     2519 
    2596     2436     2230     2123     2089     2124     2143     2097 
    2101     2185     2304     2367     2250     2101     2022     1825 
    1617     1679     1858     1892     1829     1852     2062     2388 
    2575     2465     2231     2104     2034     1894     1729     1695 
    1831     2079     2423     2686     2581     2220     1957     2006 
    2371     2697     2683     2502     2316     2274     2525     2674 
    2357     1972     1927     2123     2316     2398     2440     2524 
    2660     2766     2677     2330     1904     1710     1895     2235 
    2330     2087     1833     1860     2083     2246     2216     2029 
    1809     1674     1715     1933     2161     2266     2258     2162 
    2106     2176     2115     1837     1767     2103     2551     2749 
    2509     2043     1715     1607     1715     1988     2234     2440 
    2654     2710     2551     2293     2065     1930     1807     1684 
    1698     1846     2029     2197     2270     2249     2324     2517 
    2500     2115     1698     1629     1981     2490     2728     2674 
    2656     2718     2687     2397     1873     1582     1836     2346 
    2708     2717     2558     2587     2694     2563     2230     2026 
    2234     2600     2775     2925     3040     2889     2479     1799 
    1151     1121     1647     2224     2550     2668     2795     2731 
    2230     1692     1459     1422     1561     1795     1966     2189 
    2475     2629     2685     2691     2529     2228     1953     1756 
    1624     1609     1725     1852     1957     2093     2111     1971 
    1973     2124     2164     2158     2222     2295     2363     2322 
    2149     2172     2485     2683     2563     2353     2220     2250 
    2424     2374     1993     1742     1807     2033     2353     2586 
    2539     2331     2158     2066     2081     2153     2165     2204 
    2377     2496     2374     2122     1989     2070     2223     2351 
    2404     2288     2026     1695     1448     1471     1641     1825 
    2169     2609     2830     2592     1991     1532     1556     1931 
    2277     2366     2409     2519     2427     2085     1707     1572 
    1864     2238     2326     2276     2272     2309     2282     2110 
    2080     2339     2559     2538     2289     1961     1877     2042 
    2122     2151     2347     2521     2381     2023     1729     1659 
    1791     1960     2142     2465     2702     2548     2257     2243 
    2492     2633     2369     1899     1703     1926     2359     2667 
    2570     2236     2047     2037     2020     1908     1796     1925 
    2290     2520     2354     2012     1917     2200     2604     2755 
    2525     2142     1849     1725     1800     2042     2371     2689 
    2790     2529     1993     1539     1541     1914     2259     2455 
    2621     2786     2843     2598     2053     1609     1655     2115 
    2542     2573     2390     2398     2550     2531     2259     1950 
    1979     2471     2979     3028     2716     2303     1838     1505 
    1513     1771     2101     2358     2427     2432     2587     2727 
    2502     2057     1845     1965     2220     2355     2209     2037 
    2189     2463     2471     2319     2382     2601     2635     2471 
    2211     1908     1792     1836     1848     2014     2409     2646 
    2513     2280     2255     2392     2409     2223     2003     1992 
    2227     2411     2272     1917     1656     1688     2003     2316 
    2262     1987     1884     1917     1992     2118     2074     1953 
    2074     2280     2346     2262     2007     1822     1950     2160 
    2139     1921     1790     1922     2126     2191     2230     2394 
    2565     2538     2378     2281     2238     2207     2215     2212 
    2215     2297     2357     2191     1764     1339     1347     1846 
    2354     2550     2492     2326     2265     2340     2351     2223 
    2034     1934     2031     2300     2635     2675     2243     1848 
    1792     1845     1908     1899     1807     1915     2255     2532 
    2531     2236     2004     2130     2281     2207     2137     2133 
    2212     2421     2478     2366     2353     2300     2139     2019 
    1918     1983     2250     2419     2540     2832     3137     3138 
    2637     1809     1273     1460     2104     2803     3364     3450 
    2947     2259     1703     1355     1231     1323     1733     2367 
    2906     3217     3123     2563     1938     1514     1327     1471 
    1799     2119     2440     2547     2238     1879     1854     1984 
    2060     2112     1999     1748     1746     2004     2249     2451 
    2635     2637     2363     2046     1961     2096     2311     2486 
    2590     2571     2363     2201     2203     2084     1806     1611 
    1626     1891     2300     2560     2552     2465     2396     2215 
    1848     1335      908     1055     1854     2677     3044     3011 
    2739     2517     2596     2616     2304     2139     2303     2354 
    2126     1740     1498     1769     2309     2598     2651     2682 
    2667     2470     2122     1840     1714     1645     1583     1641 
    1911     2346     2694     2598     2245     2161     2203     2099 
    2034     2039     2101     2253     2303     2263     2284     2330 
    2392     2417     2390     2438     2428     2226     2074     2133 
    2376     2702     2798     2590     2371     2205     1993     1811 
    1710     1707     1845     1999     2092     2231     2416     2648 
    2972     3156     2984     2583     2083     1696     1755     2079 
    2182     2026     1876     1883     1995     2083     2074     1979 
    1930     1957     1888     1806     1840     1929     2087     2168 
    2046     2025     2219     2420     2619     2816     2824     2602 
    2272     1807     1356     1312     1578     1821     2052     2273 
    2508     2786     2852     2678     2543     2400     2181     2120 
    2231     2266     2176     2168     2388     2577     2354     1937 
    1871     2161     2520     2745     2552     2066     1873     1987 
    2139     2450     2837     3130     3304     3099     2614     2258 
    1938     1605     1412     1227     1134     1343     1625     1861 
    2227     2628     2772     2656     2521     2357     2065     1850 
    1837     1858     1803     1640     1494     1610     1906     2089 
    2111     2124     2270     2447     2498     2523     2520     2362 
    2187     2185     2297     2386     2334     2108     1999     2235 
    2397     2081     1551     1237     1345     1667     1883     2277 
    2999     3551     3728     3535     2952     2396     2072     1680 
    1270     1162     1372     1637     1728     1768     2000     2335 
    2488     2282     1969     2049     2455     2641     2455     2197 
    2166     2393     2639     2704     2575     2247     1848     1667 
    1633     1487     1462     1890     2438     2735     2925     3006 
    2824     2459     1802      988      804     1370     2003     2573 
    3119     3238     2930     2643     2446     2201     1962     1815 
    1772     1803     1852     1823     1653     1553     1745     2039 
    2134     1991     1822     1871     2104     2303     2455     2583 
    2473     2215     2247     2474     2504     2330     2062     1910 
    2146     2496     2556     2448     2324     2232     2232     2139 
    1894     1814     2093     2710     3379     3473     2872     2218 
    1892     1638     1255     1055     1377     2022     2573     2829 
    2857     2766     2609     2465     2265     2002     1988     2235 
    2330     2045     1561     1431     1881     2517     2975     3037 
    2821     2691     2415     1848     1540     1742     2295     2745 
    2496     1907     1798     2139     2384     2123     1564     1325 
    1512     1829     2012     1833     1536     1605     1892     2081 
    2388     2995     3634     3855     3200     1881      919      731 
     850     1100     1553     2111     2764     3350     3443     2987 
    2390     2122     2324     2639     2778     2857     2824     2562 
    2187     1609      869      537      838     1541     2428     3061 
    3172     2994     2749     2644     2739     2714     2458     2200 
    2004     1702     1291     1035     1070     1271     1520     2085 
    3272     4432     4596     3612     2008      870      872     1456 
    2182     3083     3759     3866     3400     2424     1444     1021 
     923      812      938     1409     2022     2536     2716     2782 
    3002     2974     2559     2286     2411     2718     2749     2247 
    1660     1425     1520     1925     2525     3007     2928     1914 
     521      -85      487     1915     3663     4951     5422     5354 
    4742     3375     1637      303     -178      182     1124     2312 
    3331     3744     3611     3458     3343     2924     2087      884 
    -315     -965     -810      238     2030     3840     4753     4525 
    3680     2520     1097       44      -78      637     2008     3461 
    4116     4025     3684     2965     1873      891      388      645 
    1553     2532     3269     3524     3022     2100     1128      272 
      52      656     1648     2620     3100     2926     2683     2602 
    2199     1399      737      733     1385     1946     1881     1710 
    2108     2786     2907     2481     2296     2481     2577     2431 
    2092     1757     1586     1516     1687     2224     2957     3821 
    4459     4132     2835     1431      754     1001     1512     1764 
    2344     3565     4494     4452     3504     1952      611      210 
     580     1146     1690     2409     3167     3613     3786     3433 
    2396     1432     1093     1263     1652     1929     2192     2689 
    3240     3505     3103     2030      965      270     -176     -108 
     780     2297     3942     4849     4575     3827     3167     2312 
    1406      949      901     1190     1779     2184     2185     2141 
    2128     2016     2011     2238     2570     2999     3383     3468 
    3358     3295     3357     3446     3125     2218     1233      495 
      40      203     1066     2150     3028     3546     3711     3542 
    2948     2104     1722     2191     2671     2181     1044      166 
     106      957     1972     2438     2627     2826     2849     2643 
    2172     1487     1150     1566     2459     3223     3235     2420 
    1476      994      913      999     1371     2230     3249     3871 
    3804     2983     1755      912     1008     1852     2933     3958 
    4475     3928     2540     1067       20     -245      368     1536 
    2841     3472     2781     1696     1490     2006     2658     3237 
    3597     3709     3315     2083      598     -137      -13      419 
    1042     2232     3955     5224     5109     3936     2639     1761 
    1626     2145     2697     2953     2907     2605     2419     2511 
    2652     2808     2964     2928     2647     2157     1398      554 
     213      523      831      853     1071     1663     2288     2666 
    2783     2716     2301     1576     1093     1233     1937     2717 
    2766     2064     1444     1011      315     -237       49     1297 
    3275     5019     5320     4429     3310     2224     1250      572 
     557     1543     2952     3709     3264     1991      916      464 
     440      999     2018     2841     3221     3265     3084     2972 
    3171     3569     3842     3665     3107     2382     1317      116 
    -477     -313      554     2187     3983     5287     5880     5383 
    3717     1620      -20     -784     -635      311     1815     3553 
    4942     5181     4295     3196     2465     2189     2131     1709 
     754     -220     -534       21      928     1861     2959     4025 
    4725     4888     4380     3292     1794      280     -461     -162 
     892     2307     3273     3280     2798     2327     1946     1867 
    2416     3379     3846     3082     1351     -279     -874     -491 
     237     1003     1830     2840     3781     4089     3970     3751 
    2953     1566      162    -1026    -1748    -1617     -315     1991 
    4206     5359     5508     5084     4259     2971     1607      864 
     680      689      957     1564     2551     3581     4129     4392 
    4517     4288     3801     2921     1630      658      561     1188 
    1987     2744     3649     4353     4163     2921     1252      270 
     437     1274     2392     3418     3673     3099     2366     1877 
    1552     1354     1383     1444     1420     1732     2326     2608 
    2523     2120     1381      757      712     1359     2446     3268 
    3175     2290     1502     1394     1749     2371     3079     3119 
    2101      700     -355     -727        4     1755     3738     5320 
    5884     5208     4097     3107     2107     1242      756      827 
    1598     2546     2940     2783     2529     2502     2786     3208 
    3550     3713     3487     2940     2662     2585     2201     1767 
    1472     1263     1533     2187     2693     3033     3055     2569 
    1931     1422     1219     1506     2008     2452     2978     3581 
    3805     3238     2143     1305     1216     1522     1497     1071 
     724      649      888     1393     1853     2339     3094     3793 
    4083     3910     3323     2602     1865     1281     1395     2023 
    2430     2451     2278     2226     2344     2170     1651     1135 
     760      731     1173     1773     2120     2043     1721     1502 
    1688     2362     3163     3608     3500     2941     2376     2191 
    2133     1714      835     -189     -729     -467      218     1138 
    2408     3717     4606     4761     4067     3015     2138     1452 
    1229     1768     2658     3514     4010     3645     2660     1726 
     888      189      160     1139     2790     4187     4413     3316 
    1611      282     -106      476     1684     3061     4315     4926 
    4405     3159     1944     1120      734      500      261      328 
    1016     2231     3234     3370     3032     2891     3092     3342 
    3129     2400     1553      738      201      268      735     1437 
    2577     4036     5302     5695     4603     2398      388     -714 
   -1047     -580      600     2002     3442     4630     5000     4729 
    4271     3465     2164      707     -406     -691       37     1274 
    2420     3473     4461     5039     4760     3627     2336     1309 
     379     -261     -351       98     1235     2658     3418     3381 
    2976     2442     2101     2047     1968     1981     2505     3372 
    4064     4187     3526     2316     1016      -54     -499     -125 
     838     2133     3337     4077     4642     5082     4909     4307 
    3474     2041      342     -924    -1506     -926      916     3156 
    5024     5983     5620     4468     3381     2517     1853     1358 
     986      909     1004     1221     1722     2188     2439     2543 
    2328     1993     1752     1514     1497     1690     1760     1841 
    2223     2748     2963     2727     2589     2971     3384     3152 
    2344     1568     1231     1302     1491     1564     1686     2138 
    2724     2998     2776     2246     1798     1718     2056     2520 
    2694     2490     1900     1111      666      675      877     1085 
    1089     1139     1609     2376     3227     3805     3759     3289 
    2523     1393      305     -353     -440      383     1892     3138 
    3707     3777     3591     3329     2721     1649      758      533 
    1077     2201     3071     3145     2695     1968     1302     1233 
    1709     2315     2848     3021     2633     2114     2033     2362 
    2725     2998     3042     2643     2227     2209     2245     2079 
    1734     1467     1937     3105     3963     3978     3470     2725 
    1761      738      -28     -364     -353      145     1426     2979 
    3986     4311     3936     2924     1796      930      558      930 
    1719     2315     2477     2079     1329      812      676      943 
    1921     3383     4461     4413     3140     1318       -9     -286 
     249     1289     2799     4492     5571     5310     3940     2247 
     579     -727    -1030      -10     1958     3769     4492     4321 
    3588     2245      885      583     1564     3030     4086     4332 
    3870     3141     2435     1772     1313     1394     2169     3188 
    3570     3134     2521     2111     1973     2122     2370     2583 
    2617     2265     1680     1310     1439     1896     2309     2444 
    2311     2353     2794     3148     3142     2921     2619     2439 
    2218     1695     1273     1293     1493     1593     1642     1907 
    2393     2689     2481     1961     1626     1691     1984     2428 
    3019     3402     3105     2215     1348     1067     1405     1988 
    2619     3114     3087     2685     2326     1987     1771     1841 
    2079     2525     3009     3103     2903     2629     2309     2124 
    2139     2266     2509     2856     3119     2987     2555     2319 
    2257     1977     1435      731      245      623     1733     2775 
    3279     3126     2508     1834     1294     1108     1586     2458 
    3126     3219     2802     2438     2307     2074     1745     1310 
     826      808     1220     1597     1984     2455     2918     3245 
    3144     2593     1993     1636     1464     1321     1331     1745 
    2608     3673     4414     4549     4054     2762      946     -545 
   -1048     -187     1806     3939     5428     5979     5552     4465 
    2899      957     -679    -1413    -1232     -295      946     2062 
    3094     3767     3615     3061     2714     2610     2729     2768 
    2301     1610     1116      824      859     1425     2339     3196 
    3738     3790     3214     2162     1089      519      811     1701 
    2484     2814     2813     2690     2494     2124     1626     1324 
