Origin Time       2024/04/02 04:24:00
Lat.              40.133
Long.             141.712
Depth. (km)       71
Mag.              6.0
Station Code      IBR007
Station Lat.      36.3526
Station Long.     140.5954
Station Height(m) 24
Record Time       2024/04/02 04:26:20
Sampling Freq(Hz) 100Hz
Duration Time(s)  61
Dir.              E-W
Scale Factor      7845(gal)/8223790
Max. Acc. (gal)   4.050
Last Correction   2024/04/02 04:26:19
Memo.             
[...]
   -2637    -2635    -2555    -2439    -2323    -2262    -2362    -2566 
   -2749    -2974    -3231    -3322    -3165    -2878    -2625    -2550 
   -2704    -3069    -3480    -3657    -3450    -2979    -2551    -2382 
   -2358    -2312    -2335    -2544    -2837    -3033    -3068    -2964 
   -2745    -2562    -2592    -2744    -2855    -2934    -2990    -2990 
   -2998    -3030    -3002    -2952    -3002    -3073    -3056    -3053 
   -3141    -3279    -3387    -3329    -3075    -2781    -2560    -2388 
   -2289    -2300    -2301    -2299    -2446    -2681    -2887    -3145 
   -3481    -3715    -3646    -3326    -2921    -2496    -2155    -1962 
   -1917    -2133    -2536    -2832    -2968    -3063    -3060    -2863 
   -2644    -2697    -3040    -3415    -3543    -3391    -3175    -3033 
   -2862    -2629    -2498    -2512    -2554    -2643    -2822    -2938 
   -2839    -2631    -2519    -2528    -2639    -2867    -3137    -3330 
   -3385    -3285    -2995    -2582    -2353    -2458    -2637    -2687 
   -2678    -2697    -2713    -2644    -2465    -2299    -2316    -2550 
   -2814    -2866    -2749    -2799    -3078    -3244    -3208    -3245 
   -3422    -3523    -3454    -3314    -3188    -3107    -3098    -3102 
   -2975    -2702    -2412    -2192    -2173    -2411    -2701    -2863 
   -2906    -2853    -2717    -2570    -2486    -2502    -2637    -2828 
   -2952    -2936    -2841    -2756    -2701    -2751    -2948    -3096 
   -3082    -3030    -3040    -3051    -2955    -2782    -2736    -2889 
   -3011    -2992    -3014    -3087    -2959    -2656    -2548    -2677 
   -2727    -2644    -2620    -2749    -2976    -3100    -2945    -2629 
   -2436    -2494    -2724    -2991    -3195    -3194    -2971    -2771 
   -2737    -2790    -2876    -3002    -3157    -3226    -3094    -2959 
   -2984    -3005    -2930    -2879    -2899    -2938    -2959    -2938 
   -2920    -2901    -2756    -2478    -2322    -2427    -2629    -2776 
   -2893    -3082    -3289    -3241    -2874    -2488    -2312    -2361 
   -2515    -2689    -2921    -3098    -3030    -2851    -2739    -2682 
   -2712    -2808    -2901    -3063    -3226    -3173    -2902    -2654 
   -2628    -2689    -2644    -2600    -2637    -2640    -2636    -2741 
   -2866    -2932    -3009    -3079    -3103    -3061    -2880    -2704 
   -2762    -2910    -2965    -2983    -2909    -2720    -2628    -2721 
   -2880    -2976    -2920    -2745    -2570    -2484    -2531    -2666 
   -2845    -3036    -3181    -3215    -3144    -3156    -3276    -3203 
   -2902    -2596    -2374    -2299    -2339    -2400    -2508    -2608 
   -2569    -2547    -2731    -3052    -3368    -3469    -3253    -2964 
   -2808    -2808    -2953    -3032    -2851    -2597    -2493    -2461 
   -2423    -2485    -2648    -2826    -3065    -3316    -3383    -3283 
   -3188    -3092    -2944    -2817    -2725    -2613    -2489    -2381 
   -2319    -2335    -2457    -2701    -3005    -3277    -3489    -3542 
   -3360    -3133    -3033    -2961    -2905    -2943    -2960    -2887 
   -2839    -2841    -2802    -2677    -2508    -2404    -2473    -2725 
   -2992    -3103    -3084    -2925    -2625    -2438    -2533    -2732 
   -2833    -2890    -2974    -2974    -2839    -2675    -2547    -2497 
   -2523    -2517    -2515    -2709    -3049    -3260    -3275    -3253 
   -3283    -3268    -3145    -2959    -2716    -2479    -2398    -2501 
   -2700    -2843    -2872    -2887    -2880    -2872    -2968    -3034 
   -2934    -2736    -2543    -2500    -2647    -2743    -2636    -2589 
   -2821    -3055    -3046    -3082    -3392    -3769    -3898    -3651 
   -3117    -2536    -2106    -1846    -1818    -2178    -2735    -3042 
   -3048    -2990    -2964    -2992    -3080    -3180    -3234    -3223 
   -3161    -3086    -3010    -2882    -2687    -2579    -2610    -2619 
   -2525    -2442    -2489    -2651    -2774    -2709    -2535    -2538 
   -2782    -2992    -2984    -2882    -2916    -3049    -3105    -3190 
   -3392    -3484    -3314    -3005    -2770    -2698    -2643    -2452 
   -2187    -2018    -2100    -2332    -2417    -2388    -2482    -2674 
   -2840    -3042    -3365    -3654    -3645    -3403    -3150    -2828 
   -2452    -2257    -2266    -2496    -3002    -3356    -3190    -2836 
   -2628    -2529    -2539    -2641    -2718    -2806    -2987    -3164 
   -3217    -3199    -3169    -2994    -2767    -2794    -2971    -3172 
   -3454    -3519    -3257    -3037    -2921    -2793    -2755    -2721 
   -2508    -2367    -2544    -2751    -2710    -2569    -2479    -2428 
   -2536    -2933    -3375    -3550    -3460    -3226    -3017    -2945 
   -2856    -2691    -2600    -2543    -2430    -2382    -2488    -2528 
   -2316    -2122    -2262    -2575    -2810    -2911    -2871    -2816 
   -2871    -2890    -2840    -2929    -3150    -3321    -3381    -3279 
   -2909    -2452    -2254    -2370    -2597    -2739    -2813    -2943 
   -3059    -3069    -3091    -3141    -3063    -2909    -2880    -2925 
   -2856    -2744    -2821    -3028    -3083    -2859    -2523    -2405 
   -2578    -2741    -2748    -2802    -3040    -3331    -3528    -3537 
   -3316    -2974    -2627    -2373    -2384    -2679    -3059    -3329 
   -3341    -3190    -3179    -3250    -3145    -2918    -2727    -2647 
   -2664    -2694    -2740    -2814    -2866    -2882    -2863    -2690 
   -2338    -2176    -2362    -2469    -2417    -2589    -2860    -2916 
   -2910    -2941    -2933    -3006    -3046    -2814    -2596    -2702 
   -2889    -2930    -2949    -2944    -2816    -2619    -2455    -2440 
   -2647    -2967    -3175    -3132    -2967    -2982    -3150    -3100 
   -2791    -2533    -2451    -2563    -2805    -2891    -2694    -2486 
   -2508    -2648    -2731    -2828    -3018    -3142    -3038    -2768 
   -2575    -2706    -3106    -3377    -3288    -3029    -2853    -2747 
   -2597    -2492    -2582    -2809    -3017    -3132    -3078    -2879 
   -2747    -2752    -2749    -2690    -2698    -2872    -3088    -3169 
   -3191    -3208    -3111    -2974    -2936    -2959    -2953    -2897 
   -2848    -2797    -2682    -2647    -2853    -3141    -3171    -2898 
   -2623    -2565    -2614    -2566    -2525    -2666    -2772    -2687 
   -2659    -2789    -2845    -2790    -2837    -2987    -3099    -3095 
   -2802    -2365    -2293    -2528    -2556    -2354    -2259    -2430 
   -2808    -3088    -3041    -2878    -2813    -2820    -2871    -2936 
   -3086    -3327    -3400    -3176    -2805    -2547    -2647    -3001 
   -3215    -3198    -3215    -3384    -3487    -3284    -2841    -2450 
   -2239    -2187    -2332    -2609    -2812    -2779    -2473    -2134 
   -2122    -2467    -2882    -3118    -3253    -3487    -3667    -3504 
   -3064    -2667    -2575    -2733    -2870    -2997    -3184    -3244 
   -3192    -3159    -3075    -2964    -2871    -2689    -2448    -2313 
   -2359    -2516    -2621    -2631    -2698    -2924    -3208    -3342 
   -3213    -3018    -2961    -2828    -2574    -2560    -2797    -2937 
   -2855    -2737    -2745    -2841    -2960    -3024    -2947    -2803 
   -2717    -2643    -2447    -2227    -2301    -2704    -3083    -3253 
   -3312    -3300    -3195    -3007    -2727    -2532    -2628    -2741 
   -2606    -2461    -2481    -2596    -2812    -3134    -3474    -3665 
   -3545    -3141    -2718    -2556    -2590    -2538    -2359    -2239 
   -2251    -2347    -2516    -2728    -2956    -3350    -3817    -3905 
   -3623    -3287    -2922    -2675    -2691    -2709    -2571    -2381 
   -2223    -2232    -2465    -2681    -2636    -2506    -2673    -3092 
   -3312    -3138    -2835    -2704    -2794    -2894    -2825    -2628 
   -2397    -2270    -2270    -2241    -2342    -2717    -2995    -3092 
   -3191    -3136    -3001    -2922    -2632    -2312    -2493    -2932 
   -3080    -2967    -2857    -2870    -3048    -3267    -3329    -3338 
   -3345    -3060    -2620    -2575    -2932    -3233    -3246    -3064 
   -2899    -2898    -2998    -3073    -3172    -3300    -3211    -2739 
   -2122    -1752    -1784    -2046    -2315    -2585    -2816    -2890 
   -2988    -3265    -3488    -3491    -3352    -3029    -2494    -2111 
   -2133    -2424    -2975    -3665    -4002    -3847    -3431    -2879 
   -2442    -2355    -2381    -2272    -2057    -1798    -1684    -1885 
   -2278    -2744    -3358    -4094    -4702    -4974    -4847    -4301 
   -3493    -2650    -1884    -1391    -1397    -1838    -2421    -2905 
   -3192    -3285    -3156    -2810    -2467    -2354    -2586    -3145 
   -3562    -3360    -2916    -2840    -2961    -2921    -2825    -2764 
   -2636    -2511    -2562    -2689    -2656    -2551    -2446    -2257 
   -2231    -2463    -2633    -2872    -3478    -4190    -4553    -4272 
   -3474    -2724    -2280    -1971    -1817    -1950    -2262    -2569 
   -2826    -3036    -3138    -3110    -2998    -2841    -2830    -3172 
   -3511    -3397    -3029    -2793    -2917    -3327    -3550    -3369 
   -3010    -2686    -2479    -2307    -2182    -2269    -2377    -2276 
   -2174    -2184    -2180    -2270    -2602    -3075    -3527    -3867 
   -4081    -4178    -4085    -3728    -3199    -2790    -2718    -2763 
   -2637    -2407    -2118    -1776    -1584    -1593    -1782    -2312 
   -3075    -3654    -3912    -4021    -4023    -3781    -3208    -2281 
   -1255     -696     -942    -1818    -2871    -3712    -4155    -4288 
   -4311    -4105    -3635    -3407    -3580    -3555    -2983    -2147 
   -1344     -689     -461     -916    -1761    -2517    -3161    -3607 
   -3627    -3550    -3643    -3649    -3657    -4002    -4388    -4363 
   -4101    -3888    -3526    -2795    -1834     -904     -318     -344 
    -819    -1336    -1903    -2606    -3210    -3708    -4167    -4303 
   -4174    -4059    -3778    -3365    -3233    -3214    -2906    -2457 
   -2046    -1665    -1502    -1598    -1629    -1591    -1845    -2326 
   -2675    -2995    -3473    -3774    -3661    -3507    -3620    -3743 
   -3481    -2737    -1792    -1073     -789     -940    -1571    -2710 
   -3944    -4588    -4494    -3962    -3284    -2717    -2363    -2230 
   -2392    -2747    -2972    -2955    -2901    -2812    -2646    -2859 
   -3576    -4104    -3991    -3383    -2587    -1917    -1507    -1413 
   -1722    -2285    -2785    -3154    -3464    -3677    -3888    -4203 
   -4384    -4221    -3794    -3145    -2342    -1602    -1282    -1818 
   -3049    -4081    -4334    -4005    -3391    -2542    -1710    -1236 
   -1055    -1173    -1868    -2980    -4056    -4936    -5448    -5374 
   -4877    -4147    -3009    -1510     -309       44     -372    -1228 
   -2317    -3341    -3790    -3416    -2440    -1463    -1200    -1783 
   -2771    -3824    -4657    -4986    -4869    -4488    -3937    -3370 
   -2825    -2286    -1896    -1641    -1367    -1181    -1351    -2058 
   -3165    -4228    -4870    -4854    -4132    -3098    -2269    -1803 
   -1630    -1679    -1973    -2544    -3167    -3568    -3723    -3774 
   -3747    -3364    -2551    -1817    -1441    -1178    -1158    -1732 
   -2659    -3553    -4118    -4114    -3840    -3635    -3341    -3014 
   -2902    -2936    -3026    -2945    -2286    -1332     -823     -950 
   -1583    -2660    -3946    -4907    -5092    -4459    -3303    -2261 
   -2025    -2593    -3246    -3308    -2875    -2602    -2640    -2612 
   -2668    -3241    -3929    -3951    -3318    -2624    -2215    -2053 
   -1930    -1939    -2457    -3304    -3854    -3858    -3423    -2764 
   -2177    -1921    -2120    -2515    -2617    -2392    -2316    -2679 
   -3183    -3202    -2438    -1455    -1061    -1285    -1723    -2239 
   -2901    -3885    -5059    -5706    -5522    -4970    -4380    -3753 
   -3017    -1995     -815     -128     -106     -240     -495    -1254 
   -2569    -3989    -4839    -4965    -4648    -4131    -3835    -4008 
   -4270    -4199    -3761    -3024    -2010     -973     -394     -581 
   -1499    -2725    -3645    -3947    -3843    -3607    -3190    -2709 
   -2532    -2714    -3011    -3184    -3179    -3014    -2556    -1929 
   -1537    -1429    -1468    -1601    -1696    -1921    -2632    -3632 
   -4357    -4452    -3959    -3262    -2544    -1818    -1472    -1676 
   -2122    -2856    -3896    -4610    -4588    -4068    -3380    -2918 
   -3053    -3445    -3427    -2979    -2434    -2002    -1811    -1894 
   -2282    -2951    -3647    -4014    -3852    -3492    -3441    -3636 
   -3736    -3545    -3013    -2304    -1557     -826     -403     -718 
   -1935    -3819    -5738    -6848    -6574    -5135    -3346    -1958 
   -1270    -1139    -1347    -1764    -2069    -1864    -1282     -939 
   -1179    -1818    -2623    -3501    -4279    -4760    -4824    -4488 
   -3960    -3338    -2574    -1895    -1595    -1669    -1972    -2416 
   -3002    -3557    -3659    -3345    -3056    -2856    -2637    -2438 
   -2209    -1971    -1934    -2231    -2685    -3065    -3323    -3399 
   -3200    -2760    -2354    -2373    -2783    -3114    -3032    -2489 
   -1834    -1709    -2161    -2694    -3285    -4040    -4558    -4537 
   -4079    -3419    -2907    -2835    -3110    -3298    -3009    -2216 
   -1250     -679     -791    -1248    -1899    -2953    -4068    -4650 
   -4536    -3707    -2435    -1285     -507     -378    -1301    -2943 
   -4395    -5036    -4824    -4307    -4090    -4020    -3635    -3083 
   -2620    -2058    -1302     -626     -379     -749    -1738    -3288 
   -5124    -6620    -7084    -6284    -4534    -2340     -322      818 
     927      399     -511    -1530    -2369    -3260    -4365    -5352 
   -5971    -6135    -5852    -5215    -4255    -3079    -1906     -843 
      62      558      315     -634    -1794    -2664    -3246    -3673 
   -3851    -3862    -3832    -3719    -3611    -3484    -3206    -2999 
   -3060    -3304    -3612    -3788    -3711    -3507    -3480    -3770 
   -4000    -3686    -2843    -1873    -1043     -256      364      283 
    -696    -2187    -3688    -4816    -5320    -5275    -4908    -4174 
   -3235    -2531    -2058    -1807    -1902    -2203    -2675    -3172 
   -3391    -3457    -3564    -3757    -3952    -3712    -2871    -2006 
   -1669    -1811    -2145    -2423    -2473    -2407    -2363    -2193 
   -1988    -2088    -2413    -2640    -2764    -2953    -3214    -3454 
   -3562    -3387    -3040    -2917    -3092    -3210    -3094    -2708 
   -2081    -1791    -2342    -3252    -3566    -2889    -1829    -1386 
   -1763    -2382    -2949    -3568    -4125    -4347    -4187    -3750 
   -3086    -2315    -1675    -1528    -2218    -3395    -4095    -3978 
   -3489    -2944    -2440    -2292    -2802    -3757    -4399    -4333 
   -4060    -3986    -3942    -3770    -3311    -2538    -1767    -1123 
    -631     -653    -1101    -1209     -907     -974    -1753    -2905 
   -3932    -4452    -4432    -4175    -3885    -3589    -3348    -3106 
   -2786    -2492    -2243    -1952    -1702    -1680    -2158    -3262 
   -4421    -4833    -4394    -3414    -2227    -1371    -1196    -1391 
   -1495    -1470    -1618    -2115    -2818    -3561    -4267    -4796 
   -5009    -4808    -4122    -3181    -2474    -2234    -2319    -2543 
   -2817    -2986    -2903    -2717    -2457    -1788     -874     -495 
   -1117    -2562    -4121    -4947    -4795    -3987    -2845    -1802 
   -1437    -1857    -2506    -2870    -2808    -2301    -1495     -769 
    -527    -1042    -2211    -3634    -4918    -5769    -6002    -5516 
   -4391    -3045    -2088    -1737    -1610    -1513    -1810    -2494 
   -3028    -3165    -3049    -2899    -2847    -2771    -2662    -2774 
   -3233    -3912    -4290    -3843    -2868    -2116    -1964    -2278 
   -2677    -2998    -3375    -3662    -3499    -2984    -2741    -3156 
   -3750    -3758    -3190    -2635    -2354    -2334    -2648    -3258 
   -3840    -3790    -2866    -1827    -1331    -1283    -1741    -2778 
   -3998    -4800    -4615    -3298    -1385      128      440     -442 
   -2030    -3659    -4585    -4749    -4649    -4329    -3682    -3048 
   -2502    -1767    -1186    -1320    -1888    -2253    -2273    -2304 
   -2690    -3481    -4490    -5333    -5674    -5524    -4878    -3613 
   -2197    -1327    -1097    -1225    -1402    -1680    -2394    -3245 
   -3611    -3481    -3179    -2971    -3024    -3289    -3589    -3584 
   -3051    -2297    -1771    -1555    -1448    -1351    -1439    -1814 
   -2398    -3213    -4112    -4625    -4514    -4129    -3874    -3636 
   -3024    -2014    -1116     -760    -1003    -1744    -2655    -3202 
   -3138    -2812    -2821    -3329    -3854    -3917    -3581    -3053 
   -2381    -1867    -1960    -2581    -3235    -3561    -3453    -3159 
   -3032    -2889    -2251    -1362     -888     -926    -1364    -2234 
   -3264    -4175    -4973    -5528    -5568    -5001    -3943    -2716 
   -1830    -1578    -1752    -2169    -3033    -4279    -5212    -5362 
   -4977    -4415    -3798    -2986    -1772     -518      244      579 
     538     -106    -1201    -2436    -3721    -4861    -5532    -5584 
   -5104    -4314    -3427    -2644    -1984    -1177     -291      197 
      -4     -930    -2243    -3424    -4375    -5004    -4965    -4226 
   -3192    -2407    -2236    -2529    -2749    -2701    -2708    -2925 
   -3049    -2830    -2484    -2354    -2431    -2475    -2490    -2764 
   -3373    -3975    -4376    -4814    -5259    -5211    -4471    -3335 
   -2153    -1252     -832     -869    -1306    -1993    -2739    -3418 
   -3769    -3724    -3576    -3430    -3092    -2484    -1938    -1993 
   -2686    -3470    -3819    -3582    -3028    -2521    -2293    -2535 
   -3105    -3365    -2874    -1939    -1188     -907     -950    -1073 
   -1455    -2479    -3813    -4672    -4838    -4608    -4152    -3408 
   -2631    -2326    -2324    -2177    -2108    -2311    -2547    -2709 
   -2620    -2037    -1285    -1036    -1491    -2320    -3219    -4031 
   -4617    -4922    -4816    -4237    -3510    -2948    -2627    -2566 
   -2597    -2569    -2666    -3025    -3458    -3624    -3215    -2224 
   -1093     -495     -920    -2326    -3977    -4951    -4999    -4463 
   -3647    -2841    -2235    -1821    -1671    -1617    -1296     -984 
   -1252    -1911    -2419    -2779    -3161    -3480    -3792    -4105 
   -4055    -3592    -3069    -2650    -2502    -2759    -3052    -3083 
   -3180    -3630    -4110    -4202    -3912    -3461    -3069    -2899 
   -2918    -2891    -2594    -2099    -1722    -1524    -1332    -1247 
   -1470    -1976    -2694    -3370    -3493    -3095    -2945    -3403 
   -4090    -4549    -4514    -3959    -3033    -1918     -901     -337 
    -406    -1093    -2158    -3186    -3910    -4351    -4568    -4519 
   -4171    -3547    -2644    -1559     -704     -425     -677    -1405 
   -2417    -3196    -3622    -3958    -4244    -4492    -4658    -4514 
   -4131    -3740    -3211    -2354    -1377     -627     -259     -280 
    -692    -1522    -2650    -3802    -4774    -5472    -5881    -5879 
   -5298    -4270    -3091    -1934     -828      155      661      313 
    -837    -2432    -4014    -5161    -5718    -5719    -5182    -4217 
   -3099    -2234    -2004    -2305    -2640    -2841    -2976    -2910 
   -2542    -2037    -1676    -1595    -1779    -2169    -2590    -2876 
