Origin Time       2024/04/02 04:24:00
Lat.              40.133
Long.             141.712
Depth. (km)       71
Mag.              6.0
Station Code      IBR013
Station Lat.      36.1587
Station Long.     140.4892
Station Height(m) 29
Record Time       2024/04/02 04:26:23
Sampling Freq(Hz) 100Hz
Duration Time(s)  70
Dir.              N-S
Scale Factor      7845(gal)/8223790
Max. Acc. (gal)   9.686
Last Correction   2024/04/02 04:26:23
Memo.             
[...]
   17092    17143    17420    17977    18431    18454    18166    17798 
   17432    17073    16757    16625    16835    17298    17568    17437 
   17294    17471    17790    18002    18081    18025    17828    17556 
   17296    17184    17281    17444    17531    17512    17406    17359 
   17490    17671    17788    17830    17753    17575    17334    17128 
   17189    17524    17809    17791    17618    17486    17346    17226 
   17243    17338    17416    17420    17351    17302    17332    17491 
   17713    17674    17313    16993    16876    16904    17136    17570 
   17934    17963    17767    17691    17841    18015    17942    17613 
   17285    17050    16845    16758    16860    17116    17570    18080 
   18327    18334    18304    18157    17869    17563    17230    16939 
   16852    17011    17373    17740    17991    18171    18187    17925 
   17521    17209    17116    17194    17320    17463    17672    17928 
   18022    17797    17467    17339    17397    17401    17184    16907 
   16875    17122    17501    17919    18304    18496    18354    17969 
   17555    17221    16953    16681    16455    16470    16804    17381 
   18114    18786    19079    18909    18427    17853    17400    17123 
   16958    16849    16761    16771    17039    17479    17806    17868 
   17743    17678    17820    17988    17910    17575    17302    17316 
   17397    17258    16957    16822    17069    17505    17807    18002 
   18227    18265    17860    17169    16568    16303    16376    16618 
   16937    17332    17717    17995    18111    17925    17528    17294 
   17251    17176    17100    17138    17335    17716    18142    18322 
   18098    17680    17428    17355    17296    17354    17621    17842 
   17767    17477    17213    17142    17327    17676    17898    17783 
   17487    17282    17223    17234    17301    17413    17493    17525 
   17555    17578    17585    17509    17301    17185    17334    17550 
   17702    17871    18045    18075    17901    17655    17439    17250 
   17150    17159    17238    17393    17579    17747    17884    17838 
   17551    17273    17194    17194    17159    17199    17336    17436 
   17490    17663    18029    18334    18315    18108    17829    17428 
   17069    16962    17054    17181    17397    17743    17874    17604 
   17300    17286    17486    17686    17830    17980    18063    18006 
   17853    17581    17270    17127    17150    17251    17390    17469 
   17464    17425    17417    17482    17482    17332    17180    17188 
   17427    17780    17976    17859    17479    17118    17042    17194 
   17402    17597    17790    17925    17861    17672    17516    17359 
   17154    16942    16814    16884    17170    17502    17744    17915 
   17961    17842    17710    17547    17254    16953    16744    16633 
   16600    16683    16996    17437    17778    17975    18011    17842 
   17618    17591    17690    17544    17135    16865    16956    17304 
   17774    18235    18472    18285    17833    17475    17308    17278 
   17371    17510    17540    17362    17182    17305    17666    17986 
   18088    17933    17533    17015    16702    16781    17181    17699 
   18002    17946    17763    17685    17787    17948    17969    17845 
   17663    17482    17277    17014    16910    17122    17369    17363 
   17196    17188    17513    17972    18260    18272    18094    17817 
   17439    17119    17123    17344    17477    17446    17348    17290 
   17296    17331    17421    17566    17730    17956    18133    18060 
   17871    17716    17386    16846    16463    16571    17095    17651 
   18081    18434    18557    18316    17872    17383    16885    16634 
   16853    17230    17491    17714    17874    17872    17656    17312 
   17086    17062    17193    17436    17639    17678    17635    17628 
   17540    17278    17139    17336    17605    17674    17591    17436 
   17219    17031    16931    16918    17146    17635    18092    18364 
   18503    18436    18049    17502    17200    17311    17582    17726 
   17651    17502    17463    17423    17290    17325    17674    18048 
   18023    17583    17200    17236    17536    17798    17964    18021 
   17837    17433    17088    16893    16669    16465    16509    16827 
   17393    18052    18411    18303    17864    17311    16969    16985 
   17207    17543    17856    17948    17872    17772    17606    17246 
   16796    16567    16578    16663    16996    17594    17960    17833 
   17431    17095    17181    17710    18208    18277    17983    17639 
   17383    17219    17315    17734    18134    18196    17971    17662 
   17356    16942    16476    16420    16919    17497    17848    18075 
   18320    18563    18612    18426    18125    17662    17081    16681 
   16563    16645    16896    17174    17277    17215    17158    17288 
   17720    18166    18131    17701    17442    17609    17953    18096 
   17991    17847    17678    17335    16910    16818    17196    17493 
   17375    17176    17095    17157    17363    17482    17513    17680 
   17869    17967    18044    18048    17999    17825    17298    16679 
   16447    16653    17064    17482    17767    17751    17463    17178 
   17012    16993    17247    17670    17937    17913    17752    17625 
   17464    17165    16839    16623    16622    16907    17381    17926 
   18343    18349    18088    17928    17887    17829    17666    17462 
   17421    17470    17365    17082    16812    16870    17351    17852 
   17999    17928    17826    17686    17606    17721    18076    18526 
   18692    18455    18037    17614    17355    17347    17338    17076 
   16795    16833    17124    17455    17710    17868    17937    17848 
   17664    17572    17604    17672    17567    17217    16972    17074 
   17359    17626    17784    17770    17583    17355    17189    17042 
   16911    16924    17122    17369    17614    17929    18185    18183 
   17986    17676    17274    16992    17003    17236    17518    17594 
   17460    17390    17278    17081    17240    17747    18049    17968 
   17767    17660    17628    17687    17865    17801    17313    16880 
   16706    16676    16989    17486    17645    17497    17379    17400 
   17544    17709    17767    17702    17506    17145    16769    16672 
   16937    17401    17807    17960    18003    18085    18045    17838 
   17513    17086    16783    16754    16920    17138    17217    17240 
   17555    18065    18453    18732    18828    18546    18000    17513 
   17263    17088    16904    17003    17383    17710    17878    17899 
   17848    17802    17608    17277    17058    16984    17012    17157 
   17373    17639    17880    17936    17865    17987    18311    18411 
   18044    17404    16845    16622    16769    17166    17668    18088 
   18191    17805    17142    16721    16846    17432    18042    18215 
   17967    17637    17432    17255    16984    16842    17062    17475 
   17815    18015    18071    17998    17830    17504    17042    16704 
   16553    16441    16484    16989    17896    18613    18661    18323 
   18106    17929    17572    17243    17091    16966    16846    16911 
   17296    17872    18223    18052    17520    17058    16942    17089 
   17312    17610    17938    18107    18087    17913    17581    17259 
   17030    16839    16788    16811    16825    17111    17718    18246 
   18316    18021    17760    17517    17065    16613    16463    16665 
   17147    17653    17942    18165    18397    18283    17676    16864 
   16123    15736    15965    16630    17328    17941    18370    18353 
   17976    17595    17413    17582    18063    18342    18064    17509 
   16997    16529    16127    15994    16302    16923    17558    17988 
   18206    18400    18551    18346    17798    17304    17051    17005 
   17282    17869    18387    18526    18370    18185    18058    17864 
   17567    17250    16958    16768    16883    17413    18065    18430 
   18401    18090    17734    17483    17205    16931    16919    17100 
   17165    17251    17740    18450    18825    18490    17539    16524 
   15962    16027    16587    17244    17621    17763    17933    18145 
   18374    18702    18843    18513    17926    17161    16233    15643 
   15811    16525    17154    17304    17217    17234    17373    17578 
   17811    17995    17988    17640    17065    16656    16711    17247 
   18022    18635    18958    18998    18681    18280    17991    17463 
   16654    15985    15789    16044    16306    16457    16919    17647 
   18162    18384    18589    18796    18801    18647    18338    17759 
   17089    16571    16318    16418    16769    17113    17325    17393 
   17304    17204    17469    18099    18563    18613    18378    18019 
   17814    17794    17702    17496    17188    16798    16552    16653 
   17213    18258    19299    19612    19175    18408    17413    16418 
   15961    16079    16308    16382    16506    17016    17909    18786 
   19205    19147    18936    18638    18048    17238    16572    16189 
   15912    15785    16213    17456    19067    20155    20340    19832 
   18944    18081    17523    17155    16717    16170    15800    15776 
   15948    16299    16927    17814    18825    19560    19585    18947 
   18014    17146    16619    16438    16621    17259    18011    18451 
   18415    17878    17112    16490    16405    16988    17707    18283 
   18666    18354    17278    16013    15191    15400    16475    17577 
   18358    18805    18875    18778    18576    18222    17863    17382 
   16754    16436    16507    16637    16807    17170    17636    17929 
   17972    17973    17853    17235    16205    15360    15325    16276 
   17529    18424    19233    20074    20491    20332    19579    18260 
   16617    14866    13498    13171    14065    15838    17743    19006 
   19388    19098    18472    17743    17043    16451    15900    15519 
   15719    16488    17309    18021    18732    19024    18465    17325 
   16224    15871    16657    18072    19084    19090    18253    17207 
   16617    16590    16702    16866    17212    17278    16741    16397 
   17080    18362    19280    19253    18165    16587    15457    15292 
   16058    17467    19068    20205    20380    19720    18925    18459 
   17982    17231    16656    16544    16735    17138    17739    18303 
   18480    18314    18123    17821    17132    16270    15804    16120 
   16954    17813    18698    19629    20137    20031    19526    18495 
   16814    15091    13871    13176    13378    14899    17174    19087 
   20171    20617    20228    18855    17540    17180    17491    18053 
   18478    18314    17532    16389    15171    14202    13875    14725 
   16856    19278    20672    20683    19926    19006    18030    17005 
   15974    15002    14505    14828    15655    16667    18135    19885 
   20814    20483    19685    18932    17976    16818    15854    15376 
   15583    16383    17296    17991    18555    18922    18667    17656 
   16418    15909    16760    18382    19650    19973    19190    17726 
   16525    15865    15373    15336    16368    18054    19492    20514 
   21288    21644    21163    19461    16889    14635    13397    12906 
   13103    14328    16370    18607    20814    22771    23633    22765 
   20449    17108    13518    11418    11773    13724    16191    18747 
   20784    21265    20050    18481    17826    18175    18540    17772 
   16345    15678    16006    16970    17996    18030    17132    16255 
   15587    15423    16467    18307    19629    19581    18258    16476 
   15263    15105    15607    16305    17250    18380    19124    18944 
   18288    18169    18380    17865    16718    15934    15677    15449 
   15722    17257    19219    20252    20232    19645    18544    16864 
   15132    13979    13575    14041    15318    16934    18472    19759 
   20637    21026    21028    20518    19242    17320    15068    13093 
   12484    14018    17282    20729    22825    23043    21520    18883 
   16312    14611    13730    13308    13406    14586    16644    18638 
   20507    22260    22744    21209    18388    15514    13479    13003 
   14455    16810    18365    18854    18948    18870    18754    18616 
   18135    17290    16552    16281    16110    15813    16317    18122 
   19993    20468    19403    17658    16146    15406    15403    15822 
   16463    16920    17037    17370    18156    19110    19697    19026 
   17215    15651    14902    14638    15060    16102    16984    17532 
   17917    17925    17618    17464    17702    17984    17807    17462 
   17726    18635    19295    18854    17539    16279    15411    15047 
   15803    17729    19741    20804    20898    20540    20088    19638 
   18885    17491    15965    15047    14744    14936    15491    15975 
   16429    17016    17398    17680    18362    19462    20571    21077 
   20596    19157    17215    15715    15241    15566    16285    17174 
   18277    19562    20409    20344    19863    19430    18476    16533 
   14257    12461    11518    11951    14130    17334    20240    22106 
   22770    22275    21151    19992    18881    17898    16966    15793 
   14638    13784    13119    12861    13414    14935    17374    20119 
   22099    22601    21551    19589    17537    15674    14447    14377 
   14862    15138    15614    16779    18241    19535    20464    20812 
   20727    20463    19777    18210    15516    12271     9801     9035 
   10353    13848    18908    24052    27287    27658    26048    23121 
   18913    14480    11164     9402     9236    10543    13085    16517 
   19881    22222    23626    24155    23124    20637    17786    15368 
   13906    13809    14856    16222    17122    17599    18268    19086 
   19553    19897    20502    20857    20386    19076    16887    14029 
   11666    11065    12387    14895    17867    20571    22129    22364 
   21770    20484    18594    16497    14364    12714    12557    13910 
   15924    18110    19955    20737    20004    17905    15622    14251 
   14053    15558    18535    21088    21909    21128    19251    17108 
   15692    15360    15739    16191    16221    15768    15295    15476 
   16775    19156    21658    22727    21702    19542    17648    16451 
   15699    15210    14679    14072    14357    16209    18727    20730 
   21775    21554    20142    18453    17447    17232    17089    16533 
   15828    15094    14358    14303    15448    17551    20310    23152 
   24678    23788    21223    18751    16784    14681    13012    12901 
   13990    15183    16133    17023    17952    18743    19180    19388 
   19461    19284    18986    18692    18272    17628    16735    15777 
   15205    15315    16082    16981    17379    17639    18125    17963 
   16794    15499    14655    14685    16268    19037    21396    22153 
   21296    19503    17377    15171    13562    13328    14089    15044 
   15909    16586    17257    18216    19396    20497    21031    20713 
   19724    18130    16428    15973    16995    18013    17956    16973 
   15649    14470    13730    13806    14882    16401    17828    19384 
   21163    22534    22917    22260    20572    18150    16024    15068 
   15134    15664    16236    16263    15449    14546    14543    15574 
   17277    19192    20436    20191    18824    17724    17860    18879 
   19884    20456    20212    18688    16617    15604    15938    16432 
   16312    15831    15425    15228    15367    15936    16717    17442 
   17965    18112    17973    18235    19499    21258    22422    22535 
   21475    18920    15430    12582    11263    11458    13012    15415 
   17753    19291    19984    20106    19461    17875    15938    14264 
   13208    13464    15295    17599    18939    18985    18480    18040 
   17702    17640    18054    18558    18789    18732    18257    17253 
   15904    14759    14530    15396    16981    18756    19908    20055 
   19893    19707    18897    17473    16174    15377    14944    14851 
   15203    15907    16947    18547    20591    22094    22162    20979 
   19080    17000    15468    14997    15646    16933    18273    19430 
   19796    18949    17848    17328    17077    16991    17244    17409 
   17092    16634    16498    16802    17668    18873    19460    18894 
   17701    16407    15132    14364    14933    16875    19080    20537 
   21088    20875    20024    18809    17540    16224    14848    13959 
   13950    14443    15367    17082    19157    20646    21076    20601 
   19657    18540    17547    17062    16902    16480    15793    15300 
   15349    16239    17834    19161    19467    18970    18172    17381 
   16843    16627    16519    16197    15622    15485    16492    18212 
   19669    20378    20213    19305    18029    16710    15604    14960 
   14906    15238    15620    16320    17652    18875    19224    19136 
   19148    18904    17996    16935    16634    17085    17705    18468 
   19201    19253    18490    17246    15832    14824    14929    16127 
   17554    18569    19202    19392    18806    17691    16951    17011 
   17401    17536    17127    16457    16313    17073    18360    19529 
   20125    20028    19218    17806    16390    15507    15106    15056 
   15403    16029    16789    17728    18697    19317    19541    19593 
   19510    19184    18544    17716    17014    16393    15525    14459 
   13659    13697    14675    16016    17663    20097    22696    24219 
   24306    23206    21099    18034    14532    11770    10639    11480 
   13941    16607    18292    19082    19491    19661    19292    18270 
   17300    17062    17451    18072    18515    18601    18624    18596 
   17965    16607    15376    15195    15950    17011    17987    18542 
   18731    18900    18723    17648    16074    14925    14570    14999 
   16424    18740    20904    21655    20934    19935    19352    18712 
   17728    16652    15519    14416    13798    13892    14481    15508 
   17095    18742    19776    20341    20682    20372    19218    17639 
   15955    14420    13497    13663    15229    17857    20393    21803 
   21791    20532    18509    16239    14002    12316    12036    13332 
   15385    17436    19265    20804    21772    21670    20325    18184 
   15862    13914    12955    13432    15020    16582    17388    17725 
   17976    18461    19468    20529    20925    20397    18959    17112 
   15516    14388    13786    13587    13702    14801    17328    20281 
   22357    23303    23431    22592    20457    17591    15114    13527 
   12719    12700    13521    14910    16710    18904    20734    21335 
   21007    20402    19321    17419    15217    13651    13186    13711 
   14831    16151    17500    18856    20117    20969    21154    20864 
   20182    18756    16838    15387    14949    15460    16475    17262 
   17394    17091    16846    17005    17512    18114    18667    18867 
   18489    18034    17907    17853    17901    18324    18813    18825 
   18265    17381    16387    15429    14910    15342    16506    17612 
   18418    19053    19279    19005    18585    18196    17906    17716 
   17317    16730    16534    16893    17377    17764    17953    17609 
   16811    16182    16028    16274    16879    17641    18176    18300 
   18189    18145    18171    18102    17948    17544    16787    16214 
