Origin Time       2024/04/02 04:24:00
Lat.              40.133
Long.             141.712
Depth. (km)       71
Mag.              6.0
Station Code      IBR018
Station Lat.      35.9766
Station Long.     140.6306
Station Height(m) 39
Record Time       2024/04/02 04:26:28
Sampling Freq(Hz) 100Hz
Duration Time(s)  60
Dir.              N-S
Scale Factor      7845(gal)/8223790
Max. Acc. (gal)   2.519
Last Correction   2024/04/02 04:26:28
Memo.             
[...]
   -2246    -2293    -2231    -2137    -2053    -1950    -1900    -1976 
   -2069    -2080    -2061    -2007    -1848    -1614    -1408    -1290 
   -1313    -1478    -1675    -1829    -1919    -1877    -1734    -1651 
   -1665    -1696    -1706    -1710    -1741    -1760    -1719    -1683 
   -1733    -1802    -1773    -1642    -1501    -1426    -1425    -1502 
   -1688    -1906    -1962    -1800    -1601    -1521    -1559    -1674 
   -1833    -1984    -2062    -2052    -2025    -2008    -1923    -1794 
   -1756    -1817    -1885    -1956    -2049    -2089    -2041    -2033 
   -2119    -2177    -2142    -2057    -1956    -1849    -1733    -1637 
   -1647    -1730    -1742    -1653    -1587    -1603    -1660    -1709 
   -1709    -1698    -1773    -1917    -2022    -2069    -2034    -1894 
   -1759    -1718    -1688    -1595    -1494    -1455    -1507    -1636 
   -1777    -1907    -2039    -2123    -2122    -2096    -2060    -1941 
   -1794    -1773    -1844    -1876    -1917    -1993    -1995    -1908 
   -1804    -1633    -1422    -1410    -1647    -1823    -1768    -1707 
   -1776    -1822    -1804    -1802    -1752    -1640    -1597    -1651 
   -1723    -1777    -1834    -1894    -1877    -1768    -1699    -1730 
   -1760    -1738    -1715    -1707    -1707    -1794    -1985    -2133 
   -2114    -2007    -1958    -1946    -1827    -1665    -1647    -1730 
   -1753    -1714    -1699    -1687    -1637    -1667    -1833    -1971 
   -2046    -2137    -2119    -1933    -1765    -1760    -1844    -1810 
   -1660    -1638    -1744    -1753    -1729    -1864    -2050    -2053 
   -1900    -1763    -1679    -1626    -1655    -1744    -1782    -1803 
   -1907    -1945    -1803    -1721    -1806    -1892    -1929    -1954 
   -1969    -1899    -1671    -1506    -1603    -1772    -1854    -1918 
   -1981    -2004    -1972    -1868    -1729    -1579    -1439    -1448 
   -1661    -1898    -2029    -2047    -1966    -1911    -1985    -2112 
   -2204    -2201    -2084    -1939    -1764    -1507    -1352    -1425 
   -1564    -1668    -1776    -1826    -1717    -1470    -1279    -1363 
   -1657    -1910    -2092    -2253    -2307    -2176    -1848    -1445 
   -1264    -1387    -1630    -1860    -1988    -1992    -1937    -1841 
   -1729    -1692    -1782    -1941    -2041    -2018    -1935    -1864 
   -1860    -1911    -1934    -1937    -1981    -2026    -2029    -1998 
   -1931    -1869    -1858    -1869    -1883    -1881    -1809    -1683 
   -1563    -1475    -1448    -1470    -1475    -1552    -1818    -2016 
   -1860    -1583    -1547    -1672    -1714    -1672    -1737    -1985 
   -2238    -2295    -2174    -2015    -1899    -1819    -1760    -1783 
   -1900    -2029    -2120    -2134    -2008    -1817    -1738    -1795 
   -1869    -1919    -1950    -1934    -1925    -1988    -2039    -2029 
   -2031    -2034    -1929    -1718    -1560    -1539    -1598    -1661 
   -1675    -1605    -1502    -1463    -1501    -1587    -1741    -1926 
   -2065    -2169    -2220    -2166    -2034    -1829    -1652    -1729 
   -1938    -1972    -1914    -1938    -1966    -1903    -1784    -1728 
   -1791    -1844    -1784    -1688    -1584    -1470    -1441    -1529 
   -1614    -1656    -1741    -1885    -1987    -1965    -1864    -1765 
   -1696    -1667    -1653    -1664    -1765    -1915    -1979    -1954 
   -1929    -1867    -1682    -1456    -1358    -1386    -1467    -1583 
   -1683    -1737    -1794    -1890    -2043    -2177    -2143    -1988 
   -1829    -1678    -1606    -1642    -1647    -1625    -1703    -1787 
   -1706    -1561    -1525    -1583    -1692    -1850    -2031    -2176 
   -2223    -2142    -1977    -1852    -1821    -1794    -1729    -1710 
   -1775    -1895    -2015    -2050    -2003    -2000    -2064    -2058 
   -1933    -1831    -1858    -1922    -1918    -1850    -1799    -1806 
   -1830    -1817    -1815    -1917    -2074    -2134    -2056    -1984 
   -1993    -1958    -1823    -1717    -1714    -1769    -1844    -1873 
   -1814    -1757    -1807    -1926    -2026    -2061    -2034    -2025 
   -2084    -2120    -1985    -1705    -1470    -1410    -1494    -1529 
   -1440    -1452    -1665    -1846    -1904    -1976    -2049    -2031 
   -1935    -1786    -1645    -1649    -1775    -1809    -1706    -1634 
   -1584    -1441    -1316    -1352    -1494    -1601    -1613    -1601 
   -1620    -1614    -1593    -1587    -1534    -1471    -1540    -1736 
   -1927    -2030    -2002    -1861    -1714    -1647    -1634    -1602 
   -1575    -1668    -1869    -2019    -2065    -2124    -2203    -2112 
   -1800    -1520    -1453    -1513    -1588    -1667    -1733    -1831 
   -2046    -2238    -2212    -2089    -2074    -2151    -2188    -2095 
   -1957    -1900    -1838    -1755    -1854    -2128    -2292    -2174 
   -1923    -1818    -1902    -1944    -1838    -1748    -1782    -1811 
   -1756    -1744    -1856    -2011    -2110    -2076    -1914    -1755 
   -1711    -1753    -1776    -1804    -1906    -1969    -1906    -1854 
   -1879    -1833    -1674    -1521    -1468    -1533    -1626    -1629 
   -1605    -1663    -1733    -1771    -1813    -1806    -1702    -1578 
   -1548    -1586    -1605    -1690    -1906    -2050    -1966    -1775 
   -1578    -1416    -1431    -1615    -1757    -1773    -1737    -1679 
   -1638    -1661    -1711    -1810    -2019    -2180    -2114    -1944 
   -1844    -1772    -1706    -1742    -1869    -1937    -1945    -1980 
   -1938    -1771    -1709    -1845    -2003    -2114    -2214    -2255 
   -2193    -2103    -2103    -2153    -2079    -1853    -1634    -1532 
   -1518    -1514    -1495    -1516    -1545    -1561    -1656    -1821 
   -1899    -1788    -1566    -1433    -1468    -1578    -1723    -1906 
   -1989    -1915    -1873    -1941    -1972    -1953    -1969    -1968 
   -1880    -1771    -1759    -1822    -1776    -1602    -1552    -1709 
   -1853    -1903    -1958    -2000    -1946    -1837    -1802    -1821 
   -1772    -1691    -1676    -1686    -1707    -1804    -1895    -1871 
   -1792    -1745    -1759    -1845    -1907    -1834    -1710    -1698 
   -1776    -1803    -1765    -1736    -1734    -1769    -1827    -1860 
   -1872    -1895    -1872    -1826    -1861    -1896    -1826    -1752 
   -1752    -1788    -1845    -1911    -1945    -1894    -1788    -1780 
   -1912    -2035    -2041    -2007    -2066    -2197    -2236    -2146 
   -2007    -1830    -1674    -1657    -1745    -1823    -1888    -1961 
   -1988    -1919    -1786    -1653    -1588    -1660    -1811    -1896 
   -1892    -1858    -1826    -1823    -1810    -1752    -1767    -1863 
   -1885    -1830    -1782    -1744    -1753    -1813    -1838    -1826 
   -1856    -1942    -1972    -1875    -1799    -1830    -1795    -1695 
   -1721    -1803    -1748    -1586    -1497    -1549    -1622    -1664 
   -1795    -1993    -2100    -2080    -2000    -1919    -1868    -1810 
   -1706    -1617    -1649    -1798    -1895    -1821    -1722    -1767 
   -1830    -1798    -1796    -1853    -1844    -1794    -1779    -1788 
   -1806    -1849    -1934    -1987    -1903    -1780    -1818    -1988 
   -2068    -1956    -1769    -1606    -1509    -1599    -1875    -2061 
   -2053    -2058    -2097    -2011    -1830    -1672    -1628    -1734 
   -1863    -1904    -1925    -1918    -1869    -1888    -1934    -1844 
   -1717    -1737    -1815    -1829    -1819    -1850    -1939    -2019 
   -1996    -1902    -1813    -1721    -1641    -1629    -1694    -1776 
   -1796    -1761    -1749    -1761    -1726    -1642    -1610    -1653 
   -1663    -1595    -1510    -1470    -1533    -1690    -1823    -1852 
   -1838    -1830    -1776    -1696    -1710    -1791    -1850    -1910 
   -1919    -1776    -1622    -1617    -1653    -1648    -1669    -1713 
   -1744    -1765    -1752    -1756    -1831    -1848    -1786    -1806 
   -1906    -1987    -2049    -2108    -2189    -2293    -2284    -2110 
   -1980    -2012    -2050    -1958    -1764    -1601    -1586    -1624 
   -1576    -1509    -1543    -1719    -1933    -1949    -1803    -1738 
   -1782    -1876    -1964    -1917    -1840    -1907    -1981    -1949 
   -1880    -1783    -1718    -1742    -1723    -1659    -1649    -1618 
   -1520    -1458    -1498    -1629    -1760    -1815    -1845    -1841 
   -1734    -1630    -1637    -1653    -1588    -1485    -1439    -1493 
   -1629    -1807    -1935    -1961    -1945    -1907    -1831    -1765 
   -1709    -1669    -1752    -1941    -2087    -2139    -2143    -2080 
   -1922    -1761    -1741    -1836    -1856    -1722    -1593    -1582 
   -1624    -1695    -1764    -1730    -1669    -1769    -1992    -2110 
   -2049    -1906    -1768    -1691    -1638    -1572    -1583    -1699 
   -1903    -2200    -2370    -2242    -2095    -2162    -2211    -2033 
   -1779    -1614    -1574    -1692    -1898    -1965    -1872    -1810 
   -1854    -1923    -1898    -1814    -1819    -1902    -1962    -1999 
   -2012    -1964    -1863    -1795    -1826    -1881    -1890    -1896 
   -1912    -1876    -1780    -1701    -1711    -1783    -1826    -1833 
   -1831    -1815    -1806    -1836    -1849    -1779    -1671    -1599 
   -1529    -1479    -1598    -1842    -1937    -1833    -1796    -1922 
   -1991    -1888    -1773    -1795    -1898    -1966    -1969    -1919 
   -1802    -1657    -1594    -1648    -1806    -2037    -2151    -1991 
   -1745    -1636    -1566    -1443    -1437    -1651    -1895    -1972 
   -1885    -1817    -1888    -1930    -1775    -1591    -1607    -1794 
   -1961    -2007    -2030    -2124    -2119    -1880    -1606    -1472 
   -1405    -1327    -1290    -1378    -1561    -1696    -1702    -1660 
   -1667    -1726    -1769    -1765    -1821    -1987    -2110    -2093 
   -2019    -1965    -1987    -2033    -1985    -1910    -1899    -1850 
   -1772    -1806    -1904    -1937    -1861    -1719    -1622    -1599 
   -1614    -1763    -2070    -2253    -2068    -1763    -1721    -1821 
   -1765    -1671    -1730    -1887    -2043    -2122    -2061    -1957 
   -1946    -1962    -1892    -1830    -1850    -1849    -1825    -1833 
   -1786    -1687    -1669    -1755    -1854    -1896    -1906    -1960 
   -1987    -1954    -2006    -2073    -1977    -1791    -1668    -1626 
   -1584    -1568    -1722    -1954    -2038    -2049    -2079    -1958 
   -1688    -1471    -1364    -1417    -1629    -1761    -1695    -1583 
   -1522    -1487    -1401    -1282    -1336    -1630    -1946    -2111 
   -2143    -2100    -1993    -1860    -1787    -1750    -1618    -1489 
   -1574    -1807    -1976    -2020    -1992    -1895    -1746    -1691 
   -1804    -1969    -2039    -1956    -1803    -1741    -1741    -1684 
   -1652    -1744    -1890    -1996    -1971    -1819    -1714    -1695 
   -1651    -1590    -1566    -1590    -1694    -1814    -1892    -2018 
   -2133    -2135    -2118    -2072    -1911    -1757    -1698    -1740 
   -1958    -2232    -2285    -2126    -1987    -1964    -1950    -1845 
   -1773    -1921    -2116    -2034    -1760    -1618    -1599    -1525 
   -1498    -1661    -1873    -1942    -1867    -1767    -1721    -1713 
   -1698    -1664    -1625    -1624    -1706    -1794    -1804    -1827 
   -1872    -1753    -1601    -1717    -1965    -2084    -2124    -2146 
   -2111    -2011    -1881    -1800    -1736    -1628    -1678    -2006 
   -2290    -2250    -2054    -1961    -1918    -1740    -1487    -1390 
   -1549    -1879    -2154    -2219    -2169    -2111    -1976    -1803 
   -1759    -1830    -1890    -1848    -1715    -1602    -1522    -1405 
   -1355    -1439    -1510    -1539    -1644    -1814    -1933    -1957 
   -1922    -1921    -2047    -2247    -2358    -2312    -2180    -2003 
   -1760    -1509    -1399    -1525    -1745    -1769    -1509    -1174 
    -966     -978    -1254    -1702    -2096    -2308    -2296    -2045 
   -1726    -1522    -1417    -1439    -1691    -2079    -2403    -2609 
   -2670    -2509    -2188    -1860    -1594    -1420    -1368    -1421 
   -1532    -1637    -1674    -1647    -1595    -1598    -1763    -2031 
   -2197    -2219    -2208    -2207    -2215    -2236    -2265    -2313 
   -2346    -2296    -2222    -2111    -1834    -1480    -1250    -1139 
   -1077    -1054    -1156    -1534    -2099    -2471    -2459    -2281 
   -2238    -2339    -2382    -2297    -2142    -1944    -1780    -1687 
   -1539    -1310    -1228    -1433    -1788    -2093    -2235    -2123 
   -1721    -1232     -986    -1088    -1372    -1675    -1987    -2323 
   -2610    -2718    -2482    -1942    -1482    -1316    -1274    -1202 
   -1113    -1062    -1094    -1148    -1173    -1291    -1549    -1746 
   -1767    -1698    -1564    -1395    -1391    -1638    -1980    -2241 
   -2328    -2303    -2272    -2068    -1532     -953     -684     -683 
    -774    -1011    -1433    -1823    -2010    -2097    -2168    -2197 
   -2234    -2380    -2713    -3083    -3110    -2660    -1900    -1015 
    -319     -226     -747    -1534    -2300    -2851    -3006    -2745 
   -2316    -2026    -1864    -1628    -1354    -1163     -996     -911 
   -1148    -1686    -2266    -2744    -3022    -2963    -2547    -1922 
   -1333    -1009     -976    -1123    -1339    -1509    -1709    -2107 
   -2533    -2741    -2778    -2694    -2498    -2270    -2007    -1688 
   -1441    -1406    -1615    -1949    -2223    -2408    -2484    -2304 
   -1900    -1468    -1042     -608     -342     -415     -788    -1289 
   -1692    -1871    -2014    -2371    -2899    -3375    -3524    -3100 
   -2209    -1228     -333      442      827      507     -433    -1552 
   -2431    -2911    -3111    -3227    -3241    -2961    -2344    -1656 
   -1189     -918     -756     -799    -1058    -1362    -1629    -1926 
   -2261    -2524    -2648    -2689    -2624    -2212    -1409     -673 
    -526    -1017    -1772    -2420    -2872    -3109    -3072    -2867 
   -2521    -1925    -1306    -1012     -996    -1156    -1501    -1796 
   -1819    -1694    -1594    -1456    -1281    -1239    -1286    -1251 
   -1098     -807     -558     -805    -1610    -2517    -3176    -3516 
   -3582    -3530    -3472    -3318    -2986    -2532    -1977    -1358 
    -842     -502     -324     -383     -715    -1277    -1950    -2423 
   -2494    -2381    -2380    -2550    -2875    -3338    -3721    -3782 
   -3570    -3169    -2596    -2066    -1728    -1379     -920     -638 
    -712     -873     -930    -1070    -1370    -1555    -1408    -1127 
   -1090    -1362    -1647    -1675    -1528    -1544    -1863    -2317 
   -2794    -3203    -3337    -3181    -2783    -2054    -1232     -681 
    -360     -184     -232     -492     -978    -1687    -2380    -2756 
   -2705    -2389    -2069    -1752    -1393    -1313    -1819    -2602 
   -2955    -2628    -2080    -1674    -1386    -1332    -1575    -1833 
   -1850    -1537    -1031     -718     -770    -1078    -1549    -2029 
   -2431    -2791    -2826    -2285    -1659    -1559    -1814    -1968 
   -2146    -2666    -3227    -3169    -2354    -1254     -367      103 
     187       -5     -353     -796    -1309    -1695    -1817    -1945 
   -2251    -2454    -2258    -1684    -1098     -981    -1399    -1900 
   -2025    -1771    -1486    -1444    -1675    -2046    -2421    -2832 
   -3288    -3472    -3071    -2243    -1483    -1154    -1242    -1544 
   -1929    -2373    -2743    -2678    -2003    -1107     -587     -598 
    -822    -1077    -1536    -2238    -2941    -3451    -3669    -3514 
   -3100    -2689    -2284    -1676     -838      -17      473      479 
      52     -685    -1540    -2227    -2590    -2655    -2457    -2045 
   -1637    -1525    -1723    -1896    -1846    -1836    -2107    -2467 
   -2609    -2457    -2120    -1683    -1148     -727     -785    -1332 
   -1989    -2415    -2500    -2286    -1983    -1813    -1679    -1397 
   -1109    -1016    -1152    -1474    -1772    -1922    -2185    -2748 
   -3277    -3387    -3063    -2467    -1872    -1644    -1800    -1981 
   -1926    -1614    -1247    -1132    -1290    -1453    -1571    -1807 
   -2199    -2617    -2863    -2863    -2647    -2097    -1212     -422 
    -141     -357     -858    -1455    -1966    -2307    -2509    -2625 
   -2709    -2810    -2872    -2722    -2230    -1495     -803     -440 
    -673    -1618    -2809    -3341    -2913    -2099    -1416     -997 
    -899     -943     -935    -1048    -1405    -1829    -2239    -2641 
   -2853    -2639    -2103    -1705    -1695    -1795    -1663    -1532 
   -1988    -2978    -3645    -3403    -2478    -1472     -913     -868 
    -912     -774     -749    -1112    -1574    -1806    -1931    -2104 
   -2230    -2204    -2023    -1783    -1698    -1807    -1906    -2023 
   -2215    -2049    -1323     -568     -251     -429    -1009    -1630 
   -1900    -1845    -1802    -2014    -2311    -2424    -2385    -2254 
   -2053    -1958    -1912    -1690    -1464    -1503    -1723    -2050 
   -2469    -2718    -2629    -2262    -1621    -1000     -862    -1112 
   -1530    -2239    -3149    -3812    -3893    -3472    -2851    -2141 
   -1412     -904     -774    -1031    -1520    -1964    -2309    -2620 
   -2848    -2933    -2671    -1987    -1379    -1225    -1255    -1267 
   -1431    -1707    -1804    -1621    -1223     -766     -598     -919 
   -1476    -1987    -2525    -3100    -3268    -2740    -2038    -1836 
   -2043    -2124    -1815    -1221     -648     -456     -770    -1283 
   -1543    -1501    -1507    -1668    -1691    -1471    -1194     -959 
    -787     -718     -789    -1026    -1395    -1853    -2308    -2547 
   -2481    -2162    -1574     -984     -911    -1395    -2003    -2411 
   -2670    -2907    -2995    -2704    -2007    -1147     -585     -638 
   -1075    -1467    -1626    -1478    -1040     -621     -630    -1213 
   -2106    -2884    -3372    -3581    -3447    -2949    -2174    -1269 
    -589     -483     -864    -1367    -1683    -1836    -2150    -2612 
   -2860    -2863    -2728    -2420    -2034    -1626    -1232    -1228 
   -1810    -2516    -2878    -2983    -3082    -3109    -2867    -2396 
   -2002    -1929    -2004    -1845    -1379     -967     -938    -1090 
   -1105    -1116    -1343    -1750    -2216    -2558    -2740    -2879 
   -2816    -2336    -1649    -1144     -950     -959    -1173    -1553 
   -1779    -1759    -1718    -1624    -1410    -1264    -1228    -1123 
    -904     -785     -889    -1039    -1105    -1167    -1239    -1364 
   -1653    -1930    -1944    -1783    -1710    -1780    -1868    -2002 
   -2299    -2551    -2378    -1728     -895     -359     -373     -611 
    -776    -1116    -1733    -2274    -2552    -2667    -2701    -2794 
   -3078    -3296    -3060    -2489    -2062    -1968    -1987    -1949 
   -1890    -1827    -1675    -1433    -1385    -1705    -2012    -1883 
   -1437    -1088    -1135    -1582    -2115    -2454    -2648    -2856 
   -2949    -2627    -2061    -1764    -1760    -1783    -1819    -1803 
   -1696    -1749    -2004    -2141    -2020    -1713    -1231     -850 
    -981    -1490    -1935    -2184    -2216    -1985    -1653    -1443 
   -1387    -1428    -1495    -1563    -1764    -2164    -2490    -2513 
   -2322    -1926    -1301     -783     -714     -980    -1224    -1297 
   -1414    -1765    -2080    -2054    -1800    -1524    -1327    -1382 
   -1714    -2030    -2145    -2158    -2141    -2166    -2257    -2246 
