Origin Time       2024/04/02 04:24:00
Lat.              40.133
Long.             141.712
Depth. (km)       71
Mag.              6.0
Station Code      IBR018
Station Lat.      35.9766
Station Long.     140.6306
Station Height(m) 39
Record Time       2024/04/02 04:26:28
Sampling Freq(Hz) 100Hz
Duration Time(s)  60
Dir.              U-D
Scale Factor      7845(gal)/8223790
Max. Acc. (gal)   1.091
Last Correction   2024/04/02 04:26:28
Memo.             
[...]
   20614    20730    20848    20864    20742    20614    20655    20752 
   20632    20414    20383    20416    20437    20626    20811    20764 
   20731    20852    20831    20513    20221    20266    20439    20484 
   20521    20650    20752    20696    20582    20606    20714    20730 
   20714    20817    20953    20977    20970    20933    20718    20486 
   20443    20457    20470    20569    20699    20758    20784    20877 
   20938    20796    20598    20565    20653    20664    20486    20337 
   20452    20629    20656    20630    20629    20606    20605    20660 
   20623    20448    20366    20499    20713    20887    20906    20729 
   20555    20514    20503    20475    20467    20540    20788    21061 
   21003    20628    20349    20405    20540    20463    20332    20449 
   20725    20887    20848    20669    20509    20533    20702    20765 
   20629    20495    20503    20629    20810    20860    20679    20529 
   20572    20675    20730    20671    20490    20353    20394    20552 
   20626    20575    20621    20788    20758    20517    20471    20684 
   20799    20729    20650    20587    20603    20802    20919    20699 
   20406    20375    20552    20683    20671    20672    20763    20695 
   20379    20162    20310    20671    20935    21003    21007    21006 
   20858    20598    20451    20375    20233    20227    20488    20763 
   20825    20714    20559    20486    20537    20630    20738    20798 
   20682    20541    20559    20565    20463    20470    20607    20613 
   20480    20460    20591    20799    20995    20926    20599    20421 
   20521    20660    20718    20636    20428    20453    20848    21103 
   20964    20726    20556    20453    20421    20376    20405    20630 
   20783    20655    20559    20726    20920    20933    20815    20640 
   20503    20534    20691    20780    20710    20582    20544    20633 
   20769    20841    20790    20700    20648    20594    20559    20650 
   20811    20883    20825    20655    20470    20488    20684    20810 
   20777    20567    20329    20453    20825    20914    20695    20457 
   20316    20372    20582    20660    20569    20528    20544    20565 
   20690    20873    20934    20833    20618    20436    20533    20788 
   20785    20560    20498    20642    20780    20810    20734    20618 
   20547    20529    20538    20564    20572    20511    20370    20291 
   20476    20833    21041    20956    20692    20502    20538    20613 
   20518    20416    20444    20428    20314    20298    20416    20572 
   20771    20898    20826    20763    20815    20756    20580    20517 
   20502    20449    20568    20899    21097    20964    20744    20656 
   20583    20459    20363    20281    20286    20479    20603    20536 
   20645    20937    20957    20775    20738    20725    20607    20569 
   20628    20661    20668    20617    20545    20599    20692    20652 
   20575    20483    20298    20232    20380    20483    20501    20549 
   20592    20703    20877    20858    20660    20571    20646    20727 
   20669    20436    20205    20236    20443    20561    20688    20966 
   21186    21243    21188    20923    20572    20452    20507    20484 
   20461    20619    20827    20830    20637    20478    20468    20529 
   20632    20781    20834    20729    20621    20569    20533    20592 
   20700    20637    20505    20590    20842    21001    20899    20579 
   20383    20495    20634    20609    20625    20749    20745    20595 
   20537    20610    20696    20750    20821    20896    20803    20555 
   20472    20567    20556    20448    20428    20522    20660    20780 
   20857    20833    20684    20611    20790    21008    20947    20673 
   20472    20406    20405    20460    20557    20610    20610    20696 
   20827    20737    20464    20359    20557    20883    21099    21093 
   20956    20858    20803    20673    20487    20318    20231    20443 
   20904    21101    20912    20761    20721    20532    20295    20271 
   20380    20428    20407    20437    20584    20760    20812    20777 
   20784    20754    20641    20626    20695    20596    20402    20363 
   20406    20456    20704    21064    21053    20622    20385    20568 
   20706    20636    20623    20672    20645    20574    20532    20561 
   20629    20688    20775    20869    20914    20899    20773    20537 
   20306    20185    20245    20521    20871    21061    21118    21103 
   20772    20274    20223    20511    20588    20541    20672    20845 
   20872    20829    20776    20594    20308    20187    20379    20663 
   20688    20428    20204    20193    20320    20499    20623    20611 
   20571    20657    20812    20769    20416    20121    20308    20781 
   21030    20984    20868    20752    20617    20520    20621    20922 
   21019    20723    20417    20317    20279    20314    20471    20582 
   20632    20803    21058    21178    21057    20683    20236    20110 
   20366    20545    20437    20393    20601    20807    20875    20911 
   20942    20914    20815    20682    20568    20466    20412    20537 
   20795    20879    20717    20663    20850    20954    20798    20471 
   20167    20182    20555    20903    20984    20910    20798    20699 
   20619    20507    20395    20352    20476    20822    21131    21123 
   20922    20754    20617    20472    20389    20355    20328    20387 
   20582    20746    20768    20779    20814    20731    20563    20490 
   20563    20626    20505    20285    20231    20382    20568    20704 
   20800    20794    20652    20553    20579    20505    20356    20414 
   20598    20680    20723    20765    20750    20758    20811    20725 
   20507    20433    20591    20734    20676    20548    20568    20673 
   20682    20621    20565    20557    20703    20904    20912    20760 
   20614    20503    20544    20768    20849    20704    20673    20723 
   20669    20738    20908    20830    20610    20569    20665    20734 
   20758    20745    20669    20576    20560    20602    20560    20416 
   20382    20537    20664    20650    20587    20538    20569    20644 
   20665    20754    20938    20880    20532    20337    20440    20563 
   20621    20690    20707    20649    20596    20572    20549    20520 
   20494    20460    20440    20506    20605    20622    20586    20559 
   20557    20588    20582    20495    20451    20537    20667    20714 
   20626    20556    20757    21058    21039    20823    20783    20872 
   20873    20684    20374    20286    20559    20775    20645    20503 
   20613    20741    20684    20545    20444    20406    20445    20529 
   20601    20675    20783    20848    20822    20792    20761    20679 
   20668    20808    20934    20910    20779    20645    20584    20598 
   20692    20802    20785    20706    20668    20549    20344    20289 
   20453    20687    20854    20910    20852    20803    20877    20860 
   20598    20401    20440    20464    20437    20580    20845    20929 
   20699    20395    20340    20520    20683    20733    20741    20775 
   20821    20756    20552    20359    20281    20382    20649    20845 
   20794    20703    20799    20881    20661    20283    20079    20143 
   20416    20725    20760    20471    20244    20394    20808    21062 
   20846    20437    20310    20457    20615    20687    20645    20619 
   20825    21045    20865    20406    20169    20348    20682    20825 
   20738    20700    20831    20875    20699    20530    20533    20642 
   20744    20768    20700    20590    20493    20386    20301    20433 
   20713    20761    20556    20467    20619    20815    20888    20858 
   20827    20756    20563    20343    20227    20220    20314    20545 
   20798    20873    20812    20802    20803    20669    20514    20561 
   20776    20889    20740    20472    20301    20263    20401    20710 
   20965    21024    20952    20749    20434    20233    20306    20478 
   20551    20657    20919    21150    21136    20853    20491    20306 
   20297    20331    20439    20700    21043    21261    21159    20784 
   20490    20444    20379    20241    20283    20467    20602    20669 
   20699    20779    20952    20968    20690    20457    20522    20590 
   20429    20274    20363    20610    20726    20586    20482    20628 
   20790    20788    20741    20679    20569    20586    20771    20868 
   20865    20934    20838    20414    20089    20174    20467    20738 
   20831    20717    20660    20792    20860    20741    20579    20414 
   20305    20447    20725    20780    20718    20902    21139    21006 
   20659    20549    20649    20574    20324    20320    20640    20857 
   20784    20746    20902    20956    20784    20582    20410    20279 
   20291    20358    20413    20603    20868    21008    21050    20992 
   20753    20544    20636    20783    20629    20420    20499    20684 
   20768    20845    20842    20576    20229    20142    20331    20509 
   20521    20537    20699    20844    20738    20471    20347    20432 
   20548    20632    20707    20773    20872    20953    20842    20525 
   20202    20020    20067    20406    20881    21192    21197    20984 
   20727    20502    20333    20308    20387    20433    20470    20638 
   20968    21145    20839    20398    20313    20417    20449    20491 
   20605    20737    20722    20475    20305    20437    20625    20730 
   20876    20942    20750    20490    20441    20598    20686    20565 
   20493    20671    20884    20930    20819    20582    20424    20582 
   20833    20815    20574    20412    20453    20607    20713    20709 
   20757    20866    20760    20549    20625    20842    20821    20614 
   20514    20644    20781    20686    20544    20552    20556    20578 
   20826    21130    21159    20906    20571    20374    20409    20491 
   20430    20421    20707    21161    21428    21166    20529    20159 
   20233    20352    20416    20541    20622    20656    20819    20954 
   20730    20405    20397    20429    20235    20136    20325    20592 
   20723    20699    20702    20823    20920    20858    20711    20636 
   20576    20403    20351    20664    21034    20995    20596    20321 
   20395    20513    20428    20301    20336    20536    20810    21035 
   21077    20918    20634    20329    20212    20380    20671    20962 
   21188    21181    20919    20613    20360    20143    20036    20128 
   20439    20857    21119    21105    20937    20665    20364    20271 
   20433    20648    20806    20834    20669    20503    20466    20434 
   20491    20698    20731    20596    20614    20610    20366    20144 
   20123    20310    20768    21212    21219    20953    20834    20841 
   20723    20452    20243    20347    20700    20979    20999    20750 
   20428    20414    20638    20632    20488    20625    20899    20939 
   20668    20237    20025    20364    20938    21134    21003    20937 
   20854    20657    20571    20567    20437    20340    20572    21026 
   21257    20974    20343    19886    20097    20873    21448    21226 
   20491    20093    20457    21047    21089    20696    20650    21105 
   21377    21185    20956    20830    20574    20223    20009    20066 
   20420    20844    20919    20621    20386    20374    20403    20460 
   20602    20787    20972    21037    20925    20869    20988    20934 
   20528    20220    20239    20217    20109    20231    20447    20476 
   20532    20798    20970    20758    20285    19917    19973    20299 
   20514    20696    20976    21087    21054    21181    21244    20834 
   20194    19885    20020    20367    20761    21053    21033    20667 
   20305    20380    20730    20841    20683    20536    20467    20518 
   20784    21085    21077    20850    20764    20748    20556    20383 
   20513    20831    21065    21114    21096    21126    21034    20695 
   20360    20236    20217    20285    20533    20865    21082    21100 
   20980    20858    20730    20536    20376    20295    20197    20158 
   20343    20638    20737    20549    20287    20277    20594    20806 
   20513    19962    19649    19857    20560    21217    21240    20825 
   20568    20632    20744    20638    20383    20299    20439    20515 
   20425    20382    20537    20795    20965    20941    20806    20746 
   20798    20803    20657    20378    20139    20218    20615    20999 
   21145    21058    20876    20729    20587    20389    20209    20175 
   20325    20586    20931    21270    21269    20822    20434    20534 
   20826    20833    20579    20425    20556    20799    20895    20808 
   20636    20425    20306    20393    20549    20652    20773    20856 
   20738    20549    20487    20474    20493    20632    20791    20934 
   21053    20864    20376    20262    20763    21216    21230    21042 
   20862    20823    20830    20448    19789    19620    20152    20744 
   20947    20923    20877    20835    20804    20711    20506    20324 
   20339    20515    20650    20696    20722    20675    20626    20796 
   21008    20934    20692    20511    20376    20259    20247    20367 
   20548    20771    21008    21120    21019    20764    20565    20576 
   20574    20441    20482    20781    21018    20881    20455    20305 
   20653    20833    20451    20024    19962    20066    20175    20299 
   20344    20416    20768    21135    21146    21034    20930    20630 
   20362    20359    20380    20416    20609    20749    20742    20707 
   20609    20520    20591    20657    20545    20409    20379    20359 
   20293    20264    20440    20925    21477    21766    21778    21544 
   21080    20675    20430    20098    19911    20326    20927    20993 
   20690    20599    20842    21169    21258    20937    20488    20420 
   20781    21049    20926    20746    20788    20933    21006    20839 
   20430    20169    20353    20713    20765    20474    20218    20317 
   20750    21132    21057    20746    20726    20927    20835    20322 
   19792    19635    19907    20366    20632    20682    20877    21139 
   20979    20429    19943    19737    19828    20197    20583    20726 
   20804    21008    21128    21100    21050    20881    20552    20308 
   20312    20440    20464    20279    20081    20160    20371    20372 
   20349    20665    21163    21455    21390    21132    20922    20718 
   20359    19984    19923    20277    20740    20929    20856    20787 
   20845    20930    20795    20417    20208    20298    20291    20129 
   20200    20555    20812    20791    20707    20687    20588    20403 
   20351    20529    20709    20714    20717    20834    20974    21066 
   21001    20749    20403    19978    19668    19850    20445    20927 
   20993    20792    20649    20690    20698    20456    20208    20332 
   20718    20974    20966    20934    21168    21466    21351    20942 
   20713    20659    20609    20636    20665    20592    20595    20683 
   20609    20364    20135    20047    20268    20757    21076    21020 
   20988    21224    21330    20941    20349    20062    20194    20466 
   20571    20476    20371    20474    20787    20946    20733    20457 
   20456    20634    20619    20278    20021    20209    20603    20796 
   20722    20680    20871    21006    20861    20652    20538    20484 
   20439    20301    20129    20194    20503    20834    21141    21404 
   21431    21161    20741    20379    20283    20429    20607    20721 
   20776    20796    20888    21081    21162    20996    20810    20834 
   20939    20868    20625    20518    20706    20864    20659    20322 
   20345    20713    20908    20737    20556    20537    20502    20453 
   20487    20410    20100    19863    19967    20255    20530    20772 
   20918    21018    21105    20807    20109    19812    20309    21037 
   21355    21124    20601    20169    20073    20224    20302    20270 
   20414    20800    21230    21504    21483    21161    20680    20339 
   20302    20344    20353    20422    20448    20521    20942    21398 
   21296    20858    20748    20933    20914    20633    20456    20482 
   20470    20410    20513    20642    20511    20294    20279    20298 
   20167    20096    20267    20572    20888    21077    20991    20722 
   20464    20298    20287    20385    20417    20432    20640    20953 
   21020    20784    20583    20580    20560    20376    20198    20271 
   20588    20814    20752    20552    20353    20287    20471    20761 
   20945    20956    20807    20574    20328    20193    20340    20645 
   20802    20844    20992    21138    21026    20663    20263    20078 
   20236    20576    20871    21053    21082    20903    20660    20521 
   20386    20247    20341    20638    20885    21016    20976    20745 
   20642    20849    21084    21064    20825    20609    20582    20650 
   20619    20529    20649    20972    21220    21319    21228    20875 
   20530    20456    20557    20673    20686    20594    20532    20522 
   20452    20397    20557    20783    20800    20808    20868    20661 
   20368    20335    20385    20418    20549    20655    20663    20646 
   20586    20541    20632    20769    20830    20834    20713    20441 
   20321    20498    20650    20645    20706    20769    20645    20549 
   20677    20819    20757    20545    20406    20486    20626    20524 
   20159    19886    19986    20391    20887    21199    21103    20919 
   21154    21447    21131    20521    20278    20294    20197    20098 
   20183    20321    20436    20633    20845    20961    21030    20926 
   20559    20358    20553    20787    20912    21019    21000    20860 
   20744    20599    20360    20185    20170    20182    20171    20262 
   20457    20648    20781    20822    20781    20687    20501    20335 
   20378    20544    20709    20927    21097    21085    21095    21242 
   21266    21018    20653    20402    20405    20568    20594    20391 
   20318    20574    20811    20798    20665    20583    20663    20815 
   20823    20636    20322    20112    20233    20448    20421    20356 
   20475    20629    20795    21027    21128    21010    20802    20565 
   20362    20263    20185    20092    20144    20387    20657    20850 
   20895    20700    20333    19994    19872    20061    20395    20626 
   20775    20974    21235    21415    21311    20973    20633    20467 
   20591    20825    20802    20596    20547    20648    20671    20545 
   20452    20563    20772    20879    20850    20749    20706    20827 
   20945    20833    20594    20444    20459    20534    20536    20626 
   20925    21064    20826    20468    20162    20020    20159    20353 
   20359    20313    20393    20567    20754    20779    20509    20196 
   20115    20223    20484    20839    21012    20945    20862    20807 
   20741    20679    20520    20302    20216    20306    20563    20845 
   20850    20619    20526    20638    20694    20673    20756    20903 
   21028    21130    21093    20945    20888    20888    20907    21054 
   21232    21307    21249    20983    20629    20422    20313    20224 
   20262    20457    20683    20779    20721    20622    20530    20437 
   20321    20162    20059    20140    20424    20817    21041    20968 
   20865    20873    20784    20580    20517    20552    20401    20189 
   20278    20611    20844    20830    20700    20661    20711    20687 
   20607    20588    20575    20533    20572    20677    20714    20672 
