Origin Time       2024/04/02 04:24:00
Lat.              40.133
Long.             141.712
Depth. (km)       71
Mag.              6.0
Station Code      IBR003
Station Lat.      36.5914
Station Long.     140.6453
Station Height(m) 58
Record Time       2024/04/02 04:25:32
Sampling Freq(Hz) 100Hz
Duration Time(s)  117
Dir.              E-W
Scale Factor      7845(gal)/8223790
Max. Acc. (gal)   5.961
Last Correction   2024/04/02 04:25:32
Memo.             
[...]
    -467      706     1100     1132     1223      711       66      217 
     580      638      895     1163      637     -402     -878     -714 
    -399      220      901      888      384      167      295      436 
     278     -306     -360      888     2189     2081      994      332 
     357      319       21     -426     -726     -184      876     1291 
     823       89     -184      249      603      230      -41      653 
    1478     1460     1173      862       72     -334      101      348 
     311      145     -588     -801      406     1255      733      265 
     364      454      766     1289     1143      324      -79      288 
     831      851      201     -268     -213     -193      -20      396 
     580      815     1058      677      317      386      144      135 
     642      306     -317      355     1098      602      203      506 
     388       59      400      796      650      626      846      423 
    -360     -209      648      955      653      310     -106     -452 
    -297      184      626      803      710      606      324      -44 
     301     1032     1031      461      156      283      477      576 
     839      897      333       79      282      -75     -425      147 
    1001     1350      843      -78     -170      361      351      210 
     457      531      488      490      193      -39       60      193 
     602     1004      403     -247      498     1096      359        4 
     445      579     1026     1969     1742      319     -417     -144 
     155      333      422      290      338      507      360      252 
     106     -170      365      907      152     -199      561      568 
      74      351      384     -233     -114      745     1310     1367 
     955      352       68      137      475     1117     1479      935 
     174       17       -5     -243     -145      -43     -649     -827 
     259     1232     1358     1053      144     -827     -619      -28 
       2      997     2544     2012      228     -656     -707      -75 
    1043     1532     1021      449      409      380      -49     -298 
     220      619       20     -317      437      805      307      259 
     778      911      687      646      781      774      445       98 
      -1      -55      -66       72      135      124      419      963 
    1417     1617     1331      689      116     -230        8      693 
     608      -36      319      870     -144    -1287     -446      949 
     812      240      598      847      519      483      375     -190 
    -283      230      683      899      830      904     1385     1017 
    -267     -400      697     1196      945      720      595      514 
     279     -141     -228     -257     -585     -171      785      525 
    -245       91      503      202      103      187      175      642 
    1224     1178     1062     1161      859      249      -48      187 
     738     1030      758      373      213       44       22      120 
    -340     -869     -606      -93      352     1132     1767     1594 
     801     -346    -1043     -279      950     1146      766      499 
     222      380      973      958      504      541      684      411 
     388      780      812      441      -85     -751     -826      108 
    1057     1221      785      -25     -731     -419      733     1247 
     754      580      816      450      112      421      549      337 
     268      267      217      368     1055     1722     1255      121 
    -472     -553     -152      720      946      436      473      760 
     351     -147     -336     -436       29      777      770      453 
     633      876      814      545       70     -388     -357      230 
     962     1482     1363      684      618     1000      251     -868 
    -600       74       75      540     1466     1378      668      234 
    -541    -1227     -595      365      573      792     1065      916 
     962     1011      322       79     1036     1206      120      153 
    1123      751      -67      301      459     -224     -247      118 
    -103     -143      282      626     1028     1175      594       81 
      17      -74      274     1170     1298      460     -214     -527 
    -561       21      928     1682     2014     1557      440     -757 
   -1382     -769      672     1406     1189     1034      855      101 
    -679     -884     -783     -286      795     1355      897      622 
     510     -307     -503      616     1189     1067     1412     1448 
     819      583      637      267      -54      189      576      544 
     114       -6      411      588      198     -313     -768    -1059 
    -660      556     1707     1822     1044      432      315        4 
    -305      197      837      751      538      529      272      305 
     981      966      147       -4      297      193      190      472 
     533      572      673      392      -56     -310     -145      665 
    1177      607      233      850     1200      899      918      966 
     353     -261     -221      164      307      191      233      448 
     603      376     -321     -587      184     1070     1169      776 
     368       32      -33      253      838     1364      959      156 
     272      527      260      540      945      395        8      318 
      87     -417     -213       66      302     1260     1881     1024 
      89       63     -249    -1032     -675      816     1513      992 
     463      183     -444     -997     -157     1502     1620      486 
     610     1435      838       17      479      670        9     -163 
     -45        0      579      966      739      761      861      588 
     125     -336     -279      414      641       -4      -99      498 
     151     -503      383     1736     1864     1480     1101      233 
    -313      248     1013     1250     1058      375     -749    -1532 
    -938      575     1167      729      720      943      405     -268 
    -147      317      387      379      819     1085      502     -157 
    -226     -164      117      865     1256     1055      972      889 
     550      440      577      656      600      216     -149       58 
     457      747      999      731     -114     -726     -793     -461 
      33      253      494      935      774      194       95      152 
     136      737     1344      781     -159     -194      527     1198 
    1385     1142      666      187     -175     -562     -820      -78 
    1601     2247     1107       70       93       33     -180      423 
    1023      619      324      544      152     -465     -256      175 
     260      376      382      141       48      -39     -245      -98 
     491     1220     1618     1204      685      878      793        0 
    -278       14      253      723     1232     1525     1863     1431 
     -67    -1066    -1016     -773     -306      693     1372     1038 
     318        5      292      993     1682     1761      988      198 
      68     -108     -734     -927     -217      477      353       78 
     319      259     -464     -546      540     1661     2008     1804 
    1302      535       62      240      210     -301     -283      113 
    -152     -378      596     1560     1047       90     -113      -39 
     106      700     1263     1300      884     -244    -1549    -1459 
     -93     1175     1892     1548      387      444     1590     1433 
     342       90       74     -126      448      961      151     -675 
    -357      282      777      945      232     -500     -167      440 
     456      214      238      904     1840     1661      299     -477 
    -160      217      522     1063     1360     1314     1138      157 
   -1336    -1229      503     1270      616      -47     -645     -780 
     170      664      454     1544     2629     1417      -43      -45 
     -32     -210       56      -95     -689     -549       33      203 
     441      814      858     1416     2292     1715      456      423 
     465     -710    -1291     -189      792      711      595      785 
     881      945     1024     1012      710      -47     -375      344 
     857      425        5     -209     -880    -1333     -808     -125 
     419     1185     1305      557      380     1092     1306      953 
    1285     1367     -332    -1831    -1008      464      664      425 
     730      954     1124     2046     2504     1134     -459     -369 
     569      425     -838    -1877    -2226    -1958     -764      989 
    1753     1200      916     1186      931      611      859      926 
     658      199     -596     -527      692     1108      783      899 
     141    -1107      106     2624     2890     1506      305     -903 
   -1533    -1031      -32      781      221    -1165    -1155     -446 
    -558     -136     1121     1413     1470     2254     1501     -392 
     -10     1323      683     -153      518     1699     2446     1896 
     874      977      426    -1343    -1264      -94     -764    -1212 
     341      768     -611     -778      -95     -348     -641     -117 
    1235     2801     3148     2608     2234     1399      345      421 
    1255     1453      310    -1881    -3277    -2135      444     2077 
    1721       98     -348     1348     2775     2393      977     -912 
   -2327    -1757      241     1775     2478     2276      356    -2080 
   -2290     -418     1267     2763     4040     2916      336     -432 
    -311    -1549    -2569    -1737     -538      256     1483     1917 
     704      216     1024     1028      530     1030     1714     1748 
    1256     -253    -1971    -2255    -1466     -452      365      378 
     290     1221     1948     1320      789     1061     1156     1408 
    2030     1514     -456    -2305    -2798    -2083     -776      962 
    2376     2157      599     -345      237     1167     1390     1374 
    1524     1139      438      481      683      -83    -1613    -2408 
   -1336      446     1678     2629     3010     2498     1825      710 
   -1269    -2720    -2868    -2220    -1089      139     1526     2779 
    2724     1881     1368      843      750     1601     1938      935 
    -272     -529       52      580      692      -17    -1841    -3042 
   -2119     -344      737     1098     1382     2010     2606     2334 
    1189      267       74       -1     -241     -562     -753      -82 
    1386     2147     1167     -438     -932     -819    -1335    -1746 
   -1055      418     1987     2906     2803     2043      696     -484 
     315     2535     3316     1973      712      780      999      279 
    -851    -1844    -3133    -3900    -2601     -591      197      939 
    2072     1136    -1406    -1888        0     1845     2783     2840 
    2412     2226     1545      109     -260      684     1463     1814 
    1845     1324      364     -899    -2000    -2281    -1294      608 
    1200     -276    -1528    -1848    -1696     -454      822      857 
     707      589      179      654     1977     2903     3019     2500 
    1981     1525      504     -535     -800     -633     -279      -59 
    -341      -58     1004      962     -170     -386       79       71 
     845     2272     1271    -1204     -688     1846     2230     1350 
    1460      537    -2470    -3923    -1988      179     1367     3489 
    4639     2268       -9     1071     2154      479    -1270    -1358 
   -1194     -724      387      553     -284     -684     -773     -712 
     -52      787     1588     1667        6    -1703    -1586     -673 
     583     2810     4148     2610      -93    -1044      351     2274 
    3159     2911      765    -2536    -3335    -1880    -1312      -99 
    3037     3588     -152    -2964    -2331     -868      816     3200 
    4414     3294      341    -2609    -2242      618     1069     -291 
     310     1158      160     -342      418      112    -1447    -1896 
    -826      -21      436     1838     2980     1904      882     2550 
    4153     3003      857     -796    -1925    -1744       52     2085 
    2389      522    -2203    -4297    -4594    -2721      452     3082 
    3406     1760      657     1495     2579     2681     2505     1668 
     616      947     1070      175      540      822    -1065    -2158 
   -1297     -922     -918     -394      492     1914     2070     -116 
   -1247     -342     -662    -1263      603     2092      992      641 
    2173     2338      837      268      436       71        5      658 
    1101      614     -317       28     1337      949     -970    -1482 
     -54     1063     1036     1096     1449      760    -1372    -2810 
   -2139    -1067     -141     1063      824     -260      141      556 
     784     3451     5676     3341       52     -434     -359     -905 
    -529      684     1629     1637      612     -792    -1829    -1586 
    -128     1142     1723     1197     -290     -251     1821     3153 
    2137     -764    -3782    -4634    -3339    -1703      319     3086 
    4565     3817     2667     1652     -124    -1593    -1313     -386 
     409     2135     3372     1926      120     -295    -1378    -2462 
    -892     1664     2378     2486     3415     2813     -309    -2123 
    -992     -248     -880    -1148    -1270     -888      973     1984 
     773      -76        5      -12     1142     2550     1544      178 
     387     -425    -2114    -2263    -2035    -1459     1167     3017 
    1182    -1317    -1159      253     1204     2420     3470     3369 
    3229     3483     3041     1198    -2177    -5255    -5844    -4727 
   -2246     1699     2763     -751    -2604     -379     1464     2467 
    4561     4934     2359      662      622      487      734      730 
      47      409      438    -1713    -3159    -2292     -903      421 
    1142     1021     1694     3082     3640     3740     3685     1800 
   -2317    -5626    -4915    -1159     2134     3635     3037     -136 
   -3090    -2891    -1798     -967     2154     4747     2650     -116 
    -130      132     -324     -550      236     2573     4654     4764 
    3852     2133    -1027    -3913    -4135    -2045     -224       66 
    -257     -315      723     2899     3747     1628    -1827    -4257 
   -4268    -1526     2747     5259     3395      -64     -645      233 
    -444     -691     1067     2737     3658     3835     1617    -1497 
   -1620      706     2193     1472    -1067    -3369    -3712    -3153 
   -2727    -2041     -850      963     2423     1884      650     1248 
    2766     3257     2813     1624      657     1775     3888     4072 
    1841     -761    -1788    -1293     -972    -2033    -3304    -2479 
     642     3360     3365     1783      808      384    -1024    -2863 
   -1811     2508     5645     4918     2079    -1312    -4355    -4409 
   -1560      317      290      653     2150     3523     3296     1344 
     -98     -184    -1443    -3299    -2330      417     1845     1926 
    1674      730    -1255    -2822    -2467     -425     3175     6501 
    5614     1873     -295    -1502    -2625    -1525     1332     2920 
    1975     -465    -2277    -1659      596     1904     1121     -650 
   -1221       -8     1314     2137     2563     1694       40     -707 
    -498     -193       29      610     1767     2362      634    -2995 
   -4882    -2481     1124     2228     2099     1910     1339     1930 
    2816     1682      616     1309     1780     1073     -245    -1938 
   -3416    -3898    -3260    -1688      419     2108     2725     2509 
    2120     2120     1966     1212      691      450      390     1320 
    2625     2579      795    -1615    -3856    -5377    -4477    -1333 
    1111     1875     1840      961     -194     -537     -418      677 
    3847     6165     4374     1050     -120      247      621      797 
       6    -1474    -1671     -626     -241     -931    -1692    -1726 
   -1058     -658     -835     -476      298      279      345     1575 
    2636     2837     3127     3770     4017     2552     -355    -2145 
   -2053    -1714    -1433     -893     -861     -594      772     1233 
     456      292      180      -56     1050     2686     2991     1663 
    -120     -430      757     1429      652     -668     -977      -54 
     294     -286      460     2134     1852      274     -923    -2290 
   -2712     -814     1440     2073     1956     2174     1792      369 
     -16     1744     3307     2628      641    -1177    -2239    -1842 
      27     1698     1606     -218    -2043    -2108    -1150     -244 
    1552     3721     3415      873     -271     1044     2704     2937 
    1443     -488    -1557    -2312    -2609    -1001     1092      963 
    -117      105      315     -178      425      999     -175     -662 
     500     1174     1340     1285       -4     -874      338     1073 
     696     1636     2207      670     -184      810     1950     2087 
     986     -932    -2755    -3068    -1155     1225     1966     1232 
     -90    -1053     -488      761      872      166     -306     -544 
     -83     1355     1798       81    -1864    -2662    -2208        2 
    2694     3470     2490     1163      -99     -544      583     1746 
    1679     2057     2914     1993      487      487      522     -222 
    -533     -935    -1979    -1656      375     1503     1458     1529 
     812     -398     -357      198      172     -275     -379     1651 
    4599     4344     1449     -257     -739    -1391    -1200     -310 
    -588    -1113     -224      896     1339     1661     1493      577 
     -64       41      550     1147     1356     1271     1387     1055 
    -425    -2239    -3626    -4218    -2659      459     2145     2286 
    2203     1310      120     -450     -886     -187     1898     2486 
    1347     1381     2077     1300      318      342      498      751 
     949      885     1138      571    -1458    -2724    -2262    -1564 
   -1111     -487     -472     -876       45     1244      409     -662 
     376     2147     3619     5103     5545     4322     2349      449 
    -688     -847    -1282    -2093    -1711    -1065    -1474    -1171 
     313      858      187     -329     -434     -278      668     2007 
    1969      822      684     1510     2172     2272     1281     -769 
   -2763    -3106    -1399      514     1521     2307     2785     2559 
    1782      432     -611     -527     -168      430     1715     2061 
     980      463      835      442    -1243    -2871    -2909    -1273 
    1051     2559     2239     1309      787      -66      -98     1620 
    2057      456      248     1154      255     -855      314     1499 
     680     -187     -386    -1117    -1186      394     1625     1391 
     834      739      639      -64    -1067    -1786    -1831     -835 
     665     1426     1143      619      569      978     1449     1764 
    1636      464    -1167    -1220      540     1680     1539     2062 
    2674     1167    -1224    -2316    -2016     -627      896     1046 
     261      264     1059      970     -306    -1074     -814     -548 
    -211      645     1629     2709     3559     2327    -1123    -3113 
   -2076    -1043     -741      602     1911     2077     2273     2295 
     789    -1298    -1622     -168      909      931      796      495 
    -148     -121      822     1154      653      963     1788     1267 
