Origin Time       2024/04/02 04:24:00
Lat.              40.133
Long.             141.712
Depth. (km)       71
Mag.              6.0
Station Code      IBR003
Station Lat.      36.5914
Station Long.     140.6453
Station Height(m) 58
Record Time       2024/04/02 04:25:32
Sampling Freq(Hz) 100Hz
Duration Time(s)  117
Dir.              U-D
Scale Factor      7845(gal)/8223790
Max. Acc. (gal)   3.139
Last Correction   2024/04/02 04:25:32
Memo.             
[...]
   19314    18995    18794    18728    18868    19025    18918    18763 
   18971    19402    19426    19256    19561    19394    18373    18497 
   19580    19346    18781    19469    19699    18789    18557    19070 
   19155    19089    19167    18931    18684    19052    19530    19361 
   19049    19296    19476    19090    18841    18847    18673    18721 
   19182    19525    19399    18925    18887    19440    19491    19013 
   18867    18954    19118    19228    18852    18711    19325    19427 
   18881    19130    19639    19201    18841    19180    19341    19456 
   19668    19215    18393    18017    18241    19075    19583    18887 
   18393    19230    20142    19901    19060    18985    19515    19461 
   19218    19236    18939    18654    18735    18810    18943    19066 
   18729    18238    18508    19394    19704    19373    19313    19661 
   19786    19228    18779    19282    19437    18584    18534    19230 
   18754    18090    18816    19359    18932    19093    19691    19430 
   18877    18932    19210    19535    20015    19853    18939    18530 
   18883    19160    18951    18495    18527    19001    19116    19246 
   19677    19564    19072    18943    18883    18735    19076    19811 
   19656    18554    18547    19681    19647    18755    18738    18910 
   18694    18955    19376    19167    18852    18983    19128    19109 
   19537    20108    19693    18828    18767    19049    18862    18582 
   18634    18754    18944    19473    19557    18883    18916    19612 
   19546    19306    19554    19492    19090    18801    18638    18644 
   18712    18792    19030    19342    19437    19215    19086    19448 
   19874    19624    19037    19083    19197    18499    18115    18628 
   19006    19217    19456    19214    18819    18898    19279    19458 
   19310    19422    19861    19568    18866    19059    19152    18531 
   18863    19408    18651    18446    19383    19553    19279    19570 
   19421    18619    18547    19133    19083    18640    18755    19025 
   18856    18728    19098    19657    19854    19557    19221    19215 
   19322    19214    18904    18702    18810    18931    18814    18787 
   19009    19137    19188    19575    19907    19450    18991    19418 
   19566    18659    17996    18378    18955    18962    18806    19045 
   19194    18828    18567    18866    19303    19437    19588    19947 
   19853    19291    18922    18733    18744    19083    19221    18916 
   18805    19149    19271    18959    18805    19032    19292    19380 
   19323    18963    18519    18675    19125    19082    18937    19414 
   20062    19986    19568    19413    18824    18171    18754    19365 
   18659    18085    18647    19452    19732    19372    19017    19430 
   19888    19441    18874    19010    19310    19219    18914    18756 
   18647    18501    18789    19144    18840    18765    19458    19824 
   19705    20001    20289    19550    18504    18426    18765    18480 
   18115    18743    19676    19259    18343    18809    19434    19052 
   19327    20066    19419    18577    18882    19001    18731    19118 
   19394    18927    19008    19753    19523    18727    18936    19256 
   18756    18717    19303    19263    19093    19462    19190    18476 
   19014    19846    19245    18516    18941    19283    18916    18964 
   19580    19504    18658    18476    19030    19191    19322    19646 
   19337    19152    19483    19083    18628    19136    19333    18841 
   18770    19048    19071    19036    19160    19229    19257    19407 
   19325    18808    18608    19049    19240    19037    19198    19406 
   19136    19029    19190    19103    19273    19512    18809    18297 
   18974    19272    18887    19098    19394    18922    18685    19549 
   20191    19504    18916    19149    18945    18414    18496    18747 
   18783    18987    19288    19418    19313    18913    18820    19444 
   19673    19165    19206    19832    19788    18800    18077    18627 
   19433    19269    18860    19089    19558    19553    19140    19098 
   19456    19367    18875    18688    18654    18434    18318    18530 
   19149    19839    19747    19207    19271    19465    19056    18744 
   19194    19695    19290    18644    18841    19078    18651    18495 
   18825    19145    19379    19338    19332    19537    19041    18310 
   18873    19926    19849    19105    18751    18889    19047    18751 
   18658    19496    19947    19164    18802    19475    19618    18928 
   18516    18571    18712    18860    18990    19221    19543    19445 
   18802    18571    19469    20212    19394    18698    19507    19550 
   18249    18150    19333    19670    18917    18821    19935    20137 
   18667    18206    19440    19502    18098    18080    19468    19593 
   18604    18862    19927    19830    19176    19178    19345    19367 
   19379    19062    18578    18495    18617    18504    18600    19322 
   19778    19394    18995    19099    19346    19151    18805    19427 
   19981    18860    18139    19132    19206    18103    18520    19896 
   19796    18990    19256    19572    19039    18982    19360    18804 
   18206    18871    19279    18412    18407    19758    19958    18974 
   18964    19541    19318    19170    19612    19148    18090    18276 
   18937    18774    18732    19398    19750    19230    18607    18608 
   19097    19704    20015    19907    19746    19160    17976    17734 
   18933    19602    18844    18292    18972    19657    19203    18620 
   19248    20075    19641    18958    19106    19180    18848    18927 
   19286    19280    19087    19148    19376    19484    19305    18775 
   18505    18846    18773    18342    18948    19893    19480    18370 
   18470    19584    19688    18940    19271    20069    19750    18999 
   18792    18878    18906    18952    19110    19093    18882    18608 
   18041    18165    19723    20370    19224    19126    20170    19656 
   18357    18763    20004    19820    18584    18033    18451    19006 
   19156    19078    19022    18931    18945    18995    18974    19350 
   19714    19300    19016    19483    19654    19275    19333    19642 
   18995    17867    17868    18744    19199    19354    19603    19395 
   18836    18820    19059    18851    18970    19703    19643    18914 
   19066    19398    18828    18570    19157    19465    19117    18756 
   19087    19687    19570    19306    19464    19157    18538    18605 
   18851    18616    18515    18856    19152    19422    19720    19408 
   18800    19157    20082    19930    18805    18342    18812    19066 
   18966    19110    19191    18813    18496    18789    19500    19963 
   19907    19680    19429    18986    18522    18459    19060    19857 
   19660    18345    17566    18295    19456    19707    19175    18924 
   19190    19488    19720    19519    18920    19048    19608    19329 
   18681    18562    18778    18909    18940    19017    19032    19080 
   19265    19167    18943    19053    19314    19484    19323    19055 
   19465    20079    19552    18354    18040    18277    18079    18237 
   19206    19927    20073    20155    20187    19930    19315    18358 
   17702    18183    18875    18642    18721    19707    19834    18986 
   19059    19832    19545    18505    18391    19344    19724    18566 
   17485    18106    19186    19407    19516    20123    20719    20475 
   19662    19723    20155    19271    17968    17577    17466    17450 
   18235    19359    19450    18655    18586    19534    20376    20325 
   19614    19446    20062    20205    19388    18274    17848    18361 
   19045    19553    19581    18856    18288    18426    18833    19323 
   19708    19603    19280    19631    20135    19400    18480    18636 
   18596    18156    18474    18800    18619    19153    19901    19448 
   19055    19678    19738    19259    19484    19372    18418    18333 
   19184    19191    18432    18523    19191    18931    18434    19187 
   20000    19302    18685    19630    20333    19849    19458    19083 
   18422    18173    17874    17297    17660    18908    19689    19743 
   19795    20132    20202    19687    19352    19649    19745    19143 
   18519    18600    19130    18882    17732    17494    18457    18797 
   18588    19237    20232    20424    19924    19481    19589    19758 
   19394    19090    19163    18790    17941    18191    20102    21068 
   19414    18038    18877    19530    18713    17967    18006    18219 
   18392    18993    19927    20244    19672    18924    19137    20505 
   20871    19444    18881    19542    19037    17793    17608    18308 
   19048    19218    18760    18561    18962    19002    18651    19336 
   20518    20100    18783    18744    19630    20016    20174    20359 
   19521    18246    18064    17980    17541    18306    18990    17818 
   17477    19722    21547    21132    20515    20756    20339    19238 
   18715    18034    16918    17024    18330    19116    18948    18765 
   19070    19450    19789    20352    20746    19985    18370    18056 
   19144    19325    18758    18671    18053    17271    18324    19930 
   20089    20086    20353    19765    19441    20070    20124    19283 
   18258    17313    16951    17147    17469    18272    19445    20274 
   20919    21266    20478    19260    19292    20278    20267    18827 
   17591    17153    17032    17986    19646    20056    19479    18978 
   18490    18565    19048    19155    19624    20144    19623    19396 
   19834    19633    19668    20213    19624    18185    17297    17689 
   19361    20344    19306    18100    18019    18469    19417    20239 
   19607    18449    18432    19099    19610    19839    19233    17903 
   17736    19489    20769    19746    18245    18431    19372    19521 
   19354    19499    19730    19803    19507    18997    18574    18565 
   19049    19098    18781    18909    18445    17644    18463    19770 
   19498    18770    19168    19650    18964    18405    19326    20557 
   20359    19209    18974    19020    17802    17505    19414    20356 
   19275    19028    20484    21173    19678    17836    17626    18208 
   17915    17369    17690    18374    19086    20081    21190    21708 
   20718    19176    18945    19010    17994    17624    18786    19191 
   18158    18011    19257    20347    20814    20668    20251    20046 
   19174    17705    17394    18269    18831    18682    18798    19522 
   19414    18223    18111    19499    20231    19761    19430    19257 
   18951    19352    19785    19020    18231    17945    17189    17487 
   19931    21288    20062    19226    19606    19330    18574    18597 
   19079    18954    18550    18781    18704    18015    18111    18292 
   17941    19105    21273    21099    19252    19105    19903    19498 
   18993    18739    17666    17203    18713    20553    20660    19386 
   19083    20127    20108    18820    18399    18975    18967    17749 
   16821    17667    18751    18642    18966    20367    21135    20776 
   20190    19869    19913    19927    19156    18026    17918    18295 
   17867    18307    20147    20050    18245    18326    19597    19668 
   19194    19502    20044    19445    18416    18592    19074    18943 
   18836    18567    18674    19863    19973    18308    17855    19198 
   19768    19040    18628    19148    19668    19164    18292    18324 
   18812    18747    18581    18914    19074    19056    19664    19992 
   19556    19494    19408    18918    19175    20085    20677    20575 
   19886    18756    17262    16692    17537    18242    19214    20825 
   20584    19039    19024    19147    18276    18632    19396    18677 
   18782    20478    20594    18751    17913    18887    19805    19653 
   19155    18958    18976    19211    19611    19669    19114    18289 
   18173    19269    19990    19134    18129    17867    17797    18285 
   19257    19550    19390    19654    19804    19299    19327    20730 
   21513    20461    19838    19602    17544    15876    16509    17031 
   17466    19257    20344    19888    19981    20758    20876    20434 
   19957    19219    18164    17597    18053    18756    18920    18854 
   18966    19210    19516    19573    19224    18897    18558    18296 
   18910    19827    19948    20034    20605    20460    19483    18913 
   18206    16799    16873    18588    19222    19391    20422    20048 
   18207    18137    19674    19900    18975    19141    19692    18673 
   17331    17698    19273    20584    20718    20061    19800    19661 
   19219    19265    19126    18064    17971    19488    20183    18885 
   17550    17662    17942    18139    19489    20056    18631    18657 
   20796    21938    21577    20189    18139    17533    18762    19872 
   19990    19414    18362    16996    16465    18162    20402    20009 
   18011    17795    18960    19481    19862    20503    20424    19662 
   19241    19676    20285    19629    17559    16330    18222    21725 
   22141    18431    16043    18080    20024    19483    19738    20189 
   18338    17161    18524    19803    19973    19423    18292    18013 
   19072    19975    20029    19481    19016    19179    19017    18713 
   19222    18798    17423    17693    18819    19338    20390    21319 
   20321    18812    18796    19381    19107    18002    16985    17370 
   19082    20164    20015    19755    19853    20314    20279    18970 
   18285    18871    18307    17251    17907    18382    17753    18700 
   20313    19433    18350    20260    22392    21790    20146    18952 
   17740    16951    17501    19026    19453    17554    16424    18527 
   20113    18492    17443    19642    22187    22023    20058    18715 
   18522    18744    18974    18878    18756    19056    18729    17829 
   18118    18642    18211    19035    20988    20785    19157    19203 
   20233    20528    19965    18073    16283    17262    19460    19892 
   19307    19218    19421    19720    19603    18732    18354    18894 
   19184    18825    18563    19170    19905    19728    19840    20502 
   20119    19556    19701    19072    17910    17905    18804    18941 
   18292    18482    18951    18453    18701    20314    20653    19381 
   19280    20123    19138    17300    17560    18922    19207    19441 
   20132    19872    19114    18951    19203    19575    19363    18499 
   17901    17879    18711    19869    19759    18557    18060    18979 
   19967    20004    20166    20630    20178    18827    17423    17231 
   18584    19683    19913    19715    18547    17329    17338    18025 
   19107    20028    19722    19458    20823    22261    21614    19313 
   17874    18551    19022    18300    18531    18709    17329    16974 
   18199    18932    19326    19955    20594    20887    20102    19149 
   19400    19527    18420    17286    17081    18191    20251    21150 
   20412    19936    19498    18476    18549    19332    18666    17410 
   17706    19188    20020    19315    17776    17428    19055    20146 
   19616    19989    20887    19637    18297    19484    20439    19363 
   18931    19469    18597    17374    17937    19121    19429    19164 
   18829    18793    19133    18943    18334    18924    19998    19812 
   19512    19897    19449    18426    18897    20397    20345    18735 
   18164    19002    19161    18751    19035    18805    17950    18628 
   19916    19807    19427    19068    18058    18169    19314    19066 
   18486    19257    20001    20291    20497    19839    18531    17199 
   16518    17655    19391    19839    19965    19912    18547    17820 
   18920    19419    19365    20331    20363    18635    17818    18335 
   18608    19194    20287    20148    18863    17986    17683    17757 
   18176    18627    19383    20221    19872    18685    18790    20251 
   20455    19240    19407    20358    19234    17421    17743    19327 
   19857    19083    18540    18760    18739    18272    18327    19272 
   19857    19214    18856    19585    19994    19965    20287    20105 
   19037    18519    18912    19062    18628    18206    18681    19838 
   19614    18334    18921    20359    19720    18566    18789    18821 
   18274    18731    19909    20036    19047    18679    19333    19683 
   19599    19703    19265    18365    18535    19182    19039    19280 
   20089    19838    18909    18558    18677    18771    18478    18393 
   19279    19597    18495    18517    20309    21016    20275    20036 
   19853    18760    17976    18249    18846    19446    19773    19392 
   19035    19206    19217    19379    19786    18982    17730    17957 
   18549    18243    18017    18534    19183    19268    18982    18958 
   19469    20250    20308    19473    19233    19669    19134    18153 
   18601    19647    19634    19446    19500    18639    18171    19292 
   19658    18677    18453    18792    18457    18327    19219    19673 
   18983    19245    20925    21286    19743    18762    18918    18646 
   17903    17896    18576    18512    17595    18040    19935    20449 
   19776    20023    20262    19932    20262    20093    18812    18592 
   18682    17116    16258    17875    19440    19152    18249    18030 
   18319    18657    18924    19195    19854    20822    21093    20476 
   19971    19635    19114    18480    17435    17005    18148    18858 
   18365    18675    19946    20324    19519    19090    19237    18721 
   18133    18418    18755    19078    19959    20301    19260    18463 
   19141    19899    19764    19615    19464    18500    17713    18331 
   19130    19206    19611    20241    20206    19909    19843    19872 
   19589    18894    18505    18630    18339    17518    17312    18169 
   19282    19764    19832    20194    20380    20075    20119    20213 
   19560    18936    18787    18669    18925    18986    17786    17186 
   18496    19411    19045    18891    19178    19526    19982    20483 
   20726    20013    18698    18191    18216    17724    17412    18154 
   19137    19440    19498    19911    20540    20802    20295    19458 
   18655    17868    17747    18441    18871    18810    19143    19742 
   19755    19377    18935    18067    17389    18172    19747    20302 
   20077    19978    19240    18400    18897    19342    18981    19576 
   20422    19282    17572    17830    18725    18392    18281    19029 
   18936    18412    18954    19546    19268    19122    19429    19874 
   20324    19758    18242    17811    18663    19109    18824    18307 
   18004    18597    19738    19982    18890    18038    18546    19163 
   19415    20221    20556    19503    18810    19322    19249    18289 
   18445    19284    18986    18657    19354    19556    18624    18196 
   19009    19595    19546    20067    20468    19344    18108    18743 
   20102    20128    19357    19056    18814    18291    18419    19332 
   19608    19117    19283    19750    19253    18512    18427    18635 
   19025    19522    19758    19695    19373    19287    19714    19799 
   19552    19472    19024    18567    18686    18598    18391    18729 
   18976    18918    19224    19391    18921    18858    19361    19359 
   19284    19901    20129    19529    19226    18991    18243    18234 
   19155    19268    18450    18237    19020    19823    19754    18828 
   17922    18029    19141    20081    19912    18939    18134    18064 
