Origin Time       2024/04/02 04:24:00
Lat.              40.133
Long.             141.712
Depth. (km)       71
Mag.              6.0
Station Code      IBR004
Station Lat.      36.5516
Station Long.     140.4102
Station Height(m) 57
Record Time       2024/04/02 04:26:15
Sampling Freq(Hz) 100Hz
Duration Time(s)  73
Dir.              U-D
Scale Factor      7845(gal)/8223790
Max. Acc. (gal)   1.429
Last Correction   2024/04/02 04:26:15
Memo.             
[...]
   14222    14639    14974    15021    14864    14697    14619    14621 
   14615    14558    14642    14937    15047    14731    14373    14392 
   14721    15057    15186    15020    14639    14384    14505    14760 
   14793    14654    14609    14752    14976    15147    15151    14921 
   14667    14701    14879    14901    14798    14666    14573    14643 
   14816    14918    14864    14704    14621    14636    14601    14589 
   14690    14800    14922    15022    14898    14656    14597    14782 
   15070    15144    14844    14570    14719    15057    15087    14742 
   14431    14442    14678    14982    15142    14932    14527    14368 
   14608    14951    14974    14729    14629    14764    14964    15094 
   14958    14594    14446    14656    14912    15101    15232    15125 
   14793    14523    14490    14631    14746    14871    15157    15295 
   15025    14678    14592    14802    15121    15257    15164    14945 
   14751    14832    15102    15183    15064    14943    14856    14847 
   14860    14758    14700    14848    14960    14856    14662    14501 
   14532    14837    15165    15175    14791    14346    14351    14771 
   15047    14956    14655    14357    14426    14964    15442    15375 
   14933    14600    14646    14955    15138    14962    14632    14474 
   14570    14746    14775    14666    14609    14760    15118    15365 
   15164    14754    14574    14628    14739    14889    15076    15141 
   14910    14586    14550    14800    15106    15329    15336    15091 
   14789    14696    14783    14620    14131    13936    14278    14692 
   14890    14955    14882    14593    14368    14615    15048    15036 
   14688    14501    14521    14590    14771    15101    15286    15070 
   14797    14821    14878    14885    15063    15053    14608    14327 
   14521    14820    15039    15113    14862    14459    14249    14361 
   14769    15144    15126    14793    14488    14469    14697    14850 
   14843    14943    15138    15121    14848    14543    14415    14562 
   14828    14909    14740    14553    14578    14823    14990    14809 
   14509    14467    14571    14670    14926    15175    15036    14698 
   14608    14839    15132    15253    15155    14913    14731    14756 
   14867    14904    14832    14746    14821    15039    15201    15152 
   14901    14678    14716    15006    15284    15184    14751    14485 
   14692    15148    15367    15151    14800    14617    14616    14787 
   15001    14995    14909    15032    15179    15128    14986    14858 
   14800    14937    15161    15098    14733    14590    14922    15368 
   15485    15196    14767    14509    14551    14827    15082    15052 
   14770    14550    14570    14710    14814    14812    14709    14581 
   14470    14497    14796    15141    15178    14901    14582    14462 
   14558    14659    14667    14646    14654    14816    15028    14951 
   14655    14432    14320    14373    14643    14878    14808    14570 
   14542    14751    14840    14708    14590    14535    14532    14729 
   14947    14870    14706    14720    14767    14797    14832    14750 
   14659    14710    14856    15080    15176    14986    14800    14835 
   14948    14901    14756    14874    15105    14985    14737    14716 
   14797    14845    14806    14706    14683    14731    14883    15032 
   14914    14785    14868    14877    14798    14764    14683    14655 
   14701    14751    14952    15117    14926    14693    14692    14625 
   14459    14542    14825    14948    14827    14667    14673    14835 
   14986    14997    14881    14743    14646    14642    14723    14705 
   14628    14814    15179    15277    15056    14800    14669    14674 
   14800    14916    14863    14716    14700    14821    14856    14669 
   14465    14527    14782    15013    15171    15206    14998    14721 
   14759    15044    15149    14994    14786    14582    14461    14574 
   14785    14850    14921    15172    15167    14634    14262    14478 
   14755    14855    14980    15007    14937    14998    15033    14839 
   14636    14581    14544    14604    14897    15160    15110    14771 
   14342    14107    14253    14729    15259    15390    15030    14708 
   14814    15090    15122    14979    14974    15087    15182    15198 
   14972    14631    14663    15179    15651    15585    15167    14823 
   14652    14794    15178    15228    14856    14548    14500    14791 
   15276    15327    14829    14428    14497    14844    15141    15157 
   14926    14754    14881    15094    15014    14712    14584    14782 
   15105    15163    14874    14616    14532    14488    14520    14517 
   14401    14505    14812    14931    14882    14747    14463    14274 
   14443    14712    14740    14643    14555    14488    14625    14806 
   14692    14559    14685    14867    14955    14841    14528    14250 
   14235    14553    14871    14823    14613    14509    14577    14856 
   15091    15049    14813    14494    14389    14766    15291    15545 
   15410    14931    14570    14679    14856    14851    14931    14926 
   14644    14559    14814    14883    14708    14727    14867    14754 
   14673    15017    15253    14966    14709    14769    14847    14920 
   15033    15034    14980    15006    15013    14939    14825    14635 
   14538    14706    14755    14590    14737    15115    15214    15049 
   14812    14478    14215    14474    15167    15439    14995    14490 
   14478    14897    15333    15414    15051    14439    14083    14405 
   15039    15294    15064    14577    14170    14196    14527    14820 
   14979    14990    14859    14628    14397    14427    14727    14982 
   15149    15196    14901    14569    14654    14845    14794    14666 
   14482    14395    14833    15448    15533    15163    14612    14021 
   13887    14447    15132    15357    15099    14689    14597    14963 
   15182    14769    14253    14239    14501    14781    15091    14997 
   14342    14022    14513    15151    15542    15731    15377    14634 
   14364    14663    14978    15202    15329    15257    15171    15165 
   15118    14975    14719    14503    14651    15049    15153    14882 
   14698    14652    14465    14389    14652    14771    14527    14408 
   14623    14879    14974    14933    14913    14972    15017    15010 
   14949    14874    14868    14982    15210    15272    14939    14621 
   14754    15105    15148    14690    14253    14473    15064    15238 
   14889    14543    14574    14910    15210    15141    14759    14544 
   14729    14962    15033    15055    14924    14628    14557    14775 
   14955    14982    14904    14775    14740    14844    14972    14898 
   14575    14439    14655    14797    14747    14709    14688    14723 
   14808    14731    14574    14656    14985    15236    15044    14474 
   14183    14573    15206    15515    15372    14841    14226    14111 
   14600    14979    14800    14611    14863    15103    14962    14688 
   14520    14555    14847    15063    14886    14578    14577    14945 
   15354    15464    15232    14798    14404    14457    14987    15318 
   15005    14443    14212    14528    15161    15642    15538    14751 
   13938    13937    14526    14952    14994    14666    14196    14247 
   14955    15479    15205    14601    14369    14488    14747    15045 
   15066    14877    14958    15241    15326    15165    14841    14512 
   14501    14710    14719    14629    14667    14767    14985    15211 
   15176    14935    14677    14594    14759    14983    15111    15040 
   14874    14953    15199    15245    14951    14512    14469    14890 
   15132    14893    14465    14219    14335    14679    14944    14955 
   14829    14781    14929    15240    15313    14966    14702    14771 
   14932    15097    15176    15026    14683    14374    14395    14724 
   15021    15128    15110    14891    14569    14619    15009    15040 
   14634    14374    14461    14735    15033    15161    15107    15057 
   15028    14868    14706    14841    15128    15126    14847    14662 
   14760    15057    15222    15082    14970    15021    14879    14550 
   14462    14720    15093    15338    15296    15172    15326    15499 
   15375    15167    14779    14121    13971    14655    15327    15471 
   15346    15133    14879    14742    14782    14882    14874    14719 
   14659    14891    15024    14662    14088    13702    13760    14400 
   15186    15448    15088    14555    14299    14324    14465    14744 
   15014    15028    14851    14477    13929    13741    14215    14806 
   14872    14408    13999    14176    14794    15276    15221    14569 
   13801    13802    14590    15121    15010    14769    14592    14489 
   14616    14855    14886    14712    14739    15093    15310    15161 
   14901    14743    14740    14775    14658    14485    14538    14871 
   15277    15515    15358    14800    14346    14419    14744    14933 
   14935    14818    14716    14677    14580    14450    14453    14634 
   14881    14931    14682    14427    14412    14651    15020    15210 
   15083    14891    14808    14748    14665    14631    14690    14640 
   14420    14570    15149    15361    15036    14667    14519    14759 
   15156    15194    14975    14746    14571    14787    15282    15323 
   14820    14466    14534    14709    14991    15358    15330    14968 
   14837    14914    14850    14628    14492    14594    14731    14631 
   14393    14377    14678    14994    15180    15356    15415    15246 
   15083    14929    14481    13973    13925    14291    14860    15526 
   15853    15533    14925    14517    14476    14625    14655    14652 
   14916    15196    15232    15198    15097    15026    15306    15506 
   15095    14566    14620    15298    16032    16163    15754    15221 
   14744    14681    15117    15369    15114    14793    14720    14851 
   15028    15111    15174    15321    15385    15218    14929    14593 
   14197    13994    14324    15064    15770    15990    15558    14970 
   14735    14690    14602    14527    14604    14909    15348    15673 
   15481    14650    13969    14183    14767    15087    15307    15325 
   14901    14526    14503    14489    14440    14534    14697    14786 
   14655    14380    14285    14418    14642    14993    15381    15411 
   14810    14018    13933    14688    15375    15449    15088    14446 
   13959    14222    14912    15267    15111    14613    14233    14469 
   14878    14690    14219    14165    14374    14346    14125    14087 
   14385    14767    14886    14785    14616    14362    14243    14377 
   14453    14432    14424    14254    14067    14169    14389    14428 
   14295    14121    13964    13950    14161    14345    14261    14037 
   13925    14021    14297    14731    15101    15051    14677    14476 
   14659    14951    15045    14941    14702    14462    14503    14773 
   14922    14787    14544    14655    15171    15433    15194    14959 
   15024    15169    15255    15201    14755    14154    14138    14812 
   15585    15969    15804    15283    14918    14970    15133    15132 
   14974    14678    14461    14712    15244    15452    15356    15381 
   15464    15419    15353    15302    15248    15060    14488    13977 
   14170    14574    14563    14499    14801    15244    15358    15138 
   15012    15001    14976    15090    15145    15030    15063    15014 
   14624    14476    14887    15380    15576    15518    15259    14814 
   14542    14728    15030    15144    15149    15016    14702    14408 
   14314    14392    14662    15145    15330    14952    14678    14737 
   14791    15072    15508    15263    14372    13871    14088    14489 
   14864    15252    15319    15048    14986    15136    15082    15002 
   15124    15275    15385    15219    14581    14219    14683    15163 
   15110    14999    15047    15136    15198    15090    14831    14493 
   14231    14362    14755    15132    15523    15755    15592    15190 
   14845    14721    14719    14704    14818    15048    15093    15045 
   15107    14994    14697    14648    14762    14755    14778    14832 
   14748    14733    14885    15071    15449    15797    15415    14600 
   14396    14679    14625    14512    14767    14793    14467    14446 
   14693    14931    15179    15082    14524    14116    14100    14138 
   14203    14615    15213    15375    15034    14737    14742    15036 
   15539    15792    15315    14392    13892    14235    14890    15106 
   14816    14521    14573    14922    15280    15286    14902    14550 
   14415    14332    14403    14712    14960    14968    14831    14589 
   14457    14798    15241    15210    15095    15040    14412    13475 
   13365    14297    15182    15271    15036    14770    14395    14362 
   14835    15261    15187    14555    13933    14007    14472    14652 
   14611    14613    14608    14716    15060    15136    14708    14381 
   14428    14597    14790    14926    14885    14827    14844    14696 
   14466    14434    14453    14566    14966    15137    14631    14010 
   13968    14432    14913    15024    14763    14432    14206    14168 
   14480    14874    14760    14412    14729    15484    15583    15075 
   14791    14620    14310    14434    15106    15520    15156    14440 
   14022    13965    14191    14706    15083    14955    14584    14339 
   14440    14816    15040    14863    14434    14172    14474    15118 
   15460    15319    14991    14686    14631    15034    15519    15554 
   15191    14751    14585    14777    14937    15140    15762    16314 
   16143    15344    14431    14096    14656    15581    16105    15878 
   15094    14368    14304    14864    15338    15169    14609    14426 
   14774    14909    14607    14465    14651    14943    15219    15276 
   15151    15095    15124    15129    15020    14902    15014    15205 
   15110    14793    14666    14801    14832    14628    14401    14316 
   14538    15099    15445    15026    14173    13578    13624    14365 
   15283    15637    15471    15272    15124    15066    15218    15191 
   14652    14185    14423    15115    15824    16302    16240    15606 
   14810    14399    14574    14956    15157    15180    14999    14546 
   14224    14388    14642    14673    14662    14562    14353    14405 
   14710    14843    14655    14315    14162    14481    15111    15604 
   15676    15367    14796    14064    13533    13498    13759    14127 
   14466    14412    14135    14239    14651    14856    14696    14247 
   13745    13744    14357    14893    14987    14844    14543    14308 
   14461    14925    15456    15611    15005    14227    14166    14559 
   14723    14697    14719    14813    14936    14913    14574    14145 
   14223    14967    15634    15622    15265    15094    15063    14885 
   14709    14854    15128    15253    15337    15345    15145    15068 
   15369    15562    15233    14756    14547    14654    14945    15126 
   15183    15384    15461    15078    14689    14725    14997    15299 
   15527    15371    14844    14577    14750    14868    14868    15006 
   15205    15242    14991    14600    14497    14798    15117    15202 
   15136    15032    15034    15130    15018    14690    14650    15157 
   15754    15894    15564    15056    14607    14477    14728    14939 
   14962    15095    15253    15249    15118    14825    14543    14451 
   14435    14509    14597    14520    14447    14581    14825    14894 
   14723    14639    14720    14859    15101    15087    14581    14183 
   14200    14231    14345    14782    15016    14728    14508    14557 
   14322    13864    13824    14143    14304    14264    14297    14446 
   14608    14851    15137    15157    14844    14574    14656    14897 
   14968    14786    14396    14077    14196    14600    14855    14905 
   14805    14477    14188    14391    14867    14951    14651    14581 
   14840    15093    15103    14681    14111    14095    14656    15192 
   15384    15272    15053    14895    14756    14538    14242    14116 
   14509    15206    15556    15388    15025    14742    14760    15118 
   15395    15234    14878    14669    14671    14829    14917    14760 
   14589    14655    14816    14914    14990    14912    14601    14373 
   14451    14697    14908    15014    15057    15072    15128    15272 
   15249    14956    14828    15087    15387    15419    15223    14978 
   14801    14643    14472    14557    15036    15529    15699    15591 
   15329    15013    14751    14526    14305    14343    14793    15256 
   15468    15577    15446    15063    14852    14723    14424    14326 
   14527    14762    15138    15460    15249    14883    14916    15045 
   14956    14918    14974    14805    14553    14608    14823    14850 
   14700    14405    14103    14153    14461    14688    14754    14454 
   13826    13424    13563    14133    14747    15002    14941    14744 
   14497    14432    14501    14412    14326    14453    14547    14550 
   14736    15018    15101    15063    15076    15071    14986    14886 
   14823    14778    14678    14574    14553    14547    14669    15098 
   15558    15603    15205    14677    14415    14585    14990    15357 
   15450    15148    14739    14584    14621    14740    15029    15363 
   15462    15271    14967    14783    14701    14666    14748    14650 
   14251    14114    14364    14605    14874    15202    15240    15043 
   14964    14852    14527    14415    14692    14982    15137    15187 
   15093    14928    14771    14658    14669    14756    14797    14867 
   14975    14905    14692    14565    14490    14299    14122    14430 
   15272    15912    15927    15645    15288    14995    15029    15302 
   15396    15113    14720    14536    14577    14789    15101    15286 
   15230    15111    15098    15141    15147    15120    15122    15223 
   15291    15156    15053    15144    15155    15033    14882    14639 
   14466    14634    14985    15045    14648    14226    14160    14343 
   14569    14669    14582    14496    14571    14824    14993    14771 
   14445    14419    14627    14870    14952    14800    14575    14381 
   14381    14721    15094    15087    14654    14135    13987    14257 
   14538    14562    14562    14841    15213    15287    15020    14710 
   14708    15084    15496    15511    15138    14798    14758    14886 
   15018    15203    15425    15348    14847    14405    14451    14727 
   14862    14909    14910    14812    14740    14678    14524    14377 
   14212    14042    14156    14538    14845    14971    14932    14786 
   14742    14808    14805    14821    14999    15057    14590    13999 
   14138    14831    15222    15145    14854    14482    14256    14322 
   14480    14575    14763    15034    15124    15032    14878    14643 
   14647    15082    15279    14868    14439    14423    14701    15068 
   15261    15057    14634    14426    14547    14648    14540    14544 
   14827    15066    15087    14997    14804    14574    14582    14845 
   14994    14878    14708    14692    14913    15144    15016    14712 
   14777    15222    15570    15614    15448    15052    14598    14531 
   14825    15006    14941    14863    14864    14952    15099    15097 
   14862    14690    14872    15264    15437    15223    14851    14596 
   14547    14567    14580    14689    14858    14943    15026    15272 
