Origin Time       2024/04/02 04:24:00
Lat.              40.133
Long.             141.712
Depth. (km)       71
Mag.              6.0
Station Code      IWT004
Station Lat.      39.7356
Station Long.     141.9671
Station Height(m) 9
Record Time       2024/04/02 04:24:50
Sampling Freq(Hz) 100Hz
Duration Time(s)  134
Dir.              U-D
Scale Factor      7845(gal)/8223790
Max. Acc. (gal)   77.593
Last Correction   2024/04/02 04:24:49
Memo.             
[...]
  -46352   -46350   -46350   -46352   -46352   -46352   -46350   -46350 
  -46350   -46350   -46349   -46350   -46350   -46352   -46353   -46350 
  -46349   -46350   -46350   -46352   -46352   -46349   -46350   -46350 
  -46349   -46352   -46353   -46350   -46350   -46350   -46352   -46350 
  -46349   -46349   -46350   -46350   -46349   -46349   -46350   -46349 
  -46350   -46350   -46350   -46352   -46353   -46352   -46350   -46350 
  -46350   -46349   -46346   -46348   -46350   -46349   -46350   -46352 
  -46350   -46352   -46353   -46352   -46352   -46352   -46352   -46350 
  -46350   -46348   -46348   -46350   -46350   -46349   -46350   -46350 
  -46350   -46352   -46352   -46350   -46350   -46350   -46352   -46350 
  -46350   -46352   -46352   -46350   -46350   -46350   -46352   -46352 
  -46348   -46349   -46352   -46350   -46352   -46352   -46349   -46350 
  -46352   -46353   -46352   -46350   -46349   -46350   -46350   -46349 
  -46349   -46350   -46350   -46353   -46352   -46348   -46350   -46352 
  -46350   -46352   -46352   -46352   -46350   -46350   -46352   -46350 
  -46350   -46350   -46349   -46349   -46352   -46352   -46352   -46353 
  -46353   -46350   -46349   -46350   -46349   -46349   -46349   -46349 
  -46350   -46350   -46349   -46350   -46352   -46350   -46352   -46352 
  -46352   -46353   -46353   -46350   -46350   -46350   -46350   -46352 
  -46352   -46352   -46352   -46353   -46353   -46353   -46350   -46350 
  -46352   -46350   -46350   -46353   -46353   -46350   -46350   -46352 
  -46352   -46350   -46349   -46350   -46352   -46349   -46348   -46350 
  -46350   -46349   -46350   -46352   -46350   -46349   -46350   -46352 
  -46350   -46346   -46348   -46350   -46350   -46350   -46349   -46346 
  -46350   -46353   -46350   -46350   -46350   -46349   -46350   -46353 
  -46350   -46348   -46349   -46349   -46349   -46348   -46349   -46352 
  -46352   -46349   -46350   -46353   -46350   -46350   -46352   -46350 
  -46349   -46350   -46350   -46350   -46350   -46352   -46352   -46349 
  -46349   -46350   -46350   -46350   -46352   -46350   -46350   -46352 
  -46350   -46350   -46353   -46353   -46350   -46350   -46350   -46352 
  -46352   -46349   -46349   -46349   -46350   -46352   -46352   -46352 
  -46350   -46352   -46350   -46349   -46350   -46352   -46350   -46349 
  -46350   -46352   -46352   -46352   -46353   -46352   -46350   -46352 
  -46352   -46349   -46349   -46352   -46354   -46353   -46350   -46350 
  -46350   -46349   -46349   -46349   -46349   -46350   -46350   -46350 
  -46352   -46352   -46350   -46350   -46350   -46352   -46352   -46353 
  -46353   -46350   -46349   -46349   -46349   -46350   -46350   -46349 
  -46348   -46350   -46352   -46352   -46350   -46349   -46349   -46350 
  -46352   -46350   -46352   -46352   -46348   -46348   -46352   -46352 
  -46350   -46352   -46350   -46346   -46349   -46353   -46350   -46350 
  -46353   -46352   -46349   -46350   -46350   -46348   -46350   -46352 
  -46350   -46350   -46353   -46352   -46350   -46352   -46352   -46349 
  -46352   -46352   -46348   -46349   -46352   -46350   -46349   -46349 
  -46349   -46352   -46350   -46348   -46348   -46350   -46352   -46350 
  -46352   -46352   -46353   -46352   -46350   -46350   -46350   -46350 
  -46350   -46349   -46350   -46352   -46353   -46352   -46349   -46348 
  -46350   -46353   -46350   -46350   -46352   -46349   -46344   -46336 
  -46326   -46321   -46329   -46363   -46437   -46556   -46716   -46892 
  -47008   -47015   -46997   -47129   -47459   -47911   -48462   -48803 
  -48186   -46680   -45673   -46110   -47838   -50098   -50526   -46955 
  -41465   -38461   -40189   -46156   -53373   -57279   -53824   -43337 
  -34294   -36055   -47833   -59917   -61989   -51578   -35997   -26692 
  -32917   -49582   -58491   -53846   -43842   -34885   -36256   -50577 
  -63794   -66430   -60336   -51244   -46714   -44706   -33156   -12528 
   -3366   -20763   -59672   -97895  -102077   -65861   -23665    -7083 
  -24096   -60077   -83712   -74796   -39769    -5593      847   -19075 
  -46138   -74619   -97382   -93160   -61626   -26175    -2596    -3797 
  -39167   -84318   -95130   -55742     4301    30226     -758   -52085 
  -88007  -106267   -98676   -62830   -23692     9641    29118     5042 
  -46367   -72152   -63706   -51382   -60619   -85425   -87150   -49183 
   -9043    -7067   -33532   -44159   -28089   -20717   -41301   -79875 
 -105672   -84379   -38111   -12729   -17008   -38649   -51582   -51594 
  -63830   -83439   -92796   -84619   -55883   -26306    -7304     7371 
    3870   -34908   -86298  -104799   -89127   -61250   -27059   -11340 
  -21591   -36945   -55790   -68416   -69805   -64215   -38816   -22635 
  -45827   -68160   -64077   -47501   -26096   -11315   -13332   -34194 
  -66870   -91949   -98351   -76786   -26874     8410      473   -20206 
  -36605   -56196   -63328   -53963   -48640   -45949   -40963   -49040 
  -68586   -75582   -58707   -36859   -27672   -18843   -12943   -27055 
  -44312   -51653   -61854   -71479   -62973   -43677   -40954   -56637 
  -69572   -65653   -43525   -19359   -10555   -19874   -40853   -60494 
  -74058   -78934   -67512   -49357   -36228   -33613   -46190   -59009 
  -57862   -41011   -21070   -32324   -63239   -65932   -43595   -20220 
  -15458   -41319   -63906   -55166   -31814   -22948   -46542   -76840 
  -79949   -66289   -51402   -38511   -28193   -15815   -13080   -34738 
  -62249   -66143   -50129   -38079   -37768   -47464   -57311   -51561 
  -40936   -41796   -45058   -46174   -55804   -70418   -67425   -37828 
   -5393    -3267   -31845   -57726   -62014   -52768   -46263   -52712 
  -63371   -67527   -59096   -37184   -20317   -21838   -33979   -46014 
  -53245   -55880   -57503   -61283   -59144   -48336   -40320   -37257 
  -39480   -47100   -52975   -54102   -53566   -59379   -67522   -67116 
  -59772   -45686   -33227   -37061   -50002   -53322   -36324   -13312 
  -11611   -31695   -54268   -62309   -47672   -21986   -11340   -28660 
  -55632   -75523   -86347   -73626   -45582   -34389   -42628   -57315 
  -60058   -44081   -31550   -26582   -28452   -42307   -46329   -41542 
  -47718   -53443   -52416   -50206   -50677   -57302   -59321   -56127 
  -51034   -33139   -15597   -18050   -36175   -57096   -60934   -48825 
  -42840   -44281   -53472   -67374   -61416   -40128   -32655   -42674 
  -59092   -69762   -64179   -46635   -30593   -24875   -29097   -40505 
  -57402   -67028   -56185   -34977   -25003   -35500   -56614   -69975 
  -67711   -55583   -39420   -24225   -21270   -34195   -56297   -76428 
  -71612   -39622   -13968   -16009   -38751   -60643   -63239   -51846 
  -42228   -39696   -40706   -41115   -42002   -48872   -59200   -60983 
  -51773   -38334   -30280   -37629   -54047   -63475   -58205   -43445 
  -33272   -34990   -48234   -59764   -50735   -32717   -27518   -38280 
  -59768   -72223   -59946   -36606   -23704   -31507   -50984   -58363 
  -47989   -36483   -36590   -48861   -60529   -57481   -43468   -37030 
  -47183   -60019   -62734   -54837   -39995   -29196   -32301   -49180 
  -64169   -59809   -44327   -34242   -34917   -42728   -45763   -41297 
  -38140   -44566   -62081   -71914   -56727   -35799   -34966   -47854 
  -56766   -55108   -45512   -38222   -38094   -40387   -41227   -41052 
  -45690   -55390   -63363   -64922   -54557   -37791   -30271   -36624 
  -51425   -62868   -56693   -32985   -15051   -23074   -42410   -52436 
  -55285   -56582   -57699   -56643   -51287   -44841   -39594   -35486 
  -33382   -39843   -52938   -58465   -55147   -44140   -29625   -30091 
  -46145   -61766   -64003   -49878   -35972   -33309   -34655   -36205 
  -42411   -54036   -61881   -60133   -52743   -42407   -34064   -37142 
  -44882   -41852   -36541   -40994   -48254   -54973   -58633   -50306 
  -37530   -37524   -48749   -58005   -57997   -47460   -34385   -32883 
  -45339   -58326   -59049   -50851   -47451   -48136   -41557   -36502 
  -44554   -52450   -50419   -43632   -34824   -31351   -40464   -55262 
  -63077   -58776   -51813   -51399   -53617   -51742   -41867   -29756 
  -25608   -30802   -46171   -63192   -64395   -54245   -46666   -45947 
  -54012   -57650   -45852   -33772   -30808   -35317   -46873   -55939 
  -59112   -58884   -50746   -39280   -33756   -38754   -52845   -56593 
  -39681   -25631   -34042   -54823   -67837   -62781   -43672   -28015 
  -33994   -53720   -61665   -52921   -42495   -42265   -50153   -50706 
  -41115   -36668   -39685   -44262   -49497   -50242   -47830   -47730 
  -44427   -38098   -40450   -48730   -48699   -43895   -41547   -38353 
  -41580   -54676   -61191   -51505   -35993   -32161   -46098   -62197 
  -61735   -45704   -28729   -26657   -44936   -66139   -69449   -56560 
  -42853   -37174   -34022   -31934   -40747   -54357   -59070   -52143 
  -34219   -23230   -37663   -61653   -72620   -66245   -49897   -40042 
  -43073   -46673   -44941   -42560   -41206   -41461   -42696   -44331 
  -46468   -44926   -40350   -40061   -45488   -52459   -57264   -56974 
  -50234   -40115   -34470   -39976   -53562   -64459   -60438   -38699 
  -20850   -25847   -45542   -66718   -70653   -46981   -23388   -24312 
  -40948   -58167   -66509   -62278   -47742   -31654   -26909   -36726 
  -53007   -63738   -60259   -45777   -33976   -37586   -49905   -54014 
  -47181   -35448   -33463   -49607   -63397   -60142   -48697   -38828 
  -36612   -43954   -55644   -58726   -47856   -36440   -32877   -34632 
  -44502   -59904   -63337   -48830   -34322   -31672   -37169   -48901 
  -61369   -62884   -52980   -40917   -33625   -32711   -36285   -42599 
  -45769   -43694   -43275   -45763   -50916   -58626   -60408   -49769 
  -34113   -28544   -36805   -53541   -68405   -64690   -50913   -50604 
  -57963   -55305   -38793   -19965   -18937   -38699   -58942   -59768 
  -44775   -37088   -43727   -50839   -54121   -54414   -48639   -41048 
  -38377   -46467   -59648   -60679   -51447   -42369   -37659   -41470 
  -43661   -40621   -43976   -52246   -59740   -61339   -53482   -43991 
  -38003   -34668   -33633   -37295   -48605   -59616   -60797   -51475 
  -36259   -32705   -49380   -60170   -50109   -37376   -31824   -34157 
  -44806   -54156   -55518   -48523   -37191   -31064   -36015   -52073 
  -67674   -67711   -54075   -38639   -34541   -44316   -50625   -46225 
  -41268   -40771   -43195   -43016   -41867   -49446   -62114   -66487 
  -56219   -37075   -24165   -28300   -44247   -53512   -47008   -38913 
  -39295   -43070   -48355   -49950   -42500   -36822   -43429   -54422 
  -58137   -58410   -58895   -51410   -39683   -37995   -46095   -51715 
  -49389   -42688   -35972   -36443   -46849   -58958   -62919   -51254 
  -33393   -31803   -47767   -63096   -60669   -37864   -16182   -17963 
  -40836   -62406   -63363   -51173   -47899   -55799   -58622   -53215 
  -46751   -39147   -36830   -43182   -44302   -38006   -37118   -44815 
  -54851   -60073   -58650   -51120   -36389   -27237   -37654   -52149 
  -52870   -47260   -41843   -38492   -43757   -52269   -55317   -52228 
  -44155   -39316   -44174   -53103   -59360   -58386   -49125   -41611 
  -44626   -48367   -40547   -29204   -32235   -51092   -63471   -53616 
  -34562   -26002   -37417   -61522   -72773   -56639   -31063   -27562 
  -49943   -67248   -61011   -44041   -33709   -37542   -49671   -54183 
  -44952   -32586   -29721   -40998   -53925   -53990   -49777   -46758 
  -39445   -34163   -35595   -42498   -52775   -60413   -62403   -54317 
  -38959   -36259   -51159   -64035   -60570   -45030   -34113   -35073 
  -39598   -44956   -49266   -44972   -37357   -40973   -54795   -60480 
  -52907   -44741   -40428   -43228   -53046   -53438   -41064   -32733 
  -38853   -50954   -52629   -47075   -49392   -54058   -48412   -40220 
  -37959   -39667   -46305   -49731   -44311   -42947   -47696   -49358 
  -48945   -49250   -50425   -50226   -40663   -25895   -25855   -48138 
  -75674   -83359   -63733   -32088   -14323   -24151   -45445   -60929 
  -64747   -51610   -34776   -31568   -41188   -56408   -63940   -53397 
  -35071   -29620   -43629   -61300   -62116   -43117   -24313   -25402 
  -39090   -49551   -54201   -53322   -51057   -52613   -51167   -44369 
  -39684   -37905   -41134   -49167   -50699   -41234   -26622   -23820 
  -45864   -73296   -81889   -68283   -44305   -33087   -39934   -49424 
  -52297   -47479   -42608   -43896   -46511   -46840   -43227   -36171 
  -32861   -37984   -47723   -54353   -51815   -42588   -35847   -36005 
  -46165   -60447   -59242   -45306   -36468   -34175   -43244   -64767 
  -74410   -57867   -29529    -7974   -11790   -43379   -68752   -65325 
  -47488   -30272   -22242   -23345   -26433   -35321   -46012   -47922 
  -46116   -46002   -52334   -70383   -91019  -100080   -90836   -68886 
  -48659   -34670   -19271    -1802     5233    -2173   -10006   -12321 
  -16443   -26347   -47979   -79952  -103786  -111337  -106753   -91775 
  -79493   -79909   -76771   -61014   -47764   -40664   -33432   -33511 
  -39549   -38122   -34944   -43555   -60535   -74212   -73836   -50764 
  -16633    -3361   -19850   -40994   -45526   -39074   -42850   -59694 
  -72377   -75706   -77637   -86381  -103126  -116957  -112182   -80480 
  -36427    -1826    21703    32624    27531    21047    20289    15078 
    2867   -14958   -42408   -69290   -73433   -56074   -37700   -29608 
  -31348   -32113   -23013   -11067    -7063   -14096   -32227   -59941 
  -84198   -94138  -102076  -117097  -127691  -123749  -104001   -72802 
  -39947   -16876    -8834    -9863   -13791   -13420     -301     6983 
  -12868   -39036   -53302   -62058   -61368   -60604   -74432   -84292 
  -85725   -88732   -80260   -68273   -70066   -68003   -54391   -45582 
  -41455   -34573   -28125   -18183    -5672    -9774   -29844   -45337 
  -45266   -26088    -8937   -24563   -60092   -84277   -88770   -74156 
  -44863   -20200   -18184   -30527   -42604   -52126   -56039   -60181 
  -68027   -64091   -50901   -39418   -20482    -5256   -13059   -23315 
  -19057   -12494    -9115   -16804   -44880   -71393   -77499   -75744 
  -66872   -48790   -45053   -56504   -61530   -61356   -58141   -52631 
  -55980   -59125   -53464   -52243   -56830   -63234   -69819   -68515 
  -65704   -68335   -68904   -64261   -52490   -35934   -26113   -28798 
  -39407   -47966   -46541   -36003   -26492   -24410   -25780   -27471 
  -26858   -25736   -33161   -46958   -54016   -48405   -37782   -31245 
  -28112   -27564   -31299   -39718   -52708   -64492   -70178   -69172 
  -58953   -45863   -42907   -49543   -54880   -54010   -49901   -44463 
  -38789   -36964   -39461   -46225   -56643   -59580   -52396   -49324 
  -52440   -51966   -47281   -44361   -47150   -54041   -60546   -59499 
  -47559   -38997   -43019   -48438   -47069   -39035   -30717   -29496 
  -34920   -46184   -58171   -63502   -60756   -50303   -42808   -49408 
  -65376   -75826   -63460   -37357   -26418   -32930   -42363   -44609 
  -36732   -30044   -33286   -41054   -44162   -42646   -45617   -52459 
  -54372   -48697   -41724   -40277   -41160   -42318   -40531   -30110 
  -23240   -28557   -37299   -45018   -49842   -49960   -47779   -50306 
  -60520   -65537   -58233   -48069   -43382   -46662   -53114   -57265 
  -55961   -47906   -42294   -43929   -49567   -56311   -55914   -50518 
  -47117   -43283   -40150   -34155   -27965   -35969   -47344   -47532 
  -44705   -39190   -31356   -34994   -48590   -57190   -54739   -45694 
  -42155   -50923   -61754   -61159   -48447   -34356   -30258   -36906 
  -45805   -51595   -50560   -40927   -33235   -34592   -38878   -44392 
  -52693   -58492   -57163   -52068   -49547   -52413   -58398   -63456 
  -66658   -66677   -60164   -49118   -40937   -39895   -45172   -54291 
  -58530   -50128   -39538   -41365   -55447   -69313   -65956   -44878 
  -26546   -23792   -30500   -37543   -40699   -37147   -29309   -22890 
  -20119   -25392   -40142   -54726   -61416   -63267   -64037   -60573 
  -54282   -52559   -53037   -50670   -46727   -41497   -37222   -35985 
  -36023   -38794   -43799   -46673   -45513   -40459   -38142   -43240 
  -47794   -47486   -45621   -43383   -46106   -54336   -54643   -45100 
  -36794   -31185   -30029   -38803   -52473   -61385   -58475   -45314 
  -36459   -39645   -49366   -60890   -66355   -60774   -52766   -48517 
  -46357   -46882   -51699   -57545   -56767   -48440   -40724   -37760 
  -38820   -41091   -40666   -39702   -40066   -39968   -39532   -39421 
  -42624   -49648   -56235   -59682   -58405   -55444   -53019   -46950 
  -39586   -36252   -37023   -43015   -49578   -48269   -40879   -32340 
  -28871   -37323   -50217   -55368   -51289   -43005   -40779   -51354 
  -64413   -66189   -58843   -51583   -49619   -52874   -53578   -48899 
  -44235   -40051   -37625   -39179   -41183   -42313   -43417   -45657 
  -49372   -50271   -48400   -47020   -45274   -44392   -42553   -37760 
  -37740   -41683   -43519   -45904   -46265   -44895   -47699   -51738 
  -53681   -49986   -40382   -35572   -40591   -49144   -52463   -48421 
  -46961   -52555   -56317   -55903   -54926   -51003   -44174   -40063 
  -42140   -48000   -50330   -46407   -41343   -36312   -33648   -41412 
  -52716   -53811   -45651   -35083   -30257   -34669   -40474   -46040 
  -53919   -57847   -57595   -57276   -56000   -56614   -57751   -54673 
  -50107   -44406   -40163   -41270   -39325   -30915   -24800   -29108 
  -43731   -55277   -54070   -46222   -42218   -46664   -52942   -54643 
  -54044   -51208   -47098   -47807   -51514   -51187   -46751   -41149 
  -35922   -32016   -30499   -33394   -40320   -46414   -46332   -42774 
  -44209   -50337   -54426   -53732   -49593   -46762   -49774   -57852 
  -63640   -59968   -50143   -43179   -43664   -48482   -49443   -44838 
  -39336   -34508   -33127   -38045   -45701   -50859   -51052   -48940 
  -49103   -51545   -53883   -54773   -53728   -50730   -48285   -48973 
  -49638   -48270   -46286   -43699   -44420   -46577   -41238   -34888 
  -34172   -33538   -37261   -45281   -45800   -41455   -41384   -46823 
  -54824   -57750   -52739   -45852   -42570   -46251   -52994   -54191 
  -51250   -48304   -44842   -43278   -44347   -43891   -40837   -38830 
  -39652   -40101   -39015   -40952   -46155   -49214   -50911   -55317 
  -60104   -57400   -45632   -36979   -38844   -47915   -58401   -57581 
  -44489   -34225   -32559   -39789   -50920   -53842   -50584   -47988 
  -44536   -43621   -47904   -52616   -52793   -46462   -41362   -45763 
  -51599   -49732   -45064   -44167   -47834   -52681   -53396   -48766 
  -41108   -35320   -35500   -35500   -31149   -31707   -40894   -50911 
  -55105   -51845   -47636   -49705   -54604   -57917   -60556   -60623 
  -57604   -55426   -52267   -45971   -41004   -39735   -39756   -36437 
  -31560   -33667   -40913   -45898   -47213   -45901   -46845   -51154 
  -54087   -54552   -53003   -53080   -55155   -51246   -41704   -33885 
  -32707   -41231   -52548   -55993   -50843   -41609   -36043   -40328 
  -48481   -50429   -44181   -35958   -34110   -39668   -45782   -48844 
  -50325   -51190   -52027   -51622   -49685   -49689   -53017   -57111 
  -56317   -48033   -38792   -35469   -39046   -45823   -48116   -43368 
  -39722   -42538   -47020   -50222   -53468   -54525   -50409   -42240 
