Origin Time       2024/04/02 04:24:00
Lat.              40.133
Long.             141.712
Depth. (km)       71
Mag.              6.0
Station Code      IWT014
Station Lat.      39.4846
Station Long.     141.1466
Station Height(m) 86
Record Time       2024/04/02 04:24:54
Sampling Freq(Hz) 100Hz
Duration Time(s)  138
Dir.              U-D
Scale Factor      7845(gal)/8223790
Max. Acc. (gal)   18.919
Last Correction   2024/04/02 04:24:54
Memo.             
[...]
  -50726   -50724   -50720   -50718   -50720   -50728   -50738   -50741 
  -50737   -50728   -50720   -50719   -50726   -50727   -50720   -50715 
  -50724   -50739   -50739   -50726   -50714   -50715   -50727   -50739 
  -50743   -50739   -50733   -50730   -50734   -50733   -50712   -50692 
  -50693   -50712   -50735   -50746   -50741   -50734   -50734   -50724 
  -50712   -50714   -50722   -50730   -50737   -50738   -50739   -50738 
  -50730   -50724   -50728   -50727   -50715   -50715   -50731   -50741 
  -50735   -50724   -50719   -50722   -50723   -50720   -50724   -50733 
  -50731   -50727   -50731   -50735   -50730   -50724   -50720   -50720 
  -50726   -50730   -50731   -50735   -50733   -50720   -50716   -50723 
  -50724   -50726   -50737   -50739   -50735   -50731   -50722   -50715 
  -50716   -50716   -50715   -50724   -50731   -50727   -50723   -50723 
  -50712   -50700   -50697   -50703   -50716   -50720   -50712   -50712 
  -50716   -50719   -50726   -50733   -50738   -50750   -50764   -50769 
  -50774   -50774   -50765   -50770   -50793   -50808   -50804   -50780 
  -50743   -50722   -50710   -50704   -50723   -50735   -50730   -50711 
  -50631   -50554   -50614   -50751   -50874   -50980   -50962   -50800 
  -50668   -50633   -50679   -50811   -50909   -50892   -50841   -50757 
  -50633   -50603   -50703   -50824   -50938   -51077   -51251   -51354 
  -51170   -50778   -50554   -50510   -50457   -50588   -50911   -50958 
  -50591   -50140   -49828   -49702   -49793   -50110   -50530   -50653 
  -50426   -50399   -50599   -50616   -50664   -50969   -51283   -51505 
  -51692   -51752   -51505   -50876   -49998   -49038   -48408   -48701 
  -49500   -50022   -50498   -50680   -50187   -50172   -50826   -51227 
  -51745   -52069   -51405   -50708   -50305   -49839   -50363   -51892 
  -52905   -53408   -53422   -51617   -49113   -48351   -48798   -49347 
  -50116   -50345   -49688   -49314   -49696   -49971   -49720   -49896 
  -50776   -51038   -50773   -51706   -53912   -54893   -52783   -49869 
  -48514   -47918   -48921   -51541   -52817   -53765   -55159   -53509 
  -49997   -48978   -49881   -50556   -51912   -53707   -52980   -50573 
  -49199   -48370   -48477   -49225   -49306   -51636   -55827   -56785 
  -54961   -52278   -48701   -47063   -47671   -47748   -48332   -49323 
  -48382   -47807   -49316   -49873   -49194   -50153   -52569   -54847 
  -56276   -55159   -52637   -51752   -50569   -49341   -51807   -54029 
  -52188   -50707   -51896   -52312   -50118   -48462   -48563   -48266 
  -49935   -53601   -53037   -48853   -45839   -44111   -44197   -47093 
  -50696   -52961   -53412   -51875   -49902   -49744   -50388   -51282 
  -54093   -56818   -56623   -54309   -50776   -46600   -44228   -45522 
  -48741   -51328   -52699   -53142   -53395   -52643   -49835   -48338 
  -50692   -53512   -53362   -51001   -48373   -46097   -45997   -49995 
  -54727   -56791   -57019   -54103   -47906   -43497   -43127   -44143 
  -45277   -49253   -54776   -55505   -52488   -49519   -46595   -47282 
  -52851   -56531   -54083   -50112   -49069   -49624   -51823   -54961 
  -55250   -53323   -50306   -45522   -42835   -46145   -53130   -58816 
  -60058   -56995   -51779   -45779   -41887   -43409   -48162   -52749 
  -54980   -52998   -50116   -48378   -45272   -44315   -49707   -55930 
  -55956   -51779   -50018   -49665   -46872   -46495   -51470   -55555 
  -55660   -54869   -54770   -53970   -50226   -44382   -42792   -47644 
  -52947   -56563   -58626   -56020   -51941   -51252   -50333   -46862 
  -45218   -47252   -48752   -48253   -49744   -51263   -49524   -50085 
  -52708   -50746   -47795   -48756   -49488   -48847   -51291   -54604 
  -54326   -53897   -54722   -53418   -51277   -48836   -46063   -48097 
  -52409   -52211   -52100   -53977   -52775   -51749   -52215   -48849 
  -45639   -47644   -48516   -45662   -46257   -50202   -51182   -52454 
  -56949   -57473   -53064   -50070   -48620   -48163   -50660   -53276 
  -54032   -54865   -54558   -52266   -50315   -47807   -43457   -41493 
  -44560   -48717   -50985   -53488   -56988   -57487   -54101   -51075 
  -49987   -49470   -48799   -49111   -51223   -51871   -50319   -50710 
  -51568   -50072   -49643   -50008   -48930   -49975   -52373   -52146 
  -51213   -50153   -48899   -50608   -52776   -51672   -50616   -51413 
  -52077   -52586   -52609   -51077   -49496   -49141   -49299   -50371 
  -51602   -50545   -48385   -47385   -48170   -50182   -49986   -48015 
  -49434   -52834   -53520   -52605   -52088   -51381   -50747   -50701 
  -51406   -53519   -55046   -53465   -51463   -51317   -50224   -47827 
  -47568   -49798   -52020   -52536   -51726   -51499   -51810   -50996 
  -49628   -48867   -48481   -48525   -48504   -47691   -48428   -52246 
  -54697   -53092   -51039   -49262   -46831   -46939   -49069   -50226 
  -52508   -55941   -56531   -54078   -51224   -49422   -48118   -46642 
  -47031   -50051   -52855   -53438   -52482   -52543   -53053   -50434 
  -47808   -49447   -50776   -49227   -49171   -50728   -50334   -49137 
  -50248   -52384   -53088   -53809   -54444   -52429   -49813   -48135 
  -46303   -46610   -48567   -48829   -49531   -51474   -51830   -51381 
  -49596   -46457   -47591   -52087   -53632   -53705   -55345   -55603 
  -53003   -51177   -51198   -50249   -49091   -50280   -51864   -51902 
  -52377   -52469   -50186   -49416   -50078   -47358   -45296   -47794 
  -49906   -50049   -51077   -52161   -51950   -52092   -53021   -52686 
  -50980   -50028   -49674   -49295   -50222   -51525   -51695   -51070 
  -49995   -50647   -52348   -50538   -48173   -49783   -50962   -50475 
  -51588   -51925   -51532   -52902   -52712   -50572   -50139   -50445 
  -49905   -49939   -50469   -50137   -49520   -49594   -49982   -50279 
  -50881   -51661   -51943   -51287   -49729   -49821   -52107   -52299 
  -51324   -52359   -52641   -51956   -51657   -49798   -47916   -47989 
  -48270   -49187   -51794   -52559   -49516   -47515   -48257   -48155 
  -49384   -53017   -53381   -52263   -54213   -54214   -50383   -48011 
  -48105   -49894   -51911   -51273   -51582   -53751   -51675   -49179 
  -51958   -52964   -49273   -48616   -51235   -51285   -50958   -52805 
  -53129   -51250   -49311   -47547   -47137   -48361   -48747   -49820 
  -53774   -55398   -52744   -51013   -50187   -48224   -47525   -48899 
  -50777   -52026   -52115   -51574   -50321   -49210   -50541   -51486 
  -49779   -50672   -53184   -51015   -48398   -50612   -53107   -52173 
  -50483   -50909   -52357   -52035   -50379   -49968   -50584   -50777 
  -51371   -52542   -52500   -51537   -51036   -50679   -50855   -50826 
  -48482   -46191   -45789   -45810   -47819   -51298   -52238   -51700 
  -52450   -53011   -52149   -51059   -50311   -50218   -51325   -53103 
  -54000   -52844   -51339   -51524   -51648   -50210   -49493   -50739 
  -51143   -49851   -49994   -51309   -51046   -50448   -50575   -49603 
  -48886   -50784   -52182   -51282   -51570   -51868   -49437   -48784 
  -50569   -49931   -48976   -49430   -48547   -49092   -51398   -50604 
  -49804   -52305   -53485   -52668   -52323   -50863   -49366   -50325 
  -50657   -48783   -48289   -50373   -52007   -51771   -52024   -52747 
  -51228   -49453   -50272   -51333   -50627   -50183   -51368   -51335 
  -49133   -49449   -51822   -51521   -51525   -52836   -50545   -47741 
  -48065   -48278   -49088   -51563   -52080   -51128   -50900   -49277 
  -47363   -48697   -50954   -52906   -56358   -57618   -54691   -52093 
  -50827   -48544   -46855   -47972   -49748   -51032   -53523   -54896 
  -52398   -49412   -48667   -49162   -50824   -52301   -51020   -48953 
  -48847   -48952   -48732   -50055   -51124   -50357   -50137   -50953 
  -51262   -51069   -51578   -53125   -53055   -50797   -49810   -49508 
  -48076   -48770   -52536   -55020   -54426   -52539   -49631   -47274 
  -48794   -51568   -51247   -49816   -49526   -48779   -47552   -48204 
  -50552   -52520   -54457   -55678   -52790   -48525   -48296   -48969 
  -48284   -50664   -54688   -55545   -54411   -52288   -48224   -45528 
  -46773   -48242   -48496   -50186   -51390   -50363   -49927   -50295 
  -50866   -51765   -50360   -48084   -49562   -52552   -53944   -55351 
  -55476   -52371   -49621   -49874   -51370   -52378   -52080   -50433 
  -48789   -48278   -48847   -49856   -51039   -51999   -51533   -49858 
  -48660   -48770   -49850   -51220   -52648   -52651   -50554   -49678 
  -50178   -48868   -48394   -51138   -52164   -50414   -50962   -51312 
  -48247   -48647   -52043   -50560   -48837   -51980   -54036   -53023 
  -52116   -51576   -50661   -48595   -47082   -48228   -48504   -48023 
  -51138   -53404   -51285   -49863   -50978   -53094   -54742   -55221 
  -56191   -55140   -50912   -48674   -47623   -46392   -48836   -52207 
  -52459   -51777   -51436   -51133   -51102   -50253   -48643   -48756 
  -49222   -47456   -47382   -50488   -52600   -53395   -53395   -52174 
  -51629   -51236   -49816   -49198   -49288   -49037   -49783   -51031 
  -50612   -50263   -52276   -53665   -52874   -53761   -55055   -51910 
  -48111   -47673   -47532   -48547   -52208   -52636   -48540   -46600 
  -48020   -48487   -48725   -52223   -55472   -53183   -50209   -51763 
  -52620   -50776   -50847   -51266   -49658   -50071   -52209   -51425 
  -49997   -50739   -50457   -49990   -51961   -51700   -48119   -47973 
  -50822   -49931   -47131   -48520   -51335   -50739   -50457   -53354 
  -53933   -49989   -48834   -53650   -55652   -51424   -49956   -51597 
  -49512   -48506   -51663   -51696   -49115   -49118   -49597   -49351 
  -49983   -50566   -50314   -50522   -52540   -53828   -51514   -49103 
  -49160   -49053   -48563   -49738   -51478   -51347   -50496   -51648 
  -54004   -54619   -52879   -50604   -47808   -44990   -46809   -51966 
  -53458   -52806   -53022   -51285   -49312   -49786   -49836   -49042 
  -50372   -52644   -51939   -50066   -50226   -49443   -47656   -48837 
  -51692   -53134   -52455   -51372   -51796   -51624   -51417   -54321 
  -55933   -53308   -50986   -49677   -47844   -46943   -47860   -50344 
  -52559   -53013   -53080   -53080   -51748   -49576   -48621   -49561 
  -50063   -49813   -51032   -51312   -49073   -48668   -50018   -50152 
  -51524   -53357   -51055   -48253   -50151   -52324   -50444   -48965 
  -50724   -51120   -49796   -51382   -53077   -50649   -48289   -48878 
  -48898   -48016   -50803   -55547   -54774   -50237   -48313   -47538 
  -47306   -49342   -50183   -49781   -51923   -53314   -50971   -49904 
  -51626   -51644   -50587   -51012   -50935   -50970   -52663   -52929 
  -52254   -53601   -54457   -53050   -51524   -50461   -49295   -49103 
  -50166   -50090   -48732   -48612   -49354   -49773   -50198   -50175 
  -49735   -49410   -49258   -50178   -51463   -50870   -49971   -51115 
  -52212   -52467   -53488   -52957   -49441   -47432   -48987   -50487 
  -51031   -52475   -52878   -51185   -50161   -49064   -46865   -47618 
  -50099   -48184   -46126   -50215   -53418   -50962   -50391   -53522 
  -54306   -53558   -54695   -54386   -51409   -51020   -52650   -51305 
  -49180   -48355   -45877   -44517   -48647   -53569   -54884   -54378 
  -52567   -50113   -49439   -50157   -50796   -51117   -51397   -51482 
  -49735   -47563   -48709   -50423   -50271   -52208   -53701   -50877 
  -49538   -49528   -46897   -47715   -51541   -51422   -50916   -51563 
  -50217   -50828   -52614   -51007   -50865   -53269   -51291   -46917 
  -47923   -52182   -52358   -49688   -48400   -47471   -47918   -51510 
  -54607   -55151   -55201   -54778   -51876   -49268   -51116   -52829 
  -51201   -51146   -51565   -49381   -48890   -49761   -47202   -44454 
  -46408   -49674   -50183   -50240   -50868   -50448   -51260   -53343 
  -52640   -50926   -51208   -50915   -49997   -50357   -50296   -49397 
  -48821   -49130   -51352   -53847   -53665   -51691   -49952   -49040 
  -50141   -52332   -51703   -49021   -48810   -50263   -50311   -49828 
  -50418   -52058   -53617   -54031   -53535   -51834   -49138   -48240 
  -50467   -53337   -53778   -52137   -50658   -48686   -47054   -49623 
  -54027   -54803   -53192   -52898   -53445   -52640   -50807   -49260 
  -47792   -47767   -50855   -53393   -52641   -52280   -52969   -51021 
  -48528   -49096   -49168   -46935   -47518   -51051   -51849   -50371 
  -50218   -49542   -47162   -47117   -50630   -53743   -54585   -54500 
  -53427   -51028   -49844   -51275   -52251   -51123   -50517   -52097 
  -55358   -58380   -58035   -54371   -50535   -48180   -46755   -45792 
  -47034   -50380   -51333   -49391   -48057   -46809   -46049   -48379 
  -51544   -53142   -53156   -50398   -46184   -43437   -43221   -46326 
  -50959   -54432   -57045   -57156   -53403   -50777   -51942   -52907 
  -52590   -53403   -55109   -54873   -50433   -45117   -44104   -45324 
  -46300   -49512   -52131   -50072   -48613   -50517   -50791   -49262 
  -49508   -51808   -54325   -55803   -56978   -56929   -54476   -52315 
  -50214   -45831   -42408   -43374   -47205   -51362   -55440   -58587 
  -57145   -50834   -44153   -39722   -39942   -45711   -50715   -50371 
  -47611   -44956   -43403   -45073   -50194   -55663   -57677   -55584 
  -52845   -52735   -54827   -57042   -58430   -59277   -59266   -56875 
  -52791   -49671   -48095   -47371   -46773   -45509   -44740   -46734 
  -51004   -53964   -53412   -50403   -45613   -40355   -39225   -43036 
  -48660   -57900   -68773   -70561   -62054   -52579   -46332   -43981 
  -46966   -52609   -56775   -59314   -59179   -55173   -52393   -52628 
  -51240   -49273   -48616   -45684   -42153   -42507   -43128   -42665 
  -46342   -51939   -54106   -53763   -50828   -44605   -39699   -40316 
  -45292   -51043   -55695   -59613   -60902   -56405   -50504   -49864 
  -51004   -50006   -50990   -53311   -52991   -54186   -58430   -58000 
  -52130   -49356   -51102   -52105   -51436   -50156   -47109   -42886 
  -41015   -42709   -46330   -51714   -56632   -56096   -51783   -49140 
  -48294   -48884   -52095   -55173   -55953   -56762   -57302   -54838 
  -52057   -52645   -52876   -49077   -44539   -40905   -37095   -36525 
  -41138   -46295   -49215   -50893   -48882   -42079   -37573   -39895 
  -44247   -47474   -52261   -58641   -63397   -65861   -66456   -64465 
  -60601   -56644   -53300   -51582   -51737   -52281   -53585   -54904 
  -52361   -47039   -42873   -38882   -35796   -38033   -43650   -48217 
  -53119   -57759   -57708   -53832   -51070   -51723   -53713   -54606 
  -55059   -54784   -53395   -54133   -57018   -57755   -56706   -56425 
  -54093   -47742   -42257   -39919   -36676   -33871   -36763   -43081 
  -49349   -55556   -58783   -57681   -54843   -52010   -51678   -53235 
  -52678   -52582   -55699   -57807   -57954   -58291   -57439   -55163 
  -53260   -50969   -48276   -49026   -53932   -57555   -56458   -53509 
  -51656   -48774   -43754   -40645   -40598   -40296   -39721   -41308 
  -44975   -48855   -51773   -54314   -56689   -57466   -56959   -55598 
  -52038   -48697   -48867   -50832   -53415   -55624   -52980   -46082 
  -40576   -37820   -38276   -43027   -48057   -49253   -47997   -48093 
  -52458   -58891   -61757   -59813   -54662   -48879   -45810   -44554 
  -45036   -49428   -54171   -56276   -57260   -58028   -59742   -59768 
  -55247   -52512   -52930   -50369   -48961   -52281   -53014   -50193 
  -50107   -52014   -51108   -47887   -45751   -45219   -44817   -44537 
  -45138   -45238   -43779   -43893   -47412   -50552   -52138   -54831 
  -55270   -50618   -48157   -51084   -52930   -52578   -53161   -53681 
  -53531   -52739   -51135   -51304   -52745   -52454   -52593   -54541 
  -55547   -55364   -54900   -53252   -51852   -53933   -56766   -55232 
  -52297   -51339   -49333   -48390   -52686   -55679   -52479   -49195 
  -46820   -40257   -35482   -40219   -46874   -49627   -54224   -57686 
  -53114   -48199   -48485   -47677   -47154   -51732   -55086   -53399 
  -51877   -52147   -51964   -51197   -51229   -53005   -54730   -54301 
  -53293   -53322   -52816   -50939   -50230   -51822   -53190   -53303 
  -53037   -51838   -49297   -47205   -47260   -48249   -49387   -51351 
  -51239   -48091   -45808   -43324   -39297   -38271   -40471   -43480 
  -48420   -52416   -52062   -51422   -52101   -50376   -47663   -47497 
  -48703   -50410   -52807   -54602   -55923   -56582   -54499   -49659 
  -45860   -46545   -48614   -48591   -49080   -49546   -47784   -48388 
  -52361   -54643   -55732   -56598   -54337   -51302   -51813   -54481 
  -56434   -56610   -55401   -54074   -52906   -52416   -52945   -51467 
  -47286   -45084   -45531   -45160   -44613   -46608   -50373   -52650 
  -53060   -54124   -55975   -56806   -56139   -56560   -59906   -61173 
  -57662   -55545   -56960   -57358   -56010   -55142   -53757   -49821 
  -44757   -42126   -42606   -42986   -42072   -42462   -44756   -47268 
  -49068   -49503   -48608   -47078   -46585   -49262   -52911   -53821 
  -54268   -55810   -53929   -49412   -48105   -47996   -45254   -43379 
  -45019   -47497   -47946   -46377   -45472   -47004   -49681   -52917 
  -56722   -58700   -58352   -58137   -58066   -57073   -56143   -55313 
  -52678   -49069   -47416   -46938   -47190   -49816   -51268   -48976 
  -46008   -43002   -40257   -39205   -40076   -45173   -51873   -53514 
  -53770   -56693   -56685   -53777   -52689   -52006   -51567   -52748 
  -53044   -52010   -51540   -51059   -50028   -50421   -52987   -54799 
  -54298   -52610   -49200   -45783   -47140   -51121   -52404   -53744 
  -57342   -57601   -53743   -51915   -52340   -51193   -50072   -51248 
  -52003   -51021   -50170   -48544   -45466   -43919   -44878   -46677 
  -48880   -51590   -53812   -54359   -53434   -50982   -46701   -43303 
  -43464   -46079   -48610   -50593   -53658   -55633   -53096   -50033 
  -49890   -50035   -51316   -54854   -56235   -55027   -53627   -50726 
  -48841   -51031   -52628   -52247   -53512   -53759   -51094   -50622 
  -53090   -54330   -55059   -57069   -57015   -54045   -52462   -52431 
  -51756   -51456   -50395   -46803   -43679   -43518   -45177   -47094 
  -48334   -48092   -46408   -45975   -48296   -49545   -48871   -49929 
  -50603   -49032   -49527   -50642   -48316   -46998   -49277   -50734 
  -50572   -50793   -50804   -49893   -48691   -49716   -53883   -56560 
  -55405   -53744   -52733   -51439   -50271   -49266   -48577   -48591 
  -48614   -48465   -49184   -51066   -52024   -50251   -48540   -50237 
  -53181   -53755   -52910   -53273   -52963   -49542   -46881   -48342 
  -51169   -53312   -54290   -52821   -51171   -51098   -49596   -47787 
  -49485   -51979   -52699   -54141   -55378   -53603   -51934   -52162 
  -50724   -48504   -49315   -51830   -52990   -52142   -50955   -51740 
  -52940   -50971   -47721   -47286   -47694   -46446   -46449   -48080 
  -48753   -50510   -53816   -54677   -54681   -56165   -54438   -49414 
  -47345   -48195   -48015   -47703   -49702   -52328   -52891   -52246 
  -51953   -51723   -51848   -52332   -51723   -51329   -52709   -52051 
  -48321   -47398   -49682   -49750   -48883   -50213   -50369   -48525 
  -48733   -50330   -50884   -52400   -54730   -54297   -51695   -49794 
  -47860   -45570   -45854   -47854   -48660   -50224   -52450   -52184 
