Origin Time       2024/04/02 04:24:00
Lat.              40.133
Long.             141.712
Depth. (km)       71
Mag.              6.0
Station Code      IWT011
Station Lat.      39.1453
Station Long.     141.1527
Station Height(m) 43
Record Time       2024/04/02 04:24:58
Sampling Freq(Hz) 100Hz
Duration Time(s)  132
Dir.              N-S
Scale Factor      7845(gal)/8223790
Max. Acc. (gal)   19.094
Last Correction   2024/04/02 04:24:58
Memo.             
[...]
   -5625    -3844    -2863    -3325    -4538    -5559    -6170    -6420 
   -5395    -3462    -2512    -2531    -2795    -3908    -5941    -7345 
   -6444    -4149    -2899    -2785    -3045    -4369    -6222    -6810 
   -6427    -6197    -5552    -4318    -3676    -3910    -4538    -5535 
   -6361    -6258    -5913    -6185    -6660    -6766    -6102    -4322 
   -2566    -2824    -4725    -6211    -6910    -7055    -5674    -3034 
   -1514    -2106    -3337    -4638    -6751    -8371    -7241    -4413 
   -2569    -1723    -1111    -2056    -5031    -7723    -8646    -8818 
   -8696    -7515    -5803    -4731    -3947    -3067    -2905    -3520 
   -3975    -4421    -5428    -5926    -4850    -2933    -1281     -457 
    -623    -1671    -3396    -5304    -6810    -7261    -6208    -4603 
   -3615    -3110    -3199    -4283    -5308    -5111    -4437    -4342 
   -4338    -3824    -3358    -3586    -4264    -4536    -4295    -4414 
   -4752    -4456    -3967    -3902    -3966    -3951    -3730    -3244 
   -3190    -4252    -5788    -6448    -6056    -5606    -5182    -3663 
   -1479    -1044    -2652    -3735    -3384    -3276    -4461    -6099 
   -6770    -6521    -6477    -6670    -6593    -6286    -5773    -5148 
   -4619    -4025    -3335    -3091    -3515    -3986    -4261    -4935 
   -5711    -5584    -5123    -5283    -5709    -6297    -6914    -6355 
   -4565    -3507    -3919    -4008    -3373    -3896    -5548    -6594 
   -6826    -6777    -6181    -5263    -4835    -4521    -3682    -3055 
   -3435    -4534    -5414    -5435    -5097    -5275    -5930    -6245 
   -5618    -4577    -4406    -5151    -5279    -4322    -3797    -4596 
   -5441    -4846    -3198    -1799    -1385    -2208    -3842    -5298 
   -6284    -7204    -7846    -7308    -5732    -4637    -4369    -3530 
   -2196    -2012    -2891    -3910    -5240    -6176    -5385    -3723 
   -3009    -3321    -3748    -4059    -4401    -4784    -5614    -7015 
   -7685    -6732    -5436    -4945    -4641    -4228    -4317    -4712 
   -4797    -4945    -5506    -5613    -4830    -4101    -3681    -3014 
   -2431    -2601    -3566    -5067    -6529    -7018    -6258    -5086 
   -4205    -3659    -3580    -3770    -3724    -3973    -5032    -5913 
   -5935    -5913    -6050    -5312    -4070    -3850    -4266    -4166 
   -3792    -3376    -2670    -2273    -2913    -3784    -3570    -2569 
   -2099    -2695    -4023    -5475    -6596    -7017    -5886    -3246 
   -1324    -1688    -3383    -5339    -7200    -7987    -7341    -6430 
   -5555    -3890    -2058    -1629    -2338    -2563    -2274    -2597 
   -3100    -2943    -2933    -3730    -4511    -4664    -4442    -4035 
   -3654    -3658    -3851    -4063    -4770    -5953    -6917    -7246 
   -6897    -6389    -6575    -7269    -7437    -6887    -6268    -5667 
   -4604    -3329    -2793    -2972    -2902    -2509    -2506    -3254 
   -4793    -6504    -7080    -6315    -5458    -5119    -4980    -5107 
   -5557    -5994    -6272    -6046    -5017    -4399    -5464    -6960 
   -7126    -6519    -6029    -5058    -3689    -3366    -4315    -5219 
   -5674    -6127    -6158    -5675    -5702    -6037    -5314    -3935 
   -3497    -3928    -4104    -4105    -4627    -5197    -4792    -3794 
   -3283    -3314    -3669    -4580    -6025    -7275    -7430    -6798 
   -6286    -5724    -5174    -5328    -5564    -5228    -5088    -5320 
   -5073    -4461    -4310    -4307    -3813    -3503    -3879    -4194 
   -4205    -4317    -4293    -4207    -4799    -5501    -4959    -3677 
   -3042    -2903    -2764    -3230    -4099    -4105    -3599    -3465 
   -3003    -2053    -1566    -1719    -2189    -2953    -3924    -4639 
   -5124    -6164    -7487    -7527    -5881    -3785    -2236    -1537 
   -1883    -3142    -4708    -5688    -5584    -4974    -4531    -4387 
   -4943    -6147    -6585    -5296    -3470    -2751    -3003    -3237 
   -3148    -2740    -2326    -2722    -3597    -3659    -3453    -4379 
   -5771    -6245    -5949    -5941    -6385    -6407    -6157    -6563 
   -7022    -6579    -5671    -5039    -5022    -5402    -5362    -4760 
   -4347    -4313    -4322    -4386    -4515    -4557    -4734    -5213 
   -5360    -4881    -4862    -5931    -6770    -6272    -5510    -5645 
   -6135    -6569    -6991    -6682    -5463    -4345    -3951    -3966 
   -4039    -4436    -5336    -5975    -5395    -3753    -2409    -2528 
   -3693    -4662    -4986    -5098    -5333    -5429    -5097    -4333 
   -3256    -2666    -3276    -4225    -4579    -4973    -5803    -6008 
   -5267    -4635    -4145    -3105    -2241    -2427    -3015    -3420 
   -4152    -5148    -5247    -4093    -2563    -1131     -187     -783 
   -2793    -4488    -4986    -4785    -4237    -3740    -4155    -5321 
   -6046    -6138    -6176    -5903    -5073    -4608    -5182    -5991 
   -6250    -6247    -6077    -5472    -4860    -4668    -4645    -4654 
   -4716    -4639    -4345    -3882    -3520    -3589    -3759    -3649 
   -3577    -3739    -4094    -4837    -5849    -6839    -7790    -8406 
   -8190    -7231    -6039    -4865    -3659    -2747    -2571    -2890 
   -3589    -4866    -5913    -5587    -4305    -3696    -4071    -4070 
   -3719    -4467    -5725    -5806    -5233    -5088    -4889    -4550 
   -5026    -6180    -6508    -5297    -3688    -3073    -3369    -3834 
   -4531    -5300    -5263    -4757    -4924    -5416    -5202    -4671 
   -4708    -4857    -4326    -3466    -2891    -2573    -2295    -2134 
   -2394    -3154    -3985    -4529    -5290    -6585    -7358    -6982 
   -6389    -5994    -5119    -3944    -3562    -4152    -4851    -5174 
   -5167    -4885    -4729    -4893    -4738    -4152    -3717    -3427 
   -3186    -3426    -4126    -4461    -4387    -4903    -6037    -6971 
   -7561    -7669    -6947    -5800    -4743    -3759    -3007    -2921 
   -3596    -4584    -5323    -5680    -5772    -5628    -5171    -4321 
   -3476    -3038    -2697    -2542    -3167    -4132    -4807    -5306 
   -5512    -5346    -4935    -4045    -3094    -3245    -4830    -6544 
   -6756    -5898    -5246    -4315    -2829    -2208    -2862    -3742 
   -4710    -5937    -6467    -5914    -5297    -4986    -4325    -3528 
   -3438    -3719    -3700    -3727    -4182    -4928    -5676    -6231 
   -6729    -7018    -6829    -6675    -6573    -5568    -4039    -3431 
   -3786    -4233    -4383    -3944    -2740    -1479    -1165    -1420 
   -1464    -2106    -3514    -4029    -3786    -4733    -6628    -7592 
   -7557    -7654    -7501    -6457    -5647    -5678    -5508    -4996 
   -4761    -4567    -4399    -4527    -4216    -3064    -2266    -2605 
   -3141    -3159    -3275    -3820    -4147    -3728    -2926    -2729 
   -3684    -5220    -6365    -6669    -6282    -5618    -5154    -5059 
   -5406    -6538    -8077    -8434    -6783    -4565    -3418    -3129 
   -3223    -4005    -5053    -5232    -4494    -4086    -4473    -4958 
   -5282    -5293    -4793    -4545    -4919    -5200    -5562    -6682 
   -7535    -6651    -4743    -3600    -3477    -3477    -3345    -3279 
   -3126    -2855    -2567    -2088    -1603    -1776    -2971    -4869 
   -6501    -7217    -7427    -7384    -6741    -6016    -5845    -5491 
   -4677    -4450    -4869    -4781    -4043    -3866    -4730    -5447 
   -5224    -4839    -4760    -4378    -3700    -3329    -2895    -2199 
   -2259    -3123    -3497    -3447    -4252    -5566    -5935    -5506 
   -4899    -3726    -2697    -3153    -4191    -4271    -4064    -4726 
   -5597    -5850    -5837    -5578    -4858    -4576    -5202    -5663 
   -5537    -5559    -5386    -4193    -3017    -3068    -3376    -3125 
   -3141    -3549    -3559    -3335    -3306    -3207    -3349    -4376 
   -5466    -5476    -5142    -5568    -6197    -6257    -6214    -6453 
   -6571    -6394    -6092    -5871    -5783    -5243    -3970    -2876 
   -2714    -3276    -4118    -4951    -5678    -6330    -7107    -8008 
   -8178    -7126    -5842    -5071    -4361    -3797    -4284    -5340 
   -5359    -4452    -3838    -3446    -3173    -4000    -5746    -6685 
   -6276    -5429    -4502    -3522    -2836    -2686    -3349    -4617 
   -5316    -5028    -4704    -4862    -5250    -5671    -5648    -5017 
   -4734    -5297    -5837    -5571    -4796    -4351    -4263    -3638 
   -2470    -1809    -1768    -1603    -1426    -1918    -2937    -3705 
   -3923    -3850    -3628    -3408    -3809    -5279    -7159    -8283 
   -8390    -7932    -6975    -5371    -3719    -3210    -4112    -5255 
   -5794    -5803    -5286    -4630    -4418    -4214    -3797    -3920 
   -4545    -4652    -3816    -2644    -1818    -1395    -1381    -1980 
   -3072    -4324    -5282    -5374    -4931    -5123    -5987    -6384 
   -6092    -5611    -4819    -3979    -4109    -5066    -5832    -6370 
   -6858    -6639    -5471    -4102    -2992    -2151    -2053    -2809 
   -3781    -4719    -5332    -5154    -4565    -4260    -4529    -5321 
   -6237    -6801    -6637    -5786    -4806    -4028    -3370    -2965 
   -2995    -3342    -4012    -4830    -5065    -4706    -4635    -4926 
   -4935    -4779    -4869    -4876    -4756    -5128    -5842    -6490 
   -7371    -7998    -7137    -5386    -4537    -4599    -4680    -4864 
   -5111    -4889    -4197    -3484    -3034    -2797    -2762    -3040 
   -3424    -3518    -3245    -3188    -3996    -5200    -5845    -5755 
   -5005    -3704    -2678    -2980    -4434    -5485    -5566    -5810 
   -6089    -5174    -3983    -4183    -5198    -5659    -5398    -4735 
   -3894    -3630    -4531    -5672    -5962    -5948    -6394    -6723 
   -6253    -5745    -6026    -6035    -4766    -3348    -2592    -1873 
   -1674    -2767    -3977    -4422    -5030    -5998    -5987    -4735 
   -3765    -3580    -3276    -3281    -4411    -5740    -6531    -7364 
   -8332    -8583    -7765    -6482    -5351    -4525    -4033    -4021 
   -4448    -4456    -3276    -1950    -2093    -3187    -3503    -3156 
   -3559    -4537    -4945    -5116    -5605    -5533    -4792    -4673 
   -5250    -5589    -5742    -6033    -6156    -5902    -5206    -4077 
   -3065    -2596    -2393    -2538    -3308    -3769    -2844    -1552 
   -1483    -2135    -2712    -3936    -5753    -6785    -6743    -6562 
   -6438    -5786    -5004    -4986    -5278    -5044    -4627    -4266 
   -3177    -1819    -2151    -4041    -5605    -6671    -7303    -6372 
   -4527    -3885    -4521    -5000    -5147    -5476    -5449    -4723 
   -4271    -4569    -4716    -4194    -3632    -3350    -2813    -2120 
   -2151    -2867    -3422    -3493    -3246    -3144    -3624    -4417 
   -5098    -5404    -4947    -4133    -3894    -4293    -4870    -5350 
   -5660    -5869    -5811    -5347    -5127    -5826    -6772    -6808 
   -6201    -6029    -6178    -6010    -5919    -6137    -5929    -5313 
   -4745    -3989    -3466    -3932    -4666    -4691    -4403    -4353 
   -4272    -4055    -3649    -2687    -1965    -2566    -3422    -3198 
   -2664    -2797    -3059    -2690    -2043    -1984    -2621    -3377 
   -3936    -4428    -4970    -5514    -5998    -6504    -6979    -7022 
   -6602    -6108    -5395    -4153    -2975    -2772    -3481    -4267 
   -4799    -4976    -4251    -3086    -3046    -4298    -5481    -5832 
   -5798    -5863    -5702    -5439    -6075    -7480    -8650    -9255 
   -9022    -8006    -6899    -5919    -5560    -6399    -7411    -7503 
   -6906    -5813    -4209    -2764    -2262    -2420    -2473    -2625 
   -3119    -3230    -2859    -2901    -3493    -3734    -3314    -3192 
   -3666    -3829    -3620    -3703    -3986    -3959    -3527    -2810 
   -1544       20      558     -390    -1818    -3298    -5096    -6519 
   -6797    -6320    -5614    -5043    -5308    -6612    -7808    -7485 
   -6054    -5169    -5359    -6137    -6944    -7153    -6448    -4970 
   -3439    -3329    -5136    -7294    -8548    -9340    -9526    -7978 
   -5759    -5560    -7254    -8802   -10265   -12104   -12891   -11971 
  -10521    -9153    -7780    -6886    -6693    -6691    -6399    -5374 
   -3469    -1229      615     1503     1107     -114     -774     -692 
   -1863    -4540    -6031    -5748    -5683    -5840    -5113    -4779 
   -5977    -6983    -6582    -5818    -4907    -3060    -1178     -986 
   -2065    -2662    -2305    -1084     1136     3179     3692     3130 
    2079      267    -2100    -4502    -6845    -8873   -10025   -10493 
  -11267   -12974   -15318   -17037   -16492   -12973    -7160     -702 
    4689     7983     8294     5298      351    -4634    -8257    -9763 
   -9794    -9772    -9352    -6420    -1695      729      437     1324 
    3784     4502     3152     2169     1713     -270    -4225    -8580 
  -12177   -13738   -11529    -6737    -2296     1730     6011     8554 
    7600     4353      731    -3200    -8104   -13196   -16619   -17270 
  -15072   -10307    -4314      305     1919     1435      904      722 
    -895    -4857    -9443   -12511   -13779   -14069   -12787    -9150 
   -5479    -4182    -4205    -4024    -3194    -1341      274     -908 
   -5502   -11256   -14835   -14580   -11040    -4939     2146     7096 
    8698     8086     6091     4002     3519     3711     1439    -4237 
  -10666   -15210   -17039   -15917   -12802    -9709    -6980    -3581 
      37     2575     3978     4768     4668     2816     -832    -4854 
   -8054   -10265   -10806    -9352    -7711    -7159    -6362    -4315 
   -2497    -2810    -4900    -7373   -10917   -16438   -21897   -24663 
  -24069   -19704   -11049     -550     7165    10918    13088    14280 
   12906     8675     2987    -2779    -7366    -9225    -8473    -7676 
   -8310    -9572   -10909   -12077   -12906   -13878   -14688   -14782 
  -14939   -14855   -11947    -5580     1051     5443     8179     9778 
    9321     6683     3129     -695    -5579   -11461   -15842   -16357 
  -13529    -9126    -4422    -1630    -2820    -6444    -8733    -8554 
   -8189    -9351   -11140   -12251   -12642   -12433   -10903    -8009 
   -5341    -3738    -2470    -1443    -1182    -1154      -31     2161 
    3893     4660     4789     3538      124    -4005    -5609    -3612 
    -307     2358     3667     2806       64    -2779    -4355    -5209 
   -6968    -9875   -12469   -13549   -12895   -10494    -6643    -2505 
     688     1880     -108    -4565    -8438    -9670    -8492    -5555 
   -1640     1136      731    -2124    -4927    -6706    -7901    -8114 
   -6828    -4513    -1134     3589     7504     7245     2988    -1719 
   -4860    -7140    -9475   -11576   -12422   -11446    -9202    -6926 
   -5046    -2728       98     2247     2604      611    -2652    -5297 
   -6681    -5796    -1815     2328     2398    -1760    -6598    -9552 
  -10470    -8897    -5039    -2088    -2377    -4637    -7203   -10207 
  -13810   -16339   -16592   -16094   -15896   -14647   -11206    -6165 
   -1263     1908     3191     3659     4239     4679     3920     1040 
   -3852    -8901   -12147   -13964   -15491   -16183   -15273   -12951 
   -8745    -2351     3973     7495     7782     5352      764    -4082 
   -6714    -6249    -3726     -916     1163     2029      777    -2158 
   -4216    -3879    -2554    -2390    -3697    -5413    -7015    -8031 
   -7114    -3788     -288      243    -2230    -5427    -8626   -11607 
  -13105   -12945   -11996   -10654    -8780    -6528    -5512    -7254 
  -10358   -11699    -9865    -5976    -1902     1078     2319     1672 
     -48    -1777    -3854    -6447    -7933    -7785    -7670    -8333 
   -8571    -7295    -5024    -2802     -550     1858     3342     3411 
    3022     2506     1387      -54    -1217    -2181    -3123    -3676 
   -3839    -4529    -5949    -7303    -8459    -9397    -9234    -7689 
   -5509    -3130    -1026     -164     -398     -376      365     1196 
    1657     1151    -1426    -5967   -10462   -13181   -13738   -12235 
   -9549    -7312    -6386    -6798    -8314   -10107   -11269   -11728 
  -12295   -13717   -15399   -15769   -13994   -10717    -7276    -4425 
   -2172     -585      271      922     1895     2897     3103     2065 
     105    -1784    -2182     -666     1046     1255     -314    -4247 
  -10184   -14871   -15850   -14158   -11746    -9849    -9663   -11529 
  -13468   -12962   -10107    -6666    -3478     -862      761     1713 
    2978     5260     8279    10613    10750     8267     3890    -1115 
   -5255    -7096    -6416    -4834    -4010    -3770    -3241    -2613 
   -2050     -778     1225     3117     4662     5768     5782     4222 
    1688     -598    -2419    -4560    -7118    -9243   -10454   -11237 
  -12183   -12966   -12679   -11151    -8872    -5872    -2366      441 
    1814     2415     2616     1628     -696    -3558    -6839   -10381 
  -12756   -12960   -12179   -12123   -12617   -12444   -11091    -8803 
   -6381    -4658    -3942    -4232    -5356    -7126    -9005   -10079 
  -10559   -11396   -12052   -11242    -9273    -7576    -6647    -5988 
   -5247    -4271    -2988    -1811    -1113     -691     -858    -2689 
   -6027    -9032   -10343    -9764    -7321    -3804     -892      580 
    1112     1129      556     -307    -1086    -2160    -3630    -4932 
   -6077    -7155    -7476    -6912    -6539    -7024    -7808    -8483 
   -9319   -10114   -10462   -10338    -9390    -7537    -5671    -4284 
   -2721     -658      926     1179      244    -1463    -2786    -2342 
    -899     -314     -280      102     -591    -3240    -5753    -6651 
   -6817    -6681    -5582    -3673    -2007    -1337    -1933    -3550 
   -4977    -5179    -4927    -5331    -6037    -6399    -6488    -6378 
   -6052    -6056    -7036    -8413    -8942    -8479    -7491    -5888 
   -3855    -2083     -585      800     1278      217    -1505    -2517 
   -2843    -3712    -5209    -6272    -6826    -7226    -7311    -7388 
   -7873    -8348    -8263    -7659    -6917    -6269    -5606    -4950 
   -4685    -4780    -4830    -4734    -4253    -3194    -2131    -1534 
   -1381    -1856    -2700    -3011    -2758    -2695    -2786    -2290 
   -1236     -436     -405    -1404    -3659    -6346    -7693    -7184 
   -6247    -6149    -6763    -7889    -9828   -11959   -13099   -13293 
  -12977   -11747    -9504    -6852    -4298    -2110     -195     1676 
    3150     3616     3177     2732     2752     2502     1390       -2 
   -1166    -2265    -3302    -4197    -5260    -6664    -7987    -8700 
   -8945    -9072    -8634    -7299    -5610    -3983    -2681    -2122 
   -2031    -1479     -109     1459     2505     2790     2231     1088 
     217       76      167      -29     -642    -1880    -3534    -4577 
   -4353    -3037    -1139      249      186     -981    -2524    -4126 
   -5576    -6709    -7402    -7689    -7597    -7017    -6332    -6205 
   -6960    -8691   -11070   -13182   -14111   -13516   -11699    -9196 
   -6440    -4025    -2625    -2166    -2114    -2444    -3018    -3437 
   -4029    -5070    -6404    -8356   -10578   -11460   -10571    -9207 
   -8298    -8005    -8568    -9988   -11542   -12658   -13439   -13602 
  -12587   -11011    -9902    -9077    -8160    -7518    -7144    -6717 
   -6497    -6486    -5918    -4583    -3353    -2889    -2987    -3302 
   -3488    -2893    -1225      858     2335     2608     2070     1902 
