Origin Time       2024/04/02 04:24:00
Lat.              40.133
Long.             141.712
Depth. (km)       71
Mag.              6.0
Station Code      IWT015
Station Lat.      39.3183
Station Long.     140.7794
Station Height(m) 247
Record Time       2024/04/02 04:24:58
Sampling Freq(Hz) 100Hz
Duration Time(s)  106
Dir.              E-W
Scale Factor      7845(gal)/8223790
Max. Acc. (gal)   9.732
Last Correction   2024/04/02 04:24:57
Memo.             
[...]
    8465     7515     6806     6681     6706     6508     6131     5908 
    6176     6832     7225     6933     6535     6874     7875     8819 
    9171     8949     8467     7844     7125     6771     7296     8224 
    8487     7973     7349     7133     7530     8070     8239     8484 
    8820     8329     7269     6735     6681     6669     6712     6775 
    6970     7272     7126     6660     6733     7438     8167     8546 
    8573     8337     7919     7551     7299     6939     6643     6601 
    6579     6837     7662     8349     8371     8175     8239     8442 
    8264     7481     6812     7222     8388     8783     7823     6709 
    6624     7366     7958     7884     7680     7912     8178     8091 
    7792     7218     6636     6451     6110     5575     6099     7902 
    9722    10444     9641     8070     7465     8252     9011     8793 
    7932     7003     6543     6743     7045     7223     7909     8839 
    8827     8100     7736     7676     7827     8456     8725     8008 
    7173     6729     6492     6732     7411     8048     8656     9173 
    9103     8329     7223     6312     6262     7098     7672     7296 
    6804     7029     7739     8355     8695     9023     9613    10216 
    9995     8561     6921     6234     6312     6597     7161     7828 
    8189     8425     8658     8575     8280     8125     8010     7750 
    7402     7029     6729     6723     6991     7072     6872     6852 
    6822     6328     5814     5805     6421     7584     8364     8163 
    7971     8375     8820     9126     9229     8953     8429     7531 
    6404     5988     6556     7346     7722     7568     7288     7312 
    7412     7380     7483     7836     8284     8594     8495     7927 
    7122     6551     6817     7774     8268     7875     7325     6872 
    6542     6822     7420     7447     7119     7226     7704     7996 
    7900     7491     7165     7539     8239     8270     7933     8118 
    8764     9431     9505     8556     7508     7254     7229     7159 
    7487     7956     8121     7867     7329     7423     8518     9254 
    8788     7828     7090     6947     7403     7732     7461     7229 
    7646     8075     7767     7303     7415     7711     7685     7465 
    7388     7720     8114     7916     7418     7209     7020     6682 
    6623     6845     7045     7410     7987     8313     8440     8764 
    8927     8641     8365     8094     7491     7006     7042     7369 
    7983     8637     8523     7847     7562     7572     7522     7677 
    7619     6832     6243     6547     6974     7103     7271     7361 
    7319     7435     7453     7175     7083     7218     7291     7508 
    7924     8284     8449     8152     7479     7146     7357     7523 
    7308     7103     7554     8422     8536     7650     6940     7118 
    7722     8071     7885     7607     7967     8536     8380     8090 
    8429     8500     7823     7321     7414     7878     8428     8473 
    8033     7767     7429     6582     6027     6389     7055     7462 
    7735     8029     8338     8642     8761     8387     7564     7055 
    7582     8542     8783     8297     7695     7345     7526     8006 
    8243     8248     8048     7415     6762     6648     6940     7410 
    7865     7798     7308     7194     7558     7893     8079     8171 
    8154     8162     8212     8125     7974     8095     8360     8055 
    7032     6079     5848     6272     6845     7041     6886     6966 
    7443     7803     7746     7426     7082     7083     7488     7546 
    6984     6728     7250     8024     8606     8823     8777     8847 
    8831     8399     8109     8185     7923     7234     6741     6631 
    6681     6718     6818     7290     8024     8437     8326     8040 
    8058     8511     8757     8167     7192     6835     7550     8735 
    9078     8106     6851     6334     6635     7452     8194     8224 
    7816     7758     8021     8056     7759     7427     7473     7931 
    8209     7921     7391     7129     7344     7746     7962     8124 
    8336     8183     7641     7337     7604     8181     8347     7589 
    6675     6701     7435     8081     8318     8075     7592     7383 
    7431     7249     6817     6581     6565     6600     6979     7674 
    7954     7674     7566     7946     8410     8399     7638     6718 
    6602     7032     6902     6264     6057     6554     7515     8549 
    9144     9339     9348     8939     8311     8125     8205     7959 
    7618     7515     7369     7310     7969     9116     9713     9274 
    8295     7738     8068     8337     7385     5931     5630     6628 
    7604     7568     6745     6168     6571     7364     7572     7616 
    8255     8919     8964     8604     8195     8112     8311     8081 
    7431     7138     7369     7835     8299     8560     8510     8201 
    7962     7936     7707     7219     7069     7551     8321     8532 
    7593     6439     6421     7190     7504     7075     6531     6457 
    6772     6949     6785     6783     7473     8449     8831     8471 
    7948     7793     8021     8187     7835     7173     6917     7160 
    7331     7298     7327     7358     7407     7685     7832     7670 
    7846     8307     8317     7901     7441     7219     7526     7927 
    7851     7724     7852     7747     7454     7476     7558     7276 
    6824     6690     7285     8379     8968     8398     7226     6659 
    7159     7932     8044     7620     7508     7870     8055     7925 
    7798     7631     7476     7519     7564     7672     8228     8802 
    8660     8151     7960     8037     8101     8008     7790     7778 
    8040     7993     7288     6681     6961     7580     7712     7523 
    7356     7445     8020     8428     7987     7376     7379     7788 
    8148     8213     7838     7223     6924     7155     7430     7283 
    7056     7356     8002     8274     7846     7118     6987     7743 
    8441     8305     7742     7489     7750     8074     7827     7103 
    6845     7465     8136     8353     8554     8661     8380     8106 
    7790     7057     6428     6420     6723     7082     7493     7763 
    7750     7408     6652     5895     6008     6978     7781     7971 
    7732     7105     6756     7558     8766     9032     8445     7858 
    7765     8182     8487     8160     7668     7668     8113     8581 
    8735     8490     8156     8063     7969     7547     7082     6972 
    7191     7564     7840     7705     7217     6743     6555     6851 
    7449     7608     7213     7060     7319     7547     7751     7851 
    7701     7820     8397     8783     8665     8220     7601     7063 
    6759     6546     6502     6930     7622     7950     7778     7523 
    7557     7925     8275     8266     7996     7533     6887     6442 
    6502     7001     7665     8067     8086     7960     7834     8024 
    8700     8982     8144     7056     6786     7090     7248     7215 
    7499     8270     8918     8899     8425     7811     7437     7803 
    8425     8532     8464     8464     8144     7855     7946     7811 
    7402     7414     7882     8432     8868     8908     8486     7997 
    7690     7450     7267     7318     7385     6957     6166     5665 
    5849     6647     7499     7954     8175     8203     7954     7866 
    8198     8611     8830     8793     8527     8166     7850     7620 
    7473     7479     7611     7584     7271     6874     6573     6532 
    6678     6658     6632     7140     8058     8656     8451     7947 
    8097     8644     8405     7173     5859     5409     6304     7969 
    8919     8533     7727     7426     7614     7685     7231     6910 
    7527     8310     8125     7439     7288     7781     8365     8356 
    7631     7272     8032     8816     8550     7786     7331     7452 
    7928     8089     7866     7881     8066     7855     7425     7361 
    7605     7715     7700     7696     7441     6964     6847     7086 
    7026     6782     6960     7373     7776     8295     8492     8182 
    8083     8290     8311     8208     8012     7627     7495     7770 
    7827     7375     6922     7123     8121     8964     8322     6727 
    6191     6961     7527     7308     6912     7102     7942     8343 
    7605     6758     6926     7651     7951     7863     7901     8170 
    8772     9587     9730     8834     7850     7574     7716     7812 
    7804     7578     7069     6681     6724     7138     7534     7223 
    6434     6451     7581     8761     9138     8541     7427     6852 
    7167     7449     7346     7438     7546     7439     7651     7780 
    7087     6440     6839     7784     8266     7842     7013     6899 
    7669     8029     7288     6403     6377     7013     7368     6960 
    6426     6615     7406     7836     7423     7244     8287     9239 
    8645     7511     7284     7931     8467     7836     6492     6191 
    7221     8032     7688     6841     6636     7300     7938     7788 
    7218     7083     7411     7564     7501     7724     8259     8599 
    8295     7582     7137     7071     7009     6578     5618     4851 
    5107     5873     6219     5922     5219     4646     4614     4980 
    5509     6041     6335     6332     6315     6604     7140     7349 
    6856     6181     5784     5344     4795     4496     4626     5351 
    6430     7107     7068     6579     6237     6547     7015     6948 
    6893     7636     8789     9354     9063     8664     8688     8637 
    8077     7462     7237     7334     7555     7701     8074     9328 
   10993    11832    11870    12151    13063    14143    14758    14777 
   14894    15631    16266    16027    15384    15052    15022    14958 
   14539    13884    13531    13468    13090    12199    11315    10866 
   10424     9560     8783     8415     8036     7654     7561     7592 
    7774     8248     8471     8125     7755     7573     7272     6793 
    6050     4989     4189     4141     4611     5297     6126     6998 
    7777     8113     7777     7308     7383     7867     8201     8183 
    8106     8221     8217     7678     6878     6474     6399     5764 
    4317     3051     2648     2685     2555     1971     1098      672 
    1102     1871     2389     2592     2717     3076     3688     4456 
    5481     6566     7369     7917     8027     7318     6168     5343 
    5107     5390     5981     6704     8035    10385    12706    13489 
   12931    12652    13428    14459    14693    13830    12286    10679 
    8972     6779     4437     2389      654     -598    -1192    -1075 
    -106     1487     2930     3724     4310     5252     6266     6930 
    7233     7230     7480     8708    10304    10930    10318     9126 
    8282     8538     9522    10347    11160    12340    13277    13551 
   13780    14415    14935    14511    12891    10682     8773     7495 
    6412     5085     3796     2794     1609      295     -166      464 
    1540     2737     4081     5516     6770     7379     7430     7832 
    8838     9270     8488     7460     6751     5931     5192     4962 
    4901     4594     4005     3535     4078     5921     8093     9528 
   10153    10821    12236    14042    15246    15059    13748    12730 
   12584    12320    11537    10872    10189     8733     6467     4097 
    2794     3595     5906     7920     8943     9386     9104     8141 
    7889     9359    11600    12941    12514    10412     7835     6380 
    5980     5135     3600     2497     2131     2026     2161     2490 
    2706     3122     4445     6806     9551    11708    12843    13285 
   13308    13151    13678    15280    16850    16884    14581    10257 
    5668     3119     3631     5940     7582     7468     6689     6505 
    6866     7171     7364     7739     8154     8148     7642     7107 
    7290     8329     9472    10277    10781    10440     9101     8104 
    8290     8779     8893     8668     7681     5863     4066     2685 
    1560     1119     1887     3542     5452     7222     8437     9004 
    9045     8228     6658     5283     4484     3923     3477     3192 
    3152     3659     4654     5571     6524     8205    10260    11715 
   12586    13497    14250    13899    12158     9945     8388     7761 
    7361     6257     4407     2880     2475     2924     3676     4186 
    4106     4221     5725     8181     9838     9865     8893     7830 
    7253     7416     8113     8734     8800     8225     7300     6895 
    7522     8098     7437     6131     5310     5184     5618     6316 
    6848     7469     8487     9271     9432     9526     9765     9815 
    9724     9439     8721     8149     8266     8284     7634     7029 
    6917     7136     7566     7419     6108     4865     4909     5837 
    7033     8050     8291     8108     8457     9259     9809     9848 
    9472     9412    10604    12232    12405    11140     9942     9139 
    8186     7327     7236     7873     8241     7366     5826     5324 
    6122     6462     5479     4900     6629     9933    12032    11217 
    8730     7226     7742     8792     8683     7553     6330     5144 
    3604     1705      627     2069     5571     8424     9107     8453 
    8078     9155    11211    12232    11092     8722     6902     6879 
    8557    10817    12615    13690    14435    15041    15283    15165 
   14513    12739    10126     7816     6674     7244     9147    10558 
   10481     9940     9494     8487     6716     4338     1858      450 
      21     -811    -2020    -2536    -1867      189     2841     4531 
    5497     6937     8313     8635     8052     6721     4822     3223 
    2245     1208      241      691     3375     7495    11063    12496 
   12255    12028    12286    12083    11041    10022     9929    10312 
    9428     6723     4332     4194     5301     5786     5582     5460 
    5583     5647     5273     4668     4746     5805     7068     7871 
    7932     7163     6319     6112     5787     4727     4002     4719 
    6820     9504    11253    11091    10299    10542    11376    11759 
   11994    12722    13774    14508    14351    13265    11961    11233 
   11380    12436    14031    14964    14184    12279    10617     9580 
    8969     8734     8492     7954     7182     5840     3994     2774 
    2759     3492     4612     5942     7515     9472    10849    10438 
    8888     7827     7765     7766     6682     4777     3608     4072 
    5520     6777     7204     6691     5418     4263     4449     5823 
    6901     7163     7520     8421     8873     7815     6133     6064 
    8139    10281    10678     9859     8883     7720     6427     5620 
    5719     6600     7118     6166     4823     5055     6532     7159 
    6205     5159     5497     6782     7263     5934     3977     3469 
    4541     5441     5304     4787     4314     3626     2968     3225 
    4796     7267     9734    11290    12109    13161    14237    14320 
   13618    12987    12521    11963    10827     8704     6596     5868 
    6145     6336     6205     5984     6133     6970     7836     8112 
    8475     9486    10233     9933     9352     9278     9065     7726 
    5432     3399     2625     3176     4440     5583     6210     6772 
    7731     8583     8514     7457     6064     5150     5281     6339 
    7371     7747     8043     8608     8650     7646     6141     5040 
    5170     6669     8394     9058     8695     8355     9174    11325 
   13383    14042    13559    12573    11596    11232    11126    10319 
    9069     8391     8500     9059     9772    10169     9849     8964 
    7952     7122     6767     6930     6972     6471     6034     6143 
    6354     6274     6008     5721     5900     6972     8070     8185 
    7936     8263     8888     9209     9235     9290     9329     8941 
    8293     8272     9146    10100    10253     9360     7855     6434 
    5437     4974     5035     5219     5313     5617     6222     7032 
    7693     7284     5865     5090     5795     7024     7504     6922 
    6712     8483    11016    11610    10116     8938     9822    11832 
   12463    10925     9057     8430     8424     7651     5868     4048 
    3308     3798     4490     4407     3847     3832     4750     5887 
    6339     6359     6866     7753     8245     8233     8010     7959 
    8471     8819     7751     5948     5371     6369     7614     7919 
    7263     6936     8104     9975    10945    10708     9845     9023 
    8922     9275     8996     8175     8212     9460    10285     9171 
    6598     4212     3165     3349     3694     3777     4207     4963 
    5397     5418     5317     5724     7144     8734     9585    10069 
   10293     9637     8083     6359     5584     6470     8036     8426 
    7254     5745     4968     4905     4776     4101     3694     4715 
    6825     8349     8149     6932     6440     7236     8183     8252 
    7696     7622     8726    10431    11655    11992    11774    11457 
   10860     9771     8777     7931     6575     5233     4922     5325 
    5587     5487     5281     5493     6381     7322     7751     7911 
    7827     7329     7094     7695     8509     8714     8220     7489 
    7106     7253     7591     7886     8133     8168     7986     7824 
    7631     7361     7269     7484     7892     8162     8071     8156 
    8926     9768     9904     9413     8804     8518     8664     8947 
    9198     9560     9883     9790     9475     9564    10142    10451 
    9732     8229     6955     6589     7003     7605     7935     7960 
    7862     7771     7651     7554     8033     9378    10677    10937 
   10350     9379     8071     6802     6404     7200     8432     9011 
    8452     6988     5697     5888     7526     9196     9607     8478 
    6720     5609     5452     5872     6623     7245     7261     6963 
    6933     7198     7215     6492     5405     4887     5184     5867 
    6461     6655     6821     7462     8004     7850     7399     6720 
    5509     4444     4511     5775     7543     8644     8131     6671 
    5992     6721     8056     8976     8993     8579     8737     9547 
   10126    10203    10322    10650    10700     9954     8573     7607 
    7726     8280     8564     8579     8291     7712     7110     6609 
    6489     7060     7757     7846     7562     7373     7412     7661 
    7774     7537     7277     7300     7970     9452    10638    10397 
    9285     8513     8649     9313     9487     8958     8623     8928 
    9509     9884     9625     8822     8179     7994     7869     7299 
    6030     4548     3856     4148     4671     5026     5328     5420 
    5112     4617     4236     4243     4768     5578     6284     6602 
    6532     6439     6623     6859     6546     5350     3940     3635 
    4787     6277     7222     7989     8922     9589     9753     9697 
    9536     9223     8810     8372     8012     7877     7924     7865 
    7565     7171     6629     5903     5648     6393     7474     7855 
    7346     6642     6590     7206     7655     7601     7523     7607 
    7808     8683    10374    11539    10997     9305     7766     7125 
    7333     7739     7863     7947     8151     8043     7560     7371 
    7977     9278    10457    10404     9292     8484     8488     8758 
    8822     8441     7823     7580     7785     7823     7396     7078 
