Origin Time       2024/04/02 04:24:00
Lat.              40.133
Long.             141.712
Depth. (km)       71
Mag.              6.0
Station Code      IWT024
Station Lat.      40.2612
Station Long.     141.2908
Station Height(m) 94
Record Time       2024/04/02 04:24:49
Sampling Freq(Hz) 100Hz
Duration Time(s)  117
Dir.              N-S
Scale Factor      7845(gal)/8223790
Max. Acc. (gal)   52.555
Last Correction   2024/04/02 04:24:49
Memo.             
[...]
   12690    12692    12691    12687    12685    12683    12679    12683 
   12685    12687    12687    12688    12690    12687    12680    12679 
   12684    12690    12690    12688    12687    12685    12685    12685 
   12685    12683    12684    12688    12687    12685    12687    12687 
   12684    12683    12684    12685    12684    12684    12683    12687 
   12690    12688    12690    12690    12688    12688    12685    12683 
   12680    12683    12688    12691    12688    12685    12684    12684 
   12687    12685    12685    12688    12688    12685    12684    12684 
   12685    12684    12685    12688    12688    12688    12685    12685 
   12688    12685    12680    12684    12688    12687    12687    12688 
   12684    12680    12680    12681    12683    12687    12691    12695 
   12694    12685    12679    12680    12680    12680    12687    12691 
   12692    12691    12687    12684    12685    12687    12687    12685 
   12684    12681    12683    12683    12685    12691    12694    12690 
   12691    12688    12680    12676    12681    12685    12687    12692 
   12696    12694    12685    12679    12680    12683    12684    12684 
   12688    12692    12688    12687    12688    12688    12685    12684 
   12681    12679    12681    12687    12690    12691    12691    12690 
   12687    12683    12680    12681    12685    12688    12691    12692 
   12688    12684    12684    12684    12684    12684    12685    12687 
   12688    12688    12687    12687    12690    12688    12685    12683 
   12681    12685    12690    12690    12688    12685    12687    12690 
   12688    12685    12688    12685    12677    12676    12685    12694 
   12695    12695    12692    12687    12680    12677    12680    12687 
   12692    12696    12695    12690    12685    12683    12679    12680 
   12685    12690    12691    12694    12691    12685    12684    12687 
   12685    12687    12687    12685    12687    12685    12684    12684 
   12684    12688    12694    12692    12684    12677    12680    12684 
   12687    12691    12694    12691    12680    12673    12676    12683 
   12691    12698    12698    12694    12685    12676    12673    12683 
   12692    12692    12691    12690    12684    12680    12683    12687 
   12690    12691    12690    12688    12685    12681    12683    12688 
   12690    12691    12692    12688    12687    12685    12683    12683 
   12687    12688    12690    12691    12690    12685    12685    12685 
   12685    12688    12692    12688    12680    12680    12688    12692 
   12694    12695    12690    12683    12681    12680    12675    12680 
   12691    12696    12692    12687    12687    12681    12679    12681 
   12685    12688    12690    12690    12691    12687    12684    12685 
   12687    12687    12685    12684    12684    12685    12690    12690 
   12685    12684    12685    12687    12684    12681    12685    12688 
   12690    12691    12690    12683    12679    12679    12683    12690 
   12694    12692    12688    12681    12681    12685    12690    12691 
   12692    12688    12684    12684    12684    12680    12683    12690 
   12691    12688    12687    12685    12684    12687    12687    12685 
   12687    12690    12692    12690    12684    12683    12683    12684 
   12685    12691    12694    12690    12685    12687    12685    12683 
   12684    12688    12691    12691    12691    12687    12683    12681 
   12681    12684    12690    12694    12690    12684    12687    12691 
   12690    12685    12687    12688    12687    12687    12688    12684 
   12683    12687    12688    12684    12681    12680    12684    12691 
   12691    12685    12687    12688    12687    12684    12680    12683 
   12687    12687    12688    12691    12687    12683    12687    12688 
   12683    12681    12688    12691    12690    12688    12684    12681 
   12681    12684    12687    12688    12690    12692    12690    12685 
   12683    12684    12683    12684    12690    12691    12687    12690 
   12691    12685    12681    12683    12683    12688    12692    12690 
   12684    12683    12681    12681    12687    12692    12691    12691 
   12688    12683    12681    12684    12684    12687    12692    12698 
   12715    12768    12880    13057    13265    13429    13479    13408 
   13269    13099    12915    12785    12879    13231    13455    13035 
   12024    11157    11117    11720    12070    11815    11616    11928 
   12432    12754    12638    12280    12806    14820    16934    17227 
   15703    13977    12846    12329    13024    14453    14208    10848 
    5836     2581     3789     8822    14354    17740    18369    15975 
   10450     4729     3947     9454    17734    25600    30669    28348 
   16926     3962      -17     6621    14647    15421    11365     9035 
    7726     3823     -891    -1939     3082    13774    25859    32208 
   28196    16405     6273     6054    13212    18468    19649    22172 
   26512    26289    17637     2998    -9421    -9148     5294    23714 
   36328    38269    26346     5036   -11249   -13041    -4897     6457 
   20277    31811    31982    22509    11588      538    -7901    -7145 
     228     7889    15032    18909    18374    19438    19857    10484 
   -2340    -2308    13055    30981    38398    30582    11326    -8766 
  -18025   -13374     -714    13740    26717    36383    40666    35329 
   18463    -1836   -10669    -1335    15217    23210    19927    12253 
    6176     5320     8748    11387    12249    15801    24989    35834 
   38260    28404    16194    11778    13099    12565     9282     9312 
   14002    16613    14316    11682     9038     2524    -4540    -6377 
   -5125    -5061    -4068     3628    16989    23958    16213     3388 
     772     9755    20497    26720    30527    32229    25830    13184 
    5418     7014    14231    21166    22635    18831    12395     5074 
    2131     6547    12006    12386     8958     5764     3904     1567 
     -33     3731    13126    23147    30206    31936    25204    13273 
    5339     4699     8259    13051    17065    20503    23483    21357 
   10982    -1458    -6712    -2077     9841    25110    36942    38076 
   28092    13643     2436    -2204    -3119    -3501    -2505     -313 
     211     -696     -653      565     4571    13707    24480    31730 
   34121    31494    25983    21394    17170    11682     8132    10644 
   18009    23063    21805    17864    12420     4727     -730     -495 
    5248    14382    21525    23241    19786    11730     3121     -409 
    1742     8471    18607    27426    31225    30300    25415    19485 
   17309    19441    22936    24597    21454    14852     9903     6995 
    1620    -6161   -10042    -5533     5549    15680    16498     9080 
    3106     2930     5368     8356    12097    15889    17868    17174 
   16592    18914    20142    14845     6249     1270     1447     5065 
   10389    14635    15371    12972     9313     6201     6936    14092 
   24806    33831    37355    32503    20521     7449    -1116    -1038 
    8114    18476    21709    19143    15799    11943     6496     1309 
    -546     2543     7869    10196    10088    13667    20162    19915 
   11186     5236     7605    12629    17857    24368    28406    26029 
   18355     8478     -693    -6138    -5921    -1479     3932     9381 
   13798    13323     8777     7488    11414    15331    18096    21857 
   23827    20399    13551     7859     6933    12295    20545    25196 
   24730    23085    22211    20603    16721    11052     6669     6081 
    7974     8854     6732     3298      811     -437     2420    12229 
   23452    27961    25153    20173    17221    16120    14544    13439 
   16490    22734    25019    18594     7030    -2106    -4715    -2008 
    2987     8664    14677    19662    22337    24020    24948    21856 
   14062     6170     2924     5675    12083    17577    19070    16699 
   12744     9479     7373     7765    12961    19731    21906    18765 
   12731     5657      567      236     5196    14011    22373    24983 
   20941    14715    10979    10581    11969    12658     9408     2425 
   -3006    -2841     2088     8640    13825    16175    15984    14505 
   13640    14337    15240    16012    18611    22081    22373    18237 
   11452     3843    -2739    -6258    -4441     3338    13077    20078 
   23947    25542    24287    19984    13764     8183     5814     6559 
    8368     9842     9886     7777     5779     7472    13362    20680 
   24703    21921    14621     8217     5850     8349    13860    17747 
   17493    15279    14411    15688    17217    17281    16478    16411 
   17413    17709    15830    12830    10268     9452    11875    16151 
   17712    14659    11095    11672    14527    14592    12677    14168 
   19546    23126    20895    14597     8530     5617     5440     5258 
    4422     5030     7264     9182    10049     9898     8359     5536 
    2997     3541     7712    11543    11695    10157     9726     9200 
    7222     5907     7665    12378    17828    20591    19226    16416 
   15049    15493    17335    19534    20382    19572    17593    13525 
    7777     4862     8378    16173    23005    25235    24252    24273 
   24876    23066    20432    18677    15159     8550     2293      722 
    3653     6925     8818    11236    14898    17450    16297    12591 
   10042    10152    12202    14254    12916     7231      706    -2566 
   -1088     3977    10677    17404    22900    26886    28665    27018 
   22924    18299    14693    13639    13563    11245     7554     5699 
    6339     8124    10304    12744    14866    16191    16672    16005 
   14015    11213     8093     4764     1784      214      477     2768 
    7942    15361    21581    23475    20677    14567     7483     3119 
    4610    10894    17923    22559    22690    18011    11333     5611 
    3022     6438    16085    26260    30262    27047    19333     9463 
    1505      583     6030    11828    15082    17406    18805    16340 
    9105     1640      459     6671    15098    20927    22623    19874 
   13903     7555     2797     1522     5904    13232    17699    18644 
   18077    15387    11321     8939     9306    11562    14515    16220 
   13940     7429     1306     -861     -720      615     4976    11743 
   16374    16375    15068    16403    19167    19248    15768    13107 
   15558    21510    26068    27171    25659    22037    17178    13323 
   11357    10412    10322    11823    14951    17170    14466     6199 
   -3453    -8822    -6447     2046    11331    17433    19656    19735 
   20155    20395    17714    13629    12820    15210    15985    12510 
    6837     2571     2508     7258    13918    19264    22790    24281 
   22177    15637     6793     -225    -1867     3470    12908    20112 
   21936    19526    14338     8267     5049     7375    13387    18615 
   20360    19165    17510    16522    15356    15147    18179    22608 
   24112    21686    17232    12102     7310     4263     3805     5247 
    6350     6435     7955    11425    13512    13282    13539    14694 
   14357    12610    11848    12294    11828     9516     6588     4550 
    4334     6565    10798    15414    18832    19588    16893    12937 
   11426    12484    12826    11118     9269     9008     9749    10291 
   10972    11603    10493     8627     9236    12478    15685    17031 
   16590    15664    15086    14251    12776    12391    15113    19395 
   21787    21668    20198    17593    14235    11412    10471    11449 
   12518    12613    12197    11109     9256     7680     7457     8341 
    8861     8463     7329     5657     4880     6301     9747    13342 
   14809    15411    17134    17798    15628    12532    10759    10581 
   10851    11480    13261    15487    16983    17838    18577    18122 
   15052    11796    11948    14349    15834    16185    16379    14813 
   10141     6829     9343    13999    15871    15672    14786    13294 
   11905    10384     8468     7249     6092     4202     4990    11014 
   18203    21375    20557    18144    14557    10870    10774    14677 
   18358    20140    21153    20038    14970     7767     2650     2644 
    6624    11106    14939    18395    20208    19180    15595    10497 
    6201     5765     9960    16201    21454    24880    26757    26050 
   20845    11437     1861    -2824     -442     7985    19336    28309 
   30522    26404    19129    11226     3964    -1362     -962     6932 
   16046    19569    16615     7312    -6534   -17537   -18601    -9730 
    4278    19184    31750    38767    38437    30696    18046     6238 
     433     2498    11064    21135    26874    25521    18084     8862 
    2417     -243     1036     7913    18661    27534    29917    23965 
   10893    -4731   -16486   -19608   -14928    -6586     2160     8549 
   11695    14098    19295    29123    40159    45900    45438    42072 
   35953    25740    11750    -3628   -14095   -11904     3620    21907 
   30537    26670    14372    -1406   -15013   -22096   -20648    -9123 
   10417    28752    35631    28849    14908     3260      608     7626 
   18679    26200    26627    20228     8568    -4059   -11924   -11820 
   -3348     9664    17938    14993     5050    -2956    -4641      284 
   11809    28904    46915    57862    55679    40668    18377    -2161 
  -11672    -7338     5899    20721    30840    31415    22238    10273 
    2937     1144     3793    11898    22357    25331    15291    -1031 
  -13760   -19715   -18099    -4818    21670    51664    67779    58824 
   27819   -10586   -37701   -41617   -24262     3013    28494    43996 
   46337    39753    32707    28794    23122    10314    -4395    -7643 
    5148    22963    32922    31534    20961     5116    -7848    -8652 
    3033    17759    26144    25351    18794    11697     7759     9015 
   13734    17420    19066    20564    19900    13355     4074     -936 
    -149     3581     8525    15361    25371    36603    44716    47719 
   46107    40193    28676    11568    -5416   -15727   -19256   -19352 
  -17579   -13324    -5157     4846     8746     1568   -10810   -18793 
  -17805    -7099    10910    28582    38580    39633    32159    16816 
    1201    -3053     6517    21384    32679    36394    32807    26482 
   22492    20775    16351     5900    -6370   -12707    -9953      336 
   13244    20765    20472    20106    25901    33690    36363    32054 
   21178     4353   -12625   -20347   -15531    -4136     4834     6057 
    1196    -2257     2821    16518    31824    41239    42484    38415 
   32445    25346    17501    10369     4704     1745     3366     7805 
    9639     6022      835     -576     1647     6319    15666    28468 
   37841    39059    32964    21945     8075    -3365    -5744      518 
    9884    20455    31897    39842    39343    31480    22781    18112 
   17325    18408    19955    19807    14440     3026    -9980   -19186 
  -22415   -20348   -14631    -6619     1337     6493     8596     8083 
    5019      832    -3042    -4540     -333     9404    20194    28073 
   32003    32818    31255    27646    22933    18004    13458    11267 
   14176    22781    34118    42780    44019    36540    22674     7435 
   -3562    -8144    -8162    -6062    -3555    -1026     2288     4801 
    3785     1135      789     1888     1707     2019     6755    16924 
   29934    40535    44679    44011    41083    33546    20814     9194 
    3532     2261     3735     8436    14686    18816    18519    14118 
    8212     4131     3740     6783    12783    20301    23974    19901 
   11904     5039      342    -1019     2400     9035    15340    18250 
   16703    12926    11290    13023    14747    14870    15118    15060 
   13289    12341    14948    18411    18519    15703    13329    12833 
   12939    11853     9259     6983     6644     6135     2114    -3581 
   -5537    -2119     4033    10983    18401    23723    21894    11637 
   -1377    -9227    -7450     2878    16706    28408    33949    32223 
   25921    19772    17367    19237    23175    26458    27299    24413 
   16956     6270    -3183    -6871    -3751     4357    15318    26489 
   32998    30622    21350    11122     2415    -4810    -7696    -3508 
    5441    14948    22758    27826    29656    28741    25965    21537 
   16578    14257    15341    16519    15056    10291     3036    -3831 
   -7762    -8068    -4437     1474     5364     4923     2749     3558 
    8286    13039    15917    18396    19749    18986    18929    22324 
   28124    32587    32599    28084    20056    10400     3946     4075 
    8461    12749    14797    14669    12675     8812     4704     3249 
    5177     9101    14347    21101    28155    31657    28135    18473 
    5980    -6987   -17774   -22693   -19507    -9938      780     8750 
   13872    16424    16173    14350    12465    11169    10687    10569 
   10773    12588    16222    19294    19336    16621    13644    12661 
   15175    21903    31099    39032    42439    39355    30400    19452 
   10212     4399     3306     6482    10670    12984    13149    12374 
   11746    11755    12051    11538     9914     8467     8599    10524 
   14111    19491    24879    27081    25613    21994    17172    13112 
   12186    13525    13720    11192     6752      535    -6916   -11720 
   -9876    -1819     8275    15140    15095     9147     2770      811 
    3943    10241    17159    22372    24302    22185    16876    10454 
    4949     3153     7742    17261    25666    27288    21506    12955 
    7518     7264     9886    13042    16171    18694    19974    19927 
   19244    19458    20673    21174    20472    19039    16258    12006 
    8403     7335     7483     6729     5887     6505     7715     8295 
    8348     7668     5910     4563     6239    11443    17329    20425 
   19491    15574    10959     7827     6875     7985    11230    15751 
   18978    18162    13221     6868     1225    -2199     -777     5813 
   13153    16004    13446     9123     6455     6431     9263    13674 
   17201    18816    18702    17613    16443    15076    13446    12225 
   11813    12278    13043    13247    13662    15394    17150    17217 
   16714    17705    19402    19635    18607    17490    15830    13404 
   11755    11847    13321    15877    17725    16453    14443    16582 
   21902    24733    22783    18357    13285     7609     3110     3472 
    9408    17355    23477    25779    23604    17990    11072     4764 
     999     1204     5005    10226    13356    11936     7379     2975 
     187    -1233    -1437     -202     2245     4646     5474     5067 
    5680     8325    11722    14512    15907    15462    14322    14002 
   13833    13460    14567    16584    17244    17672    20275    24298 
   26338    23492    16915    10816     7207     5320     5086     7213 
   10916    14145    16042    17612    19152    19386    18243    17188 
   16676    15877    14180    11928     9594     6970     4602     3966 
    4822     5464     6041     8891    15136    22535    27583    28254 
   24258    16603     7812     1726     1718     8359    18824    27893 
   30601    25860    16865     7823     1456    -1179     -233     3192 
    6928     8775     9228    10797    13400    14702    14586    14546 
   14963    15913    17713    19175    17807    13504     9396     7442 
