Origin Time       2024/04/02 04:24:00
Lat.              40.133
Long.             141.712
Depth. (km)       71
Mag.              6.0
Station Code      IWT016
Station Lat.      39.6000
Station Long.     141.6790
Station Height(m) 198
Record Time       2024/04/02 04:24:51
Sampling Freq(Hz) 100Hz
Duration Time(s)  119
Dir.              E-W
Scale Factor      7845(gal)/8223790
Max. Acc. (gal)   75.459
Last Correction   2024/04/02 04:24:50
Memo.             
[...]
   -7481    -7485    -7487    -7479    -7479    -7485    -7483    -7481 
   -7480    -7480    -7488    -7479    -7479    -7495    -7480    -7469 
   -7491    -7493    -7473    -7477    -7488    -7485    -7484    -7483 
   -7479    -7484    -7484    -7474    -7479    -7485    -7485    -7484 
   -7480    -7477    -7479    -7483    -7489    -7487    -7474    -7477 
   -7488    -7483    -7479    -7481    -7481    -7480    -7489    -7485 
   -7466    -7480    -7493    -7477    -7479    -7489    -7479    -7477 
   -7484    -7477    -7480    -7484    -7480    -7484    -7480    -7476 
   -7487    -7488    -7479    -7476    -7485    -7491    -7480    -7476 
   -7484    -7480    -7477    -7487    -7489    -7481    -7479    -7487 
   -7488    -7480    -7472    -7476    -7488    -7487    -7473    -7477 
   -7493    -7485    -7473    -7479    -7487    -7484    -7480    -7480 
   -7480    -7485    -7488    -7480    -7476    -7483    -7484    -7477 
   -7488    -7489    -7476    -7481    -7488    -7476    -7474    -7487 
   -7487    -7481    -7483    -7483    -7481    -7483    -7484    -7484 
   -7476    -7473    -7484    -7485    -7483    -7487    -7480    -7476 
   -7489    -7488    -7473    -7477    -7489    -7487    -7479    -7479 
   -7483    -7485    -7480    -7473    -7484    -7491    -7479    -7476 
   -7481    -7480    -7485    -7491    -7477    -7476    -7496    -7481 
   -7466    -7489    -7485    -7470    -7487    -7485    -7479    -7487 
   -7479    -7473    -7487    -7488    -7479    -7481    -7487    -7477 
   -7477    -7491    -7484    -7473    -7483    -7487    -7481    -7479 
   -7477    -7477    -7481    -7484    -7480    -7480    -7485    -7480 
   -7476    -7488    -7487    -7481    -7479    -7480    -7492    -7485 
   -7470    -7483    -7489    -7476    -7477    -7489    -7484    -7474 
   -7477    -7481    -7489    -7488    -7470    -7473    -7489    -7481 
   -7473    -7487    -7484    -7477    -7492    -7488    -7470    -7477 
   -7485    -7484    -7483    -7480    -7480    -7481    -7488    -7493 
   -7469    -7466    -7497    -7489    -7474    -7481    -7481    -7484 
   -7481    -7476    -7493    -7484    -7466    -7485    -7492    -7480 
   -7480    -7487    -7481    -7470    -7484    -7491    -7479    -7485 
   -7487    -7474    -7484    -7483    -7476    -7487    -7480    -7480 
   -7491    -7476    -7470    -7485    -7487    -7477    -7479    -7485 
   -7481    -7485    -7484    -7473    -7495    -7492    -7466    -7487 
   -7487    -7468    -7489    -7487    -7472    -7484    -7487    -7481 
   -7484    -7481    -7481    -7484    -7476    -7477    -7491    -7488 
   -7476    -7473    -7481    -7487    -7480    -7480    -7487    -7479 
   -7480    -7487    -7480    -7476    -7484    -7484    -7477    -7485 
   -7487    -7474    -7487    -7491    -7472    -7476    -7487    -7487 
   -7488    -7479    -7476    -7488    -7481    -7469    -7485    -7493 
   -7479    -7479    -7487    -7480    -7476    -7485    -7488    -7477 
   -7481    -7491    -7479    -7477    -7489    -7480    -7473    -7484 
   -7485    -7479    -7485    -7483    -7474    -7484    -7491    -7477 
   -7474    -7489    -7491    -7481    -7480    -7483    -7485    -7484 
   -7479    -7484    -7487    -7479    -7483    -7484    -7479    -7487 
   -7485    -7476    -7483    -7489    -7483    -7481    -7484    -7485 
   -7480    -7473    -7483    -7495    -7484    -7473    -7488    -7492 
   -7470    -7473    -7495    -7487    -7474    -7485    -7483    -7479 
   -7492    -7485    -7473    -7484    -7485    -7479    -7483    -7481 
   -7476    -7487    -7489    -7477    -7481    -7484    -7479    -7484 
   -7487    -7472    -7474    -7493    -7488    -7477    -7488    -7495 
   -7499    -7497    -7485    -7483    -7477    -7461    -7461    -7465 
   -7464    -7468    -7473    -7469    -7456    -7457    -7476    -7480 
   -7500    -7550    -7557    -7512    -7469    -7427    -7353    -7236 
   -7133    -7142    -7273    -7430    -7537    -7554    -7488    -7508 
   -7650    -7597    -7443    -7615    -7857    -7836    -7707    -7238 
   -6432    -6149    -6702    -7488    -7942    -7911    -7789    -8019 
   -8302    -8233    -8052    -7960    -7800    -7572    -7330    -7091 
   -6902    -6484    -6158    -6893    -7754    -7735    -8208    -8899 
   -8137    -7438    -8446    -8930    -7121    -5653    -6286    -6559 
   -6430    -7886    -7824    -4976    -5144    -8858   -10184    -9290 
   -8984    -7353    -5078    -5718    -7225    -7496    -8915    -9971 
   -8559    -7160    -5267    -3366    -6235   -11605   -13863   -12588 
   -7928    -2397     -660    -3082    -9220   -15384   -14351    -8761 
   -4842    -2583    -3673    -7345    -8598    -9445   -11759    -9170 
   -1405      970    -5204   -10856   -11608   -11998   -12685    -8488 
    -286     3782      274    -6689   -11538   -12187   -12471   -14392 
  -11608    -2995     1075    -2731    -6015    -6066    -9332   -16872 
  -19441   -11897    -1891     1647    -1408    -5206    -5274    -5298 
  -11276   -17280   -15678   -11072    -4483     6173     9574    -2358 
  -18378   -22554   -13288    -5059    -6189    -6778    -2110    -2342 
  -11044   -19568   -18351    -6488     3408     1548    -6311   -10571 
   -6596    -1944    -7443   -12896    -7464    -2593    -3437    -4395 
   -8815   -13636   -10199    -5661    -7938   -13608   -17227   -12684 
   -2947      113    -4168    -7944    -8488    -7138    -5962    -4716 
    -800     1917    -4457   -15977   -21793   -19545   -12206    -3825 
    1150     2176      126    -4784   -10012   -14062   -16768   -14990 
   -8819    -4056    -4880    -9045    -8761    -4783    -5692    -7263 
   -6057   -10309   -14249    -9162    -3989    -1418     1960    -1395 
  -11005   -15997   -15079   -12270    -9504    -4676     4990     8684 
   -1271   -10986   -13676   -17456   -21258   -18481    -8746     2365 
    5086    -2905   -10609    -9366    -2644     2332     2474     -841 
   -6882   -16472   -23446   -18662    -6420    -1088    -5402    -8349 
   -7715   -10605   -14617   -13275    -5976     1317     -284    -5869 
   -5896    -8673   -18237   -19946    -9810    -1472    -1417    -3102 
    -664     1336    -5476   -14222   -12511    -8467   -13377   -18832 
  -13737    -2200     3014    -1548    -8240   -11414    -7885     -261 
     390    -5609    -7908    -7423    -7508    -7030    -8006    -8532 
   -8595   -13570   -15610    -6948      669    -2411   -10039   -13856 
  -13155   -10732    -6220    -1721    -3073    -7723    -9313    -9958 
  -10843    -7834    -3790    -3001    -2223    -2508    -7474   -12229 
  -13084   -13038   -13166    -9378      529     6867     -930   -14817 
  -21444   -20657   -13930    -1055     6189    -1209   -11645   -13640 
   -8469     -873      411    -5965    -7236    -2214    -2760    -8320 
  -10940   -11263   -12301   -12842   -12398   -12484   -11966    -6978 
    -194     -955    -7342    -9248    -8094    -8866    -9323    -6797 
   -2166     -129    -2625    -5390    -8145   -12854   -14910   -11107 
   -5449    -1971    -2335    -7587   -16187   -22661   -20036    -8257 
    2531     4525      295    -4617    -8540   -12283   -14536   -11762 
   -4718     -803    -4461   -10500   -12906   -12344   -10721    -7727 
   -4499    -2187      672     3013      629    -5973   -11454   -13838 
  -15067   -14828   -12397    -9510    -4870     1896     4409     1188 
   -3142    -8581   -14794   -18350   -17327   -10885    -3042    -1432 
   -6045    -9668   -10125   -10345   -10141    -9092    -7750    -4656 
   -1552    -2023    -4542    -7454   -12771   -17388   -14114    -6031 
   -2627    -3692    -5084    -9066   -13348    -9755    -2035    -1394 
   -7433   -12333   -13174   -10809    -6230    -1914    -1317    -3946 
   -6394    -7830    -8257    -8425   -10334   -11484    -9167    -4625 
     329    -1320   -11130   -14671    -7800    -2731    -3254    -7678 
  -13468   -12025    -5724    -6289   -10509    -8213     -878     1459 
   -6400   -14170   -10752    -4176    -5869   -11913   -13603   -10810 
   -9255    -9979    -8006    -3480    -1969    -2382    -1931    -5224 
  -11777   -14729   -14995   -14332   -10720    -7296    -5729    -3875 
   -3235    -3854    -4815    -7323    -8160    -6326    -8062   -12583 
  -12577    -8164    -3964    -3071    -5518    -6439    -6234   -10353 
  -13549    -9525    -3523      340     1397    -1989    -6702   -10206 
  -13566   -14517   -13024   -11373    -7693    -3434    -1705    -1312 
   -2951    -6971   -12249   -18589   -20370   -12538    -1274     2810 
   -1387    -4086    -2569    -5410   -12198   -12703    -5555    -1075 
   -6546   -14808   -15533   -11265    -8294    -5494    -1705      459 
   -1539    -8351   -15755   -15831    -8083    -2633    -3842    -5205 
   -6462   -12371   -18145   -18249   -15024    -9139      -25     6172 
    1957   -10177   -17628   -13096    -3607     2103     2531    -2747 
  -11560   -16356   -14166    -7164     2058     6201     1576    -5478 
  -11646   -17261   -19141   -16777   -13271    -9181    -4837    -4148 
   -8588   -10451    -4558    -1119    -7438   -11749    -4209     4958 
    1098   -10687   -13543    -9961   -13282   -17730   -14143    -8600 
   -3789     2659     4403     -899    -5935    -9084   -11767   -11672 
   -9653    -8298    -7242    -4530     -980    -3863   -13429   -16771 
  -12118   -10393    -9729    -3977      255     -850    -2677    -5139 
   -9363   -13589   -17610   -17686   -10050    -2037     -908    -3022 
   -4328    -6496   -10012   -12424   -13374   -10781    -2673     2161 
   -2315    -8118    -9479    -7516    -4560    -4428    -7277    -9181 
   -9775   -11572   -12992   -10733    -6605    -3781    -2870    -4611 
   -9088   -13907   -15785   -13860   -10285    -6265    -2394    -1204 
   -2847    -4741    -7557   -10133    -6286     1875     5001     2019 
   -3387    -9763   -14694   -16980   -16989   -15082   -12494    -8329 
   -4168    -5489   -10135   -12852   -13562   -10717    -4356      265 
     843    -1206    -3550    -3827    -4583   -10326   -16158   -13501 
   -6705    -6349   -11427   -13316   -11078    -9452    -7850    -4989 
   -3327    -3015    -3993    -8055   -12384   -10756    -3385     2965 
    3827     -757    -6955   -10354   -12997   -16899   -15237    -6299 
   -1534    -4328    -6385    -9474   -17405   -21163   -16348    -9790 
   -5570    -2266      688     -981    -6880    -6615     -346      801 
   -1107    -1329    -6601   -15457   -17799   -14598   -12814   -12291 
   -8019    -1391     -935    -5833    -7365    -6224    -6801    -7940 
   -8626    -9127    -9162    -9130    -9432    -9236    -8608    -9300 
  -11047   -11319    -7759    -1988     -113    -1873    -2146    -3987 
   -9605   -12422    -9998    -6887    -7055    -9733    -9587    -6976 
   -7771   -10006    -9927    -8646    -4633    -1058    -6149   -15087 
  -15241    -5381     2424    -2007    -9747    -6242     1204    -2316 
  -12306   -15542   -10069    -5634    -7870    -7503      116     3558 
   -2797   -11435   -14176   -11670   -12673   -15080    -8240     -513 
   -5751   -13986   -12124    -7439    -8033    -9613    -7165     -577 
    4087      302    -7477   -12519   -15348   -15714   -11658    -4434 
    1398      959    -4039    -8257   -10436    -9243    -5147    -4275 
   -7561   -11242   -15286   -16258   -10629    -6309    -8700   -10770 
   -8804    -4807      363     1354    -3910    -7678    -7769    -7422 
   -7044    -9450   -14341   -15152   -11817    -8846    -5818    -3211 
   -3645    -5508    -6273    -4646    -2232    -6257   -16290   -19878 
  -13903    -8995   -10450   -14373   -16667   -16799   -18095   -19224 
  -12919    -2432     3102     4973     5292     2560      367      689 
     508    -1366    -4803    -7150    -5076    -3025    -6106   -12046 
  -17674   -19111   -12613    -3469    -1128    -4842    -6122    -3514 
   -2209    -3971    -8577   -15889   -20633   -15658    -3333     5057 
    2874    -5135   -11173   -15340   -19819   -18277    -7631     2718 
    6014     4168    -1359    -9248   -15842   -19353   -20247   -17918 
  -11817    -5040    -2363    -4785   -10189   -16054   -18108   -13790 
   -6068     2022     9246    11534     4656    -6993   -11916    -7250 
   -2270    -2725    -6813   -11172   -10832    -6342    -5204    -7214 
   -8054    -8977    -8432    -7668   -13868   -20748   -18030   -13032 
  -14319   -16491   -12243    -4297    -1494    -3542    -1957     2413 
    2809     -599    -4992    -8032    -8156    -8067    -8151    -6076 
   -6477   -12127   -16278   -15410   -11121    -4683      592     3821 
    6350     5802     1591    -4206   -11650   -18986   -21674   -19479 
  -17189   -15263   -10629    -7608   -11693   -18733   -21276   -16444 
   -8224    -3095      265     6323     9699     3568    -6124   -10212 
   -8795    -5883    -4267    -3221     1174     4396    -2069   -12155 
  -16100   -16920   -17697   -16171   -14446   -14285   -14122   -14405 
  -14789   -14359   -12222    -6640    -3645    -9078   -12364    -4437 
    4985     5979     1499    -2613    -6014   -12870   -23476   -30757 
  -32975   -37249   -43590   -44066   -36917   -25547   -12469     -243 
   11070    22700    30572    31490    31499    33311    27040     8429 
  -12297   -27741   -38888   -45366   -44566   -36269   -23600   -10627 
    -338     3276    -3692   -18254   -31774   -37577   -33953   -25585 
  -17335    -7389     3909    12563    21574    36139    53896    67624 
   71621    67227    61084    52321    31783      531   -28412   -47287 
  -54498   -48964   -34666   -21042   -18073   -28250   -40671   -43603 
  -38812   -31429   -19913    -5683     6793    17739    24329    20042 
    9547     6633    12908    18782    23854    27344    16131   -12372 
  -41382   -55602   -55219   -48756   -37358   -18185     -418      946 
  -15759   -37026   -45013   -31105    -4712    20551    41746    56740 
   60517    56826    54972    54479    41139     3711   -44165   -74086 
  -79004   -75836   -74968   -72239   -63447   -52786   -47749   -47097 
  -40284   -17986    17138    49601    65662    60524    37925    12127 
   -4257    -9030    -3670     4791     5073    -4725   -17983   -31826 
  -45846   -54945   -53954   -42371   -19386    12432    39366    46040 
   24534   -20966   -65281   -82003   -71643   -44523    -4398    36309 
   61319    64766    44617     7879   -22962   -32289   -22269     -499 
   22133    31581    18577   -11352   -33216   -26542    -4140     6012 
     139    -3227     1836     2762    -5903   -16991   -21054   -12712 
    -182     3307    -1803    -9670   -19183   -27936   -34022   -36571 
  -32606   -28100   -34933   -46051   -40126   -11283    25137    48244 
   51339    47043    40981    21946   -11016   -44458   -67386   -70109 
  -48699   -18191      438     4826     5184     1605    -9023   -18968 
  -24709   -29960   -27853   -11681     5346     9165     7605    12675 
   18354    14783    10829    17907    22145     7649   -13369   -25066 
  -25072   -12321     2816     3539    -2138      315    -1543   -21697 
  -49167   -66341   -62914   -35343     2926    23668    15294    -1177 
   -2363     7426     9281    -3068   -17042   -15256     4035    23006 
   24810    10783    -8510   -27747   -42527   -46197   -38018   -23865 
  -12741    -8133     -237    14708    22318    14266     -314    -9094 
   -7555    -1964      857      862    -2254    -5173     -322     8383 
   10210     4762    -3373   -13878   -26816   -40306   -47565   -38314 
  -14450     7923    17803    17028     9495    -3092   -14821   -19572 
  -17232    -8791     1167     3493      433     2844     6373    -2501 
  -23787   -44921   -50475   -34522   -10220     4556     7136     9182 
   16856    20795    11746    -9477   -33787   -46125   -41401   -30816 
  -21293    -7609    11063    25718    30068    23973     9467    -7186 
  -19161   -25095   -26464   -23807   -18446   -15329   -15715   -14673 
  -14449   -18013   -12901     8645    29043    28034    10212    -5277 
  -11138   -13923   -19026   -24854   -26601   -22667   -17069   -12683 
   -7442    -1873     -731    -4075    -6413    -4567    -1113      247 
    1242     5512     9105     4874    -5213   -12388   -11646    -5551 
   -1838    -4781   -10760   -16418   -21073   -19631    -6529    10743 
   16171     8374    -1529   -12823   -28777   -42110   -44609   -35436 
  -19735    -4916     3650     2409    -7743   -18090   -19020   -11804 
   -7674    -8768    -5034     3582     6085       99    -7376   -10856 
   -7857     -525     2207    -3708   -11072   -12957    -8851    -4155 
   -5441   -11161   -17236   -22509   -22607   -17795   -16761   -19407 
  -14211     2243    15876    14771     7323     3068    -1667    -6435 
   -6297    -4509    -4217    -3105       71     5435    11773    13772 
    7192    -3844   -11130   -12460   -11360   -12403   -17779   -21456 
  -18157   -15066   -16575   -15118    -5827     6566    11654     4938 
   -4241    -9127   -13662   -17574   -17651   -15880   -13024   -11229 
  -16479   -26222   -30929   -25871   -12009     3757    12166    12414 
    9763     4341    -6077   -16873   -18989   -10490     -976     2872 
    6697    11696     8769    -1768    -8406    -7018    -2515     2363 
    6154     4924     -525    -5107   -11330   -26331   -45901   -54070 
  -42055   -19822    -3712     1298      707    -1557    -4657    -8021 
  -12688   -16317   -14103    -8796    -5786    -5130    -6413   -10336 
  -14648   -14204    -6855     1125     1840    -2560    -4461    -3335 
   -2272      425     5822    10451    11350     6586    -2582    -7681 
   -4511    -1208    -3252    -5691    -5317    -5802    -8657    -9450 
   -7776    -9742   -14806   -17180   -17874   -18978   -20405   -23448 
  -22917   -14188    -6583    -7809   -12322   -13103    -8418    -2030 
     770     2732     7222     7187     -581   -10330   -20326   -27216 
  -23375   -10993     -291     1228    -6431   -14658   -17729   -18841 
  -18547   -14328    -7022     3227    14898    21570    18841     8367 
   -3080    -9838   -14858   -21416   -25899   -25173   -17818    -5825 
     966    -2986   -11858   -19496   -21899   -15932    -6774    -2710 
   -2770    -3888    -8673   -14295   -10255     3986    14632    12314 
    1761    -9061   -15763   -16071   -12756   -10682   -10534   -12900 
  -17911   -21336   -20220   -15738    -9347      355    12405    17884 
   13406     6423    -1544   -14000   -26931   -31731   -24543   -13564 
  -11896   -18829   -22616   -20421   -18391   -17084   -11970    -2926 
    4924     7412     5871     3557     1667      853      234    -1277 
    -288     5271     9579     6939       52    -5864   -10651   -14489 
  -13506    -7142    -2716    -6642   -14454   -17000   -13994   -11416 
  -11103   -11067    -9502    -5043     1475     6019     5358     -402 
   -8951   -16556   -18423   -12722    -5096    -1802     -926      966 
     990    -3387    -8681   -12424   -14273   -10385    -3341    -3708 
   -9963   -12893   -14908   -20713   -25263   -21080    -7080     8046 
   13780     9304      855    -5289    -7254    -9934   -15727   -19511 
  -19373   -17167   -12831    -9875   -11215   -12168   -10621    -9788 
   -9876    -9514    -9657   -12210   -16476   -18104   -16069   -13940 
  -11920    -9316    -8253    -6767    -1251     3929     3198      537 
