Origin Time       2024/04/02 04:24:00
Lat.              40.133
Long.             141.712
Depth. (km)       71
Mag.              6.0
Station Code      IWT025
Station Lat.      39.5169
Station Long.     140.8299
Station Height(m) 367
Record Time       2024/04/02 04:24:55
Sampling Freq(Hz) 100Hz
Duration Time(s)  112
Dir.              U-D
Scale Factor      7845(gal)/8223790
Max. Acc. (gal)   5.556
Last Correction   2024/04/02 04:24:55
Memo.             
[...]
  -13807   -13734   -13317   -12955   -13014   -13350   -13509   -13387 
  -13300   -13412   -13621   -13822   -13824   -13555   -13441   -13670 
  -13832   -13782   -13613   -13352   -13375   -13790   -14157   -14499 
  -14710   -14158   -13363   -13296   -13541   -13562   -13500   -13381 
  -13504   -14054   -13940   -12688   -11919   -12268   -12380   -11850 
  -11082   -10324   -10723   -12549   -14111   -14790   -15407   -16160 
  -16814   -16916   -16202   -15797   -16541   -17142   -16208   -14270 
  -13047   -13270   -13589   -12860   -12016   -11836   -11769   -11727 
  -12093   -12876   -14037   -14995   -14624   -13097   -12259   -13024 
  -13983   -13572   -12564   -12780   -13721   -14006   -14539   -16031 
  -17105   -17158   -16636   -15396   -14048   -13697   -13867   -13628 
  -12777   -11693   -11762   -13771   -15826   -15512   -13273   -11354 
  -11070   -12834   -15793   -17134   -15626   -13373   -12021   -11583 
  -11944   -12706   -13356   -13651   -13433   -12934   -12830   -13832 
  -15460   -15338   -12658   -10764   -12145   -14845   -16170   -15226 
  -13371   -13433   -14825   -14445   -13714   -15531   -17437   -15715 
  -11264    -8442   -10091   -13720   -14855   -13151   -11630   -11863 
  -12579   -12688   -12729   -13181   -14508   -16069   -15446   -13601 
  -14045   -15352   -14501   -13575   -14770   -15523   -13574   -11558 
  -12429   -13655   -12741   -13122   -15564   -15132   -12156   -11055 
  -11593   -12156   -12748   -13171   -13849   -14964   -16070   -16978 
  -16225   -13350   -11659   -13243   -15043   -13829   -11641   -11931 
  -13351   -13343   -12945   -13375   -14164   -14397   -13063   -12017 
  -13953   -16216   -16093   -15458   -14839   -13707   -13007   -12222 
  -10874   -10840   -12922   -14905   -14928   -13482   -12772   -14307 
  -15508   -13614   -10929   -10867   -13495   -16089   -15449   -11689 
   -9189   -10540   -13186   -14721   -15508   -15738   -15618   -15824 
  -15547   -14794   -15114   -15178   -12815   -10103   -10031   -11341 
  -11848   -12505   -13941   -15111   -15908   -16343   -15520   -13090 
  -11225   -12542   -14562   -13247   -11079   -12259   -14882   -15354 
  -14443   -14215   -14253   -14208   -14986   -15205   -12931   -11182 
  -13005   -14582   -12758   -11113   -12168   -14015   -15518   -16339 
  -15388   -13406   -12067   -11998   -13597   -15142   -14048   -11952 
  -12229   -14389   -15651   -15404   -14521   -13300   -12629   -13000 
  -13463   -14179   -15288   -15188   -13784   -12529   -12086   -13205 
  -15723   -17161   -16060   -14227   -13582   -13724   -13879   -14156 
  -13906   -12622   -11901   -12194   -11854   -11859   -13608   -14656 
  -14253   -14442   -14133   -13054   -14023   -15291   -14034   -13552 
  -14982   -14095   -11619   -11664   -13378   -14557   -14467   -12965 
  -12614   -14770   -16314   -15518   -14034   -12930   -12248   -12378 
  -12896   -13146   -14081   -15403   -15120   -14257   -14737   -15013 
  -13929   -12973   -12333   -11461   -11462   -12367   -12951   -13294 
  -13493   -13069   -12904   -13617   -13690   -13166   -13714   -14291 
  -14054   -14516   -14851   -13481   -12789   -14237   -14445   -12357 
  -12015   -14376   -15638   -14860   -14941   -16100   -15820   -14111 
  -12391   -11284   -11605   -12717   -13348   -13371   -12664   -12272 
  -12789   -12514   -12252   -13968   -14809   -13034   -12501   -13932 
  -14149   -13815   -14330   -13952   -13536   -15353   -16252   -14125 
  -13219   -14723   -14611   -12609   -12025   -12529   -12183   -12363 
  -14004   -15157   -14736   -13775   -13392   -13968   -14932   -14636 
  -13273   -13413   -14503   -14378   -14439   -14565   -12677   -11298 
  -12540   -13844   -14210   -14366   -13879   -13369   -13637   -14029 
  -14026   -13510   -13144   -13713   -13628   -12280   -12279   -13545 
  -13884   -13938   -14409   -14716   -14800   -14656   -14424   -14030 
  -13041   -12340   -13165   -14130   -13551   -12972   -13252   -12822 
  -12673   -14735   -16397   -14710   -12577   -13736   -15543   -14573 
  -13398   -13833   -13524   -12502   -12579   -13279   -13595   -13572 
  -13566   -13574   -13136   -12642   -13329   -14054   -13201   -12602 
  -13166   -13618   -14021   -14229   -14191   -14472   -14192   -13462 
  -12958   -11946   -12110   -14501   -15286   -13786   -13630   -14291 
  -13876   -13539   -13527   -13662   -14558   -15141   -14513   -13424 
  -12565   -12780   -13767   -13680   -13250   -13819   -13705   -13099 
  -13691   -13830   -12982   -13383   -14438   -13990   -12901   -12928 
  -13783   -14470   -13984   -12322   -12125   -14044   -14882   -14277 
  -14021   -13302   -12833   -14326   -15080   -13919   -14068   -15215 
  -14555   -13416   -13891   -14296   -13775   -14161   -14733   -13713 
  -12807   -13640   -14382   -13266   -11411   -11396   -13894   -15616 
  -14473   -13533   -14098   -13198   -11232   -11757   -14092   -15017 
  -14347   -13616   -13520   -13987   -14532   -14137   -12266   -10930 
  -11979   -13697   -14376   -14767   -15376   -15317   -13787   -12222 
  -12407   -12907   -12785   -13435   -14083   -13505   -13369   -14115 
  -13856   -13493   -14858   -15888   -14666   -13251   -13925   -15153 
  -14296   -12372   -12020   -13109   -13608   -13292   -13313   -13433 
  -13720   -14825   -15175   -13751   -12738   -13601   -15140   -15352 
  -13513   -12218   -13898   -15699   -14596   -12923   -12788   -12926 
  -12860   -12777   -12448   -12946   -14408   -14594   -13259   -12999 
  -14142   -14176   -12934   -12758   -13930   -14887   -14593   -13558 
  -13707   -14810   -14662   -13458   -12521   -11838   -11657   -12567 
  -13898   -14580   -14540   -14254   -13832   -13464   -13697   -13683 
  -12476   -11809   -12892   -14100   -14211   -13767   -13918   -14966 
  -15151   -13493   -12548   -13432   -13474   -12784   -13413   -13783 
  -13412   -14482   -15573   -14538   -13370   -13583   -14045   -14361 
  -14632   -14112   -12765   -12399   -14056   -15210   -14013   -12397 
  -11534   -11508   -12982   -14558   -14801   -14783   -15036   -15017 
  -14179   -12409   -11782   -13690   -15523   -15002   -13348   -12564 
  -13053   -13589   -13522   -13945   -14702   -14184   -13529   -14598 
  -15218   -13473   -11919   -12388   -13201   -13450   -13232   -12344 
  -12367   -14157   -15449   -15168   -14462   -13567   -12789   -13298 
  -14049   -13344   -12610   -13269   -14013   -13671   -13099   -13621 
  -14860   -15430   -14955   -13765   -12937   -13587   -14505   -14347 
  -13795   -12955   -11905   -11992   -13174   -14169   -14767   -14852 
  -14022   -13269   -13427   -13522   -12729   -11881   -12463   -13918 
  -14197   -13197   -12449   -13047   -14361   -14454   -13382   -13208 
  -14010   -14264   -14192   -14631   -14615   -13586   -13212   -13884 
  -13520   -12418   -13417   -15817   -15965   -13797   -12509   -13265 
  -14270   -14008   -13536   -13797   -13171   -11500   -11719   -14125 
  -15286   -14459   -14231   -14501   -13633   -13417   -14559   -14223 
  -13014   -13258   -13387   -13042   -13878   -14180   -13123   -13297 
  -14208   -13636   -12772   -12814   -13108   -14160   -15984   -15998 
  -13621   -11695   -11134   -10966   -11792   -13613   -14750   -14904 
  -14662   -14476   -15126   -15192   -13324   -12267   -12937   -12700 
  -12563   -14473   -15947   -15892   -15796   -14607   -12260   -11222 
  -11788   -13443   -15384   -14809   -12343   -12151   -13589   -13321 
  -12388   -12812   -13373   -12873   -13254   -15477   -16167   -14544 
  -14312   -15045   -14026   -12827   -12536   -11992   -12426   -14361 
  -15742   -16100   -15055   -12071   -10493   -12514   -14581   -14592 
  -14593   -14944   -14575   -14218   -13986   -12849   -11697   -11576 
  -11763   -12117   -13081   -14219   -14820   -14775   -14612   -14423 
  -13659   -12637   -12479   -13485   -14477   -13961   -12961   -13950 
  -15516   -15076   -14264   -13738   -11932   -10929   -12282   -13456 
  -13998   -14936   -15099   -14693   -14592   -13660   -12461   -12442 
  -12910   -13859   -15267   -15144   -13675   -13197   -13794   -14010 
  -13047   -11735   -11925   -13514   -14669   -14554   -13679   -13194 
  -13936   -15012   -14671   -12798   -11475   -12726   -15318   -15664 
  -13275   -12069   -14169   -16366   -15241   -12391   -11739   -13572 
  -14922   -14654   -13903   -13509   -13424   -12919   -11931   -11815 
  -13163   -14573   -14574   -13431   -12915   -13891   -14723   -14474 
  -14103   -13857   -13855   -14192   -14382   -14805   -15553   -15136 
  -12924   -10824   -11275   -13805   -14964   -13625   -13036   -14596 
  -14986   -13265   -13177   -14686   -13583   -11101   -12249   -14809 
  -13329   -11472   -13918   -16113   -15264   -14542   -13778   -11686 
  -11186   -12960   -13806   -13738   -14242   -14480   -14679   -14862 
  -13601   -12641   -13666   -14094   -13428   -14339   -15712   -14758 
  -13140   -13092   -13427   -13066   -12083   -11071   -11584   -13458 
  -14831   -14941   -14108   -13910   -15259   -15645   -13548   -12055 
  -13022   -14110   -14493   -14760   -13517   -11761   -12711   -14833 
  -14397   -12560   -12472   -13679   -14111   -13590   -13383   -14291 
  -14895   -13516   -12202   -13220   -14099   -12965   -12798   -14740 
  -15364   -14131   -14081   -14254   -11931   -10098   -11871   -14003 
  -14284   -14748   -15596   -15745   -15448   -14837   -13744   -12420 
  -11628   -11820   -12480   -12961   -13437   -14431   -14769   -13050 
  -11858   -13713   -15313   -14299   -13900   -14902   -14690   -13698 
  -13570   -14243   -14602   -13761   -13165   -13512   -13304   -13184 
  -13581   -13427   -13824   -14521   -13737   -12869   -13016   -13039 
  -12953   -13351   -13992   -14605   -14895   -14546   -13936   -13632 
  -13428   -13186   -13355   -13625   -13693   -14496   -15360   -14397 
  -13221   -13840   -14188   -13117   -12544   -13009   -13463   -13520 
  -13325   -13178   -13479   -13903   -13575   -12838   -12865   -13466 
  -14180   -15375   -15832   -14323   -12977   -13317   -13327   -12262 
  -11893   -12640   -13713   -14152   -13386   -13235   -15016   -15915 
  -13844   -11695   -12217   -14014   -15182   -15141   -13666   -12075 
  -12048   -13317   -14592   -14797   -14019   -13641   -14011   -13571 
  -12106   -12125   -14169   -15348   -14860   -14446   -13864   -12609 
  -12502   -13539   -13154   -11896   -12575   -14488   -14608   -13255 
  -13428   -14708   -14607   -13545   -12958   -13798   -15395   -14705 
  -12663   -13131   -14422   -13801   -13321   -13228   -11697   -11452 
  -13883   -14935   -13764   -13317   -14261   -15233   -15187   -14665 
  -14347   -13436   -12094   -12009   -12537   -12317   -13437   -16031 
  -16058   -13909   -13394   -13292   -11740   -11848   -14742   -16231 
  -14131   -11758   -12168   -13645   -13525   -12753   -13298   -14261 
  -14110   -13396   -12843   -12781   -13963   -15645   -15782   -14412 
  -13745   -14497   -14500   -12712   -11916   -13936   -15722   -14654 
  -12918   -12772   -13169   -12964   -12865   -13335   -13086   -12193 
  -13157   -14875   -13991   -12802   -13842   -14014   -12852   -13257 
  -13743   -12829   -13371   -15183   -14638   -12694   -12675   -13855 
  -14426   -14478   -14297   -14307   -14642   -14546   -14168   -14411 
  -14517   -13583   -12954   -13513   -14002   -13724   -13655   -13768 
  -13412   -14008   -14959   -13711   -12305   -12699   -12846   -12870 
  -13590   -13290   -12777   -13840   -14332   -13031   -12144   -12444 
  -13131   -14000   -14608   -14771   -14562   -13659   -13392   -15124 
  -16104   -13825   -11848   -13427   -15280   -14257   -12552   -12784 
  -13991   -14173   -13311   -12949   -13479   -13535   -13270   -13861 
  -14189   -13151   -12758   -14343   -14913   -12839   -11337   -12043 
  -13201   -13940   -14119   -13474   -13482   -14778   -14777   -13062 
  -12758   -13972   -13635   -12305   -12626   -13323   -13159   -13423 
  -13410   -12537   -12707   -13888   -14069   -13444   -13400   -13626 
  -13444   -13633   -14469   -14436   -13670   -13618   -13443   -13342 
  -14569   -14952   -13971   -14760   -16314   -15461   -13851   -13882 
  -14320   -13795   -13810   -15357   -15531   -13093   -11947   -13444 
  -14121   -13578   -14022   -14096   -12897   -12706   -13371   -13269 
  -13350   -13841   -13255   -12607   -13568   -14191   -13066   -12465 
  -13081   -13490   -14347   -15966   -16482   -15631   -15007   -14859 
  -14521   -13942   -13350   -13522   -14548   -14581   -13176   -12955 
  -14625   -14872   -12672   -11623   -13165   -14607   -14827   -14818 
  -14214   -12418   -10322    -9487   -10478   -11672   -12074   -13003 
  -14430   -14786   -13994   -13494   -14580   -15595   -14154   -12785 
  -13900   -14912   -14832   -14530   -12908   -11657   -13173   -14611 
  -14183   -14045   -14638   -14858   -14508   -14165   -14139   -13599 
  -13243   -15063   -16325   -13726   -11793   -13945   -15547   -14416 
  -13001   -12266   -12754   -13896   -14129   -14604   -16093   -16752 
  -15920   -14563   -13918   -14920   -16185   -15866   -14922   -13998 
  -12286   -11511   -13050   -14381   -14035   -13278   -12783   -12388 
  -11888   -11566   -11774   -11826   -11715   -12568   -13834   -13952 
  -13343   -12877   -11826   -10982   -12414   -14380   -14164   -13444 
  -14301   -15716   -16626   -16667   -15475   -14458   -14971   -15595 
  -15466   -15904   -16842   -16281   -14119   -12989   -13252   -12896 
  -12525   -12667   -11480    -9404    -8182    -7850    -9207   -12204 
  -13902   -14192   -14866   -14170   -11449    -9539    -9979   -11556 
  -12507   -13147   -14227   -14677   -14600   -14939   -14756   -14270 
  -15226   -17153   -18400   -17864   -16004   -15665   -16771   -16144 
  -14725   -14478   -13892   -12735   -12406   -12519   -12364   -12252 
  -12316   -12117   -11542   -11178   -11296   -11164   -10486   -10779 
  -12459   -12737   -10909   -10644   -13193   -15106   -14301   -12708 
  -12729   -13753   -13217   -12015   -13662   -16190   -15431   -13556 
  -13220   -12955   -13095   -14438   -15357   -16233   -17232   -15450 
  -11826   -10393   -10674   -10721   -11412   -12951   -14068   -14914 
  -15580   -14839   -13128   -12083   -11920   -12024   -12321   -13309 
  -15084   -17154   -18423   -17610   -15163   -13128   -12760   -13441 
  -14207   -14793   -14878   -14721   -15169   -15539   -14737   -13760 
  -13775   -14181   -14254   -14223   -14517   -15040   -15341   -15226 
  -15155   -15364   -14889   -14045   -14384   -14573   -13254   -12294 
  -11921   -10566    -9508   -10948   -14025   -16314   -16907   -16077 
  -14239   -11992   -10484   -10971   -12656   -14435   -17305   -19264 
  -16592   -11912    -9720    -9771   -10559   -12398   -15981   -19265 
  -19444   -18044   -16841   -14423   -12067   -12158   -12282   -10814 
  -10473   -11547   -12150   -13066   -13975   -13184   -11794   -11141 
  -11875   -13973   -14693   -13289   -12910   -14003   -14351   -13932 
  -13387   -12418   -11928   -12544   -13227   -14067   -14805   -13728 
  -12214   -12924   -14840   -15680   -14578   -12673   -12382   -13090 
  -12696   -12243   -12540   -12958   -13585   -13336   -12108   -12582 
  -14542   -15169   -14692   -13926   -12212   -10825   -10828   -11406 
  -13120   -15525   -15834   -14102   -12815   -12868   -14164   -15275 
  -13836   -11421   -11735   -13590   -13764   -13466   -14670   -15835 
  -15484   -14058   -12560   -11992   -12110   -12280   -12486   -12590 
  -13151   -13776   -13046   -13130   -15583   -16645   -15635   -15469 
  -14893   -13894   -15002   -15334   -13053   -12326   -13616   -14276 
  -15126   -15916   -15349   -15549   -17078   -17185   -15483   -14040 
  -13664   -13648   -13423   -13220   -13576   -14154   -14061   -13432 
  -13144   -14096   -16106   -17347   -17404   -17132   -15943   -14439 
  -14021   -13181   -11705   -12042   -12745   -11700   -11986   -14332 
  -14958   -14534   -15616   -16151   -15067   -14037   -12563   -10902 
  -11164   -11781   -11132   -11886   -13902   -13837   -12694   -12837 
  -13250   -13142   -13001   -12307   -10994   -10411   -11098   -12829 
  -14986   -15530   -14191   -13497   -13512   -12434   -10890   -10215 
  -10951   -13200   -15174   -14563   -12114   -10841   -11442   -12145 
  -12781   -13166   -12553   -13344   -16040   -16606   -14864   -14515 
  -15924   -16432   -14686   -12640   -12563   -13081   -12426   -12370 
  -13867   -14628   -14526   -15041   -15164   -14627   -14269   -13813 
  -13732   -14411   -14782   -14062   -12911   -12811   -13988   -14701 
  -14550   -15387   -16380   -15383   -14230   -14049   -13036   -12104 
  -13050   -15025   -16599   -16260   -14218   -13271   -13725   -13286 
  -12178   -12181   -12717   -12187   -11547   -11553   -10488    -9688 
  -11838   -14068   -13921   -14181   -14945   -13760   -12731   -13055 
  -12077   -11348   -13166   -14034   -12899   -13451   -14848   -13451 
  -10971   -11349   -13651   -14778   -15475   -16625   -15948   -13986 
  -13246   -13039   -12999   -13649   -14061   -14748   -15916   -15229 
  -13792   -14867   -16181   -15091   -14233   -14428   -13949   -13990 
  -14740   -14146   -13190   -13176   -13467   -14457   -15237   -14550 
  -14258   -14810   -14679   -14027   -13450   -13770   -15399   -16293 
  -14828   -12864   -12526   -13117   -13697   -14288   -14611   -14619 
  -14175   -13008   -11867   -11407   -11279   -11715   -13270   -14409 
  -13601   -12749   -13567   -14416   -14239   -14030   -13930   -13560 
  -13022   -12441   -12587   -13581   -14044   -13612   -12888   -11861 
  -11164   -12079   -13878   -14187   -13089   -13100   -14347   -14790 
  -14328   -14044   -13933   -13502   -12754   -12595   -12903   -12258 
  -11878   -13157   -13649   -12982   -13941   -15290   -14492   -13444 
  -13612   -13209   -11998   -11857   -13514   -15799   -16731   -15830 
  -14635   -14164   -13797   -12974   -12768   -13867   -15053   -15982 
  -16472   -15426   -13860   -13062   -13028   -14050   -14690   -13678 
  -12997   -13239   -12723   -12017   -12113   -12658   -13890   -14713 
  -13481   -12204   -12942   -13965   -14023   -14050   -14403   -14952 
  -15217   -14291   -13047   -12842   -12704   -11526   -10347   -10528 
  -11705   -12785   -13522   -14370   -15404   -16182   -16644   -16402 
  -14945   -13255   -12649   -12829   -12723   -12453   -12195   -11661 
  -11479   -11689   -12245   -13803   -14671   -13537   -12904   -13478 
  -13231   -12663   -12930   -13363   -13433   -13182   -13018   -13105 
  -12796   -12702   -14277   -15978   -15766   -15479   -15777   -14550 
  -12960   -12579   -12545   -13574   -15063   -14725   -14238   -14845 
  -13868   -12229   -13632   -15938   -15580   -14629   -14766   -14585 
  -14500   -14625   -13626   -13009   -14137   -14910   -14332   -13672 
  -13451   -13633   -14210   -14316   -13200   -12453   -13208   -13173 
  -11763   -11557   -12919   -14242   -14912   -15012   -14754   -14427 
  -14241   -14673   -15549   -15269   -13871   -13454   -13732   -12980 
  -12058   -12137   -12615   -13648   -15549   -16580   -14986   -12544 
  -12941   -15010   -14608   -13109   -13683   -14454   -13824   -13663 
  -13678   -12170   -10793   -11435   -13367   -15047   -15237   -14557 
  -14544   -14419   -13246   -12734   -13760   -14640   -14526   -13871 
