Origin Time       2024/04/02 04:24:00
Lat.              40.133
Long.             141.712
Depth. (km)       71
Mag.              6.0
Station Code      IWT004
Station Lat.      39.7356
Station Long.     141.9671
Station Height(m) 9
Record Time       2024/04/02 04:24:50
Sampling Freq(Hz) 100Hz
Duration Time(s)  134
Dir.              E-W
Scale Factor      7845(gal)/8223790
Max. Acc. (gal)   210.720
Last Correction   2024/04/02 04:24:49
Memo.             
[...]
   -3190    -3191    -3190    -3191    -3191    -3187    -3187    -3187 
   -3190    -3191    -3190    -3191    -3188    -3186    -3190    -3188 
   -3186    -3190    -3190    -3188    -3188    -3188    -3187    -3188 
   -3191    -3191    -3191    -3191    -3192    -3191    -3188    -3190 
   -3192    -3191    -3190    -3192    -3191    -3190    -3191    -3191 
   -3191    -3191    -3188    -3188    -3191    -3188    -3190    -3192 
   -3191    -3187    -3187    -3188    -3190    -3192    -3194    -3190 
   -3187    -3188    -3190    -3190    -3190    -3190    -3190    -3190 
   -3188    -3191    -3191    -3187    -3190    -3195    -3192    -3188 
   -3190    -3190    -3188    -3191    -3194    -3192    -3190    -3190 
   -3191    -3190    -3188    -3191    -3192    -3190    -3190    -3191 
   -3191    -3188    -3187    -3188    -3190    -3190    -3190    -3190 
   -3190    -3191    -3190    -3190    -3190    -3190    -3190    -3191 
   -3192    -3194    -3190    -3188    -3191    -3190    -3190    -3190 
   -3188    -3190    -3192    -3188    -3187    -3191    -3192    -3192 
   -3191    -3191    -3190    -3188    -3192    -3192    -3191    -3192 
   -3191    -3190    -3190    -3191    -3192    -3188    -3187    -3190 
   -3191    -3188    -3187    -3192    -3194    -3188    -3188    -3192 
   -3191    -3190    -3188    -3187    -3188    -3190    -3188    -3190 
   -3191    -3188    -3188    -3191    -3191    -3191    -3191    -3188 
   -3188    -3191    -3191    -3190    -3188    -3188    -3188    -3190 
   -3188    -3190    -3192    -3191    -3190    -3190    -3188    -3188 
   -3190    -3190    -3190    -3191    -3190    -3188    -3188    -3188 
   -3190    -3188    -3191    -3192    -3188    -3187    -3191    -3191 
   -3188    -3190    -3191    -3191    -3190    -3190    -3190    -3190 
   -3190    -3191    -3191    -3190    -3188    -3190    -3190    -3187 
   -3187    -3188    -3190    -3190    -3188    -3190    -3190    -3187 
   -3188    -3188    -3188    -3190    -3191    -3191    -3192    -3191 
   -3188    -3192    -3192    -3188    -3187    -3190    -3190    -3188 
   -3188    -3188    -3191    -3191    -3190    -3188    -3188    -3187 
   -3187    -3188    -3190    -3188    -3190    -3194    -3194    -3191 
   -3191    -3191    -3188    -3187    -3190    -3191    -3188    -3188 
   -3190    -3190    -3190    -3191    -3191    -3191    -3190    -3188 
   -3190    -3190    -3190    -3190    -3191    -3190    -3188    -3191 
   -3191    -3191    -3191    -3188    -3188    -3190    -3188    -3190 
   -3191    -3191    -3190    -3190    -3191    -3191    -3191    -3192 
   -3190    -3188    -3191    -3191    -3191    -3190    -3188    -3188 
   -3190    -3188    -3187    -3191    -3191    -3190    -3190    -3191 
   -3190    -3190    -3191    -3192    -3190    -3190    -3188    -3188 
   -3191    -3191    -3188    -3190    -3191    -3188    -3188    -3190 
   -3187    -3190    -3191    -3188    -3191    -3194    -3191    -3191 
   -3190    -3188    -3190    -3191    -3190    -3188    -3190    -3190 
   -3190    -3191    -3191    -3190    -3188    -3190    -3192    -3192 
   -3190    -3188    -3188    -3190    -3191    -3188    -3187    -3188 
   -3188    -3188    -3190    -3190    -3188    -3190    -3191    -3191 
   -3191    -3190    -3190    -3192    -3192    -3190    -3190    -3191 
   -3191    -3191    -3192    -3194    -3194    -3191    -3191    -3192 
   -3191    -3191    -3190    -3190    -3192    -3192    -3190    -3190 
   -3190    -3190    -3190    -3190    -3187    -3184    -3187    -3196 
   -3207    -3223    -3241    -3262    -3285    -3289    -3253    -3222 
   -3257    -3308    -3310    -3343    -3422    -3334    -3040    -2898 
   -3173    -3615    -3915    -3979    -3488    -2597    -2663    -3904 
   -4688    -4850    -5355    -5260    -3164     -453     -526    -3303 
   -4405    -2731    -1074     -419    -1308    -4163    -6567    -5512 
   -1042      997    -3345    -7215    -7083    -7218    -4957     1422 
    5213     3769      245    -1576       59     1127    -3933   -13984 
  -22292   -22677   -12951      363     5872     4603     7254    12858 
   12722     5927    -5189   -18015   -23193   -13370     1480     3071 
   -8808   -14683    -7483    -1979    -2116     2263     6108     3295 
    6535    16009     9553   -15754   -31588   -18017     7153    10211 
   -9921   -22410   -16744    -4568    11342    21855    17944    16208 
   17001    -7919   -48703   -53941    -5533    50674    59308    21047 
  -21158   -37099   -29358   -24232   -29589   -20186     8270    31321 
   29575      -55   -28908   -24700       -4     8428   -11618   -32634 
  -25596     1190    22185    25311    19572    15631     2458   -29623 
  -63215   -68094   -38645    -5208    16892    37806    53673    58903 
   47038     7003   -38300   -53640   -38327   -15769    -7219    -8100 
     872    12823     6257   -12390   -16762    -1614    12970    14720 
   11847    14062    19376    19383    10374     -144    -5255   -14971 
  -36598   -55756   -59576   -43798    -9340    20706    27125    25959 
   28470    17740    -6964   -18418    -8865     1242     2166    -2775 
  -16187   -33060   -33756   -13838     1597    -2500    -6353     2521 
    9864     8014     3817     4434    10845    15579    11361     1370 
   -6613   -12973   -19510   -22338   -23442   -21755    -9035     6825 
   10690     1601    -4263    12673    36533    33282     8152   -11036 
  -11294      367     3002   -10621   -23147   -18598    -5382    -7839 
  -28061   -38313   -21752     5336    15533     4498    -5827      329 
   13016    13306     1777    -2193     5235     6944    -4031   -17755 
  -22026   -16171   -15361   -22497   -16062     7323    20548     9940 
   -6866    -8880    -1293    -3198   -12823   -15465    -8244     4213 
   16514    20634    11568    -2620    -8904    -8025   -10004   -13570 
   -6193    11831    26202    29586    21622     6600    -5352   -10426 
  -13394   -17300   -22019   -27514   -27823   -16989    -4488     1251 
    3445    -1628   -14143   -17547    -5705     6129     7489     4083 
    3208     4870     4540    -1116   -10173   -18495   -20524   -14287 
   -8977    -6146     2258     7592     3213     1363     5541     8615 
    5784    -2880    -9748   -12118   -12783   -12228   -12911   -10978 
   -2947      981    -3524    -7551    -2673    10041    19639    22114 
   19510     8214    -4860    -6986    -2231    -1246    -8348   -19203 
  -22461   -13701     1655    12758     7217    -9795   -18374   -14970 
  -10597    -8619    -7376    -5810    -2536    -1852    -6835    -8035 
     407     6712      373   -11233   -15718   -11515    -4858    -1425 
   -2342    -3948    -4679    -6578    -8607    -7465      676    13753 
   15843     1096    -8696     -348     8791     3780    -8468   -15361 
  -11226    -1140     4850     4097     1348      583     -326    -5059 
  -11958   -15290    -8491     4517     9603     4078    -3623    -7041 
   -3187     4756    10110     6592    -7800   -21554   -20090    -5088 
    9890    12700     1578   -11523   -15005    -9814    -3451    -3743 
  -11885   -17173   -11306    -1922     -330    -7481   -14338    -9343 
    3808     7929      417    -8191   -13292   -13059    -5744     4275 
    8904     6137     1715      557     3154     6358     5070     -648 
   -3073     2565     9402     5817    -9375   -19307   -10341     3735 
    4747    -3219    -8862    -8476    -4352    -3065    -8237   -14337 
  -14208    -8275    -2740    -1996    -3568    -2883    -1166     -847 
   -1227    -3237    -9397   -17123   -15141     -411     9451     4743 
   -1085      778     2721     -495    -2806      939     6355     4326 
   -5443   -11252    -9834    -6566    -1219     1451    -1980    -1759 
    2259    -1896   -12224   -15726    -9467    -1680     -729    -5983 
   -8422    -4413     -109      776      765      764      704     2091 
     778    -7304   -13382    -8725      946     7560     8796     1790 
   -8880   -10228    -3651       20     1364     2103     1213     2401 
    1849    -6999   -16025   -15574    -7616    -2065    -7257   -14162 
  -10682    -4588    -3484    -3534    -4135    -3723     2340     9225 
    6295    -5854   -13451    -9208    -1462     1690      926    -1571 
   -5810   -10297    -9062    -1760     2523     3636     7699    10237 
    5651    -6095   -19137   -20865   -11340    -4153    -3342    -3703 
    -359     6355     7230    -2774   -13072   -11240    -1004     2903 
   -3654    -7952    -1348     5896     2786    -6180   -13127   -14115 
   -7412    -1749    -6820   -12600    -6120     5979    10081     1759 
   -9269    -9738    -3531    -2073    -3361    -1069     2911     4241 
    1377    -3180    -3403     -414    -1539    -4056    -2218     -252 
    -267     -441    -6077   -16861   -20483   -11990     1502     8540 
    1567   -11203   -15809    -9649     1692     7538     -441   -12430 
  -11543    -2528    -3634   -10112    -2407    14832    21945    14041 
    -406    -8280    -1802     7815     3292   -11484   -18854   -14370 
   -7506    -5362    -4364     1493     6158     1128    -6785    -7600 
   -3639    -1813    -3840    -6265    -6351    -4245     -351     3545 
    4405     -361    -9153   -15020   -14993   -10359    -2728     3063 
    5929     8981    10612     7630    -2550   -17105   -22014   -12750 
   -5778    -8642    -8480     -857     3493        9    -6130    -8527 
   -4549     1483     3936      477    -5197    -3230     5583     8586 
    2196    -5791    -7892    -6166    -7114    -7038     -826     4288 
    1340    -5250   -10073   -12387    -9148      -51     5211      756 
   -4764    -4089    -3632    -6033    -2088     5589     3146    -6156 
   -9875    -8773    -7510    -4233     1016     2092    -2072    -4554 
   -4758    -7311    -8824    -3828     3429     6361     5949     2728 
   -5533   -15068   -18794   -12938    -3824    -2797    -4862      726 
    5070    -2232   -14588   -21644   -16684    -2794     4472     -974 
   -5167     4004    17315    19001    10380      303    -8178   -12806 
  -12460    -7364       68     4432     4066    -2007   -12316   -17990 
  -17853   -18230   -15919    -6143     3782     6426     6790    10211 
   12984    10771     1121   -13456   -19865   -11630     -839     1718 
     203     4492    12298     6462   -14045   -24073   -12877     1398 
    5736     5999     7006     5422     -113    -9045   -19363   -22523 
  -15093    -6674    -4448    -4209      729     5178    -2292   -13983 
  -12353    -2897    -4406   -15727   -18635    -7553     5632    11040 
    6243    -5238   -11659    -4777     7704    10642     1610    -5247 
   -1308     6848    12131    12694     9166     4209    -2575   -14683 
  -26593   -25597   -12467    -1752     -369    -2693    -5005    -8313 
   -8838    -5923    -7264   -11411    -8374     2485    11499    10513 
    4302     3384     5505     1516    -8114   -16789   -19946   -14855 
   -6061    -5166   -11778   -11344      171     9443     6963    -1435 
   -8158   -11510    -8213     -920     -981    -6409    -5344      190 
    2539     3538     5968     5825      317    -2307     4838     9873 
    4622      996      882    -5097    -9647    -4267     1364    -1466 
   -8241   -11114    -8081    -2789     3190     8507     7010     1522 
    2635     5657     -661   -11128   -13774    -9494    -9373   -17073 
  -24075   -22056   -10247     3067     2890   -13535   -24317   -11623 
    8194    10638      502    -4278    -1674     2056     2666    -4179 
  -13400   -13572    -5842     -920    -4637   -10608    -7026     2440 
    3804    -1482    -3568    -1684     2894    10137    13521     6153 
   -3564    -1273     5914      797   -11287   -12564    -2400     3997 
     672    -2547    -3046    -9562   -18881   -16538    -3186     5402 
    6057     6097     3778    -1815    -6980   -14744   -23727   -21161 
   -4939     5930    -1580   -11005    -2578    10569     7125    -3508 
   -4490     -203      284    -3457    -7261    -4658     3230     5227 
   -2006    -9142    -8004    -1653    -1707   -10477   -13929    -3555 
    8110     7110    -2926   -10655    -8930    -2947    -5416   -13405 
  -15724   -13853   -12190   -10373    -6193     2798    10930     8249 
   -1728    -3798     5679    12557     6378    -6192   -10939    -3700 
    2609    -1514    -6151    -3437     1213     3650     1289    -6702 
  -14057   -15295   -11415    -8768   -11480   -16326   -20877   -22003 
  -15689    -7958    -5485    -5162    -2513     5096    17658    28707 
   29567    18004     1856   -10189   -18723   -25486   -27926   -27318 
  -27035   -29725   -37143   -39900   -23788    11145    50508    76756 
   83139    75898    58336    31183     3175   -20725   -43541   -61612 
  -71294   -77446   -80635   -77893   -69134   -56176   -48043   -51528 
  -59271   -62047   -59071   -54868   -49928   -35677    -5007    38350 
   81850   113331   129691   130427   110158    66267     4660   -59813 
 -104641  -114810   -98285   -76542   -61497   -43297    -5290    49396 
  105247   152077   180276   188387   185795   176490   163386   152235 
  143131   136035   130056   116148    88470    53958    21860   -13146 
  -64855  -125783  -168319  -182673  -181554  -166496  -131944   -91377 
  -56876   -22707    13070    44940    67450    72420    59853    43951 
   30379     2575   -53971  -122839  -170861  -188617  -191633  -189530 
 -182710  -173389  -162153  -150746  -143255  -136113  -123244  -102536 
  -71745   -30069    22886    83735   141104   186509   214558   217710 
  194694   153739   107987    66860    30402    -1182   -24822   -44319 
  -64008   -77186   -76756   -64287   -36756     7414    49881    79375 
  103364   114255   105876    93841    85426    80308    78444    70102 
   52051    33552    20804    11091    -4170   -26852   -45798   -50650 
  -42979   -31768   -25037   -25701   -30082   -32300   -32425   -31355 
  -26087   -20260   -22562   -37454   -62241   -84923   -97595  -103932 
 -105548  -100552   -89272   -72794   -53241   -35608   -24875   -19834 
  -16812   -13009    -1233    22620    52721    81927   102668   103161 
   75694    28780   -13231   -31519   -32090   -33106   -39098   -41509 
  -36383   -22658     2555    33490    60381    79428    89082    91530 
   89160    78668    62552    49904    40879    28475    11443    -6756 
  -23542   -36174   -44416   -51607   -57341   -57515   -53384   -51128 
  -52497   -53404   -49306   -38300   -22333    -7790     -827     1590 
    8498    20912    27332    17540    -1055   -13467   -17163   -18377 
  -19052   -14914    -5790    -1077    -6535   -16287   -20213   -12835 
    1872    15118    21101    19314    11314     -602    -9552   -10413 
   -6615    -1768     4699    12602    17753    16195    12823    16364 
   25652    31572    28356    17238     3990    -7757   -19036   -27675 
  -28479   -23241   -20993   -25820   -30612   -29739   -26763   -24475 
  -19137    -5574    14536    31768    36540    26365     9181    -4814 
  -12641   -14435    -9763    -1209     2417    -7812   -27660   -42781 
  -44363   -34458   -22381   -14897    -8453     1732     8829     3748 
   -9238   -19880   -22715   -18959   -15106   -12676    -9086    -5368 
   -1162     4415    10199    16294    23197    31072    37035    35266 
   23556     5988    -7461    -9058    -2586     4018     9105    16059 
   24810    26685    14809    -1086    -2840     9454    19310    22590 
   24532    23130    15645     3145    -8676   -14474   -19213   -26217 
  -30150   -30250   -29720   -29542   -29278   -26049   -17911    -6300 
    5350     9707     1067   -14989   -27448   -33178   -36498   -38614 
  -35441   -25035   -10768     2478    11040    12073     6081     -326 
   -1958    -2093    -5991   -12876   -17563   -18004   -17212   -16090 
  -11460    -3445     2296     2513     1254     3584     9902    17834 
   25289    32212    38742    42479    40828    33277    20912     5620 
  -10801   -26368   -39384   -45904   -36895   -10631    17055    28748 
   25072    19360    17080    12960     5674      440      881     4610 
    5682      367   -10945   -22283   -26842   -25752   -23897   -24672 
  -28838   -31048   -27143   -21803   -19133   -15807    -9286    -3423 
   -3229    -9806   -20426   -30969   -37816   -37447   -27002    -6659 
   17915    36644    42792    37262    25624    13169      487   -11553 
  -15854    -8284     3580     9660     9332     6203     -711   -10291 
  -14636    -9929     -529     9698    18944    24695    26451    24588 
   18168     7859    -3611   -12779   -18744   -24930   -31363   -31660 
  -22272    -8757      244     1973    -1055    -5401    -7869    -8457 
  -10512   -13953   -14457   -11529    -9663   -10740   -12896   -15338 
  -16617   -14137   -10145    -8957    -9281    -6779    -1796      375 
   -1422     -939     4891     9938     9418     7256     7146     7651 
    7731     8395    12042    20594    31591    38742    35892    22152 
    4021    -9617   -13732    -9948    -3439     1152    -1358   -11442 
  -20509   -21551   -14685    -5540    -1888    -2679    -2806    -4534 
   -8810   -11529   -11715   -12474   -16282   -21502   -25817   -29388 
  -31885   -33227   -32572   -24479    -6723    11608    18492    12136 
    1410    -5512    -7246    -3889     4159    10706     9775     4681 
     677    -2442    -5837    -6224     1051    11907    17670    18451 
   15442     4201   -10242   -15195    -8691     1802     8702     8301 
    2200    -6813   -15001   -17128   -13946   -11946   -13198   -14077 
  -13976   -15600   -15707    -9217     -751      554    -6056   -11703 
   -9792    -4800    -4047    -5813    -2076     9610    21760    23750 
   11979    -5945   -17975   -18362   -11395    -5645    -5046    -6593 
   -7742   -11260   -17266   -17358    -6453     6234     9173     3878 
    -841     -868     1040     1175     1579     5328    11059    17381 
   21645    18624     8509    -2242    -7996    -7884    -5429    -3283 
    -679     2601     6330    11281    15298    13840     7317     1651 
    -144    -1097    -4448    -9802   -15708   -22299   -27097   -24224 
  -16046   -12413   -13803   -13861   -12764   -13560   -15823   -16548 
  -12506    -3608     7245    15102    13930     3346   -10079   -19666 
  -21834   -16717    -7954     -441     3578     5776     6319     3396 
   -1930    -7030    -8908    -5513     -828     -155      -64     5370 
   12631    12491     1952   -11562   -20425   -25434   -26956   -19990 
   -4479    10713    18708    21066    20156    16946    13076     5610 
   -7103   -16618   -15661    -8101    -1896     -251     -874    -1707 
   -4704   -10945   -15930   -15795   -13185   -11912   -11043    -7780 
   -3948    -3929    -6970    -8127    -4494     1906     6698     9072 
   11277    13788    14372     8444    -5481   -18442   -20150   -13701 
   -8526    -6270    -4606    -4291    -6936   -11591   -14370   -13323 
  -10314    -5977       71     6228    10679    13177    12934     6812 
   -5144   -16569   -22045   -20985   -15723    -8730     -199     8896 
   15396    16835    12037     3794    -1961    -4691    -8625   -13508 
  -14189    -8579    -1647     -248    -5112   -10741   -12580   -10172 
   -6007    -3842    -3856    -1983     2695     4688        8    -6231 
   -5941      986     7506     9097     7176     4700     4575     7851 
