Origin Time       2024/04/02 04:24:00
Lat.              40.133
Long.             141.712
Depth. (km)       71
Mag.              6.0
Station Code      IWT003
Station Lat.      40.0083
Station Long.     141.8885
Station Height(m) 7
Record Time       2024/04/02 04:24:49
Sampling Freq(Hz) 100Hz
Duration Time(s)  136
Dir.              N-S
Scale Factor      7845(gal)/8223790
Max. Acc. (gal)   96.104
Last Correction   2024/04/02 04:24:48
Memo.             
[...]
   -5348    -5347    -5346    -5347    -5352    -5356    -5356    -5350 
   -5343    -5346    -5348    -5348    -5347    -5347    -5352    -5356 
   -5355    -5350    -5347    -5344    -5341    -5339    -5340    -5351 
   -5358    -5356    -5354    -5350    -5347    -5347    -5347    -5346 
   -5346    -5344    -5347    -5354    -5356    -5352    -5347    -5346 
   -5346    -5347    -5350    -5348    -5344    -5347    -5348    -5348 
   -5355    -5356    -5346    -5337    -5340    -5346    -5348    -5344 
   -5348    -5355    -5351    -5347    -5346    -5344    -5351    -5356 
   -5350    -5343    -5346    -5351    -5351    -5350    -5350    -5347 
   -5343    -5347    -5347    -5344    -5347    -5354    -5356    -5352 
   -5346    -5343    -5347    -5350    -5352    -5358    -5356    -5348 
   -5339    -5336    -5343    -5356    -5366    -5362    -5347    -5335 
   -5335    -5344    -5354    -5359    -5360    -5354    -5343    -5340 
   -5344    -5356    -5364    -5351    -5332    -5329    -5337    -5346 
   -5355    -5359    -5356    -5347    -5333    -5333    -5347    -5359 
   -5364    -5360    -5348    -5336    -5336    -5346    -5351    -5354 
   -5350    -5339    -5340    -5355    -5362    -5352    -5343    -5343 
   -5346    -5350    -5352    -5351    -5350    -5347    -5347    -5351 
   -5351    -5348    -5348    -5351    -5352    -5348    -5340    -5343 
   -5354    -5356    -5352    -5351    -5344    -5336    -5337    -5348 
   -5360    -5363    -5348    -5343    -5347    -5346    -5348    -5355 
   -5350    -5337    -5328    -5336    -5355    -5360    -5355    -5355 
   -5356    -5350    -5335    -5332    -5350    -5360    -5355    -5350 
   -5351    -5344    -5333    -5332    -5347    -5360    -5362    -5359 
   -5355    -5352    -5351    -5351    -5348    -5339    -5329    -5335 
   -5348    -5358    -5360    -5359    -5359    -5355    -5341    -5335 
   -5335    -5337    -5347    -5354    -5354    -5351    -5356    -5362 
   -5356    -5340    -5331    -5339    -5348    -5350    -5348    -5351 
   -5358    -5354    -5343    -5343    -5347    -5346    -5344    -5346 
   -5348    -5352    -5360    -5366    -5359    -5343    -5333    -5331 
   -5333    -5341    -5347    -5350    -5359    -5364    -5358    -5350 
   -5350    -5348    -5344    -5339    -5337    -5340    -5344    -5354 
   -5359    -5354    -5347    -5344    -5344    -5346    -5346    -5343 
   -5347    -5356    -5358    -5348    -5339    -5336    -5346    -5348 
   -5340    -5337    -5344    -5352    -5358    -5359    -5356    -5351 
   -5343    -5339    -5341    -5343    -5343    -5346    -5350    -5354 
   -5355    -5351    -5348    -5351    -5348    -5343    -5339    -5340 
   -5341    -5341    -5350    -5360    -5363    -5354    -5340    -5339 
   -5348    -5354    -5344    -5337    -5344    -5355    -5359    -5350 
   -5339    -5346    -5352    -5341    -5335    -5341    -5354    -5370 
   -5374    -5359    -5339    -5329    -5335    -5343    -5339    -5340 
   -5356    -5364    -5359    -5351    -5346    -5344    -5344    -5336 
   -5331    -5343    -5362    -5366    -5364    -5360    -5352    -5336 
   -5321    -5331    -5360    -5368    -5347    -5336    -5348    -5360 
   -5360    -5358    -5350    -5337    -5329    -5332    -5351    -5370 
   -5362    -5343    -5341    -5347    -5341    -5333    -5344    -5364 
   -5363    -5340    -5329    -5344    -5355    -5359    -5363    -5354 
   -5335    -5328    -5339    -5352    -5359    -5352    -5344    -5341 
   -5343    -5348    -5360    -5358    -5343    -5343    -5354    -5352 
   -5351    -5354    -5351    -5348    -5343    -5336    -5341    -5347 
   -5351    -5358    -5352    -5344    -5354    -5356    -5344    -5335 
   -5331    -5337    -5352    -5356    -5351    -5344    -5344    -5356 
   -5364    -5351    -5337    -5341    -5348    -5355    -5355    -5341 
   -5335    -5348    -5359    -5352    -5339    -5337    -5351    -5360 
   -5355    -5344    -5339    -5346    -5360    -5363    -5344    -5332 
   -5340    -5346    -5347    -5351    -5351    -5347    -5347    -5351 
   -5351    -5341    -5341    -5356    -5362    -5350    -5340    -5340 
   -5344    -5350    -5348    -5350    -5352    -5350    -5347    -5346 
   -5348    -5352    -5350    -5343    -5348    -5355    -5348    -5336 
   -5339    -5352    -5358    -5358    -5356    -5350    -5341    -5340 
   -5346    -5352    -5356    -5352    -5341    -5341    -5344    -5346 
   -5348    -5348    -5355    -5360    -5350    -5337    -5336    -5343 
   -5356    -5364    -5355    -5341    -5339    -5347    -5354    -5352 
   -5350    -5354    -5352    -5343    -5336    -5340    -5354    -5362 
   -5354    -5347    -5344    -5340    -5344    -5350    -5354    -5356 
   -5348    -5339    -5347    -5362    -5356    -5340    -5340    -5355 
   -5359    -5336    -5325    -5354    -5375    -5358    -5327    -5323 
   -5352    -5375    -5363    -5344    -5340    -5344    -5348    -5346 
   -5335    -5337    -5356    -5358    -5351    -5351    -5341    -5332 
   -5346    -5367    -5367    -5340    -5320    -5341    -5378    -5382 
   -5368    -5359    -5367    -5391    -5401    -5348    -5242    -5186 
   -5287    -5445    -5486    -5445    -5418    -5317    -5132    -5084 
   -5317    -5753    -6087    -5841    -5085    -4800    -5325    -5424 
   -4464    -3959    -5105    -6401    -5714    -3661    -2899    -4549 
   -6725    -6781    -4538    -3069    -5193    -8563    -8064    -3823 
   -1167    -3312    -7893    -9385    -5584    -1491    -2664    -7466 
   -9778    -6899    -3483    -5134    -9587   -10659    -6115      908 
    2940    -4144   -12636   -11533    -2978      615    -4824   -11156 
  -10885    -5034    -1058    -4712   -11416   -11144    -4491     -772 
   -1327    -1934    -3119    -6354    -8962    -7252    -2685       66 
   -1308    -7366   -12406    -6986     3763     4471    -5395   -12615 
  -10245    -2578     1428    -2790   -10029   -12488    -6678     3238 
    4143    -6454   -11993    -7689    -5621    -5084      319     1529 
   -7897   -16610   -14164    -6535    -3788    -4498    -5865   -10635 
  -12911    -5412     1749    -3654   -14575   -17003    -9049     3040 
    9738     1047   -16474   -22563   -11148     1669     -876   -11790 
  -11110      -32     4476      959    -2340    -4938    -6797    -6795 
   -7452    -7913    -2887     5468     6886     -704    -8164    -5956 
    5760    11028     -535   -14496   -15129    -4793     4158     2362 
   -6598   -11364    -6180     3204     4194    -7742   -20699   -20551 
   -9769     -799      579    -4608   -13227   -18917   -14420    -3136 
     874    -6685   -14484   -14307    -9698    -4949    -2367    -6760 
  -16127   -19179   -12847    -7300    -7992    -9688    -8950    -5016 
    2164     8214    11057    10424     1784   -11551   -15079    -4513 
    5876     3535    -5427    -5911     4232     9852      685   -11403 
   -9628     2254     6492    -1078    -5725     -172     3828    -1638 
  -10588   -15067   -10620    -2365    -1875   -10538   -18160   -15295 
   -5269    -1228    -7431   -15442   -18288   -15959    -9753    -4359 
   -8198   -17396   -16640    -5463      715    -4484   -13281   -16734 
  -12492    -3245     3503      402    -5374    -4750    -4110    -6750 
   -7034    -3611     1532     4437     2755      156      832     5262 
    7244      614    -8203    -9306    -3357      407    -3809    -9795 
  -10709    -8303    -3690     3966     8881     3672    -7109   -12549 
  -10747    -5826    -2007    -5529   -15398   -19681   -14531    -8903 
   -7917    -9562   -11136   -10118    -3931     5309     8488     1155 
  -10095   -17328   -14856    -2751     4330    -5904   -21855   -23996 
   -8587     8194     6883    -8382   -16056    -7965     4915     9860 
    4684    -6496   -16503   -14786     -977    10521     7897    -5017 
  -12746    -7599    -1287    -5135   -14291   -20578   -19076    -9321 
    -341     1601      -25    -1881    -3372    -4725    -4210     1277 
    8410     7592    -4638   -16260   -13042     -712     3759    -2770 
   -9976    -9594    -3250      853    -2247   -10295   -15488   -13027 
   -8986    -7757    -5549    -2212     -433     -540    -2685    -6685 
  -11556   -14955   -14627   -10832    -5967    -4256    -7028   -10106 
  -10080    -8456    -9809   -13656   -12754    -5128     2559     3888 
    -494    -4051    -2813      511      444    -4723    -9289    -7136 
     375     7175     7395      -27    -7650    -6936     -874      685 
   -3654    -7954    -7875    -3087     2243     2219    -4997   -12588 
  -10602    -1590     1170    -5289   -13338   -18967   -18952   -11578 
   -3611    -2781    -8626   -12403    -8753    -3825    -4041    -8333 
  -12664   -13485    -9377    -4148    -3202    -3245      888     3291 
    -866    -4652    -4494    -5575    -7506    -5252      402     4974 
    4745    -1412   -10188   -15338   -12523    -3997     2651     2261 
   -1598    -3424    -5544    -9409    -9886    -6797    -4174    -3642 
   -7739   -13501   -11917    -5995    -6035    -9948   -11615   -11371 
   -9167    -5933    -5128    -6265    -5626    -2535     -515    -1973 
   -6265   -10133    -8301     -907     5756     6579      546    -6389 
   -6615    -1827     1005    -1441    -7533   -10450    -5308      471 
   -2065    -7736    -8168    -4823    -1908    -1235    -4129    -8619 
   -9424    -6833    -7368   -10721   -11754   -12750   -15622   -15687 
  -10814    -4484    -2045    -4124    -5850    -6151    -6921    -6839 
   -5637    -5516    -5275    -2151      336    -2731    -6588    -5260 
   -3088    -4253    -4942    -1892     2143     2317    -1158    -3450 
   -2998    -1844    -1300    -1912    -2733    -1306     1173     -118 
   -5711   -10701   -11792   -11610   -12908   -10612    -2587     1522 
   -2621    -8857   -14264   -17204   -13872    -6258      -14     2641 
     480    -6615   -12081   -10284    -7061    -9304   -13173   -11966 
   -7414    -6438    -9201    -9024    -4041     1244     3982     2613 
   -4054    -9532    -6214      133      922    -1061    -2027    -4056 
   -7442    -9381    -8743    -7306    -5412    -2786    -4336   -10559 
  -11226    -3265     3042     1215    -4444    -8613   -10782    -9863 
   -5202    -2420    -3754    -5602    -7939    -8324    -4294    -2490 
   -5551    -7337    -3473     5244    10791     5229    -6347   -12590 
   -8191     3299    10670     6565    -4634   -12877   -11178    -5487 
   -8016   -16987   -19656   -11954    -3596    -4059    -9622   -11993 
  -10648    -7722    -5250    -8217   -15757   -18947   -14184    -5888 
    -349    -1730    -6303    -8533    -9767   -10242    -6913    -1545 
     535    -2077    -4486    -3894    -5057    -8303    -6277      -31 
    2983     1918    -2621    -7651    -6852    -3692    -3723    -2675 
    1773     5537     6079     2249    -4880    -8644    -5275      203 
    1447    -3169    -9378   -11291    -8221    -2123     5796     9678 
    3545    -7199   -13693   -14384   -11346    -8124    -9092   -14096 
  -17298   -15747   -12935   -12330   -15861   -19688   -15052    -4378 
    1852     -257    -8610   -16623   -17440   -11291    -5100    -4918 
   -7612    -6601     -164     7674     7858      660    -1676     3716 
    6417    -1094   -11028   -10134    -1135     3061     -139    -2713 
     739     6663     7134     -517    -8716    -8063      486     5563 
   -1154   -12270   -13849    -6940    -3793    -6936    -9869    -8687 
   -4521    -1557    -3241   -11129   -20173   -18445    -7651    -4908 
  -11707   -11762    -2438     2180    -2933    -9869   -14404   -15142 
  -10378    -6930    -8918   -10056    -9410    -6855      977     7057 
    3535    -5362    -9255    -2884     5103     2955    -7196   -13077 
   -8266      577     3026    -1142    -3127     -356     2413     2767 
   -1740   -11831   -18414   -12074     1021     6691     1283    -7611 
  -10489    -6238    -4102    -7514   -10137   -10837   -11796    -9779 
   -6197    -8553   -12654    -8403     -924       24    -4961   -12687 
  -18810   -16189    -5057     2025    -4507   -14908   -14500    -5387 
      78    -3323    -8667    -6912      749     6696     6124    -2342 
  -11915   -11161    -2776      637    -4311   -10744   -10133    -2894 
    1668       93    -1977     -969     -225    -2022    -2083      549 
     699    -1474    -2376    -1116     1883     2390    -2596    -7435 
   -6181    -1007     1186    -3053    -9081   -11797   -12360   -12143 
  -12812   -16217   -16821   -10628    -4257    -3642    -6363    -7473 
   -6558    -7468   -12555   -18748   -19066   -13019    -8082    -6555 
   -6824    -7396    -3676     3207     6782     6808     6259     6812 
    9444    11641     9810     4548     -611    -3217    -5285    -9929 
  -14096   -12114    -2995     8498    14385    11800     6606     5078 
    7834     9691     1425   -18593   -36116   -41157   -41184   -40169 
  -32022   -16471     -365    11418    18956    24015    25594    19715 
    6453    -7688   -18183   -24921   -28888   -32362   -36764   -38352 
  -31179   -15885     1198    16559    29008    36219    35498    23398 
     220   -24437   -38434   -37004   -25293   -11857      973    13401 
   19326    14928    10801    15526    17828     9474       79    -3905 
   -5333    -6901    -8621    -7894     -692    16461    38522    53789 
   58503    51756    29776    -3341   -38576   -68650   -87631   -94741 
  -90205   -73647   -51360   -30993   -18370   -16424   -15133    -4803 
    5063      440   -21987   -54977   -82683   -96334  -102668  -106084 
 -101349   -83187   -48358     1094    49881    78698    82360    66469 
   36289    -1495   -38553   -65578   -69075   -39640    13433    63884 
   89935    91230    82881    78374    76577    66013    41116     5796 
  -27432   -38477   -18153    18142    46774    60399    68461    78125 
   85197    82125    65979    37741     4063   -20594   -27203   -20794 
   -9239      792     1298    -7442   -17575   -28171   -42028   -58251 
  -76230   -93185  -101969   -98451   -87534   -79046   -77376   -77800 
  -73340   -63873   -54661   -49342   -48539   -47881   -42363   -35891 
  -34337   -35626   -34927   -29147   -16603      697    18203    31082 
   32948    22380     8521     2259     7296    17525    24021    28335 
   38334    53550    65881    71328    73692    76296    77946    76800 
   71482    63521    57674    55765    57399    62087    64118    55660 
   38487    22578    12220     3716    -5875   -18835   -36108   -51418 
  -59794   -63657   -63555   -59850   -57026   -56322   -54731   -50515 
  -45794   -44714   -49204   -57014   -63992   -69792   -76725   -82888 
  -84554   -80416   -70380   -57728   -48988   -47248   -48739   -46380 
  -36316   -21737    -9915    -2816     5832    19638    34269    44598 
   49072    50310    54016    61500    66680    64654    56573    47387 
   42531    41346    36930    27750    20646    20116    24030    28719 
   33019    37011    39510    41037    42342    39040    28000    13158 
    -627   -11369   -18207   -22512   -27827   -35671   -44950   -53871 
  -59857   -63216   -68654   -76362   -80362   -78754   -73192   -62959 
  -48988   -34179   -20158    -9081    -2413    -1383    -6961   -15282 
  -22123   -26311   -25786   -20339   -12768    -4737     1809     3180 
   -1297    -7825   -12675   -13294    -7550     4899    21339    35527 
   42738    45459    48267    50283    48703    44919    39764    31164 
   21139    13252     8021     7430    11067    12648    10066     5748 
   -1161   -10242   -17240   -19388   -15851    -7419     2438     8266 
    5977    -3272   -15766   -28726   -39683   -46356   -47282   -42893 
  -34781   -25415   -19596   -20501   -26293   -33801   -40350   -42863 
  -38935   -27797   -12214      876     6072     4234     -873    -6093 
   -8619    -8409    -7998    -8757   -10531   -10790    -7723    -4148 
    -764     5768    14158    18827    17564    11766     4101    -1367 
   -1399     3619     9614    12077    10577    10301    16776    26775 
   31272    27731    19776    10845     4286     1513      371     -440 
     658     3191     2787    -2570   -10119   -16154   -16852   -10679 
   -3627    -4617   -14477   -25201   -30291   -30804   -30649   -31222 
  -30474   -26932   -24926   -27990   -31162   -29412   -26357   -29011 
  -37365   -42797   -39151   -29361   -19595   -13405    -9455    -5358 
   -3132    -4460    -6224    -5235    -2864    -2454    -3199    -1503 
    4125    12997    22617    30280    33675    31081    25493    21281 
   19089    20405    25666    28921    27157    26497    29057    27056 
   17406     6697    -1254    -7098   -10149   -11817   -13876   -14025 
  -10230    -3966    -1588    -7989   -16989   -20378   -18814   -17732 
  -21562   -29165   -34393   -33615   -29528   -27990   -30632   -33362 
  -32875   -29469   -26870   -28969   -32733   -32687   -29737   -27118 
  -25705   -23708   -17863    -9215    -2978     -784      514     3304 
    8418    15661    20784    20225    17234    15889    16276    17180 
   17392    17525    19390    21760    22682    22037    20362    19522 
   20413    21401    20914    17824    13342    10592     8988     6898 
    4928     2203    -1590    -5697   -11896   -19514   -23847   -24846 
  -27434   -33235   -38811   -39700   -34325   -26932   -25057   -30550 
  -38103   -42461   -42412   -40335   -37631   -33922   -30052   -25575 
  -19091   -11835    -6782    -5941   -10027   -17275   -22257   -22775 
  -19600   -10189     3137    12926    18385    22449    25263    26433 
   26380    24775    20321    14404    10690     9543     9760    12163 
   16803    22709    28811    32074    30740    26842    21273    12580 
    1401    -8491   -14189   -15580   -14008   -13359   -16555   -19421 
  -18018   -15843   -16711   -20779   -26512   -30348   -29963   -27893 
  -27450   -27037   -23014   -17010   -14565   -16825   -20208   -23637 
  -27444   -29655   -30063   -29435   -25928   -19722   -14733   -13088 
  -13757   -14327   -11128    -2859     5832    11029    15040    19400 
   22102    21666    18468    15120    12425     9420     8550    10555 
   11778    12259    15284    19326    20821    21122    22329    22401 
   19639    16075    15186    16941    15654     8160    -1629   -10173 
  -15763   -16846   -15836   -16800   -19878   -22211   -22288   -22103 
  -23383   -25502   -28668   -31761   -31700   -29197   -26531   -23635 
  -21095   -19403   -17675   -17091   -19678   -24295   -27573   -27529 
  -25762   -24621   -23314   -19714   -13918    -8881    -6490    -4870 
   -2424      -39     2197     6547    13247    18119    19371    19214 
   18297    17930    19899    21713    21475    20479    18345    14071 
    8775     4411     3022     5316     8618     9066     5994     2740 
    2088     1637    -1381    -4193    -4758    -5991    -9381   -13884 
  -20239   -27992   -33183   -34550   -33841   -31429   -28779   -27332 
  -25735   -23180   -20522   -19066   -18674   -17429   -14307   -10210 
   -8356   -10739   -14396   -16474   -16542   -14424   -11333    -8008 
   -4698    -2949    -2035    -1059    -1054     -827      553     1972 
    3975     7435    10161     9971     9671    12980    18593    22650 
   21532    13882     4036    -2006    -3801    -4565    -5805    -6933 
   -5871     -784     6061    10357    10767     8336     4549     1945 
