Origin Time       2024/04/02 04:24:00
Lat.              40.133
Long.             141.712
Depth. (km)       71
Mag.              6.0
Station Code      IWT016
Station Lat.      39.6000
Station Long.     141.6790
Station Height(m) 198
Record Time       2024/04/02 04:24:51
Sampling Freq(Hz) 100Hz
Duration Time(s)  119
Dir.              U-D
Scale Factor      7845(gal)/8223790
Max. Acc. (gal)   44.266
Last Correction   2024/04/02 04:24:50
Memo.             
[...]
  -44344   -44348   -44332   -44329   -44347   -44340   -44327   -44342 
  -44343   -44331   -44338   -44342   -44338   -44342   -44340   -44336 
  -44340   -44340   -44339   -44338   -44339   -44340   -44336   -44334 
  -44340   -44339   -44334   -44340   -44342   -44332   -44339   -44344 
  -44334   -44334   -44339   -44340   -44340   -44340   -44340   -44339 
  -44335   -44334   -44338   -44339   -44339   -44342   -44339   -44338 
  -44339   -44336   -44339   -44343   -44332   -44339   -44351   -44334 
  -44335   -44354   -44335   -44325   -44342   -44340   -44338   -44343 
  -44338   -44338   -44339   -44332   -44340   -44347   -44331   -44331 
  -44343   -44332   -44338   -44347   -44332   -44334   -44340   -44331 
  -44339   -44346   -44335   -44339   -44340   -44335   -44343   -44343 
  -44335   -44342   -44342   -44338   -44342   -44339   -44338   -44343 
  -44338   -44335   -44343   -44342   -44338   -44340   -44339   -44335 
  -44340   -44336   -44336   -44347   -44336   -44331   -44344   -44336 
  -44336   -44347   -44336   -44338   -44344   -44338   -44343   -44339 
  -44331   -44340   -44343   -44340   -44343   -44339   -44339   -44342 
  -44332   -44336   -44348   -44334   -44329   -44348   -44343   -44331 
  -44340   -44342   -44334   -44339   -44342   -44338   -44344   -44340 
  -44334   -44350   -44339   -44327   -44351   -44340   -44325   -44348 
  -44342   -44331   -44343   -44339   -44338   -44332   -44335   -44355 
  -44339   -44328   -44352   -44340   -44325   -44338   -44343   -44342 
  -44332   -44334   -44348   -44347   -44335   -44331   -44344   -44339 
  -44327   -44344   -44344   -44334   -44344   -44338   -44331   -44346 
  -44342   -44328   -44338   -44340   -44338   -44344   -44336   -44332 
  -44340   -44335   -44334   -44339   -44343   -44342   -44331   -44336 
  -44347   -44338   -44329   -44336   -44339   -44331   -44340   -44350 
  -44336   -44336   -44340   -44328   -44342   -44344   -44329   -44343 
  -44343   -44332   -44347   -44344   -44324   -44332   -44347   -44342 
  -44339   -44342   -44339   -44338   -44338   -44339   -44336   -44336 
  -44351   -44343   -44327   -44339   -44346   -44332   -44335   -44350 
  -44339   -44329   -44343   -44342   -44336   -44340   -44336   -44335 
  -44340   -44344   -44342   -44335   -44332   -44336   -44343   -44338 
  -44336   -44343   -44338   -44334   -44336   -44336   -44340   -44339 
  -44335   -44342   -44340   -44336   -44343   -44338   -44335   -44344 
  -44334   -44329   -44351   -44342   -44329   -44347   -44339   -44329 
  -44347   -44340   -44331   -44343   -44342   -44336   -44340   -44334 
  -44334   -44343   -44339   -44338   -44343   -44338   -44336   -44340 
  -44339   -44339   -44332   -44338   -44348   -44336   -44334   -44344 
  -44329   -44328   -44348   -44338   -44328   -44346   -44339   -44331 
  -44339   -44338   -44342   -44342   -44325   -44334   -44348   -44335 
  -44334   -44347   -44336   -44332   -44343   -44334   -44338   -44343 
  -44321   -44317   -44321   -44297   -44278   -44273   -44269   -44302 
  -44355   -44382   -44419   -44459   -44462   -44454   -44436   -44402 
  -44412   -44452   -44452   -44409   -44335   -44247   -44188   -44201 
  -44315   -44502   -44722   -44980   -45353   -45823   -45991   -45468 
  -44629   -44271   -44365   -44240   -44135   -44446   -44425   -44281 
  -44944   -45056   -43879   -43555   -44945   -47071   -48431   -46931 
  -43866   -42946   -43646   -43560   -42962   -42059   -40810   -41158 
  -44066   -47506   -48949   -47974   -46454   -45048   -42099   -39984 
  -43312   -46732   -43455   -39923   -40614   -41107   -42846   -47779 
  -49732   -46228   -43231   -42881   -41902   -43687   -50334   -51063 
  -42356   -37268   -39989   -40755   -41038   -48956   -53774   -47715 
  -42911   -40406   -40371   -49758   -50866   -39341   -35433   -33848 
  -35083   -46861   -48872   -44139   -49410   -48563   -38325   -34859 
  -37149   -40717   -43792   -44014   -48994   -56482   -49817   -38461 
  -43877   -51375   -42471   -33902   -37809   -43444   -47983   -50922 
  -47015   -45130   -47503   -41237   -33562   -38882   -46851   -43348 
  -39347   -49459   -59373   -55715   -46047   -33104   -28512   -39842 
  -49176   -62413   -79085   -64693   -35792   -29046   -32732   -35595 
  -38784   -44498   -55333   -52461   -33346   -29774   -46830   -59660 
  -54967   -38685   -32632   -45161   -53380   -45986   -37932   -40042 
  -50475   -56052   -48068   -40940   -44647   -49412   -49212   -44899 
  -39158   -32574   -26379   -35083   -53253   -52203   -43405   -46116 
  -39382   -26666   -33482   -50773   -63636   -65535   -49708   -33215 
  -32097   -29560   -26049   -42930   -60103   -55795   -50815   -49920 
  -40597   -35303   -40081   -44928   -52806   -56474   -47561   -44892 
  -46484   -39209   -39985   -47661   -41428   -30149   -34441   -50670 
  -60708   -60166   -55622   -47868   -36537   -26813   -25756   -35846 
  -47472   -48072   -46777   -55568   -57721   -47402   -44442   -44838 
  -36763   -32023   -35338   -41782   -50518   -52821   -45573   -40473 
  -42531   -45778   -43329   -39542   -42487   -38916   -28209   -39548 
  -64134   -64885   -49331   -45180   -47726   -38180   -23835   -28030 
  -46327   -53476   -47081   -48087   -58310   -52628   -33566   -28221 
  -32346   -36316   -47958   -59196   -59216   -50872   -39422   -39748 
  -49727   -38423   -17653   -29295   -54749   -60534   -59732   -56047 
  -42221   -37133   -44454   -43235   -36153   -40440   -49049   -48751 
  -44336   -41747   -44208   -54822   -59310   -42475   -27882   -38331 
  -47999   -45875   -48918   -47615   -41295   -41304   -37285   -37631 
  -53785   -59746   -47147   -39511   -37457   -31785   -34501   -48718 
  -59402   -61246   -54216   -34911   -19670   -31206   -52272   -56500 
  -56192   -57547   -43212   -26727   -32341   -42739   -41432   -43078 
  -49080   -48829   -46446   -43731   -40859   -42843   -44547   -41763 
  -40697   -43551   -46249   -47131   -47506   -46962   -45166   -41237 
  -35248   -36597   -46726   -51325   -50060   -47628   -40575   -42819 
  -53038   -43158   -29361   -41440   -54502   -49963   -48794   -53056 
  -45361   -32514   -33737   -46313   -54730   -54766   -49688   -40872 
  -33069   -32341   -39411   -53319   -61152   -49933   -39150   -41260 
  -38546   -33913   -40185   -48031   -48122   -39734   -34403   -47034 
  -60268   -54880   -45790   -40188   -35109   -36695   -41868   -49540 
  -56280   -49925   -42730   -48849   -50858   -38632   -31765   -39009 
  -44701   -45939   -50094   -49765   -44251   -42156   -38230   -34020 
  -39422   -45512   -45326   -46489   -48845   -48483   -48377   -48944 
  -46975   -43291   -40022   -37577   -37759   -42607   -50176   -54375 
  -50669   -41832   -37241   -41855   -46203   -42178   -40221   -47194 
  -50452   -45457   -40594   -36622   -37640   -45531   -45786   -41355 
  -49836   -58634   -50291   -41594   -45354   -45979   -37671   -34765 
  -41488   -46535   -45864   -47973   -52771   -48259   -37326   -38036 
  -48174   -48512   -42685   -46147   -48307   -40626   -41179   -49526 
  -48501   -43933   -42974   -39529   -32670   -31672   -45752   -60223 
  -54476   -40914   -38186   -41936   -43240   -40597   -37652   -39761 
  -43735   -44020   -48016   -55398   -52011   -42454   -38961   -39191 
  -42093   -45465   -43742   -42739   -44671   -42309   -39660   -42618 
  -45850   -44520   -38761   -37906   -49931   -57883   -50645   -47123 
  -50832   -45415   -34503   -31175   -34921   -39762   -48903   -62371 
  -63387   -50633   -42078   -39993   -39127   -39772   -39546   -38356 
  -43286   -50566   -48836   -50342   -59475   -53508   -38853   -36080 
  -38853   -41207   -43112   -43546   -45972   -47532   -44478   -40998 
  -41401   -44959   -46557   -46685   -48702   -45148   -36822   -38948 
  -42506   -35127   -39846   -57518   -57642   -45114   -39626   -38218 
  -35374   -34672   -44825   -61133   -62270   -43603   -24389   -23529 
  -38318   -46507   -47374   -59316   -65122   -44077   -26644   -37292 
  -53384   -56334   -53762   -49665   -38739   -27596   -27884   -35672 
  -45357   -54232   -52911   -44339   -40194   -39171   -39136   -43953 
  -52632   -58604   -53967   -40001   -31423   -35359   -43102   -46371 
  -42938   -41296   -50876   -58332   -52301   -46602   -48401   -45466 
  -31891   -25944   -40255   -50434   -46084   -49891   -57366   -49950 
  -38296   -38985   -47015   -46661   -42746   -48564   -51186   -41719 
  -36876   -38549   -36771   -42606   -55404   -51540   -38263   -39569 
  -47092   -47252   -46206   -46391   -42064   -33300   -28256   -34144 
  -46583   -55732   -56000   -49720   -46170   -46047   -43162   -39780 
  -41944   -50102   -53195   -43904   -35845   -37640   -42066   -46267 
  -49023   -47501   -43618   -41015   -39002   -36448   -42400   -54599 
  -53049   -43864   -42919   -41632   -40963   -45747   -44694   -41242 
  -42091   -41184   -45515   -55190   -50044   -37308   -39615   -45744 
  -44582   -47853   -50722   -44612   -41728   -42912   -39430   -38942 
  -44631   -46738   -44712   -47410   -50530   -41644   -34253   -42191 
  -45092   -38045   -42954   -53658   -50807   -44886   -47187   -46485 
  -40798   -39286   -40838   -44795   -49956   -45513   -36321   -39717 
  -49037   -50098   -48415   -49311   -46750   -38318   -34383   -42508 
  -48136   -43212   -42750   -44247   -40635   -48192   -60937   -57728 
  -46437   -36225   -28271   -32521   -45581   -51557   -51842   -52155 
  -43067   -32069   -37326   -44045   -39880   -41732   -52444   -52969 
  -40049   -37030   -48166   -49963   -46246   -50402   -48312   -38206 
  -35586   -41335   -47320   -46984   -45165   -49626   -47417   -36132 
  -40032   -54618   -53782   -46975   -47295   -41288   -34642   -41905 
  -48154   -45940   -48099   -50819   -44617   -36775   -36475   -43556 
  -49578   -48671   -45628   -41922   -38549   -41242   -44281   -43648 
  -43093   -39285   -38021   -42959   -41048   -40693   -52438   -54322 
  -45270   -45847   -44694   -35424   -37913   -49203   -54357   -56084 
  -54650   -45864   -34653   -26277   -23676   -32235   -49168   -59328 
  -56405   -53855   -54720   -44131   -32016   -35457   -39974   -40911 
  -46030   -46392   -46953   -52884   -47737   -39028   -43814   -47478 
  -41987   -40393   -44199   -47128   -47131   -46812   -50079   -50670 
  -45150   -38904   -31428   -32601   -50683   -60034   -49804   -44319 
  -42678   -33385   -30123   -35791   -44674   -57843   -62452   -53316 
  -45547   -43634   -38701   -28821   -29104   -42649   -45488   -38443 
  -44968   -59225   -63321   -55876   -41835   -26312   -21077   -33053 
  -46354   -50322   -56664   -62623   -53740   -40000   -37779   -39916 
  -37380   -37347   -42890   -49482   -55152   -54166   -44550   -38221 
  -42124   -45673   -41359   -39150   -43821   -44309   -40358   -41492 
  -44532   -46338   -48026   -41696   -31264   -34588   -45218   -47903 
  -50724   -51067   -41442   -39521   -41345   -36614   -47811   -61958 
  -48276   -35054   -46124   -57982   -57692   -50554   -38083   -27145 
  -29525   -44822   -56002   -54355   -51278   -45191   -29012   -23931 
  -36069   -43731   -50679   -60593   -55745   -46723   -50560   -50010 
  -37951   -31160   -32217   -38067   -50602   -60403   -60297   -54387 
  -47019   -38846   -26487   -22084   -36427   -47733   -50024   -56288 
  -54336   -42704   -39391   -42269   -39294   -35313   -43498   -54518 
  -51115   -42778   -42604   -47542   -49850   -44278   -39987   -43020 
  -39873   -34537   -41817   -48240   -44432   -43166   -45897   -46832 
  -43757   -36529   -38268   -49478   -49858   -46155   -51486   -51646 
  -48227   -47490   -36090   -29323   -45003   -53477   -40460   -34576 
  -45202   -51093   -45388   -47004   -57415   -52436   -38192   -41534 
  -53836   -53169   -41432   -33308   -35958   -40984   -41284   -42149 
  -45567   -46884   -44224   -41542   -41496   -39800   -40144   -47854 
  -49100   -39918   -39017   -48281   -52674   -48999   -43398   -40765 
  -40444   -36740   -33605   -42836   -57705   -59865   -50434   -44203 
  -43984   -42217   -40039   -40370   -39121   -38060   -39174   -42649 
  -47212   -44626   -41042   -43598   -42880   -40139   -38848   -41574 
  -53592   -57829   -51574   -55345   -54642   -36161   -25925   -31912 
  -39029   -49615   -61801   -56606   -40252   -34530   -32976   -30441 
  -39669   -51279   -47472   -37477   -37886   -41958   -36213   -33106 
  -43318   -53910   -61242   -65632   -62465   -58290   -51536   -37773 
  -29785   -31568   -36406   -45747   -58737   -66962   -62683   -50095 
  -40973   -30909   -18038   -20514   -33227   -37465   -43664   -56220 
  -61524   -60500   -58839   -58081   -53832   -38803   -30163   -46442 
  -68500   -73360   -63923   -52431   -46402   -41909   -32161   -24410 
  -30793   -45114   -50346   -50190   -55655   -55147   -39837   -20956 
  -12183   -19187   -29355   -31436   -38585   -52683   -56732   -56384 
  -65416   -65934   -37998    -9049   -15433   -36444   -38762   -39472 
  -51838   -51470   -38167   -34003   -31936   -18328    -6748   -17388 
  -45657   -68644   -76756   -74676   -66719   -60204   -58787   -56160 
  -51707   -50423   -45423   -30281   -19002   -22990   -34103   -48096 
  -63855   -67652   -55243   -40614   -31808   -28223   -29859   -37272 
  -50761   -62225   -60093   -50976   -52141   -60332   -57519   -48319 
  -47673   -47839   -44347   -48519   -58496   -61615   -54958   -53400 
  -65720   -66324   -40294   -13333     -596     2064    -6714   -23384 
  -40716   -56560   -66962   -64459   -48087   -30807   -28431   -44547 
  -62914   -58947   -41558   -47888   -72250   -75698   -59481   -41280 
  -20675   -12667   -25010   -34607   -38691   -48042   -45808   -27608 
  -22702   -39865   -56816   -58572   -47164   -35387   -33718   -40375 
  -51946   -60359   -57616   -51871   -43756   -28202   -23001   -33947 
  -42877   -52610   -68601   -69959   -48061   -20179    -4504   -12094 
  -36502   -53212   -53624   -56096   -62631   -52751   -35006   -33372 
  -39465   -42624   -52625   -62910   -55945   -43386   -46043   -52794 
  -46758   -36703   -32275   -34052   -43592   -54032   -55605   -50333 
  -45172   -42229   -40140   -37673   -34981   -37293   -46035   -44070 
  -24592   -15554   -32521   -54564   -66505   -69988   -66474   -62780 
  -63324   -55659   -34453   -18932   -22292   -36602   -54924   -68696 
  -63456   -46624   -37083   -35455   -42080   -56200   -56637   -36344 
  -23985   -38777   -59343   -61429   -52434   -44709   -35997   -25843 
  -22160   -33392   -52049   -57568   -49666   -45848   -45678   -38496 
  -30534   -32620   -42299   -50257   -51401   -48932   -45461   -40714 
  -41531   -47804   -46479   -38173   -36690   -44620   -49636   -44424 
  -37525   -35417   -36369   -39213   -48209   -63954   -64416   -42782 
  -29802   -31626   -33026   -44770   -67645   -73531   -55853   -39236 
  -35374   -33639   -30947   -35382   -45053   -51575   -53931   -52076 
  -48829   -48446   -43494   -36701   -43733   -54962   -52992   -45497 
  -42950   -44297   -45740   -45836   -44779   -41450   -43552   -53688 
  -53360   -40274   -30740   -27436   -32551   -46414   -54257   -52898 
  -52570   -51286   -43710   -32830   -24840   -28568   -42855   -52982 
  -52759   -47474   -42292   -39991   -39575   -41523   -47565   -51676 
  -49728   -46541   -43684   -41385   -43757   -46997   -45505   -45711 
  -46901   -39293   -34017   -43004   -51367   -50726   -48000   -43841 
  -41096   -40763   -35124   -27145   -27182   -35815   -43947   -43434 
  -42979   -50024   -49091   -37233   -32053   -37702   -50280   -64836 
  -69218   -59155   -44253   -33619   -28777   -31530   -42361   -50045 
  -46132   -42079   -46593   -47115   -42084   -47223   -54375   -48708 
  -41805   -40136   -37237   -39591   -51071   -58185   -53852   -48857 
  -50348   -46219   -30284   -26175   -44937   -58405   -56974   -58506 
  -56597   -43308   -35765   -38632   -40717   -39722   -40771   -45665 
  -47043   -43152   -43757   -47482   -45928   -42533   -42468   -43360 
  -45019   -48516   -46453   -39465   -39962   -41921   -35486   -35741 
  -48870   -55129   -48814   -43247   -40648   -40797   -47606   -51651 
  -48280   -44973   -41064   -38672   -39087   -35984   -37968   -47444 
  -50202   -49384   -49330   -45420   -44323   -45639   -43903   -44412 
  -46471   -45690   -39991   -31641   -35424   -50155   -54117   -49196 
  -51609   -54842   -47846   -37332   -32479   -36115   -45311   -50407 
  -48168   -44452   -44598   -49434   -50967   -47204   -47494   -48398 
  -41558   -35245   -40467   -50728   -50525   -42330   -37875   -35552 
  -38318   -51537   -59930   -52404   -42556   -42294   -45777   -45366 
  -44346   -45608   -42048   -32161   -25629   -27949   -35549   -42199 
  -49179   -55972   -51007   -39868   -37274   -36467   -36317   -44066 
  -48250   -45324   -48691   -54916   -50247   -36451   -29641   -41393 
  -57153   -55367   -45022   -42844   -43802   -43380   -45469   -47903 
  -48093   -45017   -36891   -32381   -38658   -44936   -46171   -46442 
  -41423   -37498   -45102   -52421   -50662   -46579   -44190   -46352 
  -48377   -41065   -35178   -40979   -48222   -51954   -54137   -53550 
  -50306   -43366   -38461   -41376   -44429   -46942   -52586   -52216 
  -45978   -44679   -44581   -40679   -39595   -40586   -41002   -45435 
  -47972   -45405   -48118   -51232   -47244   -45993   -44734   -36663 
  -34515   -40833   -44505   -45112   -45162   -44637   -45532   -46129 
  -41253   -34009   -35903   -45507   -49006   -46406   -46449   -45735 
  -39252   -36742   -44381   -50064   -48609   -46016   -40797   -34955 
  -36510   -44709   -52704   -54959   -51398   -46488   -44209   -43897 
  -41322   -39143   -39968   -39802   -41975   -44817   -39502   -37222 
  -45125   -45131   -36175   -36720   -44774   -47243   -44450   -43262 
  -47005   -51837   -49847   -43615   -42618   -44888   -46276   -49632 
  -51698   -47931   -43322   -42660   -43717   -45023   -48701   -50768 
  -46407   -44396   -48980   -47561   -39310   -35360   -37072   -45843 
  -55857   -52114   -41435   -37962   -38816   -40348   -44373   -49820 
  -48837   -41646   -41968   -44847   -38888   -38569   -45994   -45407 
  -43538   -44640   -40413   -41783   -50836   -48713   -40930   -42529 
  -44748   -41916   -42677   -49511   -52161   -44675   -39918   -41673 
  -39556   -40012   -46934   -50309   -50295   -47660   -41010   -37324 
  -38774   -41813   -45505   -48644   -48887   -45206   -42784   -46399 
  -49455   -46585   -41922   -38919   -39460   -42954   -45891   -50253 
  -54299   -48020   -38708   -42282   -47758   -42780   -39546   -42106 
  -42971   -42514   -42350   -45235   -50548   -49194   -41964   -40369 
  -45576   -49454   -49535   -48787   -49802   -50467   -45949   -41374 
  -44238   -48219   -46885   -46060   -47127   -41985   -35992   -38439 
  -39077   -36146   -42986   -54272   -56166   -50901   -46998   -43349 
  -38375   -39793   -45481   -45486   -43355   -43275   -41773   -40238 
  -39725   -36790   -35681   -42157   -48159   -46260   -44578   -47580 
  -44734   -37465   -41550   -51138   -51378   -48243   -47799   -46799 
  -43430   -36096   -32559   -40736   -46751   -42286   -39150   -38160 
  -36262   -39721   -45968   -48863   -48435   -46611   -46213   -45010 
