Origin Time       2024/04/02 04:24:00
Lat.              40.133
Long.             141.712
Depth. (km)       71
Mag.              6.0
Station Code      IWT018
Station Lat.      39.6954
Station Long.     141.1477
Station Height(m) 120
Record Time       2024/04/02 04:24:52
Sampling Freq(Hz) 100Hz
Duration Time(s)  81
Dir.              N-S
Scale Factor      7845(gal)/8223790
Max. Acc. (gal)   59.254
Last Correction   2024/04/02 04:24:52
Memo.             
[...]
   -9957    -9958    -9958    -9957    -9960    -9958    -9960    -9961 
   -9957    -9960    -9958    -9953    -9957    -9960    -9958    -9961 
   -9963    -9964    -9961    -9956    -9963    -9964    -9954    -9960 
   -9964    -9957    -9958    -9963    -9960    -9960    -9960    -9960 
   -9960    -9958    -9961    -9961    -9958    -9963    -9961    -9957 
   -9958    -9957    -9958    -9963    -9964    -9964    -9964    -9960 
   -9956    -9958    -9957    -9957    -9963    -9963    -9960    -9961 
   -9961    -9958    -9960    -9960    -9953    -9952    -9957    -9963 
   -9958    -9957    -9963    -9960    -9956    -9960    -9958    -9958 
   -9964    -9961    -9956    -9960    -9960    -9960    -9960    -9956 
   -9958    -9963    -9957    -9958    -9960    -9957    -9958    -9961 
   -9961    -9958    -9956    -9961    -9963    -9956    -9964    -9964 
   -9953    -9956    -9958    -9957    -9963    -9960    -9960    -9963 
   -9957    -9957    -9963    -9957    -9956    -9960    -9958    -9958 
   -9958    -9960    -9961    -9961    -9958    -9958    -9961    -9963 
   -9958    -9954    -9958    -9958    -9954    -9958    -9964    -9964 
   -9965    -9960    -9953    -9961    -9963    -9954    -9954    -9960 
   -9961    -9964    -9958    -9954    -9961    -9963    -9957    -9954 
   -9957    -9961    -9958    -9954    -9958    -9965    -9960    -9960 
   -9963    -9960    -9960    -9957    -9950    -9957    -9967    -9964 
   -9960    -9961    -9963    -9961    -9960    -9957    -9957    -9961 
   -9963    -9958    -9958    -9963    -9961    -9957    -9957    -9957 
   -9958    -9961    -9960    -9956    -9958    -9960    -9960    -9961 
   -9957    -9954    -9961    -9965    -9961    -9960    -9958    -9956 
   -9954    -9954    -9958    -9961    -9958    -9958    -9963    -9964 
   -9961    -9961    -9958    -9953    -9956    -9958    -9957    -9958 
   -9965    -9963    -9956    -9960    -9964    -9960    -9958    -9961 
   -9960    -9958    -9960    -9963    -9961    -9957    -9956    -9957 
   -9958    -9963    -9963    -9960    -9957    -9958    -9960    -9961 
   -9958    -9954    -9957    -9961    -9961    -9958    -9960    -9960 
   -9953    -9953    -9964    -9967    -9957    -9954    -9961    -9960 
   -9954    -9957    -9957    -9953    -9956    -9963    -9961    -9960 
   -9961    -9958    -9954    -9957    -9958    -9953    -9953    -9960 
   -9963    -9960    -9960    -9963    -9961    -9958    -9956    -9956 
   -9958    -9960    -9960    -9957    -9960    -9964    -9961    -9958 
   -9960    -9961    -9956    -9954    -9964    -9972    -9977    -9990 
  -10000   -10014   -10037   -10068   -10103   -10149   -10214   -10278 
  -10332   -10373   -10376   -10334   -10246   -10119    -9961    -9788 
   -9636    -9512    -9362    -9221    -9166    -9148    -9173    -9375 
   -9726   -10058   -10342   -10563   -10650   -10697   -10798   -10797 
  -10717   -10782   -10939   -10974   -10671    -9882    -8860    -8523 
   -9490   -10611   -10746   -10343    -9536    -8992   -10026   -11065 
  -10266    -9242    -9212    -9277    -9387    -9544    -9099    -9437 
  -11699   -13691   -13439   -10844    -6628    -3959    -6268   -12054 
  -16563   -17034   -13860    -9664    -7673    -8403    -9180    -8280 
   -7102    -7253    -8644   -10910   -13140   -14064   -13628   -10935 
   -5887    -2397    -2470    -5154   -11115   -18166   -19950   -14670 
   -7985    -5355    -7396   -10859    -9913    -4515    -1941    -4995 
  -11385   -17420   -19156   -16897   -11892    -5728    -2338    -1988 
   -3709    -8591   -13765   -13845    -9983    -9166   -11557   -10936 
   -8356    -8889    -9892    -6697    -4434    -9008   -15715   -20480 
  -21385   -13752    -3314     -491    -4549   -10281   -11966    -6833 
   -3231    -7919   -14658   -16873   -15138   -10875    -5074     -707 
    -985    -4183    -5293    -8077   -17608   -23607   -19624   -13379 
   -6867    -2203    -5374   -10941   -12980   -13725   -13770   -14092 
  -16426   -17848   -14254    -7777    -4390    -2517     -287    -3163 
   -7985    -7680    -7138   -11327   -16518   -17725   -14439    -9553 
   -4826    -3168    -6609   -10616   -13161   -16821   -19500   -18142 
  -12949    -5471    -1868    -6399   -10525    -7489    -4564    -6527 
  -10882   -16187   -18534   -14465    -5848     1904     2497    -3481 
  -10323   -14767   -16618   -17670   -16672   -12793    -9400    -5428 
   -2328    -5805   -10018   -10075   -11529   -14527   -17933   -21104 
  -17282    -8819    -4548    -3537    -4305    -7947   -11202   -10764 
   -6114     -734    -1791   -11242   -19342   -16684    -8313    -3141 
   -4201   -10817   -15619   -14916   -14206   -13298    -9147    -3817 
   -1769    -5868   -11322   -16426   -22572   -20474   -11005    -6579 
   -6648    -9232   -13232   -12097    -9074    -8707    -6289    -2689 
   -4037    -9919   -14154   -12491    -7913    -5201    -4499    -6826 
  -13402   -17138   -12455    -6261    -5795   -10702   -16468   -16756 
  -13227   -12371   -11263    -7047    -3015    -1688    -6007   -11786 
  -12961   -14481   -15669   -11673    -7920    -6832    -7538   -11657 
  -14218   -10403    -5329    -4973    -7071    -8317   -11064   -14056 
  -13234   -11591   -11570   -11372   -10966   -10017    -7946    -5485 
   -3890    -5256    -9562   -14847   -18193   -14953    -5355     2316 
   -1182   -13903   -20224   -14069    -7377    -7148   -11800   -17629 
  -16691    -9297    -5621    -8262   -11465    -8750      364     2845 
  -10129   -24802   -27203   -19809    -8905     -665      322    -2604 
   -3411    -1358    -2569   -11121   -20534   -23276   -18623   -10345 
   -5390    -7885   -13940   -15410    -9844    -4361    -4315    -7803 
  -11080   -11574   -12297   -16208   -16123    -6802     2918     1239 
  -10675   -19822   -17687    -6798     2614     -776   -13270   -20201 
  -17764   -12110   -10060   -12248    -9868    -3658    -5575   -11951 
  -11105    -5914    -2500    -3581   -11412   -19882   -23869   -22827 
  -14701    -7225    -6376    -6739    -7183    -6286    -4814    -8599 
  -10910    -6168    -3492    -7091   -11121   -10974    -8159    -5055 
   -2879    -6906   -18288   -26480   -22347   -10822    -2876    -1883 
   -6154   -12829   -15144   -10581    -6820    -8484   -11318   -13709 
  -14077   -10264    -9509    -9886    -3022    -1765   -11230   -15846 
  -14773   -12680    -8503    -8418   -10951    -9904   -10201   -12496 
  -12750   -11873    -8649    -3235    -1410    -5286    -9501    -9666 
   -8822   -10241   -11785   -11041    -8802    -9144   -13541   -17315 
  -18260   -16556   -10866    -5204    -3956    -3971    -5398   -10935 
  -14293   -10810    -7184   -11072   -18196   -17686   -10839    -5745 
   -3520    -4089    -6451    -8538   -10710   -11321   -11951   -15738 
  -16510   -10809    -6123    -6552    -7454    -6679    -6386    -5567 
   -6218   -11723   -16411   -16584   -14879   -11812    -9180    -7492 
   -3213     1181    -1397   -10273   -17189   -19341   -19503   -15052 
   -6642    -3356    -5252    -5298    -5238    -8490   -12576   -16723 
  -20116   -19121   -14755    -9828    -4712    -1792    -1996    -2328 
   -3325    -9116   -17274   -19032   -12765    -6088    -4191    -6539 
   -9564    -9354    -7624    -8357   -12703   -20159   -23707   -17421 
   -7646     -108     3758     -164    -9018   -15383   -18847   -19246 
  -17096   -17176   -15472    -6492     1117     1210    -2786    -8603 
  -13277   -15855   -16499   -13794   -10952    -8266    -3827    -1093 
     259      -20    -6637   -15410   -20000   -22275   -21709   -15238 
   -8469    -8380   -10782    -9738    -7666    -5854    -3889    -8009 
  -16321   -14146    -2708     1601    -4085   -11774   -15322   -12595 
  -10378   -14947   -19030   -13926    -4264      -70    -3331    -9288 
  -14138   -16212   -15242   -13363   -12286   -11172    -9274    -6268 
   -3375    -4287    -8571   -11180   -10323    -9193   -11458   -14080 
  -10497    -4834    -6801   -13440   -15223   -13101   -12614   -12540 
  -10863    -8353    -4696    -2061    -3771    -8006   -12591   -15917 
  -13977    -8996    -7111    -7388    -7757    -9836   -14019   -16865 
  -14303   -10530   -10378    -9261    -8591   -11118    -7879     -288 
     777    -4846   -14501   -23166   -22775   -15001    -6683    -2531 
   -4687    -8880    -9528    -8186    -9913   -13470   -13878   -12421 
  -11291    -9529    -9872   -12823   -12390    -6694     -992    -2068 
  -10767   -17641   -14030    -4457    -1435    -9292   -17818   -16150 
   -7584    -4531    -9147   -11379    -9090    -9184   -12753   -15765 
  -16691   -16345   -13644    -9256    -6824    -4344    -1626    -3724 
   -6583    -6561    -7534    -9421   -13203   -15981   -10412    -5089 
   -7885   -10643   -10609   -11283   -13513   -15592   -12491    -5692 
   -3558    -8600   -14210   -12754    -7136    -4471    -4980    -8302 
  -12518   -11699    -8557   -11616   -17941   -17938   -11890    -7144 
   -8179   -13275   -13926    -7458    -4132    -9009   -14476   -13278 
   -7410    -5756    -9000    -8784    -6511    -7784    -9702   -10096 
   -8919    -5697    -5383   -11314   -17725   -18323   -13423    -8294 
   -6578    -6428    -6293    -6957    -8730   -13420   -18782   -16966 
  -10064    -8702   -13763   -16956   -14500    -9869    -5136      -31 
    1669    -2635    -8591   -11889   -12248   -10713    -9418   -10851 
  -15352   -18711   -15010    -7400    -5263    -8542   -10365    -8306 
   -5694    -6990   -10062   -10712   -12258   -16124   -16691   -11996 
   -4278     1745     -286    -6974   -10426   -14145   -21996   -25184 
  -18497   -11183    -9082    -7608    -4536    -1659     -857    -2945 
   -6292   -10280   -14115   -14089   -11110    -9526    -8347    -5792 
   -3686    -3873    -7518   -13856   -18315   -18829   -19260   -20511 
  -19315   -14000    -4669     2494      893    -3535    -4495    -6450 
  -11236   -15103   -19051   -23422   -20938    -9711     1680     8486 
   10376     4108    -8012   -17925   -23446   -24734   -22254   -19885 
  -17590   -13309    -7009     -761    -1532    -6427    -6116    -7377 
  -13722   -16036   -13211    -5778     2150       48    -7184   -12058 
  -18036   -20738   -16667   -11739    -8122    -9670   -16985   -17988 
   -9733    -2465     -892    -4572   -10816   -13443    -9711    -5059 
   -6165    -9066    -6470    -4376   -11087   -19415   -18183   -10827 
   -6650    -5555    -6227   -10705   -15271   -14548    -9984    -6064 
   -4565    -5748    -9544   -13471   -14361   -12538   -10482    -8837 
   -6917    -4406    -4598   -11040   -15628   -12590   -12312   -16494 
  -15444    -9691    -4811    -3869    -6947   -10382   -12779   -13317 
   -9760    -6266    -8588   -12383   -11888    -8953    -4896    -1074 
   -3083   -11711   -20451   -22171   -13863    -2879    -1718   -10465 
  -17475   -16494   -11955    -8718    -6858    -7180    -7983    -6508 
   -7784   -12112   -12550   -10308    -8910    -8812   -12398   -16802 
  -14679    -8486    -4772    -2393    -2817    -8604   -12739   -13153 
  -13304   -10523    -7871    -9713   -11948   -13894   -13829    -9917 
   -9990   -13005   -10216    -6354    -6043    -5648    -6351    -7809 
   -7447    -9371   -12650   -12483   -12931   -13101    -5987       22 
   -4951   -12474   -17406   -22867   -22459   -14364    -8425    -6616 
   -5422    -5236    -3593      517      430    -5084   -10399   -15360 
  -18262   -14754   -10170    -8322    -5952    -6338   -10993   -13196 
  -12383   -12579   -13317   -13529   -11670    -7061    -4677    -6473 
   -8419    -9263    -8853    -7497    -8482   -11553   -13169   -12731 
  -12183   -13193   -15030   -16675   -15128    -6917     -139    -1775 
   -4707    -6129    -8235   -10150   -13005   -14559   -12191    -9367 
   -8282    -9055    -9325    -7477    -8918   -12544   -12001   -11584 
  -12592    -9433    -5166    -3977    -4877    -7519   -10750   -15045 
  -20538   -19890   -12185    -7569    -8102    -9259    -8148    -2154 
    3399     1224    -5093   -10093   -11878    -8752    -5251    -8148 
  -13319   -12501    -7623    -6370    -9903   -12675   -12156   -11905 
  -11838    -7784    -3554    -5617   -10525   -11794    -9620    -7746 
   -7366    -6578    -5224    -6627   -11754   -16006   -14666    -8985 
   -4779    -5073    -7357   -10189   -12642    -8976     -912     1633 
    -386    -2010    -4776    -8324   -12706   -15961   -12491    -9957 
  -16237   -19710   -14708   -10133    -7777    -8424   -16540   -24201 
  -21772   -15889   -13073    -8853    -3659    -3526    -7973   -12213 
  -11831    -6835    -4895    -9888   -16753   -22991   -26956   -24651 
  -18592   -14486   -14620   -16023   -12131    -5709    -6031   -12861 
  -19024   -19430   -17293   -20544   -25292   -20605    -7678     4818 
   13459    16957    12289      804   -11646   -22204   -29072   -26485 
  -13158    -1210    -2872   -13594   -21909   -24652   -23839   -22428 
  -24864   -33331   -42850   -43565   -31623   -13957     1794    14114 
   22462    26547    25861    16012      133    -8914    -7429    -2139 
    1297     1998     2868     3592      166    -7153   -15091   -21845 
  -27415   -36420   -52378   -63957   -54380   -25292     4480    19302 
   16988     3200   -13987   -25312   -28146   -22913    -3427    24340 
   37399    29735    16617     6652      394     -220      449    -5227 
  -16729   -28918   -34472   -26204    -5988    16164    24097     2231 
  -40624   -72075   -70609   -41188    -4135    19288    19275     2851 
  -12228   -14913   -12926   -17448   -23606   -22023   -14921    -7793 
   -1914     3612    11280    20302    25624    24331    13131   -10316 
  -33590   -38323   -21244     9039    35089    36296    14011   -11647 
  -29263   -39852   -48393   -54484   -50643   -40004   -34061   -31537 
  -24618   -10243    10110    22501    10675   -18311   -42163   -47023 
  -29212     4001    33970    48485    45234    21721   -10022   -20854 
   -2862    14546     4394   -22693   -37740   -31896   -21791   -24518 
  -36143   -36933   -21721   -11958   -20864   -33289   -32490   -16993 
    2050     8109      662    -5004    -6640   -12843   -18191   -10301 
    6647    15955    11057     -727   -10474   -13765   -10385     -175 
   13914    20667    12469    -7573   -30909   -42678   -32717   -12224 
    -702    -5702   -20213   -26971   -16553    -1449     2481    -4625 
  -13772   -19530   -19333   -10706     2828    12839    12209    -3734 
  -26950   -38365   -34433   -29016   -28248   -25887   -15969     -326 
   12156    14886     8384    -2602   -10606   -10578    -4851    -1814 
   -6592   -11021    -5692     5125    10268      162   -23406   -43474 
  -49134   -44158   -30299    -8986     8730    13282     5537    -6381 
  -12519   -11402    -8599    -5520    -3694    -5911    -8472    -7607 
   -4617     -263     4984     7149      391   -18058   -40941   -51435 
  -41860   -22569    -5424     4202     1988   -10062   -18311   -15395 
  -12248   -15541   -15044    -3917     9246    13551     8587      -22 
   -6455    -6975    -7736   -16232   -21887   -10147     8710    12769 
    2725    -5601    -9373   -14134   -20007   -25085   -28102   -26626 
  -20127   -14862   -16829   -21533   -22952   -23248   -25388   -26067 
  -19109    -5609     6606    14909    17281     8880    -3198    -7217 
   -6470    -8920   -12453   -13240   -14320   -17070   -15410    -8602 
   -3866    -1628     1760     2254    -4696   -12715   -14575   -13806 
  -11399    -6146    -9809   -26964   -38240   -29091   -13524   -11300 
  -18377   -20196   -12954     -969     6610     5906     5271     6960 
    4664      491    -1304    -2231    -3235    -6531   -14062   -20270 
  -17651    -7940    -1783    -5242   -15129   -25209   -27279   -19147 
   -9078    -2694     -715    -2548    -2759    -1885    -8367   -18165 
  -19834   -13408    -5069    -1001    -5179   -13209   -18339   -17589 
  -12143   -10905   -22036   -37979   -41625   -29049   -12082     1173 
    9231     9563     3658    -2536    -6080    -6660    -5408    -5393 
   -7607   -12075   -18509   -20162   -12897    -7222   -12407   -22218 
  -26870   -22306   -12548    -8055    -8356    -4423      349     1156 
      14    -7501   -21184   -30588   -30873   -21963    -7807      783 
   -2008   -11553   -18144   -15071    -6235     1831     7044     6623 
    2115        8      708       79    -3368    -7929   -12816   -17134 
  -16698   -13713   -13884   -12530    -7168    -5655   -10314   -14995 
  -16013   -14436   -10845    -7045    -7068    -9555   -10199    -8915 
   -7005    -6284   -12324   -25856   -33216   -24457    -9194     1379 
    5124     -101   -11754   -15909    -5379     5049     2481    -2049 
     982      955    -8039   -17685   -22060   -18565    -9763    -8410 
  -16978   -20885   -13787    -5104    -4681   -11407   -17766   -22933 
  -27162   -25431   -21082   -19487   -15295    -7364      729     9391 
   12108     2211   -12364   -18881   -13320    -4981    -4036    -6242 
   -4666     -502     1368    -5279   -17371   -21227   -14276    -8943 
  -13242   -21691   -24198   -17771    -6115     3615     3595    -2882 
   -6335    -9285   -14743   -14361    -8756    -8506   -11954   -12552 
  -12492   -13394   -13671   -13370   -12592   -11796   -12025   -13055 
  -12440    -8390    -4576    -5174    -8070    -9196    -9022   -11256 
  -14824   -13717    -8110    -4839    -6586    -9992   -11489   -10508 
   -7686    -3511     -780     -633       48     -440    -6604   -16530 
  -23357   -19516    -8615    -3794    -4087    -2201    -3136    -8837 
  -13657   -18235   -23615   -24636   -19543   -11032     -892     6833 
    7739     1950    -7997   -17212   -22081   -26280   -30808   -28348 
  -18605   -10743    -7920    -5621    -1549      697    -3420   -12587 
  -20227   -20461   -14239    -8002    -4434    -1285     4195    10698 
    9933    -1146   -12854   -18759   -21598   -20572   -11946     -413 
    2812    -5888   -17829   -25026   -27197   -24266   -17483   -12758 
  -10508    -6805    -3666    -2392    -2666    -7573   -12870   -11334 
   -7560    -8290   -12232   -15012   -14724   -15098   -16781   -12496 
   -3696      623      460    -1444    -4000    -3015      -64    -2575 
   -8662   -10874   -11561   -17394   -26276   -29335   -21971   -10412 
   -4564    -6546   -10939   -12924   -13401   -14706   -13441    -6802 
   -1985    -5691   -11581    -9936    -1971     2416    -1694    -8124 
   -9902    -8413    -8572   -10978   -10944    -6627    -4125    -7990 
  -15292   -20055   -16240    -6829    -5578   -16390   -26406   -24263 
  -13697    -9363   -16605   -22630   -17965    -9710    -5205    -2563 
      71     3406     7842     6839    -2760   -10068    -8731    -5930 
   -4729    -2502    -1976    -5998   -11245   -14685   -18100   -22266 
  -23423   -20872   -18307   -15778   -13520   -15905   -20491   -17971 
   -8301     -945      352      216     2517     4669     2390    -2755 
   -7669   -11553   -13378   -13803   -13624   -12648   -13269   -16780 
  -21200   -24823   -25693   -22466   -17421   -12563    -7064    -1745 
    2008     4194     2733    -3503   -11612   -18438   -20833   -16136 
   -7720    -4070    -9632   -19562   -24213   -20742   -17024   -18648 
  -20548   -15049    -2396     7038     6642     3527     1937    -4137 
