Origin Time       2024/04/02 04:24:00
Lat.              40.133
Long.             141.712
Depth. (km)       71
Mag.              6.0
Station Code      IWT018
Station Lat.      39.6954
Station Long.     141.1477
Station Height(m) 120
Record Time       2024/04/02 04:24:52
Sampling Freq(Hz) 100Hz
Duration Time(s)  81
Dir.              U-D
Scale Factor      7845(gal)/8223790
Max. Acc. (gal)   25.131
Last Correction   2024/04/02 04:24:52
Memo.             
[...]
   -4351    -4355    -4353    -4353    -4357    -4355    -4353    -4356 
   -4356    -4355    -4359    -4355    -4348    -4353    -4357    -4356 
   -4356    -4355    -4349    -4351    -4359    -4360    -4356    -4353 
   -4353    -4355    -4355    -4357    -4355    -4352    -4355    -4357 
   -4356    -4357    -4356    -4351    -4351    -4356    -4357    -4357 
   -4355    -4352    -4352    -4352    -4355    -4352    -4355    -4359 
   -4355    -4353    -4355    -4349    -4349    -4352    -4349    -4353 
   -4359    -4353    -4351    -4355    -4357    -4359    -4357    -4353 
   -4355    -4355    -4351    -4353    -4357    -4355    -4353    -4352 
   -4351    -4353    -4356    -4355    -4352    -4352    -4353    -4357 
   -4361    -4357    -4351    -4353    -4357    -4355    -4356    -4357 
   -4349    -4349    -4357    -4355    -4351    -4357    -4357    -4352 
   -4353    -4356    -4355    -4353    -4353    -4353    -4355    -4355 
   -4356    -4357    -4355    -4351    -4353    -4355    -4356    -4359 
   -4353    -4351    -4352    -4357    -4360    -4356    -4351    -4348 
   -4353    -4359    -4353    -4352    -4357    -4355    -4355    -4357 
   -4356    -4353    -4356    -4356    -4353    -4355    -4359    -4356 
   -4349    -4351    -4355    -4355    -4353    -4356    -4356    -4355 
   -4356    -4359    -4353    -4351    -4355    -4355    -4351    -4355 
   -4357    -4351    -4352    -4359    -4355    -4351    -4356    -4353 
   -4347    -4341    -4326    -4299    -4255    -4190    -4114    -4037 
   -3963    -3906    -3882    -3892    -3940    -4039    -4162    -4279 
   -4392    -4534    -4727    -4915    -5000    -5012    -5051    -4968 
   -4580    -4229    -4294    -4429    -4251    -4036    -3967    -3877 
   -3908    -4024    -3649    -3099    -3613    -5066    -5888    -5044 
   -2999    -1664    -2671    -4915    -5548    -4334    -3505    -3389 
   -4129    -6289    -6505    -3784    -3658    -6388    -6220    -3570 
   -1856     -407     -692    -5637   -11504   -12325    -6243     3570 
    7769      931    -7920    -8775    -5051    -3875    -5032    -5547 
   -4804    -3206    -1879    -2030    -1938     -577    -2177    -8442 
  -13392   -11458    -3990     1175    -1210    -4037    -1605    -1765 
   -7015    -8224    -4542    -4922   -10602   -13423    -9004     -622 
    4255     1545    -2875    -4799    -6332    -6002    -3838    -4772 
   -9848   -12298    -5382     2675      419    -3885    -1783    -4156 
  -14061   -13636    -1453    -1398   -13201    -9520     8052    10575 
   -3848   -11929   -10096    -8155    -5414    -5409   -10682    -8800 
    1753     7794     6385     1591    -4278    -8999   -14586   -20309 
  -16438    -3588     1861    -3956    -4390     5297     6685    -3974 
   -8216    -7696   -13254   -11098      328     1837    -2191      472 
    3438    -1026   -10521   -13419    -5225        9    -6127   -11304 
   -4463     1649    -5151    -4895    10075     8768   -12020   -19211 
   -9346    -4428    -5876    -1840     4857     5389     1849    -3343 
  -11348   -15453   -10477    -3504    -2555    -8128   -12015    -3568 
    9121     7168    -3742    -7477    -7973   -10902   -10875    -5921 
   -1239    -1302    -3072    -2698    -1594    -1516    -5269   -10908 
  -10146    -2795     3553     1984    -4534    -4376    -2093    -7219 
   -8505    -2362     -557    -1927    -2824    -5853    -8463   -10450 
  -12374    -7445     4309     9647      368   -11778   -11834    -5216 
   -4866    -8573    -4804     3964     3240    -3465    -6778   -13575 
  -17417    -5475     5937     1760    -1683     6886     6461   -10617 
  -16530    -7466    -3765    -2169     -796    -6102    -8877    -6054 
   -1753     5213     6836    -3048   -13984   -16360   -11959    -6195 
   -1980     -405    -3804   -10141    -9030      820     6131     1412 
   -6901   -11626    -8811    -5775    -8935    -7746      202     3693 
    3279     2181    -2436    -9852   -15610   -10405     1701     1707 
   -3334     1861     3400    -5768   -12118   -12868   -10925    -2986 
    4342     -988   -10494    -9579    -5200    -6779    -9414    -9790 
   -7927    -1140     7119     8492     1690    -7153   -12259   -11055 
   -4599     -252    -6412   -17689   -14565     5892    15600     1274 
  -11836    -9193    -3325     -198     -103    -6223   -13423   -13554 
   -6126     2570     4374       51     -673      531    -5445   -13294 
  -16506   -16098    -7474     6390     8954    -2536   -10419    -5751 
   -1946    -6893    -8452    -2841    -2227    -7970    -8959    -2323 
    4534     5462      129    -6438    -8006    -7898   -13351   -15504 
   -3561     7561    -1239   -16707   -12889     4148     8464    -2961 
  -11450    -5597     4710     4037    -5769   -13004   -10054     -936 
   -2697   -13528    -8661     6215     3187    -9510   -11433    -7835 
   -3620     -841    -4614    -7061    -5152    -5395    -4579     -271 
    2020    -3882   -12395    -7317     3312    -1320   -10466    -7832 
   -3052    -3303     1485     9022      958   -15373   -13011     1424 
      37   -12069   -10162      538      669    -2987      180     -950 
  -10642   -15079   -10377    -3829     -549    -4297    -6702    -1362 
   -2566    -5954     2743     3510    -9661   -13486    -9744    -6644 
     901     5228     1021    -3685    -6315    -6826    -3750     -822 
   -3103    -8746   -10397    -5972    -1597    -2575    -5621    -3824 
    -565    -3175    -6836    -6003    -3642    -2365    -6394   -13834 
   -9678     2785     2683    -4110    -2142    -1264    -9414   -14276 
   -7655     -176     -702    -3240    -4259    -3462     -535     -348 
   -2558    -5815   -10021    -7630    -1221    -1823    -5467    -4992 
   -5009    -6975    -4013       24    -2193    -2872    -1144    -6540 
  -13119   -11522    -5109      430     2052    -1189    -6420    -9983 
  -11477    -8685     -126     2097    -7450    -9317     2339     6550 
    -749    -5432    -7771    -9305    -3677     -189    -6505    -9965 
   -7107    -4459    -1343    -2043    -8885   -11221    -6937    -4703 
   -3352      626      101    -4958    -3109     3022     1850    -5165 
  -11846   -13009    -7510    -4303    -3924      -67     1536     -603 
   -1167    -3902    -8500    -9883    -9632    -5474     1009    -2049 
   -9389    -5980     1267      568    -3453    -4197    -4342    -8322 
  -11592    -9513    -5178     1093     3905    -4037   -10524    -6461 
   -2523    -3022    -3920    -5377    -5366    -3076    -3823    -6250 
   -3214      564    -4445    -8580      533     6346    -5162   -14187 
   -8730    -2916    -3142    -4563    -4572    -2980    -3524    -7042 
   -7387    -2910     1309      333    -6060    -9930    -6805    -4772 
   -6408    -3511     2238    -1254   -13008   -14569    -2212     2251 
   -5760    -6527     1212     2208    -5849   -11715    -6021     2006 
   -3711   -12055    -3724     5628    -3230   -13321    -7645     2107 
    1313    -5880    -7435    -4661    -6432    -8557    -3917     -372 
   -3981    -5817    -3291    -4708    -8240    -5871    -1829    -5251 
   -9188    -2257     5379     1543    -6963   -10956    -6600      649 
   -1011    -7045    -6579    -4226    -4710    -3843    -2435    -4374 
   -5040    -1798    -2232    -5902    -4970    -4857   -10033   -10102 
   -4033     -345      885     -832    -4245    -4180    -4970    -9205 
   -9975    -5637    -1156    -1440    -8222   -12911    -5661     4688 
    5593     1102    -3418    -8661   -11396    -7816    -2408    -2091 
   -2801     -950    -3284    -7306    -6789    -6107    -6777    -7708 
   -6027      826     1532    -5397    -6601    -6393    -8120    -1463 
    5995      -13   -11697   -14245    -8896    -4860    -2617      255 
    3468     3119    -6497   -12694    -1964     4187    -9516   -17721 
   -6848     2533      -97    -5547    -6748    -2127     1221    -4953 
  -10300    -3473     2779    -4708   -14935   -11267     1709     3277 
   -8332   -12793    -6184      122     3547     1869    -5668    -9347 
   -7137    -8514   -11688    -6154     2736     1178    -5773    -5196 
   -1544    -1124      885      649    -7659   -12760    -6988    -1055 
   -3802    -9282    -8780    -4417    -3048    -3748    -2818    -2586 
   -3836    -3325    -3019    -4610    -4305    -3312    -6505    -9111 
   -2605     4972      164    -7335    -4180    -2169   -10471   -13497 
   -3511     1961    -6386   -12031    -4893     1815     1598     1173 
   -1836    -7002    -4828    -3225   -12425   -15249    -3146     2706 
   -3256    -5090     -263     1667    -2637    -5443    -2258    -2465 
  -10011   -14099    -9208    -4529    -6509    -6056     3408    11213 
    5634    -9729   -19624   -14875    -4222     -472    -3782    -6365 
   -4050       64     2706     5391     3493   -10224   -22657   -16227 
   -3632    -3623    -5356     1776     3474    -4811    -6922     -527 
     395    -7260   -13097    -9648    -2062      865    -1390    -4928 
   -3630     1341    -2110    -9007    -7281    -6372    -9235    -6933 
   -3377    -1989    -1506     -758     5813     8874    -4275   -16530 
  -11777    -3019    -3774   -10324    -9958      319     4429    -3662 
   -7658    -3915    -6843   -14496    -9329     3553      598   -11029 
   -4162    10027     2209   -14218   -10372     -324    -7383   -13196 
    -984     5266    -7249   -13432    -4131      818    -2617    -4518 
   -7369   -12367    -9616      167     3322    -2249    -6359    -4444 
   -1706    -2921    -3777    -4037    -8089    -7223      518     -648 
  -11306   -13051     -148     9614     1956    -9810    -8251    -2629 
   -7384   -10519    -1009     3208    -6991   -13197    -6281     3384 
    4089    -5703   -12343    -8043    -4527    -5714    -3036      -64 
   -3658    -5759    -2084    -3092    -7697    -4143     2188     1266 
   -3487    -6651    -6095    -3996    -6702    -9979    -4473    -1179 
   -8675    -8538      643     -676    -7770    -8962    -5146      -16 
   -2359    -7357    -3728    -4002   -11244    -7118     2889     1891 
   -4325    -5958    -3086    -1306    -7215   -12129    -6793    -3504 
   -3798     3726     5883    -5359    -9273    -5251    -8095    -6246 
    2166    -3154   -13647   -11173    -6087    -4768    -2060    -3597 
   -6984    -4063    -3620    -4536     4090     7327    -5151   -14948 
  -13728    -6226     5664     9447    -1003    -8625    -5594    -2709 
   -4978    -8862    -9620    -6436    -4618    -3542     1024     2932 
   -1903    -7333   -10527   -11205    -7663    -4630    -7118    -7123 
     928     4005    -1806    -3600    -3470    -7099    -8334    -8102 
   -7511    -3723     -961    -1243    -2947    -3944    -2644    -3781 
   -6149    -4006    -3177    -5840    -7267    -8008    -2070     8676 
    3527   -12020   -10837     1387     3211    -5530   -14621   -14413 
   -6164    -1547     -506     -710    -5173    -6129     -658     1613 
   -2284    -9312   -14538   -12696    -4970     2975     5340     2289 
     402    -1073    -7726   -13759   -12487    -9501    -6107     2440 
    6862    -2721   -12063    -6264      857    -4928    -9734    -3262 
     278    -5367    -6928    -1583    -2106    -9310   -10832    -5047 
   -1135    -4298    -8452    -3896      519    -6069    -9167    -2554 
    -446    -5139   -10451    -8162     5872    12869     2999    -4479 
   -5722   -11788   -13266    -4946    -2928    -8109    -6698    -4259 
  -10638   -15184    -9429     -938     4013     3281    -2868    -8398 
   -9270    -4865      -49    -5400   -13725    -7812     4571     5811 
   -3211   -10068    -8938    -6690    -7947   -10558   -13132   -10119 
   -2555    -2532    -6925    -3811        4    -2694    -1734     2991 
   -3840   -16379   -10266     8550     9277    -5725    -8991     -382 
    3249     1329       63    -3383   -10048    -9790    -1393    -1493 
  -12082   -13377    -2259     3238    -1521    -5834    -7307    -9228 
  -10692   -12680   -15469   -12754    -1653     7150     2655    -6016 
   -3655     5834     7483    -2910   -12901   -10098      611     4878 
   -1090    -5460    -1929    -1043    -5732    -4259     3252     2110 
   -7935   -10600    -6666    -8199    -6567     2424      245   -11726 
  -12083    -2677     2695     3758     1987    -2058    -4657    -8020 
  -13915   -13396    -2573     6764     6812     1941    -5062    -9626 
   -7419    -9867   -20341   -20445    -9699    -5779    -8548    -8270 
   -4475     -724       54    -3561    -8291    -8677    -2006     9046 
   14895     8603    -2369    -6474    -5714    -6508    -6855    -9576 
  -16276   -11757     3928     7094    -4240    -9884    -2293     8121 
    6750    -6399   -18284   -25791   -28269   -17707    -3762    -2025 
   -2735     1804     1125    -6525   -14747   -17948    -9761     2435 
    5572     6893    13431    10034    -5557    -7348     8383    11232 
   -4122   -12953   -11013    -7840    -1366     5555     5948     2432 
   -6211   -17270   -15611    -5884    -4558    -5736    -3678    -7133 
  -14268   -14524    -8457    -5340    -3581     4264     6685    -3788 
  -10551    -9247   -10093   -12505   -11179    -1791    10820    11520 
    2486     -114     1782    -3669   -13209   -14646    -5620     3164 
    3869     2114     3291     2473    -3477    -9251   -12841   -14767 
  -10428    -5493    -9281    -8120     6189     9914    -6624   -17397 
  -10714    -5884    -9193    -4503     6282     2299    -9976    -5289 
    6475    -1980   -23369   -30699   -17671    -2697     -967    -3969 
    -908     3578     7619    11546     8550     1807    -1198    -5193 
  -10434   -11346   -10432    -8500    -5310    -4776    -3815     -751 
    -692    -2404    -6205   -12572   -10847    -1320      851    -7015 
  -14164   -10878      168     2709    -6609   -11557    -8729    -8334 
   -9385    -6524    -3041    -1993     1667     8613     6825    -5032 
  -10979    -9015   -10978   -13568    -6142     5536     7985      450 
   -6706    -6782    -1480     4352     4473    -3098    -5493     5100 
    6037   -15034   -24645    -3747    12926     1788   -12519   -10916 
   -5572    -4635    -4876    -8972   -16663   -16291    -6154    -3312 
   -9544    -4703    10786    13716     -179   -10093    -8047    -8564 
  -11183    -5039    -1044    -3816     -163     4602      598    -3148 
   -2822    -5679   -10573    -8969    -2755    -4756   -11252    -5321 
    4884     1842    -5988    -8418   -10890   -12455    -7465    -2346 
   -5152   -10956   -11229    -5155      631    -3356   -12447   -10960 
   -2817    -1055     -834     4727     7140     -935    -7506    -1063 
    7986     5956    -5235   -12370    -8518    -3685    -5571    -7330 
   -6192    -5787    -3748    -3190   -11090   -17018   -10278     -920 
     503    -2976    -2663     4148     7257     1204    -3406    -3816 
   -8451   -12240    -6205    -2718   -13613   -20123    -6183     8245 
    5590    -1210      538     3441    -3534   -13232    -9433      841 
    -684    -8191    -6540      236     1317     -832    -1960    -6740 
  -16627   -23134   -14863     1017      657    -9140    -1221    12668 
    7977    -4225    -6394    -3689    -5765    -9618    -8133    -3414 
    -957    -1368    -4391    -7817    -8041    -7056    -8036    -9406 
   -9486    -8473    -2747     6837     6858    -2565    -5341    -2614 
   -3257    -5098    -6601    -9086   -11817   -10633    -5605    -6633 
  -11865    -7983     -221    -2732   -10833   -10810    -2685     3353 
    3588      839    -3503    -8737   -11614    -8413    -1138     1387 
   -3991    -5390     3021     4236    -8752   -13905    -2735     2334 
   -6358   -10346    -6412    -4726     -608     6525     2798    -9040 
  -10188    -1171     -824   -10161   -12712    -7947    -4772    -1001 
    1418    -1335     -414     2955    -4479   -15966   -13896    -2465 
     272    -7161   -10550    -5444     -325    -1323    -5417    -4969 
    -741    -2322   -10508   -13892    -7395       85     1333    -2031 
   -6145    -5190     2755     7526     1285    -5798    -4954    -7196 
  -16472   -15803    -2552     5007     1931    -2189    -3391    -2380 
   -1359    -3086    -6474    -9683   -10890    -7240     -999      445 
   -4849    -8719    -4341     2864     1320    -8793   -10821     -904 
    1297    -7719    -9506    -2239     -197    -6423   -10422    -7053 
   -4112    -4484    -2971    -1711    -4270    -6836    -3113     6043 
    5904    -7491   -11919    -2093    -2218   -13136   -12564    -5223 
   -5706    -4374     3356     5306      256    -4780    -8141    -8600 
   -8090   -10350    -8870     -468     2897    -2151    -5066    -1861 
    3508     3397    -6462   -15573   -14202    -8737    -6625    -5518 
   -1853      945     -599     -452     3288      495    -8950   -12445 
   -7631    -4067    -6428    -8411    -4006     1175      634     -503 
   -1161    -8402   -15714   -11499    -2207     -575    -4864    -5517 
   -2039     -645    -2905    -4606    -3775    -4149    -6496    -7042 
   -4482    -1449    -3721   -10357    -9690     -973     1745    -2755 
   -4306    -5008    -9586   -11252    -5042     2308      820    -6247 
   -5710     -722    -3867    -8772    -4996     -503    -3781    -6805 
   -2054     2092     -816    -4321    -6107    -8569    -8309    -4576 
   -2478    -3504    -5594    -8947   -11905    -8027     1107     4383 
    -531    -6035    -7753    -6478    -3793      -55     2050    -1910 
   -7168    -5429    -1216    -3514   -11503   -15279    -8181     -390 
   -2085    -5329    -4916    -6944   -10234    -9034    -6619    -5493 
   -1098     1491    -5535   -10930    -5675    -1722    -3804     -465 
    6847     3838    -6488   -10044    -8822    -8854    -6014    -1791 
   -2693    -5699    -4457    -1630    -4324    -8464    -4839     -418 
   -3677    -6046    -3800    -4063    -5460    -3175    -1007    -3667 
   -6469    -3144       85    -3439    -6556    -4634    -2775    -3115 
   -4409    -5984    -8533   -12135   -11286    -4785     -604     -710 
   -1209    -1121     -672    -1945    -4634    -5436    -7101    -9235 
   -5080     -130    -2490    -4523    -1624     -936    -3200    -3338 
   -2918    -7739   -13597    -8060     2523      305    -6304     -179 
    8181     3967    -5279    -8556    -7811    -7955    -7009    -2872 
   -1219    -5359    -8792    -8222    -7083    -5717    -4580    -4739 
   -3334    -1555    -2843    -3084      195     -614    -7048    -7546 
   -2204    -4614   -11873    -9880    -1306     1429    -2089    -4469 
   -4098    -3186    -3071    -3917    -4253    -4733    -6955    -7917 
   -4629      557     2718     -155    -4854    -8041    -9170    -8876 
   -8977    -7608    -1683     3285     2084    -2158    -6355    -9466 
  -10193    -7781    -4325    -4963    -8322    -6550     -261     1090 
   -4722    -7668    -3943    -4233   -10129    -9050    -1271     -136 
   -4866    -3921      295    -1269    -5660    -7927    -9882    -9914 
   -5441    -3885    -9668   -10235       91     5089    -1713    -6693 
   -5146    -4618    -6129    -5314    -3843    -5530    -7322    -5598 
   -3804    -5024    -5233    -2197    -2143    -6531    -7261    -4550 
   -5405    -7102    -6095    -4646    -2110    -1119    -4363    -3753 
     332    -2925    -8830    -7807    -4626    -4083    -2633      827 
