Origin Time       2024/04/02 04:24:00
Lat.              40.133
Long.             141.712
Depth. (km)       71
Mag.              6.0
Station Code      IWT013
Station Lat.      39.3290
Station Long.     141.5638
Station Height(m) 298
Record Time       2024/04/02 04:24:54
Sampling Freq(Hz) 100Hz
Duration Time(s)  120
Dir.              N-S
Scale Factor      7845(gal)/8223790
Max. Acc. (gal)   107.179
Last Correction   2024/04/02 04:24:53
Memo.             
[...]
    -693     -697     -696     -696     -696     -693     -692     -696 
    -697     -692     -692     -695     -693     -693     -693     -692 
    -693     -693     -695     -695     -695     -696     -696     -696 
    -693     -693     -693     -692     -695     -696     -692     -689 
    -693     -697     -697     -696     -691     -691     -696     -697 
    -692     -692     -695     -693     -693     -696     -693     -692 
    -695     -693     -691     -693     -696     -693     -693     -695 
    -693     -693     -693     -693     -697     -697     -695     -693 
    -695     -697     -697     -696     -693     -693     -696     -697 
    -696     -693     -692     -693     -695     -696     -696     -693 
    -691     -692     -699     -700     -696     -695     -696     -693 
    -693     -695     -696     -697     -695     -695     -696     -692 
    -691     -697     -697     -693     -693     -695     -696     -696 
    -695     -695     -695     -692     -692     -696     -699     -696 
    -691     -692     -695     -697     -696     -696     -695     -692 
    -692     -696     -697     -695     -693     -693     -692     -693 
    -695     -692     -693     -695     -696     -696     -697     -697 
    -699     -700     -700     -697     -710     -730     -737     -727 
    -729     -756     -762     -722     -703     -703     -635     -557 
    -569     -599     -522     -400     -437     -561     -483     -271 
    -211     -326     -340      -64       64     -105      108      479 
     238     -113       43      496      702      359      378      947 
     614        9      540     1088      888      -27    -1043     -386 
     226    -1252    -1884    -1418    -2276    -3099    -2959    -2002 
    -731    -1298    -1516      900     1474    -1213    -3435    -4583 
   -5976    -7180    -6529    -4368    -3150    -1200     4314     9450 
    9501     5358     1263      715      468    -4442   -10424   -11772 
   -8271    -2181     3111     4407     2230      726     2058     1601 
   -4031    -8671    -8008    -6810    -6624    -4777    -4029    -6939 
   -8163    -2636     2377    -3169   -11153    -8212      257     4338 
    6150     8245     7500     3751     1960     4603     5606      785 
   -2241     3157    12067    12765     2308    -5829    -5198    -5506 
   -8665    -8336    -7776    -9358    -3873     9220    15059     9154 
    5167     6516     3241     -275     2083     1464    -3878    -7067 
   -5086     2273     7496     4342      503     2274     5687     4792 
     521     1271     2916    -3238    -5173     -168    -6230   -20606 
  -23568   -11869     2193     9821    12301    10224     2727    -4144 
   -7258    -9371    -8662    -5859    -4936    -2070     4523     8351 
    6890     3969      159    -6982   -11911    -8160    -3208    -3947 
   -2713     4302     8829     7416     3356    -2574    -9726   -14227 
  -12125    -4600     1701     2214     1024     3422     4602     1975 
    2184     3063     1474     2903     5134     6034     7079     5005 
    4564     6883     3955      668    -2292   -10359   -10665    -2164 
   -1444    -3321     -391     -828    -4163    -7272    -8320    -4067 
   -1741    -1480     2371      881    -4256    -3349    -4109    -6419 
   -1887     3748     7261     6994    -2552   -11365    -8480    -2686 
   -4695    -9190    -6077    -2585    -7358    -6681     5059    10534 
    5313     3356     9742    14472    10372     3950     -448    -6282 
   -8091    -3227    -3069    -6308    -2554     2951     4622     3951 
   -1701    -7514    -5275    -2331    -3686    -1408     4932     9917 
   12841    13595    10608     2146    -6667    -8289    -7257    -9096 
  -10655   -11549   -11512    -6720      -12     2644      762    -2052 
    -881     2613     1768    -1167     -216     3538     5580     2659 
    -915     -206    -1999    -6377    -3256     1919     1117      826 
    1582     -895    -2421    -3213    -6979    -9409    -8546    -8164 
   -6863    -1714     2983     1683    -2469    -1463     6432    14513 
   15997    12201     7716     3276     -958    -5329   -11844   -17313 
  -14759    -5958     1386     6138     8660     8677     8958     7393 
    4136     5293     4600    -4699   -10125    -3424     3472     1867 
   -1629    -2066    -2351    -3732    -5097    -6210    -7550    -8460 
   -6315    -2461    -2077    -4359    -4240      729     8321    10019 
    4676     1362    -2417    -9211    -7614     -230     -513    -3943 
   -2045      712      400     -423      274     1806     1915      388 
    -130      305    -1822    -5679    -4214     2365     4708     1883 
    -751    -2066      190     4402     3433    -1505    -6134    -8812 
   -5161     -496    -4124    -7839    -5188    -2664      360     4486 
    4405     2922     2652     1560     3543     8056     5641    -2158 
   -5618    -7041    -9309    -6420    -1941    -1156     2069     7234 
    8949     7790     2266    -4328    -4587    -2756    -3836    -5857 
   -7746    -4621     5358    11924     9425     3913     -295    -4619 
   -8341    -7970    -6420    -7929    -6178     2292     8104     6471 
    2573       71     -487      433      918     -940    -4819    -7103 
   -4538      245     1995      -82    -3477    -5143    -3017     1034 
    3859     5043     4712     2965     2327     1999    -2432    -6385 
   -4198    -2404    -3910    -3585    -2849    -3828    -2998     1443 
    6914     6696     -267    -3674    -1628    -2115    -3694    -4723 
   -7790    -6758    -1784     -972     1467     8166     8646     4743 
    3726     3157     1821     -556    -4028    -5310    -4874    -3106 
     -51     -514    -3195    -3138    -1726      143     1413      -68 
   -1247    -1210    -2079    -1849    -2153    -6420    -9163    -5945 
   -1458      592     2039     4441     6238     5648     3499     1934 
    1031     -403    -1898    -3595    -5468    -5190    -4421    -4441 
    -311     5312     5067     1709     -542       47     4259     5462 
    1055    -2081    -3030    -5339    -7759    -7349    -5104    -5360 
   -6660    -4135     -491      487      297      386     1385     2412 
     891    -1344     -348     2309     2710      878      706     3545 
    5575     6891     9985     8978     1134    -6072   -11326   -15840 
  -14343   -10095   -10254    -9099    -2592     3021     4934     4396 
    3709     4595     2710    -1499     -731     2436     2799     2683 
    2281     2714     6690     8548     6021     4942     4005      634 
   -2359    -5090    -7009    -6642    -5672    -3578    -1946    -3916 
   -3882     -359    -1306    -4365    -4152    -5733    -8276    -5324 
     -55     2604     5103     9339    10161     4482     -816    -1545 
   -3165    -6579    -7199    -5683    -2398     3429     6608     5329 
    4662     5169     2903    -2506    -6393    -5796    -5061    -6993 
   -5323     2297     6936     4182      -28    -1555     -978     -515 
   -2972    -7268    -8833    -5692     -129     4639     7121     5687 
     -45    -5776    -8996   -12253   -14575   -11259    -3947      826 
    2312     3511     4131     4098     4849     5251     3707     1784 
    1367     1803     2099     2077     1876     1714     1054     -286 
   -2251    -5864    -9167    -7735    -3952    -1911     1664     5138 
    1800    -4320    -6423    -4865    -1151     1597     1098     1854 
    4518     2674    -1007     1200     4874     3616      994     -380 
   -2046    -2735    -1401    -1102    -3369    -5098    -5684    -6705 
   -6478    -4456     -541     5431     7684     4531     3041     2886 
    -749    -5040    -7805    -9242    -6211      348     5227     7299 
    6696     3457      282    -2072    -4514    -7466   -10936    -9498 
   -1109     4810     5132     6457     7821     5989     5335     5601 
    1875    -2373    -3484    -4217    -4243    -2354    -1444    -2218 
   -2447    -3032    -6080    -8650    -7786    -6563    -5830     -577 
    7882     9535     3755     2331     6273     5729     2145      810 
   -2038    -5757    -5076    -2124      129     1092    -1012    -4025 
   -3921      287     5120     2292    -6454    -8419    -3607     -764 
    -461    -1655    -4962    -7276    -4611     1223     3724     1026 
   -3338    -5838    -3241     2465     3537     -901    -3924    -2282 
    3037     9320    10119     3450    -2539    -1880     2810     6254 
    4961     1896      681    -1273    -2913    -2928    -6224    -9346 
   -6394    -2808    -2124    -2991    -5051    -4299      -37     2975 
    5528     8515     7238     1420    -3650    -4788    -4379    -7751 
  -12403   -11029    -5589      672     6585     4714    -3130    -5301 
   -2080     1413     3638     3049     4212     8448     8908     6504 
    4286     -761    -6983   -10027    -9209    -6172    -3867    -1842 
    1194     3342     3878     1678    -2161    -1706     1749     2427 
    2338     2957     2524     3586     5470     3223    -2069    -5902 
   -6991    -7732    -9551    -8900    -5679    -5481    -7165    -5517 
   -1372     2821     5370     3663    -1015    -4703    -6694    -6489 
   -2157     3898     7211     8291     9105     8056     4822     2022 
    -278    -3183    -5455    -5972    -5408    -5467    -6137    -5378 
   -2400     1945     3901      473    -3090    -2120      743     3886 
    5232     2922     1930     3798     3477      660    -1902    -4241 
   -5883    -4477     -619     2830     4757     3114     -787      -75 
    3227     1398    -3665    -7354    -8629    -7032    -4402    -2884 
   -3244    -5356    -5863    -2967      272     2945     4241     1553 
    -733     1359     3415     2860      230    -2660    -2790    -2300 
   -3040    -3649    -4452    -2891     1814     4698     4814     3751 
    1436     -831    -2034    -2342    -1865     -475     1475     1587 
     531     2353     3655      -76    -2787     -778      448    -1437 
   -3468    -3134     -784      353     -851    -1912    -1669    -1410 
   -2650    -4598    -4234    -1204     1980     3265     2007      780 
    1027      -93    -2049    -2783    -3889    -3366     -201     -723 
   -4104    -4120    -3416    -3527    -1834    -1020     -657     4445 
   10855    11221     8185     7291     6570     4399     1748    -2903 
   -7341    -8221    -8835    -9807    -8120    -5572    -4001    -2674 
    -614     1628     1104      -71     1880     3137     1021    -1719 
   -3461    -4139    -4552    -4930    -3917    -1466      940     1487 
      62    -1513    -2582     -785     4513     5728     1759      654 
    1329      167     -164     -228     -429      677     -172    -3825 
   -5425    -3017     -172       -4     -236     1642     2876     1530 
     568      853    -1391    -6181    -9112    -9205    -7018    -3019 
     241     2401     3643     2739     2614     5197     5302      953 
   -1953    -1539    -2772    -6663    -8295    -5260     -579     2290 
    2411     1613     2015     1013    -1865    -1232      716    -1090 
   -1746     1150     3584     4680     1359    -7512   -11794    -6971 
   -2760    -3883    -4099     -847     1453     2957     6945     8849 
    6628     7072     7558      878    -7103   -10011    -9810    -7690 
   -4912    -4452    -5860    -5296     -661     4845     7074     6459 
    5508     6119     7720     6400     1077    -4441    -6338    -4151 
   -1300     -631    -2535    -5792    -5960    -2122     -927    -4301 
   -5775    -3230     -719      720     2042     2135      819     -375 
   -1524    -4310    -6937    -5317     -653     2095     1201       27 
    1560     2856     2089     2512     2917      295    -1040      988 
     677    -3296    -6322    -6030    -2637     1179     2002      908 
    1165     3219     4800     3836     1954     1911     1086    -3723 
   -8102    -8009    -6012    -4122    -3186    -2550     1433     6137 
    6303     3981     1254     -583      554     1112     -726    -1495 
   -1270    -1027     -394    -1557    -4765    -6104    -3973    -1174 
    -294     -333     1586     5026     5968     5269     6122     4244 
   -1707    -6054    -8866    -9822    -5745    -1783    -1092      737 
    2128      471     -329     -598    -3176    -4492    -2446     -384 
     -99     -827    -1657    -2315    -2478    -1764    -2118    -4118 
   -3273      839     1219    -3146    -4351      481     5648     6516 
    3353    -1171    -3542    -2266     -337    -1159    -4423    -7312 
   -6602    -3057    -1163    -1460    -2095    -3183    -3504    -2820 
   -2998    -4110    -6423    -6361     1453     9984    10654     7034 
    2469     -159     5267    14214    15612     8586     1333     1490 
    6239     5344     -592    -1674     5435    15282    16177     2971 
  -10820   -12735    -7491    -3979    -6411   -12798   -14669   -10655 
  -12028   -19742   -17811    -1776    15901    24497    17838     1175 
   -4522     9238    23168    21536    11600     1703    -7711   -10882 
   -4517     -429   -10331   -31737   -54345   -66002   -58523   -34389 
   -5112    11604     4841   -11460    -9504    19656    48915    46494 
   17793   -17451   -49535   -64174   -60193   -47900   -14416    44257 
   89819    87642    52199    25975    24954    30337    29664    26084 
   12707   -17814   -49557   -69252   -80835   -70798   -23272    35105 
   67711    71577    58706    35114     1143   -43112   -81494   -85824 
  -47723    12144    57326    63335    49881    50607    61977    63559 
   52316    30460   -10851   -70191  -113049  -104152   -49435    13984 
   52288    56725    41098    22442    11145     5655   -13559   -56770 
  -91682   -76630   -26994     4390    12776    28165    44027    36078 
    4093   -32675   -56072   -65645   -67294   -58807   -43387   -28605 
   -8226    21547    46340    56924    59250    57524    46735    23669 
    -831   -12294    -8679     3515    13837    12040     3662     8797 
   33003    55414    58641    45763    24051     2238   -14663   -35965 
  -60124   -63385   -32879    14081    47243    53487    37563     2658 
  -32722   -34939    -4896    22022    21718    -3720   -36270   -53674 
  -40448   -10570     -608   -17844   -35529   -30638    -4097    14204 
   -3260   -42519   -68196   -64862   -37258    -1524    16270     7082 
   -6370    -4207     7049    17351    25215    28027    26350    25802 
   29548    37446    44092    37265    12383   -16447   -32390   -30543 
  -13925     5206     8270    -4018   -10744    -4827     5964    16495 
   20449    18149    18654    22657    23409    14517    -2320   -14774 
  -18663   -20058   -16983    -6400     4167    10868    16738    18569 
   15453    14000     9397    -7732   -27584   -37330   -39910   -38821 
  -33413   -26905   -23183   -22889   -22229   -18276   -12587    -4703 
    6604    20488    34896    43359    42475    37821    32151    22833 
   10561    -3662   -20934   -35641   -38198   -29895   -21953   -20034 
  -20083   -17701   -11118     1189    17644    32644    38781    32798 
   21674    13787    10147    10241    15792    26905    36987    35259 
   18253    -4954   -19329   -17479    -7474    -3149   -10042   -20105 
  -23102   -23283   -27720   -31584   -33007   -35654   -32171   -15080 
    4476    13675    17093    21519    21948    13983     1142   -13232 
  -26682   -36228   -40100   -34348   -17820      -41    10486    19020 
   29415    30306    18369    10845    14832    14380     2026    -7317 
   -6061    -2489     2026     9792    18825    29440    37062    35302 
   27531    17456     5389    -6312   -13945   -12935    -8864   -17010 
  -34113   -41895   -39353   -34636   -24363    -8993      307     -638 
   -8607   -16042   -10245     6916    17737    17514    16202    17193 
   16119     9875    -1264   -10989   -11421    -3977     3366     3875 
   -3072    -7848    -2814     6188    11514     9366    -2358   -14100 
  -14185   -10351   -11342   -10855    -9761   -12476    -8881     5967 
   21662    30141    30991    26897    20455    13355     9285     9747 
    9555     5624     2683     1887    -3327   -12291   -17367   -17301 
  -13919   -10015   -10936   -15124   -13898    -3138    11145    18110 
   12854     -853   -13763   -16048   -10862   -12518   -23839   -34244 
  -35051   -24991   -10960    -1900     2042     7149    14284    16633 
   10577     1320    -7754   -18666   -25555   -19946    -7990      268 
    4152     8656    21323    40386    51092    44894    27194    10206 
    3333     2862     -660    -8787   -20155   -32188   -34557   -20464 
    3149    22551    26755    19163    12572     9532     6288     3519 
    2870     3678     1833    -3055    -5273    -4842    -3990    -1854 
   -3235    -9421   -11703   -10439   -14048   -20071   -20838   -16748 
  -11520    -6577    -4480    -5143    -2498     3975     7334     5888 
    2756    -1478    -4884    -3474     1892     7811    12807    13467 
    7469     1576     2459     4693     -205   -12155   -23371   -25066 
  -16367    -3757     8216    18291    24239    24549    22658    20633 
   14323     4175    -3699    -8391   -12240   -15870   -18191   -15859 
   -8428     -291     4922     3832    -3982    -9400    -5385     2493 
    8781    13024    12047     7375     7222    10015     5509    -6575 
  -16249   -18052   -14989   -12806   -13447   -12177    -5923     2482 
   10658    15325    13460     8218     2721    -2789    -7466   -13259 
  -21843   -27274   -21857    -6619     8700    15477    14179    11419 
   11596    13220    13026    11271     8696     4572     2236     3643 
    2685    -3330    -9283   -11928   -10845    -7204    -5783    -7944 
   -9192    -8703    -8029    -7295    -9174   -13599   -15835   -11979 
    -936     9973    12449    10112     8035     6392     7333     9614 
    7055     -719    -9325   -15831   -16443   -10471    -4806    -4428 
   -6411    -5246      303     4680     3291    -1102    -3975    -3893 
   -1652     2870    10689    16822    14413     8102     6365     6597 
    3662       36    -1796    -1980       49     1102    -2357    -6187 
   -6061    -4634    -4946    -5842    -5332    -3723    -2358    -1684 
   -2674    -3819      734     9617    12830     8418     4635     6141 
    9364     9101     4688      113    -1645    -2108    -3748    -8109 
  -15236   -20596   -19755   -15541   -11443    -5070     2496     5198 
    5335    10845    20779    24555    15678     2037    -6330    -9304 
   -9124    -8973   -12553   -15781   -11938    -1699     7182     8206 
    4186     2744     5823     8533     7389     3933      206     -510 
    4009     7250     2274    -7499   -14069   -14017   -11956   -13275 
  -14027    -9097    -2544      500      324     -743    -1621    -3793 
   -6243    -4633     -394     1914     2713     2664     2085     3343 
    3142    -2427    -7335    -7364    -7186    -9715   -12232    -9107 
    1166    10648    13306    12460    11470    10638    10062     8460 
    6736     7888     8945     5184     -426    -2805    -2880    -2300 
    1447     7299     9383     6246     1179    -2632    -3669    -2409 
    -935    -1945    -4900    -5416    -2027     1833     3038     1115 
   -3192    -8699   -13541   -16441   -18388   -20094   -19545   -15141 
   -8284    -1772     2924     6068     7659     8117     8824     9109 
    7809     6586     4936     -884    -8376   -10389    -6642    -1659 
