Origin Time       2024/04/02 04:24:00
Lat.              40.133
Long.             141.712
Depth. (km)       71
Mag.              6.0
Station Code      IWT017
Station Lat.      39.6339
Station Long.     141.4379
Station Height(m) 617
Record Time       2024/04/02 04:24:51
Sampling Freq(Hz) 100Hz
Duration Time(s)  120
Dir.              N-S
Scale Factor      7845(gal)/8223790
Max. Acc. (gal)   172.708
Last Correction   2024/04/02 04:24:50
Memo.             
[...]
  -10891   -10895   -10895   -10895   -10894   -10890   -10893   -10894 
  -10893   -10893   -10891   -10891   -10893   -10893   -10893   -10891 
  -10890   -10891   -10891   -10893   -10895   -10894   -10894   -10894 
  -10893   -10893   -10890   -10890   -10895   -10894   -10893   -10894 
  -10893   -10893   -10894   -10893   -10894   -10893   -10893   -10895 
  -10893   -10891   -10894   -10893   -10890   -10893   -10897   -10895 
  -10893   -10893   -10895   -10893   -10890   -10893   -10894   -10894 
  -10895   -10894   -10891   -10891   -10891   -10893   -10894   -10893 
  -10893   -10891   -10891   -10894   -10894   -10894   -10894   -10893 
  -10893   -10893   -10893   -10894   -10895   -10894   -10893   -10894 
  -10894   -10891   -10891   -10894   -10894   -10894   -10895   -10894 
  -10893   -10895   -10894   -10893   -10895   -10895   -10894   -10893 
  -10894   -10897   -10895   -10891   -10891   -10894   -10895   -10894 
  -10893   -10894   -10894   -10891   -10891   -10893   -10890   -10890 
  -10894   -10895   -10894   -10891   -10893   -10895   -10894   -10895 
  -10894   -10891   -10893   -10894   -10894   -10894   -10894   -10895 
  -10894   -10890   -10891   -10894   -10894   -10893   -10894   -10895 
  -10893   -10893   -10894   -10894   -10894   -10895   -10894   -10891 
  -10893   -10893   -10895   -10898   -10895   -10893   -10894   -10894 
  -10895   -10895   -10894   -10895   -10895   -10893   -10894   -10894 
  -10893   -10893   -10895   -10897   -10894   -10893   -10894   -10893 
  -10893   -10894   -10893   -10893   -10893   -10891   -10894   -10894 
  -10893   -10894   -10893   -10893   -10895   -10894   -10895   -10894 
  -10893   -10894   -10895   -10895   -10894   -10895   -10898   -10897 
  -10891   -10893   -10895   -10894   -10893   -10893   -10893   -10893 
  -10894   -10895   -10893   -10891   -10894   -10897   -10890   -10889 
  -10894   -10894   -10891   -10891   -10894   -10895   -10893   -10893 
  -10895   -10895   -10894   -10893   -10893   -10897   -10895   -10891 
  -10894   -10897   -10894   -10893   -10894   -10893   -10893   -10894 
  -10894   -10893   -10893   -10894   -10893   -10893   -10893   -10893 
  -10893   -10894   -10897   -10895   -10893   -10894   -10898   -10894 
  -10890   -10891   -10894   -10894   -10894   -10894   -10893   -10893 
  -10893   -10895   -10894   -10891   -10893   -10894   -10891   -10891 
  -10893   -10893   -10893   -10894   -10894   -10893   -10894   -10894 
  -10893   -10890   -10891   -10897   -10897   -10895   -10895   -10893 
  -10893   -10894   -10895   -10893   -10893   -10895   -10894   -10893 
  -10894   -10894   -10893   -10895   -10893   -10891   -10894   -10895 
  -10895   -10895   -10895   -10894   -10893   -10893   -10894   -10893 
  -10893   -10893   -10891   -10891   -10893   -10891   -10893   -10895 
  -10893   -10893   -10893   -10893   -10893   -10894   -10893   -10891 
  -10894   -10897   -10894   -10894   -10894   -10894   -10894   -10891 
  -10891   -10895   -10895   -10894   -10894   -10893   -10894   -10897 
  -10895   -10894   -10894   -10891   -10891   -10897   -10897   -10893 
  -10895   -10895   -10891   -10893   -10895   -10895   -10894   -10895 
  -10893   -10893   -10894   -10893   -10891   -10893   -10894   -10893 
  -10895   -10898   -10895   -10891   -10891   -10894   -10895   -10895 
  -10894   -10893   -10893   -10891   -10891   -10894   -10893   -10891 
  -10897   -10897   -10891   -10894   -10894   -10893   -10894   -10894 
  -10897   -10899   -10899   -10905   -10918   -10930   -10944   -10964 
  -10984   -11001   -11013   -11013   -11003   -11007   -11020   -11003 
  -10964   -10956   -10980   -10939   -10800   -10764   -10922   -10929 
  -10694   -10708   -10959   -10723    -9946    -9544    -9999   -10439 
  -10010    -9736   -10709   -11570   -11074   -10395   -10492   -10889 
  -11165   -11364   -11904   -12619   -11955    -9749    -8704    -9767 
  -10419   -10058   -10681   -12320   -13587   -13747   -12764   -12152 
  -12897   -13074   -11317    -9157    -8025    -7557    -7689    -9575 
  -12480   -13513   -12672   -12154   -11223    -9594   -10299   -12109 
  -10978    -9370   -10192   -10747   -10093    -9967   -10323   -11032 
  -13065   -16486   -18589   -16472   -12515   -10115    -6600       79 
    3483    -3019   -13564   -17142   -16457   -20648   -23618   -15371 
   -3676     -882    -5996   -11260   -11398    -8764   -12810   -21675 
  -18837    -5224     -226    -2656     -641    -3870   -18173   -28309 
  -26902   -17891    -5676     -145    -4860   -10862   -12303    -9247 
   -5471    -6795   -11250   -11128    -6374    -7013   -17371   -23939 
  -16189    -6189    -7005   -13647   -14107    -6517    -3611   -11030 
  -16468   -14746   -12100    -8325    -3773    -3686    -5740    -7140 
  -12688   -18895   -16050   -10828   -14709   -19163   -11481      762 
    2342    -7111   -16997   -19163   -14042   -13263   -21485   -19248 
    1840    14412     3877    -9433   -13612   -14484   -13709   -13412 
  -18603   -25331   -25008   -17979   -10130    -5169    -6079   -10704 
  -11902    -7792    -3495    -5586   -13128   -16787   -12615    -6569 
   -5725    -9413    -8669    -2026    -1046    -9702   -18312   -21820 
  -20858   -12981    -3971    -6948   -18261   -20124    -9377      409 
     -97    -9566   -17551   -14142    -8688   -14004   -17594    -6340 
    3947    -2956   -16611   -20668   -17379   -16715   -17076   -15380 
  -15576   -17001   -15376   -11554    -8773    -6863    -4673    -4824 
   -9235   -13139   -10191    -3840    -3615    -7785    -6918    -4407 
  -11655   -23144   -22653   -11867    -6384   -11859   -17431   -12698 
   -7334   -12478   -16356    -8174     -268    -3947   -12382   -18585 
  -22076   -20405   -15198   -11500    -6675    -1104    -2871    -8923 
   -9541    -5005    -3372   -10494   -17810   -13852    -8121   -12938 
  -19259   -16016    -7680    -1497     -920    -7496   -14396   -16205 
  -19022   -22285   -17266    -6191      911     1193    -1221    -6933 
  -15645   -17709   -13792   -15495   -18517   -13085    -7011    -7608 
   -9351   -10964   -13207   -10447    -5351    -8159   -16108   -19527 
  -17436    -9518     1007     1439    -6451    -7765    -8032   -17791 
  -23550   -17212   -11794   -11859   -12074   -13366   -14898   -12020 
   -6917    -4716    -5956    -8768   -12360   -14805   -12100    -7068 
   -7470   -12339   -14661   -11703    -6660    -5371    -8877   -11537 
  -11233   -12469   -16618   -19053   -15507    -8105    -3774    -4757 
   -7897   -12407   -16892   -14621    -6654    -5073   -11728   -17351 
  -17586   -12205    -4221    -1676    -7888   -16023   -18906   -16563 
  -13277   -13112   -13231    -8330    -6339   -13042   -12906     -868 
    2837    -7163   -15346   -17293   -16374   -11909    -7950    -7427 
   -7653   -10115   -13849   -13128   -11195   -13111   -14187   -12479 
  -11840   -10284    -6617    -6829   -12048   -16062   -14332    -8067 
   -4002    -7704   -15203   -16812   -11668    -8505    -9371   -10989 
  -14613   -16821   -11867    -5964    -5911    -9580   -15105   -16723 
   -8600    -1937    -5877    -8932    -5881    -7155   -14183   -18139 
  -15657    -9332    -5344    -9153   -14625   -12355    -6828    -8081 
  -14781   -18414   -17184   -14378    -9802    -4248    -2613    -5393 
   -8604   -11373   -13018   -10862    -8905   -14242   -21177   -18835 
  -11110    -7616    -8145   -10285   -12310    -9551    -4658    -6596 
  -12240   -11210    -7921   -11921   -17261   -17043   -15431   -14594 
  -13996   -14234   -12171    -6627    -3264    -6407   -11951   -10924 
   -3762    -2652   -11542   -19908   -18751    -9926    -3547    -7030 
  -14046   -15885   -16289   -18104   -15889    -9699    -5244    -4785 
   -7153   -10071   -10423    -9043   -10359   -10849    -5915    -4145 
  -11778   -20136   -21652   -17928   -11890    -6768    -5103    -5819 
   -8205   -12135   -16001   -17583   -14574    -9016    -6247    -5899 
   -3997    -2276    -5244   -11603   -15186   -13664   -14488   -22681 
  -26491   -15214     -423     1633    -5865    -9855    -6940    -4945 
  -10280   -16625   -16060   -13325   -13520   -12256    -7960    -6868 
  -11269   -15221   -13946   -11591   -13505   -13348    -5302      143 
   -6169   -14980   -14462    -8968    -9603   -16926   -21339   -17077 
  -11785   -11043    -8348    -4549    -6853    -9526    -4739      -59 
   -4739   -12221   -14584   -16391   -19942   -20267   -15946    -9007 
   -2758    -1624    -6265   -13074   -19403   -21907   -15006    -2218 
    3716      202    -4945   -11013   -19904   -23679   -16896    -7873 
   -5983   -10764   -15820   -16569   -13751    -9555    -4627    -1977 
   -6089   -14060   -16719   -12877   -11400   -14404   -14543   -10959 
   -8083    -5917    -5751    -9520   -13174   -14646   -16426   -16452 
  -12158    -7881    -6162    -4877    -5448    -9038   -12186   -13518 
  -14473   -14775   -14503   -14515   -13401   -11358   -10883   -10262 
   -6955    -4020    -5811   -12171   -17026   -15056    -9718    -7323 
   -9445   -13258   -13837    -9860    -6751    -9969   -16860   -19496 
  -15476   -10868    -8811    -5421    -4141   -10848   -16074   -12124 
   -6875    -4320    -3457    -8833   -18353   -20760   -12746    -4311 
   -7137   -17609   -18603    -7376     -356    -4093    -9278   -10881 
  -11874   -13478   -14993   -15898   -13385    -7578    -5071    -8185 
  -11611   -13161   -15178   -16721   -14365    -8608    -4506    -6640 
  -12395   -13512    -9320    -7994   -12143   -15412   -13606   -11859 
  -13900   -13112    -6606    -1490    -2018    -6385   -11915   -15985 
  -16378   -12235    -6619    -6793   -14156   -20343   -18916   -11651 
   -4633    -2258    -3813    -8024   -14698   -20191   -21261   -18258 
  -10812    -2523     -993    -4347    -5956    -8106   -13375   -18382 
  -22670   -24044   -16372    -5212    -1657    -3689    -5270    -8043 
  -12055   -12104    -6984    -2311    -5418   -16136   -24694   -24848 
  -19021   -10597    -3358    -1359    -2469    -4078   -10146   -18389 
  -19984   -16737   -14127   -10486    -7229    -6801    -5525    -5239 
   -9780   -12657   -11672   -13751   -17566   -16456   -12013    -9022 
   -7391    -6602    -7628    -8997    -9914   -12444   -14341   -11466 
   -8430   -10289   -11927    -9950    -9271   -10793   -10129    -9248 
  -13444   -20088   -22307   -17676    -8819    -2463    -3962    -7789 
   -5174    -1228    -4915   -11090   -13949   -17366   -20449   -17911 
  -12673    -9778    -8834   -10542   -14833   -15772   -10473    -3333 
   -1043    -6990   -14856   -14619    -8033    -6181   -10031   -11260 
  -11329   -15048   -16460   -13652   -13967   -15577   -12811    -9891 
   -7804    -3717    -3611    -7658    -7281    -5925    -8837   -10077 
  -10396   -15136   -19997   -22504   -23333   -18515   -11180    -8355 
   -6288    -2155    -1675    -4882    -6137    -6740   -10571   -13761 
  -12911   -13674   -18381   -19746   -15018   -10174    -9418   -10444 
   -8604    -4521    -2589    -3812    -7933   -13132   -14347   -13204 
  -17128   -22048   -18465   -12734   -13475   -13629    -8544    -3874 
   -1200     -517    -5347   -13543   -18554   -17253   -10589    -5571 
   -8046   -12694   -14370   -16482   -19116   -18019   -13950    -8333 
   -3153    -4692    -8776    -4796    -1609   -10967   -21012   -20565 
  -16125   -12251    -9188   -10736   -15174   -15649   -11294    -5964 
   -2490    -2381    -5449    -9360   -12152   -12787   -10481    -7830 
   -9601   -15588   -20082   -17577    -7947    -1347    -8351   -19537 
  -17444    -5981      537     1044    -2166   -10978   -19789   -20935 
  -16692   -12290   -11481   -17150   -23337   -20560   -10266     -542 
    4263     4155     2258     2809     4843     2767    -3852   -10423 
  -15965   -20038   -20175   -19953   -22774   -23313   -19537   -15711 
  -11368    -6334    -7042   -11659   -10160    -6694    -9513   -11360 
   -7132    -4299    -7994   -16190   -24605   -26210   -18580   -13238 
  -15121   -10593     3492    12954    12185     5235    -5865   -15295 
  -17551   -17712   -19668   -20355   -19778   -19921   -21141   -23292 
  -22900   -17126    -9297    -4070    -5354   -14067   -21408   -17111 
   -5530      403    -1432    -3257    -2666    -4590   -11379   -16393 
  -11637    -2188     1683     1293    -1452   -12453   -27346   -30520 
  -19699    -8680    -6342   -11200   -17301   -17015   -10697    -7214 
   -7541    -5856    -4664    -6205    -5516    -7916   -18701   -23645 
  -16372   -10111    -9643    -8928    -5283     1985     9163     7596 
   -1626    -9726   -14604   -17253   -19340   -23510   -25323   -18927 
  -10982   -12356   -18848   -18922   -13250    -7353     -382     3408 
   -4013   -12069    -5815     4035     3682     -236    -3423   -13058 
  -26676   -32341   -25400    -9077     4629       20   -19863   -33153 
  -23422     3095    20841    12626   -11303   -29265   -27279    -3345 
   29103    49123    45540    18247   -20918   -46372   -45057   -32017 
  -25388   -29860   -40899   -45094   -30682    -5841    11145    12326 
    -157   -16282   -27125   -35888   -41353   -33164   -12240    11335 
   30019    37335    32799    22432     5421   -18355   -37278   -44213 
  -36791   -14403     2708    -2963   -14449   -18585   -33874   -73287 
 -118552  -143376  -141710  -121537   -91558   -66266   -51588   -31340 
    4479    49378   101290   151352   168789   134747    74451    35607 
   43733    76500    83465    42880   -24240   -96502  -159849  -191940 
 -185950  -159644  -124380   -77395   -19992    39476    91577   122494 
  117454    78074    27446   -12761   -43067   -69125   -80065   -63182 
  -21336    28972    65885    79566    74812    54673    28220    17651 
   26249    25429    -3446   -38958   -41748    -2771    24306   -21649 
 -111628  -163749  -157813  -120379   -64678   -22443   -33173   -65098 
  -52965      919    52635    90660   118446   127877   117283    83174 
   19701   -49669   -87477   -86768   -69360   -49987   -26665    -5516 
   -3964   -20038   -30674   -29517   -27557   -21123    -3770    12973 
   17155     7109   -12123   -24999   -16332     6971    20016     8654 
  -14134   -27369   -28301   -29197   -37365   -46288   -47197   -39744 
  -19367    21267    62554    71764    53154    39455    44417    52056 
   37551    -5451   -58221  -101393  -129169  -140178  -130863   -98883 
  -49971     1328    38217    52852    55439    62706    78148    92090 
   89922    58367     -738   -62347   -95989   -96624   -86841   -83322 
  -77334   -54719   -18621    15375    32620    27746     8048   -18306 
  -43812   -48543   -19845    20860    39776    30269    15169    12496 
   14944     6172   -17713   -45226   -64073   -72909   -74775   -69778 
  -55243   -28999     4853    36772    57375    63701    59008    42093 
   13323   -13224   -26801   -34808   -48362   -65356   -70775   -54533 
  -28084   -12117    -9971    -7362     2683     9433     5128    -1451 
   -1495     4452    15596    31047    41885    34042     5562   -25010 
  -39598   -40045   -35441   -28185   -19913   -15923   -20414   -30360 
  -35201   -24876       -8    27461    45941    47059    23344   -16452 
  -44960   -47854   -39035   -33866   -29995   -24413   -22523   -21477 
  -14909   -10937   -16569   -20089    -7793    17066    40096    49000 
   34773    -1807   -37162   -43449   -22788    -1086     5737    -2317 
  -23395   -48180   -57146   -42195   -13656    12760    22222    12159 
   -2702   -10145    -9683    -5476    -5894   -18534   -35006   -34068 
  -15867    -9628   -28165   -50720   -56034   -37813    -3665    21014 
   15703    -3947    -7395     6743    18411    16896     2633   -14004 
  -18268   -13968   -16048   -21897   -21143   -19143   -23286   -24561 
  -15565    -5290    -1179    -1250    -7854   -22256   -32502   -29033 
  -16043     -981    10555    14809    12976     9678     4359    -8499 
  -25034   -32915   -28787   -19786   -12475    -8492    -6353    -5247 
   -6345    -8540    -7967    -4214        5     1767    -2983   -12069 
  -16953   -17570   -20031   -24775   -28780   -29354   -27194   -26649 
  -24235    -9224    14558    25537    11531   -13302   -23892   -13671 
   -1571    -3098   -11726   -19639   -30059   -39174   -34631   -16650 
    -353      876   -11284   -21045   -17257    -5911     3036     6959 
    5661     1636    -2378   -10662   -22921   -27346   -19573   -10860 
  -10505   -15464   -19296   -18306   -10635       12     4872      791 
   -6535   -12013   -14434   -12528    -7813    -4484    -4500    -8491 
  -14424   -18586   -18584   -13925   -12380   -17830   -16436     -193 
   19892    27518    11219   -21411   -44111   -40520   -21070    -6554 
   -4201    -8509   -13047   -10578     1162    12471    13305     1591 
  -17716   -30090   -25413   -17247   -22466   -32381   -32011   -23720 
  -12387     1541    12372    14766    10093     1823    -6399   -10693 
  -12546   -18346   -26805   -29531   -24799   -16505    -8056    -4310 
   -8542   -15919   -17147   -12276    -8793    -4279     5158     7798 
   -5921   -23225   -26801   -17425    -6428    -2944    -9705   -19268 
  -22528   -19720   -14520    -8864    -6358    -7345    -5582     2651 
   11978    11026    -3859   -21682   -32402   -35783   -33463   -28657 
  -25073   -19499    -9832    -2940    -2700    -4765    -5279    -3658 
    -769      515    -2941    -9868   -16025   -19656   -21289   -20314 
  -14646    -5371     1054    -2844   -18299   -34422   -37339   -26917 
  -12260      743     5567    -1244    -7873    -2902     3861     -700 
   -9919   -14353   -18999   -25375   -25558   -17489    -4549     6546 
    6166    -5007   -14968   -16659   -14674   -14825   -14778   -11036 
   -6448    -5992    -9757   -11838   -10053    -9437   -11368   -12028 
  -11712   -14972   -19489   -16630    -7635    -2897    -5788    -8100 
   -1335     7275     2317   -14000   -23548   -18030    -7354    -3766 
   -7881   -12536   -13998   -15083   -18002   -19849   -18895   -15938 
   -8726     2532    10467     8985    -1027   -14204   -25501   -32584 
  -33686   -27252   -15709    -4849      444    -1344    -5595    -4568 
    3383     9776     5169    -7042   -16379   -19824   -20949   -23066 
  -24804   -22905   -18346   -14045   -12344   -13231   -13231   -10457 
   -5915    -2407    -2474    -3832    -5059    -9599   -16190   -20025 
  -22002   -22449   -19241   -17007   -18852   -18608   -14067    -7662 
    2706    11985     7258    -8348   -18536   -18943   -16947   -17088 
  -18225   -16561   -10840    -6716    -9043   -12260    -7642     2820 
    6586    -3558   -17280   -19462   -11203    -4842    -5607   -10065 
  -14187   -16949   -20032   -22268   -18530    -9553    -2338      615 
    1066    -1867    -8333   -12924   -12775   -14229   -21332   -25774 
  -20403   -11441    -6369    -4097     -920     2745     1682    -6010 
  -14407   -17386   -14855   -13042   -16865   -21258   -20028   -15819 
  -12464    -8349    -1966     1479    -4329   -15947   -23535   -22432 
  -16015    -9838    -5925    -3194     -940     -584    -3848   -10111 
  -17046   -22065   -24125   -23762   -19226   -10127    -3392    -4207 
   -8392   -10659   -10629   -10210    -9830    -8541    -9231   -14470 
  -17988   -15074   -12286   -13545   -12035    -3808     4669     5360 
