Origin Time       2024/04/02 04:24:00
Lat.              40.133
Long.             141.712
Depth. (km)       71
Mag.              6.0
Station Code      IWT022
Station Lat.      40.1009
Station Long.     141.0528
Station Height(m) 296
Record Time       2024/04/02 04:24:51
Sampling Freq(Hz) 100Hz
Duration Time(s)  120
Dir.              U-D
Scale Factor      7845(gal)/8223790
Max. Acc. (gal)   19.902
Last Correction   2024/04/02 04:24:51
Memo.             
[...]
  -44317   -44317   -44324   -44329   -44325   -44320   -44319   -44323 
  -44325   -44325   -44323   -44320   -44317   -44323   -44329   -44329 
  -44324   -44319   -44319   -44321   -44325   -44329   -44325   -44320 
  -44324   -44329   -44328   -44323   -44321   -44321   -44323   -44327 
  -44327   -44323   -44319   -44319   -44321   -44324   -44329   -44327 
  -44317   -44315   -44319   -44323   -44327   -44324   -44316   -44315 
  -44323   -44328   -44327   -44327   -44323   -44321   -44323   -44324 
  -44325   -44324   -44323   -44323   -44324   -44325   -44324   -44323 
  -44323   -44321   -44321   -44324   -44323   -44319   -44320   -44324 
  -44324   -44324   -44323   -44319   -44319   -44320   -44324   -44328 
  -44325   -44320   -44321   -44324   -44325   -44327   -44324   -44320 
  -44321   -44325   -44329   -44329   -44323   -44316   -44315   -44319 
  -44324   -44327   -44327   -44323   -44320   -44324   -44325   -44324 
  -44320   -44317   -44320   -44324   -44325   -44325   -44321   -44319 
  -44319   -44321   -44327   -44328   -44320   -44315   -44319   -44325 
  -44329   -44328   -44321   -44317   -44319   -44323   -44327   -44327 
  -44324   -44321   -44319   -44320   -44324   -44325   -44321   -44317 
  -44319   -44324   -44324   -44320   -44317   -44320   -44321   -44321 
  -44323   -44323   -44320   -44323   -44327   -44327   -44324   -44324 
  -44321   -44320   -44324   -44327   -44327   -44323   -44316   -44316 
  -44323   -44328   -44328   -44324   -44319   -44320   -44328   -44327 
  -44321   -44321   -44320   -44317   -44320   -44325   -44327   -44323 
  -44320   -44321   -44324   -44327   -44323   -44317   -44317   -44321 
  -44325   -44327   -44321   -44316   -44319   -44327   -44328   -44325 
  -44324   -44316   -44315   -44323   -44331   -44332   -44324   -44315 
  -44315   -44321   -44327   -44324   -44321   -44320   -44321   -44323 
  -44324   -44325   -44324   -44321   -44321   -44324   -44325   -44325 
  -44321   -44319   -44321   -44327   -44329   -44325   -44319   -44315 
  -44317   -44325   -44331   -44325   -44317   -44317   -44323   -44328 
  -44328   -44324   -44320   -44316   -44320   -44325   -44325   -44325 
  -44321   -44319   -44321   -44325   -44328   -44325   -44320   -44317 
  -44319   -44324   -44328   -44327   -44323   -44317   -44319   -44327 
  -44327   -44321   -44321   -44321   -44319   -44321   -44323   -44317 
  -44317   -44321   -44325   -44328   -44324   -44317   -44316   -44319 
  -44324   -44327   -44325   -44320   -44317   -44321   -44327   -44328 
  -44327   -44321   -44315   -44320   -44328   -44328   -44324   -44323 
  -44320   -44319   -44324   -44325   -44321   -44319   -44317   -44320 
  -44324   -44323   -44320   -44321   -44321   -44324   -44328   -44324 
  -44317   -44316   -44320   -44325   -44328   -44327   -44319   -44316 
  -44320   -44325   -44327   -44325   -44321   -44319   -44319   -44320 
  -44323   -44319   -44307   -44292   -44269   -44235   -44174   -44084 
  -43968   -43825   -43659   -43486   -43314   -43162   -43054   -43015 
  -43066   -43220   -43468   -43777   -44111   -44429   -44685   -44822 
  -44815   -44691   -44550   -44525   -44660   -44860   -44996   -44998 
  -44876   -44682   -44325   -43640   -42680   -41689   -40792   -40049 
  -39687   -39823   -40238   -40903   -42079   -43517   -44520   -45037 
  -45774   -46834   -47503   -47569   -47240   -46417   -45300   -44371 
  -43702   -43507   -44123   -45357   -47304   -50194   -52780   -52915 
  -49767   -44780   -40732   -39228   -39094   -38958   -39626   -41257 
  -42036   -41264   -40451   -41072   -42110   -41837   -41889   -44419 
  -46809   -45782   -43553   -43289   -43752   -43584   -44439   -48031 
  -52714   -53068   -47649   -43633   -45748   -49869   -51205   -48901 
  -45052   -42523   -40539   -36616   -32383   -31048   -32590   -36359 
  -43298   -51329   -54099   -49287   -43870   -44969   -48477   -47151 
  -44609   -45781   -46440   -45694   -48470   -52159   -51648   -50886 
  -54075   -58110   -61110   -62619   -57929   -47602   -41492   -42747 
  -44186   -43764   -43163   -37089   -26410   -24961   -35144   -41393 
  -38674   -40703   -51992   -58688   -54757   -50074   -49763   -49358 
  -46684   -43468   -41748   -43335   -45964   -44085   -39272   -39538 
  -46172   -52240   -51883   -45315   -36775   -28854   -24254   -31594 
  -50492   -59715   -49106   -37341   -35503   -35514   -36838   -43182 
  -47017   -42989   -38163   -36668   -34160   -33119   -39834   -48757 
  -51873   -51896   -51505   -46163   -37165   -34357   -40138   -45825 
  -46130   -44845   -44386   -42422   -40101   -41474   -46718   -51455 
  -52512   -52027   -49604   -43136   -41183   -49647   -56057   -50666 
  -41469   -36015   -33157   -33081   -37108   -43379   -49555   -53415 
  -51568   -44032   -37540   -38902   -45017   -45883   -42552   -45187 
  -50048   -46276   -40089   -43289   -48895   -46392   -43627   -46645 
  -46811   -42309   -40161   -40513   -40348   -42221   -46863   -46395 
  -39168   -36157   -38438   -38002   -40699   -51385   -56016   -46732 
  -37415   -40103   -49644   -56766   -57520   -52767   -47113   -42587 
  -40686   -45685   -53192   -52679   -44217   -37758   -39345   -44883 
  -47898   -47480   -45087   -42360   -42782   -46638   -49459   -49377 
  -46688   -41112   -36504   -37022   -39167   -38638   -38658   -41655 
  -42993   -41764   -42596   -44170   -42904   -42172   -44975   -46981 
  -44014   -38330   -35753   -38245   -39677   -36899   -37390   -44628 
  -50741   -50176   -46494   -43163   -42082   -46375   -51304   -51233 
  -51223   -52053   -49702   -49414   -53361   -53711   -49586   -46183 
  -43519   -43079   -46527   -48649   -46839   -43610   -40427   -40105 
  -44197   -47090   -44798   -41670   -40656   -40869   -42997   -45742 
  -46664   -47353   -48540   -48018   -46793   -46178   -43347   -39563 
  -40289   -43545   -42664   -38327   -37304   -40301   -40370   -35660 
  -32907   -36385   -41567   -43038   -42639   -42515   -40942   -39826 
  -42395   -46604   -49582   -50345   -47721   -44959   -48431   -54162 
  -51640   -43885   -42078   -44018   -41319   -38033   -41331   -46287 
  -46021   -43961   -44371   -45414   -46894   -50170   -53287   -54364 
  -52879   -49017   -45993   -46334   -46546   -43669   -41328   -41908 
  -42596   -40890   -37713   -37565   -41843   -44726   -42705   -39842 
  -41357   -46055   -48135   -47170   -45380   -41511   -39129   -43159 
  -47769   -47113   -45828   -46642   -45829   -44932   -47545   -48586 
  -45161   -44238   -45701   -42205   -38279   -40483   -42726   -42974 
  -46739   -49088   -44416   -41550   -45004   -45902   -42828   -42765 
  -43816   -42369   -42415   -43216   -40971   -41116   -46074   -47233 
  -43120   -42367   -45219   -44528   -41565   -42294   -44631   -43524 
  -41150   -41501   -43233   -44432   -44853   -43970   -43796   -45652 
  -45751   -42988   -41670   -42292   -40684   -38407   -41466   -46676 
  -46992   -45245   -45584   -45885   -45125   -45438   -47160   -47599 
  -46381   -46275   -46776   -45725   -44760   -44845   -44289   -45142 
  -48763   -50048   -47868   -47035   -47443   -46476   -45635   -45972 
  -44714   -40379   -37162   -38889   -42037   -42498   -41854   -41951 
  -41858   -41129   -41373   -42904   -43727   -43768   -43746   -43119 
  -42984   -43977   -43900   -42313   -41650   -43291   -46422   -48593 
  -47792   -46095   -45894   -45122   -43945   -45693   -48127   -47785 
  -47294   -47985   -47227   -46197   -46255   -44774   -43792   -46091 
  -46923   -44155   -41968   -41737   -41928   -42144   -42234   -42196 
  -42974   -44982   -47934   -51061   -51795   -48941   -45003   -41381 
  -38807   -39741   -42607   -44234   -45495   -44825   -40856   -38658 
  -39637   -39988   -40251   -41598   -41968   -41651   -41584   -41073 
  -42287   -45843   -47576   -47441   -48709   -49651   -47467   -44049 
  -42476   -43123   -44568   -45597   -45573   -44545   -44174   -45524 
  -46271   -45076   -44159   -44065   -43895   -45119   -47514   -47737 
  -46311   -46714   -47919   -46684   -44020   -43414   -44481   -44232 
  -43430   -43517   -42392   -40011   -39471   -40942   -42466   -43991 
  -44679   -42601   -40775   -42849   -45076   -44730   -45497   -47453 
  -47945   -48320   -48034   -45611   -44329   -45233   -45775   -46359 
  -47603   -47829   -47088   -46407   -45424   -44622   -44275   -43193 
  -42115   -41958   -41446   -41528   -44028   -46650   -47417   -47451 
  -46904   -45682   -44437   -42851   -41675   -42545   -43980   -43537 
  -42720   -43605   -44404   -43641   -42481   -40988   -38838   -37724 
  -38029   -38207   -39505   -43395   -46445   -45773   -43112   -40933 
  -40698   -41979   -42534   -41883   -41557   -41728   -41577   -42147 
  -44477   -46926   -48296   -48924   -48231   -46602   -46330   -47372 
  -46815   -44474   -43617   -44883   -46479   -48494   -51223   -52999 
  -51822   -48915   -47274   -45472   -42495   -42547   -45538   -46309 
  -44552   -43492   -43248   -42323   -41588   -42084   -42684   -42606 
  -42337   -43008   -45175   -46967   -46732   -44766   -42084   -41142 
  -41964   -41142   -40211   -42854   -45797   -45405   -43700   -41762 
  -39429   -39398   -42130   -44057   -44842   -46720   -48363   -48401 
  -48396   -48594   -47895   -46228   -44856   -45183   -46155   -45991 
  -45289   -44734   -43137   -40144   -38164   -39641   -43505   -45812 
  -44868   -42863   -41191   -40230   -41199   -43248   -44940   -46576 
  -47070   -45451   -44740   -47106   -48060   -44764   -43610   -47605 
  -49909   -47159   -44019   -43892   -44548   -43969   -43441   -43166 
  -42807   -43085   -43329   -42781   -42408   -43389   -44124   -41758 
  -39229   -41281   -44069   -42376   -39864   -40699   -42981   -44585 
  -44632   -43455   -43606   -45597   -47491   -48169   -48034   -48466 
  -49322   -48864   -47109   -46236   -46793   -46157   -43484   -41917 
  -43055   -44041   -43017   -42508   -44032   -45407   -45675   -46730 
  -47780   -45752   -43438   -44786   -46498   -46822   -48172   -47808 
  -43094   -39464   -41029   -43565   -43854   -43671   -42400   -39285 
  -38333   -41667   -46008   -46804   -43231   -40689   -42634   -44649 
  -44429   -45079   -45598   -43519   -42313   -43799   -44219   -43013 
  -42839   -42871   -41993   -42880   -45836   -45982   -42592   -41802 
  -44844   -45428   -42776   -43086   -46494   -48135   -48230   -47865 
  -45916   -45450   -48845   -51509   -50680   -49061   -47279   -43760 
  -39845   -38751   -40602   -41937   -41620   -41832   -42781   -43198 
  -43178   -42738   -42088   -43162   -45804   -45704   -41238   -37268 
  -38443   -42874   -45808   -46291   -45014   -42556   -42377   -45592 
  -48346   -48429   -44983   -38873   -36894   -42057   -47245   -48331 
  -48230   -47572   -45858   -44728   -43880   -42581   -42633   -44037 
  -44957   -45916   -46631   -45266   -43397   -42969   -43418   -45262 
  -47849   -48416   -48042   -48934   -48465   -45743   -44964   -45874 
  -44929   -43838   -44130   -44639   -45986   -45976   -42059   -39251 
  -41161   -43047   -43094   -45058   -46669   -44127   -41723   -41501 
  -40505   -39825   -40444   -41049   -42184   -43294   -42391   -41018 
  -42803   -46342   -46795   -44674   -44617   -47187   -48424   -47439 
  -47748   -49341   -48744   -46561   -45863   -45431   -43044   -42063 
  -45220   -48455   -47731   -44250   -41118   -39482   -39756   -42479 
  -44791   -43281   -40169   -40394   -44078   -45877   -44540   -44427 
  -45154   -44806   -46040   -47719   -46323   -43912   -41530   -38101 
  -37883   -43225   -47692   -46897   -44941   -46361   -50118   -51349 
  -48028   -43568   -40139   -37851   -38430   -41914   -45731   -46924 
  -43808   -39803   -40690   -45006   -46657   -46489   -48007   -48732 
  -46974   -44961   -44007   -44718   -45723   -44250   -42481   -44618 
  -48867   -51139   -51232   -49630   -46229   -43402   -43313   -45501 
  -47880   -47178   -43483   -41532   -43228   -45806   -46596   -45279 
  -44186   -44587   -43783   -40637   -38464   -39474   -41817   -42842 
  -42333   -41706   -41742   -42105   -42439   -43556   -45912   -47336 
  -45634   -42628   -41328   -41138   -40360   -39847   -40811   -42423 
  -44055   -46280   -48092   -48316   -47987   -47680   -46634   -44578 
  -42457   -41835   -42634   -42908   -42687   -44452   -47482   -47812 
  -45535   -44776   -46876   -49438   -49825   -47050   -43636   -43224 
  -44369   -44205   -44239   -45230   -45613   -45192   -43525   -40884 
  -39406   -38727   -37135   -36069   -38437   -42781   -43472   -39563 
  -36109   -36852   -40981   -43983   -43322   -42726   -45189   -47360 
  -46660   -45929   -46904   -47919   -47796   -46589   -45611   -46130 
  -46728   -45141   -42808   -43393   -45517   -44442   -41396   -41393 
  -44023   -45219   -44964   -45952   -48034   -49948   -51548   -51571 
  -48999   -46554   -47690   -50753   -51626   -50380   -49015   -46919 
  -43486   -39920   -37372   -36080   -35220   -34616   -35764   -39525 
  -45459   -52105   -56565   -57190   -55975   -55005   -54159   -53704 
  -52566   -47979   -41798   -38704   -38514   -37237   -33783   -31133 
  -31109   -32371   -32837   -32206   -32567   -34993   -38294   -41335 
  -43552   -46214   -51556   -57524   -59273   -57169   -56041   -56246 
  -54197   -50182   -47413   -46357   -44528   -41467   -39965   -39816 
  -38296   -34940   -30634   -28339   -30597   -35212   -39690   -43760 
  -45913   -44211   -41590   -44277   -52394   -60255   -64596   -65186 
  -63371   -60644   -55675   -48940   -44963   -44405   -43456   -40929 
  -38198   -35518   -32795   -31394   -32648   -35938   -39037   -39004 
  -35457   -33628   -37813   -44051   -47713   -51132   -55026   -54364 
  -48261   -41326   -36385   -34060   -33498   -33212   -35595   -42313 
  -47765   -47621   -45122   -43505   -42001   -40020   -38437   -38686 
  -41759   -44990   -45095   -44649   -47054   -49927   -51803   -55123 
  -57543   -55692   -53530   -52756   -49345   -43794   -39679   -37438 
  -36734   -39050   -44578   -48385   -46458   -42689   -41616   -41824 
  -41250   -40824   -40683   -39637   -40266   -45752   -52618   -56332 
  -56629   -53990   -51771   -54136   -56816   -54498   -51044   -50391 
  -49752   -46549   -42912   -42385   -44811   -45245   -40699   -35691 
  -34372   -34025   -32985   -33459   -35212   -37507   -41351   -45222 
  -47243   -47389   -44267   -38658   -35249   -36059   -39285   -42350 
  -43372   -41960   -39401   -39120   -43008   -48131   -50793   -49777 
  -46759   -44641   -43669   -42723   -41697   -39772   -36410   -33744 
  -34554   -38720   -43919   -48867   -52756   -54989   -56428   -56914 
  -55917   -55082   -54298   -50584   -44906   -42588   -44464   -46761 
  -48362   -50124   -53172   -57572   -58634   -54280   -49805   -46063 
  -39510   -32807   -29065   -27225   -28684   -34712   -41134   -44446 
  -45971   -45119   -39645   -34916   -35888   -36105   -32448   -32242 
  -36549   -39667   -41944   -45381   -47665   -48469   -49048   -47098 
  -42020   -38267   -37732   -38429   -41077   -46051   -48933   -47077 
  -44343   -45675   -49511   -50002   -46093   -42267   -42213   -45320 
  -48635   -50765   -52770   -55067   -54588   -49940   -45955   -45470 
  -45195   -43779   -43522   -43731   -41816   -39846   -40668   -42303 
  -43235   -43849   -42491   -39027   -36748   -37447   -39958   -42627 
  -44998   -47903   -52411   -58392   -63039   -62991   -59317   -56415 
  -55109   -52451   -49238   -48856   -49383   -47270   -43622   -40198 
  -36780   -33002   -29110   -27040   -27822   -29398   -32057   -38020 
  -44354   -45783   -42210   -38253   -37524   -39765   -43031   -46577 
  -50242   -51884   -50089   -48697   -51432   -54828   -53584   -49326 
  -46410   -43066   -37789   -36089   -39491   -41958   -42124   -43806 
  -46430   -46916   -46738   -47930   -48292   -47317   -47218   -46957 
  -45265   -44158   -43912   -42267   -39999   -39947   -40848   -39725 
  -38283   -39933   -44054   -46745   -45260   -41890   -40740   -40848 
  -39440   -38261   -39893   -43791   -47738   -49199   -48425   -48429 
  -49114   -48559   -48138   -49543   -51826   -53897   -55051   -53808 
  -50376   -47299   -44428   -39901   -36286   -36261   -37390   -38209 
  -39372   -39279   -38689   -41315   -45250   -45129   -41624   -39464 
  -39055   -37781   -36499   -37463   -39599   -41450   -43945   -46897 
  -48624   -50232   -52716   -52601   -48517   -44809   -43316   -41170 
  -38402   -38007   -39024   -38356   -37197   -38052   -39621   -40711 
  -42260   -42939   -42090   -42535   -43340   -41508   -39896   -41087 
  -42961   -45303   -48284   -48959   -47605   -47430   -48057   -48450 
  -49634   -51273   -53138   -55625   -56354   -54048   -51317   -49373 
  -47136   -45088   -45127   -46750   -46666   -44528   -44151   -46801 
  -49377   -49697   -48563   -47449   -46958   -46036   -43729   -42736 
  -45013   -46263   -43733   -42604   -46666   -51171   -51138   -47772 
  -43545   -40324   -40116   -41438   -41643   -41108   -39833   -37660 
  -36860   -38280   -39927   -40360   -39420   -37682   -36549   -36526 
  -36880   -37169   -36981   -36695   -37673   -39321   -40501   -42927 
  -46413   -46715   -44022   -43590   -46286   -48512   -48725   -47260 
  -44902   -44536   -47352   -49396   -48244   -46538   -46326   -47027 
  -47884   -48421   -48217   -47649   -47710   -48745   -50515   -52574 
  -54090   -54734   -54391   -52936   -51725   -51794   -51703   -50472 
  -49270   -48674   -47710   -46099   -44258   -42453   -42211   -43510 
  -43113   -41092   -40355   -40261   -39194   -38105   -37840   -37349 
  -36502   -36354   -36028   -36090   -38943   -42144   -42151   -40853 
  -41393   -43811   -45864   -45694   -44089   -42500   -40124   -37303 
  -37573   -40775   -42326   -41388   -39553   -36545   -34346   -36282 
  -40274   -41526   -40001   -38668   -38261   -39036   -42612   -47606 
  -49597   -48601   -48340   -48914   -48938   -49172   -49580   -48982 
  -47773   -48016   -49719   -49840   -48034   -46822   -46431   -46792 
  -48020   -47569   -45395   -44894   -45652   -45662   -45954   -46365 
  -45719   -45999   -47925   -47960   -45330   -43849   -44243   -43892 
  -43264   -44008   -44791   -44285   -43480   -43281   -43179   -42745 
  -41870   -39866   -37253   -37247   -40682   -43285   -43586   -44111 
  -44186   -42881   -41890   -41231   -40967   -42816   -45449   -45631 
  -44602   -45199   -45959   -45886   -47213   -49534   -49924   -47996 
  -45501   -43573   -42838   -43538   -44135   -42828   -40973   -41148 
  -42557   -42709   -41858   -42277   -44366   -45854   -46245   -47819 
  -50295   -50962   -49203   -47044   -46973   -49314   -52286   -54178 
  -54418   -53434   -51379   -48492   -45717   -43233   -40946   -39703 
  -40015   -41415   -42965   -43352   -41928   -40086   -39515   -39785 
  -40147   -40806   -41146   -40571   -40080   -40671   -41864   -42741 
  -43848   -45334   -44583   -40675   -37211   -36844   -38395   -40066 
  -41274   -41835   -41476   -40720   -40948   -42934   -46188   -48905 
  -49314   -48555   -49050   -49697   -48266   -46384   -45777   -45495 
  -45262   -45281   -45470   -46087   -46187   -44617   -42377   -41635 
  -42655   -43151   -42681   -43586   -45489   -45435   -43557   -43136 
