Origin Time       2024/04/02 04:24:00
Lat.              40.133
Long.             141.712
Depth. (km)       71
Mag.              6.0
Station Code      IWT016
Station Lat.      39.6000
Station Long.     141.6790
Station Height(m) 198
Record Time       2024/04/02 04:24:51
Sampling Freq(Hz) 100Hz
Duration Time(s)  119
Dir.              N-S
Scale Factor      7845(gal)/8223790
Max. Acc. (gal)   119.412
Last Correction   2024/04/02 04:24:50
Memo.             
[...]
  -23107   -23122   -23121   -23107   -23116   -23125   -23117   -23110 
  -23120   -23125   -23109   -23106   -23132   -23125   -23095   -23112 
  -23134   -23116   -23103   -23114   -23124   -23126   -23112   -23105 
  -23124   -23120   -23112   -23124   -23114   -23107   -23128   -23116 
  -23101   -23126   -23126   -23112   -23125   -23120   -23106   -23124 
  -23116   -23106   -23126   -23116   -23102   -23125   -23117   -23109 
  -23132   -23114   -23102   -23130   -23110   -23105   -23143   -23113 
  -23090   -23134   -23128   -23098   -23121   -23121   -23107   -23125 
  -23120   -23113   -23124   -23110   -23102   -23117   -23120   -23116 
  -23112   -23117   -23130   -23116   -23106   -23122   -23114   -23113 
  -23129   -23110   -23106   -23133   -23112   -23099   -23136   -23120 
  -23093   -23128   -23125   -23103   -23126   -23113   -23099   -23129 
  -23114   -23102   -23130   -23118   -23106   -23126   -23120   -23107 
  -23121   -23121   -23113   -23116   -23113   -23120   -23118   -23103 
  -23116   -23125   -23113   -23120   -23121   -23112   -23122   -23122 
  -23107   -23109   -23114   -23117   -23122   -23112   -23112   -23130 
  -23122   -23109   -23122   -23120   -23116   -23116   -23098   -23112 
  -23128   -23101   -23110   -23136   -23106   -23109   -23134   -23114 
  -23113   -23124   -23109   -23110   -23118   -23113   -23118   -23126 
  -23109   -23113   -23133   -23120   -23113   -23116   -23105   -23114 
  -23116   -23112   -23124   -23113   -23110   -23130   -23110   -23106 
  -23132   -23117   -23107   -23121   -23113   -23117   -23121   -23099 
  -23107   -23128   -23114   -23109   -23117   -23113   -23122   -23120 
  -23098   -23124   -23133   -23093   -23114   -23136   -23101   -23120 
  -23136   -23098   -23113   -23137   -23107   -23109   -23129   -23109 
  -23107   -23117   -23106   -23125   -23128   -23099   -23110   -23126 
  -23116   -23117   -23117   -23114   -23122   -23114   -23103   -23121 
  -23122   -23105   -23117   -23121   -23105   -23116   -23121   -23112 
  -23122   -23125   -23113   -23113   -23114   -23117   -23116   -23110 
  -23124   -23120   -23099   -23122   -23130   -23102   -23120   -23124 
  -23095   -23122   -23133   -23102   -23116   -23124   -23103   -23122 
  -23125   -23103   -23121   -23124   -23103   -23122   -23129   -23109 
  -23114   -23120   -23114   -23120   -23114   -23109   -23117   -23120 
  -23118   -23116   -23112   -23124   -23125   -23109   -23116   -23120 
  -23110   -23122   -23124   -23106   -23117   -23118   -23109   -23124 
  -23114   -23102   -23134   -23132   -23099   -23113   -23124   -23110 
  -23118   -23116   -23103   -23126   -23122   -23097   -23120   -23132 
  -23107   -23116   -23122   -23112   -23118   -23110   -23110   -23128 
  -23109   -23103   -23129   -23120   -23105   -23121   -23118   -23110 
  -23124   -23121   -23113   -23122   -23113   -23112   -23122   -23112 
  -23122   -23139   -23117   -23122   -23147   -23137   -23139   -23152 
  -23139   -23126   -23106   -23076   -23085   -23086   -23053   -23047 
  -23047   -23040   -23060   -23071   -23070   -23121   -23195   -23206 
  -23175   -23133   -23048   -22952   -22860   -22721   -22596   -22561 
  -22585   -22669   -22813   -22925   -22881   -22790   -23048   -23533 
  -23625   -23436   -23233   -22829   -22604   -22578   -22169   -21887 
  -22050   -22380   -23391   -24196   -23106   -21760   -22570   -24595 
  -25685   -24827   -22527   -20885   -21062   -22330   -24001   -24406 
  -22114   -20479   -22665   -25222   -25824   -26185   -24799   -21524 
  -20491   -21817   -23009   -24004   -24306   -22426   -20105   -20953 
  -23595   -25232   -27724   -29405   -24769   -17281   -15607   -20223 
  -25798   -29266   -28043   -22430   -19626   -19404   -17292   -22540 
  -33751   -34527   -28351   -21520   -13022   -15263   -25979   -28146 
  -26484   -27229   -24784   -21046   -18200   -16287   -20395   -27132 
  -28996   -29416   -27784   -18041    -9892   -16051   -29490   -36919 
  -33556   -22566   -16976   -21984   -22512   -16341   -19333   -28938 
  -31870   -27369   -20883   -17113   -16285   -18135   -24441   -31533 
  -33412   -23009    -4915    -3316   -19279   -30726   -36097   -34933 
  -22661   -12656   -12425   -19666   -32201   -38394   -33087   -24757 
  -17355   -10110    -6016   -11776   -27052   -36004   -29006   -19467 
  -19263   -23452   -23195   -15880   -12768   -24301   -34388   -26319 
  -12784   -12634   -27940   -42387   -40359   -29841   -20515   -13431 
  -18057   -28462   -27224   -22345   -21278   -16322   -11616   -12492 
  -19140   -33578   -40400   -25159   -10536   -16228   -25918   -31519 
  -37451   -33574   -23259   -19873   -15441    -9417   -14867   -24553 
  -29964   -33779   -27441   -13216   -10042   -19437   -30960   -35295 
  -27357   -15195   -10123   -15272   -24470   -30434   -33432   -30726 
  -21637   -17971   -20719   -23614   -33210   -39128   -23556    -7435 
   -8089   -10736   -15730   -26304   -29018   -28318   -31598   -29338 
  -25227   -26616   -24586   -19440   -20383   -24409   -24683   -19665 
  -15855   -21188   -27882   -26168   -23441   -27049   -29932   -25042 
  -17892   -15514   -17590   -20969   -22804   -26685   -31954   -27425 
  -21072   -24105   -21358   -11843   -11934   -20908   -34703   -44639 
  -36495   -21068   -14350   -11551   -15226   -29023   -33102   -21162 
  -13676   -17567   -26400   -32127   -21555    -5925   -11646   -27311 
  -31243   -30970   -29853   -24792   -25020   -27448   -21874   -16999 
  -22111   -26831   -20866   -15556   -19615   -25633   -31440   -29682 
  -16312   -11547   -17443   -17466   -19820   -29486   -32562   -29990 
  -26653   -19683   -18069   -24898   -26619   -23440   -24287   -22553 
  -12228    -6002   -15444   -31209   -38335   -34083   -23962   -15527 
  -15003   -19561   -22330   -26140   -30900   -27488   -20983   -20754 
  -21883   -24136   -29000   -28626   -25263   -24318   -19951   -15102 
  -18125   -22979   -25336   -27398   -23041   -16056   -20717   -30292 
  -34284   -36138   -29311   -14197   -11155   -19259   -22118   -22500 
  -26619   -31919   -35711   -31185   -15128    -2613    -8993   -25173 
  -34165   -34145   -27152   -15641   -12020   -19877   -25058   -26229 
  -33651   -34570   -18203    -6740   -12618   -21888   -26781   -26511 
  -23230   -23701   -23469   -18175   -18350   -24834   -25861   -19966 
  -16012   -20324   -27095   -28236   -25436   -21736   -21475   -27823 
  -32535   -27820   -17695   -11507   -15526   -27993   -39347   -38705 
  -26356   -15735   -13702   -14138   -14941   -20572   -29968   -34138 
  -28575   -21350   -20287   -23274   -24813   -22549   -18489   -16660 
  -19175   -23569   -26661   -28633   -28425   -24819   -21238   -20007 
  -20318   -20456   -17658   -15183   -18293   -23139   -26130   -27068 
  -24282   -22181   -25112   -28259   -27534   -25393   -25658   -27519 
  -25369   -16943    -9039    -9891   -18071   -25834   -29512   -30445 
  -30804   -30096   -23494   -11306    -5931   -13783   -24613   -29971 
  -28775   -22118   -19101   -24150   -29421   -32248   -32235   -27568 
  -22720   -18585   -15884   -22212   -33724   -34886   -22052    -9876 
  -12159   -24915   -34649   -34306   -28215   -24322   -22365   -18401 
  -15086   -16144   -19769   -23845   -29180   -33474   -32142   -27256 
  -22222   -16636   -15159   -19261   -21371   -22212   -23475   -19610 
  -18261   -26959   -33134   -29250   -21477   -15977   -17238   -21084 
  -20931   -20467   -22513   -25957   -29535   -29324   -26307   -24669 
  -23295   -22747   -23566   -18543   -11773   -16420   -22881   -22870 
  -27503   -30827   -24780   -20089   -18704   -19359   -26021   -32304 
  -31652   -25675   -17193   -10868    -9726   -11693   -15203   -22412 
  -33466   -39638   -33220   -23402   -21837   -23244   -23112   -25278 
  -25731   -21234   -16237   -13582   -17443   -28054   -33640   -28408 
  -23274   -23514   -18843   -10114   -14062   -30397   -40432   -37320 
  -27554   -15641    -6556    -7550   -18472   -32412   -41721   -37315 
  -20051    -8482   -13845   -24929   -31468   -34200   -30227   -18301 
   -6862    -2650    -8347   -24295   -42118   -49265   -42120   -27097 
  -12954    -7092   -12683   -26496   -37029   -30288   -11596    -2957 
  -10061   -19631   -24397   -28471   -33030   -32827   -28537   -23572 
  -17258   -14908   -20368   -26117   -27368   -25691   -23176   -22721 
  -24378   -26673   -29463   -27831   -18576   -10818   -10312   -14017 
  -24229   -34850   -30380   -16044    -9780   -17532   -33091   -41224 
  -35255   -27315   -23166   -18932   -17211   -18955   -22516   -28167 
  -29736   -24210   -21721   -25168   -23938   -18675   -20101   -25856 
  -26913   -21297   -12961   -11997   -23623   -35465   -33835   -25292 
  -23178   -23272   -18559   -16807   -20601   -24818   -30067   -30474 
  -21024   -14141   -16152   -19261   -23494   -30311   -33301   -32676 
  -29812   -19700    -9733   -11480   -19631   -26365   -27656   -19996 
  -12814   -14758   -17031   -16245   -20459   -28485   -31851   -28954 
  -26276   -27024   -27943   -28645   -27764   -22651   -19344   -20862 
  -21049   -19938   -19830   -18962   -21521   -28143   -28587   -22981 
  -22750   -25537   -19859   -11045   -12798   -22854   -29875   -29569 
  -25096   -22839   -25623   -29106   -29147   -27920   -28787   -28908 
  -25023   -20619   -17361   -13919   -13339   -15932   -18283   -23353 
  -34966   -44234   -38889   -24858   -14304    -8444   -10241   -20332 
  -27989   -26200   -19506   -17182   -18289   -17211   -20856   -29255 
  -32283   -32148   -30437   -23846   -17323   -14519   -19379   -33381 
  -39229   -28102   -16657   -12469   -12766   -20695   -27411   -23346 
  -19260   -18866   -15831   -16290   -21504   -24301   -27988   -31849 
  -27494   -20272   -18975   -21840   -27918   -34129   -32676   -24771 
  -17199   -15255   -21000   -26874   -25849   -20532   -15799   -15580 
  -16949   -15165   -18181   -28883   -34638   -32223   -27842   -23175 
  -21733   -24402   -26678   -29002   -29786   -23885   -16646   -16102 
  -18744   -19683   -22590   -29046   -30948   -24201   -17620   -17486 
  -21212   -25500   -25315   -22648   -25396   -26025   -18773   -16899 
  -22808   -25596   -26605   -29531   -30009   -27847   -24617   -20043 
  -18075   -19564   -20721   -21359   -21104   -18828   -16390   -16973 
  -24787   -35675   -35040   -22508   -13012   -12042   -17712   -24594 
  -24336   -23156   -28541   -30736   -27286   -27037   -27441   -23534 
  -20817   -21548   -20515   -18141   -18308   -20717   -25157   -30060 
  -30651   -24256   -17205   -21304   -31828   -34966   -32452   -25461 
  -13216    -8721   -13548   -16140   -20780   -31104   -34524   -28128 
  -23484   -24727   -25249   -19627   -12232   -13922   -24821   -30156 
  -22712   -13072   -11473   -16605   -21886   -22443   -20671   -20910 
  -18269   -12595   -15361   -24605   -31058   -34812   -32044   -28505 
  -36711   -42774   -37485   -34966   -32437   -22393   -16694   -17631 
  -16459   -17104   -19426   -12430    -3194    -7668   -20052   -28020 
  -30569   -25273   -12698    -7782   -17266   -28405   -34418   -37189 
  -33119   -25662   -25137   -27850   -24904   -19475   -16860   -18499 
  -24999   -29376   -25536   -18439   -12614   -11489   -15912   -18576 
  -20065   -25528   -30655   -32148   -28671   -20957   -18130   -24665 
  -31918   -30480   -24274   -23113   -25670   -26134   -23492   -19342 
  -19905   -25108   -23784   -16198   -12417   -13026   -16480   -21844 
  -24756   -26701   -27912   -24189   -21523   -21805   -18684   -20858 
  -30636   -32721   -28502   -23831   -15336   -14455   -25038   -29425 
  -27697   -30492   -29732   -20016   -13026   -17799   -28979   -34699 
  -30287   -21089   -16718   -21649   -27808   -28393   -27004   -23708 
  -18106   -17220   -20418   -20736   -20682   -22805   -21878   -19057 
  -20825   -23244   -21026   -21382   -27171   -29717   -27513   -24200 
  -20432   -20501   -22449   -17320   -13154   -21897   -31363   -28737 
  -22906   -22489   -22765   -18777   -14218   -15673   -23760   -32563 
  -36343   -36198   -33405   -26534   -22223   -23514   -22859   -19831 
  -18808   -22191   -27270   -24671   -17288   -14299   -14111   -19662 
  -31426   -34045   -24602   -18612   -20838   -26083   -32363   -30966 
  -15529     -903     2396     3009     1058    -9404   -20421   -23981 
  -24714   -27805   -30115   -28235   -22901   -17586   -21676   -35089 
  -41292   -38265   -38434   -39066   -33691   -27711   -24283   -21223 
  -18673   -17810   -17068   -13316    -9863   -10855    -9248    -2810 
    -912    -3586    -6443   -13714   -27564   -45061   -60162   -66063 
  -65327   -61954   -54603   -50075   -56529   -67629   -71358   -61410 
  -40223   -18061     -361    16375    26929    18443    -3032   -16966 
  -15921    -1377    22773    38114    29254     4344   -22886   -43127 
  -49701   -48541   -48930   -46334   -34005   -21803   -23056   -27396 
  -20861   -15151   -19884   -29829   -45652   -59670   -52120   -21944 
   13053    37920    45839    32192    -4672   -49592   -77033   -80489 
  -72701   -65394   -65075   -68268   -60257   -34846     -294    33609 
   55825    57034    40940    19113    -1888   -22504   -40973   -46672 
  -35321   -24075   -31792   -55213   -80458  -100831  -106276   -82150 
  -37717    -2849     6602    -3867   -21244   -35482   -40255   -31581 
  -14068     3940    23097    42407    47343    33178    17992    14179 
   18532    29138    35027    10716   -43690   -95202  -128100  -148297 
 -146649  -113154   -65693   -29419    -9617     1733     9701    16389 
   24629    30223    27542    23053    21702    14179    -7481   -33804 
  -45265   -34936   -12216    11384    20871     3141   -32310   -63759 
  -81664   -87995   -88287   -87195   -84630   -76157   -54469   -18061 
   19770    44969    52726    36926     2512   -26869   -41994   -51881 
  -52213   -32138       33    22523    18160   -12661   -47402   -62842 
  -57609   -40215   -17266    -3063    -7326   -16389   -18782   -22756 
  -28057   -24984   -20679   -23518   -25983   -25695   -24960   -17879 
  -11337   -22747   -43405   -48058   -33737   -16174    -6852   -13059 
  -36285   -59020   -60960   -47233   -31976   -14682     4205    14509 
   12051     1443   -11885   -23676   -32096   -36188   -31530   -19068 
  -14179   -27079   -46974   -60366   -61250   -45252   -18728     1414 
    8571     8461     2995    -6875   -11065    -8253   -14006   -30345 
  -40263   -36277   -27645   -27689   -38697   -49118   -50962   -44221 
  -29282   -11604     4676    23629    38361    30568    -1918   -39255 
  -58841   -55883   -42107   -24541    -5374     5163    -1571   -20156 
  -38989   -51772   -55452   -49901   -43087   -41310   -43429   -49701 
  -56120   -51379   -31861    -5354    12780     8827   -12737   -35973 
  -48400   -43708   -26277    -6141     8982    12210     1966   -16368 
  -35837   -48496   -49428   -41160   -28871   -17061    -6988     2069 
    3711    -4487   -10150    -8071    -5763    -5466    -6023   -11124 
  -23614   -36620   -42160   -42439   -36220   -20749    -7335    -2947 
   -5084   -17745   -37774   -50446   -48197   -32344   -12301    -3500 
   -8004   -15118   -21721   -27859   -30083   -29162   -25555   -19870 
  -19330   -24449   -26302   -23548   -19777   -13895   -10453   -19602 
  -36148   -42279   -36313   -33123   -36653   -38931   -39739   -43237 
  -44971   -38275   -23890    -7279     5283     5772   -12317   -40548 
  -54193   -41766   -21527   -10910    -5328        9     -947   -10650 
  -25450   -39571   -45658   -42311   -34252   -24240   -15654   -13451 
  -15005   -12604    -7051    -7252   -15368   -22357   -22798   -22701 
  -27315   -34275   -37648   -31742   -18901    -8835    -6691   -11975 
  -20966   -27067   -29065   -29721   -28178   -26643   -26858   -22272 
  -15024   -15511   -20943   -22852   -20960   -20505   -25787   -33813 
  -39934   -40366   -30276   -18936   -21304   -30006   -31193   -28570 
  -27864   -25398   -20065   -16075   -15838   -21119   -30843   -34231 
  -25733   -17373   -15850   -13575    -8961    -5925    -5169    -7499 
  -10467   -13898   -26852   -48163   -60858   -56296   -41021   -24830 
  -12060     -294     6706     -328   -14164   -21211   -24086   -27145 
  -27992   -29197   -34204   -39492   -38925   -32201   -23777   -14206 
   -7098   -10210   -17505   -19565   -20881   -22100   -17529   -13305 
  -16629   -24403   -34911   -46187   -49670   -41968   -29826   -21054 
  -18778   -21311   -23855   -22345   -19507   -20868   -24136   -24510 
  -22370   -18960   -16233   -17227   -21097   -24075   -24960   -26091 
  -27650   -27256   -27936   -34435   -41797   -38881   -21712      -81 
   10716     5656    -8251   -21914   -30230   -33675   -33035   -28225 
  -23264   -18327   -10832    -8784   -18844   -33174   -40852   -36228 
  -22002   -10050    -8799   -17266   -32157   -46735   -51607   -43449 
  -25130    -6365    -1443   -11357   -22464   -24615   -17820   -11896 
  -15317   -19785   -15529    -9721   -11269   -18700   -27727   -34743 
  -39787   -43151   -36863   -20954   -10665    -9745   -10693   -15687 
  -25921   -33548   -34744   -28971   -16291    -4241    -2909   -13824 
  -28486   -38003   -40663   -36387   -25011   -11834    -3603    -4306 
  -16839   -36019   -49632   -54807   -53028   -40454   -23882   -17987 
  -21624   -23307   -19734   -15877   -15946   -17339   -15915   -13759 
  -13802   -16718   -25222   -36917   -40324   -31507   -21267   -17447 
  -17537   -19606   -21770   -19171   -14060   -15626   -26994   -40447 
  -44706   -36796   -23870   -14091   -10524   -11156   -14106   -19724 
  -24949   -23345   -14827   -10034   -16178   -26532   -32063   -28879 
  -20655   -17354   -16599    -9819    -5728   -12333   -21543   -28624 
  -33652   -35031   -36358   -37449   -32420   -25783   -23521   -20973 
  -18022   -21447   -28807   -30522   -22654   -11227    -6914   -12804 
  -22634   -29690   -30360   -27240   -27442   -31234   -30726   -22918 
  -17909   -24526   -32520   -29886   -23317   -20440   -18512   -16830 
  -16467   -15901   -16958   -24104   -33363   -35210   -31828   -28991 
  -22747   -16582   -18746   -21874   -19785   -19587   -23938   -29598 
  -32721   -27186   -15793    -9998   -12185   -16648   -20106   -22231 
  -22997   -20537   -15720   -14293   -19144   -28209   -35070   -33438 
  -27751   -25186   -24116   -23612   -26160   -29782   -30689   -26828 
  -18968   -12519   -11399   -14091   -19915   -27199   -27993   -19678 
  -11163    -8263    -9780   -16896   -28165   -34149   -31691   -29027 
  -29637   -29311   -26269   -20441   -15028   -17906   -27880   -33377 
  -29157   -20283   -13153   -11060   -15418   -23816   -29378   -29107 
  -26293   -23128   -20205   -20460   -26901   -36505   -40321   -35630 
  -28827   -22692   -18488   -19203   -19329   -15955   -18319   -27400 
  -32331   -27873   -18058   -10494    -9586   -14817   -23888   -30541 
  -29349   -24494   -21230   -17806   -14505   -15978   -22100   -29849 
  -38125   -42223   -36753   -25864   -17895   -14832   -14418   -15137 
  -17004   -20067   -21263   -18922   -18912   -24933   -32402   -39182 
  -44131   -41342   -32146   -22642   -12718    -6489   -10238   -18616 
  -23623   -24861   -24489   -22879   -21420   -23249   -26438   -26169 
