Origin Time       2024/04/02 04:24:00
Lat.              40.133
Long.             141.712
Depth. (km)       71
Mag.              6.0
Station Code      IWT010
Station Lat.      38.9346
Station Long.     141.1264
Station Height(m) 31
Record Time       2024/04/02 04:25:00
Sampling Freq(Hz) 100Hz
Duration Time(s)  114
Dir.              U-D
Scale Factor      7845(gal)/8223790
Max. Acc. (gal)   7.991
Last Correction   2024/04/02 04:24:59
Memo.             
[...]
  -39073   -38703   -37747   -36971   -36682   -37318   -38159   -38225 
  -37991   -38237   -38708   -38588   -37978   -37431   -36366   -35122 
  -35228   -36369   -37485   -37964   -37760   -37966   -38234   -37978 
  -38665   -40035   -40419   -39781   -38317   -36440   -35455   -35949 
  -37287   -38618   -39374   -39105   -37863   -36564   -36009   -35938 
  -36150   -37025   -38013   -38229   -37752   -37098   -37022   -37631 
  -37841   -37401   -36961   -36656   -36745   -37119   -37285   -37562 
  -37551   -36819   -36795   -38165   -39715   -40080   -39166   -38439 
  -38383   -38317   -38462   -38210   -36844   -36121   -36931   -37758 
  -37782   -37318   -36763   -36316   -36377   -37112   -37698   -38098 
  -38568   -38281   -37423   -37065   -37403   -37805   -37758   -37665 
  -37816   -37800   -37879   -38627   -39104   -38464   -37864   -38053 
  -38585   -39175   -39175   -38300   -37594   -37519   -37041   -36069 
  -36167   -37384   -37921   -37550   -37354   -37557   -38084   -38480 
  -38215   -37793   -37520   -37223   -36988   -37285   -38315   -38736 
  -37744   -36551   -35920   -35814   -36364   -37206   -37759   -37991 
  -38117   -38322   -38766   -39303   -39233   -38265   -37320   -36944 
  -36752   -36953   -37862   -38682   -38445   -37358   -36547   -36760 
  -37467   -37268   -36501   -37206   -38843   -39213   -38516   -37816 
  -37017   -36240   -36154   -36532   -36663   -36888   -37490   -37654 
  -37091   -36587   -36792   -37592   -38345   -38345   -37314   -36416 
  -37304   -38961   -39241   -38817   -39145   -39509   -39098   -38543 
  -38180   -37809   -37822   -38160   -38191   -38353   -38848   -38831 
  -38469   -38184   -37670   -37343   -37382   -37034   -36167   -35437 
  -35507   -36007   -36219   -36680   -37547   -38075   -38430   -38630 
  -38083   -37254   -36968   -37291   -37960   -38557   -38601   -37891 
  -37052   -37115   -37862   -38137   -37554   -37011   -37354   -38011 
  -38322   -38074   -37120   -36693   -37504   -37860   -37089   -36788 
  -37596   -38264   -38103   -37847   -37856   -37794   -37719   -37601 
  -37278   -37412   -38213   -38668   -38254   -37278   -36474   -36629 
  -37323   -37750   -37994   -38036   -37845   -37993   -38443   -38392 
  -37669   -36988   -36829   -37115   -37686   -38119   -37972   -37548 
  -37405   -37713   -38391   -38767   -38244   -37478   -37180   -37049 
  -37033   -37304   -37184   -36652   -36780   -37308   -37207   -36756 
  -36682   -37185   -38090   -39093   -39553   -38612   -37064   -36949 
  -38308   -39183   -38581   -37689   -37741   -38446   -39202   -39426 
  -38484   -36934   -36134   -36429   -36990   -37392   -37813   -37536 
  -36186   -35239   -35556   -36344   -36976   -37376   -37655   -37690 
  -37289   -37450   -38732   -39617   -39309   -38847   -38874   -38955 
  -38435   -37646   -37412   -37530   -37678   -37936   -38163   -38500 
  -38850   -38751   -38500   -38133   -37316   -36672   -36312   -35856 
  -35861   -36394   -36751   -36769   -36969   -37619   -38061   -38003 
  -38016   -38145   -37928   -37417   -37222   -37501   -37860   -38315 
  -38530   -37821   -37057   -37234   -37756   -38168   -38423   -38057 
  -37273   -37099   -37770   -38435   -38383   -37457   -36451   -36861 
  -38476   -39252   -38562   -37818   -37566   -37019   -36397   -36556 
  -37130   -37322   -37291   -37118   -36630   -36794   -37901   -38441 
  -37924   -37579   -38132   -38581   -38052   -37531   -37785   -38236 
  -38350   -38075   -37820   -37659   -37169   -36948   -37640   -38622 
  -39221   -39004   -37945   -37062   -36975   -37216   -37440   -37732 
  -38149   -38404   -38119   -37461   -36969   -36792   -36460   -35999 
  -36440   -37555   -37640   -36806   -36640   -37362   -38065   -38200 
  -37986   -37862   -37916   -38083   -38179   -38026   -37817   -37821 
  -37855   -37597   -37469   -37917   -38489   -38718   -38709   -38738 
  -38547   -37663   -36732   -36566   -36373   -35808   -36205   -37579 
  -38515   -38854   -38880   -38330   -37758   -37968   -38367   -37870 
  -36859   -36590   -36821   -36737   -37079   -38061   -38431   -38036 
  -37875   -38011   -37601   -37066   -37732   -38880   -39021   -38591 
  -38136   -37295   -36408   -36194   -36686   -37625   -38481   -38495 
  -37663   -36715   -36148   -35795   -35606   -36335   -38146   -39590 
  -39249   -37597   -36288   -36030   -36451   -37216   -38047   -38481 
  -38175   -37509   -37326   -37727   -38033   -38223   -39054   -40128 
  -40174   -39237   -38113   -37308   -37260   -37638   -37814   -37902 
  -38180   -38583   -38341   -37019   -35841   -35700   -36005   -36356 
  -36855   -37511   -38171   -38422   -38372   -38497   -38539   -38196 
  -37543   -36764   -36533   -36961   -37328   -37351   -37134   -37088 
  -37551   -38221   -38831   -39172   -38624   -37116   -36027   -36211 
  -36987   -37956   -38659   -38511   -38304   -38804   -39317   -39066 
  -38192   -37127   -36227   -35914   -36057   -36024   -35883   -36117 
  -36745   -37489   -38194   -38943   -39101   -38071   -37264   -37600 
  -37940   -37997   -38276   -38624   -38896   -38746   -37872   -36988 
  -37010   -37771   -38246   -38145   -38053   -38017   -37789   -37440 
  -36984   -36639   -36838   -37380   -37897   -38605   -39054   -38311 
  -36917   -36089   -36094   -36671   -37350   -37636   -37608   -37481 
  -37257   -37030   -37054   -37480   -38206   -39031   -39131   -37845 
  -36294   -36092   -37538   -39276   -39715   -39186   -38724   -38692 
  -39324   -39626   -38435   -36799   -36215   -36737   -37260   -36914 
  -36316   -35996   -35905   -36497   -37546   -38084   -37747   -36798 
  -35988   -35799   -35943   -36354   -37120   -37827   -38249   -38686 
  -39239   -39658   -39657   -39051   -38321   -38125   -38033   -37585 
  -37292   -37463   -37652   -37415   -37156   -37523   -38145   -38280 
  -37841   -37295   -37301   -38002   -38515   -37947   -36910   -36748 
  -37484   -38241   -38276   -37519   -37100   -37611   -38391   -38905 
  -38948   -38916   -39078   -39054   -38902   -38183   -36585   -35671 
  -35997   -36396   -36757   -37458   -38281   -38742   -38379   -37401 
  -36213   -35334   -35634   -36578   -36899   -37123   -38060   -38970 
  -38979   -38371   -37899   -37781   -38082   -38697   -38616   -37439 
  -36652   -37111   -37701   -37759   -37701   -37740   -37968   -38415 
  -38641   -38037   -37116   -37019   -37064   -36275   -35811   -36513 
  -37701   -38650   -38862   -38263   -37250   -36462   -36391   -36620 
  -36564   -36369   -36320   -36722   -37474   -37770   -37621   -37764 
  -38202   -38831   -39664   -39965   -39225   -38460   -38557   -38680 
  -38311   -37928   -37210   -36320   -36443   -37571   -38712   -38905 
  -37990   -36998   -36645   -36834   -37134   -37266   -37552   -37825 
  -37578   -37126   -36720   -36529   -37185   -38399   -38828   -38149 
  -37729   -38489   -39287   -38770   -37428   -36310   -35698   -35922 
  -36942   -37737   -37825   -37469   -37058   -37200   -37783   -38063 
  -37849   -37446   -37373   -37910   -38472   -38361   -37943   -38024 
  -38391   -38426   -38113   -37725   -37528   -37265   -36786   -36698 
  -37158   -37821   -38227   -38001   -37613   -37701   -38488   -39463 
  -39434   -38445   -37561   -37303   -37656   -37859   -37449   -37127 
  -37119   -37029   -36749   -36428   -36713   -37868   -38718   -38186 
  -37003   -36807   -37841   -38658   -38403   -37621   -37168   -37682 
  -38684   -38983   -38593   -38025   -37249   -36651   -36806   -37374 
  -37554   -37309   -36907   -36552   -37100   -38511   -39236   -38603 
  -37447   -36945   -37397   -37949   -37690   -36796   -36478   -37350 
  -38669   -39407   -39212   -38557   -37897   -37261   -36775   -36703 
  -37041   -37535   -37862   -37789   -37709   -38102   -38426   -37723 
  -36139   -35155   -35598   -36902   -38267   -38642   -37694   -37008 
  -37725   -38666   -38615   -38248   -38169   -37970   -37955   -38411 
  -38681   -38329   -37397   -36624   -36744   -37408   -38244   -38915 
  -38561   -37215   -36085   -35999   -36652   -37254   -37403   -37426 
  -37716   -37952   -38052   -38439   -38678   -38194   -37357   -36887 
  -37220   -37561   -36909   -36109   -36309   -37270   -38241   -38851 
  -39098   -38746   -37908   -37401   -37633   -38260   -38430   -37737 
  -36968   -36917   -37463   -37723   -37134   -36409   -36177   -36405 
  -37314   -38319   -38325   -37764   -37631   -38032   -38411   -38268 
  -37936   -37638   -37297   -37246   -37304   -37150   -37157   -37369 
  -37206   -36994   -37675   -38475   -38399   -38296   -38376   -37833 
  -37255   -37412   -37748   -38025   -38504   -38923   -38871   -38117 
  -37075   -36702   -37374   -38678   -39692   -39692   -38767   -37574 
  -36853   -36705   -36634   -36456   -36393   -36400   -36321   -36470 
  -36863   -37119   -37453   -38095   -38639   -38780   -38904   -39154 
  -38877   -38273   -38245   -38335   -37947   -37794   -38091   -38146 
  -38090   -38462   -38468   -37138   -35631   -35658   -36838   -37717 
  -37882   -37632   -37053   -36613   -36927   -37698   -38190   -37901 
  -36884   -36073   -36499   -37763   -38325   -38001   -38007   -38438 
  -38196   -37133   -36549   -36983   -37384   -37369   -37409   -37292 
  -37006   -37393   -38368   -38508   -37489   -36737   -36732   -36841 
  -37320   -38125   -38483   -38426   -38306   -38238   -38229   -38130 
  -37793   -37179   -36867   -37272   -37743   -37937   -38182   -38557 
  -38946   -39243   -39081   -38171   -37477   -37887   -38422   -38099 
  -37420   -37106   -37044   -37017   -36998   -36718   -36931   -38092 
  -38672   -38560   -38873   -38826   -37733   -36652   -36900   -38202 
  -38553   -37470   -36667   -36742   -36788   -36477   -36396   -36913 
  -37416   -37490   -37790   -38352   -38429   -37947   -37204   -36799 
  -37203   -37771   -37805   -37547   -37503   -37624   -37704   -37783 
  -37667   -37336   -37304   -37989   -39025   -39413   -38881   -38082 
  -37578   -37719   -38013   -37559   -37062   -37532   -38226   -38296 
  -38137   -37883   -36886   -35789   -36126   -37408   -38071   -37694 
  -36622   -35791   -36236   -37731   -38975   -38886   -37806   -36904 
  -36622   -36896   -37496   -37916   -37710   -36898   -36381   -36883 
  -37665   -37818   -37766   -38352   -39225   -39445   -39029   -38184 
  -36903   -35814   -35379   -35746   -36810   -37689   -37890   -37459 
  -36745   -36490   -36499   -36441   -36687   -37038   -37369   -37868 
  -38118   -37828   -37440   -37407   -37378   -37289   -38040   -39064 
  -38925   -38171   -37866   -37696   -37029   -36463   -36872   -37701 
  -38410   -39043   -39131   -38762   -38592   -38439   -37876   -37342 
  -37424   -37374   -36647   -36460   -37206   -37912   -38226   -38217 
  -38238   -38639   -38959   -38562   -37346   -36208   -36266   -37107 
  -37897   -38315   -37843   -37076   -37417   -38767   -39742   -39380 
  -38522   -38587   -39455   -40420   -40671   -39553   -38263   -38234 
  -38925   -39158   -38614   -37936   -37827   -37989   -37824   -37408 
  -37142   -37137   -36906   -36385   -36423   -37146   -37902   -38383 
  -38550   -38611   -38650   -38449   -38097   -37967   -38126   -38435 
  -38902   -39208   -38807   -37957   -37361   -37158   -37235   -37106 
  -36200   -35345   -35664   -36651   -37196   -36981   -36605   -37069 
  -38376   -39186   -38907   -38242   -37677   -37343   -37201   -37077 
  -37172   -37731   -38288   -37855   -36562   -35608   -35167   -35113 
  -35667   -36115   -36163   -36930   -38735   -40028   -39606   -38434 
  -37878   -37928   -38276   -38676   -38492   -37740   -37146   -36926 
  -36726   -36301   -36255   -37154   -38152   -38483   -38533   -38680 
  -38767   -38670   -38639   -38294   -36983   -35729   -35749   -36283 
  -36039   -35206   -35124   -35895   -36483   -37062   -38011   -38446 
  -37729   -36605   -35962   -35618   -35125   -34647   -34458   -34881 
  -36162   -37389   -37513   -37331   -38172   -39991   -41774   -42828 
  -43430   -43900   -43722   -42340   -39973   -37393   -35411   -34445 
  -34171   -33708   -32647   -31737   -31781   -32659   -33839   -34986 
  -36566   -38970   -41164   -42114   -41918   -41133   -40212   -39387 
  -39175   -39484   -39283   -38502   -37855   -37941   -38907   -39599 
  -38753   -36207   -33265   -32333   -33577   -35209   -36682   -37423 
  -37269   -37831   -39549   -40903   -40502   -38387   -36072   -34807 
  -35133   -37579   -40805   -42206   -41523   -40167   -38809   -37357 
  -36312   -37000   -39195   -41068   -41624   -40693   -38759   -36977 
  -35702   -34882   -34913   -35168   -34415   -32953   -32012   -32440 
  -34493   -37397   -39768   -41125   -41948   -42168   -41840   -41858 
  -41806   -40705   -38686   -36031   -33705   -32985   -33956   -36246 
  -39047   -40934   -41270   -40560   -39488   -38360   -37411   -37123 
  -37404   -37797   -38745   -40190   -40837   -40405   -39548   -38245 
  -36734   -36113   -36779   -37463   -36844   -35541   -34800   -34607 
  -35048   -36190   -36894   -37350   -38643   -39757   -39830   -39513 
  -38769   -37262   -35310   -33525   -32724   -33324   -35075   -37018 
  -37999   -38566   -39664   -40352   -40194   -40224   -40250   -39357 
  -38272   -38009   -38013   -37480   -36506   -35554   -34642   -33598 
  -33694   -36040   -38337   -37767   -34788   -31572   -29917   -30207 
  -31114   -31980   -33766   -36364   -38299   -39168   -39985   -41751 
  -44043   -45524   -46029   -45940   -45096   -43931   -43046   -42364 
  -41596   -40651   -40032   -39692   -38704   -37241   -36115   -35232 
  -34481   -34074   -33508   -32108   -30619   -30681   -32767   -35576 
  -37377   -37887   -37874   -38101   -39615   -42113   -43987   -44653 
  -43848   -41931   -40451   -39928   -40014   -40193   -39348   -37380 
  -35272   -33389   -31914   -31295   -31693   -32698   -33872   -35374 
  -36840   -36984   -35518   -34115   -34431   -35756   -36490   -36254 
  -35257   -34488   -35171   -37033   -39202   -41103   -42371   -43063 
  -42993   -42129   -41488   -42030   -43416   -44155   -43179   -40713 
  -37658   -35247   -34461   -35195   -36101   -35745   -34125   -32665 
  -33057   -34827   -35714   -35824   -36887   -38423   -39002   -38832 
  -38707   -38480   -38164   -38658   -40459   -42863   -44397   -43825 
  -41419   -39042   -37999   -37515   -36182   -33968   -32493   -32910 
  -33920   -33963   -33388   -33161   -33964   -35787   -38136   -40370 
  -41274   -40884   -40655   -40581   -40111   -39954   -40325   -40439 
  -39988   -39118   -38119   -37758   -38327   -38799   -38079   -36216 
  -33897   -32115   -31847   -33016   -34790   -36190   -36485   -36463 
  -37273   -38597   -39874   -40540   -39758   -37970   -36602   -36390 
  -36826   -36990   -37033   -37386   -37881   -38468   -38604   -37740 
  -36828   -36741   -37098   -37449   -37642   -37724   -38013   -38345 
  -38307   -38195   -38277   -38072   -37280   -36325   -35712   -35712 
  -36396   -37629   -39077   -40155   -40799   -41319   -41162   -40157 
  -39422   -39348   -39151   -38206   -36421   -34489   -33517   -33879 
  -34890   -35665   -36011   -36136   -36177   -36026   -35451   -34804 
  -34237   -33268   -32605   -33370   -35139   -37031   -38699   -40325 
  -42373   -44336   -45145   -44671   -43522   -42360   -41212   -39690 
  -38092   -37025   -36683   -36981   -37666   -38538   -39295   -39376 
  -38588   -37342   -36032   -34979   -34407   -34256   -34416   -34354 
  -33791   -33934   -35598   -37431   -38030   -37650   -37073   -37158 
  -38441   -40077   -40801   -40082   -38577   -37893   -38518   -39685 
  -41054   -42221   -42493   -41960   -41277   -40787   -40074   -38867 
  -37606   -36124   -34402   -33554   -33772   -34240   -34496   -34365 
  -34516   -35511   -36153   -35615   -34827   -34568   -34873   -35688 
  -36942   -38475   -39904   -41031   -41991   -42472   -42186   -41631 
  -41202   -40720   -40043   -39480   -39199   -38614   -37434   -36236 
  -35646   -35830   -36217   -36112   -35797   -35966   -36741   -37813 
  -38572   -38599   -38056   -37291   -36614   -35976   -35297   -35104 
  -35642   -36281   -36601   -37019   -37810   -38340   -38091   -37748 
  -38287   -39523   -40072   -38989   -37254   -36252   -36003   -36165 
  -36333   -35978   -35918   -36977   -37694   -36940   -36065   -36150 
  -36589   -37073   -37581   -37305   -36197   -35303   -35391   -36682 
  -38661   -40722   -42504   -43116   -42107   -40456   -39186   -38314 
  -37434   -36346   -35515   -35209   -34665   -33870   -33519   -33631 
  -34338   -35290   -35565   -35548   -36040   -36954   -38083   -39209 
  -39812   -39811   -39988   -40929   -41940   -41962   -41373   -41430 
  -41805   -41122   -39766   -39110   -39177   -39469   -39702   -39290 
  -38132   -36544   -34898   -34514   -36081   -38082   -38921   -38252 
  -36844   -36244   -37044   -38340   -39052   -38942   -38670   -38701 
  -38543   -37957   -37365   -36452   -35353   -35417   -36289   -36211 
  -34921   -33845   -33882   -34075   -34011   -34276   -34537   -34974 
  -36144   -37314   -37922   -38298   -38691   -39151   -39941   -40984 
  -41270   -40356   -38985   -38101   -38122   -38259   -38067   -38430 
  -39456   -40312   -40119   -38604   -37168   -36713   -36634   -36987 
  -37881   -38676   -38709   -37654   -36648   -36869   -37073   -36225 
  -35548   -35968   -37471   -39644   -41342   -41908   -41563   -40697 
  -39622   -38491   -37768   -37805   -38157   -38318   -38067   -37508 
  -37042   -36580   -35953   -35727   -36201   -36936   -37532   -37727 
  -37118   -35591   -33975   -33378   -33698   -34092   -34527   -35375 
  -36549   -37856   -39191   -39919   -39471   -38695   -38292   -37795 
  -37335   -37093   -36497   -35522   -34778   -34751   -35147   -35313 
  -35303   -35187   -34765   -34419   -34808   -35900   -37045   -38188 
  -39510   -40428   -40725   -40864   -41177   -42017   -43409   -44527 
  -44483   -43221   -41085   -38624   -36984   -36693   -36868   -36744 
  -36443   -36221   -36076   -36053   -36402   -37125   -37833   -38017 
  -37605   -37183   -36863   -36436   -36486   -37226   -37860   -37935 
  -37724   -37731   -37845   -37620   -37548   -37979   -38248   -38083 
  -37758   -37192   -36710   -37471   -39204   -40224   -40089   -39347 
  -38557   -37894   -37048   -36481   -36643   -36875   -36976   -37428 
  -38063   -38299   -38253   -38357   -38488   -38545   -38479   -38125 
  -38290   -39630   -40784   -40285   -38622   -37156   -36491   -36166 
  -35630   -35054   -35017   -35453   -35644   -35727   -36077   -36115 
  -35606   -35376   -36150   -37404   -38234   -38780   -39386   -39887 
  -40178   -39981   -39127   -38325   -38074   -37964   -37852   -37881 
  -37875   -37744   -37665   -37547   -36834   -35631   -35070   -35777 
  -37176   -38260   -38749   -39113   -39541   -39726   -39464   -38843 
  -37939   -37303   -37588   -38028   -37808   -37376   -36954   -36269 
  -35583   -35482   -35950   -36598   -37142   -37177   -36647   -35976 
  -35707   -36275   -37412   -38730   -39822   -39830   -38952   -38238 
  -37894   -37952   -38442   -38935   -39332   -39360   -38738   -38319 
  -38574   -38873   -38758   -38334   -37908   -37185   -35996   -35374 
  -35776   -36402   -36942   -37419   -37597   -37648   -37565   -36809 
