Origin Time       2024/04/02 04:24:00
Lat.              40.133
Long.             141.712
Depth. (km)       71
Mag.              6.0
Station Code      IWT002
Station Lat.      40.1820
Station Long.     141.7643
Station Height(m) 28
Record Time       2024/04/02 04:24:48
Sampling Freq(Hz) 100Hz
Duration Time(s)  120
Dir.              N-S
Scale Factor      7845(gal)/8223790
Max. Acc. (gal)   187.603
Last Correction   2024/04/02 04:24:47
Memo.             
[...]
   -1813    -1811    -1813    -1814    -1815    -1814    -1813    -1814 
   -1815    -1815    -1814    -1813    -1813    -1813    -1813    -1814 
   -1814    -1813    -1811    -1811    -1811    -1813    -1813    -1811 
   -1811    -1813    -1814    -1810    -1810    -1815    -1817    -1814 
   -1813    -1814    -1814    -1813    -1813    -1813    -1813    -1814 
   -1815    -1814    -1815    -1817    -1814    -1811    -1814    -1813 
   -1811    -1815    -1814    -1810    -1813    -1814    -1813    -1813 
   -1814    -1814    -1813    -1811    -1814    -1817    -1813    -1809 
   -1811    -1814    -1811    -1810    -1814    -1815    -1813    -1813 
   -1814    -1811    -1813    -1815    -1814    -1811    -1811    -1813 
   -1811    -1810    -1811    -1814    -1813    -1814    -1815    -1811 
   -1811    -1815    -1815    -1813    -1814    -1815    -1813    -1813 
   -1813    -1813    -1814    -1815    -1814    -1813    -1814    -1811 
   -1813    -1815    -1814    -1813    -1814    -1813    -1814    -1814 
   -1813    -1813    -1814    -1813    -1810    -1813    -1814    -1811 
   -1814    -1817    -1813    -1810    -1811    -1813    -1813    -1814 
   -1815    -1814    -1813    -1811    -1811    -1813    -1811    -1809 
   -1813    -1815    -1811    -1811    -1811    -1810    -1811    -1813 
   -1813    -1813    -1813    -1813    -1815    -1815    -1813    -1814 
   -1814    -1811    -1811    -1815    -1815    -1811    -1810    -1814 
   -1814    -1813    -1813    -1811    -1813    -1814    -1811    -1811 
   -1811    -1811    -1811    -1813    -1811    -1813    -1815    -1813 
   -1810    -1811    -1814    -1814    -1814    -1813    -1814    -1815 
   -1811    -1810    -1813    -1811    -1810    -1814    -1815    -1813 
   -1813    -1813    -1811    -1814    -1815    -1813    -1811    -1811 
   -1813    -1814    -1814    -1814    -1814    -1814    -1813    -1811 
   -1813    -1814    -1814    -1814    -1814    -1814    -1815    -1815 
   -1817    -1814    -1813    -1813    -1811    -1810    -1811    -1813 
   -1814    -1815    -1814    -1814    -1815    -1814    -1814    -1814 
   -1813    -1813    -1815    -1814    -1813    -1814    -1814    -1811 
   -1811    -1813    -1814    -1814    -1811    -1810    -1813    -1815 
   -1815    -1815    -1815    -1814    -1813    -1814    -1815    -1814 
   -1811    -1813    -1814    -1813    -1811    -1813    -1814    -1813 
   -1813    -1814    -1814    -1813    -1813    -1813    -1813    -1814 
   -1813    -1813    -1814    -1814    -1813    -1813    -1811    -1813 
   -1815    -1814    -1813    -1814    -1814    -1813    -1814    -1815 
   -1814    -1813    -1814    -1815    -1815    -1814    -1811    -1813 
   -1815    -1814    -1810    -1813    -1815    -1813    -1811    -1815 
   -1814    -1813    -1814    -1814    -1811    -1813    -1815    -1814 
   -1811    -1811    -1813    -1815    -1814    -1813    -1814    -1814 
   -1811    -1810    -1813    -1813    -1811    -1813    -1814    -1811 
   -1811    -1813    -1814    -1815    -1813    -1811    -1814    -1813 
   -1813    -1817    -1815    -1811    -1813    -1817    -1814    -1811 
   -1814    -1814    -1814    -1817    -1815    -1814    -1815    -1813 
   -1811    -1815    -1814    -1813    -1815    -1813    -1810    -1811 
   -1814    -1813    -1810    -1811    -1814    -1814    -1813    -1811 
   -1810    -1814    -1815    -1813    -1815    -1817    -1813    -1813 
   -1813    -1813    -1815    -1817    -1814    -1814    -1814    -1813 
   -1813    -1814    -1814    -1813    -1813    -1811    -1810    -1815 
   -1814    -1810    -1811    -1815    -1814    -1811    -1813    -1813 
   -1813    -1814    -1814    -1813    -1813    -1814    -1815    -1815 
   -1815    -1814    -1813    -1813    -1811    -1811    -1814    -1815 
   -1813    -1811    -1813    -1814    -1814    -1813    -1817    -1817 
   -1813    -1813    -1815    -1815    -1813    -1811    -1814    -1815 
   -1814    -1811    -1810    -1813    -1815    -1814    -1813    -1814 
   -1813    -1814    -1815    -1813    -1811    -1815    -1815    -1811 
   -1811    -1813    -1811    -1811    -1813    -1814    -1815    -1814 
   -1813    -1814    -1813    -1813    -1813    -1811    -1813    -1814 
   -1813    -1811    -1814    -1813    -1810    -1814    -1815    -1814 
   -1813    -1813    -1813    -1814    -1815    -1814    -1814    -1813 
   -1811    -1811    -1814    -1814    -1814    -1814    -1814    -1811 
   -1813    -1813    -1814    -1815    -1813    -1813    -1814    -1815 
   -1814    -1815    -1815    -1811    -1810    -1813    -1813    -1811 
   -1814    -1814    -1813    -1814    -1815    -1811    -1810    -1815 
   -1817    -1811    -1810    -1814    -1814    -1813    -1814    -1814 
   -1813    -1813    -1813    -1813    -1813    -1814    -1814    -1813 
   -1815    -1815    -1814    -1815    -1814    -1814    -1814    -1813 
   -1811    -1813    -1814    -1811    -1811    -1813    -1814    -1814 
   -1811    -1811    -1815    -1815    -1813    -1815    -1814    -1811 
   -1811    -1814    -1814    -1814    -1813    -1813    -1817    -1821 
   -1831    -1860    -1906    -1976    -2081    -2195    -2251    -2151 
   -1819    -1333     -990    -1032    -1274    -1263     -951     -857 
   -1321    -1975    -2262    -2215    -2633    -4284    -5782    -4313 
   -1092     -652    -2708    -2652      959     4194     2178    -2211 
   -1966     1136     2066     -125    -5367    -8259    -5290    -3850 
   -5957    -5899    -3227      664     1597    -3223    -3823     1625 
     380    -4741    -4178    -1443     2895     7252     2963    -3943 
   -2837       60     -565     -128      502    -1437    -2825    -4936 
   -9975   -12646   -12260   -10945    -5659     3140    11847    13903 
    6007     1395     4513     -148   -10249   -10589    -4251     1221 
    2362    -7163   -19849   -16127     1313     8271     -390    -5576 
    3584    17073    16870     1089   -11808   -13540   -10886    -5058 
     -71    -1791    -1107     5069     4999     1548     3689      873 
  -13111   -20019    -6597    12646    12658    -7049   -16065    -4264 
     409    -8241    -8375    -3148    -1213     9967    21096    10844 
   -9995   -22249   -19969   -12880   -16117   -13670     4399    10894 
    7574    12658    14250     8999     2914      -37    13909    24418 
    -540   -25373   -15851    -6777   -14311   -17153   -21567   -27780 
  -13344     5900     7063     7288    11863    10828     8228      634 
   -6621    -1019     1171    -3447     5732    16295     7111   -14096 
  -33758   -33035    -6867    13678    12204     2883    -4824    -4382 
    3086     -453   -12596    -7319    13117    26141    26860    14260 
   -7771   -17957   -11699    -8348   -13109   -14833    -8526    -1425 
   -2980    -8761   -10774   -11877    -8608     2678     7470     5589 
   10278     8024    -3852    -2322     3296    -4650    -9073     -608 
    8174    13302    13876     6257    -4457   -12745   -19634   -22983 
  -15480     -735     3904    -4274    -9016    -4255     3859     8344 
    2002    -2489    15550    31985    14894   -11063   -17375   -13809 
   -9416    -7442   -12263   -12384    -3002     -981    -6416    -1962 
    8946     8286    -4276   -11835   -11261   -12268    -9772    -2274 
     -81     5907    15628     7069    -5135     2567     9427     3632 
    1472     2836     1285     -608    -5329    -9737    -4893     1653 
   -1102    -7543   -11288   -12020    -6756    -1765    -4608    -1583 
   10164     9362    -2135    -5764    -1286     4178     5103     1661 
    1502     2236    -4666   -13752   -13745    -7453    -4729    -4743 
   -4878    -7001    -4353     3267     2307    -1864     3703     7792 
    5360     9547    10895    -3724   -10716     3002     9390    -2104 
   -8495    -5108    -7674   -13822   -12820   -13057   -19288   -16804 
   -6305    -3360    -3832       74     2274     2670     5830     9903 
    9610     2479     -774     4409     2477    -4835    -3524     -712 
     660     5004     1219    -8972    -8305    -1981    -2724    -5418 
   -4634    -1216     2342       25    -4488    -1711     1111    -4118 
   -7582    -3090     3485     7078     3375    -4947    -5514     -373 
   -4464   -13527   -13378    -6143     1818     6154     1210    -4110 
    -113     1301    -6075    -8928    -2218     7057    12544     8621 
    1089     2058     4834    -1887   -10166   -10679    -7371    -3804 
   -2224    -7604   -13810    -9877    -1660     -799    -1829     3462 
    5865     3477     8827    12455      303   -11576   -11187    -5610 
    2872     6968    -1510    -8349    -2709     2096     -714    -2754 
   -2130     -598     3360     5286      135    -6502    -9026    -7697 
   -4051    -3554    -6114    -5358    -7213   -13937   -10966    -2830 
   -5755    -7257     1448     4369     2192     3373     -139    -3986 
    2886    10380     9667     5125     -789    -5184    -2866     2820 
    1578    -4438    -4460    -4684   -12513   -13736    -3168     2659 
     -97      379     3981     3019     2952     7708     6162     -985 
     423     5317     -797   -12006   -13329    -5449    -3086    -8078 
   -6691    -4091   -10384   -10214      749     5231     3006     4168 
    7161     7550     5476     3375       -9    -7753   -11261    -3299 
    3082    -1622    -9146   -11553    -7142    -3740    -8721   -10488 
   -4839    -1155     5530    10131      766    -3446     3902      862 
   -6000    -1105     2521    -2578    -7389    -7032    -1606     1553 
   -2212    -3524     -232     -476    -2691    -2779    -3869    -5740 
   -3095     1266     -845    -5316    -3136     1525     2339      915 
   -2262    -6813    -7765    -3607    -1817    -5702    -5715     1012 
    4557     2268    -2512    -7447    -5533     1918     3971      662 
   -2835    -3528      797     1989    -4477    -7965    -3924     1366 
    2505     -514    -2758    -3200    -3335     -351     2467    -1750 
   -6272    -3011      579    -1093    -1491     1522     4241     4819 
     448    -6066    -7191    -4293    -3204    -4077    -2058     3145 
    3581    -1692    -4622    -4365    -3377      654     2587    -4403 
   -8667    -2004      236    -6805    -9942    -9300    -8163    -2955 
    -765    -3921    -2524      997     1471     5144     8857     3352 
   -3659    -2536     1669     3835     3161    -1401    -6172    -7425 
   -6945    -6421    -5683    -3383     1845     6045     2930    -5235 
   -8779    -5294    -2930    -4099     -576     8721    12229     4857 
   -4596   -10399   -13678   -12141    -5756     -612     1408     4280 
    6535     1179    -6968    -6226     -225     3001     5131     5628 
    2679    -1394    -6156    -8806    -5151    -2119    -7655   -10918 
   -1640     6054     2053    -3005    -6322   -10304    -7177      337 
     751    -2257     -928     2114     3330     1821      -71     1819 
    3277      850      865     3154     2322    -1096    -8834   -16634 
  -10322     4838     8502     -445    -7487    -5451     -604     -853 
   -4536    -8379    -9081    -3318      -45    -2488     -804     -176 
   -4041    -1516     1259    -1549     1082     2054    -7439    -9668 
   -1960    -2146    -4337     2691     4488    -5136    -8637    -3333 
   -1547     -552     1507     -136     2947     7852       94    -8722 
   -7310    -3969     3381    10562     2632    -8334    -8603    -9644 
  -11696    -5852    -1262    -2444    -1221     -148    -3080    -1281 
    5946     5790       -2     2547    10230    11542     7048     1656 
   -1929    -1795     1085     1255    -8229   -21618   -23333   -16102 
  -11349    -5015     1574      157    -1934     -585     -843     1379 
    4842     4160     5852     7688     1073    -4746    -4306    -7109 
   -9945    -3661     3508     1428    -4066    -4163     -949      247 
    -881    -2010      148     4264     2928    -1732      237     3821 
     -47    -3204    -1074    -2236    -4757    -2803    -3465    -7643 
   -6907    -6334   -11742   -13435    -9127    -6265    -1614     7285 
   11453     7406      977    -2853    -1864     2308     5274     4282 
   -1154    -7794    -8911    -6320   -11226   -18031    -9058     6536 
    7596      873     -457     -557       13     3589     2357    -3508 
   -2774     3095     3450    -1553    -6215    -8290    -6334    -3181 
   -4850    -7744    -3326     4923     8297     6937     4916     2548 
   -1224    -4577    -4274    -1188     -656    -2982    -2870    -2628 
   -7418   -10557    -7041    -4735    -5809    -6524   -10964   -17967 
  -17671   -12036   -11951   -16764   -16271    -3847    17331    35646 
   45064    48413    48284    51023    58239    55020    36425    17780 
    3794   -13328   -33089   -52230   -72900   -90644   -92969   -80169 
  -65457   -49836   -24818     4052    23611    34048    46434    63994 
   74294    69969    61416    54031    45006    39559    37751    29940 
   18320    12494     9741     2502    -8162   -18987   -32954   -52442 
  -70025   -75442   -68453   -58858   -54471   -53192   -53114   -57739 
  -63121   -62536   -57122   -46616   -30325   -10573    13591    37384 
   51158    58260    66444    72087    71262    72551    85174   100037 
  103478    99879    96256    88425    72446    46307    10230   -25115 
  -47052   -55152   -57388   -60480   -65766   -71498   -79159   -87205 
  -87270   -78318   -63706   -36202     8365    53535    81622    95277 
   99100    87385    63833    39591    17213    -2195   -16825   -32656 
  -57326   -89455  -121591  -149385  -172309  -189473  -198471  -196703 
 -182071  -151127  -102694   -43961    12625    57195    90294   118143 
  137496   143359   145724   155918   168394   169944   151355   109329 
   52906      851   -37214   -68634  -100872  -128348  -142236  -141077 
 -132413  -124322  -113031   -94360   -74530   -54047   -25716     8775 
   40556    65543    82876    90683    92078    93788    94379    88015 
   76681    64339    48581    26497    -2219   -35410   -64366   -78950 
  -76237   -58824   -32734    -6612    13710    27373    36123    41598 
   43692    42840    40007    35498    31371    28553    23885    14868 
    2049   -11518   -19855   -22445   -30439   -49740   -69392   -80065 
  -84800   -85692   -80991   -71798   -58380   -40701   -21867    -2643 
   17778    37033    54149    71003    85839    93074    89664    77885 
   65713    61461    62062    58087    49617    39039    21857      918 
  -13842   -23689   -35314   -45723   -50040   -51911   -55105   -54999 
  -46170   -29022    -5437    21654    45932    62827    72301    73367 
   63455    45436    26914    12055      463    -8225   -14594   -22696 
  -34722   -45399   -49513   -47904   -42462   -33261   -22675   -14098 
   -5144     5714    11500     8476     2841      680     2837     7160 
   10728    12178    12005    11561    11429     9892     5881     2091 
     214    -3118   -10156   -18962   -29045   -40005   -47595   -48787 
  -44311   -36317   -29034   -25463   -23662   -21421   -17066    -8224 
    1471     6496    10427    16872    20513    18234    13556     9259 
    6678     7461    11700    15421    14859    13032    13050    12856 
   11624    10540     9903     9390     7680     3844    -2064   -10430 
  -18524   -20495   -15811    -8737     -745     7107     9903     5085 
   -1755    -4117    -3739    -5138    -6982    -6756    -6016    -6642 
   -9262   -14087   -18388   -17311   -11303    -6023    -2054     3724 
    8576     7200     -622   -10260   -17140   -20322   -20460   -18913 
  -19387   -22819   -25066   -25053   -26662   -30867   -33377   -31603 
  -28177   -24456   -18345   -11485    -8351    -7240    -4118     -864 
    1575     6898    13829    17101    17550    18382    18740    17909 
   16163    14050    14439    17571    19388    18111    13680     5729 
   -1958    -4774    -4175    -2905     -558     1692     1067    -1350 
   -2181     -333     2416     4382     7944    13926    16680    14879 
   13454    13190    13856    16826    17820    12629     6154     4432 
    5530     4054      -32    -2069    -1543    -3187    -8168   -12344 
  -15006   -19669   -24615   -24983   -22347   -19133   -13884    -9391 
   -8266    -5911     -658     3798     6690     9518    13655    19786 
   24223    22790    18902    17185    15503    10928     3815    -4313 
  -10195   -11651   -11911   -14183   -16507   -16499   -13845    -9258 
   -6558    -8498   -10210    -6901    -2469    -1571    -2439    -2544 
   -1436     1256     4199     6686    10145    13323    15836    19909 
   22302    19970    16779    14224    11934    12182    14149    15514 
   14563     9420     2844    -1337    -4413    -8646   -13637   -17513 
  -18847   -17784   -15657   -14578   -16039   -17728   -16139   -13080 
  -12760   -15155   -16595   -14852   -12974   -14052   -15404   -15268 
  -15429   -15738   -16444   -17408   -13902    -4864     3090     4090 
   -1080    -6490    -9753   -14543   -21294   -25915   -26503   -24772 
  -23958   -25161   -26272   -24889   -20721   -16460   -13842   -11016 
   -7851    -7002    -8213    -8599    -6998    -3346     2567     8175 
   10847    13297    15349    11383     4294     1849     2662     2633 
    2215      800    -2498    -5066    -5937    -6870    -7364    -5472 
    -534     6123    11803    14829    14485    10624     5143      361 
   -1898     -818      446    -1058    -2259      287     4720     8140 
    9829    10149    11057    13743    15811    15780    14750    12941 
   11271    11587    12691    12363    10679     8330     5881     4164 
    3252     1790     -972    -2947    -3260    -4191    -5931    -7950 
  -10890   -11630    -7753    -3123       22     3626     7495    10504 
   11666     8372     2650     1104     3496     4245     1891    -2772 
   -7028    -5325      760     3537     3172     4941     7886     8968 
   10126    12577    13369    12459    12093    10172     5994     3823 
    3130     -837    -6650    -9463    -8865    -7453    -7020    -6637 
   -3349     2521     6346     6465     5663     5090     4486     4739 
    5324     4152     1208    -1181    -2978    -6693   -10755   -11975 
  -12745   -15804   -19373   -21228   -20802   -19611   -20020   -20995 
  -20183   -18814   -18164   -16478   -13142    -9886    -8059    -8035 
   -9196   -10881   -13174   -14715   -14241   -14180   -15996   -17107 
  -17248   -18403   -17995   -13917   -11001   -11497   -11047    -8988 
   -8429    -9483   -10866   -11585   -10419    -7939    -6848    -8141 
   -9127    -8448    -8812   -10673   -10868    -8814    -6089    -3396 
   -1825    -1151      838     3410     4160     3581     2604     1597 
    1537     2269     3732     6555     8911     8492     6976     8171 
   12511    16275    17022    15612    13139    10744     9736     9944 
   10609    11997    13603    13078    10471     8684     7992     6894 
    5769     5370     5651     5914     5466     5174     5945     7391 
    9535    12117    12961    11087     9049     7942     5428     1595 
   -1119    -2928    -4858    -5756    -5260    -5769    -8665   -12398 
  -14620   -13900   -10768    -6955    -3300      513     3592     3755 
    1946      908      257     -886    -1468     -947     -356    -1895 
   -6041    -9537   -10069    -9026    -7750    -5289    -1250     1394 
    -371    -5576   -11510   -15727   -15951   -13261   -10970    -8615 
