Origin Time       2024/04/02 04:24:00
Lat.              40.133
Long.             141.712
Depth. (km)       71
Mag.              6.0
Station Code      IWT026
Station Lat.      39.2569
Station Long.     141.0983
Station Height(m) 76
Record Time       2024/04/02 04:24:57
Sampling Freq(Hz) 100Hz
Duration Time(s)  118
Dir.              E-W
Scale Factor      7845(gal)/8223790
Max. Acc. (gal)   70.248
Last Correction   2024/04/02 04:24:56
Memo.             
[...]
    1102     -616    -1386     -681     1467     4314     5132     2983 
     276    -1502    -2216    -1013     1192      448    -3542    -4766 
   -1540      900     1185     2154     4217     5377     2897    -1702 
   -1900     2257     4598     4176     2702      245    -2474    -4045 
   -2191     3441     8062     7842     4641     1294     -869    -1233 
   -1134    -1503     -876      182     -903    -2918    -2623     -468 
    2031     5452     7973     6293     1802    -2938    -6785    -6918 
   -4086    -2209       83     3960     5834     5196     3391     -342 
   -3365    -2481     -810    -1281    -1420      471     2146     2471 
    3210     5170     7298     7681     4737      684     -344      441 
    -589    -1640     -163     1048      155      259     1876     1894 
     773     -114    -2134    -4371    -4363    -3100    -1372     2010 
    4745     3931      777    -3099    -6585    -7052    -2555     4233 
    7538     6043     3811     3603     5305     7172     6480     3415 
    1174      460    -1398    -5521    -8363    -5549     1003     4315 
    2646      635       56     -912    -2566    -3285    -1174     3323 
    6706     6910     5300     2555     -962    -2354    -1347     -670 
     866     4641     7242     6280     2621    -3040    -7935    -7349 
   -2795     -799    -2396    -3130    -1335      976     3403     5599 
    4930     2409     1549     1787     1368      189    -1038     -221 
    2690     3801     1602     -464      670     4342     7132     7187 
    5670     2161    -3199    -6104    -4804    -1431     2794     5728 
    5026     1638    -1649    -2691    -2700    -4071    -5702    -6963 
   -7932    -5629     -670     2863     5779     8594     8058     5100 
    3343     3134     3785     4365     2936      275     -356     1062 
    1938     1985     2083     2007     2065     2543     1853     -997 
   -3624    -3082      184     3319     3377     -449    -4249    -4287 
   -2843    -2031      810     6165     8641     4657     -927    -1914 
    -136     -172     -387     2725     6713     7303     4392      305 
   -1599    -1058    -2678    -5722    -4511     -411     2263     4641 
    7886     9950     9564     6812     2528    -1782    -5277    -7165 
   -6839    -5127    -2504      661     2481     2937     3815     3932 
    1972      257      463      702     -900    -3404    -4567    -2794 
     780     2909     2617     1098     -249     -716    -1456    -2374 
   -1460      935     2354     1736      618      554     1177     2293 
    4079     5610     5611     3273     -171    -2077    -2103    -1310 
     -33     1372     2543     2080    -1090    -4203    -5017    -5151 
   -3910     1571     8494    10554     7257     2525    -1931    -3800 
   -1463      599      291      986     2033      739    -1425    -2398 
   -2218    -1290     -380     -101      359     1061     1084     1051 
    1782     3514     5836     6727     6550     8178     9898     6697 
   -1318    -8910   -12410   -10702    -4163     2902     6505     7742 
    7048     3676     -116    -2600    -2702       79     2727     4437 
    6285     5054      529    -2641    -3615    -2909     -465      492 
   -1348    -2729    -1661      805     2656     3353     4648     7234 
    8721     6247     1156    -1952    -2621    -2571     -726     1810 
    3037     3682     2913       59    -2674    -2405     2505     7820 
    7631     3288    -2216    -7366    -9128    -7746    -6006    -3952 
    -940     2502     6416    10575    11773     7811     1786    -3657 
   -7879    -8341    -5439    -2212     2135     7227     8604     4658 
   -1007    -3515    -1736     1696     4108     4104     2473      672 
   -1586    -3415    -1676     2836     4105      662    -2258    -2913 
   -3046    -2528    -1993    -1777    -1462    -2991    -5360    -4529 
   -1426     2016     6964    11047    10837     8712     7295     5603 
    3829     2349    -1636    -8104   -11704   -10174    -6111    -2015 
     878     3703     8035    12295    13915    11874     7493     3048 
   -1599    -6193    -7523    -5259    -2910    -1644     -828    -1255 
   -2390    -1971       37     1412     1104      688     1783     3327 
    3709     3719     4183     3396      688    -1071     -120     1722 
    2509     1850      676      440      907      276    -1567    -1964 
      71     2500     4244     4094     1678     1034     3144     3443 
    1178     -243     1012     3793     4706     2030    -1902    -4194 
   -4787    -5205    -4569     -854     3547     5112     4941     4145 
    1229    -2509    -3375    -1800    -1028     -496      610      247 
     318     3083     4887     3793     1518     -579    -1009     -120 
    1512     5159     9212    10071     7076     1683    -4266    -7561 
   -5787    -1610     1048     1857     1582     1069      622     -314 
    -471      843     2089     2220      877     -773    -1404    -1948 
   -2546    -2400    -1656     -106     1826     2902     2609      456 
   -2479    -2767      414     3573     3917     1912     -847    -2382 
    -683     3353     6667     7608     5583     1767     -477       91 
    1900     3109     2722     1526       72    -2143    -4288    -5783 
   -6238    -3831      710     4654     7352     8122     5734     1525 
   -1375    -2091    -3019    -5441    -6836    -4490      845     5906 
    8033     6953     4557     2586     1309     1405     2843     3210 
    2089     1227       27    -1179     -257      650     -689    -1792 
   -2353    -4066    -5298    -4645    -1937     2837     6461     6755 
    6043     4286      -64    -3419    -2073     1710     3680     2636 
     488    -1413    -3530    -4684    -2968      -87     1499     2956 
    5013     5147     2610     -673    -3073    -2782      160     2789 
    3936     4407     4091     3199     2139      513    -1659    -3279 
   -2879     -882     1016     2390     2516     1294      604      729 
    1159     2371     3665     4375     4877     4614     2602     -718 
   -3177    -3233    -1892     -611      496     1547     2316     2546 
    1734      -35    -1686    -2713    -2763     -726     3358     7326 
    8812     7047     3119     -410    -1930    -2231    -1903    -1294 
   -1071      742     5154     7654     5692     2667      635     -932 
   -1979    -3619    -6038    -5670    -1740     1644     2968     2987 
    1370      936     4216     6990     6650     6424     6119     1934 
   -4885    -8411    -6230    -1709     1341     1560     -441    -2814 
   -3743    -1686     3171     7580     7865     3279    -2461    -4391 
   -2659    -1071     -602      457     2808     4977     4537     1560 
   -1082    -1848     -801     1776     3572     2462     -272    -3397 
   -5557    -3782      554     3134     3986     4530     3920     2029 
     498       76     -575    -1721    -1989    -1725    -1632    -1499 
   -1841    -2475    -2154       79     3996     6886     6920     5562 
    3079     -356    -1759    -1135    -1659    -3272    -3844    -2583 
    -581     -109    -1151     -773     2409     6556     8637     6683 
    2498      -29     -837    -2191    -2772      -81     4298     6659 
    5653     2512    -1019    -3280    -3362    -2625    -3150    -4195 
   -2365     3196     8675    10638     8584     3597    -2266    -7084 
   -8390    -3700     5228    12658    14026     8810      545    -5543 
   -7084    -5602    -3206     -560     2191     4060     4294     3210 
    1344      292     1040     1490      747      315      189     -279 
   -1177    -1968     -891     2381     5876     7912     7217     3946 
     885    -1436    -4931    -6841    -3631      988     2454     2546 
    3740     4773     4303     2673     1583     3067     4865     2041 
   -4332    -8367    -8407    -6546    -2986     1331     3164     2944 
    2924     2322     2420     5090     6285     3373      105    -1723 
   -4222    -6887    -6366    -1667     4715     9737    11176     8409 
    3743      -60    -2357    -3033    -2513    -1971    -1502     -896 
    -893    -1306      530     4765     6112     3111      369     -444 
    -487     -109      429      858      302    -1023    -1193    -1167 
   -2758    -2670     1985     6682     5879     1194    -2238    -2583 
   -1387     -405      112      554     1007     1752     2208      777 
   -1536    -1302     1424     2701      449    -3477    -5189    -3072 
     -54     1973     4329     6858     8164     7249     3584     -301 
   -1510    -1545    -1809    -1054     -112     -579     -556     1811 
    4236     4082     2270      637     -122      -76     -596    -1876 
   -1651     -278       64      849     3717     6794     7346     4392 
     828     -271     -805    -1904    -1555     -733    -1089    -1659 
   -1811     -712     1297      832    -2220    -3071      477     5899 
    9921    10011     6156     1814    -1836    -6538    -9896    -7777 
   -1696     3208     4878     5055     5131     5255     5740     6709 
    6721     3489    -2289    -7356    -8973    -5800     -614     2660 
    4818     6149     4129     -202    -3168    -2629      990     4780 
    6725     6779     4826     1360    -2660    -5699    -4868     -306 
    2698     1321      -51     1212     1178     -797    -1247     -544 
      45      789      675     -184     -371     -182      464     2481 
    4919     6168     5329     2871     1803     3273     4054     3235 
    2532     1185     -614    -1528    -2349    -2184     -440     -305 
   -2062    -2596    -1885    -2022    -2362       32     3987     4881 
    2849      217    -3250    -5425    -3418      114      986    -1032 
   -3237    -3370    -1995     -491     1715     5614     9418     9618 
    6039     1294    -3138    -5196    -3496    -1665    -2093     -410 
    5617    10188     8387     3122    -1225    -4164    -4988    -3316 
   -2073    -1586      900     4622     7427     8714     7582     4337 
    1043    -1086    -2555    -3549    -1919     2351     3817      261 
   -3256    -4326    -4359    -1800     2668     4442     3159      710 
   -2436    -3387      172     5221     8114     7569     3618    -1007 
   -3279    -3262    -2080     -912       33     2099     3991     3190 
    1309     1027     1961     3403     5096     4476      959    -1177 
    -897     -853    -1129    -1648    -1161     2411     4077     -413 
   -4726    -3204     1287     4918     6961     6659     3430     -751 
   -3630    -4743    -4004    -1505     2282     6249     7476     4837 
    1352     -864    -2269    -3442    -3607     -770     2836     1320 
   -3763    -4494      558     6147     8340     6508     3734     3674 
    4320     1837    -2416    -4722    -4236    -3171    -2998    -2782 
   -2072     -967     1293     3581     3272     1460      846      653 
     500     1567     3254     6438    10882     9931     1395    -6286 
   -7608    -5432    -1857     3181     7214     7307     2747    -4887 
  -10251    -8347    -1510     3438     3613     1772      550     -272 
    -283     1475     3927     5605     5809     3962     -403    -7123 
  -12604   -11461    -4735     1302     4642     6238     4429      132 
   -1059     1667     3291     2722     2841     2898       72    -4140 
   -5074    -1217     3781     6022     5320     3254      789    -1071 
   -1123      279     1317      731    -1175    -2390    -1544     -804 
   -2492    -4218    -2903     -183     1649     3611     5849     5100 
     603    -2509    -1545    -1251    -4725    -7727    -7200    -5738 
   -4140    -1051     2084     4569     6980     6902     1907    -5898 
  -10959    -9351    -2853     3842     7241     5890     2674     2188 
    3835     5094     6544     7277     4415     -403    -2725    -1655 
    1559     6814    12974    16348    14449     8275      360    -6110 
   -7765    -3905     1525     3933     2529    -1290    -4989    -5312 
   -1802     2733     5346     4544       67    -6046    -9124    -6546 
    -527     5548     9709    11708    12334    10752     6150      567 
   -4280    -8240   -10282    -8931    -3731     3828    10660    14277 
   12969     7229     2396     2236     3416     3025     2301     1011 
   -2344    -6143    -7055    -3277     5599    17205    26393    29359 
   21944     2494   -17582   -23546   -15168    -1715     7812     6227 
   -5328   -16349   -19233   -14542    -5278     5158    12290    14056 
   12822    11196     9401     7171     4014      577      654     5528 
   10255    10584     6288    -2527   -13149   -17999   -13944    -6733 
    -868     3352     3655     -272    -2694      151     5748     9462 
    7159    -1116    -8912    -9830    -3824     3720     8299    11130 
   12621     7603    -3935   -12974   -14277   -11766    -9356    -4668 
    3904    10255     9177     3065    -4689    -9926    -6450     6273 
   23043    36193    36522    23195     7377    -1316    -4217    -6496 
   -6763    -2166     1578    -1053    -4384    -1340     3742     1255 
   -8687   -16422   -14949    -4008    10966    19680    14257    -3113 
  -20698   -25628   -16399    -3165     7053    14323    17775    14640 
    3246   -15422   -37855   -57624   -64912   -54907   -32749    -4498 
   24960    45588    48045    34167    14021    -4079   -16426   -19893 
  -13298    -2963     3678     6397     7199     6343     3835      437 
     -40     5378    13212    18011    16351     6362    -9844   -25521 
  -32629   -26887   -10534    10432    27548    35014    38229    44039 
   48759    45914    31741     3701   -34221   -66511   -72821   -46800 
   -6554    21300    24347     8978    -8904   -16630   -12806    -2126 
   12988    29998    40942    37555    20764     -641   -16772   -21080 
  -16023    -9578    -4816    -1178      218    -1798    -4321     -430 
   11402    22518    25095    19201     7755    -4008    -9647   -11146 
  -15466   -20146   -18118   -11826    -9293   -12811   -19105   -25039 
  -27681   -22179    -6880    10250    17932    15350    12390    13963 
   15921    17946    23764    31766    37355    34869    18397    -6519 
  -22577   -22146   -14937    -9140    -3076     5027    15078    24522 
   26514    18928     7504    -1686    -4194     1749    12298    21519 
   24198    16773     3960    -4045    -3612     2998     9872     6601 
   -8977   -24965   -29906   -22279    -8174     3009     3541    -8068 
  -25381   -37636   -36688   -21093     2716    20996    22370    10874 
     207    -3424    -3713    -5165    -6582    -4853    -3829    -7200 
   -9864    -8378    -4646      750     8341    19444    31457    35043 
   28749    22412    18067     6610   -13944   -31047   -32107   -19454 
   -2857    14202    27807    28399    14588    -3114   -14715   -16241 
   -9518    -2409     -745    -1035      292     -685    -4756    -5032 
     -93     3402     3649     5949    13370    23642    31423    29884 
   15381    -6540   -22963   -25591   -20260   -18183   -19476   -15353 
   -3593     9672    19908    26044    26551    21170    12847     3966 
   -3933    -8480   -11541   -16661   -18621   -12343    -5935    -7884 
  -16050   -25482   -29878   -22786    -9189     -249     4756    11808 
   15874    10250      599    -2351     2817     8016     9923    13140 
   16044    10736    -1624   -10012    -6874     4383    13653    14243 
    8541     2652    -2166    -6654    -6455     1763    12522    16363 
    9094    -2899    -7689      475    17460    32823    36695    28405 
   13212    -6571   -27410   -40144   -37894   -22451    -2139    12992 
   16150     7987    -4340   -13736   -17942   -18030   -14550    -7048 
    3163    12179    16980    18594    19091    16017     5190   -10557 
  -23272   -30734   -35495   -36432   -30115   -15291     4868    22854 
   33574    36302    31257    22042    13311     5667      735     1842 
    6419     8197     5175     -787    -6303    -6285      889     9844 
   14823    14219     7777    -1953    -8047    -6770      383    12328 
   24622    27688    18558     5726    -1690    -3512    -3989    -2733 
    1891     4811     -922   -14099   -25370   -27195   -20713   -10319 
     780     6983     3777    -3917    -6621    -2146     5634    12370 
   11880     3106    -5124    -8171    -9760   -10589    -8877    -4509 
    3387    13458    18771    11113   -10289   -33941   -44830   -36786 
  -14258    12241    31473    36606    28362    13732     1012    -4981 
   -4800     -750     6347    13568    15504    10126     2315      286 
    5638    12725    17686    17649    11090     3230    -2170    -7465 
  -12073   -13284   -12438   -12058   -13764   -18071   -20970   -16424 
   -4549     7582    14611    17217    15916    10193     3650    -1202 
   -6102    -9825   -10562   -11466   -13450   -13589   -12750   -12449 
   -9448    -2832     1170    -1205    -4538    -2943     3125    10424 
   16181    19207    19778    17934    14910    13956    14245    10640 
    3813     -859    -2172     -108     5671    11568    15739    20586 
   23735    19302     8583    -1796    -9321   -13035    -8407     3368 
   12017    12181     6832     -214    -3928    -1401     1463    -2559 
  -11056   -16121   -15781   -14096   -12507    -8337    -1243     4706 
    7543     7852     2007   -11454   -23503   -25155   -16451     -735 
   16892    27535    25915    15067     -129   -15612   -24270   -19804 
   -5490     7715    11726     7365      939    -3584    -7078   -10289 
   -9823    -2640     6411     9910     9315    10088    10795     7010 
    -405    -6770    -8911    -6147      930     8911    11916     8419 
    3527     2151     4671     8456    10582     8779      797   -12769 
  -24630   -25758   -15927    -4278     1740     2698     2180      461 
   -4958   -13147   -16376    -7974     7746    20260    24066    19056 
    8005    -1382    -2708      830     4230     8136    11720    11333 
    8316     6939     7291     8384    11677    16317    19361    20062 
   17540    10746     2313    -4808   -10592   -12318    -5867     3481 
    5289    -1904   -12190   -20900   -25091   -22322   -13460    -3817 
    2382     5125     4899     1606    -3230    -6340    -6215    -5031 
   -3839    -1325     1899     4471     6058     6199     5269     4571 
    4272     2479    -2370    -7916   -10908   -12066   -11110    -4024 
    7192    14170    15616    16721    17199    13527     7034      311 
   -5340    -6860    -4463    -3184    -3825    -2706     1459     7130 
   12129    14596    13266     7527    -1242    -9549   -15315   -18805 
  -19492   -17543   -14505    -8465     1593     9320    10100     6744 
    1701    -2997    -2976      427      407    -4228    -9583   -12769 
  -10642    -2273     6949    11092     8075    -1371   -11294   -12622 
   -3105     8995    14184    13084    13011    16279    20224    23275 
   23533    18405     9791     3111     1337     3634     6890     7824 
    6858     8008    11654    12953     9439     2408    -5935   -11175 
   -9625    -3645      309    -1190    -4066    -3202     -575      384 
    1067     2293     1104    -3632    -8453   -10100    -8433    -4214 
    1517     6238     6691     2091    -3823    -6574    -6790    -8554 
  -12679   -15257   -11650    -1544     9639    16178    16486    12402 
    6625      934    -1112     3321     8456     6956      495    -6589 
  -12985   -16325   -13508    -4716     5559    11071     9342     3959 
