Origin Time       2024/04/02 04:24:00
Lat.              40.133
Long.             141.712
Depth. (km)       71
Mag.              6.0
Station Code      IWT001
Station Lat.      40.4101
Station Long.     141.7193
Station Height(m) 14
Record Time       2024/04/02 04:24:49
Sampling Freq(Hz) 100Hz
Duration Time(s)  139
Dir.              N-S
Scale Factor      7845(gal)/8223790
Max. Acc. (gal)   184.241
Last Correction   2024/04/02 04:24:48
Memo.             
[...]
  -20849   -20846   -20846   -20849   -20848   -20845   -20846   -20846 
  -20848   -20849   -20846   -20846   -20846   -20850   -20856   -20856 
  -20850   -20848   -20845   -20845   -20850   -20853   -20852   -20852 
  -20852   -20854   -20858   -20852   -20842   -20842   -20844   -20846 
  -20852   -20854   -20853   -20854   -20856   -20853   -20852   -20849 
  -20845   -20844   -20845   -20846   -20846   -20848   -20853   -20853 
  -20849   -20852   -20848   -20844   -20848   -20848   -20845   -20849 
  -20849   -20846   -20850   -20849   -20846   -20852   -20858   -20854 
  -20844   -20842   -20846   -20848   -20849   -20853   -20850   -20849 
  -20854   -20856   -20849   -20848   -20848   -20845   -20846   -20850 
  -20848   -20850   -20858   -20858   -20857   -20857   -20854   -20850 
  -20849   -20846   -20845   -20845   -20848   -20852   -20857   -20858 
  -20856   -20854   -20853   -20846   -20842   -20845   -20848   -20848 
  -20850   -20853   -20854   -20853   -20849   -20846   -20848   -20850 
  -20850   -20850   -20848   -20848   -20850   -20848   -20846   -20853 
  -20856   -20852   -20850   -20850   -20849   -20849   -20850   -20848 
  -20846   -20848   -20853   -20854   -20854   -20857   -20856   -20848 
  -20842   -20844   -20846   -20852   -20854   -20853   -20852   -20853 
  -20854   -20853   -20852   -20850   -20846   -20845   -20849   -20850 
  -20852   -20854   -20854   -20857   -20858   -20850   -20839   -20834 
  -20838   -20849   -20857   -20854   -20850   -20852   -20854   -20854 
  -20854   -20852   -20845   -20844   -20846   -20848   -20849   -20850 
  -20848   -20848   -20852   -20856   -20858   -20853   -20846   -20849 
  -20850   -20849   -20846   -20846   -20854   -20864   -20860   -20853 
  -20853   -20853   -20849   -20846   -20848   -20852   -20854   -20852 
  -20849   -20852   -20856   -20857   -20857   -20853   -20848   -20845 
  -20845   -20848   -20849   -20849   -20852   -20853   -20850   -20848 
  -20846   -20845   -20844   -20842   -20845   -20852   -20852   -20848 
  -20850   -20854   -20857   -20853   -20846   -20845   -20848   -20845 
  -20848   -20854   -20857   -20856   -20853   -20852   -20850   -20848 
  -20846   -20845   -20846   -20849   -20850   -20852   -20850   -20852 
  -20856   -20858   -20852   -20842   -20844   -20849   -20850   -20852 
  -20853   -20853   -20850   -20852   -20854   -20853   -20850   -20848 
  -20842   -20835   -20844   -20856   -20854   -20849   -20852   -20853 
  -20853   -20852   -20845   -20842   -20842   -20842   -20842   -20845 
  -20850   -20858   -20858   -20854   -20854   -20856   -20852   -20844 
  -20841   -20842   -20844   -20849   -20854   -20860   -20862   -20858 
  -20853   -20850   -20848   -20844   -20841   -20845   -20853   -20856 
  -20857   -20860   -20856   -20853   -20853   -20852   -20848   -20845 
  -20844   -20845   -20848   -20853   -20854   -20853   -20853   -20854 
  -20856   -20852   -20842   -20838   -20842   -20848   -20848   -20846 
  -20850   -20854   -20856   -20857   -20854   -20852   -20852   -20845 
  -20838   -20844   -20852   -20852   -20853   -20857   -20857   -20860 
  -20858   -20848   -20841   -20842   -20845   -20848   -20848   -20852 
  -20858   -20857   -20850   -20850   -20856   -20854   -20848   -20842 
  -20844   -20850   -20854   -20850   -20846   -20848   -20850   -20854 
  -20852   -20845   -20845   -20848   -20846   -20846   -20850   -20853 
  -20852   -20852   -20852   -20850   -20852   -20849   -20842   -20839 
  -20845   -20848   -20845   -20845   -20853   -20858   -20857   -20853 
  -20850   -20848   -20846   -20845   -20842   -20845   -20853   -20857 
  -20857   -20854   -20852   -20850   -20850   -20850   -20852   -20850 
  -20848   -20838   -20827   -20814   -20773   -20700   -20625   -20568 
  -20542   -20583   -20725   -20915   -21019   -20995   -20910   -20772 
  -20628   -20687   -21049   -21562   -21897   -21574   -20544   -19537 
  -19290   -19851   -20549   -20896   -21226   -21559   -21130   -19584 
  -17971   -18257   -21016   -23920   -23687   -20470   -18327   -19846 
  -23159   -24042   -20798   -17255   -17929   -22590   -26682   -25895 
  -21366   -18408   -19927   -22111   -20250   -16432   -14407   -16946 
  -24439   -28534   -24228   -16067    -8160    -8301   -19784   -31249 
  -34430   -29099   -19377   -14372   -15731   -19215   -23097   -23855 
  -21925   -22095   -23604   -24923   -25659   -24156   -21660   -16899 
  -10759   -13302   -24484   -33334   -33137   -20896    -4658      394 
   -7832   -19939   -27274   -25898   -18678   -17879   -30545   -39001 
  -26302    -4592     7612      610   -27045   -56380   -61300   -35839 
     733    16907    -2319   -36537   -51417   -36840   -12831    -3281 
  -13892   -32100   -39426   -22929     6022    15977    -5628   -44297 
  -70152   -56606   -16472    14295    17188    -7130   -38839   -49115 
  -34603   -15041    -3650   -11082   -31716   -32188    -9678     3118 
  -10223   -48161   -83087   -70900   -12617    40211    44167      965 
  -56470   -86482   -58309     4564    38384    17751   -30917   -58995 
  -31850    11816     7912   -35926   -77944   -81309   -25872    38723 
   53060    22621   -30885   -79389   -77413   -28939     7142     8507 
   -1143   -12897   -25343   -30030   -36477   -52211   -53333   -27407 
     730    14002    12128   -10449   -40161   -49164   -41377   -26407 
    -656    13857     4810    -5798   -14801   -31475   -49137   -55370 
  -43047   -22725    -7357       21    -2899   -11974   -26748   -40092 
  -34619   -20954   -10748    -4457   -17118   -37288   -40867   -35542 
  -25662    -9886    -3094   -10957   -19728   -21990   -20509    -9734 
    3694    -2250   -22905   -42273   -53690   -41719   -12523     -288 
   -9293   -22810   -34500   -28381    -6196    -1696   -22017   -45863 
  -51564   -25215    10312    17811    -3777   -37764   -63036   -54090 
  -22405     -633     4232    -7676   -28385   -35198   -29767   -25493 
  -15385    -6309   -13047   -16757    -8749    -9734   -18817   -25309 
  -35456   -44400   -36764   -18507    -5867    -4413   -12985   -22913 
  -26781   -27071   -23107   -14987   -13246   -19511   -23669   -28302 
  -36181   -31311   -12523    -5690   -16571   -25385   -27683   -28682 
  -26465   -21169   -15480   -13537   -16073   -19211   -21033   -20310 
  -18940   -16299   -11485   -14993   -25344   -27669   -24927   -21713 
  -15982   -14293   -16656   -24044   -33814   -28636   -17420   -15534 
  -16675   -25666   -43078   -54171   -45846   -17122     5967     7252 
   -4360   -24105   -34649   -20097      425     2220   -14611   -29131 
  -29301   -23782   -17902   -17428   -28287   -36192   -30848   -23602 
  -20807   -17320   -11665   -11361   -23656   -39293   -46192   -42064 
  -20586     7214    11392    -5973   -21330   -27367   -22018    -9188 
   -4341   -16524   -34902   -34947   -16395    -8989   -23305   -41374 
  -47810   -40428   -23075    -5802    -2903   -13028   -16943    -8525 
   -5293   -18023   -36158   -45971   -39251   -17518    -1799   -12347 
  -37041   -47781   -35721   -12456     4014     4477    -3600   -12253 
  -19460   -21354   -24240   -36794   -45374   -38354   -25721   -13466 
   -2636    -3269   -18171   -35515   -43927   -34969    -8561    15800 
   19334     -982   -37249   -63525   -60278   -39949   -19209    -3493 
    5991     5752    -9067   -27665   -39660   -45766   -36828   -17320 
   -8256    -9817   -16907   -28671   -34190   -31934   -28098   -19269 
   -5736     6894    14326     7616   -17614   -46653   -56358   -42507 
  -20641    -4610    -3485   -16696   -29484   -34767   -41262   -49623 
  -43218   -17914     3645     6767    -3477   -23133   -36904   -22685 
    5973    15936     -976   -30335   -49877   -45786   -26802   -12341 
  -15616   -31082   -40567   -39793   -33733   -26145   -25038   -26423 
  -19122    -5086     9224    13203    -2169   -25014   -35708   -29404 
  -15703    -8291   -13236   -23719   -29092   -27139   -22520   -18119 
  -16357   -20687   -26715   -27954   -30588   -38722   -44699   -43025 
  -27568    -2894     9610     7260    -2727   -24934   -46572   -45400 
  -23878      499     9814    -5317   -30019   -40690   -32525   -16452 
   -7894   -15545   -27190   -25039   -15709   -13953   -17848   -24975 
  -34639   -38576   -34863   -28825   -18962    -5205     3082     1433 
  -13720   -40790   -53577   -39806   -22482   -14742   -14887   -20873 
  -20198    -7840      373    -6511   -19151   -26088   -24927   -15556 
   -9632   -19467   -34450   -40907   -34573   -18648    -8556   -12761 
  -23203   -31136   -32277   -25442   -14725    -7839    -7499   -10374 
  -18310   -31467   -36535   -29677   -21810   -12897    -5906   -12399 
  -25089   -30408   -28989   -26968   -25181   -21192   -17612   -14854 
  -14143   -23599   -34596   -34253   -29663   -21791   -10204    -4733 
   -2068     -271    -4195    -9193   -18011   -34260   -42724   -31062 
  -14295   -14260   -25901   -36931   -45598   -41854   -24930   -11442 
   -6660    -7956   -10497   -10311   -17298   -28672   -27950   -23348 
  -24331   -23526   -23738   -26805   -29623   -32722   -28026   -17712 
   -9391      592     1364   -10204   -18821   -22816   -20326   -15402 
  -20042   -28880   -36460   -39251   -34446   -33274   -35309   -25308 
   -8291      527     5157     7051    -1404   -13451   -26320   -42202 
  -47101   -35719   -22156   -16013   -21670   -37682   -48261   -44775 
  -35750   -22369    -5082     1961     2894     9828     9131    -4893 
  -22596   -39856   -47561   -33539    -4128     7122   -10196   -31506 
  -48163   -43819   -13057     1513   -11024   -30572   -52384   -54653 
  -32281   -16953   -13814   -15412   -21982   -14300     7083    14987 
    2619   -23858   -47470   -44620   -17248    10682    12860   -18709 
  -58052   -70517   -49030   -14845     9528    11561    -9343   -30643 
  -34072   -31033   -31039   -28908   -22844   -14611    -7884    -9809 
  -19877   -28678   -30883   -23429   -11130    -9868   -18462   -26192 
  -31866   -24942    -5287     2752    -6763   -19313   -27480   -30588 
  -32499   -34334   -34420   -37104   -31838   -10582    -3160   -20912 
  -37396   -40907   -27600    -2111    11169     3210   -16580   -36520 
  -41859   -29767   -14011    -2505     4168    -1644   -18898   -32830 
  -44421   -61570   -69812   -55215   -23383    12152    29959    18696 
  -11916   -47375   -64145   -41469     4514    33284    30847    11537 
  -17938   -46727   -57836   -56300   -50018   -36211   -22175   -15383 
   -9961    -5065    -8514   -19128   -25662   -21288    -9883     -414 
   -1215   -13848   -30472   -41251   -43281   -37299   -23355   -10795 
   -9524   -15460   -20596   -18411   -10081    -6651   -15581   -32397 
  -43348   -43757   -38738   -27697   -17235   -17192   -18625   -16594 
  -17896   -13702    -2276     -850    -2778     1961    -6480   -28714 
  -43586   -50769   -50602   -40506   -29990   -21244   -15417   -18975 
  -25741   -29058   -33925   -36910   -24707     -622    15912    17791 
    9412    -9648   -28864   -32157   -28584   -29139   -29405   -29629 
  -23976   -14019   -21050   -39191   -50606   -53003   -34897    -6655 
    5335     5074    -5155   -20644   -18770    -7491    -9086   -21454 
  -34523   -35745   -21855    -6886    -3088   -17490   -39174   -47351 
  -42043   -27113   -10660    -8411   -12448   -12132   -13108   -13724 
  -15325   -25609   -35563   -33689   -24403   -16070   -10416    -7604 
  -10714   -15515   -20115   -32756   -44869   -43987   -36350   -26231 
  -17959   -15550    -7974     7867    20316    24837    19113      465 
  -16927   -18376   -14805   -20807   -39708   -70175   -94645   -97642 
  -91525   -88329   -80087   -57667   -24630     8907    39449    62961 
   73537    81589    95847   107399   111065   101888    66814      992 
  -88677  -175684  -211266  -187820  -164832  -162637  -143680  -113262 
  -85332   -52710   -35519   -25660     2863    37233    72281   105375 
  125815   136206   131573   109830    77352    32734   -17157   -61366 
  -92932  -105291  -114376  -135329  -145007  -133077  -119506  -101584 
  -74900   -54357   -35712   -13032     3154    14328    29663    52586 
   81552   107482   121031   121323   109674    81607    35937   -22091 
  -90981  -159561  -195394  -177445  -125319   -75627   -43823   -26855 
  -24977   -36278   -48676   -53446   -45527   -23688    -2673    12718 
   34986    55101    59313    54611    47542    42566    42268    40034 
   31048    15120    -8149   -42687   -92009  -147073  -192132  -211491 
 -193108  -149886  -109950   -79689   -48987   -13907    24021    59962 
   87941   107003   117674   117080   102312    74827    41002     5265 
  -39297   -92676  -123388  -109853   -84960   -83255   -92384   -93804 
  -82556   -48400     2026    42989    62294    63531    59656    56056 
   36613   -10062   -71223  -119792  -128810   -90227   -35650   -15157 
  -34249   -51594   -41057    -7186    32211    51823    39514     4383 
  -32516   -45208   -30659   -10042     7249    21131    22527     7244 
  -15800   -41985   -70673   -89365   -91014   -88892   -89899   -83026 
  -58673   -18501    20957    43344    55641    65013    65938    62392 
   58560    52301    39785     9224   -34500   -62484   -64003   -58750 
  -66538   -80041   -75836   -55661   -48381   -71771  -112552  -137084 
 -120735   -70229   -15901    24653    62995   100635   121595   127566 
  120271    89901    44875     6076   -18068   -36556   -65190  -111757 
 -167775  -208857  -214020  -182605  -123547   -55652    -4514    30736 
   62490    83365    89634    86335    77232    61917    30754   -11577 
  -51408   -80986   -81434   -58776   -56448   -77789   -80800   -50178 
   -6885    25375    41904    48932    40428    16806    -2261    -9088 
  -15350   -31236   -55674   -79456   -86030   -58707    -8734    24761 
   23460     7836    -3782   -12469   -18239   -22840   -33716   -51133 
  -68257   -75108   -67385   -57148   -55517   -59618   -68947   -77778 
  -65993   -32752     -164    24358    49962    77188    98921   109289 
   98533    63926    13516   -51935  -124826  -169240  -154958  -103383 
  -57518   -30746   -22238   -20970    -7322     6508     5925     3249 
    3402     6597     6718   -14598   -57261  -102830  -127804  -110170 
  -63489   -26931     -426    39448    81614   107690   118527   110574 
   84248    53180    20910   -15569   -49956   -76526   -91960   -92794 
  -88528   -89371   -86767   -74977   -63633   -59493   -63324   -72192 
  -74663   -64092   -46997   -26851    -3411    16208    27824    36721 
   44188    44356    36130    25170    16349     7447    -8919   -35135 
  -68374   -97210  -100923   -77097   -44000   -15087     3693    17216 
   30339    26561    -3861   -47039   -84408   -91373   -55082     3585 
   51054    67223    58116    37208     6778   -22712   -40813   -54349 
  -66846   -74167   -73024   -59746   -36609   -13907     -286     4806 
    6029     4463      172    -6691   -16399   -22982   -18576    -3847 
   14559    23013     7719   -27607   -69411  -103789  -113421   -90768 
  -47344     -564    38118    58996    52720    21465   -23712   -67648 
  -89024   -84747   -75967   -69450   -55910   -40679   -31808   -23067 
  -13602    -7260     3527    22582    39861    45364    35634     9649 
  -25932   -53233   -62356   -61811   -61601   -60199   -51980   -41779 
  -34794   -22231    -3790     8910    15611    15444     3991    -9383 
  -14656   -11369    -1327     9301    10737     1981   -10528   -24025 
  -31641   -28066   -25429   -29943   -31477   -27352   -19696   -10565 
  -12044   -28387   -44641   -51378   -50473   -40138   -23398   -11456 
   -5999    -4249    -7402   -12397   -18416   -26245   -29088   -23827 
  -13613    -1802     4251    -1104   -14887   -32719   -51862   -63930 
  -60683   -49319   -44590   -51406   -63331   -65169   -47896   -21537 
    5485    31094    43659    35707    12267   -18056   -42925   -52296 
  -46336   -33335   -21319   -13876   -16285   -26744   -31963   -31039 
  -29766   -22551   -11111    -2895     3534     6304     3985     3415 
    5493     5151     2039    -3730   -15608   -30719   -38321   -37064 
  -35561   -35511   -34582   -31926   -23147   -10893    -7765   -14577 
  -22322   -28626   -28216   -18072   -11350   -16125   -25856   -31548 
  -25463   -11804    -6116   -14936   -31271   -44655   -47860   -39761 
  -26106   -17315   -18644   -25735   -35829   -48915   -59053   -58988 
  -47301   -28345    -8033    10400    22997    21651     4332   -18455 
  -38862   -55536   -62446   -58398   -49183   -33706   -15178    -5085 
   -2007     3366    11585    18465    18860    10083    -3958   -16141 
  -17929    -7812     3292     7431     4753    -5764   -22145   -36841 
  -45372   -46473   -39587   -27027   -10781     5886    15877    18000 
   14145     1609   -17347   -35903   -49632   -53886   -47035   -34493 
  -23361   -14551    -5759    -1318    -7970   -27110   -52695   -69940 
  -70915   -63732   -54668   -46861   -45252   -44032   -37678   -32692 
  -32309   -35268   -37149   -29111   -12434     5150    19086    23074 
   16978     7095    -4953   -17188   -27117   -36439   -45716   -52292 
  -53368   -50001   -44813   -39391   -36513   -32395   -19217      510 
   18983    30829    34344    32564    26211    13718    -2068   -17478 
  -31471   -41440   -43506   -38659   -29876   -19184   -12694   -11080 
   -5562     5364    17335    24871    17964    -1532   -20385   -33124 
  -38878   -41310   -48327   -57674   -62035   -58607   -47972   -38138 
  -37257   -41818   -43382   -39116   -33409   -33929   -43075   -53341 
  -56637   -50097   -33713   -15040    -1894     7182    10750     4488 
   -8689   -23909   -35614   -38889   -34962   -25427   -11701      369 
    5206     1131    -9223   -21096   -29505   -27510   -13302     3040 
    8816       -9   -17335   -32462   -37798   -33199   -23993   -14962 
   -7561    -1266     6303    16366    24511    24416    14265    -3127 
  -23469   -42662   -58468   -69168   -70371   -60293   -42665   -22578 
   -8284    -5336    -8937   -14885   -22222   -25483   -23099   -20223 
  -18843   -19857   -23178   -21986   -14897   -10631   -13315   -22378 
  -33280   -35750   -28915   -22083   -21953   -29551   -37540   -37276 
  -29670   -20773   -16279   -18137   -22129   -23045   -18015    -8255 
    1050     6789     8768     6747     -313   -11772   -22036   -26778 
  -27336   -26657   -29424   -37326   -43295   -41744   -34519   -25690 
  -21251   -24065   -30196   -36228   -38942   -34908   -25697   -15264 
   -6427      261     3834      711    -9387   -23627   -37962   -45176 
  -41540   -30746   -17937    -6820    -1699    -5393   -16262   -31959 
  -48259   -56342   -51403   -35739   -15626    -1227     2724      417 
   -7870   -23423   -37710   -42088   -36097   -21227    -3936     4310 
     -47   -14351   -34638   -50820   -55950   -49724   -30285    -3774 
   16065    23589    16796    -3121   -20746   -23403   -16634    -6966 
    3352     8657     7839     2434   -11130   -30044   -44236   -48845 
  -43171   -31876   -26156   -31301   -43849   -60419   -75452   -78605 
  -67055   -47726   -26941   -10305       17     7897    14119    16090 
   11993      923   -11743   -17552   -16791   -15979   -17220   -19276 
  -22469   -27406   -34152   -39588   -38020   -29404   -18453    -9165 
