Origin Time       2024/04/02 04:24:00
Lat.              40.133
Long.             141.712
Depth. (km)       71
Mag.              6.0
Station Code      IWT009
Station Lat.      39.0190
Station Long.     141.4053
Station Height(m) 148
Record Time       2024/04/02 04:24:58
Sampling Freq(Hz) 100Hz
Duration Time(s)  121
Dir.              U-D
Scale Factor      7845(gal)/8223790
Max. Acc. (gal)   20.121
Last Correction   2024/04/02 04:24:57
Memo.             
[...]
  -25051   -26796   -29458   -29763   -26825   -21984   -21370   -25678 
  -28177   -28529   -27688   -23641   -21498   -27091   -32617   -30283 
  -26590   -26084   -26576   -27580   -27616   -26798   -26352   -26044 
  -27367   -28231   -26119   -26441   -30746   -31585   -27460   -24140 
  -22968   -23576   -27209   -28696   -24287   -21713   -25979   -31666 
  -32665   -28613   -24837   -24035   -22985   -23144   -27452   -30920 
  -29673   -25785   -22769   -23787   -27901   -30993   -29678   -24709 
  -23318   -26936   -27946   -26136   -26515   -27950   -26316   -22773 
  -23167   -27044   -30076   -30758   -28486   -25551   -24337   -25735 
  -28540   -28534   -26152   -23928   -23414   -27016   -30462   -28152 
  -23527   -22090   -25189   -29249   -30045   -29419   -27641   -23776 
  -24533   -30346   -32466   -29386   -24409   -21420   -23620   -26883 
  -27819   -27425   -25486   -24898   -26904   -28867   -30615   -27706 
  -20599   -21537   -29636   -32926   -30122   -27039   -26234   -24768 
  -23448   -26208   -28452   -26396   -23507   -23477   -27440   -30099 
  -27824   -25162   -25398   -27332   -26700   -24983   -27067   -27753 
  -25952   -26658   -27788   -29137   -30325   -27901   -24343   -23183 
  -24337   -25510   -25425   -27364   -30484   -28367   -23598   -24490 
  -28991   -29586   -26686   -25070   -24644   -23743   -24941   -28065 
  -28237   -25474   -23668   -24918   -28339   -30316   -29326   -26628 
  -24424   -25660   -29066   -29531   -26833   -25037   -24873   -26064 
  -27585   -26707   -26738   -29150   -27931   -24591   -25154   -27764 
  -28624   -27561   -25987   -25559   -27143   -28892   -27967   -26053 
  -25945   -26736   -27103   -26523   -26374   -27626   -27730   -25976 
  -24044   -25091   -30678   -32938   -26650   -19768   -20077   -26261 
  -31530   -31577   -27429   -23074   -23835   -28316   -27808   -22454 
  -22427   -28065   -30580   -27945   -23859   -22936   -26902   -31928 
  -31430   -24258   -20690   -26003   -32209   -31777   -24426   -19280 
  -23345   -30375   -32026   -26755   -21771   -24941   -31808   -33126 
  -27989   -23580   -24301   -26464   -27437   -27544   -26323   -24073 
  -22508   -24700   -28001   -26148   -23318   -25289   -28603   -30119 
  -30407   -30272   -29019   -26593   -25726   -26306   -25569   -24183 
  -25355   -28522   -28991   -25748   -22528   -23388   -29133   -33543 
  -29616   -21870   -20228   -24129   -28443   -32121   -31773   -25197 
  -19633   -23845   -33185   -33188   -23643   -19313   -23985   -29944 
  -32320   -29396   -24340   -22380   -25172   -30894   -31939   -25926 
  -22002   -23560   -26304   -28399   -29143   -27993   -25087   -23112 
  -26441   -31463   -30412   -25049   -21600   -22547   -27911   -31807 
  -27770   -21613   -22847   -30052   -34819   -30974   -21725   -19248 
  -27224   -33966   -30134   -21205   -20247   -28642   -33301   -28008 
  -19719   -18760   -28397   -36387   -31700   -21849   -19263   -25979 
  -33386   -32360   -24973   -21374   -25015   -28533   -27098   -25749 
  -27368   -27591   -25764   -24309   -23619   -25465   -29373   -29870 
  -25670   -23371   -26188   -29686   -30159   -27691   -24594   -23593 
  -26446   -30784   -29716   -23835   -21925   -26624   -31522   -28892 
  -21980   -21182   -25699   -28559   -28860   -27955   -26449   -25974 
  -26788   -26806   -26161   -26514   -28194   -29158   -26568   -23616 
  -25525   -30219   -31367   -26465   -22013   -25181   -30794   -29965 
  -24567   -22449   -25959   -30433   -30353   -25513   -21871   -24629 
  -30052   -29758   -23734   -20127   -24190   -31673   -33824   -29263 
  -23202   -21703   -26315   -29500   -27437   -25095   -25220   -27942 
  -30697   -28861   -24493   -23376   -26289   -29440   -28216   -23344 
  -22044   -26431   -29258   -26547   -23309   -24885   -28879   -29400 
  -28408   -29443   -27990   -24543   -25431   -27648   -27400   -26890 
  -25011   -23259   -25631   -28998   -30145   -28408   -24657   -23288 
  -25772   -30241   -31676   -26003   -21116   -23518   -27087   -27958 
  -28741   -29027   -25627   -21443   -23741   -30890   -33307   -28399 
  -23437   -24973   -29749   -29068   -24344   -23430   -25245   -26069 
  -27282   -29079   -28516   -26103   -25290   -25504   -25807   -26676 
  -26771   -26669   -27326   -27450   -26487   -24979   -24997   -27575 
  -29133   -27097   -24318   -24493   -26792   -27818   -27900   -29269 
  -30233   -27440   -23201   -24140   -29128   -29556   -24800   -22369 
  -24511   -27865   -29648   -28755   -26435   -25482   -26946   -28486 
  -27411   -23710   -21594   -25542   -30804   -31006   -27657   -24336 
  -25146   -29133   -29821   -26698   -22902   -21969   -26076   -29392 
  -27662   -24860   -23070   -24260   -30785   -34230   -28109   -21359 
  -21131   -25097   -29485   -30581   -27982   -24848   -23766   -25142 
  -26204   -26877   -29327   -29513   -25149   -22788   -26532   -30079 
  -27128   -23328   -25424   -29404   -29571   -26832   -25456   -26339 
  -27359   -27714   -26264   -23859   -24671   -29045   -31768   -27916 
  -21933   -23545   -30461   -32119   -26658   -22002   -24316   -28864 
  -28649   -27081   -28437   -28648   -26551   -27059   -28964   -25396 
  -19599   -22801   -32016   -32999   -25948   -23241   -25434   -25787 
  -27091   -30500   -29114   -22979   -21035   -27125   -32385   -28371 
  -21753   -22250   -27731   -30518   -28140   -24891   -24956   -27307 
  -28503   -27630   -26466   -25604   -25585   -27130   -27032   -24347 
  -24306   -27931   -30024   -28360   -26566   -26229   -24548   -24436 
  -27978   -28117   -24923   -26133   -30589   -30744   -26181   -23823 
  -24224   -24274   -27045   -30917   -28869   -23187   -22707   -28414 
  -31702   -28131   -24028   -24364   -26412   -28383   -29057   -26037 
  -23674   -26219   -28806   -27018   -23733   -23652   -26541   -28485 
  -28013   -26468   -25543   -25767   -27005   -29511   -29830   -25832 
  -23126   -24351   -26950   -29022   -28467   -26154   -24549   -25641 
  -29533   -29874   -24594   -21571   -25641   -30483   -28614   -24784 
  -23985   -24960   -29043   -32233   -29057   -23865   -22902   -27044 
  -31032   -29417   -23334   -20028   -25146   -32421   -32794   -27070 
  -21339   -21855   -27923   -31938   -29546   -22782   -20405   -26546 
  -31912   -31048   -28283   -24894   -21886   -23286   -26901   -27969 
  -27600   -27237   -26046   -25101   -26388   -29131   -29224   -25818 
  -23873   -25415   -28213   -29582   -26763   -23340   -25254   -28462 
  -28472   -27153   -25455   -26265   -28846   -27545   -24961   -25492 
  -28243   -29151   -24964   -22499   -26161   -28593   -27360   -25347 
  -23895   -25776   -29685   -29936   -25552   -22651   -26335   -30550 
  -27711   -22936   -24501   -29951   -31164   -27886   -25628   -25851 
  -27487   -27810   -25180   -23703   -24862   -27654   -31615   -30041 
  -22638   -20267   -25064   -29330   -28775   -26327   -25164   -24736 
  -26707   -31074   -31195   -25548   -22427   -25780   -29563   -28625 
  -24903   -23949   -27522   -30441   -29002   -25505   -23267   -24370 
  -28417   -31091   -28198   -23438   -24314   -28918   -30881   -29168 
  -25107   -22222   -24445   -28834   -28674   -24903   -24124   -27288 
  -29722   -28443   -25767   -24773   -25870   -27029   -25182   -25118 
  -29781   -29728   -24435   -23167   -26730   -29334   -27847   -26484 
  -26931   -25772   -24829   -25617   -26094   -25380   -24889   -26558 
  -27507   -26983   -28240   -28763   -26599   -24405   -24907   -28289 
  -29020   -25748   -24463   -26312   -29528   -31328   -27637   -22141 
  -21047   -25937   -32988   -32823   -25177   -20264   -23340   -30588 
  -32809   -27306   -20731   -19624   -26389   -33705   -32482   -25563 
  -21340   -25756   -33519   -31742   -22728   -19095   -23107   -28124 
  -29602   -28152   -26023   -25866   -28038   -29211   -27568   -25169 
  -25010   -26258   -26542   -27629   -29224   -26894   -22640   -23229 
  -27352   -27727   -24854   -24952   -28717   -32013   -30719   -25471 
  -22520   -25188   -29581   -29898   -24821   -20522   -23800   -30407 
  -32016   -29336   -25760   -22701   -23384   -28039   -31002   -28741 
  -25111   -24663   -26014   -26009   -25655   -26617   -26959   -26481 
  -27189   -27839   -26739   -25328   -26798   -30362   -29502   -24470 
  -22480   -24005   -27475   -31143   -29443   -24046   -21925   -24899 
  -29065   -29031   -26250   -24672   -24603   -26900   -28671   -26034 
  -24244   -27538   -30234   -28375   -25771   -25743   -27091   -28507 
  -28788   -25726   -22566   -24849   -28907   -28802   -26104   -24422 
  -26245   -29446   -28139   -24868   -25524   -27422   -26809   -25424 
  -26210   -27808   -26079   -24417   -27434   -29826   -28849   -27592 
  -26082   -24586   -25290   -28061   -28561   -25311   -24363   -27141 
  -27818   -25825   -25081   -26002   -27166   -28452   -29128   -27402 
  -24270   -25080   -30272   -31064   -25385   -21793   -23880   -27722 
  -28499   -26104   -24591   -25178   -28921   -33320   -29339   -20476 
  -20518   -28038   -30987   -27157   -23982   -26041   -28738   -27687 
  -26528   -26804   -26627   -26833   -25670   -23508   -26287   -31831 
  -32084   -27322   -23082   -21546   -22268   -25509   -29972   -30780 
  -27500   -26191   -28120   -28660   -26784   -24852   -23291   -23904 
  -28364   -32148   -30292   -23757   -21297   -27430   -31106   -26782 
  -23172   -25050   -27500   -25647   -24841   -27216   -25888   -24480 
  -27112   -27959   -26794   -25812   -25188   -26998   -30102   -31121 
  -27783   -22944   -23777   -28813   -30782   -27471   -23139   -24972 
  -30673   -30767   -24345   -19140   -22374   -30406   -32085   -26551 
  -22572   -24625   -29161   -29872   -26689   -25122   -26734   -28277 
  -26136   -22763   -25535   -31742   -32537   -28740   -24374   -21651 
  -24522   -30036   -29303   -23832   -23689   -28890   -29932   -26288 
  -24498   -24730   -25527   -27022   -27228   -26341   -26455   -27693 
  -28675   -27249   -24903   -24929   -25930   -25772   -25563   -28046 
  -31950   -31572   -27662   -25251   -25272   -27202   -27737   -24622 
  -23785   -27668   -28993   -25868   -24948   -27360   -27738   -24232 
  -21135   -23492   -29428   -32100   -28713   -23114   -21591   -25339 
  -29363   -29412   -25439   -21936   -24183   -29872   -31928   -29403 
  -25070   -21217   -23245   -30674   -32347   -25497   -21424   -25793 
  -31349   -30727   -25490   -22032   -23720   -29621   -33227   -28794 
  -23944   -26415   -30542   -30504   -28240   -27048   -26273   -25924 
  -29103   -33382   -32131   -26134   -22852   -24815   -28161   -30187 
  -30024   -26846   -23236   -24524   -28286   -27039   -23930   -25045 
  -25770   -22566   -21735   -26302   -29195   -25429   -20371   -20316 
  -22493   -23319   -24397   -24567   -22567   -22983   -28425   -31978 
  -26352   -18898   -21053   -29324   -33151   -29585   -24633   -25355 
  -31051   -33612   -28121   -21558   -23193   -30267   -32764   -27820 
  -22268   -22526   -27965   -31907   -29216   -24416   -24472   -29739 
  -34616   -33064   -28371   -26865   -26987   -24340   -18725   -17556 
  -24148   -30111   -30531   -29862   -33502   -39113   -40216   -37114 
  -32154   -26269   -22168   -21498   -24304   -25107   -19209   -15452 
  -19861   -26423   -31561   -32239   -25504   -18438   -19511   -26184 
  -29643   -25272   -21016   -26140   -31274   -28248   -26512   -28615 
  -27341   -21871   -18455   -23107   -30746   -32246   -26262   -16212 
  -13090   -24174   -36518   -35229   -23818   -16416   -19479   -28183 
  -33876   -29320   -21756   -26929   -39152   -38377   -23977   -14293 
  -20162   -32989   -36136   -25205   -13560   -14936   -27417   -36186 
  -31255   -21421   -21103   -30842   -40085   -39711   -31770   -26338 
  -28696   -34488   -32634   -21504   -15438   -21235   -31615   -38241 
  -36501   -30920   -28474   -28804   -30179   -28293   -19549   -13531 
  -16447   -20479   -24297   -30858   -34368   -30847   -26924   -28012 
  -27430   -21620   -18373   -21135   -27565   -32827   -30908   -24690 
  -18585   -15924   -23919   -32999   -29234   -23446   -24263   -26542 
  -31330   -35845   -33714   -29749   -29779   -32030   -29689   -21890 
  -19570   -23892   -25184   -23310   -20117   -16368   -18507   -29465 
  -41391   -38326   -20599   -13219   -24178   -34838   -32155   -19106 
   -9551   -12557   -23792   -36186   -43205   -40676   -30943   -22029 
  -21278   -25857   -27776   -24476   -21016   -22036   -23629   -26605 
  -32016   -28185   -20480   -25909   -36487   -40926   -39248   -29782 
  -19354   -15925   -17837   -24314   -29253   -27384   -26063   -28363 
  -29795   -26925   -21551   -22102   -28934   -32726   -29628   -24552 
  -25627   -32578   -35236   -29228   -22546   -23066   -25544   -22088 
  -17037   -17809   -23814   -29266   -30488   -29195   -28567   -31218 
  -35193   -31934   -20960   -13686   -19242   -35430   -46147   -38781 
  -22593   -16225   -25691   -34589   -28884   -21084   -21077   -22920 
  -25540   -29103   -30419   -28877   -27090   -27081   -25212   -22447 
  -26842   -35187   -36138   -27434   -17791   -18646   -28242   -32366 
  -28274   -25783   -26735   -26515   -26125   -26198   -23383   -19197 
  -19245   -25065   -33273   -37412   -31386   -19368   -16154   -25145 
  -30923   -27024   -21705   -18585   -19198   -25575   -34326   -37393 
  -31048   -25423   -26519   -25045   -18412   -14763   -19014   -30609 
  -43615   -47780   -39984   -28595   -21482   -20217   -22632   -25286 
  -24857   -19866   -17795   -26964   -37592   -35361   -27830   -29313 
  -32864   -26671   -16470   -12372   -17736   -29232   -37654   -35631 
  -23778   -15156   -23534   -37916   -37855   -26433   -16387   -13117 
  -21201   -34503   -38956   -34209   -27409   -24543   -26740   -24024 
  -18627   -24933   -35974   -36832   -28652   -20096   -19152   -25110 
  -29905   -29290   -21770   -15165   -21219   -32836   -36481   -32001 
  -28167   -28875   -28332   -24846   -21419   -20457   -24530   -29614 
  -30493   -28092   -26466   -27868   -27329   -22509   -19460   -21073 
  -27218   -34946   -35914   -29097   -24256   -26782   -28401   -23355 
  -21795   -27363   -30659   -30261   -28794   -25704   -23981   -25427 
  -28205   -31041   -29467   -21354   -14936   -18060   -25949   -27580 
  -23917   -24786   -30808   -34107   -31105   -28837   -29718   -26419 
  -21917   -22473   -24478   -24428   -22989   -23422   -25332   -25911 
  -27757   -29246   -26681   -24331   -23930   -24240   -26734   -28640 
  -27888   -28822   -31376   -30527   -26308   -22381   -22493   -28196 
  -34057   -35340   -33967   -30581   -24700   -20220   -21274   -25320 
  -27989   -29509   -29632   -29026   -30591   -30109   -23242   -18203 
  -22195   -28382   -28139   -23319   -22978   -29624   -33852   -30384 
  -24517   -20946   -21593   -26103   -29867   -29894   -27774   -25451 
  -24788   -26819   -27815   -23622   -19992   -24402   -32109   -35383 
  -31876   -25142   -21868   -21921   -23699   -27070   -26703   -22663 
  -22009   -26092   -30781   -31726   -29841   -28841   -26064   -20781 
  -19986   -25513   -29357   -27341   -27221   -31275   -32229   -29474 
  -25631   -23944   -25821   -25994   -25728   -27329   -27607   -30040 
  -32047   -27475   -25701   -28703   -27661   -26052   -25759   -23758 
  -24098   -27770   -30862   -28159   -20320   -18913   -24651   -27756 
  -27483   -26539   -27245   -28279   -25894   -23699   -25623   -32043 
  -36051   -28251   -18708   -22041   -32757   -36687   -29813   -21436 
  -19032   -22114   -28308   -30492   -25151   -20719   -23599   -30862 
  -33905   -26630   -18139   -19946   -27380   -31448   -29407   -24283 
  -24479   -31097   -34564   -31045   -24966   -20884   -22627   -28996 
  -31947   -26025   -18407   -20498   -29301   -34157   -30796   -23348 
  -21475   -26426   -32371   -36101   -32687   -23359   -17983   -21713 
  -30348   -32188   -25115   -22125   -27108   -31606   -29448   -22947 
  -20788   -24582   -28412   -29124   -26250   -22986   -24034   -28533 
  -30836   -28640   -26990   -27220   -25309   -23800   -25617   -28428 
  -30562   -29813   -25940   -24313   -28005   -32286   -30145   -22497 
  -18713   -22113   -26111   -26515   -25575   -26152   -27483   -27981 
  -29192   -30446   -27518   -22141   -20771   -24931   -29266   -27967 
  -23503   -22885   -27679   -32113   -31180   -27557   -25083   -24864 
  -24553   -22694   -24142   -28877   -32171   -31565   -27220   -24725 
  -25357   -25632   -27116   -29366   -28707   -25787   -23337   -23811 
  -27175   -28277   -25860   -24883   -26250   -29003   -31977   -30828 
  -27009   -24915   -24597   -26349   -26906   -23885   -22435   -25756 
  -31652   -33744   -29313   -24759   -23850   -25729   -27895   -26207 
  -24995   -29079   -29677   -24379   -23427   -27305   -29612   -28102 
  -23896   -21618   -23218   -27044   -31118   -29870   -23036   -21037 
  -26824   -31509   -30400   -26684   -24545   -25311   -26303   -23976 
  -21270   -23373   -27442   -28881   -28377   -28080   -29155   -30331 
  -28761   -25582   -24698   -25002   -24555   -25787   -28367   -29682 
  -28796   -26721   -26738   -27000   -24525   -24471   -27157   -26816 
  -25590   -25813   -26678   -29525   -30744   -27631   -25253   -26059 
  -27004   -26507   -26399   -26585   -26050   -27729   -31005   -29648 
  -23753   -21425   -26333   -31936   -31880   -27263   -21062   -17803 
  -23315   -32575   -33060   -25339   -20533   -22554   -27434   -30856 
  -30492   -26434   -21864   -21987   -28520   -34388   -31229   -22596 
  -18688   -22512   -29397   -32900   -30136   -24224   -21336   -24946 
  -30885   -31901   -27427   -23094   -23437   -27793   -30611   -28036 
  -22933   -20916   -25353   -32493   -33582   -27789   -23257   -23739 
  -26196   -28846   -29822   -26183   -20830   -20721   -27947   -33947 
  -30018   -22273   -19641   -23699   -32035   -33789   -25405   -20649 
  -23793   -27353   -28858   -28016   -26100   -24892   -25386   -28479 
  -29403   -25776   -23178   -22909   -23107   -25497   -30191   -32900 
  -29195   -23137   -23958   -29575   -30283   -25747   -22936   -23417 
  -25424   -29724   -31654   -27761   -24960   -24964   -24416   -23949 
  -25535   -30302   -32208   -28441   -26237   -27226   -29115   -30335 
  -27858   -23207   -20908   -22840   -27742   -31075   -29143   -26593 
  -29212   -32417   -31509   -28085   -24127   -23236   -24877   -24370 
  -23485   -24214   -26269   -30418   -32530   -29038   -24169   -23884 
  -27660   -29905   -27990   -23467   -21610   -25640   -29444   -28929 
  -27199   -26137   -27133   -29285   -28555   -25204   -22947   -23958 
  -27253   -29413   -28884   -26370   -22929   -21990   -25448   -28729 
  -27245   -22670   -21162   -25932   -31623   -31483   -25393   -20115 
  -22256   -28961   -33033   -29659   -20875   -18596   -26268   -32584 
  -30483   -23936   -21729   -24918   -27251   -29251   -31139   -29389 
  -26500   -23978   -22185   -25346   -30535   -30176   -25988   -24964 
  -27772   -30111   -30774   -29431   -24988   -22086   -26384   -33211 
  -32884   -26489   -23137   -24968   -27637   -28251   -26784   -24401 
  -23468   -26347   -30003   -29157   -25436   -24043   -25593   -27976 
  -29069   -26082   -22319   -24417   -29457   -30642   -27074   -23625 
