Origin Time       2024/04/02 04:24:00
Lat.              40.133
Long.             141.712
Depth. (km)       71
Mag.              6.0
Station Code      IWT023
Station Lat.      40.0370
Station Long.     141.4501
Station Height(m) 402
Record Time       2024/04/02 04:24:49
Sampling Freq(Hz) 100Hz
Duration Time(s)  107
Dir.              E-W
Scale Factor      7845(gal)/8223790
Max. Acc. (gal)   184.441
Last Correction   2024/04/02 04:24:48
Memo.             
[...]
  -17663   -17667   -17643   -17633   -17644   -17649   -17653   -17644 
  -17625   -17648   -17674   -17653   -17635   -17636   -17639   -17653 
  -17658   -17644   -17640   -17643   -17656   -17666   -17632   -17614 
  -17656   -17670   -17647   -17653   -17643   -17622   -17656   -17668 
  -17636   -17641   -17653   -17641   -17649   -17651   -17643   -17651 
  -17651   -17647   -17648   -17633   -17635   -17663   -17664   -17643 
  -17637   -17639   -17644   -17659   -17658   -17641   -17651   -17655 
  -17633   -17635   -17656   -17655   -17653   -17652   -17639   -17643 
  -17652   -17647   -17640   -17637   -17647   -17664   -17655   -17629 
  -17631   -17653   -17663   -17655   -17635   -17621   -17649   -17675 
  -17651   -17632   -17631   -17635   -17660   -17667   -17637   -17631 
  -17655   -17664   -17643   -17632   -17653   -17649   -17631   -17648 
  -17662   -17644   -17643   -17656   -17643   -17629   -17643   -17649 
  -17647   -17649   -17643   -17644   -17663   -17660   -17631   -17620 
  -17651   -17674   -17656   -17636   -17635   -17640   -17644   -17656 
  -17667   -17651   -17628   -17633   -17647   -17648   -17653   -17659 
  -17648   -17635   -17643   -17656   -17645   -17635   -17644   -17645 
  -17640   -17648   -17660   -17653   -17635   -17640   -17652   -17643 
  -17649   -17658   -17641   -17649   -17656   -17635   -17640   -17656 
  -17651   -17659   -17652   -17632   -17644   -17660   -17652   -17639 
  -17637   -17649   -17653   -17652   -17649   -17632   -17629   -17659 
  -17663   -17639   -17636   -17652   -17648   -17639   -17653   -17655 
  -17632   -17643   -17663   -17649   -17635   -17643   -17659   -17658 
  -17644   -17636   -17633   -17652   -17672   -17649   -17635   -17652 
  -17645   -17633   -17647   -17655   -17653   -17651   -17643   -17645 
  -17653   -17644   -17633   -17649   -17667   -17647   -17636   -17647 
  -17648   -17656   -17648   -17633   -17655   -17664   -17644   -17639 
  -17641   -17643   -17655   -17660   -17641   -17631   -17649   -17659 
  -17641   -17636   -17647   -17656   -17658   -17637   -17631   -17648 
  -17655   -17651   -17649   -17644   -17636   -17639   -17651   -17662 
  -17655   -17643   -17640   -17644   -17647   -17648   -17647   -17647 
  -17652   -17649   -17647   -17649   -17643   -17645   -17658   -17647 
  -17644   -17655   -17645   -17637   -17652   -17656   -17639   -17645 
  -17658   -17644   -17641   -17649   -17647   -17649   -17652   -17649 
  -17649   -17641   -17641   -17651   -17653   -17655   -17653   -17639 
  -17633   -17641   -17644   -17651   -17658   -17643   -17636   -17644 
  -17645   -17647   -17648   -17652   -17651   -17647   -17641   -17640 
  -17653   -17663   -17643   -17632   -17655   -17659   -17641   -17648 
  -17653   -17637   -17633   -17647   -17656   -17660   -17659   -17636 
  -17618   -17640   -17668   -17660   -17641   -17640   -17643   -17640 
  -17641   -17652   -17663   -17647   -17629   -17651   -17663   -17641 
  -17629   -17645   -17668   -17655   -17628   -17637   -17655   -17652 
  -17645   -17643   -17645   -17649   -17652   -17647   -17639   -17644 
  -17653   -17652   -17643   -17641   -17655   -17660   -17645   -17635 
  -17636   -17645   -17660   -17660   -17644   -17639   -17641   -17645 
  -17658   -17658   -17641   -17632   -17643   -17658   -17659   -17652 
  -17648   -17637   -17626   -17640   -17662   -17666   -17652   -17632 
  -17632   -17651   -17652   -17648   -17644   -17635   -17639   -17655 
  -17658   -17656   -17644   -17626   -17632   -17651   -17660   -17658 
  -17643   -17640   -17647   -17635   -17643   -17664   -17653   -17643 
  -17645   -17641   -17644   -17647   -17651   -17651   -17643   -17648 
  -17655   -17645   -17633   -17636   -17660   -17666   -17640   -17632 
  -17644   -17645   -17651   -17662   -17655   -17637   -17629   -17640 
  -17663   -17662   -17644   -17644   -17636   -17629   -17655   -17670 
  -17653   -17639   -17629   -17635   -17659   -17667   -17645   -17635 
  -17644   -17645   -17645   -17652   -17651   -17647   -17640   -17636 
  -17648   -17652   -17645   -17659   -17662   -17635   -17616   -17637 
  -17664   -17658   -17652   -17658   -17648   -17637   -17639   -17647 
  -17658   -17658   -17649   -17641   -17641   -17648   -17652   -17652 
  -17653   -17641   -17624   -17633   -17659   -17671   -17655   -17632 
  -17632   -17637   -17648   -17664   -17653   -17641   -17637   -17626 
  -17640   -17671   -17671   -17645   -17624   -17620   -17643   -17672 
  -17668   -17637   -17639   -17660   -17647   -17631   -17645   -17653 
  -17648   -17651   -17645   -17639   -17659   -17662   -17633   -17631 
  -17645   -17649   -17653   -17649   -17643   -17640   -17644   -17660 
  -17662   -17641   -17637   -17637   -17648   -17663   -17649   -17640 
  -17652   -17643   -17633   -17648   -17653   -17648   -17658   -17651 
  -17628   -17651   -17712   -17787   -17959   -18231   -18501   -18651 
  -18580   -18349   -18198   -18198   -18088   -17707   -17347   -17251 
  -17209   -16938   -16276   -15770   -16683   -18648   -19523   -18706 
  -17037   -15036   -14350   -16147   -18042   -18195   -18162   -18172 
  -16811   -15789   -17466   -20907   -24186   -24979   -21797   -17263 
  -14663   -13963   -14215   -15777   -18364   -19899   -19090   -16957 
  -15066   -14423   -16468   -21119   -23895   -20299   -12679    -8175 
   -9379   -12849   -16934   -21373   -23302   -22705   -21780   -19448 
  -17257   -18619   -19757   -17946   -17100   -15808   -12426   -13103 
  -17583   -20575   -23669   -27058   -26424   -21740   -15286    -9373 
   -9440   -15638   -19890   -19851   -18696   -15908   -13597   -15124 
  -17948   -22893   -27677   -22917   -14076    -8121     -947    -1035 
  -14100   -26234   -31023   -32233   -25872   -10970     -607    -1175 
   -3906    -6728   -14161   -22970   -28038   -29532   -29523   -26308 
  -18778   -14681   -18173   -20344   -19080   -18779   -12895    -3523 
   -3955   -13728   -25604   -33234   -32529   -26372   -17814    -9891 
   -6189    -9922   -17743   -18860   -14704   -12262   -12895   -18291 
  -21064   -16478   -13400   -14634   -16487   -20324   -28421   -33988 
  -30180   -21960   -13460    -7152    -8322   -15013   -20659   -21741 
  -19526   -17247   -15539   -13836   -12137   -11526   -14266   -21331 
  -29073   -31749   -27496   -21297   -21001   -24221   -20100    -8293 
     565     1382    -4216   -17078   -32451   -37334   -30408   -20356 
   -9151    -1113    -5721   -17845   -23760   -22738   -19047   -14083 
  -11823   -13595   -16703   -18773   -19966   -20979   -23013   -29246 
  -31722   -21016    -7047    -2640    -9545   -20225   -26131   -27067 
  -22617   -13360    -5894    -5028   -12711   -22642   -25758   -24106 
  -20501   -16992   -19326   -22442   -18758   -14384   -13015   -10644 
   -9306   -11445   -12591   -12451   -16978   -24186   -27315   -27545 
  -29141   -30580   -26133   -16186    -7605    -3554    -3748    -8667 
  -16922   -23296   -24250   -21891   -22551   -28144   -29874   -25849 
  -23307   -18185    -7102     -677    -3137    -6948   -11704   -18508 
  -20934   -20424   -21741   -24248   -28467   -30990   -26026   -14594 
   -3345     1750    -4398   -21450   -32487   -27263   -18202   -12577 
  -10284   -14625   -23226   -29010   -26284   -15741    -6697    -8471 
  -17869   -23014   -23110   -20915   -13563   -11202   -19499   -22828 
  -18581   -15569   -10249    -5055    -8247   -15658   -23175   -30265 
  -31453   -25315   -16335    -8550    -6488   -13080   -24800   -31580 
  -26635   -15677    -9076    -9121   -11261   -13522   -17577   -22520 
  -24864   -24574   -22920   -16750    -7717    -5455   -10291   -14033 
  -16116   -19888   -24455   -26597   -24047   -17994   -11915    -8900 
  -10930   -19067   -29038   -31179   -23175   -11053    -2601    -3514 
  -10241   -18058   -26827   -31056   -24584   -13581    -8425    -8577 
  -11163   -18814   -28444   -32724   -30229   -21389    -7765     1497 
   -1549   -13436   -26068   -34064   -34781   -27762   -16154    -5841 
   -2448    -8622   -18918   -23809   -22499   -21775   -22547   -20208 
  -16488   -14619   -12915   -14123   -21054   -27888   -30186   -27496 
  -18956    -7426     -805    -4997   -13922   -18854   -22897   -26892 
  -26080   -22465   -16788    -9080    -4220    -5269   -12519   -22185 
  -30188   -33741   -29747   -21790   -13355    -5688    -4745   -13275 
  -24629   -28300   -23321   -15145    -8284   -11457   -21633   -25389 
  -22632   -18338   -12837    -7519    -8218   -17577   -25594   -24371 
  -18416   -14424   -12714    -9761    -9332   -14775   -21149   -26038 
  -28892   -28551   -22045    -8847    -1254    -7747   -21836   -34130 
  -37185   -28664   -13292    -1861    -1671    -8483   -17722   -26231 
  -28672   -24605   -18682   -14517   -11059    -9290   -12255   -16486 
  -18970   -19391   -17304   -16499   -18904   -20733   -20619   -20970 
  -19944   -14435   -10725   -13923   -17921   -19942   -22455   -23580 
  -22522   -19179   -13401   -10072   -10160   -11044   -15854   -25116 
  -29351   -22018   -12190    -9701   -12537   -18816   -26662   -28638 
  -23017   -17074   -14530   -12792   -12483   -14238   -14874   -15660 
  -18362   -20752   -22044   -21929   -19418   -14218    -9548   -10567 
  -17174   -24948   -28316   -24463   -16237    -9162    -8160   -12864 
  -19792   -24646   -22630   -17521   -16247   -17167   -17026   -16039 
  -13204   -10188   -13614   -21867   -27184   -27718   -23573   -16714 
  -10685    -8356   -12610   -19786   -22851   -19191   -11187    -6820 
  -11578   -20336   -24923   -23755   -19888   -16964   -18685   -23616 
  -24611   -19847   -14262   -10077    -7823    -9705   -15314   -21500 
  -24929   -23845   -20634   -17377   -13840   -13583   -17709   -20395 
  -21725   -25477   -26264   -19819   -13100   -11457   -12515   -14031 
  -15696   -18025   -20857   -22215   -21693   -19348   -15498   -13269 
  -13984   -15900   -17620   -19538   -21066   -18685   -13386   -10989 
  -13748   -18682   -22241   -24046   -22765   -18272   -15803   -17275 
  -19728   -20621   -19363   -16595   -12818   -11508   -14866   -18015 
  -16941   -14493   -15840   -21181   -26273   -27063   -20382    -9585 
   -4455    -6766   -11352   -18227   -26372   -30337   -28036   -21039 
  -13367    -9891   -12299   -18927   -26055   -28069   -23419   -16906 
  -10794    -7430   -10864   -16810   -19236   -19647   -20345   -19113 
  -16889   -18010   -19068   -18442   -19013   -16995   -13675   -12706 
  -10762   -11801   -20522   -29165   -29646   -22214   -13255   -10262 
  -13980   -19587   -23814   -23669   -16668    -9177   -10089   -15900 
  -19654   -21176   -20565   -18782   -17440   -16109   -15206   -14291 
  -12931   -12654   -14689   -18377   -20676   -20515   -19375   -18408 
  -18839   -20397   -20742   -17902   -15466   -17205   -18357   -17388 
  -18647   -19030   -16056   -17199   -22497   -22570   -18364   -15480 
  -12803   -10405   -12399   -18423   -21325   -19697   -18912   -19140 
  -19080   -18427   -14343    -9328   -10349   -18245   -27884   -33674 
  -32306   -24328   -16198   -10870    -4403    -2241    -7689   -11635 
  -15245   -24447   -32215   -30589   -23971   -18323   -11944    -7419 
   -9899   -17334   -23287   -22422   -16854   -10801    -6956    -8338 
  -12582   -17614   -24756   -30360   -29959   -25785   -20902   -14854 
  -10660   -12764   -17591   -19375   -19369   -20197   -20992   -20983 
  -18396   -12981   -10339   -14717   -23549   -29897   -27837   -17609 
   -6301    -1918    -5799   -15084   -24848   -27252   -22057   -17891 
  -16993   -16422   -18000   -19997   -18465   -16846   -16028   -15727 
  -18904   -20636   -16484   -13626   -18000   -22756   -20703   -16256 
  -13008   -11461   -14771   -20011   -21325   -18187   -13309   -10500 
  -12295   -18640   -24490   -24453   -21452   -19294   -17512   -16621 
  -17729   -19037   -18104   -17593   -17844   -15839   -15541   -16185 
  -12648   -11507   -16989   -21109   -19695   -17587   -17402   -16856 
  -17701   -23242   -27187   -23002   -15610    -9136    -6593   -12606 
  -21042   -25525   -25247   -19074   -14134   -14972   -16591   -17806 
  -18130   -16860   -17948   -21720   -22864   -20534   -17689   -13737 
  -11352   -16992   -27064   -32192   -30088   -22277   -14288   -14139 
  -16706   -12984    -7546    -6091    -8143   -11892   -14952   -16972 
  -18868   -20170   -20999   -23780   -27527   -28001   -26704   -25764 
  -23207   -22179   -27376   -33785   -35502   -34526   -29578   -17586 
   -6718    -3674     -743     5505     5300    -5178   -18912   -28302 
  -28825   -22893   -16596   -12595   -14088   -21174   -26418   -24246 
  -15534    -9580   -13582   -19611   -20927   -21050   -27699   -43672 
  -56236   -56290   -47452   -32744   -20256   -16011   -10978     3600 
   19302    20056     7921     -816    -2416     -233     7300    10373 
   -7770   -41997   -68781   -74424   -63506   -40128    -5186    25744 
   38519    36070    22173     2209   -17656   -34322   -35914   -23877 
  -24171   -46272   -73396   -85669   -71837   -41469   -16389      337 
   22037    49114    68135    69086    45790     3345   -31747   -44698 
  -49129   -56517   -69543   -74002   -47954    -5057    30323    47761 
   33463    -9818   -59992   -91831   -83980   -44003    -1557    25188 
   26103     -163   -28911   -40177   -42476   -44555   -45779   -37071 
   -6212    33521    60138    78339    93046    89424    55543   -12059 
 -102408  -180732  -211000  -170221   -59949    67784   149089   172862 
  153530   101586    47665     6772   -41470   -95644  -131328  -131477 
  -90605   -33045     2104     8565    -2043   -25809   -40868   -31199 
  -23722   -35514   -47777   -54206   -61931   -62137   -49581   -36868 
  -32795   -33122   -31139   -26262   -19915   -14678   -21340   -43618 
  -61564   -52922   -20586    12584    28606    26003    13495     5217 
    9072    11234    -1016   -17896   -35853   -53935   -48878   -17259 
   11670    27045    31407    16930    -6752   -12144    -3437   -19359 
  -68521  -111261  -119890   -98051   -51584     6925    53337    66097 
   42232    15079    16332    25112     8461   -28374   -66488   -90340 
  -80890   -45138   -15446    -5547   -16096   -40815   -50495   -30237 
    2369    32533    48641    43444    25685    -4307   -46333   -76906 
  -79478   -66112   -53110   -37747   -10500    22297    45222    48432 
   30692     3038   -25434   -54656   -70047   -59648   -43467   -36138 
  -27487   -17836   -18377   -27931   -34701   -27264   -10413    -2898 
   -6073    -3931     4504     7024     3424     -400    -9356   -22546 
  -23387    -9169    -1067   -10959   -26088   -35329   -38997   -31567 
   -8707    16621    27233    19631     1946   -16453   -32814   -49252 
  -61678   -60335   -43410   -18993     2289    11092     2506   -20436 
  -42977   -53740   -60604   -63834   -48155   -19849     -866     5510 
    3746   -10297   -31789   -45941   -44089   -22334     9147    28011 
   29008    19195     2851   -11271   -16772   -15954   -13169   -11762 
  -11578   -11786   -11832   -11732   -15761   -21257   -19195   -11011 
   -5015    -6951   -15642   -25940   -38894   -52293   -54319   -39295 
  -14000     7884    17032    12309    -6089   -30010   -46433   -53836 
  -54292   -42689   -20017    -1945     2007    -2500   -13887   -28598 
  -33662   -26824   -14176     -349     6520     2169    -8418   -18025 
  -22405   -24630   -29119   -31398   -28309   -22993   -14724    -7223 
  -10039   -21347   -34254   -45368   -46723   -34705   -16159     2185 
   12120     6502    -9671   -23477   -25186   -16619    -7975    -4461 
   -5979   -13467   -26013   -35773   -32464   -18246    -4429     5849 
   11114     4058   -14920   -34769   -48419   -55845   -51409   -29612 
   -3708     9884    12334     4411   -17668   -42087   -55834   -58376 
  -46161   -22177    -1957     8938    10133    -3468   -23145   -29987 
  -24595   -21084   -18785   -11956    -6093    -2679     3503     5274 
   -9312   -31403   -43109   -43563   -39062   -31904   -25872   -20792 
  -12259    -1233     8039     9327    -3862   -24942   -39082   -41075 
  -30885   -11115     6295    12540     6354   -11921   -32825   -45620 
  -45395   -28350    -5846     4266     3794     2408      754    -4695 
  -12100   -16440   -19723   -23070   -22173   -18088   -13112    -8225 
   -9921   -21290   -32647   -33821   -27654   -21012   -16335   -17923 
  -24266   -25162   -20542   -17354   -15765   -13586   -10818   -10503 
  -15169   -22985   -28935   -27052   -19549   -14652   -14575   -18566 
  -23355   -23993   -23546   -24204   -21490   -17734   -16044   -13090 
  -10528   -11637   -16252   -23238   -28016   -27936   -21428    -9813 
   -6145   -14148   -19526   -16011    -9336    -5802    -9666   -19317 
  -27386   -28000   -21756   -14488   -12741   -16784   -19735   -21182 
  -25785   -26686   -19948   -15489   -15210   -15030   -17633   -22102 
  -23125   -18770   -10200     -195     5950      691   -14088   -26049 
  -31287   -31511   -25135   -18677   -18712   -18817   -15628   -13462 
  -12495   -12955   -17294   -21878   -21571   -17837   -14769   -16140 
  -23356   -32841   -38847   -36119   -25034   -12758    -6424    -8241 
  -13662   -18019   -21096   -21563   -17323   -10235    -5967    -7838 
  -14207   -23749   -34433   -39303   -31877   -15750    -2108     3127 
    1649    -3611   -11620   -22432   -32235   -35432   -31476   -22712 
  -14247   -11740   -12182   -10995   -10876   -13502   -16031   -15191 
  -10720    -6594    -7685   -17946   -33974   -42785   -37910   -23984 
   -7539     2014    -2096   -13971   -22408   -22762   -19718   -19040 
  -21008   -25701   -28703   -22080   -12658   -12590   -19083   -24322 
  -24969   -19954   -11734    -5971    -8834   -17842   -23225   -24021 
  -23276   -21415   -20883   -20488   -18029   -14466   -11226   -11276 
  -13003   -15269   -22005   -27496   -25405   -18860   -10319    -7290 
  -14265   -20105   -17455   -11527   -10997   -19299   -29562   -35017 
  -34584   -26026   -10219     3700     9506     8322      130   -13022 
  -24507   -29648   -27319   -22150   -19615   -16818    -9250    -1042 
    -464    -9911   -25798   -39900   -41388   -30063   -18809   -16098 
  -18021   -21670   -27815   -28309   -19469   -11894    -9668    -9964 
  -12266   -14064   -13880   -11913    -9857   -10220   -12160   -17328 
  -25652   -30271   -28282   -20555    -9688    -1567     -214    -7101 
  -19492   -29301   -30892   -25438   -17046    -9795    -6866    -9174 
  -15209   -21377   -26037   -30958   -34879   -34825   -29971   -19241 
   -6608    -1885    -7454   -16212   -22254   -25278   -25527   -20969 
  -14627   -12359   -13097   -14370   -14183    -8179     -324    -1848 
  -13217   -23139   -27669   -30573   -27735   -18809   -14006   -14860 
  -16695   -18300   -17795   -16918   -21921   -32860   -40630   -36740 
  -22087    -5977     -243    -7318   -16677   -21381   -22690   -20332 
  -14644   -10743   -12846   -17641   -18662   -14370    -7404    -3200 
   -7075   -15086   -18397   -18073   -19020   -18813   -16544   -16452 
  -19504   -22999   -24907   -25616   -26910   -28055   -25089   -16876 
   -8993    -7371   -11146   -15772   -17991   -17473   -17768   -20344 
  -21497   -20714   -19569   -17903   -18445   -20966   -20844   -17544 
