Origin Time       2024/04/02 04:24:00
Lat.              40.133
Long.             141.712
Depth. (km)       71
Mag.              6.0
Station Code      IWT020
Station Lat.      39.7844
Station Long.     141.3296
Station Height(m) 695
Record Time       2024/04/02 04:24:51
Sampling Freq(Hz) 100Hz
Duration Time(s)  165
Dir.              E-W
Scale Factor      7845(gal)/8223790
Max. Acc. (gal)   103.545
Last Correction   2024/04/02 04:24:50
Memo.             
[...]
    3804     3802     3808     3815     3812     3805     3805     3808 
    3808     3809     3808     3807     3807     3808     3808     3807 
    3804     3804     3808     3812     3809     3808     3809     3811 
    3811     3811     3809     3809     3811     3812     3815     3811 
    3804     3804     3805     3809     3812     3811     3807     3805 
    3808     3809     3809     3809     3807     3805     3805     3809 
    3812     3807     3805     3809     3811     3808     3808     3808 
    3808     3809     3812     3812     3808     3804     3805     3811 
    3809     3804     3804     3807     3809     3812     3816     3813 
    3804     3804     3808     3808     3808     3809     3807     3807 
    3809     3811     3808     3808     3811     3812     3809     3811 
    3809     3805     3807     3811     3809     3807     3807     3807 
    3809     3813     3812     3808     3808     3808     3809     3811 
    3809     3805     3805     3807     3808     3812     3815     3811 
    3807     3808     3808     3808     3808     3808     3808     3809 
    3813     3813     3809     3807     3808     3811     3811     3807 
    3802     3804     3808     3813     3813     3808     3804     3807 
    3812     3809     3805     3807     3809     3809     3809     3809 
    3809     3807     3805     3811     3815     3809     3809     3813 
    3808     3805     3809     3808     3805     3805     3808     3812 
    3811     3805     3804     3808     3812     3811     3807     3811 
    3813     3811     3809     3809     3807     3804     3805     3811 
    3811     3807     3807     3809     3811     3811     3808     3807 
    3808     3809     3808     3808     3809     3809     3808     3809 
    3809     3807     3805     3805     3808     3811     3808     3804 
    3804     3805     3808     3809     3808     3805     3804     3805 
    3807     3807     3809     3813     3809     3807     3811     3812 
    3811     3808     3807     3808     3811     3809     3808     3808 
    3811     3813     3813     3812     3811     3809     3805     3807 
    3808     3809     3808     3809     3812     3809     3805     3808 
    3811     3812     3809     3807     3807     3809     3811     3812 
    3809     3807     3808     3808     3804     3802     3805     3807 
    3808     3807     3807     3807     3805     3807     3811     3809 
    3811     3813     3808     3804     3805     3808     3808     3807 
    3807     3805     3805     3809     3811     3809     3808     3808 
    3809     3809     3811     3811     3809     3809     3808     3805 
    3805     3808     3811     3811     3811     3811     3808     3807 
    3809     3811     3811     3811     3811     3808     3807     3812 
    3812     3808     3807     3807     3805     3807     3809     3808 
    3807     3808     3808     3807     3808     3808     3807     3809 
    3811     3809     3808     3805     3805     3809     3809     3804 
    3804     3808     3811     3813     3815     3813     3812     3809 
    3808     3811     3811     3807     3807     3805     3802     3808 
    3812     3807     3805     3807     3805     3805     3808     3808 
    3808     3809     3811     3809     3807     3807     3809     3808 
    3811     3813     3808     3807     3809     3812     3811     3807 
    3805     3809     3813     3811     3805     3802     3804     3808 
    3811     3812     3809     3809     3809     3811     3811     3809 
    3808     3808     3805     3807     3808     3805     3805     3809 
    3812     3812     3811     3808     3808     3808     3807     3808 
    3807     3804     3801     3804     3807     3808     3808     3808 
    3805     3807     3813     3813     3807     3804     3804     3807 
    3809     3811     3811     3807     3802     3807     3812     3809 
    3807     3809     3812     3811     3807     3807     3808     3805 
    3807     3808     3809     3811     3808     3807     3807     3807 
    3811     3811     3809     3811     3809     3811     3811     3808 
    3807     3808     3809     3812     3816     3825     3838     3847 
    3854     3862     3862     3858     3859     3865     3858     3823 
    3775     3742     3720     3674     3607     3585     3639     3688 
    3669     3632     3645     3674     3655     3559     3466     3511 
    3572     3488     3399     3334     3323     3551     3904     4237 
    4464     4380     4194     4255     4484     4741     4723     3937 
    2986     3099     3940     4510     4735     4488     3839     3804 
    4477     4407     3246     2525     2868     3330     3171     2359 
    1715     2209     3681     5215     5884     5146     3748     3478 
    5125     7040     6421     3512     1478     1545     3190     5451 
    6586     6264     5428     4395     3175     1557     -290     -234 
    2836     4965     2403    -1880    -2845     -417     2625     4787 
    5090     3503     1713     1763     4499     6975     6686     6573 
    7705     7354     5571     3275     1177     2041     5913     8298 
    6534     3564     3480     5989     8208     7510     3711     1220 
    2569     4492     3998     2504     3393     5170     4976     6127 
    9124     8807     5127     2539     3268     6917    10380     8252 
     172    -5638    -3273     2974     6075     4224     2324     7241 
   15364    13768      147   -11465    -9350      866     7562     8487 
    5381      622     -407     2165     2412     -361     -700     3149 
    4845     1409    -1228     -627      213     1958     5386     6481 
    2759    -2475    -3279     2513     9061     9747     6532     4870 
    6084     9651    12958    10513     3451      666     3657     3631 
   -2523    -6778    -2628     6192    11356     9899     6211     6177 
   11296    16517    15056     6929     -603    -1409     3466     8097 
    8307     5900     5907     8857     8962     3333    -3356    -6999 
   -6678    -2627      931     1275     1134     1266      795      367 
   -1663    -5412    -5279      880     7075     7628     5173     6562 
   10064     9283     6940     6674     5422     2276    -1102    -3595 
   -2949     1591     7285    10377     9632     8020     7840     7281 
    6612     7528     6350      958    -3591    -3697    -1259     1777 
    5883     9869    10384     7978     5925     3061    -2058    -5040 
   -2714     2215     6389     7646     4622      905     2276     7011 
    9583     8978     6621     4264     4224     7438    11281    12484 
   11298     8613     5148     3137     2143     -425    -2722    -1576 
     361      -68     -596      581     1765     2987     5738     7819 
    6305     3748     3959     5215     3910      548    -2309    -4174 
   -5132    -4078      175     7393    13518    14319    11030     6276 
     151    -6500   -10886   -11088    -6982     -648     4369     6744 
    7973     9868    12646    15726    18199    16923    10386     2709 
   -2296    -5024    -5375    -2246     2285     5244     7148    10027 
   12842    12086     7369     1823    -2168    -2956     -812      693 
    1135     3939     8469    10940     9888     6527     4338     5645 
    7990     8340     6637     4372     3038     2794     3416     4449 
    4645     5244     7688     8914     6534     2978     1152     1305 
    2050     2627     3098     2170     -780    -3931    -6529    -8613 
   -9256    -7582    -3429     1371     4083     3913     2477     1841 
    2010     1918     1483      900      584     1686     4137     6492 
    8371     9697     9883     9336     8835     8406     8414     9634 
   10970    10508     8645     6782     5956     7269    10110    11581 
    9543     5656     3510     3377     3484     4414     6156     6601 
    5632     4428     3303     2335     1547     1449     1610      278 
   -2066    -3399    -2500      488     2843     2705     1328     -355 
   -2095    -3129    -2381      529     4298     7533     9956    11504 
   11443     9582     7555     6187     3889       18    -3381    -4153 
   -1865     1958     5356     7843     9482     9965     8583     4988 
     275    -4240    -7175    -7653    -6743    -4545     -275     4548 
    8190     9694     7483     2195    -1601     -309     4372     8278 
    9358     7888     5655     5486     8473    12009    12353     9562 
    6839     5019     3210     2469     4186     7990    12353    14814 
   14170    12320    10384     8222     6798     5737     4295     3496 
    3429     3700     4762     5980     5508     1717    -4502    -9983 
  -13798   -16074   -14777    -9603    -3156     2934     6993     6211 
    1563    -2500    -3950    -3295    -1452     1355     5817    11580 
   16942    19314    17132    12480     8313     5039     1251    -2961 
   -4287    -1518     1453     2986     5468     8008     7622     5177 
    3248     1841      -63    -1015      112      884      390     1772 
    5250     6810     6477     8139    11692    13879    13232    10115 
    5942     2307      118      646     3883     6686     7059     6875 
    7851     8897     9082     9545    10025     8795     6913     5676 
    4126     2974     3881     5395     5352     3958     2064       32 
   -2389    -4588    -4352    -1382     3046     7410     9336     8244 
    4897     -907    -8727   -16302   -21078   -20668   -13905    -3858 
    5000    10809    12417     9080     2679    -2992    -6251    -8743 
  -10120    -6529     1944     9829    14380    17132    19471    21521 
   22108    19961    14897     8726     5005     4461     5012     6008 
    7495     9421    12472    15826    16487    14172    11712     9243 
    5471      768    -4673    -9240   -10304    -8567    -6103    -3121 
     186     3017     5593     8206     9289     6781     1948    -1047 
      54     4213     8866    11184    10115     7038     3562      518 
   -1597    -2215    -1128      696     2617     4607     4793     1983 
    -851    -1402     -676      160      371      492      781     -981 
   -4930    -7824    -7608    -4622     -201     3693     5136     4452 
    5121     9972    16090    17706    14122     8766     3630      275 
      59     1826     4342     7445     9647     9352     7524     6663 
    7522     8425     8526     8876     9601     9607     8974     8912 
    9391     9054     7990     7488     7430     7361     7747     8568 
    8457     5626      677    -3064    -3858    -3279    -2724    -1093 
    2173     4517     3319     -815    -4707    -5996    -5617    -5389 
   -4834    -1953     3295     7785     8872     6990     4190     1613 
    -456     -704      783     1120      283     1597     4317     4236 
    1080    -2338    -4810    -5972    -5863    -5857    -6498    -5829 
   -1240     6759    13481    14929    11487     5937     1784     1787 
    5687    11446    16807    19395    18746    16146    12888    10870 
   11365    13479    14774    13386    10760     9073     8911    11377 
   15022    15476    12758    10624     9949     8598     5690     2925 
    1494      662     -679    -3492    -8083   -12702   -14278   -11948 
   -8033    -5229    -4779    -6393    -9390   -12721   -14215   -13339 
  -10930    -5687     2700    10053    12166     9610     5362      865 
   -2625    -3288    -1368     1375     4834     9431    13171    13537 
   10512     6021     1694    -1505    -2031     1000     5962    10033 
   11889    11697     9721     7651     6953     7080     8923    12760 
   15681    16105    14550    11317     7728     6358     7462     8641 
    9323    10575    12309    14096    14956    13213     9034     4947 
    2328     -764    -5050    -6883    -3241     3480     8819    10928 
    8857     3397    -1304    -3686    -5710    -7458    -7496    -5724 
   -3503    -2485    -2587    -2660    -3330    -5394    -8225   -10882 
  -11794   -10511    -7981    -3904     1146     4946     6651     5911 
    2875      573     1287     3481     5872     7975     8548     8326 
    8638     8527     7396     6713     7996    10952    13482    13485 
   11163     8224     5864     4452     3415     3152     4818     8019 
   12467    16841    17965    15796    13189    11256     9119     5620 
     927    -2481    -2411      657     4317     6964     9282    10926 
   10473     8673     6272     2562     -963     -969      886      -90 
   -2687    -2639     1148     6679    10041     9169     5772     2724 
    1563      548    -2983    -7767   -10176    -9366    -7824    -8226 
  -10728   -12806   -12775   -11618    -9738    -5443     1051     5665 
    5972     3677      907     -415      604     1765     1007     -225 
     935     4801     7874     7551     6014     5638     7142    11496 
   16715    19091    18084    15454    12580     9302     5533     2948 
    3179     6075     9786    11645    10832     8964     6481     2322 
   -3069    -7130    -7626    -5196    -2003      731     3963     8924 
   12727    11283     5233    -1463    -4955    -3672      373     4091 
    5815     5302     4106     4421     6284     8144     8599     6366 
    1890    -2471    -4945    -4058      575     5709     8068     7246 
    2810    -4885   -15022   -27545   -38232   -41854   -39121   -33332 
  -27166   -22785   -19788   -15078    -6978     4137    17703    30198 
   36663    36933    34939    34133    37091    46746    62013    75924 
   84161    87708    86525    79706    68570    55286    40929    26187 
   13165     3476    -3426    -7072    -6023    -1240     3574     3669 
   -3299   -16461   -34685   -56062   -77140   -94610  -104734  -101436 
  -77996   -36783     6683    38938    58334    66320    65021    61360 
   59506    55375    46457    37111    29552    19712     4347   -15079 
  -35221   -52728   -64022   -65985   -58449   -46450   -37667   -35514 
  -38091   -44705   -54180   -58711   -52712   -40238   -25355    -9323 
    3238     9648    14443    19723    21024    17810    15157    16811 
   24742    39333    56695    68935    68746    52994    26977     6848 
    6054    23436    50396    77164    95575   102548   100047    95237 
   91650    85162    75366    63420    46812    25898     3658   -16459 
  -30499   -38156   -43113   -47807   -52600   -58207   -63504   -65742 
  -65198   -63498   -59780   -52289   -42327   -36378   -40389   -51661 
  -62453   -67466   -64251   -54179   -40794   -23047      849    25281 
   41061    42163    28846     9086    -7160   -14488   -10002     5441 
   25759    47737    67913    73454    53565    16024   -18831   -39263 
  -45928   -43281   -39345   -37944   -34759   -28001   -17545    -2290 
   17068    39933    62210    76424    79926    74601    63447    51162 
   41991    37235    36946    41138    48235    53811    52917    46327 
   40603    38421    36633    32962    26470    17248     5930    -8947 
  -25049   -32562   -25246    -8476     7300    13856     6978   -10824 
  -32292   -52077   -67898   -78827   -83363   -79631   -69075   -54541 
  -36794   -17367     -211    11597    17324    15808     6120    -8283 
  -20833   -26011   -21597   -10443     2899    17054    29112    30956 
   18237    -3132   -24358   -40859   -49623   -47771   -36323   -20328 
   -3456    14531    31692    40771    39388    35406    34650    36081 
   42205    54199    64643    71259    75925    74548    67246    59633 
   55416    56220    58133    55398    47706    37409    26331    15479 
    4498    -8043   -21940   -32911   -37004   -34947   -29080   -22115 
  -17424   -15067   -13398   -14152   -18523   -23172   -25218   -24552 
  -21589   -18065   -15007   -11119    -7067    -5541    -6988    -9089 
   -9189    -6405    -2243     2054     7227    13150    17907    19021 
   15051     7596     -517    -6119    -6816    -5084    -5755   -11681 
  -23645   -39063   -51915   -57287   -55169   -48675   -40169   -30279 
  -19819    -9297     2182    11870    14462    10446     3828    -2478 
   -4314     2543    17439    36092    54834    68989    74731    73789 
   68750    61290    55377    52917    51578    49013    44065    36159 
   25980    15006     4403    -5661   -15669   -24479   -29666   -30766 
  -30284   -31891   -35496   -36979   -35388   -32389   -27009   -18617 
   -9424    -1050     7195    15357    21047    22689    20879    17328 
   15078    15774    18339    21145    21293    16276     8486     2600 
    -494    -2421    -2316      953     4770     6799     7688     7821 
    7317     6679     5256     2226    -1921    -5510    -7294    -7735 
   -7499    -6664    -5389    -4449    -5961   -11272   -18451   -24487 
  -27542   -26416   -20969   -13134    -5899     -792     2640     5265 
    8131    11747    15267    18153    21126    25706    32495    39127 
   42662    42847    40255    34541    26808    20380    18184    20667 
   25598    29820    31166    28544    22057    13220     3807    -4725 
  -11337   -16799   -22434   -27276   -30049   -30896   -29535   -25520 
  -18966   -10872    -3518     1742     4835     5406     3793     1297 
    -535     -368     1435     2864     2639     1571     1877     5787 
   13350    20907    24162    22419    17274     9347      789    -3473 
   -2083     2454     8838    14924    17190    14775     9555     3393 
   -3369   -10265   -15950   -21057   -27378   -33092   -33940   -28917 
  -20702   -12050    -3900     3781     9776    11969    10461     7545 
    4572     1524    -1011    -1966    -1414      302     4602    12380 
   20933    27429    31942    34701    35608    35665    35093    33123 
   30304    27324    23892    20767    18435    15433    10953     5302 
   -1744    -9612   -15507   -16548   -12384    -4513     5088    13481 
   17053    14149     7580     2439      807      886      562    -1034 
   -4522   -10422   -17491   -22804   -25146   -25490   -24231   -21678 
  -19414   -18616   -18455   -17734   -16731   -15639   -13828   -11830 
  -10975   -10910   -10262    -8766    -6655    -3854     -523     3021 
    6655    10212    13444    16158    18661    22383    27611    31765 
   33336    33515    33238    32459    30265    25948    20731    16634 
   15917    20182    27288    32709    34534    34186    33655    34029 
   34578    32826    27585    20576    13718     7223      945    -4895 
  -10257   -14671   -17188   -17949   -18478   -19749   -20866   -21145 
  -21525   -21909   -20267   -15921   -11007    -7875    -7074    -8656 
  -12070   -14508   -13788   -10870    -7123    -3090      533     3593 
    6380     8492     9661    10166     9548     6785     1512    -5842 
  -13828   -19723   -21474   -19404   -14710    -8124     -712     5481 
    8380     8029     6008     2783     -419     -733     2234     6405 
   10700    15327    20349    25448    30295    34150    36049    35430 
   32001    26261    20386    16511    14908    15882    19206    21371 
   19300    13775     7156     1522    -1918    -2500      306     5818 
   12205    17460    19896    18833    14742     8581     1139    -7082 
  -15120   -21417   -24414   -23463   -19534   -14187    -8976    -5383 
   -3894    -4182    -5289    -6153    -7163    -8911   -10717   -12609 
  -14623   -14823   -12657    -9782    -6679    -3462     -707     1498 
    2959     3717     3504      885    -3447    -5923    -4654     -426 
    5406    10716    13151    12044     8114     2623    -2749    -6528 
   -7160    -3279     4530    13783    21474    25609    26408    25409 
