Origin Time       2024/04/02 04:24:00
Lat.              40.133
Long.             141.712
Depth. (km)       71
Mag.              6.0
Station Code      IWT022
Station Lat.      40.1009
Station Long.     141.0528
Station Height(m) 296
Record Time       2024/04/02 04:24:51
Sampling Freq(Hz) 100Hz
Duration Time(s)  120
Dir.              N-S
Scale Factor      7845(gal)/8223790
Max. Acc. (gal)   54.851
Last Correction   2024/04/02 04:24:51
Memo.             
[...]
   -4363    -4361    -4363    -4365    -4364    -4361    -4360    -4363 
   -4365    -4361    -4359    -4360    -4363    -4365    -4367    -4365 
   -4363    -4357    -4355    -4360    -4365    -4365    -4365    -4364 
   -4363    -4363    -4367    -4368    -4363    -4359    -4360    -4361 
   -4364    -4364    -4359    -4356    -4360    -4367    -4371    -4369 
   -4364    -4361    -4360    -4359    -4364    -4368    -4363    -4356 
   -4357    -4363    -4364    -4363    -4361    -4359    -4364    -4368 
   -4367    -4364    -4360    -4359    -4364    -4368    -4368    -4365 
   -4359    -4355    -4359    -4361    -4363    -4365    -4364    -4360 
   -4360    -4364    -4365    -4361    -4359    -4360    -4361    -4363 
   -4365    -4365    -4364    -4365    -4365    -4364    -4363    -4359 
   -4357    -4360    -4365    -4364    -4359    -4355    -4355    -4361 
   -4367    -4371    -4369    -4363    -4356    -4355    -4360    -4364 
   -4363    -4360    -4360    -4364    -4369    -4369    -4364    -4359 
   -4356    -4359    -4360    -4360    -4361    -4361    -4363    -4365 
   -4365    -4361    -4361    -4361    -4359    -4360    -4361    -4363 
   -4363    -4360    -4360    -4365    -4368    -4364    -4360    -4357 
   -4356    -4361    -4367    -4365    -4363    -4360    -4359    -4363 
   -4368    -4367    -4360    -4356    -4359    -4364    -4361    -4357 
   -4357    -4360    -4361    -4363    -4364    -4364    -4361    -4360 
   -4360    -4361    -4364    -4365    -4363    -4361    -4363    -4364 
   -4364    -4361    -4361    -4361    -4363    -4364    -4365    -4363 
   -4360    -4361    -4363    -4365    -4368    -4365    -4361    -4361 
   -4363    -4361    -4363    -4361    -4359    -4357    -4361    -4364 
   -4364    -4363    -4363    -4364    -4367    -4367    -4363    -4359 
   -4363    -4364    -4363    -4363    -4361    -4360    -4361    -4364 
   -4368    -4371    -4365    -4359    -4355    -4360    -4367    -4367 
   -4364    -4361    -4363    -4365    -4361    -4359    -4361    -4363 
   -4361    -4363    -4365    -4363    -4356    -4355    -4357    -4365 
   -4369    -4365    -4361    -4363    -4364    -4364    -4365    -4363 
   -4360    -4357    -4357    -4363    -4371    -4369    -4365    -4361 
   -4360    -4361    -4360    -4359    -4357    -4356    -4360    -4368 
   -4372    -4372    -4367    -4360    -4356    -4359    -4365    -4363 
   -4357    -4360    -4365    -4367    -4365    -4364    -4363    -4364 
   -4364    -4364    -4364    -4361    -4360    -4360    -4364    -4367 
   -4365    -4361    -4360    -4360    -4360    -4360    -4364    -4364 
   -4361    -4363    -4365    -4367    -4365    -4363    -4360    -4360 
   -4364    -4368    -4367    -4363    -4359    -4356    -4357    -4363 
   -4364    -4365    -4364    -4360    -4359    -4364    -4368    -4367 
   -4365    -4363    -4360    -4357    -4356    -4356    -4360    -4364 
   -4369    -4371    -4365    -4361    -4361    -4363    -4363    -4359 
   -4359    -4361    -4363    -4363    -4365    -4365    -4360    -4356 
   -4359    -4364    -4368    -4367    -4361    -4360    -4361    -4364 
   -4365    -4365    -4360    -4356    -4359    -4364    -4369    -4379 
   -4386    -4388    -4394    -4406    -4417    -4425    -4434    -4446 
   -4452    -4449    -4445    -4438    -4429    -4429    -4434    -4440 
   -4452    -4472    -4494    -4507    -4506    -4487    -4450    -4395 
   -4325    -4263    -4233    -4241    -4279    -4318    -4342    -4369 
   -4392    -4388    -4355    -4271    -4114    -3958    -3937    -4033 
   -4099    -4147    -4336    -4666    -4968    -5189    -5368    -5428 
   -5368    -5359    -5374    -5159    -4677    -4228    -4041    -3950 
   -3677    -3284    -3065    -3175    -3511    -3771    -3620    -3030 
   -2448    -2262    -2428    -2943    -3824    -4675    -5070    -5317 
   -6191    -7511    -7923    -7080    -6508    -6994    -7153    -6022 
   -4650    -4017    -3774    -3508    -3731    -5066    -6718    -7118 
   -6149    -4710    -3057    -1618    -1590    -3083    -4287    -3611 
   -1375      864     1783     1759     2397     3109      607    -5840 
  -11665   -12488    -9882    -7832    -6789    -5752    -5281    -5314 
   -5319    -6459    -9169   -10288    -7207    -2756    -1143    -2236 
   -3326    -3024    -1644      199     2058     3396     3397     1108 
   -2697    -5116    -5012    -4820    -6420    -7973    -7569    -6697 
   -6828    -7290    -8249   -10241   -10631    -6531    -1345    -1598 
   -7114   -11454   -11718   -11530   -13277   -13281    -8174     -206 
    5877     6720     3858     4025     9414    12235     6790     -973 
   -3103     -664      286    -2874    -8683   -14115   -16023   -14362 
  -12820   -13266   -13043    -9815    -5520    -3334    -3269    -3704 
   -4355    -4463    -2339      957     2185      882     -839    -3175 
   -7609   -11554   -10704    -6026    -1574     2030     4800     3789 
   -1382    -6056    -6798    -4702    -1509     2154     3967     1556 
   -3190    -7611   -12409   -17026   -17485   -12912    -8657    -9042 
  -10932    -9281    -4032     1354     3029      461    -1302     1167 
    2768    -1979    -8482    -9293    -6494    -7099   -10971   -12505 
  -10246    -6972    -4251    -1904      897     4573     7407     7688 
    6272     4563     2290    -2153    -8934   -14941   -17554   -17903 
  -17664   -15785   -11708    -8032    -5309    -1015     2604      949 
   -2182      534     6987     9405     6485     2646      -82    -2577 
   -4411    -4764    -4872    -6022    -8275   -11570   -14825   -15503 
  -12287    -6663    -1495      793       35    -1738    -3561    -6211 
   -9157   -10442    -8926    -5140    -1237     1335     3815     6539 
    6534     2376    -2677    -5386    -6393    -7114    -7111    -6577 
   -6799    -7271    -6440    -4344    -2763    -3585    -6324    -8804 
  -10547   -12356   -13514   -12187    -7470     -688     4218     3959 
     124    -2832    -3052    -2130    -1521    -1013     -153      305 
   -1678    -6983   -13892   -20113   -24360   -25821   -23571   -17604 
   -9837    -3246      513     3048     6608     9984    10396     8330 
    6976     6947     5775     3145      832    -1858    -6119    -9443 
   -9439    -8803   -11331   -15198   -14964   -10125    -6284    -6647 
   -8110    -6997    -3789    -1416    -1599    -3098    -3600    -3144 
   -3102    -3159    -2482    -1667    -1556    -2169    -3638    -6000 
   -7546    -6016    -2011     1102     1545     1177     1649     1701 
     251    -1278    -1463    -1054    -1047    -1447    -3014    -6925 
  -12075   -15213   -14439   -10809    -6365    -2740     -635      429 
     437    -1398    -4071    -5236    -4973    -5788    -8625   -11457 
  -11761    -8884    -5022    -3989    -5984    -6496    -4229    -2668 
   -2520    -1725       33     2083     3815     4726     5262     5995 
    5884     2887    -3190   -10048   -15412   -18073   -18184   -17832 
  -17987   -16904   -13961   -10666    -7561    -4577    -3176    -3906 
   -4135    -2023      445      889     -333    -1399    -1300     -619 
    -519     -870     -923    -1671    -4453    -7908    -9553    -8945 
   -6845    -3522       97     2088     2037     1036     -629    -2605 
   -3493    -2754    -1676    -1576    -1692     -737     -108    -2089 
   -5364    -6551    -4945    -2231      -12      321    -2065    -6091 
   -9782   -12317   -13343   -12583   -10527    -7414    -3195      981 
    3114     2080    -1312    -5262    -9285   -13637   -16599   -16033 
  -12997   -10538    -9807    -9402    -8363    -7354    -6473    -4878 
   -2658     -702      251     -403    -2380    -4297    -5775    -7700 
   -9294    -8221    -4762    -2231    -2045    -2122     -635     2046 
    4928     7885    11149    13451    12619     8553     3591     -271 
   -3168    -5933    -8718   -11703   -15137   -18617   -21406   -23205 
  -24266   -24237   -21555   -15237    -6496     1723     6662     8152 
    8027     7113     5574     4305     4024     4928     6682     8058 
    7669     4877      287    -4249    -7236    -8734    -8984    -7404 
   -4133    -1282     -904    -2300    -3798    -5545    -8068   -10623 
  -12159   -12397   -11773   -10809    -9767    -8742    -7794    -7244 
   -7522    -8392    -9074    -9045    -7808    -5225    -2551    -1150 
    -866    -1294    -2882    -5242    -6467    -5788    -4718    -4428 
   -4002    -2253      342     2462     3308     2690      980    -1451 
   -4517    -7458    -9107    -9308    -8773    -8313    -8802   -10341 
  -11770   -11989   -10643    -8217    -5860    -3802    -1107     2440 
    5826     7832     7703     5659     2652     -491    -3204    -5123 
   -6103    -6316    -6486    -7584   -10238   -14338   -18652   -21328 
  -21541   -19731   -16368   -11967    -7257    -3100     -772     -510 
    -467      934     2926     3682     2454       63    -2014    -3103 
   -3825    -4725    -5109    -4063    -2081     -490      446     1321 
    1871      994    -1394    -3692    -4808    -5649    -6679    -6457 
   -4233    -1362      379      -47    -2296    -4306    -4607    -4375 
   -4965    -5196    -3337     -156     2101     3172     4726     6709 
    6863     4166     -102    -4306    -7744   -10490   -13028   -15831 
  -17851   -17084   -14052   -11344    -9296    -5973    -1462     1413 
    1237     -444    -2023    -3059    -3576    -4045    -4820    -5691 
   -6172    -5539    -3901    -2841    -3288    -4301    -5065    -5968 
   -7061    -7780    -7825    -6555    -3746    -1220     -966    -2631 
   -4158    -4271    -3815    -4194    -5282    -5898    -5826    -6092 
   -6990    -7464    -7113    -7011    -7659    -8012    -6991    -3966 
     961     5890     8731     9049     7167     3990     1084    -1321 
   -4656    -8819   -11198   -10501    -8673    -7643    -6956    -5979 
   -6165    -8282   -10112   -10120    -9440    -9130    -8789    -7855 
   -6602    -5325    -3846    -2442    -1819    -2403    -4271    -6978 
   -9058    -8931    -6781    -4207    -2347    -1293    -1243    -3213 
   -7291   -11589   -14220   -14885   -14269   -12850   -10783    -8579 
   -6995    -6400    -6149    -4681    -1678      577      322    -1050 
   -1506    -1202    -1287    -1436     -731      337     1240     2127 
    2461     1887     1078      564      283      139      148      -18 
    -643    -1175    -1100     -460      936     3125     4907     4438 
    1544    -1848    -4884    -8432   -11655   -12293   -10496    -8272 
   -5836    -2436      378      245    -2293    -4725    -5958    -6247 
   -5657    -4711    -4315    -4311    -4347    -5347    -7493    -8830 
   -8329    -7299    -6953    -7420    -8406    -9387    -9946    -9987 
   -9693    -9360    -8989    -8141    -6338    -3847    -1907    -1463 
   -2182    -3032    -3316    -3322    -3862    -4978    -5826    -6085 
   -6380    -6930    -7149    -6783    -6026    -4931    -3604    -2500 
   -2461    -4021    -6326    -7689    -7655    -7605    -8579    -9092 
   -6793    -2089     1803     2538      889     -726     -793      272 
     811     -287    -2444    -4086    -4230    -3190    -1934    -1304 
   -1706    -3202    -5603    -8247   -10166   -10503    -8748    -5794 
   -4050    -4639    -5886    -5926    -5015    -4406    -4359    -4048 
   -3127    -2079     -973      174      446     -777    -2714    -4309 
   -5580    -6322    -4833    -1012     1840     1490     -481    -1837 
   -2253    -2270    -1991    -1294     -577    -1003    -3207    -6281 
   -8928   -10355   -10180    -8622    -6604    -5319    -4834    -3794 
   -1933    -1256    -3142    -5788    -6659    -6141    -5989    -5736 
   -4144    -2551    -2959    -4769    -6656    -8807   -10908   -11367 
  -10184    -9032    -7985    -5975    -3564    -1917    -1028    -1030 
   -2817    -5969    -7970    -7117    -4652    -2583    -1551    -1401 
   -1686    -1752    -1228     -463     -409    -1412    -2902    -4453 
   -5368    -4469    -2601    -2539    -4288    -4769    -3159    -1827 
   -1726    -1351     -677    -1505    -3828    -5898    -7117    -8171 
   -9194    -9640    -9344    -8721    -7993    -6662    -4949    -4534 
   -5850    -7211    -7512    -7229    -7214    -8043    -9776   -11715 
  -12564   -11604    -9819    -8163    -5733    -2002     1571     3707 
    4499     4604     4703     5262     6694     8851    10285     9707 
    7422     4158      -79    -5082    -9586   -12158   -12521   -11778 
  -10874    -9266    -6232    -2463     1129     4673     7985    10048 
   10422     9834     9490     9768    10002     9825     9491     8976 
    8101     6874     4333    -1135    -9173   -17739   -26076   -34689 
  -43015   -49162   -51605   -50529   -47240   -41987   -34011   -23851 
  -13451    -4457     2673     8137    11423    11410     8224     4267 
    2502     3342     4720     5401     5821     6049     5105     2498 
    -452    -1749     -820     1483     4563     8410    12463    16241 
   20638    26291    31126    31078    23581     9563    -7528   -23664 
  -36067   -43163   -43533   -36965   -26175   -16117   -10206    -7672 
   -6365    -5714    -5202    -3863    -2342    -1987    -2502    -3198 
   -4735    -8037   -12846   -17721   -21076   -22079   -20987   -19627 
  -20291   -22175   -21352   -15951    -8176    -1181     3431     5611 
    4953     -349   -11082   -24624   -35878   -40717   -38805   -32144 
  -22214   -10447     1188    11257    19437    26900    35237    44378 
   51792    53137    45666    30650    11620    -6879   -20416   -26287 
  -23502   -14227    -4513     -616    -5089   -13988   -19116   -17302 
  -12621    -8097    -3303      720     1182    -2255    -6043    -6237 
   -3304    -1502    -3569    -8267   -11944   -11568    -6501     2012 
   10962    16433    16598    11974     3692    -5822   -12962   -15066 
  -11234    -3177     4927     9806    10689     7561      600    -8602 
  -16806   -21277   -21466   -18461   -13628    -7109      400     4903 
    2573    -6239   -18357   -29856   -38030   -41685   -39927   -33879 
  -25760   -15500    -2394    12410    25999    35885    42687    47526 
   48991    45624    37116    23726     6704   -12870   -32935   -48710 
  -56725   -58368   -56813   -52497   -44938   -35652   -24941   -11912 
    1655    12862    19958    22113    19537    13459     6627     2421 
    2994     8829    17658    24729    25902    20146     9778    -1487 
   -9985   -12738    -9516    -3331     2006     4457     4708     3558 
    -341    -7403   -15241   -21762   -26770   -30688   -33385   -34526 
  -34522   -32859   -26284   -12568     4730    18430    23349    18848 
    8201    -4029   -13645   -15967    -8097     6616    20588    28073 
   28200    24113    19240    14802    10930     7323     2859    -3720 
  -13051   -24163   -33570   -36733   -31407   -19872    -6899     4158 
   11514    13555     9495      761    -8320   -13016   -11874    -7063 
   -2578     -577     -128    -1166    -4093    -6403    -4866      930 
    7761    11210     9375     2943    -6438   -16235   -23519   -26784 
  -26227   -22450   -17505   -14944   -16340   -20775   -26468   -31222 
  -32923   -29338   -19508    -5431     9586    21897    28539    29409 
   25575    17521     6480    -5728   -16887   -23916   -24115   -16654 
   -3252    12312    24815    29555    26107    17182     5238    -6486 
  -13702   -14276   -10887    -8098    -6033    -2224     1726     1352 
   -5298   -15703   -25662   -33380   -38186   -38823   -35731   -30825 
  -25644   -20518   -14764    -9441    -6474    -4407     -399     5448 
   10986    14855    17084    18144    18304    17512    15738    13896 
   13529    14980    16722    16101    11599     4777    -2362    -9659 
  -16937   -23361   -27911   -29390   -27765   -24366   -20139   -15368 
  -10677    -7171    -5618    -5545    -5359    -3555       62     4249 
    6910     5778      -89    -9069   -17793   -22935   -22079   -15102 
   -5792     1143     4796     7051     8768     9082     7757     6689 
    6903     5379     -949   -10062   -17651   -22547   -25874   -26786 
  -23967   -19572   -16085   -12248    -6142     1680    10206    19218 
   27117    30905    28629    19348     4009   -12123   -22435   -24063 
  -18090    -7362     4958    16016    22950    23865    19908    13972 
    7489      780    -5123    -9491   -12492   -13643   -12233    -9146 
   -7045    -8010   -11161   -14505   -17531   -20618   -23469   -24938 
  -24757   -23832   -22396   -19900   -15985   -11122    -7014    -5170 
   -5335    -6223    -6173    -3497     1642     6605     8561     6818 
    3142     1011     3794    11695    20518    24525    20785    10422 
   -3618   -17949   -28336   -31175   -26281   -16981    -7547     -688 
    2600     2103    -1393    -6376   -11192   -14052   -14241   -13215 
  -12420   -11132    -8465    -5227    -2573    -1240    -1782    -3628 
   -5053    -4797    -2768      118     2579     4095     4537     3697 
    2822     4029     6659     7758     6124     2502    -2178    -7350 
  -12953   -18204   -21635   -22596   -21018   -16973   -11014    -4897 
    -982      932     3441     7258    10370    10492     7218     2446 
   -1721    -4101    -4067    -2400     -839     -587    -1773    -3364 
   -4961    -7264    -9373    -9240    -6447    -2652     -121     -137 
   -3176    -8891   -15242   -19572   -19770   -14901    -6508     1795 
    7018     8857     8645     6678     2358    -3969   -10555   -14995 
  -16586   -17201   -18249   -18929   -18333   -16495   -13057    -7649 
   -1451     3422     5385     3870     -621    -6011    -8856    -7425 
   -3881    -1024      818     2095     2785     3144     3253     2565 
     425    -2860    -5834    -7881    -9826   -11923   -13043   -11982 
   -9246    -6624    -4723    -2535      314     1925      -13    -4837 
   -8942    -8661    -2961     5535    12822    16725    16887    13286 
    6710     -450    -6002   -10000   -13032   -13832   -11136    -6276 
   -2161    -1109    -3481    -7557   -11155   -12877   -12383   -10683 
   -9479   -10062   -12565   -15105   -15271   -13317   -11589   -11403 
  -12368   -13767   -15115   -15485   -14041   -11653    -9872    -8627 
   -6951    -4486    -1108     3032     7063    10377    13244    15631 
   16055    12415     4452    -5324   -13463   -17606   -17234   -13327 
   -7218      324     8425    15111    18297    17132    12163     4873 
   -3102    -9713   -12567   -11557    -9062    -6201    -2304     1968 
    4598     4932     3634     1034    -2265    -5459    -9081   -13803 
  -18021   -18608   -14108    -6324     1351     6461     8388     7284 
    2816    -4835   -13527   -20659   -24810   -25088   -21751   -16923 
  -12873   -10766   -10631   -11242   -10898    -9431    -8193    -7138 
   -4513      -70     4045     6096     6438     5745     3631       78 
   -3437    -5050    -4109    -1304     2041     4336     4388     2366 
    -226    -2052    -3146    -4112    -5211    -6500    -7312    -6309 
   -3451     -480     1053     1152     1071     1290      702     -812 
   -1999    -2878    -4835    -8675   -13358   -16228   -15122   -10200 
   -3640     2000     5117     5093     1938    -3462    -9250   -13694 
  -16590   -18945   -21247   -22481   -20989   -16507   -11044    -7290 
   -6438    -7835   -10108   -11631   -10686    -7064    -2776      253 
