Origin Time       2024/04/02 04:24:00
Lat.              40.133
Long.             141.712
Depth. (km)       71
Mag.              6.0
Station Code      IWT019
Station Lat.      39.8030
Station Long.     141.6584
Station Height(m) 294
Record Time       2024/04/02 04:24:49
Sampling Freq(Hz) 100Hz
Duration Time(s)  84
Dir.              U-D
Scale Factor      7845(gal)/8223790
Max. Acc. (gal)   39.684
Last Correction   2024/04/02 04:24:48
Memo.             
[...]
  -42714   -42714   -42715   -42714   -42712   -42715   -42715   -42714 
  -42716   -42716   -42714   -42714   -42715   -42715   -42716   -42715 
  -42712   -42715   -42716   -42714   -42715   -42718   -42716   -42715 
  -42715   -42714   -42714   -42715   -42714   -42715   -42716   -42716 
  -42714   -42714   -42718   -42716   -42714   -42715   -42715   -42715 
  -42715   -42715   -42715   -42714   -42712   -42714   -42714   -42714 
  -42714   -42716   -42716   -42714   -42714   -42715   -42715   -42716 
  -42714   -42712   -42716   -42718   -42714   -42714   -42716   -42716 
  -42718   -42716   -42715   -42716   -42718   -42715   -42715   -42716 
  -42714   -42714   -42715   -42712   -42712   -42716   -42716   -42715 
  -42716   -42715   -42714   -42714   -42714   -42714   -42718   -42719 
  -42716   -42718   -42719   -42715   -42714   -42716   -42715   -42714 
  -42716   -42716   -42715   -42716   -42718   -42716   -42718   -42716 
  -42716   -42716   -42715   -42714   -42715   -42716   -42716   -42716 
  -42716   -42714   -42712   -42712   -42715   -42715   -42716   -42719 
  -42716   -42714   -42716   -42718   -42714   -42715   -42716   -42714 
  -42714   -42716   -42716   -42715   -42715   -42715   -42715   -42716 
  -42716   -42716   -42715   -42715   -42715   -42715   -42715   -42716 
  -42715   -42714   -42715   -42716   -42718   -42716   -42715   -42716 
  -42716   -42714   -42715   -42718   -42716   -42715   -42715   -42716 
  -42716   -42715   -42715   -42715   -42715   -42714   -42712   -42715 
  -42716   -42716   -42716   -42715   -42715   -42715   -42716   -42714 
  -42714   -42718   -42716   -42714   -42714   -42714   -42715   -42716 
  -42718   -42718   -42716   -42716   -42718   -42716   -42715   -42715 
  -42715   -42714   -42714   -42716   -42716   -42716   -42715   -42715 
  -42716   -42716   -42716   -42716   -42712   -42712   -42715   -42716 
  -42715   -42714   -42718   -42718   -42715   -42716   -42718   -42715 
  -42718   -42718   -42715   -42715   -42716   -42715   -42716   -42716 
  -42714   -42714   -42719   -42718   -42714   -42714   -42715   -42715 
  -42718   -42716   -42714   -42714   -42714   -42712   -42714   -42715 
  -42714   -42714   -42715   -42716   -42715   -42716   -42716   -42716 
  -42716   -42715   -42714   -42714   -42714   -42716   -42716   -42715 
  -42716   -42715   -42714   -42714   -42711   -42712   -42716   -42719 
  -42718   -42715   -42714   -42716   -42719   -42716   -42714   -42715 
  -42716   -42718   -42715   -42715   -42715   -42712   -42715   -42716 
  -42714   -42714   -42715   -42714   -42716   -42720   -42718   -42712 
  -42714   -42715   -42714   -42715   -42716   -42715   -42715   -42715 
  -42716   -42715   -42714   -42714   -42715   -42714   -42714   -42715 
  -42716   -42716   -42716   -42715   -42714   -42715   -42716   -42715 
  -42716   -42716   -42715   -42714   -42714   -42714   -42715   -42715 
  -42714   -42719   -42719   -42715   -42716   -42716   -42716   -42718 
  -42716   -42714   -42714   -42716   -42716   -42715   -42714   -42714 
  -42715   -42716   -42715   -42715   -42716   -42715   -42714   -42715 
  -42716   -42716   -42715   -42715   -42714   -42715   -42714   -42714 
  -42715   -42712   -42714   -42718   -42716   -42715   -42714   -42712 
  -42712   -42712   -42711   -42714   -42715   -42715   -42715   -42716 
  -42714   -42714   -42714   -42715   -42715   -42714   -42714   -42715 
  -42716   -42714   -42712   -42714   -42712   -42715   -42716   -42715 
  -42716   -42716   -42715   -42715   -42715   -42712   -42714   -42715 
  -42715   -42716   -42718   -42715   -42715   -42716   -42715   -42715 
  -42716   -42716   -42715   -42714   -42715   -42714   -42715   -42715 
  -42715   -42716   -42715   -42715   -42716   -42716   -42715   -42716 
  -42716   -42715   -42715   -42715   -42716   -42714   -42715   -42716 
  -42715   -42714   -42714   -42714   -42715   -42718   -42716   -42715 
  -42715   -42714   -42715   -42715   -42712   -42715   -42718   -42716 
  -42715   -42716   -42714   -42714   -42714   -42711   -42712   -42715 
  -42714   -42714   -42714   -42715   -42718   -42719   -42716   -42715 
  -42714   -42712   -42714   -42715   -42715   -42715   -42716   -42715 
  -42716   -42718   -42714   -42714   -42716   -42715   -42714   -42718 
  -42718   -42712   -42714   -42716   -42714   -42714   -42718   -42715 
  -42714   -42716   -42715   -42714   -42714   -42715   -42716   -42715 
  -42715   -42718   -42716   -42714   -42712   -42709   -42682   -42587 
  -42340   -41895   -41436   -41378   -41908   -42589   -43071   -43592 
  -43899   -43773   -43981   -43951   -43314   -43740   -44451   -44857 
  -45438   -43425   -39425   -36691   -38005   -43467   -44675   -43286 
  -46905   -47196   -43691   -45814   -47337   -43521   -42012   -40088 
  -35349   -35228   -35518   -37949   -46248   -49262   -49362   -47456 
  -41978   -44848   -47950   -42603   -41219   -42387   -37544   -32671 
  -32752   -37875   -44593   -42437   -40463   -50413   -54545   -49457 
  -46670   -42354   -37762   -36606   -39960   -43875   -36977   -29772 
  -36200   -47893   -55074   -51351   -46853   -49870   -42966   -37962 
  -47663   -45072   -36691   -36340   -36238   -42180   -39973   -34177 
  -45241   -49013   -47191   -56895   -57119   -42126   -30125   -28879 
  -32417   -37713   -39753   -38117   -45517   -50620   -49318   -53794 
  -48172   -41478   -46375   -39829   -40248   -53438   -35313   -14069 
  -30361   -45478   -45878   -46583   -44145   -51289   -63167   -54469 
  -34048   -29319   -41585   -45134   -39742   -44246   -43209   -34545 
  -38542   -42365   -39988   -44038   -48563   -44298   -38497   -48400 
  -60997   -47970   -31804   -36359   -43455   -39156   -33609   -48505 
  -54130   -33562   -45087   -66089   -53117   -44755   -42785   -41431 
  -48733   -41580   -21949   -18387   -35158   -41416   -36682   -51034 
  -65416   -58417   -44593   -38664   -38337   -33366   -34269   -36606 
  -31727   -40254   -50634   -44744   -41343   -45227   -45068   -46298 
  -52466   -51403   -43696   -36099   -29806   -31029   -39483   -44169 
  -42422   -52897   -63418   -46967   -38940   -49654   -41635   -38603 
  -55575   -48425   -30456   -28594   -27729   -44143   -54729   -36143 
  -42565   -54265   -38577   -39866   -47568   -39021   -40740   -45189 
  -35052   -31745   -41624   -46750   -49219   -55452   -50391   -38280 
  -46167   -50268   -29031   -26728   -43025   -41817   -36173   -38475 
  -43222   -42412   -37465   -47923   -61307   -52178   -32458   -25319 
  -40181   -52843   -45034   -38596   -36161   -36649   -47270   -51247 
  -44685   -37949   -40447   -45534   -42331   -48636   -51441   -35635 
  -29745   -39024   -50566   -49252   -40653   -47015   -51178   -43842 
  -36371   -38838   -55368   -51213   -27935   -32815   -48155   -41253 
  -39399   -48365   -37129   -27599   -46078   -55933   -44104   -39082 
  -42421   -43837   -42450   -39336   -41850   -47208   -46953   -48621 
  -48377   -35486   -34425   -50608   -49974   -36517   -34119   -41092 
  -43969   -44294   -55367   -55398   -37555   -37810   -45580   -38431 
  -37466   -44158   -37740   -27814   -37069   -53847   -52320   -40181 
  -41098   -49933   -48718   -42944   -38252   -37056   -44300   -42643 
  -34138   -39267   -49158   -51104   -46202   -44991   -43437   -36877 
  -40274   -42144   -39961   -43667   -39293   -38689   -42935   -38889 
  -43298   -46538   -41667   -45443   -47968   -45855   -43244   -37627 
  -38674   -41450   -41989   -50290   -52458   -40339   -34965   -47290 
  -55601   -42192   -32050   -37762   -40178   -40738   -42222   -39681 
  -42569   -46384   -43137   -45673   -48550   -43456   -44871   -44737 
  -36915   -38780   -43039   -41218   -39943   -37314   -39064   -47086 
  -49653   -49405   -49072   -39117   -31606   -40080   -45092   -40196 
  -41064   -44423   -45144   -46512   -42777   -32872   -31341   -46908 
  -53744   -39650   -40711   -52416   -47212   -45149   -49216   -46020 
  -40674   -34252   -34735   -40386   -40956   -42099   -42233   -43509 
  -49243   -50090   -43954   -34815   -40362   -56878   -52446   -34611 
  -31506   -45837   -50861   -39918   -41214   -45006   -38176   -38237 
  -42682   -44089   -45600   -44118   -38655   -39901   -44963   -39993 
  -36768   -43729   -46111   -44743   -46222   -42919   -40871   -42817 
  -37797   -39791   -45562   -37343   -41068   -48115   -32656   -38979 
  -58804   -39738   -31900   -53831   -46106   -37197   -47841   -39131 
  -34913   -41350   -40227   -48841   -47305   -35332   -40587   -42357 
  -39542   -47140   -49253   -44463   -46056   -47468   -38952   -35459 
  -43533   -46720   -48062   -49343   -38473   -35959   -50149   -46719 
  -34438   -42483   -44482   -38473   -51930   -50992   -30416   -31531 
  -34095   -32802   -51003   -56837   -44977   -46784   -47587   -40385 
  -42660   -45499   -44887   -41673   -35287   -40454   -48416   -50201 
  -47532   -33771   -36036   -52867   -44755   -36817   -50417   -48377 
  -30349   -35742   -51443   -40971   -30861   -43368   -48357   -41878 
  -45688   -48000   -36197   -37941   -52181   -48118   -42570   -46745 
  -44855   -44131   -43217   -37642   -38377   -40767   -39555   -40622 
  -42475   -41751   -41573   -40012   -36504   -41157   -46361   -40047 
  -37342   -39615   -35964   -41848   -51038   -47054   -47957   -47794 
  -39739   -40691   -41023   -42982   -48928   -42932   -37386   -40444 
  -46010   -47283   -42502   -44632   -41898   -30603   -36487   -50402 
  -51042   -43463   -42981   -50391   -44203   -29748   -29272   -38086 
  -45848   -44254   -42631   -49804   -48735   -44277   -43927   -41185 
  -39418   -34522   -37909   -48768   -44389   -46168   -54422   -45037 
  -39108   -43895   -45669   -40498   -35487   -42822   -49330   -45536 
  -38107   -33517   -43214   -50419   -36107   -30411   -48169   -52645 
  -40294   -43814   -46530   -32576   -38236   -56296   -44512   -28507 
  -42101   -55175   -49015   -39568   -37107   -44162   -44790   -37986 
  -43039   -43414   -36682   -49400   -61349   -44405   -28421   -40518 
  -45065   -32784   -40641   -49978   -47121   -50812   -43862   -34219 
  -40479   -42032   -40563   -45523   -42800   -37943   -43784   -48342 
  -45885   -42785   -41395   -43509   -41720   -39927   -42506   -41426 
  -51003   -55593   -36101   -30792   -41547   -42909   -41376   -43961 
  -46392   -43465   -46537   -51787   -42044   -34935   -37133   -39490 
  -46179   -45419   -40431   -44664   -44234   -41797   -42917   -42271 
  -44771   -41266   -35823   -40417   -44469   -47016   -45542   -39992 
  -41625   -42854   -37681   -34503   -41496   -49110   -41548   -37363 
  -45912   -50630   -51046   -45461   -39222   -38519   -37494   -43594 
  -47340   -41612   -40686   -38585   -39363   -47468   -45841   -40238 
  -40803   -39347   -37405   -46063   -50703   -41372   -45674   -54321 
  -43700   -38125   -41550   -38403   -38057   -42745   -46198   -49214 
  -44535   -38723   -45119   -43939   -35117   -39935   -45574   -42345 
  -39259   -43461   -50581   -47578   -39237   -32965   -29992   -39854 
  -55556   -57011   -45927   -41085   -45098   -40636   -31943   -37882 
  -45782   -43117   -45778   -46920   -35665   -39522   -50431   -41145 
  -38581   -47749   -43102   -36477   -42610   -45112   -35783   -38330 
  -48517   -42647   -39599   -45864   -43243   -39820   -43483   -44868 
  -43012   -42786   -41273   -42093   -49026   -47452   -40770   -47231 
  -49335   -36246   -32360   -41561   -46688   -41292   -41049   -53501 
  -48740   -32023   -37995   -47898   -42333   -39471   -41245   -39623 
  -45913   -50375   -38268   -35262   -44097   -42114   -33149   -33390 
  -44579   -45063   -39353   -40922   -36306   -38990   -47776   -45408 
  -47575   -47474   -40209   -42456   -48034   -42927   -36520   -47229 
  -49118   -35480   -38751   -41625   -40964   -49744   -47528   -41489 
  -46909   -52057   -40405   -28626   -35603   -38180   -43389   -56550 
  -50128   -41100   -40817   -39823   -46211   -49804   -40342   -32233 
  -39604   -50581   -48740   -47285   -48636   -39604   -32678   -40520 
  -51325   -50090   -42607   -39619   -35781   -36404   -44655   -47787 
  -44614   -41168   -49801   -52361   -34599   -37940   -45434   -33131 
  -40162   -45993   -37787   -48766   -53150   -35916   -34662   -50004 
  -46831   -33511   -40643   -48801   -40212   -37440   -45119   -47355 
  -38238   -33577   -47638   -50897   -38114   -42534   -45091   -43054 
  -54407   -47310   -34807   -36332   -30690   -34886   -42377   -40751 
  -52570   -55038   -36220   -29546   -43524   -52864   -39645   -30627 
  -44471   -60393   -57303   -37932   -31376   -35332   -38781   -49230 
  -43403   -27857   -32328   -45858   -50965   -40088   -30041   -40892 
  -58715   -55341   -32728   -34979   -48446   -34300   -35853   -53489 
  -50106   -48388   -42978   -32402   -39532   -37566   -34350   -56918 
  -62262   -48269   -58143   -67780   -55440   -36013   -20237   -30809 
  -39426   -19595   -28366   -49979   -37863   -34902   -38789   -29551 
  -46988   -76617   -58155   -15178   -26442   -68250   -60119   -32170 
  -46557   -66525   -58649   -60804   -54981   -28387   -41662   -46550 
   -3372    -1682   -45862   -62698   -40535   -37809   -74609   -72199 
  -31432   -37759   -59962   -48848   -44459   -43673   -34762   -39930 
  -34342   -12393    -6619   -23625   -48861   -50125   -42118   -58954 
  -59017   -39037   -32204   -35449   -59551   -57890   -32286   -62603 
  -82891   -61365   -57877   -46145   -39339   -33863    -2396    -1115 
  -17710   -28849   -42174   -36553   -42757   -57576   -47687   -43229 
  -51019   -44822   -31614   -37548   -54978   -56261   -49782   -51332 
  -43023   -20904   -23468   -50469   -61060   -49852   -20950   -11661 
  -47885   -57356   -45373   -66534   -55806   -27569   -51985   -54855 
  -27446   -40767   -41872   -10179   -16869   -53407   -60164   -41364 
  -45681   -64986   -52994   -31482   -39120   -49572   -47210   -58677 
  -59536   -35395   -39232   -54787   -52249   -47849   -32023   -34809 
  -53987   -42948   -37050   -43200   -35712   -37432   -47200   -50274 
  -44817   -39125   -46056   -42785   -39599   -61342   -50477   -13158 
  -21095   -43090   -44070   -46484   -51480   -51333   -51772   -55568 
  -47451   -35213   -38788   -41465   -40749   -37930   -33107   -40068 
  -29812   -13188   -32393   -47233   -40163   -37075   -36467   -42269 
  -48459   -48456   -48799   -42668   -40609   -50626   -50508   -43252 
  -49212   -55651   -45507   -33357   -35540   -41191   -40736   -38007 
  -38199   -45736   -43402   -34157   -42222   -44626   -39074   -46033 
  -45404   -42565   -48486   -49520   -48837   -38546   -26377   -38574 
  -49165   -37355   -33917   -45153   -47727   -42456   -40544   -41851 
  -39033   -34950   -46322   -59512   -51420   -42253   -42939   -40132 
  -45350   -54807   -47988   -41719   -43490   -39918   -37204   -41351 
  -45488   -42134   -39718   -41385   -37181   -36031   -39344   -45404 
  -50637   -35752   -32545   -53639   -45711   -31162   -42749   -45700 
  -50402   -60216   -50159   -46753   -50352   -45150   -49138   -49474 
  -40485   -41952   -46865   -46288   -42376   -38511   -37270   -37480 
  -39383   -43910   -44743   -37296   -38140   -43224   -32926   -25444 
  -31534   -38021   -38850   -41509   -50646   -47941   -41890   -49057 
  -44221   -31970   -39093   -51780   -51074   -42282   -39499   -39762 
  -36867   -38341   -38781   -38826   -44537   -44466   -45569   -50847 
  -44440   -38631   -44058   -46843   -44014   -44375   -47594   -43268 
  -38299   -43957   -45466   -45565   -52458   -44271   -35753   -42363 
  -37845   -38167   -50992   -48101   -41671   -40591   -38465   -40510 
  -47129   -53897   -47545   -38473   -42357   -40293   -36540   -43087 
  -42438   -38087   -42682   -46780   -47601   -50009   -48618   -42070 
  -37546   -36861   -36902   -40653   -50989   -48818   -34272   -41566 
  -55341   -49709   -47143   -47353   -42634   -43818   -43359   -39295 
  -37176   -36080   -40821   -42321   -33313   -32023   -39731   -45738 
  -46727   -35581   -31329   -42646   -41593   -36238   -42842   -43771 
  -42979   -51362   -50032   -36562   -33853   -40236   -41855   -43737 
  -43642   -37968   -36354   -37551   -38846   -43452   -46897   -41883 
  -38248   -48470   -49370   -35239   -36162   -44155   -44637   -47008 
  -46533   -41736   -37104   -33435   -39166   -46588   -43044   -42755 
  -49269   -49453   -45943   -40059   -38443   -47650   -46894   -39202 
  -46415   -52772   -49805   -52492   -51912   -40755   -39568   -48590 
  -47190   -42048   -45204   -48702   -45546   -42357   -46341   -44254 
  -37646   -40657   -39216   -38645   -48562   -48196   -41868   -40612 
  -35749   -33396   -39843   -44028   -41400   -36463   -36825   -46865 
  -50286   -41373   -36682   -38626   -41789   -41461   -37318   -35309 
  -36956   -43147   -48683   -48683   -44926   -41775   -41164   -34011 
  -32385   -47322   -51726   -44770   -44833   -43510   -39945   -41040 
  -43294   -44577   -46163   -46701   -44799   -44891   -46159   -43236 
  -40267   -38569   -37615   -39393   -39144   -42075   -45979   -38967 
  -37678   -46330   -48994   -48790   -45652   -42313   -45940   -46129 
  -42126   -44323   -45688   -41003   -41166   -44172   -42871   -42472 
  -41095   -39357   -42311   -45512   -44732   -38418   -36825   -44085 
  -46758   -46731   -46722   -43785   -45042   -46676   -42981   -41131 
  -44068   -47405   -45993   -43321   -44811   -43609   -43263   -48784 
  -44880   -36567   -40188   -43937   -39181   -37920   -44578   -45285 
  -37982   -36877   -39289   -41509   -44890   -43799   -46003   -50778 
  -45368   -40244   -44416   -48010   -45760   -40398   -36028   -35873 
  -39000   -42337   -45501   -47158   -47237   -48589   -44373   -36215 
  -38233   -41262   -38419   -42269   -47394   -45704   -41022   -36159 
  -38460   -44404   -44743   -47727   -48726   -39253   -39463   -44363 
  -37328   -41972   -51594   -40088   -32765   -41235   -43924   -42973 
  -41809   -34886   -36297   -46036   -43183   -36364   -37983   -39249 
  -43058   -45401   -39105   -38574   -41715   -39872   -42774   -47169 
  -44547   -42207   -43746   -44932   -45773   -43648   -37914   -38587 
  -45559   -47020   -41926   -39646   -44058   -46623   -43885   -42232 
  -42261   -44633   -44523   -40189   -44667   -47838   -40238   -37255 
  -37617   -40443   -47092   -48941   -47787   -43440   -43517   -49615 
  -45323   -41131   -46873   -48108   -43141   -43575   -49636   -46458 
  -39613   -44335   -46627   -40807   -39879   -41955   -42260   -41521 
  -37690   -36616   -43501   -44936   -38020   -35802   -37102   -41003 
  -45924   -44280   -43945   -45022   -40815   -40960   -44074   -42084 
  -39988   -41249   -42681   -40842   -41862   -45399   -41365   -39490 
  -42811   -41299   -42105   -45689   -45655   -43517   -39667   -39305 
  -43834   -46375   -45354   -43827   -45338   -47440   -44139   -41203 
  -43811   -43038   -39746   -41991   -43411   -42940   -43086   -41224 
  -42519   -40333   -35232   -40965   -42642   -37004   -39167   -43293 
  -45732   -43849   -39498   -42260   -43009   -40450   -45067   -48836 
  -45679   -42885   -41590   -40447   -40909   -40367   -43884   -49851 
  -44967   -40741   -44848   -44559   -42630   -42957   -43632   -45763 
