Origin Time       2024/04/02 04:24:00
Lat.              40.133
Long.             141.712
Depth. (km)       71
Mag.              6.0
Station Code      IWT005
Station Lat.      39.6478
Station Long.     141.9465
Station Height(m) 6
Record Time       2024/04/02 04:24:51
Sampling Freq(Hz) 100Hz
Duration Time(s)  109
Dir.              U-D
Scale Factor      7845(gal)/8223790
Max. Acc. (gal)   93.485
Last Correction   2024/04/02 04:24:50
Memo.             
[...]
  -43726   -43729   -43734   -43737   -43735   -43735   -43740   -43744 
  -43745   -43742   -43742   -43741   -43738   -43735   -43734   -43733 
  -43731   -43729   -43725   -43725   -43727   -43727   -43726   -43727 
  -43730   -43734   -43737   -43740   -43738   -43741   -43742   -43741 
  -43741   -43741   -43741   -43738   -43737   -43738   -43737   -43734 
  -43731   -43727   -43727   -43730   -43730   -43729   -43727   -43729 
  -43733   -43734   -43735   -43737   -43735   -43735   -43738   -43741 
  -43742   -43740   -43737   -43737   -43735   -43733   -43734   -43734 
  -43729   -43726   -43729   -43733   -43733   -43729   -43726   -43727 
  -43729   -43731   -43733   -43733   -43734   -43735   -43738   -43740 
  -43740   -43738   -43735   -43734   -43735   -43737   -43737   -43735 
  -43733   -43731   -43735   -43734   -43731   -43733   -43734   -43731 
  -43735   -43738   -43734   -43731   -43731   -43730   -43733   -43737 
  -43737   -43735   -43737   -43740   -43741   -43737   -43735   -43737 
  -43735   -43733   -43733   -43734   -43731   -43730   -43734   -43734 
  -43733   -43734   -43731   -43727   -43731   -43737   -43737   -43737 
  -43735   -43735   -43738   -43737   -43735   -43738   -43735   -43731 
  -43733   -43731   -43731   -43731   -43729   -43730   -43733   -43735 
  -43737   -43738   -43738   -43738   -43740   -43741   -43740   -43738 
  -43737   -43737   -43735   -43734   -43734   -43733   -43729   -43729 
  -43730   -43731   -43734   -43734   -43733   -43733   -43735   -43740 
  -43741   -43741   -43741   -43738   -43738   -43738   -43738   -43738 
  -43734   -43730   -43729   -43729   -43727   -43726   -43727   -43729 
  -43730   -43731   -43733   -43735   -43731   -43730   -43734   -43738 
  -43738   -43737   -43735   -43737   -43740   -43741   -43741   -43738 
  -43737   -43737   -43734   -43733   -43733   -43729   -43729   -43729 
  -43729   -43729   -43727   -43729   -43730   -43731   -43737   -43741 
  -43742   -43741   -43740   -43740   -43742   -43744   -43744   -43742 
  -43738   -43734   -43735   -43735   -43731   -43727   -43727   -43727 
  -43726   -43729   -43730   -43729   -43730   -43730   -43730   -43733 
  -43733   -43730   -43733   -43735   -43738   -43742   -43745   -43741 
  -43738   -43740   -43741   -43741   -43741   -43737   -43735   -43735 
  -43735   -43735   -43731   -43729   -43730   -43730   -43729   -43729 
  -43733   -43731   -43729   -43731   -43735   -43735   -43734   -43740 
  -43744   -43744   -43746   -43748   -43745   -43744   -43741   -43738 
  -43735   -43733   -43731   -43729   -43725   -43725   -43729   -43726 
  -43726   -43726   -43725   -43727   -43731   -43734   -43737   -43738 
  -43738   -43740   -43737   -43733   -43729   -43734   -43754   -43788 
  -43825   -43854   -43873   -43899   -43958   -44037   -44120   -44221 
  -44312   -44294   -44097   -43875   -43873   -44038   -44251   -44523 
  -44562   -44317   -44429   -44941   -45187   -45106   -44660   -43654 
  -43302   -44157   -44032   -42622   -42577   -43586   -43610   -43457 
  -43843   -44149   -44629   -45454   -47403   -49979   -48412   -43853 
  -42689   -40797   -35854   -36509   -40724   -41447   -43013   -46338 
  -47185   -48022   -50105   -49707   -47069   -45046   -43432   -43318 
  -44020   -39753   -35337   -36436   -36485   -39658   -48011   -49045 
  -48779   -55957   -57474   -49272   -40691   -36221   -37029   -38692 
  -38902   -39341   -37542   -38762   -46153   -51208   -51462   -47094 
  -41054   -39451   -36686   -30817   -31052   -36633   -41585   -46981 
  -49796   -44921   -43102   -51318   -54257   -47046   -40070   -34014 
  -28576   -27924   -30770   -33808   -40536   -54697   -63078   -50418 
  -33081   -35352   -47645   -54510   -56994   -52550   -44046   -37149 
  -29745   -26750   -30734   -41399   -55287   -57186   -50502   -49752 
  -53349   -55412   -51019   -48076   -49307   -40795   -35641   -42649 
  -43445   -43800   -47829   -43214   -39719   -42245   -39247   -35170 
  -39363   -46751   -50658   -53758   -56193   -49422   -39506   -45229 
  -60226   -61456   -47911   -37362   -35943   -30492   -20617   -24233 
  -35586   -39663   -43915   -49717   -52343   -54334   -56679   -61672 
  -60849   -47312   -35926   -35058   -35864   -32803   -31990   -37161 
  -40020   -39657   -39360   -34938   -37166   -51154   -56494   -50263 
  -46255   -43264   -38560   -40606   -48635   -52498   -53543   -54413 
  -51887   -44182   -33853   -31280   -36776   -39515   -42039   -50652 
  -58479   -55435   -44755   -40153   -40848   -38439   -40775   -44841 
  -37920   -34673   -38430   -35656   -40643   -50444   -48849   -53434 
  -56299   -40054   -35460   -45513   -41273   -37543   -45970   -44537 
  -39260   -43156   -38144   -29338   -41542   -59887   -59333   -51201 
  -48223   -40783   -36545   -43225   -40224   -35314   -45623   -48085 
  -38384   -35166   -36323   -39032   -43714   -46606   -47869   -49985 
  -52752   -46541   -35263   -36148   -38777   -35298   -39395   -44574 
  -43407   -46390   -55863   -59609   -48334   -39151   -42796   -42252 
  -41049   -43086   -34726   -32830   -47760   -55075   -51190   -48531 
  -45353   -42419   -43893   -44606   -42925   -44539   -46140   -44015 
  -44956   -49086   -48127   -43368   -41908   -41778   -38460   -34447 
  -32031   -31639   -36595   -45135   -49464   -50074   -53650   -57770 
  -53811   -47352   -49990   -51721   -44961   -39488   -34389   -32545 
  -38789   -39123   -33943   -32883   -33408   -37027   -41432   -45269 
  -51371   -52586   -50711   -52699   -51537   -46322   -46704   -49524 
  -46134   -39784   -35877   -35675   -37800   -40737   -43105   -42666 
  -44806   -47926   -43272   -42142   -46442   -41347   -40244   -49465 
  -47987   -44824   -52200   -52259   -49018   -51529   -42588   -31394 
  -38025   -45727   -45030   -44157   -39299   -34295   -38257   -44197 
  -45557   -47695   -51389   -48802   -42772   -42032   -43641   -46075 
  -50666   -49384   -41567   -37435   -37562   -38751   -42238   -42048 
  -38107   -41567   -46367   -42275   -39251   -45229   -52338   -49864 
  -41458   -39247   -38693   -36043   -42290   -48234   -43773   -45543 
  -51160   -47933   -45247   -44709   -42026   -38402   -32648   -30867 
  -35086   -38962   -44374   -50905   -52274   -50525   -49928   -49362 
  -47746   -46456   -46321   -45432   -45246   -50267   -53250   -45042 
  -38109   -39572   -33960   -27506   -33723   -34666   -31629   -44506 
  -55296   -52477   -55277   -59489   -55780   -55053   -51430   -37642 
  -29207   -31023   -34785   -38392   -42421   -46624   -48006   -47260 
  -47942   -46188   -41827   -43337   -50962   -54652   -52124   -48756 
  -44946   -40945   -37174   -33659   -33006   -34088   -39120   -46626 
  -45828   -44678   -50957   -49928   -42457   -41962   -42909   -39719 
  -40103   -43263   -45094   -50068   -52459   -46627   -41640   -41033 
  -42880   -46141   -45442   -40941   -40288   -42778   -42672   -43441 
  -45256   -42481   -41906   -48284   -50943   -46618   -44662   -44984 
  -40724   -36486   -37261   -37868   -36290   -35862   -37319   -39634 
  -42853   -45949   -45492   -42620   -43378   -47518   -50562   -51965 
  -51181   -48612   -47525   -47352   -48409   -51162   -47136   -37701 
  -35091   -34948   -31041   -28343   -26892   -28470   -35537   -44024 
  -50314   -53318   -59427   -63853   -53885   -45673   -49501   -47352 
  -38280   -35529   -37728   -35768   -33061   -39267   -46157   -47186 
  -50870   -52921   -48547   -47785   -48528   -43128   -40286   -42936 
  -43768   -44844   -44999   -41197   -39625   -40940   -44999   -49495 
  -44813   -40007   -43646   -39641   -32085   -40009   -51344   -53145 
  -52104   -49472   -47193   -48968   -49581   -47189   -45346   -45418 
  -44810   -39140   -33974   -37309   -42110   -42148   -44115   -49572 
  -49261   -41145   -36331   -38670   -41137   -44712   -49821   -45658 
  -33675   -32535   -43707   -48656   -47152   -50002   -49026   -43295 
  -46658   -49952   -41002   -35406   -38650   -36867   -36560   -44564 
  -45658   -43812   -51020   -56758   -56828   -52671   -44952   -40707 
  -33731   -22593   -21286   -27147   -33126   -45404   -58685   -55872 
  -44551   -45072   -45565   -37814   -43825   -57658   -57156   -50935 
  -47000   -41688   -39941   -43965   -48552   -47395   -38815   -34709 
  -41035   -42430   -35996   -38647   -46645   -45111   -42395   -45096 
  -42372   -37012   -40871   -46415   -45088   -46321   -50032   -47214 
  -46014   -50761   -50098   -40707   -33238   -36671   -43819   -47486 
  -50201   -46579   -39101   -40734   -44820   -43121   -40463   -36119 
  -33505   -38777   -46531   -52434   -51538   -43151   -41850   -45169 
  -42186   -47822   -60612   -58783   -49902   -46242   -43082   -38491 
  -31113   -25519   -28827   -33304   -34553   -40520   -50745   -57214 
  -56675   -51696   -50552   -55593   -55721   -49783   -45468   -39402 
  -38391   -47125   -44757   -31899   -29185   -31851   -31680   -33349 
  -37833   -45517   -53912   -54191   -46434   -38730   -34315   -36239 
  -45014   -51626   -52532   -52045   -50160   -47619   -47561   -47058 
  -42905   -40875   -43715   -43623   -38658   -37416   -41638   -45346 
  -49281   -52567   -49212   -42529   -38183   -36246   -34867   -32634 
  -34155   -40196   -41696   -40770   -46252   -51696   -52211   -53469 
  -54195   -51120   -46842   -46907   -50969   -46622   -37739   -43383 
  -51953   -44336   -35141   -35941   -36845   -38269   -44432   -47297 
  -46380   -45582   -42026   -40888   -45133   -44716   -37316   -34488 
  -40486   -43903   -43721   -49242   -53917   -50958   -45562   -40853 
  -40436   -46120   -50348   -48779   -45420   -43390   -44109   -45315 
  -44612   -44552   -40941   -34435   -37146   -42314   -39896   -37457 
  -34295   -30929   -35959   -44069   -47834   -47147   -43371   -42657 
  -48166   -50182   -44845   -43476   -45716   -43146   -36968   -33705 
  -41867   -51401   -47237   -43641   -50322   -51428   -44352   -44899 
  -48664   -42903   -40689   -45785   -44255   -41943   -44012   -44886 
  -47394   -48845   -44554   -41416   -41096   -40620   -43155   -44247 
  -41192   -45177   -50156   -44239   -41270   -45696   -47378   -50161 
  -52243   -44963   -34152   -31318   -36308   -37373   -36479   -43386 
  -49734   -52051   -54816   -51070   -44431   -46569   -48771   -41361 
  -35499   -37936   -39328   -37228   -37633   -40718   -45242   -50499 
  -51097   -45431   -40092   -39548   -42172   -43112   -41031   -41945 
  -45986   -48878   -50905   -44219   -30632   -31306   -42074   -44851 
  -46168   -48714   -46487   -47352   -51529   -50639   -49833   -51881 
  -48894   -42962   -42315   -43100   -41373   -41249   -38465   -32266 
  -35926   -45293   -45512   -43636   -43776   -39993   -42433   -47682 
  -41234   -37905   -43745   -45840   -49119   -53577   -50791   -46458 
  -44759   -43278   -41779   -41435   -43416   -45450   -44443   -41426 
  -39853   -40188   -39734   -39529   -41291   -44359   -48755   -51505 
  -49908   -47638   -46990   -43112   -36737   -35361   -34169   -32286 
  -40024   -43719   -36981   -40942   -45989   -39996   -41164   -45219 
  -45049   -51865   -55040   -48412   -44263   -38465   -35055   -45490 
  -53393   -51065   -50751   -49581   -43167   -37212   -34142   -33664 
  -36163   -39920   -42033   -46835   -55505   -55582   -46252   -42437 
  -46272   -48844   -47308   -42117   -36513   -37643   -41401   -40082 
  -40710   -43318   -42905   -47656   -53757   -51741   -47062   -43668 
  -41615   -40633   -40589   -41322   -40284   -41420   -47395   -53572 
  -56161   -50641   -41748   -38893   -37962   -36786   -39127   -39954 
  -36352   -34987   -39421   -43051   -41862   -42804   -47096   -49823 
  -53450   -55748   -47930   -36336   -34425   -37463   -37513   -39059 
  -40352   -37385   -36147   -41967   -52961   -56488   -49928   -50545 
  -52381   -41904   -38838   -45287   -42164   -41835   -47984   -44578 
  -42336   -48440   -51894   -50400   -46746   -44901   -40767   -33170 
  -32147   -32354   -31912   -38727   -42471   -40725   -43695   -45885 
  -43977   -43499   -42461   -42827   -48065   -49671   -46013   -42642 
  -39348   -40983   -45472   -45280   -47838   -53902   -58924   -64046 
  -60347   -50843   -47784   -43055   -35145   -36031   -41523   -40941 
  -39195   -43686   -46862   -44868   -45607   -47970   -46218   -43769 
  -42222   -36163   -27097   -20952   -19002   -23915   -32476   -36394 
  -40244   -49522   -58739   -64220   -65638   -62617   -56775   -51687 
  -49881   -46062   -36189   -29776   -32809   -38125   -45970   -60739 
  -69029   -63143   -58673   -58560   -50561   -37153   -25974   -15314 
   -4947       39      425      132    -6774   -22796   -39213   -54368 
  -70266   -85730   -98949  -101896   -91157   -73241   -56878   -46225 
  -31148   -13709   -12884   -20750   -25440   -37245   -53789   -67513 
  -76943   -74201   -64137   -55358   -41937   -24115    -6409     8856 
   12553     2984   -12911   -35162   -59062   -74699   -86514   -98155 
  -99362   -89941   -78660   -64253   -47626   -35225   -26327   -21504 
  -24209   -29311   -33789   -41550   -47129   -43758   -33149   -17312 
   -5061    -3053    -4499    -9651   -23109   -35729   -41778   -52056 
  -71413   -89461  -102502  -116071  -124858  -117539   -92302   -53735 
  -10438    26532    47760    50989    42892    22558   -10516   -41983 
  -67543   -91075  -106928  -116216  -123697  -121232  -101703   -71304 
  -41423   -13905    16741    43094    54264    48961    24061   -14663 
  -52091   -84573  -108735  -116928  -112126  -100315   -84929   -71176 
  -58406   -41868   -27707   -20575   -10440     -639    -4553   -16626 
  -30021   -43730   -52347   -53505   -45445   -31205   -18489    -3476 
   11496     7948   -12359   -31118   -47271   -64573   -80006   -93799 
 -105003  -109169  -104221   -93123   -80809   -65996   -49239   -40034 
  -34808   -21698   -10489   -10538   -12688   -17109   -26582   -33662 
  -39205   -44475   -43309   -39214   -37849   -33758   -26017   -22428 
  -25498   -33405   -43066   -52267   -61666   -67424   -69437   -75783 
  -82410   -80751   -77534   -75307   -68203   -61366   -55399   -41847 
  -23920    -9215     -500     3260     5414     4101    -2637   -11547 
  -19268   -29110   -46522   -63065   -69966   -72658   -75062   -77483 
  -79192   -77487   -71879   -58672   -40209   -31673   -33918   -33015 
  -28713   -27149   -26812   -24374   -18553   -15466   -19584   -26937 
  -39190   -55815   -67775   -72927   -73878   -72689   -72296   -67986 
  -54487   -41409   -35455   -28683   -21463   -23545   -29911   -29623 
  -30356   -38138   -43902   -49121   -54171   -50976   -47615   -49341 
  -49758   -49666   -47331   -43443   -44217   -44790   -45369   -49835 
  -50145   -47949   -46471   -38921   -29705   -23963   -19589   -16941 
  -14918   -16637   -27943   -44759   -58947   -68862   -76015   -78567 
  -75564   -68993   -58850   -47352   -39992   -36451   -32027   -26765 
  -22694   -21219   -28678   -45138   -58756   -65134   -65354   -58194 
  -51050   -46377   -37212   -27931   -21108   -17718   -28930   -46376 
  -53401   -57403   -64196   -64849   -56566   -46722   -40922   -35749 
  -29443   -26786   -25857   -27322   -38870   -51440   -56135   -60968 
  -62267   -55335   -51263   -50850   -49904   -50809   -46719   -36996 
  -34364   -37768   -40680   -44275   -44532   -40567   -38303   -37197 
  -36969   -38657   -37235   -32478   -31166   -34253   -36240   -38020 
  -45447   -52375   -51906   -49400   -46240   -41288   -37717   -35569 
  -33763   -33716   -37777   -45908   -53387   -53913   -49312   -48593 
  -51300   -52265   -54459   -58344   -59672   -57596   -51127   -43070 
  -40360   -37746   -29759   -27330   -31436   -31256   -30852   -34416 
  -37968   -44612   -51208   -50461   -49702   -53279   -53811   -48204 
  -41883   -42144   -48058   -53053   -54375   -53001   -52132   -51541 
  -46500   -37106   -28394   -22910   -21679   -26234   -35640   -46333 
  -51247   -48872   -48849   -51105   -47899   -42626   -36529   -27591 
  -23881   -27970   -32634   -36622   -40633   -42908   -44957   -49648 
  -55459   -60779   -68496   -72459   -66525   -62121   -60733   -55125 
  -51976   -47289   -34708   -26851   -26748   -27268   -29393   -33515 
  -34619   -30699   -29014   -32633   -35429   -41085   -52731   -58487 
  -56794   -57789   -59981   -58425   -54152   -48293   -43050   -40706 
  -43137   -51290   -57570   -55512   -49913   -44451   -39441   -35764 
  -32312   -29482   -28923   -31098   -35517   -39150   -40062   -41625 
  -46016   -49395   -51066   -55675   -60720   -58695   -52548   -50159 
  -48730   -43615   -37779   -31110   -22419   -19874   -28393   -38184 
  -42291   -45666   -46481   -40605   -37922   -42188   -43144   -39472 
  -39139   -43914   -48811   -51574   -53617   -52747   -47302   -41305 
  -37558   -36944   -39613   -41581   -40367   -37527   -37326   -42658 
  -45823   -43667   -43632   -42692   -38507   -40683   -47565   -48439 
  -46527   -48963   -51714   -52246   -53893   -55907   -56335   -54731 
  -50391   -46539   -44398   -41596   -40907   -39812   -34877   -34294 
  -35943   -33755   -36478   -43699   -47734   -50013   -50126   -47628 
  -44865   -42256   -40027   -39047   -42568   -48757   -51306   -52794 
  -54787   -50776   -42149   -37756   -37694   -36424   -35031   -35958 
  -37415   -38114   -39517   -43881   -47733   -47244   -47767   -50882 
  -51209   -49446   -48826   -48558   -48388   -50319   -51413   -46496 
  -38751   -32645   -26033   -19828   -21428   -29313   -33781   -36713 
  -42450   -46380   -48591   -50573   -49837   -47802   -44680   -41102 
  -43356   -48103   -46565   -45484   -50209   -52803   -54788   -60372 
  -62114   -58245   -52853   -46639   -41967   -39032   -35433   -32125 
  -31577   -35962   -43059   -46064   -44184   -42664   -42408   -41331 
  -40086   -39518   -38337   -37457   -38886   -38047   -33941   -35012 
  -39953   -42241   -44680   -45720   -43326   -43609   -44913   -45015 
  -48201   -52000   -54195   -55219   -51214   -44585   -43046   -44347 
  -41643   -37465   -35637   -34573   -38052   -47750   -54391   -55860 
  -56810   -55084   -49813   -42905   -35052   -29236   -26649   -24973 
  -24005   -26973   -33925   -40736   -46523   -49833   -50465   -53681 
  -57167   -57005   -57414   -58680   -57986   -55198   -52443   -52613 
  -51750   -46917   -42952   -40055   -36489   -34715   -34164   -32881 
  -33812   -38186   -39116   -35229   -34653   -37539   -39661   -43767 
  -50188   -54112   -54791   -54789   -53609   -50382   -47065   -44844 
  -44099   -43966   -42330   -40184   -39337   -39654   -40818   -42678 
  -44887   -46186   -44706   -41293   -39490   -39472   -40342   -43083 
  -44953   -43726   -42165   -41542   -39787   -36428   -34666   -36285 
  -37754   -39467   -47569   -55842   -54514   -52366   -54733   -52879 
  -48332   -46494   -43113   -37615   -35321   -36304   -36909   -37787 
  -40770   -43449   -44005   -42984   -40882   -39827   -40163   -38881 
  -37686   -39777   -42186   -44915   -51264   -57051   -58706   -58899 
  -57346   -52218   -44917   -37369   -30859   -27199   -29331   -36560 
  -42549   -45949   -50939   -55863   -58541   -61597   -62576   -57738 
  -51484   -46565   -40373   -34360   -31239   -29764   -28277   -27913 
