Origin Time       2024/04/02 04:24:00
Lat.              40.133
Long.             141.712
Depth. (km)       71
Mag.              6.0
Station Code      IWT009
Station Lat.      39.0190
Station Long.     141.4053
Station Height(m) 148
Record Time       2024/04/02 04:24:58
Sampling Freq(Hz) 100Hz
Duration Time(s)  121
Dir.              E-W
Scale Factor      7845(gal)/8223790
Max. Acc. (gal)   51.507
Last Correction   2024/04/02 04:24:57
Memo.             
[...]
    4739     7364     5900     2709     -442     -159     5067    10982 
   12525     9047     5035     4112     3775     1449     -124     1561 
    5405     9556    11057     8284     4846     3454     3206     4549 
    6388     4440     -751    -3061     1308     9879    15249    12532 
    5209     -172     -413     2587     4920     5906     5517     3921 
    3651     4383     4780     5779     6748     7302     8116     8248 
    6793     4645     3246     3010     3369     2943     2276     3789 
    6000     6716     6579     5223     3464     2396      615     -183 
    2666     7346    10547    10003     6342     2369      795     4179 
    9192     8318     2843       40     2392     8043    11912     9801 
    4357      486     1283     5323     5660     1441    -1089     1044 
    7983    14446    12837     6138     1642     1026     2833     5101 
    6633     4941      116     -846     4372     9964    10864     6174 
     564     -453     3052     6251     6277     6478     7878     8386 
    8756     6851     1692    -1328      189     4531     8293     7620 
    4472     2691     2390     2933     3060     3208     6675    12096 
   13312     7558    -1512    -6550    -2523     7821    15206    13435 
    6373     1485     1548     4147     5616     5090     3596     3543 
    7222    11020     9182     2781    -2250    -2043     3497     9852 
    9931     4860     2458     3457     5125     7507     7612     3204 
   -1088     -302     4396     8604    10108     8557     4527      876 
     708     3925     6988     7291     5549     3680     3969     5921 
    6111     4329     2326     1389     3349     7285     9483     8409 
    6219     4642     2934     1343     1005     1709     3681     7358 
   10228     9583     6010     1278    -1364      656     5636    10135 
   10702     7942     6022     4537     2091      815     1281     2093 
    3157     5452     7755     7951     7010     6172     5687     5482 
    4275     2620     2770     5807    10017    10322     4603    -2620 
   -5009     -380     6639    10743    10505     6949     4500     6173 
    8711     7848     3844     1027     1629     3473     4658     4905 
    5030     6205     7354     6354     3492     1260     1340     2411 
    3148     5408     9391    11869    11362     7649     1791     -961 
    2002     5821     5502     2417     1948     4831     7273     8519 
    7461     2825     -677      785     5278     8110     5875     2805 
    5148    10756    12777     7520     -530    -3042      184     3700 
    5425     5706     6241     7778     7454     5157     4384     5339 
    6660     7074     4766     2837     4548     5485     3400     2396 
    3692     5393     5695     4244     4068     6574     8334     5830 
     513    -1320     2887     8332     9965     7076     4467     6870 
    9684     6069    -1048    -3875      992     9360    12440     7236 
    -224    -2906     1524     8812    11489     8649     5846     5219 
    4943     3331     -213    -3090    -1132     6384    14955    18041 
   12838     2716    -4970    -5643    -1505     4172     8718     8835 
    5854     4008     5030     8050     9377     7094     4892     4927 
    4580     2974     1595     1375     3519     7056     8807     7809 
    5510     3946     3084     2033     2702     5533     7735     7614 
    5340     3391     4120     5405     4353     1966     1468     4392 
    8714    11504    10505     5428      313    -1017     1341     4629 
    5895     6030     6285     5844     5992     6336     5273     5362 
    6786     6103     2871    -1345    -2992     1962    10200    13586 
    9825     3284    -1351    -2215      421     5508    10849    13516 
   12384     7767     1744     -726     1298     3615     4797     4560 
    2911     3014     5270     6160     3952     1520     3719     9043 
   11529     9005     2708    -1578     1736     7407     7946     5063 
    3096     3388     5671     8337     9672     8062     3412     -252 
    -287     1008     2398     5252     8819    10138     8563     6419 
    4446      799    -2866    -1167     5543    10731    10281     6022 
    3982     6939     9969     8193     3327      916     2791     4203 
    2502     1339     2856     5582     8090     8556     5827     2625 
    2473     5066     8225     9736     6980     1139    -2124     -230 
    4504     8773    10027     8541     6709     4843     1908     -399 
      17     3249     8811    12108     9265     5285     3685     2953 
    3801     4684     3094     1336     1471     3846     7300     7834 
    5850     5826     6687     5557     3326     1089      756     4098 
    8415    10017     8486     5293     2232     1937     5377     8715 
    8532     5354      827    -1543      791     5259     8158     8213 
    7299     7387     6330     2978      754     2069     5456     7956 
    7782     5232     2914     3132     4286     4963     6131     7064 
    6826     5833     4233     2555     1509     1782     4093     6880 
    8267     9212     8968     5448     1452      523     1644     2786 
    3663     4428     4707     4968     6824     9090     8151     4652 
    2536     2841     4275     5825     6621     5667     3176     1896 
    3053     4044     4531     6442     8348     7873     5035     2043 
    1568     2893     2940     1813     3572     9096    12690    11168 
    7530     4051      633    -1352      751     5516     8707     8783 
    6482     5246     6432     5325     1220    -1147      750     6523 
   11765    11466     6488      939    -1436      988     4739     5751 
    5625     7238     9486     9585     6552     2138     -418      739 
    3663     5321     5456     4409     2601     2547     5660    10015 
   11691     8444     3253      199      179     1655     3040     5981 
   11352    14642    11585     3415    -3942    -5809    -2253     4945 
   11502    12162     6669      240    -1217     2548     8137    11924 
   10542     6442     3503     1237      621     2277     3969     4962 
    5922     7187     7736     6790     5161     3514     3167     3993 
    4278     4726     5610     5773     4621     2965     4153     7160 
    6033     1610     -565     1555     8091    14828    14214     6636 
    -432    -2147     1912     7275     7371     2741      409     3775 
    8935    10174     7250     3657     1672     3173     5868     5046 
    2412      561      935     5944    10728    10187     7569     5221 
    3096     1548      657     1652     3970     6281     9536    11695 
    8810     2497    -1236      388     3439     3331     1312     2394 
    8565    14014    11398     3496       39     3412     7074     7422 
    6323     5302     5535     5395     2146     -132     1480     2631 
    1895     2803     7553    13153    13911     9576     3728    -1297 
   -2142     1464     4534     6550    10127    12552    10443     3916 
   -3223    -3839     2442     7488     7547     5313     3245     2929 
    5358     8316     8991     8459     6982     3186      616     2365 
    4706     4882     4814     5852     7538     7704     4409      666 
    1063     5452     8534     6023     1887     1343     3161     4922 
    5445     5582     7569    10088     9571     5078      360    -1188 
    -421     2597     6818     8565     7603     6485     6745     6674 
    4224     1208     -184     1730     5815     7218     6130     4378 
    2104     4280    10469    11990     7549     2700     1105     2231 
    3221     3303     3408     5363     8961     9825     6525     2053 
     190     3285     8201    10077     7753     3642     1676     1825 
    1930     2309     3196     5394     9047    10697     8710     5567 
    2781      233     -571     2201     7690    11773    10349     5391 
    1521     -472      441     4842     8677     8765     5526     1910 
    2110     5748     7897     5881     2366     2257     6188     9661 
    9046     5022     1586     1753     3834     4580     3133     1692 
    3439     6571     6905     6115     6971     7672     6871     5206 
    3231     2282     2577     3407     5208     6382     5672     4980 
    4438     4131     5170     5277     3434     2142     2562     4475 
    6097     6354     6964     7225     5845     4564     4275     4654 
    5204     5008     4183     3904     4807     4892     2475     1996 
    7087    12355    12248     7796     1665    -3422    -4209      -25 
    6070    10698    12804    11861     7771     2652    -1552    -2982 
     572     6891    10967    10898     7951     4218      513    -2134 
   -1162     3181     8912    13933    12806     4792    -1676    -1533 
    2019     4603     5111     4681     4787     6929     9942     9790 
    6187     3002     1675     1717     3339     5871     8383     9396 
    7755     5652     3472     -854    -4467    -3195     3121    11256 
   15422    13262     7155      723     -826     2493     4861     5713 
    6579     5722     3944     3276     3638     4472     3983     2610 
    4106     7933    10636    10713     7627     4349     3501     1526 
   -2249    -2619     2039     9216    15631    16231     8888      -24 
   -3694    -3445    -2542      224     6766    13918    15869    11249 
    3543    -1520     -896     2398     5539     7670     7260     4101 
    -453    -2494     2344    11480    16930    13929     5283    -2457 
   -5246    -2157     4452    10326    12954    11469     7342     2582 
   -1455    -2080     1013     6718    13077    13455     5914    -2012 
   -3557      580     3767     3407     4584     9579    14438    14003 
    6615    -1792    -3406     1561     6484     7473     6270     4781 
    4388     6844     8332     4329     -247      333     3558     5413 
    5898     7666    10964    10901     5259    -1193    -3349     -490 
    3843     6463     8854    11959    12233     8024     2673     -913 
   -2304     -450     4363     7998     8401     7453     6012     4261 
    2914     2374     2563     3060     4576     7519    10295    11318 
    9198     4201      623      286    -1189    -4041    -1628     8008 
   18033    20025    12313     1048    -7009    -8627    -3838     3551 
    9562    13239    13643    10643     6968     2990    -2070    -4627 
   -2704     1138     5019     7954     9795     9643     4536    -2484 
   -3264     3712    12571    15658    10812     3739    -1993    -6382 
   -7751    -4872     2322    10764    14049    10654     6158     5173 
    6245     4889      265    -1962     2224     8086     9494     6411 
    2705     1868     3708     5123     5514     6663     8279     8876 
    7447     4329     1802      976     1651     5154    10837    13882 
   12731    10006     5961      972    -3199    -6822    -9335    -8228 
   -2143     6563    12665    14997    15664    13525     8141     2582 
     390     4409    13163    19881    18562     9524     -199    -4338 
   -4819    -7141   -11038    -9684     1108    16174    28965    37042 
   36000    22319    -2161   -30628   -48078   -42349   -17527    13540 
   38283    48633    43471    25648     3321   -11106   -11445    -1806 
    9632    18010    21394    16472     3497    -8712    -8461     7493 
   26534    31355    18308    -3508   -22308   -28996   -22553    -8252 
    7500    19522    30422    42161    42772    23233    -9059   -38275 
  -45264   -22416    13375    37363    38311    22183     3214    -8692 
  -12360    -9645    -1983     6033     8860     6685     2637    -1279 
   -4387    -7252    -6852      716    11819    22746    31193    26230 
    2178   -28115   -47968   -48594   -31486    -6979    16826    36715 
   49195    52132    44047    24289    -1858   -22887   -27249   -14249 
    3720    12403     7516      162     3890    15495    24155    30203 
   36366    35333    20422    -2403   -19647   -24283   -18150    -4521 
    9366    14210     9639     3064     1543     5514     9709    10967 
    9009     4880     2551     5790    13251    18659    16590     4511 
  -15091   -28651   -26636   -16830    -4834     9186    19527    26663 
   30863    21477      193   -17502   -22626   -12888     4588    17184 
   21928    19514    10535     4035     8591    20437    28155    21868 
     614   -22688   -30231   -19462    -3528     6708     8818     6272 
    4376     5085     8363    12448    13182     9971     8685    14559 
   22840    21500     4074   -22627   -40285   -34084    -7731    23226 
   41679    35217     9576   -12418   -11503    11268    34438    36433 
   17574    -3032    -8883     -245     8248     2793   -13082   -22427 
  -18081    -9607    -5406    -2462     5274    17703    28980    33748 
   30380    19641     2045   -19492   -33826   -31797   -15959     9242 
   36136    48678    38209    13324    -8746   -17636   -17940   -17200 
  -13176     1328    23279    36047    31263    19367    13270    15264 
   12479    -7526   -32312   -37976   -17375    15525    37539    38299 
   27999    15641    -1665   -22913   -36624   -31315    -6683    22351 
   38932    39725    29857    15056     2128    -3948    -2921     2625 
    9486    14778    13927      286   -23912   -40053   -29543     6018 
   44045    56640    36387     4510   -16776   -25431   -27448   -23664 
   -9482    18145    45855    51398    32926     8044    -9767   -19079 
  -23548   -21946   -11925     1167    13990    27504    35505    33242 
   23610     7422   -11531   -25632   -32651   -29612   -13733    10079 
   33176    43806    38935    32078    25732     8371   -15755   -33700 
  -41463   -35197   -11542    22499    51528    58888    38724     4633 
  -22634   -32571   -27129   -15461    -4941     6467    21316    32759 
   31156    13574   -10404   -24776   -23130    -8086    15149    36327 
   45019    37046    16110    -5073   -14921   -15165   -15132   -19246 
  -20001    -5973    17836    35982    42130    33538    10065   -15947 
  -29606   -24399      -25    31044    44204    29940     5263    -9335 
   -8978    -1976     2762     3591     5652    12704    16519     8284 
   -4830   -11797    -9547     -276     9493    15059    15685    10308 
    2590    -1136     -357     3910     9733    10786     4035    -5347 
   -9474    -5474     2212     7831     9042     5883     -143    -4078 
    2228    19290    31685    25030     6345    -9432   -17759   -14319 
    2369    18042    21544    14530     1148    -9235   -11398   -10696 
   -5975     5859    18670    27831    29155    16717    -2066   -10215 
   -2462    10612    15026     6297    -7101   -12177    -4136     8947 
   17383    19457    14578     2586    -9312   -13315    -7753     6016 
   22968    33139    28082    10889    -5251   -12834   -14107   -11796 
   -5347     9321    29598    37476    20020   -10908   -30180   -22994 
    1910    23349    30912    26505    12595    -3666   -10785    -8988 
   -6378    -5240    -4070     3496    20640    32791    27774    12366 
   -3446   -11207    -7519    -1669      337     2178     5162    10373 
   18106    21460    15426     3919    -5616    -9031    -9232   -11526 
  -13621    -6714     9510    25062    34101    34722    22284    -2889 
  -28183   -36477   -22455     2241    19612    19491    10218     6982 
    8407     6845     7095    13815    21393    20110     5113   -11828 
  -13392    -2270     6806     8797     7834     8869    13003    16244 
   13537     4518    -6124   -12696   -11826    -5917     -704     2740 
    8680    19103    27720    26009    13027    -5483   -19897   -21529 
  -11178     4990    22140    33772    33493    20200     -396   -18002 
  -25434   -20868    -5578    13431    26468    29134    23124    11998 
   -1763   -13435   -13674      554    18550    27014    19986      144 
  -21312   -30451   -19167     7191    31409    39768    29944     8877 
  -10152   -18300   -15329    -3423    10893    19256    20004    15422 
    8353     2509     -413     -522     1336     1512    -2072    -5306 
   -4530     1344    11723    18199    13467     4051      781     6204 
   13246    13007     4916    -2763    -1660     5572     8645     6160 
    5231     9911    16518    14538      -43   -16675   -23552   -16420 
    1470    19012    27845    29324    23629     9733    -3917    -7969 
   -3682     2614     7236     9738    10115     8471     6696     6658 
    7253     5444      729    -2794    -1987      209      646       20 
     541     5085    10901    12106    10747     9828     7388     3134 
     -64     2488     9383     9979     1841    -4407    -2436     3331 
    5630     3153     2158     7456    15507    18081    11126      445 
   -5694    -5641    -1390     2546     2124     1557     6066    14422 
   21034    16938      496   -16326   -19610    -4267    18206    26943 
   16822     1364    -5215     1818    12721    13047     2963    -6868 
  -10632    -7919       31    10837    19897    19953    11338     6026 
    9198    13173    12448     5651    -6050   -13315    -8009     5524 
   15793    15286     7919     3107     2579      993    -2421    -2968 
    1530    10735    18457    14443     4202     1313     3519     4756 
    6812    10434    14388    14060     3855   -10276   -16143    -9574 
    5521    19469    21910    13046     2003    -5020    -6963    -4131 
    2295    10939    18956    20389    13134     2477    -6342   -10079 
   -5881     4313    12876    12449     2802    -5971    -2891     8394 
   14183     9818     3524     4355    11321    14980     9799      745 
   -4137    -3033     2033     9570    14489    11499     3767     -841 
    2988    12332    14613     2581   -12468   -13772       52    15974 
   21058    12472     -523    -7086    -5185     1035     6361     9328 
   11969    12078     7358     1973    -1262    -2218      984     6307 
    8143     5316      558    -1831     2008     9516    13216    10057 
    4923     3110     3811     4197     2254     -726      801     6176 
   10261    12818    11704     5628      918      321     2722     7846 
    9562     4287     -530     1683    10358    19392    18821     6523 
   -5590    -6157     3485    13149    13683     6840     1485     1954 
    7865    13273     9801      440    -5024    -3100     3075     5599 
    1501    -1398     3303    14260    24241    23147     8721   -10174 
  -23367   -24553   -12380     6785    22751    28348    23044    14226 
    7936     1437    -7095   -13865   -14257    -4880    10671    22283 
   23265    14053     1499    -5911    -5495     -220     5270     7815 
    7850     6795     4762     3978     6825     9491     7921     3812 
    -800    -3836    -2870     1302     8032    15790    19242    16332 
    8823    -1566    -9537    -9297    -1038    10315    16772    13662 
    6016      953      141     1239     2450     5381    10363    13396 
   10655     2839    -4693    -6816    -1922     7807    14713    11944 
    3264    -2251     -874     5728    13374    15306     7345    -4461 
   -9549    -4137     8067    18908    20070    10034    -3781   -10083 
   -4777     3942     7904     9505    12973    16070    14763     6311 
   -6817   -13402    -7396     3701    12388    15741    12226     4988 
   -1547    -3478     2220    10227    13221    11634     7121      716 
   -3669    -2771     3591    12201    17861    17365    11610     4791 
    -796    -6515   -10466    -6575     5799    18277    22013    15107 
    2918    -5518    -4473     3700    10273     8518      999    -5173 
