Origin Time       2024/04/02 04:24:00
Lat.              40.133
Long.             141.712
Depth. (km)       71
Mag.              6.0
Station Code      IWT007
Station Lat.      39.2699
Station Long.     141.8567
Station Height(m) 9
Record Time       2024/04/02 04:24:55
Sampling Freq(Hz) 100Hz
Duration Time(s)  124
Dir.              N-S
Scale Factor      7845(gal)/8223790
Max. Acc. (gal)   117.227
Last Correction   2024/04/02 04:24:54
Memo.             
[...]
   -7960    -7967    -7959    -7954    -7952    -7962    -7966    -7952 
   -7952    -7960    -7954    -7952    -7963    -7963    -7956    -7958 
   -7960    -7960    -7963    -7960    -7951    -7951    -7960    -7969 
   -7965    -7951    -7956    -7962    -7951    -7955    -7967    -7960 
   -7956    -7956    -7955    -7967    -7969    -7956    -7956    -7958 
   -7954    -7959    -7960    -7951    -7952    -7956    -7950    -7943 
   -7933    -7925    -7919    -7902    -7874    -7842    -7809    -7788 
   -7755    -7681    -7624    -7646    -7636    -7493    -7447    -7645 
   -7669    -7368    -7337    -7676    -7720    -7456    -7406    -7450 
   -7415    -7658    -7924    -7483    -6733    -6617    -6826    -6419 
   -5512    -4982    -5103    -5678    -6828    -8167    -8465    -7433 
   -6459    -6910    -8459    -9707   -10284   -11171   -12664   -12977 
  -10145    -5837    -4133    -5520    -7869   -10683   -12712   -13275 
  -13215    -9127    -1418       67    -5260    -6932    -4220    -2799 
    -862     2255     1000    -4401    -9423   -14678   -19234   -18959 
  -15897   -14964   -16025   -15600   -12424   -10597   -14878   -21440 
  -22377   -19535   -17551   -13292    -8078    -7651    -7782    -1763 
    6924     9467     3789       59     7125    13491     3964   -12815 
  -20929   -18256   -12483   -14269   -17564    -4920    10763     3919 
  -14469   -23710   -27826   -29813   -27205   -26716   -23477    -7164 
   10636    16128    10342      546    -4097    -4432    -6388    -4268 
    4216    10957    14442    16143    10782    -3735   -19017   -25624 
  -21411   -14115   -15029   -20761   -21312   -17810   -13807   -15970 
  -26040   -26430   -14168   -10254   -13913    -5755    11888    18585 
    6573    -2880    11963    28235    17230     1895     2355    -3037 
  -19095   -27704   -26828   -18053    -2485     5285    -5722   -26904 
  -39255   -35985   -29357   -27469   -26091   -23292   -18659    -8521 
    5683    16438    20467    19568    12406    -1675   -15093   -18168 
   -5242    15466    22169    13130     7371     3083   -13995   -28902 
  -17902    -2558   -19487   -49561   -52011   -33964   -21921   -15363 
   -5391      958    -6864   -19723   -18364    -3670     8108    10027 
    7851     8568    11823    14411    16349    18233    17440    10326 
     148   -10790   -27873   -39166   -27355   -15654   -27297   -34851 
  -22546   -18709   -31263   -38844   -34376   -27425   -29057   -33076 
  -17626    11025    22817    17809    16116    19183    21849    24659 
   24705    18982     8850     -830    -3532     2153     8804     3014 
  -18451   -35232   -31861   -23683   -27361   -40464   -53096   -50429 
  -30689   -16826   -19141   -20035   -10561     -557     5638     5778 
   -4471    -8527     9128    28973    33804    29693    18156     5836 
    7746    15097     9594    -5441   -17751   -20480   -14087   -10675 
  -20800   -34987   -38701   -36452   -37399   -37153   -32142   -26665 
  -22307   -16764   -11426    -8610    -2177    11697    24408    26079 
   17828    12800    13197     6115    -2701     -861      487    -3794 
   -2315    -2084   -11645   -14675    -9271   -16494   -35352   -44905 
  -39193   -29528   -22835   -16159   -11179   -10936   -10675    -8702 
   -7011    -4563     -195     6844    12467    10570     6378     6895 
    9535    12839    12927     1880   -12931   -19051   -19603   -20830 
  -20255   -16717   -20455   -33011   -32494   -16758   -12525   -16432 
   -8930    -5188   -12649    -8371     4703     4298    -2463     1475 
   10419    14682    17423    14640      -16    -9580    -5146    -7878 
  -18202   -13817    -4099   -10206   -20521   -16893   -11115   -19759 
  -27159   -20864   -20331   -26655   -18855    -3082     2151    -3086 
  -12210   -17143    -8357     5228     9855    13239    16260     7843 
   -2853    -6041    -7102    -6448    -3019    -1320    -6551   -15880 
  -18870   -18258   -18220   -13463   -16648   -31750   -30869   -12480 
   -7125   -18897   -24021    -9907     7383     4876    -8992    -9209 
   -3065    -6500    -2569    11789    11053      515    -1135    -3562 
  -10247    -8164    -1806    -3550   -12079   -23379   -26497    -9988 
    4024    -8594   -26516   -24537   -13988    -9980    -7460    -2986 
   -2686    -7153   -11214   -13821   -16411   -12097     2425     8865 
   -2170   -10060    -3032     2180    -5930   -11531    -3717       37 
   -6639    -7215    -3537    -7558   -11803   -10868   -11911   -14535 
  -17032   -20359   -15823    -5914    -7026   -11479    -3700     3798 
    -787    -5724    -4953    -6909   -10129    -9315    -9983    -8865 
    2197    11624     5490   -11288   -22742   -17972    -5979    -1305 
   -2608    -8823   -19884   -19552    -6851    -4847   -10091    -5427 
   -2938    -7711    -3125     3370    -9031   -29220   -26821    -2158 
   11703     3696    -6200    -9690   -11739   -10492    -6096   -10515 
  -24243   -20988     1517     3368   -19195   -24742    -7362     4546 
    1948    -6230   -10385    -6660    -1811    -2706    -9285   -16021 
  -13143    -2250      861    -5074    -4950    -1146    -7269   -17616 
  -20733   -18103   -15782   -16394   -12802    -1324     1175    -8650 
   -8444    -2120    -9601   -16683   -10311    -5553    -4723     1077 
    5508     -846   -13716   -17217    -7403     -927    -5003    -6370 
   -1143    -5267   -20719   -27476   -19394    -7277     2594     4746 
   -2871   -12100   -20709   -27330   -20609    -6062    -2916    -3414 
    9036    16001    -1513   -18536   -11011     1009    -1979    -5115 
   -3511   -14355   -25795   -11978     7022    -1706   -23905   -29650 
  -20634   -15842   -15120    -6729    -1426    -7110    -6296     1799 
     -37    -6284      139     9072     2376    -5163      171     -607 
  -14050   -18505    -6945     2049    -4911   -19211   -22908   -13104 
   -7493   -12733   -14485    -9537    -6575    -8579   -15896   -21080 
  -12775     -367    -1528    -7161    -1830     4538     -403   -10044 
  -12907    -8617    -4070    -2177    -2573    -3991    -4882    -6805 
  -11757   -16047   -13601    -5629      711    -2763   -17281   -25479 
  -14165     -789    -5976   -18921   -15033     3689    13528     7500 
   -1980   -11377   -23202   -24848   -12727    -9607   -19666   -17255 
    1698    11986     4768    -4542    -6656    -6731   -14334   -27297 
  -27450   -10933     5556     9510    -3142   -16336    -9583    -1964 
   -9813   -11338    -7318   -15847   -17103     3211    14785    -1044 
  -19350   -16455    -5481    -6836   -12675   -10403    -6116    -6652 
   -8980    -9286   -11754   -18304   -18118    -8634      638     7438 
    7626    -1610    -8452   -12096   -19272   -16281     -649      340 
  -17771   -22079    -5761     1512    -5687   -12575   -15917   -12465 
   -6674    -5864    -2835      525    -1082    -1057    -4072   -13587 
  -15115    -7863    -4453    -1822      861    -8218   -22582   -25770 
  -20058   -13262    -5830      733     3798     2463    -6825   -21590 
  -25459   -15394    -8071    -2822     8553     9252    -8938   -16274 
     477     4842   -17234   -26692    -9784     2110    -4205   -10504 
   -8097   -11624   -22501   -15893     4530     2147   -17869   -19186 
   -6906    -4372    -6262    -5243    -6442    -7570    -4689     1254 
    4375    -2548    -7465    -1981    -3531   -15190   -21523   -14705 
    -301     1336   -12409   -21031   -21290   -16202    -5744    -5277 
  -15319   -13560    -3225    -3245    -9737   -14814   -13697    -1340 
    7585     3672      896     2597    -1478   -13042   -19888    -9917 
    5899     6400    -8266   -20225   -18017   -10708   -10328   -10187 
   -8687   -16243   -23287   -15391    -2921     -542    -7285   -14928 
  -13412    -1297     3111    -6579   -10137    -3310     -483    -2570 
   -4398    -7793   -10608    -7182    -4976   -12314   -15448    -4398 
     751   -13306   -25285   -19006    -8090    -3735    -1026     -236 
   -6762   -14563   -13034    -5454    -3608    -7531    -9748    -8395 
   -2288     3005    -4920   -16109   -12059    -6513   -12086   -11568 
   -1988      -54    -5899    -6130    -2413    -9007   -17155   -10524 
   -2620    -5867    -9910    -6288    -1768   -10060   -20659   -11595 
   -2721   -15450   -22800   -12459    -6550    -5117    -1340    -3744 
   -8060    -8916   -12775   -17793   -14966     -576    12329     6165 
   -6767    -4749      787    -4525    -4191     4372    -1856   -14862 
  -12190    -8554   -19797   -25497   -14400    -8073   -10995    -8338 
   -5112   -10106   -19199   -24015   -17262    -5474    -4264   -11589 
  -12162    -6511    -3388    -1799      182     1991     2898      561 
   -6677   -12214    -5832     1583    -5838   -10338     3724    11978 
   -5405   -31064   -37293   -19951    -4079    -7399   -15248   -15761 
  -19051   -20815    -6731     6648    -1668   -17270   -16910    -2702 
    6243     4153     2205     5157     6076    -1836   -12941   -14359 
   -6926    -2020    -3457   -10149   -20136   -21859   -12826   -10489 
  -15249   -15608   -15677   -14071    -9567   -16714   -28285   -18042 
    3316     8392     5589     8931     9221    -1599   -14058   -11288 
     712     4325     6165     7801    -4409   -18754   -15057    -2544 
   -5119   -24266   -33658   -21694   -10272   -14823   -24379   -24690 
  -12496     3429     5166   -10503   -19927    -8722     4928     2937 
   -4155      488     7634      491   -10237    -5429     8144     9328 
   -3481   -10844    -8901   -12253   -18292   -18588   -22736   -27919 
  -17543    -4098    -7207   -15380   -16846   -14592    -5899     2069 
   -8760   -23615   -12028     9358     6710    -5344      522     8626 
   -2168   -17004   -18634    -6988    12826    19036    -5563   -35954 
  -38492   -15246     6598     5475   -12231   -22191   -17396    -9130 
   -6825   -15430   -21277    -4179    14696     5289   -13876   -18875 
  -16731   -11368     4044    21695    18929    -4546   -16353    -8495 
   -7319   -12340    -6039    -2597   -16023   -24931   -16942   -12137 
  -15618   -15142   -14654   -11097     3009     4985   -15770   -26757 
  -15010    -6481    -5007     3659     7924      932     -299     3653 
   -1472    -5849     1761     3929   -11323   -25859   -20549    -7200 
  -12657   -27986   -23899    -7811    -1957    -6362   -13716   -19558 
  -20644   -16042    -5890     3159     -599   -10651    -9039    -2938 
   -1652     7071    14314     2593   -12125   -15086   -12166   -10893 
  -14266   -14967    -9636    -7365    -9076    -6679    -1676    -3129 
   -9285   -11934   -11252   -12379   -16283   -17344   -13859    -7119 
    4650    12688     7886    -3809   -15441   -20150   -11854       78 
    -541   -13254   -22898   -22553   -15403    -5624      681      797 
   -3492    -5391    -2205    -8483   -21793   -19126    -8079    -5838 
   -1507     9234    11271    -1290   -19001   -24332   -11948    -4460 
  -12756   -15423    -6656    -3861   -11180   -15673    -5738     6841 
   -1228   -21346   -25293   -16074   -10647      530    18123    16661 
   -5656   -23634   -21807    -7508    -2211   -12124   -17293    -8058 
    -918    -2648    -2367     -749    -6274   -14459   -15754   -13177 
  -13439   -10885    -1829     3959    -1200   -12845   -19030   -15739 
  -11184    -7908    -3426      324     1351    -3011   -11499   -16680 
  -17131   -15364    -7357     5001     5287    -9076   -18130   -13698 
   -6463    -5112    -8104    -9055    -8750    -9109    -1961    10458 
    3727   -23255   -29041    -5017     5648    -9197   -20849   -13664 
     415      426   -11743   -18161   -18314   -14993    -5171     -415 
   -6141    -6733     -893    -4619   -14585   -14083    -6829    -3647 
    -396     2130    -1948    -7168   -12247   -19251   -15638     2851 
   12787      234   -14233   -13896   -10438   -11835    -9433    -5613 
  -11060   -16394   -11643   -11215   -16090   -10328    -7388   -18531 
  -17834    -3010    -6681   -20162   -10759      889   -10386   -17851 
   -9329    -5463    -5980     -855     5586     9996     5350   -14256 
  -24602   -10156    -1027   -14139   -26441   -23450   -17136   -15830 
  -15468   -17055   -16233    -9987   -12858   -18551   -10544    -6986 
  -16920   -19668   -10758     4731    24378    28220     7896   -10300 
  -13547   -13258    -1046    25535    28552    -3581   -31842   -39339 
  -37808   -28026   -12187     4523    24642    35522    16267   -22095 
  -45800   -43048   -24362      -68    16001    19371    23695    31633 
   33146    24873     8837   -11855   -29790   -30825    -8151    21834 
   29917     4044   -33836   -52662   -43100   -12036    23684    31579 
   -8055   -64901   -93761   -94807   -83185   -42149    30222    91400 
  110808    94308    50386   -12746   -66826   -91268   -94103   -63867 
   13783    77546    59053    -7295   -53896   -77584   -94076   -81213 
  -26890    28215    40618     9918   -34727   -53563   -36509   -16941 
   -1867    22559    33273    25293    30302    42358    24776   -25343 
  -65823   -60068   -20351    20784    49227    61037    49395    15808 
  -13965   -14080    -8380   -41559   -84281   -63050     2191    25663 
    6363     9350    37509    37137    -4496   -53368   -90454  -106625 
  -87797   -56404   -47445   -41188    -3939    46757    74013    78228 
   85094    76509     9343   -72570   -83208   -34973     2304     1953 
  -18273   -22006    -3087    10574    21330    35151    17774   -42893 
 -102325  -104519   -33192    65024   114928    79520    -6574   -65475 
  -53260    -3474    23974    11345   -14989   -20478     9614    48037 
   39571   -28624   -96611   -98787   -44026    -3045    -2812     7947 
   44587    42099   -15222   -54402   -45073   -31098   -28359    -6651 
   30547    42468    19260   -18967   -47502   -39957     2196    45650 
   63000    47142     3599   -41214   -51370   -32433   -22495   -31311 
  -41423   -44122   -34361     -172    41245    44984     7357   -33407 
  -53555   -52026   -40779   -34639   -24611     9919    47297    39700 
   -1861   -19542     1426    24875    17540    -4089     -942    -5278 
  -63348  -104203   -46479    58124   114349    91184    11612   -71817 
 -108796   -99241   -68278    -9880    64007    85054    16405   -74980 
  -83644   -12310    39363    47756    53013    26640   -46062   -83735 
  -59421   -33633   -13311    15431    29848    37401    36396    -5660 
  -55950   -59670   -21402    35965    76945    59131    -7981   -69002 
  -69984   -14986    26412    19388   -10585   -42518   -60431   -51031 
  -14918    30959    42904     6149   -29841   -36564   -42304   -46395 
   -3559    65928    80007    39861     2957   -37112   -73450   -48285 
   23442    60999    25859   -39511   -61427   -39214   -23053   -10435 
    5597    -9219   -42903   -41114    -6752     5202   -25413   -50996 
  -27660    18177    47509    60617    50514     4955   -42408   -46716 
  -20008   -11693   -32217   -42620   -16780    29254    53698    20291 
  -39937   -48732   -14196    -6767   -16443   -11121   -24570   -59722 
  -59092   -11853    36763    58336    40363   -18180   -63128   -36302 
   24742    49923    40601     8136   -47817   -61222     2894    54376 
   34624    -6289   -34906   -56598   -49496    -4430    32541    18550 
  -31164   -66861   -69053   -57385   -38148    -8988    13028    25621 
   30321     1158   -41477   -29268    19346    21709    -9865     3825 
   54495    62455    19920   -11394   -15858   -14173    -4018     7642 
   -4126   -32104   -41341   -26523   -12321    -3600     4571   -10868 
  -55892   -76842   -43146     4985    33334    38705    26068     9351 
   -9436   -30176   -30485    -6450    11959    16872    29907    33835 
  -12371   -75378   -84840   -46302    -3289    37131    55632     9609 
  -59121   -55833    -6230     2164   -14280   -13108   -10199   -15533 
  -25502   -36343   -22215    18559    40626    28382     8613    -5688 
  -15480   -18385   -11691     1132    14328    25010    14400   -23923 
  -44571   -25994    -8965    -6697    -1837   -16632   -61403   -81407 
  -42199    17995    45006    22621   -11654   -16958    -6785    -5971 
   -5054     5922     9880    -2774    -3404    15920    10810   -15454 
   -2488    38349    36431   -14694   -52859   -42280   -22885   -38990 
  -60327   -41851    -5691     6089     1842     4307    -8343   -54257 
  -80113   -39992    15240    35418    44410    42593     4257   -28493 
   -7719    33385    49245    39806    14173   -15496   -25736   -18152 
  -16752   -12887    11191    17502   -23225   -63725   -64044   -48722 
  -42665   -34777   -23322   -21955   -12901    16996    25736    -5719 
  -26222   -10979     4932     4758     3234     7951    17494    29246 
   34998    21965    -6886   -24059    -8510    22300    28138    -3966 
  -45341   -57985   -33953    -8356    -7823   -14831   -24926   -53735 
  -62567   -15179    26568    10255   -25736   -47682   -50684   -22736 
   22164    42479    24984     2292     6860    29354    35548    11750 
  -16542   -22836   -16272    -7762     7740    13668   -10629   -48621 
  -70028   -57805   -17791    10501    -2709   -29536   -34036   -23404 
   -9454     9829    20104    10199    -1898     -317    10725    20355 
   22391    21577    17547      -64   -21334   -22870    -6270    11727 
   16105    -9761   -47960   -54276   -36400   -27684   -21782   -12372 
   -6097    -1501   -11761   -35301   -38165   -19125    -4676    10265 
   37019    46415    13444   -26258   -33647   -25366   -13632    16907 
   38335    11114   -29473   -33249   -12478     -639    -9451   -27373 
  -29970   -13443    -3817   -12571   -22939   -23804    -8958    17104 
   23033     8348     2556    -2901   -10490      780    11531     1252 
  -12869   -17038    -8869     -174    -2916    -2080    -3419   -31760 
  -59575   -42241     4896    23949    -3993   -25056    -3424     8112 
  -23870   -40082   -17999    -9242   -11232     8846    24452    10825 
  -14666   -32113   -27969    -1842    22377    19440    -5485   -23976 
  -30707   -34504   -14620    25293    30844    -8094   -38935   -29803 
   -5401     2122     -966    -5088   -10222    -4509     1750    -4394 
   -1386    -1146   -31095   -43673    -8760    13456     -498   -12361 
  -18797   -24455   -10601     8330     7146    -7719   -26913   -31735 
   -6647    21057    23315      421   -29150   -29101     1516    11958 
  -10141   -24069   -21388   -22940   -16467     6207     8924   -13977 
  -20097      739    24815    29069    -1837   -40073   -37983   -13706 
  -11121   -12357      459     1100    -8567    -5305     3156     4487 
   -3472   -23971   -38566   -20611    12037    21030     2668   -25273 
  -40153   -24502     8532    37785    44004     3256   -51598   -56323 
  -30011   -24054   -19950     3561    13732     -877    -6685     3044 
    2916    -7943    -9678     2307    11245     2069   -15412   -26455 
  -29266   -17570    10270    29097    20186    -1267   -25407   -43214 
  -28333    -2173    -7141   -20102   -17455   -19684   -19892       91 
   12625    -4436   -27078   -32202   -21255    -4229     7830     5861 
  -13852   -31243   -16509    15927    29983    19273    -6647   -28015 
  -22978    -1582     9923     1101   -19311   -28220   -14701     2890 
    4054    -6058   -13111   -22717   -34410   -26541    -6220    -4727 
