Origin Time       2024/04/02 04:24:00
Lat.              40.133
Long.             141.712
Depth. (km)       71
Mag.              6.0
Station Code      IWT006
Station Lat.      39.4850
Station Long.     141.9748
Station Height(m) 17
Record Time       2024/04/02 04:24:53
Sampling Freq(Hz) 100Hz
Duration Time(s)  114
Dir.              E-W
Scale Factor      7845(gal)/8223790
Max. Acc. (gal)   78.117
Last Correction   2024/04/02 04:24:52
Memo.             
[...]
    2195     2195     2195     2196     2197     2196     2193     2195 
    2195     2192     2195     2196     2193     2195     2196     2195 
    2196     2196     2196     2196     2195     2195     2197     2197 
    2196     2193     2193     2197     2197     2195     2193     2193 
    2195     2197     2197     2193     2195     2193     2192     2197 
    2199     2196     2196     2195     2195     2196     2193     2192 
    2195     2197     2197     2196     2196     2195     2193     2196 
    2197     2193     2193     2196     2196     2195     2195     2192 
    2192     2195     2195     2193     2195     2196     2195     2193 
    2191     2195     2200     2195     2178     2173     2177     2172 
    2153     2151     2170     2164     2122     2101     2139     2170 
    2101     2038     2158     2259     2087     1981     2262     2440 
    2106     1868     2272     2654     2349     1993     2214     2385 
    2106     1969     1973     1777     1960     2438     2042     1151 
    1408     2502     2794     2385     2316     2431     2047     1560 
    2031     3055     3314     2693     1777     1162     1036     1410 
    2613     3532     3142     2620     1640     -515     -523     3281 
    5532     2735      -33      719     1163      252     1688     4267 
    4001     2901     3294     2473     1112     2481     4737     5404 
    4781     3507     1534    -1306    -2404      581     4814     5740 
    2490     -126      920     1077     -916      855     6189     6683 
    1551      -62     2801     4514     5331     3213    -1692      395 
    8355     9121      904    -6251    -5363     1498     7526     7855 
    3681     -858    -4279    -2582     5567     8611     2658    -1755 
   -2565    -1911     3141     7443     4160     1767     8939    15288 
    7892    -6534   -10566    -1003     6713     5120     3541     3168 
    -561    -1448     2895     5107     2297       27     2000     1159 
   -4087    -3353     1387       36      538    14736    25636     9421 
  -16930   -18823     1960    15615     7927    -4234    -2841     3360 
    2872      697      396     2751     9879    14515     7792    -5513 
  -11817    -6014     1136     3229     5792     5683     1314     2308 
    4105    -2216    -5562     2930    11959    11030     4494    -3069 
   -9391    -3862    11337    13663     1467    -1653     8411    10732 
    -911    -7798    -4198    -2515      861    10323    10200    -2910 
  -10308    -1987     8976     8560     4128     4623     3068    -2350 
    -939     7792     7736    -3080    -1431    14247    13941    -4911 
  -12222    -1100     9305    10724     4179    -8206   -13107    -2492 
    8089     4784     -654     4869     9938     3781     -454     4418 
    3601    -4623    -4500     3248     7389     6833     1822    -4499 
    -722     9082     7140    -2702    -3531     4483     9242     5840 
    1892      544    -2585    -2258     3546     6039     3315    -1740 
   -4765     -719     6550     9945     7009     1344      423     5471 
    8271      148   -10709    -7500     3532     7138     5269     2358 
    -476      734     7060    13319    10748     -275    -7034    -3657 
    2693     7312     8068    -2042   -12572    -1471    18511    19017 
    4302    -7349   -10373    -4855     4699     9004     5476     1148 
    2432     7777     9355     3503     -738     1148    -1566    -8676 
   -8783    -3180     3524     8104     4633     -274     1852     5964 
    9589    11199     6143     -805    -4151    -4087     -592     3967 
    6629     4801    -1119    -2339     2933     4037    -1925    -6868 
   -3164     6588    11395     7704     -369    -3947     3878    10141 
    4328     -297     3343     5333      637    -4160    -1617     3750 
    2527     -615     3630     6894     -662    -5236     2134     4426 
   -2069    -1019     6335     7580     5159     7832    10419     2369 
   -6135      599    11570     9991     4094     5096     2961    -6546 
   -8322    -1868    -2839    -9066    -5142     6714     9647     3038 
    2219     6967     5211     2361     4924     1888    -2366     5479 
   10822     4588      928     -278    -4013    -2845     4577    10150 
    6466      442     4954     8421    -4102   -13915    -3460     8171 
    4788     1012     4627     4166     2308     8178    11014     2937 
   -3469      600     6705     5779      387    -3942    -3111     3454 
    7299     5769     5011     2614    -3897    -6531    -1425     1181 
   -5638    -7434     5663    15209     8932     1679     3743     6623 
    5420     4745     -229   -10860    -9049     6365    15020    11821 
    5799     3194     -916    -7767    -3015     7383     2693    -5937 
   -2398      368    -3188     1877    11998     9262      461      733 
    1775    -2620     -314     7006     6847     5198     7175     4637 
    -792    -2389       63     4730     5805     1463     -715     1746 
    3542     1205    -2700    -2461     1576     4306     4841     3542 
      63    -1802     1606     8163    12210     9124     1250    -2373 
    2450     8198     6592      753    -3411    -7645    -9645    -1040 
   11329    12212     5420      958    -4800    -9467    -3294     5491 
    4770     1017     1652     3566     4688     4976     2242    -2569 
   -2114     4637     5705    -2228    -4568     6143    16028    11759 
     342    -4819    -1132     4077     2841    -3284    -7816    -6743 
     604     5050     2539     4648     9478     6453     3927     8428 
    9144      891    -5193     -615     6030     6116     4513     2994 
   -2087    -4024     2833     7906     3754    -1090    -2875    -3408 
    2636     9104     6080     4135     6556     2813    -1417     1987 
    5053     3931     5964     7742      -95    -6762       16     8032 
    4515    -1821      248     2516    -2930    -2223     8263     9594 
    1351     1671     9227     8583     -650    -7164    -7495    -6102 
   -2982     4661    11781    12534     9115     4436      371     -363 
    2435     7319     9066      122   -13213   -13325      303    10017 
    8452     2054    -4140    -4789     1545     4853      710    -4106 
   -4272     1152     8746    11951     5790    -3870    -2893     7153 
   10517     5719     2292      993     2141     8208     9146    -1421 
   -9304    -3794     4750     2247    -5460    -2953     5267     7407 
    7603     8565     4322     -333     2862     5410      900     -706 
    1170     -402     -229     3794     3771      751     4506    10899 
    6463    -5127    -9005    -1868     5150     2670    -2444    -1355 
    2486     5668     9216     9969     4074    -3634    -4789     1132 
    6249     3997      -28     2050     6291     7649     4772     -398 
     680     6230     5308    -1174    -6388    -6883    -1568     4255 
    4521     3847     6781     7372     4747     5219     7024     4491 
   -1209    -3261      561      378    -7134    -7203     1304     2205 
   -1007     3650    10272    12683    10323     1861    -5628    -4206 
    4877    13062     8538    -5501   -10422      147    12723    11956 
     874    -5871    -6617    -3716     4534     8862     3204    -2223 
    -477     3761     4891     5560     9904    11163     4626    -1201 
     904     4297      476    -1417     3277     2489     -411     2565 
    3208      157      612     3476     2168    -2871     -901     9414 
   12276     2663    -4857    -5949    -6843     -697    11157    11443 
    2343    -2006    -1750     -325     4753    11007     8877     -955 
   -6122    -3322      947     2080     1202     2965     6948     9752 
    9285     3597    -4001    -9818   -11958    -3441    11360    12903 
    -542    -9082    -4274     4168     9483    11300     8361     3461 
    -329    -3937    -2219     6247    10158     7501     6021     3419 
   -2474    -3816      685     1580    -2648    -2542     2508     3354 
    -434    -1964     -442    -1232    -4712    -2451     6924    12332 
   11091     7426    -1741    -7620     2731    14235    13030     7171 
     931    -1054     3913     4787      263     -461     1374      179 
    -853     3052     3677    -3075    -4496     1251     3856     2740 
    2208     3599     4093      463     -918     4707     7804     3940 
     858     1439     3986     6712     7450     7601     8371     9220 
    6102    -6265   -15294    -7226     2421    -1844   -10226   -10030 
   -2489     4234     7581     7785     4637     4384    10297    14692 
    9971    -2320    -9366    -2855     6403     7970     3916    -1665 
   -4175     -635     5892     9996     8089     2909       56    -3118 
   -7830    -4098     6151     6498      265     4290    10735     2586 
   -8301    -3640     7596    10795     6914     -228    -5512      307 
   12634    13815     2467    -4085     -587      978    -1811    -1209 
    -272    -4357    -4028     7673    15969     9705     2677     4684 
    6288     3246     1706     1892       43    -1509     -234      649 
    -427    -1170      130     2533     3037     2162     1317      116 
    -153      491     3476     7434     6004     4117     8137     9474 
    3537       71     2261    -1009    -9405    -6353     7580    13211 
    5873    -1409    -4411    -8529    -7781     2328     9873     7375 
    -517    -5841    -2817     3487     6345     7649     7406     5061 
    4234     3593      683     3561    14918    15124    -3271   -14037 
   -4908     3859     1825      932     6577     7990     1995    -1327 
    -186     1869     5813     7466     3512     -383    -2582    -4132 
   -1267     3511     5174     5719     5697     2941    -2932    -5350 
    1544     5216    -1155     -919     9366    12553     3474    -7128 
   -8938    -2359     5009    12077    16908    11794     2343     -135 
    1791     1831     -619    -2628    -2949    -5449    -5437     5406 
   13753     4692    -8359    -7843    -1404    -1467     1821    11412 
    9155     -162     1825     8814     9763     6289     4633     6496 
    5694     1738     -796    -3430    -4750    -1308      641    -3736 
   -6786    -3481     -108      -29      -35     2300     6084     6706 
    4996     6257     8193     7776     6419     5088     3898     -452 
   -6037    -2774     3754     2714     4399     9975     6693     4816 
   10681     5382   -10381   -12989     -729     3443    -4658    -2540 
    8905     6343    -1973     4545    12044     2795    -7663    -1011 
   11230    12120     7064     3970     -533    -1719     4908     6571 
   -2010    -7655    -4189      792     1725     2502     6741     6103 
   -3073    -5649     3716     8654     2207    -2779     1455     5888 
    3694     -157    -2857    -4144     1452    11884    12037      187 
   -5768    -4085    -6316    -6477       28     4739     7527     9796 
    6658     3268     7488     9904     1495    -8699   -10461    -3559 
    3773     4163     3943     6862     3499    -3126    -1011     4155 
    3484     3098     7434     8298     3030      672      517    -1412 
    1900     6073     1995     -140     3678     1188    -7238    -9687 
   -5026    -3217    -7781   -11877   -12467   -10068    -3146     3580 
    4974     5821     7971     6658     5633    13768    25326    25762 
   17605    11680     5769    -1572    -3879    -1790    -2693    -6389 
   -4259     5362    15431    18804    10658    -3890   -10585    -2149 
   11418    12568      453    -8766    -7632     -591     8191    14743 
   15766     9940     1938     1908     6814     5112    -1475    -7076 
   -7827     1429    13972    20056    24016    26875    18233    -4970 
  -32551   -46932   -36444   -13387     2652    12012    20422    19870 
    2489   -17340   -15635     3952    16974    18408    19521    16434 
   -1001   -17100    -7611    14273    17479    10342    19260    31779 
   25089    11487     2153   -14256   -30802   -29083   -20121   -22117 
  -21228     2781    29768    27270     8181    -1946    -9545   -15996 
   -8889     4278     9351     7449     7219    14185    28749    42269 
   39483    23847    15736    13759     -723   -28705   -52097   -53372 
  -35217   -14733     2500    15650    17307     8218      672     8187 
   29164    39987    23130    -8783   -26927   -21864   -16762   -21547 
  -12887    10351    18584     4171   -15064   -24201   -12965    16860 
   44922    60265    62218    40663     -761   -37602   -49561   -32305 
   -3422    12803    11659     4158    -1826    -4380    -1728     6789 
   15932     8116   -26823   -58299   -47510     -648    49175    73241 
   54479     7859   -27153   -28170    -3450    17579    12212    -7654 
  -17404   -10963     1399     5386    -3700   -12187    -5698     5286 
    5800     8216    24277    36618    24880    -5921   -26723   -15928 
   10041    22793    22628    23653    24235    13409    -8239   -25381 
  -27824   -19693    -5890     3543    -5324   -19656   -15175     3414 
   23028    36815    25141   -10778   -28098    -9628     7542    -3265 
  -21914   -19141     4394    26480    32844    24844    13605    13647 
   23279    20506       76   -14164   -14297   -18058   -25307   -19294 
   -5871    -5609   -12410      661    29297    35714    13127    -2095 
    5771    15855     9456   -10747   -22131    -7585    17778    23093 
    4278   -11391   -11970   -11751   -12596    -2767     8510     1161 
  -13574    -7404    19681    40036    32664     4644   -22851   -34699 
  -28000   -11747     7237    26827    43366    58676    63236    31356 
  -28834   -72794   -79694   -59548   -22828    18123    47815    60399 
   53248    23437   -15588   -37731   -29022     -518    20521    18292 
    2224   -12163   -14540     3362    32317    41548    19237    -6358 
  -15043   -19588   -25124   -16241    14527    41987    34149     5753 
  -14305   -26042   -26555    -8729    19252    41871    42861    21822 
   -6110   -30389   -43200   -39210   -18657    11844    32178    26397 
    4881   -12546   -17541    -4884    27839    58429    50788     2432 
  -43383   -45100   -11647    12993     7816   -12594   -22508    -3546 
   30276    43686    26873    -5105   -36371   -42981   -13096    19828 
   20163    -1119    -7423    15776    41008    39131    16978    -2795 
   -7106    -4027   -11886   -24054   -25463   -26388   -32879   -28665 
   -6336    18019    29536    30816    26050    20236    20976    20931 
   12066    -1031   -18322   -31496   -21265     3584    13932     2400 
  -14650   -15445     5813    27352    31194    21624     4926    -6259 
    3569    25111    34518    18527   -11361   -22412    -7298     1632 
  -11475   -26994   -22896     3966    30165    29242     6536   -14218 
  -20251   -11268     6462    18391    12410      361       43     4500 
    4445     1382   -10054   -21131    -5325    28108    31753    -8935 
  -44016   -25382    20151    35102    16389    -1931    -5869    -1302 
    8117    19094    20536     6257   -10197   -14704   -13143    -7549 
    9585    21006     6004   -10709      963    18144    11402    -5489 
  -16328   -23228   -18840     5528    36617    49203    30966    -5794 
  -34033   -35950   -20387    -5603     5790    14210    16868    22329 
   34882    40940    29218     2632   -24646   -36929   -30014   -10552 
    5247     3059    -8507    -9324     5013    21660    34369    44617 
   36517      805   -32745   -36402   -20717    -7167    -3399    -7468 
   -9757     -125    16980    28551    26892    12850    -2851    -8125 
   -3325       81    -6058   -16449   -16391     4556    35851    48853 
   33405     8245   -12012   -18885    -8071     2465      121    -9061 
  -23800   -31068   -11615    18655    27441     9366   -15581   -21641 
   -3537     8307    -5297   -16941    -4766    11997    12722     6790 
   14065    32377    36283    12857   -16136   -26932   -27175   -32490 
  -32624    -9852    21867    32823    22729    15053    17617    14908 
    2361     1117    16823    23873    13852     4654    -1086   -11691 
  -18605    -7573    15018    25585    15812     3505     1262    -3450 
  -16310   -19110   -12280   -15502   -18493     -638    26173    37115 
   24116     3156    -2180     8110    13250     1475   -19376   -30218 
  -16235    10413    19207     6581    -5790    -7784     2895    20524 
   24777    13689     4330    -2570   -11516   -13743    -4576     4247 
   -3757   -21585   -18503    12229    40518    41601    19253    -9232 
  -30728   -37658   -28736    -9310    10320    17660    14122    13770 
   19683    21976    15253     6571     3801     1362    -9012   -18739 
  -14180     3917    22655    27635    18096     2465   -13957   -20893 
  -13215    -3323    -1127    -3138    -3754      -78     8460    18488 
   24730    22762    15319     9807     3877    -5151    -9375    -6828 
   -3285     -336     2099     3476     3586     1192    -2328     -646 
    7777    10795    -3952   -26516   -31665   -11627    13946    24857 
   22608    18609    12083    -3379   -13035     2322    21824    17459 
    4776      893    -2963    -6895    -5456    -4222    -8320   -13999 
   -8538    11029    22000     8409    -9059    -8820    -2235     -988 
    4837    15546    16741     8536     3252     7416    16811    13163 
  -10260   -26585   -19634    -4660     8012    13512     7057    -2416 
   -8522   -14169   -14407    -4326     7591    10521     4125    -4267 
   -7780    -3514     4996    15338    30339    40053    28480      859 
  -21583   -20903      919    20781    24352    16879     2566   -14446 
  -20231   -12108    -6164    -4332     6264    19352    17517      550 
  -15070   -13136     2809    12496     8834     2357    -2003    -2612 
    7717    21367    20540     6831    -5872    -8707    -5605    -8089 
  -11885    -9871   -10104    -7947     8525    25350    25201    13243 
    2365     -811      557      915    -1972    -9861   -18073   -17402 
   -5674    11211    22322    18697     5400    -2354      306     4472 
    6363     8341     5495    -1890    -1058     7296     7136    -1011 
   -2381      406    -5324   -14079   -12344    -4850    -5622    -9733 
   -2560    11828    20734    22341    19026    12144     5863     4529 
    6211     4036      540     3751     4715    -4648    -8656     1512 
   10720     8494     1188      187     9718    15942     5598    -9494 
  -15506   -15410    -9528     6079    19538    15001     1575     -533 
    8056    10712     3071    -1005      954    -2154    -2492     8575 
   15229    11024     6828     2863    -4931   -12096   -12514    -8584 
   -8542    -8068       -8     6330     4507     1744     3488     6295 
    4122     2358    10467    16750     3046   -18434   -19209     2947 
   24779    27946    12660    -6875   -15541   -11011    -3484    -1096 
    2124    15873    30001    26420    10627      -87    -4383   -10966 
  -19082   -20946   -16132    -7898     4753    18773    22538    11665 
     143       74     4776     6598     7246     7156     6339     4553 
   -2473   -11277   -11261    -3919      631     1737     5468    10643 
    9406      232    -7911    -6339      248     -710    -6114    -1015 
   12893    19843    13737     2704    -4151    -3117     3546     4526 
   -3524    -7811    -4122     1946     9101    13717    12133     5933 
   -1995    -4226     3338    10863     9548     4286     -182    -8488 
  -17922   -16530    -5260     4689    10291    15661    19311    14671 
