Origin Time       2024/04/02 04:24:00
Lat.              40.133
Long.             141.712
Depth. (km)       71
Mag.              6.0
Station Code      IWT004
Station Lat.      39.7356
Station Long.     141.9671
Station Height(m) 9
Record Time       2024/04/02 04:24:50
Sampling Freq(Hz) 100Hz
Duration Time(s)  134
Dir.              N-S
Scale Factor      7845(gal)/8223790
Max. Acc. (gal)   101.030
Last Correction   2024/04/02 04:24:49
Memo.             
[...]
   -4001    -4000    -4002    -4001    -3998    -3998    -4000    -4001 
   -4000    -4000    -4000    -3998    -4000    -4001    -4000    -3998 
   -4001    -4002    -4001    -4002    -4002    -4002    -4002    -4001 
   -4001    -4002    -4002    -4004    -4004    -4001    -4001    -4001 
   -3998    -3998    -4000    -4000    -4000    -4000    -3997    -3998 
   -3998    -3998    -4001    -4000    -3998    -4002    -4001    -3998 
   -4002    -4004    -4000    -4000    -4001    -4002    -4001    -4001 
   -4001    -4000    -4000    -4001    -4001    -4001    -3998    -3998 
   -4001    -4001    -4002    -4004    -4000    -3998    -4000    -4000 
   -4001    -4002    -4001    -4000    -4001    -4002    -4002    -4000 
   -3998    -4000    -4001    -3998    -3998    -4000    -4001    -4001 
   -4000    -3997    -4000    -4002    -4001    -4000    -4000    -4000 
   -4001    -4000    -3998    -4000    -4000    -4001    -4000    -3997 
   -3998    -4001    -4001    -4001    -4001    -4001    -4000    -4001 
   -4001    -4000    -4001    -3998    -3997    -4000    -4000    -3998 
   -4001    -4001    -3998    -3998    -4001    -3998    -3994    -3998 
   -4001    -4000    -4001    -4004    -4001    -3997    -3998    -4001 
   -3998    -3997    -4000    -4001    -4000    -4000    -4000    -4000 
   -4001    -4000    -3998    -4001    -4002    -4000    -4000    -4002 
   -4000    -4000    -4001    -4000    -4001    -4002    -3998    -3998 
   -4002    -4000    -4000    -4000    -4000    -4000    -4000    -3998 
   -3998    -3998    -4000    -4002    -4002    -4001    -4001    -4001 
   -3998    -4000    -4001    -4001    -4001    -3997    -3997    -4001 
   -4002    -4000    -4000    -4002    -4004    -4000    -3997    -4000 
   -4000    -3998    -4000    -4001    -4000    -4000    -4000    -3998 
   -3998    -4000    -4000    -4001    -4001    -3998    -4000    -4000 
   -3997    -3998    -4002    -4000    -3998    -3998    -3998    -4000 
   -3998    -3998    -4000    -4001    -4000    -3998    -3998    -4000 
   -4001    -4002    -4002    -4000    -4000    -4002    -4002    -4000 
   -4001    -4002    -3998    -3997    -4000    -4000    -3997    -3997 
   -3998    -4000    -3998    -3997    -4000    -4000    -3998    -3998 
   -3998    -3997    -3998    -4000    -3997    -3997    -4000    -4000 
   -3997    -3998    -4000    -4001    -4002    -3998    -3997    -3998 
   -3998    -4000    -4000    -3997    -4000    -4001    -4000    -4001 
   -4001    -4000    -4000    -4001    -4000    -4000    -4001    -4000 
   -3998    -4000    -4000    -4001    -4001    -4000    -4000    -3998 
   -3998    -4000    -4000    -3998    -4000    -4000    -4001    -4001 
   -4001    -4001    -4001    -3997    -3997    -4001    -4001    -3998 
   -4000    -4002    -4000    -3998    -3998    -3998    -4000    -4000 
   -4000    -4001    -4001    -4001    -4000    -3997    -3998    -4001 
   -4000    -3998    -4001    -4002    -4000    -3997    -3998    -4001 
   -4001    -4000    -4000    -4000    -4000    -4000    -4000    -4000 
   -4000    -4001    -4001    -4000    -4000    -4001    -4001    -3998 
   -4000    -4002    -4002    -4000    -3998    -4000    -4001    -4002 
   -4002    -4000    -4000    -4001    -4001    -4000    -3998    -4000 
   -4000    -3998    -4001    -4000    -3998    -4000    -4000    -4001 
   -4001    -3998    -3998    -4000    -4001    -4000    -4000    -4002 
   -4001    -3998    -4000    -3998    -3998    -4001    -4001    -4001 
   -4002    -4001    -4001    -4000    -3998    -3997    -3994    -3996 
   -4001    -4002    -4000    -4001    -4000    -3998    -3997    -3996 
   -4000    -4002    -4001    -3998    -3998    -4002    -4002    -3997 
   -3998    -4001    -3997    -3997    -4001    -4000    -3998    -3998 
   -3997    -3998    -4001    -4001    -4001    -4001    -4000    -3998 
   -4000    -4001    -4001    -4000    -4000    -4001    -4000    -3996 
   -3997    -3998    -3997    -3998    -4001    -4001    -4000    -3998 
   -3998    -3998    -3998    -3996    -3994    -3991    -3987    -3990 
   -4002    -4016    -4016    -3987    -3944    -3920    -3921    -3937 
   -4004    -4090    -3964    -3535    -3175    -3148    -3308    -3676 
   -3996    -3450    -2323    -1736    -1765    -2465    -4101    -5564 
   -5671    -4201    -2128    -1844    -3761    -6052    -7781    -7898 
   -5624    -2045      313     -822    -3011    -3357    -4253    -4656 
   -2609    -2644    -3877    -4441    -8661   -12333   -11614   -10786 
   -6227     3117     5742     -540    -5263    -6377    -5385     2587 
   11052     9544     2343    -6836   -16650   -20035   -16258   -12429 
  -10029    -4122     3789     6336     2710     -685     -195     2698 
    8090    12490     5923   -11495   -27067   -31576   -23206    -7173 
    3014     2907     1281    -2047    -8077    -4934     5819     8584 
    4201    -2987   -14831   -20629   -18522   -18114   -10156     5151 
    6346    -4833   -11442   -13174   -11067    -1155     5227    -7210 
  -23796   -20445    -9339    -3724     9844    23072    21791    15395 
     353   -20547   -22692    -8461    -2296   -11642   -22310   -20074 
   -6984    10488    22419    19417    14157    21420    27818    15538 
   -1497    -7057   -11354   -13321   -12361   -24840   -36904   -33994 
  -30358   -24825   -13761       14    20578    30564    21132    15021 
   14031     9100     4801    -6380   -26431   -37112   -32981   -26746 
  -26619   -22692    -5984     5532     3210     5583     8325      183 
   -1055     4445     2258     8066    23326    22862     9846       39 
  -11658   -28136   -36262   -30528   -21733    -8662    15156    30501 
   21938     5179    -6721   -17907   -20829    -9266    -2270     -804 
   11865    20839    10990    -3659   -11454   -17122   -27403   -32718 
  -23396   -10303    -1320     6205    15414    25474    24111     9535 
   -6644   -20542   -24293   -17941   -12776    -5908    -2309    -9956 
  -16719   -19359   -23579   -26852   -20694     2971    26492    24601 
    7944    -1192      924     7871     5927   -10169   -17988    -4838 
    3785    -5557   -15458   -17566   -11637     -201     1838    -5863 
   -6249      399     2004     -334      548     6038    11321     6805 
   -6779   -15627   -13799    -7997    -5289    -1690     6342     6955 
   -2382    -7453    -5890    -5913    -8174    -9414    -9171    -8206 
  -10546   -13861   -10895   -10586   -16978   -16441    -6651     3491 
    6307     1167    -4056    -3069     3574     5255    -1070    -2589 
    -939    -6064   -10527    -6227     -649    -2139    -3919      958 
    4826     2106    -3832    -9686   -14353   -15098    -8752    -1702 
    3751    12212    14372     9093     5136    -2910   -11371   -11746 
   -9140    -6945    -9396   -12546    -6581    -2937    -6237    -5409 
   -5880   -12151   -16614   -13687    -2193     9130    13473    12424 
    5891    -2069    -7294    -8445    -3986    -2820    -8973   -11734 
   -9983    -8054    -5265    -5560    -7955    -6627    -5718    -6725 
   -2979     2393      907    -3161    -2894    -4413    -9994   -10648 
   -6778    -5591    -7842   -11246   -10960    -1939     9856    12831 
    9181     4592    -4677   -13074   -12773    -7389      734     4756 
   -1757    -8560    -7164    -2101     2130     3103    -2806   -12895 
  -18360   -17131   -13356    -6829     3753     9664     3172    -7969 
  -15360   -16097    -8239     1491     4495      972    -2120    -1772 
   -3399    -6124    -7437    -8970    -4733     2319      457    -4580 
   -3874    -1516    -2039    -5643    -9321   -10507   -11558   -11587 
   -5806     3673     8370     5312      494    -2193    -1610     1413 
     589    -3982    -6912    -6623    -3595    -1300    -1337    -2829 
   -3214     1111     3476    -1358    -6223    -9428   -12528   -11508 
   -8550    -7209    -5420    -6633   -11466   -11445    -6276    -2127 
   -2389    -6447    -6447     1795    10440    10014     3307     1449 
    2281    -3453   -12372   -16999   -15041    -8318    -1713      367 
     -71     1085    -2066    -9695    -8891     -415     5769     8185 
    6470     -436    -9703   -18488   -25280   -22751   -11573    -6463 
   -5463     -232     2335      843    -2378    -5320    -2938    -1285 
   -4635    -6189    -5428    -5232    -2116     4411     5711     -515 
   -3721      -35     1854    -2262    -9462   -15959   -14530    -8002 
   -9343   -11816    -4387      629    -1043     3009     6003    -2008 
   -7735    -6169    -7252    -8857    -7477    -6893    -4916    -1807 
   -2848    -3990     -118     5120     6288     2633      596     1077 
   -3793   -10727   -12831   -13068   -11144    -5877    -1198     1420 
    1675     -610    -4288    -7200    -8009    -8837    -7740    -2736 
    -977    -4122    -7134    -9310    -7858    -6038   -12040   -16239 
  -10395    -4095     -527     3692     7508     8962     6466     3163 
    2481     2566     2272      394     -967     3460     5935    -3632 
  -14361   -14023   -10654   -11546   -11820   -10787    -9733    -6764 
   -7338   -13666   -14022    -4263     6286    11993     9794      892 
   -5174    -5162    -2295     -745    -5795   -11913    -8843    -2852 
   -5373    -8586    -2975     2193     1530      311    -1055    -2535 
   -3144    -4862    -5718    -2128     1530     -692    -7007   -13297 
  -17425   -17373   -11628    -2990      576    -2700    -5960    -5228 
   -2398    -3380    -6174    -1098     5860     7013     7107     -267 
  -15969   -20842   -13402    -7893    -5803    -4310    -2330      731 
     861     -746     2569     9254     9853     -650   -12448   -13525 
   -8340    -5683    -6189    -9121   -11745   -10895   -10611   -13365 
  -15666   -15745   -11406    -2277     6863    11057     9337     8542 
    9938     5494    -1402    -5383   -10486   -13895   -11689    -9035 
   -7160    -1344     6177     7480     1108    -9998   -20734   -20796 
   -8796     3971     7109       94    -6462    -8683    -8796    -2899 
    1416    -3179    -6126    -4815    -4419    -1861     3468     6214 
    4029    -1790    -9104   -12039    -6718     -731    -1449    -3144 
     101      992    -3982    -4787    -2386    -5460    -6880    -4428 
   -8197   -13286   -10517    -4985    -2263     -650      445    -2251 
   -6778    -8722   -10731   -13609   -11884    -5421    -1902    -1449 
      72    -4610   -12263    -8186     1225     5813     8299     7118 
    2382    -1177    -4249    -6554    -3847     3246     5655        8 
   -2421     -371    -6033   -14347   -14509    -9963    -4622    -3935 
  -11495   -17847   -13848    -3030     2266     1251     3199     3362 
   -1567    -3553    -3380    -5431    -7661    -7449    -5776    -5094 
   -5314    -7079   -10523   -12135   -13008   -13267    -7053     -418 
    -205     2793     8676     8905     5431       45    -4432    -2631 
     777     -372    -2056     1992     4021    -7076   -18419   -15292 
   -7317    -5202    -9162   -14102   -12048    -2296     8897    12880 
    5699    -4081    -8969    -9004    -4152     2756     6781     5421 
   -1416   -10462   -15870   -14010    -9408    -7129    -4347    -2748 
   -7468   -12499   -11531    -8598    -6172    -1718      807    -3967 
   -7422     -939     6968     7817     5672     4067      735    -2801 
   -4880    -7376    -5722    -1069    -2922    -5741    -2277       99 
   -3038    -7734    -9367    -7879    -7202    -6826    -3414       86 
   -2215    -8538   -10918    -5605     -797    -7636   -16883   -13273 
   -3159     4924     7805     -230    -8594    -5274      -22     -209 
   -4187   -10845   -13587   -10948    -7842    -2598     1811     1399 
    1900      529    -5656    -7241    -5663    -5864    -1686     3287 
    -383    -7808    -9888    -6444    -3535    -5424    -8482    -8523 
   -7535    -6168    -5092    -5405    -3183    -1281    -3912    -4274 
   -2224    -2528    -1397     2066     4144     4733     5513     5856 
    3423    -2058    -8397   -11029    -5571     1873    -1263   -10569 
  -11402    -5313     -399       44    -4029    -6623    -7338   -10211 
  -13344   -15044   -12382    -4579     1452     2164    -1089    -4889 
   -5173    -5436    -8006    -7798    -4903    -1753     1304     -116 
   -7231   -11547    -7114    -1588    -2735    -6640    -7827    -1067 
   10797    11441     1750    -3152    -4931    -7348    -5053     1397 
    5008      872    -7001    -9150    -7210    -7619    -6443    -4893 
   -5489    -1194      538    -8410   -12301    -5281    -1510    -3102 
   -3541    -4639    -9883   -17423   -20052   -14504    -6463    -1082 
     700    -1507    -8189   -11986    -5879     1422     3715     4164 
    2228     -841    -4303   -11736   -19930   -20910   -15909   -13437 
  -14581   -14355   -11445    -6781    -1512     4020    10350    13582 
   11142    10505    15772    21604    24495    22894    19795    19514 
   18049    13135     5443    -2471    -4777    -7403   -13235   -12258 
   -8700   -10600   -13185   -13834   -12669    -9698    -8355   -11596 
  -16997   -21091   -28127   -41260   -53374   -58897   -61177   -62781 
  -60822   -54211   -42959   -25639    -1995    23623    39719    44347 
   48655    54294    59115    66145    68636    59591    47719    37443 
   24075    14721    15535    20110    25335    26994    18910     3856 
  -14609   -31760   -41818   -49974   -60724   -67744   -65589   -53161 
  -32216    -8602    12113    27635    35133    30368    13305   -11912 
  -39027   -61129   -80007   -99443  -109923  -103740   -85459   -57399 
  -22743     7985    28968    39667    42816    48504    58195    61589 
   60816    61157    50166    25027     5408    -2455   -10004   -17668 
  -17344   -10251    -1907     6990    14330    15376     8988    -3161 
  -17490   -29041   -37481   -46672   -57273   -67085   -70823   -62302 
  -46535   -32185   -14546    12114    40250    59668    66442    62136 
   53013    45736    42080    39572    36436    32597    32296    41829 
   52608    48848    31853    11252    -8641   -25257   -37345   -46275 
  -52925   -55259   -52936   -47839   -41652   -39619   -42584   -41218 
  -30046   -14580    -5000    -5636    -8545    -6725    -4715    -5796 
   -6374    -3836     -877    -4563   -14044   -20517   -21672   -17501 
   -9783    -4164      -14      136    -7349   -11740    -8889    -3237 
   13541    39055    52610    52798    52448    49530    39999    26802 
    6139   -21558   -43482   -54035   -56897   -56886   -58240   -56201 
  -45738   -33008   -20856    -4969     9410    11303     5159     2806 
    3923     5251     5591     3396     2987     3025    -2718    -5880 
    3061    20152    37928    46116    38665    27984    26578    29903 
   33860    38272    37478    30854    18183    -8000   -39264   -56068 
  -58739   -55682   -47364   -38975   -35673   -35429   -38674   -44139 
  -47259   -47817   -43125   -28587    -9112     4587     9211    10755 
   11576     8542     3765     1926     3258     5271     6801     8849 
   11885    14422    14796    14546    14038     7534    -5535   -13933 
   -9852      359     8908    14369    13235     5386     -648     -849 
    1378     1328    -3861    -8911    -5879     3855    13815    18369 
   14314     5701    -2292   -12109   -24240   -28745   -18782    -1692 
   11245    13875     6697    -1651    -5418    -9952   -17213   -19500 
  -14405    -8577    -6789   -10324   -19313   -28972   -34125   -34894 
  -31330   -23741   -15529    -8881    -3669     -625    -3002    -8171 
   -5995     4499    16347    24223    22788    14014     4522    -2756 
   -4442    -2508    -2778    -3339    -1636     -259     -927    -2914 
   -5508    -6207      765    12857    17221     9487    -1085    -5960 
   -8040   -12310   -15668   -16116   -14077   -10555   -11373   -15595 
  -14283    -7092    -1426      445     2397     4711     4878     4311 
    3302    -1763   -12930   -24942   -29898   -28441   -24078   -18900 
  -16721   -14949    -9670    -4221    -2118    -3753    -4460    -1883 
   -1601    -3400    -5578   -10033    -8055     4907    14894    15032 
   13127    11950     9961     8884     8934     9720    12685    16663 
   19101    19661    18158    14003     7407     1112    -1271    -1749 
   -4122    -6376    -4968     -448     2776     -394    -9968   -19523 
  -24817   -29014   -35842   -42614   -42353   -33578   -23441   -16812 
  -11581    -5387     1744     8761    11985     7233     -912    -4576 
   -5428    -6258    -6339    -7516    -8313    -5634    -3527    -6635 
  -13792   -20888   -21378   -11132     3240    12808    18184    22044 
   21389    14588     5640    -1957    -6751    -7163    -5904    -7221 
   -8537    -7207    -6916   -10386   -15840   -20104   -22040   -22194 
  -20787   -20609   -23654   -26696   -28279   -28557   -24066   -13455 
    1138    17332    29347    34083    36474    37099    32526    26369 
   21416    16902    15979    19360    21926    17712     4078   -12479 
  -22808   -25613   -23383   -19899   -20529   -23638   -21045   -12027 
   -5298    -5953   -11581   -19134   -24146   -22342   -16293    -8016 
    5027    20451    28447    21226     5050    -6644   -10993   -12395 
  -12004    -7680       25     3357    -1223    -7022   -11597   -17116 
  -22057   -24684   -22569   -14378    -4253     4249     9664    10720 
    9169     6423     2775     1741     2952    -1161   -10756   -15634 
  -11932    -6130    -3824    -4452    -6193   -11664   -21965   -30144 
  -26276    -6444    17736    28277    22615     8676    -6162   -13396 
   -9194     3484    15603    15695     6490    -1698    -7983   -11677 
  -10361    -5741      739     6694     9151     6758    -1046   -12008 
  -23172   -30662   -29273   -20294   -10131    -4504    -7634   -15040 
  -17354   -15641   -15589   -16135   -15074   -12510   -10107   -10453 
  -10457    -4926     4988    15543    22385    24879    28182    29442 
   23028    15858    14130    15615    17640    14536     3003   -11510 
  -24763   -34277   -36687   -32825   -25019   -18401   -19098   -23634 
  -26816   -28665   -27306   -20702    -9954     1030     7366     8471 
    8183     8968     8189     4444     2508     3844     4324     3673 
    4220     5829     8410    11380    12008     9954     7749     4904 
    -889    -7731   -12386   -13864   -10729    -3346     3888     6448 
    3219    -2579    -7801   -12754   -16804   -16700   -12089    -8154 
   -9994   -15599   -18544   -16924   -14241   -12803   -10370    -5741 
   -3362    -5987    -9864   -10594    -7835    -3375     2290     8322 
   12063    10779     5093     1518     3817     7935     9730     6840 
    1081    -2251    -4988    -9373   -11855   -14404   -18581   -20316 
  -19475   -14346    -3707     3339     1852    -1975    -3530    -3196 
   -3788    -7381   -12245   -15202   -13693    -8109    -1914     4310 
   11421    14947     9971     -818   -10793   -15905   -14563    -6354 
    4203     8167     3465    -4375   -11874   -17531   -19920   -17733 
  -11572    -4765     1717     6181     7875    11720    14783    10266 
    2016    -5524    -9317    -5625      414     2887     4237     6119 
    5367     -936    -9710   -12663    -8615    -5501    -5213    -3658 
   -2446    -4747    -9725   -15187   -18797   -20329   -21220   -21394 
  -19395   -14423    -9867    -9468   -10273    -9255    -8214    -8050 
