Origin Time       2024/04/02 04:24:00
Lat.              40.133
Long.             141.712
Depth. (km)       71
Mag.              6.0
Station Code      IWT025
Station Lat.      39.5169
Station Long.     140.8299
Station Height(m) 367
Record Time       2024/04/02 04:24:55
Sampling Freq(Hz) 100Hz
Duration Time(s)  112
Dir.              E-W
Scale Factor      7845(gal)/8223790
Max. Acc. (gal)   18.790
Last Correction   2024/04/02 04:24:55
Memo.             
[...]
   -9340   -10898   -11595   -10189    -7196    -4712    -4457    -5803 
   -6691    -6131    -4801    -4203    -5549    -8349   -10435   -10621 
   -9612    -8043    -6831    -7245    -8565    -8586    -6062    -2322 
    -843    -3156    -6831    -9036    -9316    -9077    -9539   -10423 
  -11416   -12222   -11342    -8290    -4618    -2258    -2702    -5277 
   -7060    -6700    -5802    -6139    -7553    -8592    -8785    -9161 
   -9418    -7615    -4222    -2328    -3280    -5379    -6600    -7365 
   -9200   -11049   -11256   -10827   -11009   -11634   -11518    -8972 
   -4480    -1146    -1267    -3458    -4762    -5555    -7129    -7600 
   -6465    -6373    -8164    -9971    -9948    -8141    -6457    -5937 
   -5860    -5961    -6106    -5526    -5526    -8322   -12633   -15268 
  -14611   -10895    -5930    -2903    -3623    -5463    -5632    -4619 
   -2843    -1371    -2673    -6427    -9548   -10775   -11762   -13190 
  -13547   -12191   -10528    -9514    -7535    -4010    -1437     -468 
    -689    -3661    -8105   -10034    -8810    -7250    -7846    -9877 
  -11047   -10746    -9269    -6817    -4189    -3337    -5707    -9443 
  -10821    -8356    -5246    -5518    -7871    -9107    -8756    -7393 
   -5908    -4841    -4432    -5397    -7187    -8522    -9046    -8662 
   -7430    -6176    -6158    -7483    -8629    -8556    -8151    -8168 
   -7605    -6446    -6453    -7272    -6588    -4977    -5398    -7700 
   -8930    -8112    -6582    -5215    -4171    -4403    -6296    -8459 
   -9714    -9458    -7800    -6401    -6706    -8669   -10874   -11345 
   -9188    -5401    -3294    -4770    -7213    -9142   -11203   -10789 
   -6199    -1198      132    -2628    -6602    -8220    -7753    -8087 
   -9050    -8982    -9239   -10783   -11307    -9778    -7217    -4409 
   -3414    -5474    -7844    -7682    -5776    -4436    -4683    -6547 
   -9499   -11632   -11211    -9489    -8586    -7705    -5881    -4236 
   -3504    -4240    -5900    -6912    -8391   -10687   -11323    -9648 
   -7028    -5420    -5449    -5436    -4754    -4062    -4029    -5208 
   -6532    -7084    -8230   -10335   -11438   -11167   -10389    -9027 
   -8060    -7944    -7458    -7146    -7034    -5379    -3438    -3624 
   -5513    -7913    -9698    -9657    -8070    -6137    -4889    -4718 
   -5177    -5883    -6264    -6504    -7582    -8379    -8286    -8785 
   -9930   -10963   -10648    -8155    -6084    -6828    -8438    -7588 
   -4494    -2825    -4504    -7461    -8750    -8375    -8604    -9346 
   -9175    -9483   -10601    -9549    -5906    -2961    -2938    -4449 
   -5293    -6158    -7831    -8911    -8780    -7997    -7456    -8442 
  -10126    -9799    -7659    -6006    -5009    -4837    -6420    -7877 
   -6957    -5050    -4866    -6698    -8656    -9570    -9525    -8814 
   -7900    -6824    -5826    -5725    -6135    -6623    -7364    -7620 
   -7461    -7877    -8402    -7878    -6606    -6238    -6845    -6806 
   -6107    -6218    -7416    -8421    -8413    -7603    -6566    -6239 
   -6586    -7059    -8186    -9286    -8152    -5371    -4043    -4707 
   -5444    -5806    -6890    -8633    -9715    -9910    -9967    -9616 
   -8056    -5645    -4143    -5351    -7697    -7362    -5328    -5409 
   -7348    -9239   -10631   -11340   -10579    -7659    -4550    -4156 
   -5806    -6851    -6555    -5918    -5377    -5051    -6300    -9057 
  -10493    -9775    -8930    -8645    -8112    -7285    -6565    -6056 
   -5930    -6214    -6424    -6481    -7102    -8355    -9107    -8800 
   -9103   -10856   -10782    -7308    -4363    -4542    -6007    -6177 
   -5036    -5001    -6173    -6165    -5431    -6237    -7994    -8695 
   -8760    -9302    -9829    -9686    -8486    -6866    -6147    -5906 
   -5813    -7033    -8792    -8930    -7959    -7654    -8046    -8185 
   -7596    -7109    -6917    -5290    -3119    -3427    -5432    -6918 
   -7781    -7624    -6593    -6291    -7226    -8974   -10397    -9772 
   -7326    -5487    -6324    -9216   -11122    -9867    -6316    -2982 
   -1696    -2964    -6102    -9630   -11325    -9360    -6089    -6107 
   -9292   -11557   -10346    -7044    -5089    -4939    -5281    -6802 
   -9072    -9555    -6990    -3383    -2808    -6180    -9688   -10120 
   -8298    -6644    -6351    -7241    -8329    -9146    -9343    -8195 
   -6883    -7146    -7998    -7508    -5926    -4985    -5314    -5923 
   -6107    -6824    -8136    -7940    -6528    -6224    -6693    -6851 
   -7514    -9250   -10511    -9567    -7353    -6340    -7029    -7204 
   -6195    -6613    -8259    -8028    -6694    -6567    -7244    -8317 
   -9497    -8939    -6220    -4664    -6625    -8604    -6939    -4063 
   -3669    -5601    -7592    -8286    -8149    -7900    -7495    -6987 
   -6539    -6525    -7584    -8608    -8014    -7238    -7630    -7680 
   -7188    -7763    -8804    -8581    -7685    -7236    -7063    -7412 
   -7437    -5737    -4777    -6673    -8753    -8758    -7256    -5371 
   -4654    -5718    -7014    -7642    -7958    -7731    -7395    -7638 
   -7758    -7360    -6875    -6577    -6200    -5236    -4654    -6016 
   -8591   -10484   -11110   -10662    -8991    -6674    -5973    -7824 
   -8721    -6180    -4255    -5809    -7285    -6737    -6323    -7136 
   -8401    -8311    -6363    -5231    -6227    -7462    -8101    -9242 
  -10706   -10463    -8452    -7005    -6501    -6006    -5795    -5440 
   -4904    -5945    -7645    -7699    -7433    -8120    -8176    -7048 
   -6215    -6484    -7322    -8302    -8874    -8441    -7592    -6671 
   -5836    -6482    -8491    -9337    -8228    -7145    -7393    -8222 
   -8170    -6416    -4306    -4193    -5865    -6837    -6081    -5737 
   -8025   -11083   -11314    -8758    -6508    -6311    -7361    -8255 
   -7734    -5764    -4282    -4047    -5026    -7650    -9452    -8838 
   -8307    -8024    -6883    -7022    -8954    -9730    -7923    -5505 
   -5269    -7423    -9082    -8360    -6883    -6305    -6380    -6747 
   -6952    -6423    -5243    -4392    -5277    -7487    -8799    -8379 
   -7167    -6565    -7554    -9031    -9209    -8328    -7217    -6091 
   -5602    -6346    -7831    -8892    -8985    -8442    -7045    -5163 
   -5494    -8997   -12291   -12078    -8467    -4356    -2732    -3582 
   -5017    -6093    -6450    -6054    -5894    -6994    -9339   -11558 
  -12154   -11253    -9393    -6655    -4056    -3352    -4888    -6612 
   -6837    -5825    -3744    -2158    -4283    -8858   -11117   -11017 
  -11530   -12112   -10959    -8490    -6265    -5325    -5494    -6184 
   -6490    -5313    -3434    -3369    -5991    -8718    -9119    -8793 
   -9240    -8255    -6137    -6917    -9269    -8078    -5019    -5042 
   -7130    -7955    -7785    -7905    -7929    -7901    -8256    -8144 
   -7549    -7180    -6519    -5601    -5410    -6006    -6385    -6102 
   -6199    -7429    -8891    -9135    -8074    -7230    -7365    -7776 
   -8149    -8780    -8937    -7560    -5663    -4970    -5965    -8386 
  -10149    -8934    -6382    -5510    -6161    -6818    -7007    -6875 
   -6466    -5449    -4702    -5805    -7690    -8488    -8544    -8461 
   -8054    -7403    -7249    -7838    -7848    -7626    -8842    -9734 
   -8572    -6816    -5692    -5751    -6467    -6353    -6183    -7125 
   -7808    -7415    -7037    -7331    -8306    -9558    -9802    -8424 
   -6270    -4492    -4347    -5764    -7152    -8326    -9107    -8247 
   -6795    -6492    -7091    -8082    -8502    -7261    -5544    -5216 
   -6438    -8235    -9046    -8834    -9277    -9610    -8025    -5529 
   -4330    -5346    -7198    -7832    -7215    -6513    -6299    -6585 
   -7622    -9007    -8841    -7323    -6978    -7793    -8116    -7740 
   -7333    -6907    -6106    -5976    -6551    -5845    -4662    -5439 
   -7850   -10197   -11277   -10392    -8899    -8668    -7816    -5217 
   -4461    -5989    -6029    -4918    -5710    -6922    -5184    -3208 
   -5575    -9697   -11407   -11236   -10413    -9470    -8864    -8413 
   -7797    -6392    -4607    -4318    -5718    -6762    -6562    -6490 
   -6426    -5281    -5363    -8205   -10493    -9590    -7222    -6372 
   -7635    -9027    -9032    -7982    -6192    -4268    -3969    -5271 
   -6114    -5881    -5479    -5432    -5814    -7264   -10330   -12895 
  -12187    -9387    -7975    -8970    -9829    -8044    -5208    -4419 
   -5026    -4711    -3839    -3896    -5070    -6419    -7133    -7859 
   -9300   -10588   -10170    -8117    -7152    -8187    -8478    -7380 
   -7095    -7562    -7024    -6246    -6659    -6943    -6045    -5067 
   -5412    -7601    -9769   -10006    -9428    -9123    -8087    -6049 
   -4866    -5286    -5679    -6247    -8330    -9702    -7959    -5401 
   -5184    -6574    -7620    -8679    -9531    -8577    -6763    -6165 
   -6882    -7938    -8055    -7075    -6075    -4928    -3429    -3122 
   -5147    -8055    -9236    -8368    -8077    -9471    -9841    -8360 
   -7906    -8765    -8607    -7519    -7074    -6772    -5726    -5404 
   -6527    -7379    -6975    -5783    -4758    -4923    -6480    -8432 
   -9558    -9860    -9624    -8559    -7203    -6224    -5710    -6164 
   -7470    -8326    -7831    -6581    -6003    -6520    -7349    -7754 
   -7578    -7588    -8687   -10218   -10725   -10291    -9647    -8336 
   -6390    -4851    -3815    -2944    -3095    -5086    -7067    -6961 
   -6581    -7786    -9451   -10503   -10027    -8225    -7843    -9126 
   -8950    -7096    -5832    -5061    -4180    -4237    -5760    -8228 
   -9768    -8764    -7036    -6571    -7144    -8877   -10804    -9917 
   -6535    -5416    -7485    -8664    -8048    -7449    -6966    -6004 
   -5354    -6492    -8054    -7662    -6027    -5541    -7190    -8383 
   -7187    -5922    -6004    -6894    -8193    -8559    -7578    -6789 
   -6890    -7128    -7194    -7693    -8685    -9238    -8525    -6912 
   -5622    -5289    -6011    -8137   -10813   -10905    -7308    -4051 
   -4731    -7566    -8758    -7688    -6257    -5016    -4105    -4869 
   -6988    -8291    -7473    -5466    -4999    -6739    -8459    -9117 
   -8927    -8262    -8156    -8446    -8437    -8764    -8857    -7310 
   -5227    -4336    -4584    -5250    -5551    -5332    -5752    -7565 
   -9578    -9949    -8941    -8283    -7927    -7393    -7368    -6974 
   -5418    -4696    -5212    -5552    -6922    -9876   -11515   -10061 
   -7233    -5532    -5887    -7689    -9053    -8059    -5205    -3237 
   -4310    -7719   -10428   -10257    -8313    -7152    -7263    -7500 
   -7353    -7044    -6818    -6203    -4745    -4166    -5996    -8399 
   -9336    -9188    -8985    -8799    -7896    -6713    -7007    -8830 
   -9844    -8492    -6439    -5706    -5491    -5239    -5563    -5907 
   -6610    -8607   -10704   -10968    -9479    -8831    -9822    -9910 
   -8194    -5857    -3789    -3203    -5035    -7697    -8006    -5935 
   -5028    -6689    -9107   -10989   -11631   -10146    -6878    -4031 
   -4253    -7098    -9232    -9512    -8671    -6496    -4432    -4603 
   -5094    -4176    -4783    -7738    -9201    -8530    -9144   -10926 
  -10566    -8472    -7815    -8949    -9437    -8209    -7365    -8511 
  -10260   -11365   -12085   -12167   -10962    -8822    -7227    -7276 
   -8232    -9120    -9116    -6728    -2814     -826    -1819    -3910 
   -6118    -8083    -8769    -8429    -7925    -8090    -9856   -11114 
   -9595    -6866    -4509    -3184    -3302    -3956    -4932    -6542 
   -8495   -10867   -13127   -13639   -11699    -8807    -6388    -3971 
   -1482      159     1227     2462     2812     1193     -926    -2038 
   -3184    -5497    -8359   -10621   -11399   -10922   -10508   -10488 
  -10089    -9348    -8641    -6750    -2772      372       55    -1350 
   -2052    -3774    -6713    -9528   -11642   -12675   -13099   -13509 
  -12490    -8348    -2709      615      849      633      885     -163 
   -2432    -3280    -2934    -5090    -9815   -12907   -12553   -10085 
   -7360    -6894   -10426   -15958   -18389   -15175    -9532    -5637 
   -4687    -5854    -7874    -9969   -10593    -8981    -8318   -10696 
  -13332   -14158   -14438   -14712   -12784    -7126     -936      517 
   -3063    -6478    -5618    -1381     2274     2551      124    -3526 
   -8595   -13907   -15959   -14053   -12590   -15880   -21423   -22279 
  -16835    -9288    -2478     1910     1161    -4604    -9805    -9039 
   -4534    -2593    -4185    -5751    -6363    -7075    -6736    -4545 
   -2427    -1763    -2330    -4711    -9012   -11403    -7996    -1371 
    2709     2006    -1333    -4207    -5996    -6813    -5996    -5670 
   -8928   -13829   -15904   -14543   -13023   -13078   -11065    -4207 
    2419     3146    -1146    -7098   -11496   -11624    -8687    -7758 
  -11022   -13648   -10840    -5552    -3497    -5647   -10326   -16059 
  -20567   -22150   -19989   -13281    -3732     4772     9437    10349 
   10203     9062     3302    -6070   -12602   -13670   -12879   -12610 
  -11950   -12891   -17848   -22875   -23383   -20726   -18049   -14918 
   -9382    -3603     -855     1385     6631    12081    12426     6272 
   -3310   -11788   -16424   -16892   -14362   -12247   -13684   -15938 
  -13371    -5248     4248     9238     5875    -2501    -9840   -14852 
  -17289   -15344    -9948    -5331    -5940   -11639   -15377   -12374 
   -6805    -3057    -1507    -2713    -5201    -5447    -2677      932 
    1776    -1783    -7522   -14003   -21402   -26948   -25523   -16839 
   -7565    -1938     1570     2926     1408     -270     -286     -400 
   -2323    -5125    -7387    -8719    -7769    -4133     -931     -479 
   -1242    -2080    -5335   -11533   -17142   -19643   -17482   -11435 
   -7689   -10066   -15244   -16947   -10467     1048     9418    10748 
    5012    -3896    -8999    -9603   -10466   -12272   -12856   -12517 
  -12332   -11974   -11893   -13427   -15444   -14958   -10885    -5206 
    -463     2988     5190     5051     2876      -94    -5132   -13954 
  -23059   -25779   -21253   -15218   -11065    -6320      918     6663 
    6185     2164      994     2382      302    -6134   -10827   -11194 
  -11560   -13521   -14316   -14534   -16359   -18782   -18347   -12765 
   -5967    -2953    -2138    -2015    -3638    -3345     1487     4195 
    -429    -6890    -9031    -9490   -13950   -21411   -25030   -20945 
  -11936    -3759      415     1729     1443     -175    -1028      603 
    3126     3113    -1393    -7484   -10631   -11333   -11836   -11718 
  -11535   -13246   -16707   -19214   -17928   -12870    -5587     1869 
    4037    -2336   -10878   -14562   -13690   -10122    -5917    -5071 
   -8533   -12769   -13054    -6940      363      251    -6116   -10034 
   -9157    -8239    -9818   -11300   -10104    -8224    -7916    -6963 
   -4577    -3597    -3483    -2286    -1945    -4213    -8062   -10628 
   -9313    -6359    -5733    -6806    -7709    -9019   -11226   -13401 
  -13529    -9549    -3627    -1449    -2727    -2371    -2282    -6612 
  -10994   -10550    -7970    -6959    -7375    -7442    -6064    -4486 
   -5988    -9634    -9040    -4233    -2970    -6609    -9795   -10253 
   -8232    -4355     -691      664    -2578   -10535   -16035   -12711 
   -5953    -4164    -6313    -6944    -6197    -6960    -7291    -4536 
   -1152     -318    -2639    -6173    -7211    -5439    -4128    -4638 
   -6536    -9825   -13968   -17410   -18397   -16012   -11925    -8731 
   -6172    -4027    -3754    -3651    -1669      912     3257     3341 
   -1864    -9695   -14293   -13930   -10485    -6863    -6766    -9911 
  -10717    -7033    -2336     -464    -2303    -5441    -8124    -8942 
   -6451    -4091    -5139    -7280    -8823   -10789   -13383   -14435 
  -11684    -7338    -5009    -4363    -3634    -3211    -5520    -9806 
  -10484    -7186    -5811    -6679    -6025    -5942    -9877   -14496 
  -15714   -15098   -14914   -13782    -9043    -1858     2419     2286 
    1722      675    -4361   -10273   -11076    -8293    -6278    -4473 
   -2768    -4729   -10528   -15225   -14643    -9437    -4612    -4441 
   -7780    -9518    -7153    -4243    -4556    -7300   -10412   -12671 
  -12703    -9636    -5089    -3632    -7565   -11854   -11007    -7222 
   -4962    -5116    -7038    -9132    -9312    -7288    -4928    -4511 
   -6466    -9236   -10129    -7778    -4320    -2425    -3723    -8140 
  -11703   -10527    -5740    -1597    -1466    -5140    -9420   -12278 
  -13973   -14219   -13478   -13547   -13014    -9768    -6034    -4372 
   -3990    -3288    -2695    -3812    -6481    -7911    -5541    -1490 
    -915    -5003   -10778   -15260   -15796   -12243    -8618    -7022 
   -5751    -5096    -5790    -5270    -3046    -2695    -5701    -9815 
  -11858   -10170    -7129    -5610    -4665    -3902    -4745    -6091 
   -6601    -7969   -11053   -13400   -13086   -10392    -6442    -4313 
   -6153    -8239    -6539    -3412    -2640    -4583    -7680    -9899 
  -10635    -9813    -6505    -3137    -2664    -2781    -2080    -2705 
   -4703    -6259    -7380   -10430   -15363   -16663   -11961    -7951 
   -9720   -12295    -9741    -5061    -4266    -6115    -5545    -2732 
    -886     -144      438     -602    -5248   -11854   -15726   -16150 
  -16954   -17890   -15272   -10467    -6801    -3181     1128     3937 
    4961     5355     3265    -3701   -11977   -15059   -13417   -12321 
  -12646   -14121   -17311   -17743   -12189    -4278     2093     4178 
    1116    -2623    -3331    -3539    -5962    -9585   -13477   -16908 
  -17882   -16526   -14563   -11704    -8166    -5699    -3661     -376 
    2920     3426      700    -1823    -2262    -4017    -7631    -8370 
   -7051    -9610   -14108   -13516    -9046    -5471    -2843    -2285 
   -5481    -9487   -11317   -10388    -7514    -4887    -3138    -2416 
   -4430    -7541    -7411    -5287    -6563   -10509   -11539   -11122 
  -14470   -17986   -15495    -8873    -3234     -218     1382     1204 
   -2785    -8399    -9969    -5948     -891     -414    -6212   -14754 
  -19279   -15705    -8086    -3680    -4533    -8841   -12901   -11238 
   -4112     1012     -255    -5022    -8240    -8473    -8526    -9119 
   -8082    -8000   -12463   -16403   -13853    -8692    -6886    -6897 
   -5533    -4395    -5217    -6404    -6430    -5925    -5606    -5032 
   -4753    -6131    -9301   -13541   -15627   -11938    -6696    -6806 
   -9660    -9400    -7759    -8359    -8249    -3585     1345      452 
   -3870    -5935    -5364    -5304    -6403    -5784    -4153    -7244 
  -14484   -18235   -15878   -10598    -6529    -6566    -8394    -8685 
   -7811    -5308    -1192     2332     4976     4988     -737    -9177 
  -14486   -14829   -12399   -10347    -9346    -9792   -12598   -13945 
   -9207    -1063     4217     4170      919    -2049    -3721    -4943 
   -5595    -6631    -9784   -13811   -16283   -15981   -12368    -6698 
   -2315    -1649    -3842    -6417    -7790    -6620    -3002    -1455 
   -5289   -10318   -11160    -8267    -6590    -9774   -14643   -15264 
  -11668    -8391    -6864    -4396     -862     -747    -4622    -6968 
   -5609    -3757    -4349    -8205   -12179   -12295   -11215   -12005 
  -11497    -8748    -7519    -9339   -12032   -11974    -8390    -5471 
