Origin Time       2024/04/02 04:24:00
Lat.              40.133
Long.             141.712
Depth. (km)       71
Mag.              6.0
Station Code      IWT017
Station Lat.      39.6339
Station Long.     141.4379
Station Height(m) 617
Record Time       2024/04/02 04:24:51
Sampling Freq(Hz) 100Hz
Duration Time(s)  120
Dir.              U-D
Scale Factor      7845(gal)/8223790
Max. Acc. (gal)   54.525
Last Correction   2024/04/02 04:24:50
Memo.             
[...]
  -47510   -47509   -47509   -47507   -47506   -47506   -47507   -47507 
  -47506   -47507   -47510   -47509   -47505   -47507   -47511   -47510 
  -47507   -47507   -47509   -47509   -47509   -47510   -47510   -47507 
  -47505   -47507   -47511   -47510   -47509   -47507   -47507   -47507 
  -47506   -47507   -47511   -47513   -47510   -47505   -47506   -47509 
  -47507   -47509   -47509   -47507   -47509   -47509   -47509   -47507 
  -47507   -47507   -47507   -47509   -47509   -47507   -47510   -47509 
  -47506   -47509   -47511   -47509   -47507   -47511   -47510   -47507 
  -47509   -47510   -47509   -47510   -47511   -47509   -47507   -47509 
  -47509   -47510   -47513   -47509   -47509   -47510   -47507   -47509 
  -47511   -47509   -47509   -47510   -47509   -47506   -47507   -47511 
  -47510   -47510   -47510   -47507   -47506   -47507   -47509   -47510 
  -47510   -47509   -47506   -47506   -47509   -47507   -47506   -47507 
  -47510   -47510   -47509   -47509   -47510   -47510   -47510   -47511 
  -47510   -47509   -47511   -47514   -47510   -47506   -47507   -47507 
  -47507   -47510   -47509   -47507   -47509   -47509   -47510   -47510 
  -47509   -47511   -47511   -47507   -47509   -47507   -47506   -47509 
  -47510   -47509   -47507   -47509   -47506   -47506   -47510   -47511 
  -47506   -47507   -47510   -47509   -47509   -47509   -47506   -47507 
  -47509   -47506   -47509   -47511   -47509   -47509   -47509   -47507 
  -47509   -47509   -47509   -47510   -47507   -47506   -47507   -47509 
  -47509   -47509   -47509   -47510   -47507   -47506   -47509   -47509 
  -47507   -47506   -47507   -47507   -47506   -47506   -47509   -47509 
  -47507   -47507   -47506   -47509   -47509   -47507   -47506   -47506 
  -47507   -47507   -47506   -47509   -47507   -47507   -47510   -47510 
  -47509   -47509   -47509   -47507   -47509   -47509   -47509   -47510 
  -47510   -47510   -47510   -47506   -47507   -47511   -47509   -47507 
  -47509   -47509   -47509   -47510   -47510   -47506   -47506   -47511 
  -47513   -47509   -47510   -47510   -47506   -47507   -47511   -47509 
  -47510   -47511   -47509   -47507   -47509   -47510   -47510   -47509 
  -47509   -47509   -47510   -47507   -47505   -47510   -47510   -47505 
  -47506   -47509   -47507   -47509   -47510   -47507   -47505   -47507 
  -47510   -47507   -47507   -47509   -47507   -47506   -47506   -47507 
  -47507   -47507   -47509   -47509   -47509   -47507   -47507   -47507 
  -47506   -47507   -47507   -47509   -47509   -47509   -47510   -47509 
  -47506   -47507   -47510   -47510   -47506   -47507   -47511   -47509 
  -47507   -47510   -47511   -47509   -47507   -47509   -47510   -47509 
  -47507   -47507   -47509   -47509   -47509   -47509   -47507   -47509 
  -47507   -47507   -47509   -47507   -47509   -47510   -47509   -47509 
  -47509   -47509   -47509   -47510   -47511   -47511   -47510   -47509 
  -47507   -47510   -47509   -47506   -47507   -47510   -47507   -47506 
  -47507   -47509   -47509   -47510   -47510   -47506   -47503   -47499 
  -47490   -47472   -47449   -47422   -47391   -47362   -47345   -47347 
  -47355   -47362   -47375   -47383   -47333   -47248   -47264   -47436 
  -47557   -47456   -47341   -47385   -47208   -46786   -47097   -48396 
  -49414   -49381   -49118   -49613   -50017   -48450   -46047   -46105 
  -48280   -49821   -49995   -48702   -46255   -44018   -42828   -44416 
  -49424   -53353   -52793   -50723   -49678   -47799   -44849   -43470 
  -44342   -46167   -46091   -42098   -38591   -40522   -46172   -52110 
  -56338   -57171   -53925   -47644   -42286   -41119   -42272   -44340 
  -47956   -49987   -48617   -47574   -46878   -44014   -43679   -49385 
  -57064   -62440   -60409   -47931   -32034   -23738   -26959   -35299 
  -41914   -51325   -68258   -81216   -74965   -52342   -32042   -25371 
  -25606   -29300   -43852   -61940   -65882   -57358   -49250   -46597 
  -47169   -40832   -27710   -31105   -54603   -68717   -66930   -67319 
  -61735   -38707   -19953   -19996   -31276   -47815   -54720   -48007 
  -51166   -62465   -61411   -53225   -43441   -37214   -49416   -68613 
  -69634   -49400   -25816   -22063   -35417   -42488   -42651   -49462 
  -60386   -62383   -50148   -39717   -46251   -56895   -55591   -43595 
  -34307   -42915   -61192   -66557   -58063   -47058   -34587   -21001 
  -20433   -43487   -72597   -82551   -70232   -49168   -32410   -25105 
  -25806   -33809   -55285   -80686   -75382   -39661   -23379   -43718 
  -67099   -71084   -57595   -37731   -26697   -26337   -28868   -35186 
  -48605   -59491   -52452   -35568   -33647   -50982   -67219   -65605 
  -54954   -48483   -41894   -32239   -26307   -32570   -51560   -66860 
  -67063   -61458   -56867   -50037   -45200   -48134   -48725   -41467 
  -37423   -38554   -40728   -46002   -50970   -49936   -47842   -46977 
  -39364   -38299   -59655   -75649   -64044   -45358   -37444   -36941 
  -35731   -35220   -42321   -50318   -52920   -51973   -43044   -33393 
  -37388   -49516   -55385   -48552   -39113   -41520   -50193   -53889 
  -54804   -58222   -59371   -48883   -34439   -34447   -49069   -62141 
  -60982   -47345   -36474   -35542   -35101   -37932   -54475   -68501 
  -62434   -46832   -35922   -34759   -42311   -47641   -45400   -44934 
  -47698   -43684   -37758   -43380   -55161   -62154   -62144   -57758 
  -57873   -54691   -35073   -19839   -28069   -49071   -68484   -73144 
  -56421   -33691   -26863   -35656   -47684   -60249   -64910   -52489 
  -35787   -32124   -44579   -60984   -68065   -61634   -39739   -21386 
  -30356   -50529   -61365   -65357   -61033   -50263   -44255   -40621 
  -32209   -27135   -33076   -44371   -54175   -60485   -59250   -49582 
  -43834   -47800   -48859   -45273   -46319   -46255   -44427   -49545 
  -52600   -48861   -48501   -49940   -47075   -42427   -40957   -45576 
  -52245   -55491   -55881   -52679   -46597   -43305   -43235   -44352 
  -45026   -44995   -51398   -63028   -65205   -53715   -39769   -32505 
  -31796   -35892   -43947   -53191   -58764   -55208   -45254   -39079 
  -39556   -43916   -50754   -55043   -55645   -55011   -47028   -36350 
  -36309   -42597   -49333   -54380   -51575   -46994   -49670   -53212 
  -49586   -45025   -46473   -45300   -38410   -37289   -43244   -51710 
  -61511   -62345   -49975   -37860   -33081   -36116   -49534   -60527 
  -56884   -49937   -46041   -40562   -39978   -46226   -49824   -50947 
  -52861   -52164   -50450   -47578   -40115   -38747   -49154   -56608 
  -52261   -41980   -36552   -41030   -49978   -59062   -62922   -55036 
  -41122   -30727   -30392   -43563   -56349   -52940   -46363   -50753 
  -52933   -45840   -38988   -37436   -44872   -56486   -58172   -53087 
  -53578   -54433   -47321   -38500   -36960   -43673   -50109   -50976 
  -51846   -53092   -52475   -51393   -46519   -40630   -42784   -49142 
  -49033   -43588   -41142   -43515   -48726   -54171   -53778   -48442 
  -48894   -53045   -49242   -43125   -43325   -44838   -43740   -42344 
  -44042   -47146   -49658   -53057   -51862   -45902   -43839   -43279 
  -42147   -46097   -52699   -56087   -53617   -45860   -40548   -42340 
  -47179   -51588   -53644   -52308   -49072   -44743   -41169   -44099 
  -51165   -52390   -48011   -41918   -37443   -41909   -50778   -52398 
  -51046   -55852   -57511   -47136   -36004   -32057   -35421   -46975 
  -57578   -59368   -55391   -49009   -44408   -45659   -48865   -48178 
  -45635   -43911   -42989   -44884   -48331   -51761   -55144   -53431 
  -46179   -41131   -41031   -44575   -51664   -55459   -49148   -41451 
  -42749   -48443   -51201   -50291   -48899   -51921   -52799   -42881 
  -36540   -45380   -54801   -52034   -42662   -38327   -42353   -46622 
  -47710   -52455   -57121   -51742   -41897   -38195   -43031   -47825 
  -44088   -43452   -55166   -63626   -55663   -41967   -37154   -39826 
  -44687   -49503   -50957   -48933   -45941   -45175   -46483   -48157 
  -50865   -50338   -47996   -50862   -52286   -48435   -45625   -42534 
  -38735   -41616   -52810   -61543   -59185   -52039   -45200   -38159 
  -36749   -42709   -50409   -55358   -53893   -48546   -45420   -42982 
  -39125   -39039   -46288   -55210   -56713   -51706   -48833   -48155 
  -46624   -46395   -44890   -41301   -42705   -48910   -53900   -56941 
  -55432   -45184   -35546   -38715   -49108   -56034   -57719   -54152 
  -46380   -39495   -35985   -36972   -45343   -56261   -60303   -56396 
  -48837   -41874   -40257   -43973   -47023   -46811   -46330   -47749 
  -50310   -50936   -47985   -45149   -44178   -44007   -45906   -47304 
  -44674   -40261   -40277   -48335   -56883   -59655   -59687   -53491 
  -38993   -32263   -42549   -52506   -50845   -45940   -40957   -39629 
  -48358   -57014   -55930   -48371   -38642   -37053   -48298   -55734 
  -51124   -46602   -46850   -49389   -53138   -51966   -46283   -43664 
  -42795   -41094   -43031   -49009   -51792   -48655   -45063   -45598 
  -50247   -53766   -50880   -44783   -42616   -46360   -49808   -47556 
  -43019   -42076   -46402   -50917   -53191   -56008   -54429   -46182 
  -39534   -40641   -48343   -53946   -53805   -53846   -52311   -44051 
  -35718   -36080   -43444   -50288   -52600   -54615   -57829   -52731 
  -40157   -34965   -41083   -51645   -59879   -58131   -46500   -36922 
  -35023   -36985   -43070   -50473   -53500   -56897   -60000   -52610 
  -42500   -41713   -42665   -42653   -47117   -51691   -54622   -56039 
  -50022   -41434   -39425   -41465   -45517   -48456   -47159   -49725 
  -54106   -49742   -43152   -43098   -45725   -46984   -49725   -53897 
  -53333   -48865   -43803   -37670   -37608   -45654   -51004   -53406 
  -56633   -54075   -46487   -43652   -47336   -50431   -49034   -45096 
  -41763   -44676   -52623   -54403   -47659   -41631   -42148   -46103 
  -48852   -50957   -52860   -50279   -43097   -39649   -44059   -51313 
  -54249   -47822   -39253   -41332   -49588   -53677   -54664   -52118 
  -43344   -36686   -38558   -44236   -52925   -61450   -58812   -45245 
  -32548   -32036   -45297   -60354   -65055   -57399   -45179   -37986 
  -35546   -37079   -48389   -60782   -57473   -45516   -39656   -39787 
  -45349   -52556   -53061   -51680   -54712   -53705   -43910   -37516 
  -39969   -41870   -43830   -50226   -54638   -55215   -51246   -40683 
  -36431   -44182   -48354   -47464   -51606   -54174   -51136   -48508 
  -43348   -37381   -41527   -53955   -60650   -53042   -39988   -35957 
  -40925   -48350   -55391   -59015   -56143   -47302   -39537   -38875 
  -44938   -53939   -54993   -45675   -40490   -42685   -42006   -37756 
  -41958   -57717   -66993   -59435   -44535   -33575   -35455   -47201 
  -54483   -55782   -56424   -50400   -39155   -36420   -43258   -51123 
  -54095   -50225   -47386   -49416   -47266   -44536   -52539   -56602 
  -41615   -28310   -33766   -46908   -59999   -67678   -61939   -50600 
  -43465   -38136   -35658   -41604   -52650   -60031   -59082   -51111 
  -42670   -39306   -40355   -42614   -44803   -47170   -49869   -54194 
  -57164   -50917   -41665   -43015   -48273   -46253   -44443   -48655 
  -50280   -47136   -44783   -41535   -40367   -46866   -51425   -49659 
  -49318   -47187   -42711   -45553   -51795   -54345   -55044   -51686 
  -44726   -40871   -42431   -46857   -47877   -43302   -39428   -39314 
  -43141   -49360   -51452   -51678   -55737   -56929   -51898   -48996 
  -47353   -38029   -32163   -42646   -53757   -54066   -50915   -47391 
  -45171   -44752   -41292   -37790   -45713   -58618   -57130   -48293 
  -46970   -47202   -46252   -46599   -44602   -44023   -50020   -53705 
  -49559   -45018   -42457   -41553   -45476   -49659   -50704   -52219 
  -48953   -40165   -39002   -45488   -50541   -55582   -61971   -63072 
  -52222   -33976   -23059   -29188   -48001   -62818   -63159   -55858 
  -43560   -28240   -27544   -46268   -67070   -75863   -68010   -49513 
  -36013   -33308   -33334   -38034   -52427   -61203   -54629   -45331 
  -40909   -38898   -42115   -50128   -51386   -46565   -46615   -46604 
  -43768   -47077   -55116   -60716   -59088   -46812   -32857   -29139 
  -32162   -38956   -50998   -59232   -58214   -53643   -50499   -47715 
  -42331   -40089   -45341   -52081   -57337   -58025   -46134   -30400 
  -32505   -48006   -57167   -58608   -54822   -45280   -38118   -39422 
  -41999   -42957   -50207   -58109   -58598   -54789   -47140   -44996 
  -51899   -49858   -37012   -27635   -27714   -37098   -49453   -62059 
  -72789   -67725   -47275   -32385   -33038   -45513   -60490   -62436 
  -49728   -38726   -38416   -46639   -58386   -65642   -60241   -44815 
  -33462   -33270   -43457   -59031   -65761   -56211   -38502   -24953 
  -20378   -23978   -39032   -62649   -82443   -85137   -68347   -51003 
  -41025   -30217   -29272   -42889   -55220   -63046   -69836   -73539 
  -72970   -62667   -44115   -27899   -19255   -25581   -43403   -53701 
  -55401   -55755   -51159   -43298   -35002   -24561   -16703   -18009 
  -30408   -47359   -58093   -67652   -82560   -85907   -68729   -49230 
  -36278   -25192   -25678   -45264   -70341   -81815   -68404   -43112 
  -33207   -36753   -34654   -27789   -20754   -11410    -7663   -20264 
  -47922   -75744   -82413   -64318   -44498   -37615   -32773   -27148 
  -34007   -49091   -55189   -56448   -64783   -68773   -59286   -56042 
  -63421   -55044   -39474   -44871   -50215   -43133   -53562   -76280 
  -78849   -57580   -24349     5223     9649   -12775   -38481   -52907 
  -57997   -55177   -46911   -39841   -38929   -41914   -46936   -60758 
  -78680   -81978   -69149   -54572   -46396   -42950   -39429   -41773 
  -53325   -53123   -33714   -20241   -24205   -35962   -50654   -67721 
  -83844   -89075   -75369   -50614   -31337   -29457   -43032   -55773 
  -57003   -52012   -48311   -46484   -46410   -50622   -56921   -59080 
  -53643   -43220   -37787   -38110   -32918   -26901   -30078   -37343 
  -45871   -50805   -47880   -47804   -47969   -40279   -36305   -36202 
  -31291   -31968   -47098   -66140   -73161   -62819   -46026   -40400 
  -45187   -46371   -46168   -47534   -45351   -47236   -57240   -67338 
  -69226   -56803   -39425   -29641   -27091   -33115   -45519   -57541 
  -64199   -55239   -38855   -38084   -48112   -53145   -54376   -56085 
  -58787   -57929   -47326   -35267   -37134   -49383   -54886   -50296 
  -43534   -37095   -33794   -38969   -49393   -56149   -55557   -48991 
  -38256   -27993   -25380   -32633   -47054   -63346   -70888   -64272 
  -52758   -44238   -37552   -34110   -37723   -48714   -60016   -60632 
  -53104   -48028   -45064   -42836   -44397   -47559   -47359   -43235 
  -40648   -41561   -42153   -43660   -49032   -56756   -62567   -61677 
  -54198   -43301   -34551   -37895   -52702   -66567   -72287   -66106 
  -49847   -35245   -28013   -27461   -34921   -47559   -56941   -55513 
  -46577   -40859   -41567   -44346   -44766   -44030   -45285   -47100 
  -49023   -51528   -52417   -51052   -48502   -45281   -43546   -45843 
  -48593   -47414   -47128   -50013   -48759   -46049   -50890   -55953 
  -54437   -52462   -48400   -42039   -42741   -46950   -47221   -47848 
  -52392   -57423   -57013   -52029   -45979   -36448   -31047   -40151 
  -51381   -50010   -43953   -45053   -50436   -54361   -55907   -52228 
  -43914   -40228   -45077   -49235   -48115   -46453   -45976   -48649 
  -53635   -55285   -51895   -44868   -40267   -42086   -46765   -51682 
  -53690   -51568   -47457   -42574   -40275   -42032   -47123   -51498 
  -48450   -42799   -40302   -39943   -45600   -51965   -47723   -38638 
  -36525   -43216   -50777   -52578   -51359   -50394   -51992   -54930 
  -52612   -48739   -48786   -47278   -46851   -55171   -63659   -58487 
  -40957   -27529   -32337   -49855   -62815   -63803   -57080   -46256 
  -34942   -30250   -34920   -45021   -54384   -56317   -48192   -38060 
  -36801   -42962   -48712   -51517   -51289   -48806   -46543   -45314 
  -44320   -44949   -49339   -54483   -54348   -48510   -42433   -39559 
  -39035   -42703   -51590   -57701   -56756   -51777   -45041   -41877 
  -43816   -48496   -53350   -51387   -46475   -45655   -44112   -43420 
  -45945   -45952   -43483   -42465   -45991   -52141   -52633   -47136 
  -44244   -47860   -52107   -49265   -43546   -43164   -43357   -40289 
  -42292   -50168   -53319   -50789   -48979   -47227   -47341   -52747 
  -56257   -53272   -48999   -47196   -45330   -40151   -37839   -44196 
  -52374   -56772   -57909   -56646   -54662   -51136   -46747   -43957 
  -43237   -47622   -53894   -54287   -50460   -45706   -42203   -44221 
  -49473   -51210   -50029   -48748   -44995   -41976   -45859   -52768 
  -54962   -51398   -45966   -40053   -35839   -37671   -44347   -50476 
  -52078   -50882   -50477   -49140   -46573   -45724   -43691   -38298 
  -37339   -45912   -57666   -62861   -57299   -46338   -37902   -35927 
  -39240   -43021   -45339   -45289   -43524   -45115   -49135   -49837 
  -48948   -49929   -49898   -47822   -46084   -44898   -44096   -43735 
  -43812   -42762   -41069   -44896   -51345   -50147   -46507   -48112 
  -45513   -38275   -39934   -45998   -47479   -50410   -54531   -53470 
  -47642   -43255   -48363   -56717   -55732   -49405   -46611   -48471 
  -50128   -48161   -47023   -49253   -53206   -55668   -54255   -52799 
  -51838   -49643   -47591   -45775   -46565   -47983   -45727   -44338 
  -46558   -49592   -50348   -47286   -45099   -48100   -51345   -48135 
  -42249   -42660   -47653   -50284   -50684   -50448   -50580   -51428 
  -49998   -47964   -48919   -49819   -48817   -48049   -47551   -46899 
  -47317   -48605   -47653   -43418   -41721   -44501   -45382   -45048 
  -45959   -44208   -41847   -43056   -47475   -51304   -49235   -45484 
  -45447   -45037   -43325   -43584   -45666   -47856   -50218   -51888 
  -49535   -45839   -45245   -45191   -45157   -47491   -49007   -47035 
  -44544   -41670   -39356   -43876   -51337   -52718   -51366   -51399 
  -49030   -44749   -43471   -44062   -44523   -48038   -52955   -53107 
  -49472   -46942   -46930   -48177   -49573   -51896   -53550   -50458 
  -43677   -38800   -40578   -47646   -52980   -53635   -51341   -48891 
  -48487   -47387   -45342   -47109   -51246   -52265   -48857   -43596 
  -39888   -40301   -45551   -52466   -54924   -51908   -48655   -45566 
  -42673   -43856   -46188   -47767   -50607   -51308   -47079   -40582 
  -39410   -45765   -50480   -51016   -52299   -53524   -52047   -47150 
  -41511   -40273   -43993   -47529   -47231   -46741   -48352   -48953 
  -48652   -47764   -46816   -49743   -53454   -50426   -43123   -41042 
  -46669   -51938   -51349   -48817   -46076   -42681   -43054   -47426 
  -51815   -54345   -51792   -44525   -38225   -36437   -40219   -48062 
  -55574   -59011   -57017   -49073   -39154   -37592   -44734   -49283 
  -49404   -49954   -50920   -50994   -49107   -47358   -48856   -50194 
  -47609   -44838   -47143   -50742   -49628   -46693   -43714   -40925 
  -45152   -54164   -55849   -51140   -47868   -45489   -45643   -51111 
  -54279   -50039   -45191   -45099   -47434   -50399   -53180   -50616 
  -43379   -41328   -45397   -48328   -47835   -44659   -42246   -43704 
  -45694   -46703   -49125   -49682   -45804   -44473   -49395   -54334 
