Origin Time       2024/04/02 04:24:00
Lat.              40.133
Long.             141.712
Depth. (km)       71
Mag.              6.0
Station Code      IWT017
Station Lat.      39.6339
Station Long.     141.4379
Station Height(m) 617
Record Time       2024/04/02 04:24:51
Sampling Freq(Hz) 100Hz
Duration Time(s)  120
Dir.              E-W
Scale Factor      7845(gal)/8223790
Max. Acc. (gal)   169.907
Last Correction   2024/04/02 04:24:50
Memo.             
[...]
     679      677      676      676      676      677      677      676 
     676      676      676      677      676      675      679      681 
     677      675      675      675      676      676      676      677 
     679      677      676      677      679      676      675      676 
     676      676      676      675      676      679      677      676 
     677      677      673      675      676      673      672      676 
     679      676      676      677      676      676      677      676 
     677      676      676      679      676      675      679      680 
     679      679      677      675      676      679      677      673 
     676      679      677      680      679      676      675      677 
     677      677      679      679      676      676      677      676 
     677      677      677      679      677      676      675      677 
     679      677      676      675      675      675      675      677 
     676      675      677      676      677      677      676      677 
     677      676      677      676      675      675      675      677 
     679      676      676      676      675      676      677      675 
     676      680      679      676      676      676      675      675 
     676      676      679      679      676      676      673      673 
     676      676      676      677      677      676      677      679 
     675      673      673      675      677      675      676      676 
     675      676      677      677      676      675      675      677 
     677      677      677      676      675      675      675      677 
     677      676      675      676      677      677      677      675 
     675      677      676      672      673      677      677      676 
     676      677      677      677      676      676      677      676 
     676      679      676      673      676      677      676      675 
     675      677      679      677      676      677      679      677 
     679      677      675      675      677      679      679      679 
     680      677      676      677      676      676      676      676 
     673      676      679      676      672      675      679      679 
     677      677      675      675      677      675      673      676 
     677      673      675      673      675      676      676      677 
     677      675      675      677      677      676      675      675 
     676      675      673      676      677      675      676      673 
     672      676      677      676      679      679      675      676 
     679      677      676      675      676      677      676      675 
     676      680      680      676      675      677      680      675 
     672      677      676      673      676      676      676      677 
     676      673      676      676      676      680      680      675 
     675      675      676      680      677      677      679      677 
     675      677      677      676      676      676      675      679 
     681      679      677      677      677      677      676      675 
     676      677      677      676      677      677      676      676 
     675      673      677      679      675      675      679      677 
     676      677      676      675      679      676      675      679 
     679      676      679      677      676      677      673      673 
     679      676      675      677      677      676      677      675 
     675      676      679      675      670      670      665      654 
     649      642      630      627      635      638      633      638 
     668      685      658      662      765      819      704      639 
     747      692      422      426      837     1212     1152      869 
    1011     1331      897      207      175      392      801     1522 
    1557      920      400     -157      -64     1019     1293      800 
    1179     1487      668     -322     -966    -1090     -356      481 
     788     1189     1684     2018     2901     3861     3484     1630 
    -900    -2997    -4511    -5755    -4992    -1664     1201     3002 
    6073     8999     9078     6949     3483        5     -869     -467 
   -3161    -9131   -13301   -11142    -4665      232     3219     9531 
   18997    22385    14562     2751    -6250   -12915   -16044   -13636 
   -9016    -4248     2943    10035    12550    12143     9084     3635 
    1309    -1108    -8777    -9936     -120     3523    -2490    -3785 
     656     4112     5452     1702    -4429    -4330      746     6511 
   11034     8766     1032    -3292    -2053      510    -2691   -12343 
  -14135    -3495     4780     6704    10546    16394    19056    15961 
    6934    -6037   -16448   -18037   -16221   -19290   -20864   -10417 
    8370    23940    29180    23531    14864    10585     7006       44 
   -8043   -12468   -10589    -9850   -15048   -17525   -12845    -2621 
   10759    15566     8001     4135    10928    17749    18382    14454 
    6529    -4666   -14062   -17493   -17473   -17392   -15736    -8920 
    1182     8846    14528    19040    17969    11990     5516      -21 
   -4560    -9734   -13652   -10416    -2870     2988    10376    16675 
   10619    -1456    -3769    -1575    -6042   -10326    -6736      885 
    8144    11535    10219     7728     2737    -5810   -11087    -9675 
   -6871    -5890    -3709      720     5549    10355    13381    11198 
    4899     1425     3187     3402    -2253    -9811   -11681    -5756 
   -2666    -7641    -7128     3352     9760     7924     4849     3113 
    3132     3472     3055     4511     6358     4684      679    -2929 
   -7057   -11969   -11373    -3839      484     -927      591     6192 
   10260    10847     9153     7357     4383    -2809   -10015   -11149 
   -7906    -2965     1667     1838     2673    11253    15963     6156 
   -5680    -8316    -6778    -3338     3924     9239     6816     -595 
   -6435    -5722      272     3684      897    -2918    -4683    -6966 
   -7452      164    12024    17193    14011     8641     2794    -2941 
   -4523    -4225    -5794    -4405     -183     -612    -5765    -9067 
   -4756     6276    14274    12582     6520     4604     5807     2747 
   -3519    -7669   -10008    -9035    -3978    -1525    -3873    -3974 
    2220     9545    11160     8186     6184     5887     5923     5645 
    1981    -4503    -6937    -3861    -1601    -4696   -10403    -9801 
   -1259     5270     6700     7047     5378     2154      751     1273 
    2650     3801     2531     -608    -2628    -4066    -4264      -41 
    4791     5630     5247     5636     4625     1640    -1598    -4240 
   -4966    -2003     2111     2270    -1428    -3292     -356     2751 
     454    -3524    -1923     1930     2235     2945     7356    10666 
    6790    -2654    -6978    -2736      553     -804    -2424    -3677 
   -4113    -1863      616     1314     1588     1647     3134     7102 
    7601     2465    -1421     -884     1872     3991     2810     -433 
   -3095    -3942    -1794     1028     2705     4642     3060    -2192 
   -2317      398    -1332    -2092     -392    -1807    -3213    -1302 
    1642     4418     5343     4492     4252     4131     3678     2031 
   -2505    -6245    -6438    -5184    -1710     3429     5432     4314 
    3420     2714     2120     2262      413    -4116    -5624    -2255 
     504     1902     5219     7410     5965     5368     6480     3470 
   -3557    -7169    -7751    -9876    -7549     1244     5435     2853 
    3003     7281     9008     5490    -1973    -9587   -11240    -6462 
    -704     3397     6887    10586    12137     7820     -843    -7479 
   -7812    -3632     -610      508     4554     9539     8834     3701 
    -646    -2380    -2394    -3825    -7684    -8787    -3069     5671 
   10069     7051     1768      785     1917     -511    -3349    -1803 
   -1024    -2467      342     4220     3885     2956     1684    -1256 
   -2736    -4171    -7497    -6916      953     9963    11673     6511 
    5005     9594     8608    -1494   -10058   -10827    -7099    -3673 
   -2964    -1522     4109     7591     4772     2714     5007     7331 
    7047     4486     1513     -911    -3773    -4523    -2319    -2995 
   -7195    -8845    -5355     -333      615     -591     3578    10625 
   10650     5201     3543     3327    -2074    -6826    -4162     -132 
   -1672    -3765     -334     3296     2042      114      865     3707 
    6446     5541     2547     1256      529      213     1036      795 
     916     3771     5381     1752    -3993    -5347    -1421     2813 
    2791    -2097    -5320    -2470       32    -1475    -2238     1325 
    8008    11940     9323     3430    -2747    -7010    -5927    -2589 
   -1687      137     5390     9491     7474      272    -4968    -3927 
    -568     -409    -2729    -1355     4048     5814     1699    -2543 
   -2666       22     1692     2208     3742     3851     1451      858 
    1302      -90     -336     -113    -3481    -6606    -3175     4205 
    5915     -923    -7211    -4932     3846    10156     7304     1086 
     392     1853     1571     2612     1390    -4557    -6669    -3662 
   -2506    -1694     1151     1736       40      473     5098    11113 
    9155    -1031    -4584     -105      268    -1506     -286     -311 
    -546     1202      247    -2444    -1705     -390    -1525    -1255 
    1467     4180     6569     6362     2153     -629     1139     2542 
     841     -720    -2452    -6166    -6234     -390     3542     2170 
     540     2389     4985     3682      870      299      -33     -596 
   -1953    -4434    -1989     4095     4785      854    -1871     -522 
    4210     7161     6987     4803    -1107    -6011    -5455    -5225 
   -5103      353     5309     4417     2587     2404     2316     2967 
    2002    -2539    -2681     4234     7431     2512    -4626    -8306 
   -5229     1946     6135     5976     4672     3747     3140     -297 
   -5846    -5773    -1088     1244     1985     1659      -64     1761 
    5819     5895     4579     4691     3117     -137    -3204    -5595 
   -6284    -3790      561     1595      661     3696     5908     1066 
   -4558    -3238     2212     4359     2292      481     1908     5078 
    4117    -2621    -7717    -4401     3057     4244      550      531 
    1113    -1119    -1873    -1458      140     5042     7326     2681 
   -2813    -2829     2801     8129     5872    -2506    -8706    -7258 
     -44     4288     1630    -1852    -1773     -338     1537     4834 
    7446     6826     2848    -2818    -5965    -4792    -1235     3338 
    5946     6340     7435     5169    -1833    -5366    -4301    -4137 
   -4544    -3944    -2601      399     3994     4641     2061     1382 
    5107     8237     6928     2849     -585    -1374    -2419    -6010 
   -7565    -5675    -5412    -5483     -417     5864     7060     6639 
    9613    12457     7738    -2813    -7419    -3150      915      418 
   -2938    -7096    -8154    -3774     3114     7919     7960     4179 
    1152     2292     4851     2789    -3883    -6640     -695     6156 
    5807      855    -3584    -5710    -5341    -2898     1324     4152 
    4976     8189     9396     2694    -3686    -2848     -211     -286 
   -2322    -5362    -5393      681     6054     5092     3464     5351 
    7744     8608     6878     2916     -963    -6550   -11624    -8006 
      37     2721     2293     2643     1629     -488     -502      958 
     927     -125    -1097    -2323    -1364     2146     2091    -2232 
   -3966    -1837     1831     6088     6420     1954     -726      330 
    3157     7123     7796     2567    -2694    -4995    -7445    -8525 
   -4977     -103      978    -1328    -1950      738     1460    -1610 
   -3310    -1975      603     2748     2462     3140     6997     7323 
    2286     -996     -286      915     1594     1136      325     4595 
   11763    11965     5975     1976      684      405      619    -4949 
  -15025   -16544   -11192   -10785   -11422    -5373     3576    10768 
   14778    15403    15422    14199     8556      234    -7020    -8648 
   -3304      692    -1701    -2697     1472     2889    -1048    -2766 
     436     3584     4681     5490     7182     7507     1316    -9227 
  -16170   -17433   -13531    -5873     -278      884     3873    13714 
   22650    20561    12807     7723     2631    -4137   -10197   -14135 
  -13371    -8942    -5965    -4554     -953     3477     4818     6064 
   10048    11381     7523     3419     1682     -357    -4293    -7446 
   -6917    -4982    -5489    -6683    -6729    -5557     -469     5671 
    7577     9204    14242    17680    13263     1524    -9266   -14075 
  -16942   -18310   -15985   -15246   -15896   -11323    -5001    -2270 
    -499     2239     5020     7047     6336     4120     6238    13844 
   22765    27849    23195     8664    -9560   -27346   -40007   -41543 
  -36618   -33825   -30983   -26580   -21528   -10050     4622    11448 
   13686    19434    25074    27641    34096    45657    52076    47097 
   33334    17261     3744    -8941   -22376   -33675   -41863   -49005 
  -55023   -54006   -40822   -18661     7025    32648    51347    54697 
   45225    33187    13533   -22615   -55318   -56457   -27849     8559 
   39152    65869    90884   108851   119747   123063   111053    89183 
   68443    44234    12495   -21586   -57402   -98172  -139255  -165804 
 -168785  -159025  -147394  -119489   -56407    28258   103080   154541 
  178803   175751   166287   166083   154577   105502    26947   -45800 
  -91984  -119946  -136344  -135517  -121763  -106871   -89518   -64484 
  -34597    -1084    31793    55341    71666    80181    65511    22940 
  -31305   -76272   -95357   -83235   -47314     1694    44798    54912 
   31989     8190    -1173     -704    17030    44506    50419    30847 
    5350   -20059   -37867   -31245    -1089    32838    50117    35986 
   -6512   -50548   -73017   -74409   -60473   -33307    -5051     7425 
    3748     6045    32884    69727    93861   109537   119263    97150 
   29161   -53455  -108842  -129891  -135508  -135005  -119805   -77969 
  -11807    54648    97267   116374   124411   121811   102178    69172 
   36342    14994     4375    -7020   -31099   -67811  -104656  -129712 
 -134601  -109269   -54251     4340    39775    55356    65026    75632 
   91989   104650    93970    55896     6048   -33833   -53601   -60201 
  -63995   -66432   -60228   -41662   -18021     -218     5764     5275 
    9625    20067    29000    31525    27607    21771    22423    31147 
   36298    33264    30998    27487    12402   -10944   -31657   -49064 
  -68014   -79092   -67227   -40159   -18355    -2833    18212    45098 
   70823    89862    96588    90229    71161    36497    -7457   -47171 
  -74858   -87628   -88379   -83457   -69290   -38612    -2297    18960 
   23882    26489    30121    31248    33318    36801    35950    30492 
   23865    16308     6561    -6064   -20244   -33316   -45324   -54679 
  -55225   -46159   -30078    -5377    23558    43271    46237    39152 
   32143    25675    17257    10102     7130     4253    -7746   -27247 
  -37417   -33041   -25350   -14872     1470     9428     2844      -86 
    9244    18376    20314    18862    17462    19701    27907    35374 
   29394     7514   -15913   -26912   -26379   -21809   -15601    -9112 
  -11920   -29621   -47436   -47611   -27533     6814    41524    60866 
   63028    53523    35353    13652    -4456   -15084   -17794   -10455 
    3454     5339   -12707   -31488   -37474   -34958   -22886     -506 
   18432    26698    33118    40473    45010    46824    39690    18301 
   -5962   -22202   -33165   -39734   -35865   -23244   -12525    -7007 
    -977     6596    12796    16646    13209    -1263   -16187   -17633 
   -6430     5319     6470    -1687    -4581     4936    14365    11014 
     -58    -8680   -13910   -18242   -22153   -23313   -18445   -11456 
   -8310    -3148    11334    26924    31868    24710     8020   -10361 
  -16001    -7132     1061     1547     2470     6362     5759    -1548 
   -8641    -7554     1794    10470    12807    11130     6088    -2232 
   -6242     1340    14809    20799    13208    -1572    -9478    -1081 
   15749    21663     8410   -11418   -21859   -22168   -19885   -15711 
   -5548    10000    23427    27163    23845    21409    17547     4172 
  -15633   -29355   -30434   -23275   -14200    -5510      814     3657 
    6655    11362    12440     8750     5842     4889     3958     2508 
     778     -290    -3384    -9972   -14875   -15525   -13537    -9381 
   -2207     6934    11578     8988     5709     5543     8345    16310 
   25683    24399     8991    -8392   -16287   -13724    -5127     1575 
    1836     1313     2999     1127    -5421    -9408    -5146     2847 
    4608      596     1154     8267    12444     7700    -1235    -5406 
   -1602     3407     2242    -2446    -2694     3623     9270     7555 
    3708     5463     9255     6195    -5567   -16965   -19515   -16973 
  -13906    -7877     -861     1675     1471     3700    10174    17786 
   19923    15176     6212    -6777   -18566   -21996   -21307   -22612 
  -20143    -8797     4942    14967    20665    19866    11843     3592 
    2218     4230     2007    -3242    -4484     -251     5233     8136 
    5016    -4951   -14025   -11990       85    10732    12988    11030 
   10944    11754    11645    12285     9879     1726    -2774      994 
    3812      463    -6610   -15700   -20317   -12799      132     4737 
    1352     1127     5487     8071     9921    13925    16680    15439 
   11693     6674     -132    -6566    -8657    -7611    -7098    -7668 
   -9018   -11102   -12607    -9838     -149    11884    19341    21431 
   20413    16036     8986     3500     -268    -5593    -9094    -6181 
    -766     -423    -7414   -15160   -14937    -7834    -2266     -337 
    1741     4536     5574     2246    -3855    -5506    -1904     -492 
   -1861     -951     2006     3998     3310      500     -791     1308 
    4399     5296     1489    -5849   -10566    -9694    -6921    -5324 
   -3059     1526     4479     2886     -997    -6288   -10054    -6756 
     589     4569     4066     2405     1753      579    -2844    -5027 
    -801     7878    13914    14832    11846     6099     1285     -156 
      52     2111     5915     5344    -3256   -14388   -20401   -17845 
   -8672      722     5309     7172    10542    13662    12299     6812 
     994    -1780    -1529    -2369    -5216    -4903      -41     5012 
    7445     7198     4854      835    -2924    -3408    -1476      166 
    2200     4857     5314     2971      984      608     -270     -854 
    2139     6254     6170     3069     1001     -118    -1089      518 
    5456     9405     9130     4376    -3546    -9868   -12249   -11388 
   -5522     1860     3613      997     -733     2031     9798    16482 
   17444    15228    13069    10665     4315    -6070   -12884   -12222 
   -9094    -6556    -2893      275     -652    -4287    -6586    -4240 
    4477    14628    17377    11431     3267    -1703    -2825    -1991 
   -2513    -7962   -14779   -14235    -6478     1763     6700     6642 
    5248     6353     3153    -6440    -9417      953    13667    14921 
    5136    -3244    -6436   -10903   -14794   -11958    -4519     3019 
