Origin Time       2024/04/02 04:24:00
Lat.              40.133
Long.             141.712
Depth. (km)       71
Mag.              6.0
Station Code      KNG203
Station Lat.      34.7983
Station Long.     139.6435
Station Height(m) -902
Record Time       2024/04/02 04:26:58
Sampling Freq(Hz) 100Hz
Duration Time(s)  60
Dir.              U-D
Scale Factor      2000(gal)/6182761
Max. Acc. (gal)   0.233
Last Correction   2024/04/02 04:26:59
Memo.             
[...]
    -199     -191     -152      -93      -46        6       70      118 
     147      182      220      196      119       85       91       70 
      49       56       63       88      138      142       90       68 
      92      102       46      -39      -41       26       54       72 
     117      133      128      169      257      284      195      130 
     227      358      342      240      182      151      140      176 
     241      312      342      307      258      234      226      235 
     288      363      415      436      425      367      286      241 
     255      257      231      236      210       86       18      135 
     278      252      114        0      -86     -122      -23      108 
     114       30      -98     -282     -410     -380     -256     -147 
     -71      -36      -88     -168     -158      -91      -83     -143 
    -220     -290     -306     -198      -28       32      -65     -160 
    -120      -46      -84     -174     -172      -45      103      136 
     104      127      148       96       26       23      118      217 
     192       96       37      -18     -121     -199     -152        3 
     151      250      317      286      192      208      342      459 
     467      324      107      -45      -82        6      200      398 
     500      502      434      302      193      211      313      387 
     390      373      366      345      327      321      311      333 
     371      347      312      339      358      310      229      181 
     218      306      336      296      242      173      123      146 
     172      122       36      -57     -173     -281     -287     -152 
      13       93       66      -47     -192     -290     -265     -145 
     -50      -44      -91      -85       14       69       29       10 
      60      141      180      105      -16      -93     -142     -175 
    -190     -151      -43       71      163      207      145       16 
     -96     -134      -64       32       68       84       87       37 
      -2       36      111      163      176      174      177      178 
     140       47       11      128      301      433      517      505 
     363      185      109      154      234      276      276      274 
     255      150        2      -55       11      122      167      119 
      69       63       44       -4       22      165      282      263 
     168       49      -49      -43       29       35       -9       21 
     108      150      173      217      196      117      110      160 
     173      171      186      197      201      217      228      184 
      74      -31      -39       -6      -64     -136      -86       38 
     151      188       89      -85     -185     -103      111      221 
     139       45       11      -12       -9        8        5       35 
     151      299      367      352      327      299      214       84 
      28       72      123      155      161      114       67       65 
     103      175      232      214      125       42       53      110 
      82       29       72      133       98       41       59      100 
      91       73       79       26      -90     -120      -32       65 
     118      146      178      217      212      109      -39     -107 
     -50       42       69       56       81      104       41     -114 
    -304     -427     -424     -327     -169        6      124      183 
     178       75      -36      -37       22       52       62       88 
     107       74      -23     -117     -120      -14      125      195 
     187      135       61       27       49      106      215      307 
     329      340      324      241      159      157      210      221 
     196      231      300      345      354      298      200      138 
     110       69       32       57      120      122       73       81 
     181      313      383      331      197       60      -36      -57 
     -12       24        7       -7        1        2       37       96 
      59      -52     -100      -91      -72      -20       32       37 
      60      124      140       85       20      -14      -19      -25 
     -10       83      236      367      366      213       68       76 
     187      261      251      213      163       87        8      -70 
    -122      -57       81      125       72       35       31       40 
      69      120      204      289      328      325      283      226 
     211      198      124       43       28       70      119      153 
     171      123       31       34      142      231      286      360 
     414      380      302      281      347      447      510      499 
     440      374      310      276      284      279      247      222 
     186      164      205      267      272      206      138      135 
     160      136       58       -7      -25      -16       28       80 
      70       28       24       13      -67     -164     -208     -195 
    -131      -45       12       20      -17      -67      -78      -55 
     -56      -94     -115     -123     -173     -243     -288     -317 
    -319     -265     -150        9      137      166      123       66 
      24       23       79      183      283      304      222      107 
      51       64       94      142      195      140       -5      -78 
     -68      -56      -45      -46      -47      -13       22       15 
     -16      -58     -130     -162      -43      138      215      213 
     189      129       55       10        5       43      107      151 
     141      120      149      216      298      375      385      307 
     202      142      130      123      102       82       95      142 
     168      164      171      198      215      196      177      186 
     188      163      137      125      132      163      232      298 
     286      203      106       32      -15      -48      -17       99 
     218      288      277      172       75       85      151      221 
     332      407      306      136       73       99      185      331 
     423      383      286      206      146      129      200      312 
     337      257      176      129       96       82       65       17 
     -32      -62      -78      -56       14       69       79      100 
     127      123      116      143      213      269      237      140 
      14     -131     -218     -190     -119      -68      -20      -24 
    -133     -239     -266     -293     -329     -293     -178      -71 
     -56      -86      -72      -21       14        5       38      168 
     269      251      168       95       75      123      243      360 
     353      248      176      160      139       94       42       15 
      47      118      166      165      126       92      118      168 
     161      101       34      -31     -119     -197     -178      -70 
      -7      -58     -149     -199     -197     -153      -75        8 
      48       15      -56     -110      -91        8       90      102 
      66        1      -34       -8       40       60       61       81 
      69       31       73      161      209      222      191      121 
      78       94      141      196      254      289      289      259 
     207      167      173      225      282      269      201      125 
      -2     -133     -133       -8      106      113       29      -98 
    -220     -256     -187      -70       25       35       15       70 
     145      168      189      215      177      111      106      128 
     120      140      251      379      405      345      274      181 
      99       93      103       90      102      143      173      182 
     196      235      292      347      345      293      304      375 
     390      375      385      380      341      285      220      160 
     124      119      113      104      106       93       68       74 
     127      175      159      129      165      222      203      168 
     205      256      290      304      245      137       73       60 
      62      100      179      213      169      109       55        9 
       4       53      138      200      181       68     -100     -228 
    -238     -154      -24      128      222      188      134      177 
     237      271      331      390      432      470      427      314 
     253      250      238      209      157       93       55       15 
     -32      -32       14       33      -13      -55      -21       53 
      95      109      135      151       93      -25     -124     -174 
    -165      -84      -11      -21      -47      -51      -84     -117 
     -62       60      118       67      -23      -96     -125      -77 
      26      111      120       72       33        9      -39      -80 
     -46       33       68       49       29       42       79      137 
     203      215      161       86       15      -42      -71      -68 
      -6      114      199      192      166      159      129       78 
      39       29       44       46       19       12       37       38 
      25       19      -11      -49      -70     -106     -181     -266 
    -314     -314     -296     -266     -212     -161     -156     -171 
    -162     -133      -76       13       70       38      -33      -62 
     -47      -28       -3       50      127      202      247      243 
     199      155      169      240      280      261      245      237 
     169       62       10       40      127      246      332      350 
     363      403      416      416      456      499      512      524 
     535      539      537      548      571      568      540      505 
     421      307      248      236      222      225      265      310 
     337      322      266      234      236      212      183      192 
     233      283      292      235      164      125       79      -19 
    -102     -100      -62      -70     -158     -263     -295     -302 
    -342     -366     -391     -443     -450     -379     -285     -207 
    -178     -223     -293     -312     -263     -185     -110      -59 
      -4       96      164      137       91       50       19       83 
     236      382      464      476      424      355      348      408 
     455      455      419      336      207       95       67      134 
     231      239      157      123      185      272      342      373 
     362      373      434      476      461      433      427      448 
     476      481      462      418      332      223      113        4 
    -104     -197     -259     -307     -363     -416     -440     -445 
    -442     -383     -282     -217     -179     -121      -66      -35 
     -11       13       10      -13       15       83       93       52 
      26        0      -73     -163     -203     -229     -288     -328 
    -330     -328     -315     -298     -278     -240     -211     -196 
    -155      -92      -54      -35       -6       29       67      120 
     150      133      151      239      331      411      460      422 
     336      293      293      287      280      281      251      204 
     194      214      220      190      127       76       95      170 
     222      218      197      200      226      238      265      345 
     382      318      245      214      186      133       66       46 
      83       83       19      -22      -11        5        9       21 
      54       60       27       33       82       82       37       33 
      82      132      156      172      183      195      208      195 
     168      167      183      197      234      285      292      256 
     241      259      272      297      373      464      499      456 
     366      280      248      280      320      337      371      442 
     509      514      437      346      319      343      356      319 
     245      178      131      100       86       60        8      -18 
     -11      -28      -80     -127     -131      -75        8       77 
     117      119      110      114       95       44        9       -6 
     -29      -74     -155     -265     -351     -381     -374     -361 
    -375     -403     -381     -316     -275     -278     -298     -292 
    -229     -110       34      121      130      134      138       92 
      51       61       96      160      204      157       78       31 
     -12      -57      -73      -48      -34      -80     -111      -47 
      35       43       13       -2      -24      -50      -15       86 
     172      181      151      148      164      157      131      115 
      95       47      -19      -83     -109      -94      -77      -91 
    -136     -172     -179     -182     -171      -96       10       60 
      65      102      165      215      267      325      346      339 
     336      303      255      254      308      371      377      301 
     185       68      -14      -19       32       61       35       -5 
     -26      -29       -7       41       75       97      184      332 
     471      572      630      649      671      716      731      680 
     607      542      509      514      493      420      330      241 
     192      192      180      175      243      337      378      363 
     326      310      324      347      367      392      436      467 
     427      329      232      162      128      120      103       75 
      57       26      -47     -135     -182     -197     -232     -260 
    -262     -288     -335     -375     -433     -510     -559     -543 
    -467     -386     -364     -407     -473     -534     -566     -574 
    -604     -625     -592     -558     -543     -502     -444     -368 
    -247     -106        8       83      125      159      216      291 
     351      359      288      166       58        0      -19      -23 
      -4       40       87       96       61       48       96      171 
     263      373      447      476      515      578      638      652 
     601      548      511      445      381      349      301      229 
     177      158      116       12      -80      -90      -72      -83 
    -130     -176     -166      -91        4       28      -55     -147 
    -162     -106      -10       65       92      109      108       78 
      68      107      163      187      168      130      122      174 
     243      289      315      293      235      222      248      276 
     325      367      379      391      393      362      319      298 
     335      413      443      399      352      352      360      332 
     281      239      208      165      104       51       37       58 
      81       76       30      -29      -48      -28      -17      -17 
       4       22        0      -26      -11        4      -11      -28 
     -32       -8       37       54       47       61       71       45 
      -2      -28        9       78      120      128      107       94 
     138      202      233      248      277      306      302      267 
     240      258      313      350      347      326      295      262 
     200      100       31       12        4       -1      -15      -45 
     -82     -104     -106     -118     -108      -36       23       31 
      42       39       -5      -29       13       86      138      164 
     149       86       13      -33      -43      -38      -50      -70 
     -88     -124     -145     -110      -66      -52      -48      -40 
     -43      -94     -163     -168      -99      -11       50       79 
     105      165      228      245      241      248      248      229 
     212      202      158       74        7      -39     -115     -185 
    -217     -244     -255     -253     -278     -315     -344     -353 
    -332     -289     -203      -79       30       97      108      104 
     148      190      191      189      170      110       43       17 
      18      -24      -99     -143     -137      -90      -46      -31 
       4       79      153      209      277      380      484      552 
     595      636      681      712      728      752      769      750 
     701      652      609      568      541      513      466      438 
     447      434      399      397      406      395      398      411 
     401      367      323      286      280      300      277      179 
      67       -8      -70     -130     -180     -232     -276     -300 
    -331     -375     -415     -425     -383     -322     -277     -226 
    -160     -105      -78      -86     -101      -38      109      239 
     328      399      419      402      395      373      313      254 
     218      179      127       79       51       47       35        1 
     -30      -84     -167     -222     -249     -287     -318     -303 
    -253     -202     -139      -53       -3      -27      -55      -14 
      63      123      167      206      225      195      135       88 
      64       63       79       98      107       93       73       76 
      65       24       13       40       70      108      155      174 
     152      111       97      140      178      146       90       77 
     114      166      180      165      154      140      147      181 
     194      190      189      187      183      174      199      280 
     348      352      309      231      136       98      144      204 
     217      189      128       47      -17      -34      -14      -17 
     -92     -205     -279     -288     -282     -314     -370     -387 
    -349     -288     -234     -200     -187     -162      -77       41 
     135      196      251      307      347      389      416      389 
     346      338      345      329      278      219      189      195 
     179      128       87       40      -30      -40       31       94 
      99       91      110      110       60       24       51      101 
     123       98       45       -9      -33      -24      -22      -43 
     -65      -79      -93     -122     -156     -115       17      129 
     182      228      276      327      402      463      468      457 
     464      470      474      481      464      402      340      343 
     407      452      427      379      364      354      331      343 
     373      360      329      305      268      238      211      162 
     136      120       49      -35      -84     -119     -142     -145 
    -147     -172     -218     -268     -304     -314     -288     -228 
    -170     -156     -186     -234     -276     -275     -212     -134 
     -89      -83     -127     -214     -284     -315     -356     -382 
    -352     -340     -367     -371     -364     -406     -451     -397 
    -298     -253     -197     -111      -39       59      158      198 
     229      268      294      331      373      403      437      466 
     467      435      371      294      272      332      379      346 
     293      251      235      276      327      357      406      440 
     435      453      499      514      510      545      600      620 
     601      552      488      447      425      408      402      387 
     345      291      229      177      168      196      229      256 
     271      260      237      228      215      183      170      193 
     169       64      -37     -108     -192     -271     -325     -362 
    -358     -338     -368     -412     -423     -416     -400     -367 
    -318     -279     -286     -324     -329     -296     -265     -225 
    -192     -221     -278     -287     -252     -201     -154     -138 
