Origin Time       2024/04/02 04:24:00
Lat.              40.133
Long.             141.712
Depth. (km)       71
Mag.              6.0
Station Code      KNG201
Station Lat.      34.5956
Station Long.     139.9183
Station Height(m) -2197
Record Time       2024/04/02 04:27:02
Sampling Freq(Hz) 100Hz
Duration Time(s)  60
Dir.              U-D
Scale Factor      2000(gal)/6182761
Max. Acc. (gal)   0.224
Last Correction   2024/04/02 04:27:02
Memo.             
[...]
    -197     -136      -70      -28       16       40       22        4 
     -19      -75     -152     -242     -299     -271     -236     -245 
    -239     -239     -293     -344     -344     -313     -281     -252 
    -211     -146      -83      -81     -151     -197     -168     -170 
    -246     -301     -308     -298     -283     -291     -301     -263 
    -213     -201     -234     -280     -282     -250     -242     -257 
    -269     -297     -343     -344     -277     -213     -195     -203 
    -238     -278     -286     -282     -295     -320     -347     -350 
    -308     -255     -230     -215     -204     -220     -241     -233 
    -215     -189     -126      -55      -45     -135     -249     -272 
    -238     -229     -222     -198     -169     -128     -134     -204 
    -240     -228     -220     -222     -247     -265     -205      -97 
     -12       16      -53     -175     -247     -250     -229     -246 
    -278     -258     -205     -146      -88      -35       23        9 
    -124     -241     -233     -153      -79      -43      -76     -201 
    -316     -317     -279     -253     -244     -283     -312     -292 
    -273     -280     -306     -327     -307     -261     -237     -243 
    -256     -249     -200     -148     -159     -214     -261     -300 
    -328     -320     -295     -296     -315     -309     -240     -109 
      14       48       11      -13      -21      -75     -176     -294 
    -399     -458     -490     -483     -392     -250     -126      -94 
    -223     -415     -487     -479     -483     -401     -245     -140 
    -103     -148     -249     -306     -314     -313     -304     -283 
    -249     -216     -203     -225     -266     -279     -242     -194 
    -162     -116      -53      -30      -84     -160     -219     -294 
    -358     -338     -259     -198     -142      -48       25       -2 
     -89     -163     -205     -187     -136     -144     -192     -210 
    -191     -150      -83      -17       -9      -27      -18      -71 
    -212     -324     -352     -339     -311     -250     -176     -109 
     -60     -110     -231     -259     -235     -280     -337     -358 
    -374     -375     -380     -378     -322     -254     -234     -249 
    -289     -349     -361     -282     -196     -189     -208     -214 
    -262     -344     -371     -331     -277     -211     -124      -42 
      12       12      -45     -148     -268     -309     -262     -222 
    -160      -47       22       20       -1      -26      -70     -124 
    -177     -218     -210     -189     -232     -278     -253     -186 
     -79       52      101       40      -31     -100     -232     -343 
    -326     -226      -97       22       37      -25      -22       13 
      -6      -17       23       56       18     -107     -230     -255 
    -220     -216     -234     -192     -114      -86     -143     -240 
    -266     -210     -182     -211     -251     -257     -212     -175 
    -184     -192     -194     -208     -213     -220     -239     -257 
    -274     -281     -274     -264     -242     -189     -110      -67 
    -135     -276     -332     -276     -254     -267     -251     -252 
    -263     -251     -222     -195     -212     -259     -286     -285 
    -275     -268     -239     -200     -220     -287     -335     -359 
    -389     -420     -413     -326     -186      -66        0       10 
     -13      -19      -42     -137     -205     -182     -176     -242 
    -318     -372     -395     -367     -308     -264     -248     -236 
    -178      -63       32       10     -116     -238     -271     -173 
     -16       39      -28     -124     -207     -253     -261     -255 
    -199      -58       44        5      -57      -49      -33      -29 
     -44     -146     -288     -345     -351     -409     -472     -425 
    -284     -128       -8        4      -97     -210     -260     -267 
    -292     -335     -333     -294     -275     -264     -259     -296 
    -355     -396     -418     -432     -432     -418     -399     -358 
    -277     -200     -185     -219     -269     -309     -292     -245 
    -252     -319     -399     -452     -462     -436     -367     -282 
    -251     -275     -272     -216     -162     -111      -26       35 
      -6     -103     -179     -194     -103       20       38       13 
      24        7      -60     -137     -193     -184      -97       16 
      83       74       40       19      -18      -51      -54      -99 
    -192     -216     -119       -5       11      -70     -148     -123 
     -17       36      -21      -56      -20      -27      -93     -180 
    -271     -303     -258     -177      -82      -22      -65     -165 
    -214     -217     -226     -230     -246     -299     -330     -294 
    -233     -182     -159     -209     -324     -409     -428     -442 
    -463     -455     -398     -293     -173      -73      -19      -23 
     -54     -105     -202     -290     -298     -259     -235     -220 
    -192     -152     -144     -222     -314     -336     -321     -316 
    -291     -247     -226     -221     -193     -155     -137     -148 
    -230     -358     -394     -353     -345     -348     -348     -377 
    -415     -454     -486     -460     -359     -234     -139     -114 
    -182     -266     -252     -188     -175     -200     -241     -273 
    -254     -236     -273     -307     -284     -244     -249     -276 
    -293     -336     -410     -438     -400     -349     -293     -208 
     -99        3       44        4      -31      -55     -141     -216 
    -198     -146      -75       47      140      127       87       57 
     -22     -147     -260     -307     -290     -270     -230     -152 
     -93      -47       14       50       43       29        9      -73 
    -193     -234     -177     -132     -183     -278     -286     -166 
       4      146      165       65       15       35        0      -81 
    -166     -253     -289     -252     -202     -150      -39       94 
     101      -41     -189     -288     -342     -331     -314     -307 
    -264     -238     -243     -212     -174     -200     -255     -253 
    -203     -179     -195     -227     -270     -330     -393     -399 
    -337     -283     -270     -269     -275     -325     -385     -368 
    -297     -261     -248     -233     -261     -338     -391     -385 
    -363     -342     -289     -203     -161     -212     -296     -325 
    -290     -255     -255     -279     -311     -334     -356     -374 
    -348     -265     -182     -156     -197     -257     -280     -305 
    -365     -387     -360     -348     -345     -332     -323     -304 
    -275     -258     -288     -331     -308     -265     -272     -243 
    -117        9       35      -51     -201     -350     -444     -456 
    -409     -328     -246     -212     -202     -133      -17        1 
    -131     -259     -282     -268     -275     -268     -207      -89 
      42       96       61       52       85       79       42      -23 
    -119     -173     -173     -212     -277     -286     -284     -292 
    -243     -166      -77       30       66       45       71       95 
      59       31       32       25       25       42       76      105 
      60      -54     -162     -233     -223     -119      -17       60 
     150      180      104       -6      -55      -11       31        7 
      -1       57       91       54       48      119      146       55 
     -98     -211     -234     -213     -212     -185      -65       66 
     119      125      112       46      -84     -236     -390     -498 
    -536     -552     -521     -446     -412     -387     -339     -320 
    -331     -335     -311     -274     -284     -374     -483     -520 
    -482     -424     -385     -367     -359     -342     -293     -240 
    -227     -241     -257     -286     -354     -464     -563     -594 
    -549     -448     -324     -187      -37       40      -62     -265 
    -381     -370     -350     -391     -452     -474     -441     -396 
    -405     -440     -412     -304     -164      -70      -84     -193 
    -288     -300     -308     -344     -319     -263     -263     -289 
    -315     -347     -358     -342     -343     -367     -362     -357 
    -426     -492     -453     -367     -299     -228     -157     -118 
    -153     -255     -320     -284     -214     -189     -206     -259 
    -334     -361     -292     -173      -57       28       55       61 
      84       53      -21       -8       81      158      241      306 
     267      142       19      -84     -185     -209     -104        8 
      45       87      132      114       80       74       56       -9 
    -123     -261     -311     -222     -119      -83     -103     -179 
    -262     -282     -272     -280     -273     -238     -196     -128 
     -58      -56     -108     -136     -151     -197     -241     -266 
    -268     -241     -233     -224     -198     -229     -286     -292 
    -281     -259     -216     -208     -252     -331     -419     -463 
    -456     -439     -422     -395     -339     -265     -236     -231 
    -175     -102      -76     -117     -217     -289     -320     -423 
    -534     -535     -525     -533     -477     -377     -275     -206 
    -214     -288     -387     -443     -418     -320     -157      -18 
      -7     -121     -262     -334     -336     -316     -289     -281 
    -297     -290     -260     -216     -137      -63      -79     -172 
    -226     -194     -151      -81       64      155      139      100 
      19     -119     -226     -247     -182      -64       53      100 
      44       -4       31       61       36      -31     -125     -206 
    -195      -41      114      118       49      -20     -147     -285 
    -284     -141       13       88       82       49        6     -114 
    -267     -306     -251     -234     -271     -297     -296     -261 
    -200     -157     -145     -180     -274     -367     -413     -442 
    -431     -344     -242     -154      -60      -33     -125     -203 
    -126        0      -20     -158     -257     -221      -81       31 
      25      -98     -246     -328     -350     -332     -289     -252 
    -229     -230     -249     -255     -229     -213     -241     -272 
    -291     -294     -256     -175      -57       38       42       33 
      62       34      -20        0       28        6      -42     -136 
    -258     -322     -286     -189      -72       -1      -87     -275 
    -377     -352     -274     -205     -206     -267     -302     -290 
    -268     -221     -140      -72      -53     -104     -185     -225 
    -293     -456     -585     -596     -566     -523     -432     -313 
    -188      -57       27       -6     -100     -171     -233     -264 
    -260     -309     -408     -496     -554     -571     -566     -510 
    -348     -196     -163     -206     -268     -296     -237     -138 
     -30       67       63      -45     -180     -316     -375     -330 
    -304     -326     -338     -348     -370     -387     -359     -293 
    -252     -205      -95       35       97       49      -65     -193 
    -332     -437     -470     -449     -378     -311     -255     -125 
      27       47      -92     -268     -335     -299     -312     -423 
    -474     -402     -289     -127       96      262      279      179 
       3     -231     -409     -427     -353     -284     -189      -52 
      35       31      -50     -211     -389     -461     -432     -399 
    -333     -177       20      160      120      -49     -172     -244 
    -264     -216     -205     -264     -326     -339     -289     -222 
    -152      -55       42       59      -59     -273     -487     -605 
    -591     -494     -334     -178     -142     -180     -217     -244 
    -224     -190     -159      -48      115      189      147       54 
    -114     -303     -330     -221     -157     -141      -76       36 
     116      122       96      101      111      100       82       42 
      25       67       93       66       34        0      -52      -84 
     -84      -78      -85      -93      -82      -38       65      174 
     233      307      357      276      142       43      -33      -76 
     -90     -101     -135     -218     -306     -335     -341     -336 
    -234      -39       92       77       32       51       49      -45 
    -182     -266     -242     -217     -258     -250     -211     -257 
    -345     -451     -591     -694     -725     -750     -784     -754 
    -638     -466     -244      -10      161      220      195      145 
      27     -166     -298     -307     -300     -376     -484     -537 
    -545     -499     -377     -271     -242     -244     -231     -212 
    -207     -172      -82      -14       -6      -12      -35     -124 
    -274     -413     -496     -546     -571     -544     -494     -478 
    -500     -518     -487     -403     -245      -11      150       91 
     -97     -271     -436     -566     -607     -598     -563     -536 
    -561     -592     -611     -616     -592     -563     -527     -461 
    -393     -374     -385     -370     -344     -300     -212     -120 
     -35       17      -78     -287     -443     -491     -477     -444 
    -363     -210      -43      101      184      144       26     -137 
    -353     -500     -480     -372     -263     -149      -40       47 
     109      151      189      182       91      -36     -189     -334 
    -378     -342     -292     -183       26      268      443      501 
     462      358      200       10     -181     -305     -295     -193 
     -66      114      325      436      435      390      300      205 
     163      158      167      168      150      134      171      244 
     235      111        2      -22      -59     -165     -238     -190 
     -63       48       82       58       47       28      -82     -233 
    -305     -291     -293     -352     -384     -360     -321     -268 
    -241     -273     -323     -352     -343     -283     -193     -122 
    -115     -155     -177     -199     -293     -393     -398     -356 
    -350     -427     -570     -662     -659     -638     -618     -564 
    -475     -365     -218      -38      113      160      107       13 
    -153     -390     -552     -602     -627     -627     -590     -540 
    -482     -441     -417     -366     -291     -245     -246     -266 
    -277     -271     -233     -179     -165     -197     -234     -255 
    -247     -244     -314     -410     -464     -501     -501     -432 
    -355     -305     -271     -257     -251     -205      -86       36 
      57       19       25       38      -42     -220     -388     -440 
    -438     -504     -567     -528     -420     -290     -178      -62 
     103      257      357      438      432      254      -11     -250 
    -406     -407     -331     -328     -357     -350     -327     -289 
    -268     -279     -296     -298     -222      -58       96      169 
     189      221      250      226      175      107       27      -62 
    -188     -302     -330     -338     -369     -369     -374     -384 
    -320     -217     -119       -2       80       88       81       49 
     -79     -242     -358     -421     -404     -306     -176      -86 
    -120     -267     -402     -461     -502     -522     -490     -482 
    -506     -495     -419     -245      -18      144      187      177 
     210      243      183       60      -73     -207     -318     -373 
    -395     -421     -433     -422     -404     -352     -251     -145 
     -78      -24       29       42       23      -23     -135     -261 
    -278     -171      -17      149      280      309      268      185 
      68      -22     -102     -203     -266     -277     -295     -327 
    -336     -320     -249     -105       34      105       96       22 
     -89     -236     -368     -409     -389     -343     -244     -113 
     -34      -78     -223     -331     -339     -308     -256     -232 
    -299     -389     -435     -461     -475     -470     -461     -448 
    -404     -347     -318     -310     -316     -326     -318     -321 
    -383     -486     -569     -595     -549     -437     -291     -139 
     -15       29       -3      -28        4       33      -13     -143 
    -307     -391     -367     -348     -349     -303     -251     -206 
    -113      -18       -7      -95     -213     -304     -379     -463 
    -532     -503     -379     -279     -196      -35      117      121 
      43       -4      -30      -11       61       73       17      -39 
    -128     -244     -290     -253     -242     -285     -300     -292 
    -296     -289     -259     -202     -112        6      157      303 
     380      371      268       98     -115     -350     -500     -541 
    -619     -704     -657     -555     -472     -346     -179        2 
     162      189      113       65       17      -57      -84      -93 
    -155     -261     -341     -366     -406     -470     -506     -525 
    -532     -520     -504     -466     -378     -246     -101        9 
      28       -8      -12      -24      -98     -175     -240     -295 
    -296     -237     -125       15       87       53        6      -53 
    -195     -337     -370     -331     -263     -179      -90      -25 
     -62     -189     -267     -258     -241     -230     -196     -123 
     -28       35       29      -47      -91      -13       90       97 
      64       42      -52     -250     -445     -571     -644     -638 
    -482     -220       26      176      168       55      -54     -207 
    -396     -484     -507     -545     -530     -460     -387     -319 
    -296     -326     -359     -380     -390     -387     -360     -316 
    -269     -204      -86       71      184      180       97      -14 
    -190     -414     -577     -632     -596     -504     -401     -289 
    -140       24      119      134      141      155      111       22 
     -39      -62      -81     -151     -246     -256     -172      -71 
       5      -26     -186     -302     -319     -331     -282     -134 
       1       84      142      168      155       98       36       19 
       5      -42     -116     -207     -245     -206     -147      -52 
      81      142      119       76      -17     -157     -281     -351 
    -355     -338     -325     -271     -172      -53       41       54 
      20      -52     -231     -423     -470     -427     -378     -266 
    -115      -26       -5      -46     -125     -185     -218     -233 
    -238     -214     -112      -10      -28     -167     -323     -405 
    -433     -451     -419     -327     -245     -202     -155      -43 
      85       96       22        0      -30     -143     -260     -335 
    -361     -332     -297     -287     -303     -335     -351     -328 
    -275     -226     -202     -173      -84       18       -1     -136 
    -270     -353     -380     -378     -403     -427     -406     -373 
    -339     -292     -255     -252     -262     -259     -266     -310 
    -376     -428     -458     -458     -411     -332     -237     -131 
     -66     -119     -248     -292     -254     -275     -296     -251 
    -244     -278     -310     -351     -371     -365     -342     -283 
    -205     -118      -15        0     -179     -395     -443     -416 
