Origin Time       2024/04/02 04:24:00
Lat.              40.133
Long.             141.712
Depth. (km)       71
Mag.              6.0
Station Code      KNG206
Station Lat.      35.0966
Station Long.     139.3778
Station Height(m) -1130
Record Time       2024/04/02 04:26:55
Sampling Freq(Hz) 100Hz
Duration Time(s)  99
Dir.              U-D
Scale Factor      2000(gal)/6182761
Max. Acc. (gal)   0.583
Last Correction   2024/04/02 04:26:55
Memo.             
[...]
    -773     -800     -820     -828     -814     -790     -785     -792 
    -782     -769     -758     -737     -722     -697     -652     -618 
    -604     -594     -593     -605     -632     -666     -698     -731 
    -764     -784     -797     -818     -841     -869     -911     -949 
    -969     -987     -998     -987     -962     -935     -915     -905 
    -900     -901     -906     -904     -889     -874     -866     -848 
    -830     -817     -793     -776     -779     -782     -783     -779 
    -757     -731     -712     -689     -665     -651     -634     -621 
    -626     -629     -627     -631     -633     -625     -625     -651 
    -686     -712     -731     -743     -746     -748     -754     -762 
    -773     -790     -808     -816     -811     -799     -794     -797 
    -802     -802     -794     -788     -793     -801     -812     -828 
    -821     -791     -782     -787     -790     -805     -822     -828 
    -828     -828     -833     -840     -834     -819     -805     -786 
    -762     -745     -730     -711     -688     -657     -625     -604 
    -584     -554     -525     -508     -488     -456     -424     -389 
    -361     -351     -343     -336     -331     -330     -335     -341 
    -346     -352     -355     -357     -372     -403     -437     -463 
    -493     -525     -549     -574     -608     -654     -704     -743 
    -779     -816     -839     -859     -881     -880     -859     -852 
    -848     -830     -810     -784     -750     -717     -664     -589 
    -525     -472     -423     -390     -375     -355     -321     -292 
    -261     -212     -161      -98      -14       61       94      104 
     139      172      167      170      187      193      196      190 
     171      151      130      106       70       14      -58     -137 
    -213     -269     -307     -353     -405     -441     -473     -506 
    -537     -580     -625     -655     -689     -732     -757     -769 
    -794     -816     -827     -849     -883     -912     -941     -974 
    -985     -974     -964     -969     -978     -989    -1012    -1032 
   -1040    -1039    -1017     -969     -917     -885     -873     -860 
    -830     -779     -720     -666     -615     -574     -543     -511 
    -479     -450     -410     -360     -312     -253     -159      -40 
      78      156      190      249      326      362      403      467 
     516      566      618      665      710      749      778      810 
     838      858      875      882      880      883      885      868 
     834      792      734      671      612      544      479      424 
     355      282      222      158       83       -8     -154     -319 
    -408     -461     -554     -641     -706     -790     -867     -933 
   -1008    -1072    -1132    -1201    -1273    -1342    -1401    -1449 
   -1500    -1542    -1574    -1604    -1615    -1594    -1564    -1540 
   -1514    -1476    -1436    -1390    -1339    -1302    -1283    -1268 
   -1243    -1208    -1172    -1126    -1065    -1014     -982     -960 
    -934     -894     -846     -802     -743     -680     -659     -657 
    -633     -611     -610     -613     -612     -615     -629     -640 
    -643     -649     -652     -643     -628     -615     -606     -604 
    -605     -601     -589     -572     -550     -527     -505     -488 
    -479     -467     -460     -468     -480     -484     -484     -479 
    -470     -473     -485     -486     -476     -454     -419     -388 
    -364     -342     -327     -323     -330     -334     -335     -339 
    -337     -319     -301     -288     -273     -265     -260     -245 
    -217     -166      -94      -14       64      104      116      147 
     177      189      208      228      242      251      239      222 
     216      200      179      153      118       89       68       36 
      -9      -67     -155     -247     -295     -331     -402     -456 
    -495     -574     -649     -704     -770     -830     -886     -947 
    -989    -1018    -1047    -1067    -1078    -1093    -1124    -1158 
   -1186    -1206    -1208    -1210    -1216    -1220    -1237    -1258 
   -1264    -1271    -1281    -1273    -1247    -1220    -1190    -1152 
   -1116    -1092    -1073    -1053    -1043    -1041    -1034    -1022 
   -1014    -1008     -992     -967     -952     -944     -940     -936 
    -925     -909     -882     -839     -803     -782     -764     -750 
    -744     -740     -730     -719     -712     -697     -679     -671 
    -676     -684     -669     -648     -640     -618     -587     -580 
    -581     -569     -553     -542     -530     -511     -485     -465 
    -450     -425     -402     -386     -367     -360     -367     -361 
    -339     -316     -291     -256     -216     -185     -167     -151 
    -127      -79       -3       64       91      104      137      182 
     219      260      302      331      345      356      379      401 
     408      413      417      403      383      365      361      369 
     360      330      294      249      201      155      110       72 
      38       -6      -75     -167     -233     -250     -279     -342 
    -393     -432     -480     -528     -576     -614     -640     -667 
    -699     -732     -763     -794     -827     -855     -877     -895 
    -910     -930     -949     -962     -986    -1013    -1032    -1058 
   -1080    -1085    -1094    -1108    -1121    -1136    -1144    -1139 
   -1129    -1112    -1096    -1089    -1075    -1053    -1027     -993 
    -956     -924     -894     -864     -831     -800     -776     -758 
    -745     -728     -694     -652     -627     -617     -604     -599 
    -609     -614     -613     -613     -605     -598     -599     -605 
    -619     -633     -644     -668     -683     -680     -682     -689 
    -691     -697     -715     -730     -736     -746     -759     -763 
    -770     -784     -805     -831     -850     -866     -882     -880 
    -891     -930     -960     -981    -1004    -1007    -1005    -1008 
    -998     -981     -971     -956     -929     -887     -837     -793 
    -751     -696     -631     -573     -518     -470     -424     -355 
    -281     -223     -157      -62       51      122      135      168 
     227      257      288      337      373      401      441      486 
     517      537      558      569      582      594      589      582 
     578      564      544      519      492      468      434      388 
     343      291      238      190      148      111       69       17 
     -60     -161     -237     -268     -305     -373     -437     -487 
    -538     -587     -643     -698     -734     -767     -798     -823 
    -842     -857     -877     -898     -911     -918     -929     -936 
    -941     -956     -974     -976     -976     -978     -970     -960 
    -960     -956     -950     -940     -915     -886     -865     -847 
    -827     -806     -792     -780     -763     -738     -713     -691 
    -668     -649     -622     -580     -554     -544     -521     -500 
    -489     -475     -471     -477     -481     -485     -483     -481 
    -489     -503     -515     -533     -559     -576     -578     -578 
    -575     -573     -585     -607     -626     -636     -639     -633 
    -611     -576     -544     -516     -490     -471     -451     -419 
    -386     -357     -326     -293     -258     -225     -205     -199 
    -197     -197     -196     -188     -182     -174     -154     -127 
     -84      -45      -69     -126     -137     -143     -188     -207 
    -213     -259     -303     -345     -408     -469     -522     -567 
    -596     -622     -643     -658     -682     -710     -731     -739 
    -737     -726     -715     -710     -700     -674     -640     -602 
    -556     -508     -462     -417     -370     -328     -298     -273 
    -256     -256     -263     -262     -251     -233     -214     -197 
    -186     -183     -173     -159     -155     -155     -148     -133 
    -136     -167     -166     -149     -173     -194     -189     -200 
    -211     -205     -211     -225     -236     -251     -272     -303 
    -345     -387     -422     -460     -509     -560     -603     -640 
    -686     -735     -781     -831     -875     -908     -941     -968 
    -997    -1033    -1068    -1098    -1124    -1146    -1156    -1161 
   -1174    -1184    -1201    -1218    -1207    -1184    -1158    -1123 
   -1090    -1066    -1042    -1010     -976     -938     -907     -885 
    -848     -796     -760     -741     -712     -682     -659     -627 
    -590     -577     -571     -552     -542     -536     -516     -498 
    -488     -479     -478     -475     -465     -465     -466     -460 
    -460     -454     -441     -444     -457     -466     -465     -463 
    -465     -465     -473     -492     -512     -527     -541     -565 
    -596     -623     -650     -680     -697     -701     -718     -742 
    -758     -773     -782     -786     -793     -795     -792     -791 
    -788     -784     -781     -784     -790     -799     -811     -809 
    -790     -775     -774     -771     -763     -760     -764     -754 
    -736     -733     -734     -738     -749     -745     -737     -740 
    -739     -741     -753     -769     -784     -786     -782     -771 
    -748     -727     -710     -693     -679     -666     -654     -632 
    -592     -548     -496     -438     -398     -363     -324     -292 
    -255     -212     -175     -116      -15       72      109      145 
     182      189      198      223      237      258      289      307 
     320      321      303      286      266      244      228      214 
     203      187      162      140      113       74       30      -37 
    -138     -239     -297     -331     -391     -465     -519     -572 
    -627     -682     -752     -818     -873     -933     -987    -1047 
   -1126    -1190    -1243    -1305    -1357    -1396    -1431    -1461 
   -1487    -1512    -1540    -1574    -1600    -1607    -1603    -1602 
   -1596    -1572    -1538    -1504    -1464    -1415    -1369    -1338 
   -1304    -1256    -1214    -1163    -1094    -1033     -982     -932 
    -886     -841     -791     -741     -686     -626     -568     -501 
    -425     -370     -327     -274     -227     -186     -132      -69 
       2       71      104      112      136      153      144      148 
     171      200      232      252      267      277      277      276 
     273      268      266      261      256      257      260      264 
     269      267      253      244      248      255      262      263 
     255      245      225      196      169      140      109       75 
      31      -13      -65     -139     -199     -220     -227     -240 
    -248     -238     -229     -232     -240     -247     -243     -221 
    -196     -185     -176     -155     -148     -147     -112      -58 
     -38      -31        6       38       40       55       78       76 
      79       98      106      110      119      124      117      101 
      82       61       50       45       31       11      -25      -88 
    -156     -203     -226     -245     -282     -322     -352     -384 
    -412     -434     -451     -467     -490     -510     -520     -531 
    -541     -545     -558     -584     -613     -639     -667     -694 
    -719     -745     -760     -772     -795     -817     -834     -847 
    -851     -860     -879     -889     -901     -929     -948     -962 
    -992    -1006    -1007    -1019    -1038    -1059    -1073    -1081 
   -1099    -1113    -1123    -1143    -1162    -1171    -1178    -1185 
   -1190    -1190    -1181    -1165    -1152    -1139    -1118    -1095 
   -1069    -1029     -985     -948     -912     -880     -850     -815 
    -775     -739     -709     -690     -683     -673     -662     -664 
    -664     -651     -645     -654     -661     -659     -658     -656 
    -643     -627     -617     -608     -594     -576     -559     -549 
    -542     -531     -526     -529     -525     -511     -491     -482 
    -496     -513     -518     -518     -516     -507     -494     -484 
    -483     -489     -508     -536     -557     -571     -587     -601 
    -618     -640     -661     -681     -700     -725     -753     -772 
    -785     -796     -804     -819     -839     -863     -882     -883 
    -888     -901     -897     -884     -880     -877     -868     -857 
    -842     -823     -803     -778     -755     -742     -727     -707 
    -691     -669     -639     -616     -593     -568     -548     -519 
    -485     -449     -406     -369     -341     -305     -270     -241 
    -212     -191     -183     -182     -181     -191     -218     -238 
    -246     -251     -252     -258     -259     -265     -292     -318 
    -344     -371     -393     -423     -454     -491     -547     -595 
    -638     -692     -729     -762     -816     -859     -896     -940 
    -967     -992    -1031    -1068    -1090    -1100    -1102    -1101 
   -1103    -1110    -1114    -1100    -1059    -1016     -985     -955 
    -928     -908     -887     -866     -843     -808     -764     -726 
    -695     -662     -617     -559     -504     -461     -411     -350 
    -297     -240     -180     -119      -35       60      110      121 
     163      223      262      310      362      389      418      465 
     519      573      622      681      749      803      855      905 
     930      949      979     1010     1042     1069     1092     1119 
    1141     1161     1183     1200     1219     1239     1243     1234 
    1224     1214     1197     1172     1138     1102     1070     1034 
     983      923      865      805      737      671      609      548 
     481      407      339      273      207      132       35      -86 
    -235     -357     -421     -501     -611     -689     -768     -878 
    -969    -1050    -1146    -1233    -1310    -1388    -1452    -1510 
   -1591    -1674    -1736    -1790    -1834    -1862    -1893    -1932 
   -1970    -1990    -2002    -2029    -2054    -2072    -2100    -2116 
   -2112    -2111    -2112    -2108    -2107    -2106    -2093    -2077 
   -2064    -2042    -2013    -1984    -1948    -1916    -1896    -1869 
   -1838    -1811    -1783    -1752    -1717    -1680    -1639    -1599 
   -1564    -1529    -1495    -1461    -1421    -1385    -1358    -1328 
   -1296    -1263    -1224    -1177    -1131    -1088    -1055    -1021 
    -978     -936     -901     -874     -846     -806     -766     -740 
    -716     -683     -642     -597     -551     -511     -477     -439 
    -407     -390     -377     -369     -369     -358     -337     -323 
    -307     -284     -278     -285     -293     -313     -324     -310 
    -300     -292     -275     -271     -280     -289     -307     -327 
    -342     -356     -365     -369     -374     -381     -394     -418 
    -434     -445     -468     -489     -499     -514     -533     -540 
    -539     -541     -550     -564     -570     -567     -555     -535 
    -506     -474     -440     -406     -382     -364     -342     -316 
    -289     -260     -221     -162      -83        7       78      107 
     136      187      224      252      289      310      315      324 
     336      346      357      372      388      405      422      432 
     432      431      430      428      424      411      397      391 
     393      393      386      376      358      338      325      314 
     298      271      246      226      207      194      175      145 
     123      102       73       51       33       -4      -71     -155 
    -212     -228     -250     -279     -284     -300     -340     -363 
    -383     -419     -439     -444     -469     -505     -528     -545 
    -565     -582     -596     -618     -649     -682     -710     -732 
    -757     -800     -854     -897     -936     -983    -1024    -1070 
   -1122    -1159    -1193    -1229    -1256    -1282    -1315    -1347 
   -1373    -1385    -1391    -1413    -1446    -1468    -1485    -1497 
   -1490    -1479    -1468    -1453    -1445    -1444    -1435    -1412 
   -1382    -1353    -1321    -1281    -1230    -1183    -1143    -1093 
   -1047    -1006     -951     -896     -846     -782     -714     -655 
    -595     -535     -484     -438     -387     -336     -293     -252 
    -203     -133      -30       70      104      107      146      180 
     191      224      251      270      311      342      354      372 
     378      376      383      380      369      361      342      314 
     275      232      204      180      142      102       65       26 
     -27     -103     -182     -233     -268     -320     -367     -394 
    -425     -452     -476     -510     -538     -564     -598     -618 
    -626     -641     -650     -654     -666     -681     -696     -712 
    -723     -732     -735     -728     -724     -735     -753     -768 
    -785     -802     -807     -813     -822     -822     -825     -837 
    -848     -863     -886     -898     -894     -901     -913     -912 
    -919     -927     -910     -884     -864     -845     -835     -833 
    -822     -803     -791     -765     -724     -690     -660     -619 
    -577     -546     -529     -519     -503     -480     -463     -452 
    -434     -416     -414     -414     -407     -407     -406     -393 
    -371     -351     -340     -330     -328     -332     -328     -328 
    -337     -338     -332     -333     -348     -371     -388     -398 
    -425     -470     -507     -537     -564     -583     -603     -618 
    -624     -640     -668     -689     -695     -700     -695     -673 
    -654     -640     -629     -624     -618     -619     -625     -613 
    -601     -605     -601     -594     -587     -575     -579     -585 
    -573     -566     -561     -545     -520     -483     -460     -456 
    -449     -432     -413     -399     -390     -374     -357     -343 
    -325     -301     -274     -252     -234     -222     -214     -211 
    -212     -216     -218     -224     -245     -262     -268     -275 
    -285     -302     -323     -338     -355     -374     -373     -365 
    -366     -374     -383     -400     -422     -436     -436     -423 
    -416     -429     -446     -463     -483     -494     -494     -485 
    -471     -472     -481     -479     -466     -456     -443     -425 
    -404     -391     -398     -408     -409     -422     -433     -418 
    -408     -412     -410     -413     -432     -450     -468     -487 
    -503     -513     -512     -517     -537     -557     -570     -579 
    -583     -584     -583     -585     -590     -598     -617     -633 
    -640     -647     -662     -684     -706     -733     -766     -796 
    -820     -836     -842     -847     -851     -848     -837     -829 
    -823     -808     -780     -756     -739     -713     -690     -668 
    -641     -615     -586     -557     -543     -536     -519     -491 
    -461     -433     -419     -413     -397     -386     -390     -386 
    -376     -369     -362     -357     -355     -351     -351     -364 
    -385     -398     -411     -435     -460     -479     -495     -517 
    -556     -610     -658     -691     -719     -749     -774     -800 
    -831     -854     -876     -904     -932     -956     -977     -995 
   -1016    -1037    -1049    -1053    -1048    -1036    -1018    -1002 
