Origin Time       2024/04/02 04:24:00
Lat.              40.133
Long.             141.712
Depth. (km)       71
Mag.              6.0
Station Code      KNG202
Station Lat.      34.7396
Station Long.     139.8393
Station Height(m) -2339
Record Time       2024/04/02 04:27:00
Sampling Freq(Hz) 100Hz
Duration Time(s)  60
Dir.              N-S
Scale Factor      2000(gal)/6182761
Max. Acc. (gal)   2.174
Last Correction   2024/04/02 04:27:01
Memo.             
[...]
     308      307      274      210      174      206      286      370 
     426      468      490      465      434      447      487      544 
     619      680      696      660      587      518      502      569 
     717      918     1119     1254     1274     1182     1022      851 
     725      691      755      842      862      773      615      451 
     296      158      105      175      315      440      481      399 
     251      155      200      393      632      777      770      658 
     545      530      632      798      927      931      818      649 
     479      370      323      293      289      337      429      535 
     626      700      771      825      827      751      595      425 
     325      326      403      517      641      771      884      907 
     794      607      443      363      385      482      615      748 
     857      917      902      822      742      699      661      603 
     538      482      478      543      622      632      531      378 
     276      263      319      423      533      602      587      469 
     303      183      176      280      418      496      481      395 
     290      233      268      389      570      751      848      854 
     807      730      676      676      695      711      734      765 
     801      852      917      985     1065     1181     1286     1295 
    1205     1083      987      935      903      840      722      595 
     538      592      727      869      935      877      734      613 
     595      691      849     1014     1141     1182     1099      898 
     652      439      312      294      336      359      354      341 
     319      325      385      454      517      613      745      855 
     903      886      815      720      649      605      558      466 
     310      147       60       90      217      338      389      401 
     405      430      528      685      824      890      885      847 
     834      863      871      825      762      707      701      758 
     803      801      771      711      619      478      300      193 
     233      381      558      684      734      713      615      483 
     396      395      474      571      613      593      549      517 
     503      514      545      570      589      643      727      795 
     831      864      935     1047     1154     1205     1156      998 
     781      574      409      297      246      251      301      364 
     378      328      280      297      381      502      618      681 
     674      644      675      796      944     1044     1082     1072 
    1023      954      874      758      595      432      331      316 
     377      483      578      614      594      560      551      565 
     572      581      605      626      639      663      716      771 
     744      607      445      343      297      248      172      112 
     147      332      626      924     1142     1233     1164      961 
     746      655      716      856      979     1033      990      851 
     658      433      177      -66     -202     -165       -4       95 
      39      -26       12      115      249      359      386      346 
     251      139       94      154      307      491      621      674 
     666      624      587      586      629      713      849     1019 
    1155     1184     1105      979      882      876      956     1062 
    1131     1149     1162     1166     1086      901      672      480 
     366      323      347      425      534      650      729      738 
     701      664      663      709      786      838      807      701 
     601      582      633      675      642      530      424      401 
     432      442      434      487      623      759      830      843 
     833      827      836      838      796      716      628      567 
     568      608      623      622      665      756      857      926 
     925      885      887      952     1021     1025      911      672 
     407      228      178      243      343      393      381      341 
     276      178       59      -37      -75        8      274      601 
     840     1000     1046      959      827      647      452      385 
     480      660      796      781      630      447      309      231 
     181      149      167      237      313      369      398      392 
     353      278      161       30     -103     -220     -233      -87 
     162      429      600      598      476      305      178      187 
     272      371      482      598      705      777      805      784 
     723      712      807      936     1046     1139     1180     1122 
     955      687      376      142       93      236      509      828 
    1087     1195     1129      951      765      650      624      648 
     678      709      775      866      918      896      807      681 
     573      535      612      782      951     1064     1129     1146 
    1125     1082     1001      885      800      818      917     1009 
    1065     1112     1157     1166     1095      937      746      573 
     440      370      376      445      576      729      791      693 
     515      366      266      165       19     -155     -247     -162 
       7       91       87       83      129      204      256      333 
     515      786     1091     1345     1439     1324     1086      875 
     739      651      635      711      834      965     1096     1201 
    1236     1207     1166     1150     1160     1142     1027      797 
     491      219       97      150      324      555      778      919 
     936      830      656      497      406      386      409      442 
     466      475      493      553      628      654      620      540 
     438      367      379      463      528      490      380      319 
     407      647      932     1158     1308     1333     1159      817 
     461      269      311      493      666      755      766      698 
     548      388      305      323      417      537      621      633 
     580      498      443      438      459      484      493      466 
     401      305      186       51      -51      -19      161      344 
     414      406      371      334      366      471      601      771 
     968     1129     1233     1304     1341     1276     1059      744 
     448      278      256      287      295      294      306      344 
     436      569      681      727      697      585      401      198 
      54       29      137      360      672     1003     1264     1411 
    1420     1283     1069      883      746      640      565      506 
     465      458      465      415      244        5     -133      -52 
     263      678      960     1047      975      762      594      665 
     989     1441     1814     1969     1873     1559     1117      626 
     189      -36       18      271      569      749      732      530 
     207      -92     -260     -288     -220     -151      -85      105 
     415      738     1053     1332     1520     1607     1555     1344 
    1058      793      564      362      194       60      -60     -169 
    -261     -364     -500     -619     -643     -547     -296      142 
     634      993     1205     1335     1337     1180      988      876 
     869      936      997     1025     1036     1005      885      686 
     480      324      240      200      170      181      274      426 
     547      552      467      389      370      449      644      888 
    1114     1324     1489     1539     1467     1300     1080      888 
     759      637      473      286      160      181      295      360 
     316      227      203      280      407      546      724      962 
    1194     1295     1172      825      374      -33     -288     -290 
     -15      346      536      527      444      366      343      426 
     612      870     1138     1276     1205      996      774      610 
     498      445      485      622      798      924      931      822 
     684      619      640      689      729      780      893     1105 
    1369     1560     1583     1459     1247      954      608      289 
      46     -134     -289     -452     -627     -776     -799     -638 
    -341       72      576     1055     1419     1637     1679     1553 
    1381     1293     1335     1440     1439     1210      792      336 
       2     -118      -48       11     -180     -573     -908    -1109 
   -1161     -949     -520      -15      518      947     1139     1181 
    1193     1202     1226     1234     1166     1069      992      909 
     755      454       -8     -472     -698     -596     -293       95 
     525      849      985     1028      982      835      709      709 
     924     1373     1878     2155     1990     1399      616     -123 
    -637     -769     -500        9      568      959      946      497 
    -229     -917    -1084     -506      584     1796     2710     3024 
    2737     2017     1175      586      370      430      632      813 
     884      846      728      600      542      606      816     1182 
    1689     2223     2610     2770     2752     2614     2374     2008 
    1430      595     -359    -1159    -1638    -1901    -2148    -2334 
   -2263    -1857    -1130     -240      503      928     1087     1216 
    1569     2135     2710     3073     3064     2698     2056     1193 
     251     -584    -1137    -1310    -1224    -1097    -1059    -1184 
   -1426    -1621    -1655    -1453     -985     -337      383     1050 
    1542     1951     2437     2937     3280     3332     2992     2330 
    1553      830      273      -49      -85      157      497      658 
     564      384      301      428      765     1163     1514     1723 
    1608     1094      307     -514    -1086    -1211     -943     -517 
     -76      316      579      766     1039     1410     1764     2063 
    2317     2464     2402     2053     1431      649     -116     -675 
    -943    -1025    -1157    -1442    -1746    -1916    -1848    -1513 
   -1028     -526      -52      425      941     1496     2086     2619 
    2933     3056     3115     3130     3056     2752     2053      986 
    -210    -1260    -1963    -2243    -2126    -1634     -832       51 
     751     1050      864      445      139       89      360      952 
    1734     2509     2971     2847     2171     1275      558      274 
     449      873     1160      964      138    -1166    -2468    -3285 
   -3438    -2958    -1981     -805      287     1111     1517     1601 
    1727     2145     2868     3644     4004     3654     2697     1393 
       1    -1190    -1879    -1878    -1235     -116     1227     2321 
    2690     2241     1215       65     -638     -562      171     1148 
    1924     2234     1989     1261      426      -72     -127      118 
     461      664      637      447       81     -432     -891    -1051 
    -674      302     1632     2768     3155     2672     1575      280 
    -744    -1252    -1243     -923     -626     -482     -427     -352 
     -61      538     1286     1934     2294     2263     1874     1375 
    1030      966     1190     1491     1531     1145      387     -536 
   -1316    -1676    -1554    -1091     -467      144      583      831 
     983     1133     1318     1534     1791     2025     2083     1832 
    1234      448     -269     -742     -883     -742     -429      152 
    1094     2099     2733     2737     1992      663     -770    -1862 
   -2335    -2097    -1334     -377      443      883      937      808 
     691      632      608      652      773      940     1126     1269 
    1266     1047      609        4     -631    -1028     -992     -619 
    -146      302      673     1037     1624     2432     3065     3126 
    2488     1310       35     -861    -1118     -727       82     1007 
    1830     2409     2738     2907     3009     3177     3473     3822 
    4041     3795     2761      879    -1534    -3771    -5100    -5200 
   -4199    -2478     -545     1106     2138     2423     2121     1560 
     961      505      353      517      933     1483     1934     2028 
    1672      989      212     -410     -708     -728     -747    -1016 
   -1482    -1895    -1994    -1564     -620      563     1648     2337 
    2459     2015     1108       58     -608     -612     -161      245 
     194     -253     -668     -715     -335      391     1342     2253 
    2827     2919     2485     1668      825      277      274      911 
    1910     2800     3248     3171     2698     1990     1136      237 
    -575    -1182    -1538    -1690    -1596    -1084     -112     1129 
    2364     3280     3611     3251     2285     1046     -114    -1038 
   -1601    -1713    -1404     -709      242     1117     1643     1780 
    1583     1083      337     -481    -1182    -1665    -1891    -1812 
   -1275     -257      920     1820     2138     1855     1239      583 
     125       -8      104      336      609      855     1047     1183 
    1227     1141      942      697      429       93     -336     -735 
    -838     -521       54      628      945      880      617      378 
     287      524     1180     2140     3129     3767     3803     3200 
    2078      780     -286     -901    -1053     -929     -865    -1030 
   -1376    -1828    -2173    -2061    -1289       99     1909     3787 
    5287     6083     5965     4877     3119     1126     -806    -2444 
   -3636    -4360    -4650    -4556    -4211    -3793    -3319    -2630 
   -1507      214     2434     4694     6443     7322     7111     5742 
    3550     1176     -742    -1733    -1697     -993     -131      532 
     759      465     -116     -661     -992     -953     -462      411 
    1447     2205     2364     1971     1223      472      121      246 
     647     1096     1451     1685     1826     1845     1649     1187 
     526     -137     -567     -649     -385      172      915     1629 
    1993     1821     1216      514      125      207      620     1135 
    1496     1529     1237      721      102     -532    -1058    -1246 
    -994     -412      266      636      386     -316    -1025    -1388 
   -1248     -649      248     1206     1906     2194     2141     1826 
    1325      707       33     -493     -588     -153      571     1162 
    1374     1230      906      624      514      502      427      298 
     312      625     1189     1766     2126     2243     2212     2098 
    1921     1711     1512     1328     1111      809      367     -244 
    -871    -1205    -1127     -773     -270      261      623      766 
     857     1055     1329     1515     1454     1106      621      160 
    -249     -579     -736     -647     -332      153      627      770 
     504      -29     -720    -1315    -1515    -1268     -609      373 
    1388     2169     2692     3070     3386     3666     3849     3715 
    3055     1903      507     -814    -1782    -2244    -2231    -1821 
   -1007      124     1302     2218     2624     2500     2019     1307 
     478     -338    -1013    -1393    -1494    -1496    -1445    -1244 
    -862     -317      309      837     1170     1395     1619     1803 
    1932     2095     2290     2477     2662     2765     2672     2370 
    1904     1324      676       24     -526     -821     -780     -556 
    -396     -356     -345     -147      450     1269     1914     2235 
    2261     2051     1743     1381      885      311     -141     -316 
    -195       59      181       96       -1      -21      -96     -243 
    -357     -425     -486     -566     -749    -1130    -1705    -2342 
   -2789    -2757    -2127    -1034      241     1377     2122     2431 
    2426     2193     1767     1237      730      394      309      412 
     600      813     1000     1140     1226     1224     1080      747 
     231     -318     -630     -493       76      826     1508     2009 
    2334     2539     2665     2729     2723     2603     2353     1993 
    1561     1062      423     -392    -1246    -1862    -1998    -1623 
    -914     -198      185      153      -84     -134      302     1071 
    1821     2368     2519     2101     1248      232     -744    -1457 
   -1719    -1539    -1074     -520      -71      179      321      521 
     960     1676     2494     3229     3677     3633     3074     2130 
    1018        2     -739    -1125    -1156     -924     -491      148 
     832     1260     1342     1256     1169     1101     1094     1260 
    1630     2055     2226     1926     1231      401     -322     -830 
   -1154    -1367    -1503    -1483    -1247     -911     -576     -234 
     126      466      670      680      565      377      226      283 
     616     1258     2156     3023     3514     3433     2790     1797 
     763      -90     -661     -919     -928     -832     -699     -493 
    -262     -122     -147     -384     -717     -865     -612      119 
    1210     2264     2892     3007     2695     2083     1342      532 
    -344    -1174    -1788    -2071    -2037    -1738    -1237     -700 
    -243      158      552     1023     1643     2377     3077     3612 
    3872     3706     3106     2309     1593     1078      684      303 
    -116     -590    -1051    -1449    -1811    -1957    -1544     -532 
     810     2094     2891     3005     2540     1676      720       21 
    -296     -220      174      536      546      226     -330    -1032 
   -1581    -1761    -1622    -1144     -294      794     1931     2851 
    3371     3558     3504     3241     2770     2035     1055       25 
    -738     -935     -507      268     1028     1548     1708     1527 
    1114      617      299      330      640     1095     1576     1983 
    2209     2087     1479      417     -839    -1872    -2269    -1874 
    -922      188     1089     1531     1569     1431     1206      941 
     791      832     1024     1330     1668     1900     1923     1729 
    1366      897      434      100       -4      164      512      813 
     865      648      300       40       89      504     1142     1759 
    2092     2050     1790     1482     1173      886      681      580 
     455       77     -680    -1661    -2496    -2934    -2950    -2626 
   -2117    -1581    -1168    -1024    -1054     -948     -440      583 
    1980     3329     4206     4424     3970     2984     1777      664 
    -112     -390     -197      227      498      343     -153     -729 
   -1124    -1128     -714       92     1214     2299     2971     3077 
    2560     1573      512     -304     -767     -898     -931    -1195 
   -1745    -2338    -2703    -2625    -2014     -962      418     1966 
    3388     4396     4841     4713     4159     3457     2791     2220 
    1737     1230      601     -132     -868    -1440    -1741    -1820 
   -1730    -1497    -1262    -1150    -1092     -929     -499      276 
    1309     2402     3358     4018     4220     3942     3392     2784 
    2190     1523      626     -507    -1636    -2415    -2634    -2324 
   -1615     -696      200      866     1078      769      192     -337 
    -545     -179      683     1664     2480     2979     3058     2738 
    2163     1518      966      607      422      309      217      156 
      87      -25     -122      -95      136      533      998     1479 
    1816     1757     1313      711      164     -199     -407     -536 
