Origin Time       2024/04/02 04:24:00
Lat.              40.133
Long.             141.712
Depth. (km)       71
Mag.              6.0
Station Code      KNG203
Station Lat.      34.7983
Station Long.     139.6435
Station Height(m) -902
Record Time       2024/04/02 04:26:58
Sampling Freq(Hz) 100Hz
Duration Time(s)  60
Dir.              N-S
Scale Factor      2000(gal)/6182761
Max. Acc. (gal)   1.248
Last Correction   2024/04/02 04:26:59
Memo.             
[...]
    -452     -486     -387     -239      -87       86      224      233 
      95     -143     -392     -612     -827     -974     -949     -745 
    -481     -329     -372     -535     -654     -581     -283       71 
     222      101     -135     -284     -238      -50      107      134 
      87       27      -10       27      144      301      448      512 
     476      390      296      184       62      -32     -105     -175 
    -216     -211     -153       -6      250      525      626      479 
     225       53       65      215      357      406      389      361 
     344      347      351      348      339      311      281      303 
     378      439      415      311      216      244      427      635 
     713      656      548      475      505      629      754      767 
     654      506      391      314      249      163       58      -32 
     -65      -29       46      113      110        9     -129     -218 
    -235     -222     -223     -224     -167      -14      211      426 
     545      529      400      240      138      138      229      313 
     285      139      -31     -121     -111      -62      -47      -98 
    -159     -156     -104      -36       24       16      -89     -266 
    -424     -475     -435     -373     -338     -370     -469     -527 
    -404     -112      136      165       18     -170     -301     -291 
    -100      219      539      709      636      342      -28     -262 
    -240      -50      124      165       76      -74     -236     -350 
    -358     -324     -338     -373     -402     -467     -549     -583 
    -479     -194      119      264      212       98       96      219 
     297      178     -114     -427     -604     -556     -362     -167 
      34      300      581      763      788      679      520      412 
     383      410      481      594      735      826      784      606 
     358      130        7       56      228      398      502      539 
     563      624      655      598      530      554      666      720 
     545      175     -168     -300     -198      -14       63      -21 
    -202     -431     -633     -670     -492     -176      161      338 
     270       93      -24      -12       80      108       13     -127 
    -255     -351     -404     -428     -382     -196       83      288 
     241      -38     -320     -404     -244        2      126      122 
      80        2     -118     -198     -100      176      405      455 
     417      355      263      156       53        9       69      180 
     253      243      181      161      205      230      190       98 
     -36     -165     -175        0      220      256       86     -114 
    -172      -11      274      464      469      349      164      -28 
    -193     -293     -288     -244     -252     -285     -230      -14 
     280      476      482      309       38     -172     -196      -48 
     145      271      319      317      276      252      239      177 
      89       11      -47      -60       -6      108      236      367 
     489      511      426      310      199      123      116      128 
      72        2       34      157      304      399      383      310 
     252      211      193      246      402      547      489      213 
    -147     -447     -563     -462     -239       -7      179      277 
     251      124      -48     -189     -220     -185     -136      -28 
      70       73       32      -22      -87     -128     -175     -278 
    -377     -346     -187      -34       44       36      -61     -137 
    -112       -1      156      252      283      355      447      475 
     329      -30     -368     -449     -332     -220     -208     -245 
    -263     -252     -249     -244     -142       86      313      437 
     480      481      449      398      350      274      156       34 
     -89     -228     -396     -578     -653     -537     -289       -3 
     205      241      137      -31     -171     -162       15      257 
     399      319      110      -84     -184     -139      -24       17 
     -76     -243     -358     -323     -131       79      146       69 
     -49     -148     -282     -500     -655     -558     -196      225 
     442      434      407      435      383      176      -47      -78 
     144      508      804      849      620      274       52      102 
     363      660      800      701      471      292      252      265 
     202      117      156      309      441      446      284       24 
    -192     -277     -209       -3      238      386      414      333 
     156        9       23      188      389      495      434      168 
    -257     -642     -798     -710     -501     -274      -66       34 
    -116     -487     -830     -903     -677     -339      -69       44 
     -81     -419     -739     -830     -698     -528     -460     -468 
    -458     -376     -234      -95      -17      -18      -40        4 
     100      235      473      732      835      734      516      343 
     313      358      375      346      327      335      314      259 
     224      203      135       16      -73     -102     -103      -51 
      69      209      302      315      307      338      357      277 
      97      -88     -152      -71       34       51       18       10 
      -4      -49      -46       50      194      288      277      216 
     174      217      375      572      728      786      724      625 
     526      424      388      451      536      531      407      246 
     121       48       29       66      155      288      396      396 
     309      242      247      263      220      112      -60     -263 
    -394     -404     -349     -289     -203      -47       99      109 
     -28     -232     -382     -390     -270      -93       97      262 
     379      474      542      520      370      150       14       38 
     172      301      312      226      134       68       33      -11 
     -67      -77      -36       26       51       43       77      138 
     171      190      224      324      443      424      213      -87 
    -309     -322     -134       85      174      190      245      264 
     149      -64     -309     -497     -501     -307      -52      147 
     220      112     -106     -287     -392     -451     -504     -526 
    -469     -417     -447     -493     -509     -455     -298      -83 
     119      239      267      248      176       39      -91     -116 
     -12      155      295      345      280      145       41      -13 
    -105     -235     -285     -241     -194     -146      -62       12 
      71      178      319      381      291      148       91      125 
     172      180      183      279      431      440      193     -185 
    -409     -275      130      517      650      502      252      120 
     200      441      691      790      694      466      228       83 
      45       78      127      169      272      465      647      652 
     446      209      113      176      333      546      824     1074 
    1105      859      466      161      105      213      283      249 
     147       21     -135     -333     -435     -268       85      351 
     394      312      213      116       44      -16      -87     -150 
    -188     -163      -75      -23      -71     -183     -263     -281 
    -323     -383     -383     -363     -443     -627     -703     -480 
     -68      241      273       91     -125     -248     -225      -87 
      63      135       23     -328     -695     -749     -425      -25 
      78     -145     -380     -346      -84      145      194      138 
      97       86       16     -177     -423     -564     -489     -246 
       0      150      182       92      -75     -300     -514     -607 
    -580     -429     -149       85       94      -97     -384     -660 
    -775     -635     -289       87      304      335      301      290 
     285      242      198      197      218      180       63      -36 
     -23      163      479      687      628      384      158      119 
     228      308      286      224      230      354      511      566 
     479      323      215      238      393      557      540      334 
     176      194      254      232      189      232      337      403 
     388      338      323      351      351      292      261      349 
     499      593      588      529      488      487      482      432 
     371      355      392      481      577      604      560      499 
     441      397      379      408      488      557      498      221 
    -240     -680     -907     -951     -954     -962     -928     -843 
    -775     -758     -694     -474     -159       47       40      -80 
    -174     -224     -306     -416     -432     -327     -236     -273 
    -388     -441     -392     -340     -376     -465     -501     -437 
    -303     -134       58      296      536      612      398      -23 
    -384     -492     -412     -305     -210      -75       57       75 
     -13     -126     -190     -160      -64       24       67       52 
       2      -14        8       22       -7     -127     -304     -423 
    -418     -279      -33      230      409      533      704      850 
     790      551      323      230      280      346      320      260 
     232      209      127      -50     -204     -172       12      151 
     190      264      410      531      604      701      892     1124 
    1216     1059      744      484      383      323      193       59 
       3       28       93      127       55     -120     -302     -387 
    -321     -108      209      546      800      944      985      912 
     794      713      623      430      115     -193     -367     -419 
    -385     -299     -222     -188     -186     -181     -131      -37 
     104      299      485      561      468      247       17     -157 
    -225     -117       62      118       59       33       38      -96 
    -381     -605     -610     -441     -246     -114      -59     -106 
    -274     -482     -563     -398      -63      162        4     -506 
   -1000    -1169    -1029     -756     -480     -244      -18      197 
     315      331      383      581      882     1124     1180     1064 
     893      693      385      -45     -501     -818     -882     -773 
    -658     -609     -606     -594     -569     -540     -429     -187 
     122      440      766     1063     1256     1351     1404     1348 
    1028      438     -222     -692     -853     -841     -839     -814 
    -648     -392     -170      -34       18       76      280      680 
    1156     1454     1382      946      306     -292     -653     -678 
    -415      -54      212      206      -95     -422     -500     -317 
     -30      214      373      473      498      452      432      538 
     708      746      519       59     -406     -625     -591     -427 
    -140      305      791     1067      959      484     -135     -577 
    -646     -347      213      856     1364     1575     1413      900 
     212     -379     -728     -906    -1061    -1295    -1558    -1657 
   -1507    -1233     -980     -787     -589     -296       33      231 
     284      386      739     1285     1770     2036     2059     1854 
    1407      685     -207     -963    -1248    -1043     -643     -321 
    -154      -73        2       72      156      372      774     1173 
    1227      819      260      -11       92      301      387      356 
     341      436      589      652      582      478      420      447 
     526      484      263       36      -26       31      -65     -464 
    -997    -1429    -1691    -1800    -1760    -1629    -1478    -1242 
    -812     -234      314      592      496      224       57      129 
     443      870     1227     1384     1250      785       99     -566 
   -1047    -1322    -1445    -1487    -1439    -1275    -1075     -946 
    -849     -587      -57      473      617      374      145      298 
     869     1579     2099     2287     2236     2077     1761     1171 
     324     -577    -1224    -1470    -1444    -1310    -1096     -840 
    -648     -476     -105      498     1078     1421     1495     1308 
     887      335     -180     -446     -327      -27       70     -181 
    -626    -1039    -1306    -1391    -1221     -804     -202      515 
    1164     1617     1891     1908     1542      835       23     -524 
    -556     -171      195      170      -97     -192       31      433 
     730      681      299     -244     -728     -897     -704     -335 
      73      474      838     1141     1254      950      189     -742 
   -1430    -1624    -1358     -782       55     1044     1790     1898 
    1343      461     -332     -858    -1242    -1697    -2244    -2686 
   -2854    -2693    -2184    -1321     -165     1076     2059     2482 
    2347     1955     1599     1333     1072      828      653      435 
      23     -484     -870    -1066    -1093     -917     -528        3 
     542      910      964      806      701      721      724      592 
     377      187       16     -192     -422     -564     -429      107 
     913     1592     1756     1367      752      286       59     -123 
    -403     -621     -534     -116      485     1075     1452     1460 
    1023      264     -483     -959    -1154    -1184    -1138    -1082 
   -1087    -1149    -1114     -792     -193      390      652      595 
     438      301      231      386      879     1575     2148     2226 
    1546      131    -1645    -3148    -3793    -3440    -2412    -1113 
     116      958     1267     1189     1070     1140     1313     1370 
    1173      715      102     -618    -1540    -2585    -3325    -3239 
   -2149     -519      814     1279      914      267     -118      -68 
     335      863     1194     1140      795      382       97       13 
     118      416      870     1289     1377      950      127     -708 
   -1134     -970     -361      361      929     1272     1467     1551 
    1368      817       81     -553     -878     -904     -817     -731 
    -624     -464     -298     -148       16       83     -121     -541 
    -933    -1018     -649      -24      510      851     1114     1373 
    1566     1670     1771     1829     1566      748     -507    -1739 
   -2490    -2637    -2322    -1677     -799      107      777     1105 
    1277     1607     2188     2816     3156     2927     2116      997 
     -87     -836    -1092     -935     -526       59      642      849 
     531       12     -302     -416     -751    -1531    -2200    -1874 
    -348     1569     2725     2644     1805      946      423      213 
     201      309      390      246     -211     -910    -1609    -1945 
   -1621     -552      959     2215     2601     2028      948      101 
      15      584     1213     1388     1058      504      -31     -583 
   -1304    -2102    -2574    -2332    -1400     -343      104     -376 
   -1453    -2348    -2368    -1464     -253      516      663      639 
     772      941      999      992     1011      961      571     -310 
   -1488    -2504    -2944    -2649    -1753     -694        4      175 
     140      338      841     1235     1102      544      -34     -482 
   -1004    -1719    -2409    -2656    -2163    -1022      386     1633 
    2205     1762      602     -494     -856     -359      537     1162 
    1208      846      354     -126     -498     -632     -451      -47 
     332      453      247     -156     -533     -758     -825     -856 
    -999    -1140     -975     -397      392     1090     1528     1783 
    2055     2383     2612     2491     1894     1043      271     -274 
    -607     -784     -803     -679     -507     -362     -182      188 
     707     1080     1089      813      565      589      800      879 
     586       -8     -593     -881     -764     -343      176      557 
     583      304       70      167      595     1103     1348     1137 
     577        9     -299     -409     -644    -1256    -1967    -2028 
    -970      860     2501     3095     2510     1237     -127    -1134 
   -1504    -1220     -615     -177     -179     -462     -593     -323 
     194      674      959      938      512     -206     -785     -848 
    -431      130      464      426      234      288      702     1045 
     795      -67    -1078    -1782    -2052    -1989    -1673    -1133 
    -500       39      365      374       82     -280     -460     -347 
     -63       86      -75     -407     -582     -355      229      934 
    1453     1527     1125      387     -529    -1437    -2067    -2061 
   -1182      322     1699     2224     1803      968      300       16 
      20      170      446      843     1274     1634     1816     1730 
    1384      949      652      549      422      -13     -756    -1545 
   -2162    -2474    -2313    -1461      142     2065     3431     3513 
    2377      810     -420    -1098    -1437    -1602    -1518    -1052 
    -260      536      959      884      500      136       75      433 
    1047     1508     1462      941      340       48      161      511 
     817      878      654      165     -555    -1352    -1892    -1866 
   -1334     -661     -180      -67     -306     -735    -1191    -1528 
   -1572    -1245     -760     -451     -428     -633     -980    -1256 
   -1211     -793     -142      593     1296     1791     1861     1472 
     904      560      673     1130     1551     1643     1468     1232 
     919      351     -496    -1366    -1789    -1425     -456      551 
    1022      636     -443    -1690    -2627    -3005    -2852    -2405 
   -1770     -869      294     1501     2398     2727     2458     1779 
    1011      307     -360     -877    -1013     -664       46      778 
    1122      928      455       17     -318     -628     -979    -1282 
   -1370    -1184     -795     -328      150      590      838      753 
     417      105       63      343      859     1487     1996     2143 
    1882     1318      688      360      537     1050     1477     1417 
     707     -463    -1648    -2424    -2611    -2276    -1628     -902 
    -225      383      875     1207     1393     1329      888      294 
      60      460     1266     1944     2043     1524      701     -116 
    -737     -955     -670     -138      155      -71     -595     -939 
    -868     -499      -97      176      393      728     1209     1593 
    1603     1268      798      329      -77     -453     -888    -1321 
   -1547    -1393     -845     -200       83     -197     -799    -1242 
   -1270    -1020     -646     -159      347      629      459     -169 
   -1009    -1722    -2057    -1936    -1381     -520      282      573 
     228     -430     -889     -823     -302      343      797      929 
     728      199     -487     -908     -796     -386       31      462 
     793      720      200     -488     -971     -981     -530      143 
     793     1307     1630     1674     1443     1123      971     1094 
    1290     1262      940      434     -103     -471     -537     -340 
       3      355      596      740      888     1041     1076      875 
     383     -306     -873    -1039     -839     -521     -300     -172 
      70      596     1327     1939     2076     1617      756     -221 
   -1121    -1843    -2325    -2455    -2081    -1187      -79      743 
