Origin Time       2024/04/02 04:24:00
Lat.              40.133
Long.             141.712
Depth. (km)       71
Mag.              6.0
Station Code      MYG003
Station Lat.      38.7349
Station Long.     141.3116
Station Height(m) 32
Record Time       2024/04/02 04:25:02
Sampling Freq(Hz) 100Hz
Duration Time(s)  110
Dir.              U-D
Scale Factor      7845(gal)/8223790
Max. Acc. (gal)   15.388
Last Correction   2024/04/02 04:25:01
Memo.             
[...]
  -11341   -11619   -12456   -12638   -12482   -12279   -10914    -9339 
  -10247   -12617   -12931   -10805    -8677    -8908   -11619   -14239 
  -14926   -14154   -12133    -9624    -9585   -11188   -10014    -8183 
   -9880   -12175   -12735   -13497   -13394   -10669    -9078   -11368 
  -13296   -12606   -12270   -11734    -9724    -9213   -10629   -11246 
  -11163   -12424   -13817   -12426   -10393   -10755   -11156   -10810 
  -12317   -13765   -11853    -9315    -9601   -10925   -11021   -10858 
  -12202   -14404   -13567    -9652    -8989   -12270   -13382   -11335 
   -9707    -9697   -11196   -13759   -14164   -10782    -8657   -11377 
  -14138   -13039   -11254   -11178   -11288   -11155   -11970   -13063 
  -12302   -10494   -10646   -12594   -13537   -12645   -11211   -10593 
  -11055   -10582    -8854    -9803   -12893   -12775   -10712   -11047 
  -11925   -11515   -11948   -12235   -10646   -10990   -14229   -14532 
  -10845    -8600    -9747   -11562   -12082   -11705   -11219   -10412 
   -9512    -9541   -10608   -11962   -12541   -12324   -12463   -11769 
   -9571    -9979   -13522   -14156   -10895    -9437   -11308   -12522 
  -11974   -11834   -11871   -11655   -12291   -11938    -9398    -8542 
  -10729   -12615   -12899   -12283   -11033   -10087   -10597   -12155 
  -13258   -13147   -12343   -11318   -10165    -9822   -10498   -11090 
  -11831   -13109   -13157   -11101    -9319    -9394   -11090   -13976 
  -15377   -13165    -9683    -8459   -10193   -13100   -14829   -13282 
   -9942    -9617   -11958   -12307   -10723   -10143   -11198   -12494 
  -12577   -11693   -10605   -10454   -11531   -11921   -12109   -12550 
  -11269   -10199   -11288   -11611   -10130   -10397   -13462   -14274 
  -11136    -9327   -10017    -9981   -10062   -11975   -14091   -14489 
  -12572    -9593    -8499   -10335   -12704   -12966   -11631   -11105 
  -11599   -11828   -11685   -10997    -9909   -10241   -12133   -13209 
  -12270   -10426    -9659   -10246   -11099   -12556   -14226   -14000 
  -11790   -10062   -10322   -11427   -11913   -11535   -11218   -11884 
  -11780    -9690    -8961   -11362   -13366   -13100   -12405   -11346 
   -9937   -10687   -12748   -13354   -13185   -12422   -11137   -11264 
  -11878   -10874    -9462    -9620   -10536   -11252   -12505   -12544 
  -10671   -10706   -12791   -13394   -12278   -10677    -9000    -8467 
  -10147   -13066   -15268   -15094   -11699    -7682    -7831   -11259 
  -12457   -11140   -10855   -12129   -13563   -13582   -11438    -8862 
   -8738   -12039   -15130   -13795    -9873    -8120   -10264   -13597 
  -13811   -11522   -10247   -10168   -11037   -12623   -12977   -11763 
  -10581   -11481   -13802   -14014   -11543    -8329    -7335   -11083 
  -15411   -14292   -10525   -10112   -11128   -10199   -10828   -13648 
  -13239   -10211    -9942   -11493   -11302   -10513   -10511   -10752 
  -11221   -11545   -12486   -14469   -13938   -10413    -9208   -10693 
  -10354    -9062   -10392   -12896   -13286   -12214   -11550   -11128 
  -11421   -11954   -11007   -10369   -11503   -12538   -12603   -12133 
  -11223   -10417   -10864   -12243   -12571   -11821   -11726   -11952 
  -11824   -11920   -11360    -9748    -9332   -11134   -12638   -12380 
  -12105   -11017    -8802   -10362   -14674   -14401   -10172    -8536 
  -10930   -13076   -12460   -11554   -12021   -12702   -11982    -9558 
   -9005   -12285   -14947   -13768   -10524    -7647    -6990    -9805 
  -14145   -15450   -12178    -8699    -9705   -12847   -13215   -12077 
  -12228   -12403   -12189   -12376   -11396    -9497   -10204   -13108 
  -13622   -10546    -7566    -8050   -10949   -13261   -13629   -12474 
  -11884   -12727   -13231   -12101    -9613    -8199   -10570   -14636 
  -14812   -10513    -7801    -9030   -10731   -11750   -12825   -13197 
  -12145   -11215   -12201   -12442   -10058    -9093   -11211   -13192 
  -13763   -13776   -12814   -10470    -8853    -9516   -10812   -11128 
  -10046    -8951   -10262   -12687   -14470   -15772   -14195   -10207 
   -8785   -10039   -11273   -12750   -13602   -11572    -9239   -10544 
  -12241   -11128   -11074   -12721   -12735   -12484   -12704   -10810 
   -8367    -8764   -10968   -12942   -14466   -14185   -11186    -8874 
  -10135   -12019   -11519   -10092    -9832   -11803   -14582   -14548 
  -12055   -10010    -9105    -9774   -11824   -12811   -11619   -11088 
  -12469   -12691   -10959    -9354    -9239   -11342   -13764   -13593 
  -12150   -11322    -9903    -9294   -11682   -13625   -12306   -10216 
   -9651   -10255   -11070   -11789   -12160   -11885   -11780   -12417 
  -12673   -11456   -10077   -10997   -12744   -11848   -10110   -10624 
  -11583   -11851   -13413   -14806   -12436    -8621    -8310   -10669 
  -12476   -13204   -12754   -11950   -11773   -10656    -9788   -11703 
  -13263   -12522   -12086   -11677   -10270   -10158   -11680   -12604 
  -12596   -11443    -9439    -9740   -11496   -10912   -10266   -11372 
  -11427   -11319   -12888   -12752    -9722    -9150   -12509   -14073 
  -11731    -9212    -9458   -12387   -15018   -14571   -12190   -10309 
   -9763   -10222   -10652   -10733   -10714   -10542   -10836   -11819 
  -12779   -13157   -12398   -11129   -10594   -10620   -11202   -12357 
  -12164    -9895    -8676   -10897   -13414   -12618   -10839   -11065 
  -12271   -12808   -11993   -10231    -9089   -10612   -14339   -15414 
  -12181    -9409    -9595   -10833   -11770   -12009   -11049    -9860 
  -10970   -13706   -13825   -11249   -10116   -11302   -12630   -12981 
  -11944    -9825    -9699   -12825   -14115   -10480    -6787    -8337 
  -13170   -14779   -12328   -11419   -13421   -14065   -12436   -11568 
  -11053    -9637    -9977   -12091   -12414   -11137   -10781   -10342 
   -8916   -10108   -14359   -15585   -11939    -8877    -9516   -12048 
  -13806   -12841   -10997   -11365   -12116   -11350   -10292    -9244 
   -9969   -13726   -14716   -10156    -7720   -11115   -13836   -11958 
   -9220    -8973   -10905   -13301   -13891   -12360   -10636   -10359 
  -12152   -13629   -11245    -8013   -10053   -14308   -13556    -9790 
   -9398   -12210   -13641   -12519   -10951    -9954   -10473   -12590 
  -13251   -11306    -9710   -10091   -10848   -11016   -11234   -11009 
   -9933   -10107   -12457   -13913   -13058   -12043   -11014    -9801 
  -10331   -12225   -12769   -11487   -10895   -12050   -12965   -12205 
  -10751   -11142   -13633   -14870   -12864    -8854    -6188    -8343 
  -13228   -15431   -14281   -11700    -9279    -9134   -10840   -11931 
  -11491   -10451   -10349   -11497   -12463   -12640   -13306   -14010 
  -13135   -11759   -10647    -9663   -10552   -12733   -13275   -11848 
   -9907    -9671   -11885   -13142   -11371    -9979   -11461   -12363 
  -10150    -8966   -10891   -12071   -12055   -12059   -10481    -9761 
  -12289   -13822   -12366   -11720   -12962   -12074    -8900    -8800 
  -11817   -13176   -12445   -11477   -10496   -10015   -10242   -10478 
  -11205   -12862   -14322   -14196   -11624    -8139    -7067    -9163 
  -12657   -14993   -14050   -12009   -12330   -12695   -10203    -8181 
  -10932   -16119   -16480   -10575    -5564    -7209   -13378   -16884 
  -14089    -9468    -8511   -10678   -12117   -11260    -9852   -10323 
  -13339   -16147   -14346    -9036    -6712    -9154   -12004   -12750 
  -13041   -13791   -13073   -10604    -9028    -9240   -10266   -12225 
  -13209   -10798    -8760   -10768   -13706   -13872   -11878   -10235 
   -9598    -9664   -10605   -11380   -11484   -12120   -12945   -12792 
  -11824   -10095    -8932   -10536   -12916   -13186   -12411   -11248 
  -10033   -11406   -14076   -13012    -8912    -7483   -10393   -13728 
  -14820   -14081   -11099    -7678    -8205   -11504   -13109   -12410 
  -11048   -10532   -10843   -11090   -11986   -13616   -14003   -11925 
   -9614   -10338   -12294   -12050   -11276   -11696   -11658   -10701 
   -9410    -8796   -10787   -13813   -14836   -14459   -13302   -11161 
   -9922   -10712   -11867   -12664   -13706   -13171    -9998    -7627 
   -8743   -11263   -12194   -12075   -11971   -11001   -10833   -12926 
  -13508   -11303   -10536   -11963   -12700   -12811   -12580   -10820 
   -9057    -9312   -11121   -12698   -12156    -9504    -7582    -9300 
  -13007   -14828   -14102   -11541    -9440   -11086   -13613   -12892 
  -12158   -13487   -12877    -9991    -8883    -9953   -11022   -11337 
  -10720    -9963   -11241   -14161   -15033   -13284   -12272   -11911 
  -10191    -9167   -10469   -12050   -11700   -10026    -9459   -10066 
  -10230    -9988   -10860   -13521   -15705   -14404   -10929    -9679 
  -11044   -12764   -14176   -13429   -10524    -9166    -9958   -10860 
  -10974   -10431   -10478   -11539   -12222   -11564   -10905   -12559 
  -14774   -13385    -9586    -7921    -9609   -12447   -13738   -12901 
  -11454   -10428    -9512    -9054   -10504   -12912   -13316   -11826 
  -11009   -11079   -10044    -8853   -10755   -14439   -15245   -12163 
   -9390   -10319   -12374   -12965   -12865   -11404    -9065    -9707 
  -13360   -14083    -9618    -7311   -11869   -16017   -14625   -11511 
   -9194    -9296   -12854   -15244   -13301   -10228    -8988    -9478 
  -11034   -12406   -11585    -9690   -10380   -13020   -13891   -12762 
  -11442   -10856   -11929   -14000   -13402    -9597    -8253   -10786 
  -12033   -10689    -9861   -11049   -12447   -12376   -11807   -11620 
  -11782   -11966   -11635   -10891   -10324   -10646   -11925   -12465 
  -10611    -8548    -9909   -13248   -13961   -11826   -10307   -10366 
  -11512   -12838   -11475    -9000   -10284   -13481   -14100   -12479 
  -10651    -9497    -9738   -10801   -10986   -11286   -13236   -14463 
  -12787   -10215    -8926    -9013   -11178   -14523   -15088   -12356 
  -10255   -10444   -11213   -11835   -12085   -11256   -11244   -11874 
   -9320    -6964   -10019   -13617   -14145   -15153   -15577   -11245 
   -6227    -7007   -10380   -12187   -14067   -14632   -12866   -11275 
  -10489   -11067   -12098   -11075    -9667   -11084   -14041   -14200 
  -11272    -9429   -10299   -11948   -12783   -13077   -12444    -9628 
   -7541    -9838   -13701   -14686   -13405   -11619    -9228    -8475 
  -10831   -12136   -10632   -10813   -13910   -14752   -10984    -8012 
  -10308   -13932   -13856   -11302   -10102   -11799   -13740   -13281 
  -12255   -11614   -10403   -10157   -11476   -12529   -11670    -9101 
   -8183   -10712   -13155   -12912   -11816   -10409    -8737   -10077 
  -13325   -13339   -11561   -11882   -12804   -11767    -9639    -8275 
   -8087    -9782   -13022   -14504   -12978   -10778    -9715   -10052 
  -11090   -12353   -13830   -13595   -10320    -7535    -8718   -11691 
  -13262   -14006   -13427   -10543    -9070   -10535   -12260   -13475 
  -13736   -12622   -12060   -12798   -11604    -8448    -9275   -12889 
  -11977    -9267   -10507   -12039   -10828   -10034   -10881   -11592 
  -11484   -11032   -11464   -13157   -14030   -12827   -10497    -9157 
  -10840   -13209   -12729   -10959   -10241   -10693   -11861   -12221 
  -11276   -10270   -10106   -11977   -15196   -15132   -10783    -8592 
  -11026   -11693    -9062    -9753   -13745   -14713   -11700    -8272 
   -8804   -13914   -16939   -13764    -9305    -8827   -10903   -12440 
  -13466   -12864   -10180    -9325   -10590   -10702   -10334   -11306 
  -12934   -12461    -9312    -8009   -10701   -14135   -14557   -10558 
   -6858    -9450   -15025   -16151   -12819   -10181   -10370   -12255 
  -13339   -10785    -7203    -8918   -14528   -16133   -12112    -8934 
  -10135   -12253   -12914   -13143   -13174   -12348   -10369    -8673 
   -9216   -11223   -12915   -12939   -10812    -9217   -10220   -11681 
  -12124   -12364   -12356   -12393   -13128   -12352    -9173    -7623 
   -8905   -10111   -11769   -14364   -13927   -10071    -8352   -11151 
  -15003   -15989   -13119    -9659   -10220   -13691   -14706   -12515 
   -9918    -8580   -10054   -12602   -12511   -11680   -13259   -14913 
  -13950   -12305   -11929   -11840   -11623   -11480   -11595   -12926 
  -13984   -13119   -12424   -12222   -10837    -9543    -9917   -11110 
  -11662   -11801   -12607   -13451   -12802   -10542    -9239   -11155 
  -13849   -13871   -11909   -11389   -13281   -13733   -11110    -8777 
   -7875    -7842   -10255   -14667   -16316   -13601   -10916    -8884 
   -6138    -7233   -12339   -13717   -10107    -8496   -10422   -11102 
   -9875    -8004    -6237    -7384   -10084   -10956   -12577   -15788 
  -15822   -12549    -9319    -6184    -4926    -7102    -9065   -10139 
  -13027   -15558   -14692   -12360   -10520    -9058    -9207   -11307 
  -13201   -12951   -10629    -9281   -11402   -13724   -11616    -7686 
   -8118   -13049   -18296   -20297   -17165   -12191   -10056    -9221 
   -8149   -10531   -15996   -17462   -13185    -9964   -11545   -14897 
  -17015   -16286   -12064    -7209    -5418    -6948   -10023   -12988 
  -13886   -12193   -10056    -8588    -7411    -6998    -6596    -6558 
  -10817   -18060   -21940   -21622   -18355   -11399    -4853    -5617 
  -11623   -13203    -9783    -9682   -12960   -13377    -9855    -5259 
   -2015     -865    -2451    -7681   -13971   -16776   -15816   -13828 
  -11531   -10045   -12475   -15739   -13443    -9528   -10544   -14046 
  -16390   -16355   -14295   -12829   -11622    -9184    -7384    -9626 
  -18246   -27614   -27388   -17713    -8534    -6022    -6960    -5809 
   -2938    -1070    -1264    -5813   -12829   -14249    -9666    -8260 
  -13350   -16546   -11614    -5772    -7273   -12641   -16189   -19384 
  -23764   -24567   -17760    -7299       27     1036    -3870   -11179 
  -16816   -18345   -16333   -15013   -14839   -11626    -5306     -174 
    -187    -4919   -10266   -13279   -13346   -13664   -16185   -15627 
   -9879    -4769    -4108    -7101   -11781   -15646   -16924   -16741 
  -17518   -19241   -19300   -15711   -10721    -9067   -10446   -10269 
   -8310    -6737    -5294    -5081    -6508    -7055    -8068   -13794 
  -21809   -23824   -17302    -8012    -2822    -5576   -14505   -22315 
  -22358   -16186   -11118    -8676    -6045    -4855    -6385    -7786 
   -8236    -9389   -11160   -13360   -16888   -20110   -18805   -12758 
   -7334    -4986    -4970    -7805   -10629   -11395   -13186   -13911 
  -10181    -7713    -9691   -10351    -9679   -13510   -18096   -16869 
  -12938   -10397   -11084   -16233   -19635   -16119   -11376    -9988 
   -9277    -8183    -8880    -9845    -8051    -7423   -12517   -18785 
  -20106   -17243   -12745    -6853    -1603     -380    -3489    -7989 
  -10413   -10836   -11678   -14133   -17994   -19275   -15434   -11800 
  -12305   -14905   -16603   -14937   -10400    -6150    -5618   -11225 
  -17760   -15998    -8522    -6322   -10656   -13270   -12002   -10868 
   -9629    -8183    -8761   -10300   -12677   -15408   -14206   -10303 
   -8814    -9675   -12056   -15225   -15511   -13459   -13250   -12781 
   -9528    -8240   -10160   -10957   -10822   -10116    -7569    -8135 
  -14985   -20572   -17876    -9990    -4120    -4363   -10692   -18176 
  -18652   -11013    -3140     -406    -4588   -15052   -23032   -20291 
  -11689    -7218    -8347   -11300   -13581   -11245    -4187    -1190 
   -6439   -13284   -17089   -18819   -16957    -9918    -2976    -2404 
   -7346   -12413   -14840   -15682   -15537   -14748   -13942   -12391 
   -9629    -7404    -8768   -11117    -8355    -5024    -9923   -18411 
  -19789   -14805   -12028   -14007   -16190   -14856   -11850   -11442 
  -13923   -15523   -14107   -11605    -9821    -8602    -8220    -8453 
   -9013   -10444   -12096   -13671   -15064   -13520    -8518    -5348 
   -6288    -8006    -9663   -10908   -10532   -10962   -12796   -13929 
  -14717   -15437   -15530   -14289   -11861   -11784   -14142   -12841 
   -8108    -7422   -10428   -10984   -10706   -11902   -10354    -7064 
   -8661   -13134   -12753    -8962    -7724    -8594   -10844   -15160 
  -17940   -16399   -12646    -9401    -7198    -6720    -9200   -11558 
  -11931   -14490   -16768   -13983   -11664   -12178   -11353   -10625 
  -12997   -15931   -15213   -11651    -8058    -5240    -6390   -11290 
  -12958   -10802    -9950   -10328   -11317   -13873   -14461   -12714 
  -13524   -13876    -9583    -7626   -11300   -12926   -11248   -11160 
  -10667    -9124   -10462   -11348    -9038    -9475   -13011   -13807 
  -12339   -10894    -8476    -7303   -11038   -15384   -13203    -8673 
  -10476   -15349   -16178   -14389   -12606   -11091   -11807   -14624 
  -15279   -11672    -8374   -10161   -13683   -13190    -9725    -6982 
   -5919    -7246   -10400   -13325   -15705   -15828   -11375    -5894 
   -5904   -11920   -18019   -19901   -17181   -11488    -6820    -5995 
   -8195   -10902   -12725   -15098   -17491   -16410   -11896    -7878 
   -7574    -9618   -10326    -9701    -9952   -11649   -12553   -10841 
   -9424    -9566    -9023    -9663   -12671   -14704   -15072   -14597 
  -12667   -10466    -9173    -7060    -4446    -6466   -13481   -17899 
  -16191   -11547    -8041    -8456   -10918   -11842   -11792   -12187 
  -12671   -13086   -12788   -11151    -9626    -9042    -8920    -9564 
  -10694   -11703   -12492   -13532   -14926   -13680    -9325    -7456 
   -9393   -10831   -12152   -15634   -16926   -13262    -9807    -8046 
   -6300    -8691   -14632   -17180   -16974   -17031   -14986   -11117 
   -8716    -8561    -9670   -10633   -11499   -12253   -11168   -10554 
  -13190   -14596   -11750    -9595   -12151   -15805   -15360   -12218 
  -10654   -10631   -10544   -11654   -15110   -17849   -15620    -9344 
   -5270    -6934   -10563   -12401   -13333   -14172   -13031    -8788 
   -5907    -8338   -11051    -9531    -8704   -11674   -13387   -13352 
  -15523   -16040   -11242    -7298    -9362   -11272    -6835    -3192 
   -6500   -11407   -14580   -16591   -16002   -13606   -11686    -9548 
   -7253    -7366   -10049   -13045   -13872   -11182    -9185   -11747 
  -13599   -11149    -9445   -11121   -12699   -11778   -10038    -8588 
   -8264   -11495   -14791   -13603   -11394   -11061   -11375   -11483 
  -11005    -9259    -7217    -8972   -13768   -15156   -13976   -14135 
  -12519    -9034    -7840    -7233    -7396   -12658   -18449   -17616 
  -12764    -9742   -11217   -15785   -17929   -14697    -9871    -7784 
   -8980   -12089   -13770   -13061   -13548   -14068   -11357    -7943 
   -6119    -5653    -7184   -10980   -14998   -17103   -17552   -15383 
  -10161    -7173    -8507    -9320    -8741    -9019    -9782   -11263 
  -12996   -12845   -11927   -12378   -13416   -14918   -16853   -15384 
  -10382    -9050   -12700   -15344   -14616   -10717    -6822    -8401 
  -12113   -12197   -11793   -12586   -11138    -8414    -8338   -10253 
  -11520   -13933   -16583   -13818    -9093    -9688   -12102   -11041 
   -8176    -6774    -8235   -10789   -12452   -13490   -12803   -10107 
   -8964   -11452   -14774   -16170   -15587   -12071    -6987    -6223 
  -10255   -13950   -15704   -15375   -12125    -8716    -8461    -9101 
   -8611   -10237   -14103   -16031   -14929   -12102    -9030    -7407 
   -8533   -11119   -11165    -9535   -10713   -13419   -15326   -16726 
