Origin Time       2024/04/02 04:24:00
Lat.              40.133
Long.             141.712
Depth. (km)       71
Mag.              6.0
Station Code      MYG016
Station Lat.      38.0079
Station Long.     140.6212
Station Height(m) 49
Record Time       2024/04/02 04:25:35
Sampling Freq(Hz) 100Hz
Duration Time(s)  100
Dir.              N-S
Scale Factor      7845(gal)/8223790
Max. Acc. (gal)   4.033
Last Correction   2024/04/02 04:25:35
Memo.             
[...]
   -6952    -6967    -7326    -7535    -7312    -6882    -6666    -6916 
   -7314    -7186    -6691    -6497    -6508    -6590    -6943    -7221 
   -7159    -7069    -6917    -6608    -6629    -7071    -7295    -7138 
   -7002    -6826    -6566    -6655    -7007    -7210    -7214    -6951 
   -6663    -6782    -6970    -6907    -6906    -6971    -6929    -6863 
   -6720    -6669    -7015    -7284    -7091    -7069    -7407    -7483 
   -7119    -6619    -6424    -6696    -6887    -6727    -6744    -7087 
   -7221    -7056    -7006    -6971    -6637    -6274    -6235    -6417 
   -6462    -6268    -6309    -6816    -7184    -7040    -6669    -6365 
   -6305    -6417    -6411    -6415    -6608    -6608    -6361    -6365 
   -6552    -6562    -6474    -6484    -6744    -7114    -7099    -6777 
   -6643    -6660    -6615    -6700    -6997    -7103    -6859    -6679 
   -6806    -7026    -6993    -6640    -6559    -7059    -7327    -6928 
   -6484    -6336    -6448    -6806    -7105    -7207    -7361    -7429 
   -7148    -6909    -7191    -7696    -7697    -7161    -6909    -7230 
   -7473    -7461    -7573    -7578    -7152    -6809    -6986    -7221 
   -7056    -6733    -6705    -7025    -7238    -7083    -6907    -6955 
   -7128    -7234    -6999    -6683    -6763    -6893    -6795    -6802 
   -6994    -7231    -7339    -7254    -7388    -7776    -7751    -7354 
   -7300    -7464    -7260    -6964    -7049    -7186    -6856    -6247 
   -6160    -6826    -7271    -6847    -6358    -6386    -6350    -6115 
   -6258    -6767    -7182    -7253    -7055    -6988    -7204    -7219 
   -6817    -6453    -6474    -6801    -7074    -6937    -6552    -6342 
   -6357    -6571    -6947    -7150    -7157    -7176    -7015    -6789 
   -6903    -7032    -6760    -6471    -6627    -7002    -7083    -6984 
   -7078    -7003    -6488    -6274    -6745    -7024    -6723    -6655 
   -7009    -7149    -6921    -6559    -6322    -6386    -6469    -6358 
   -6486    -6878    -6848    -6419    -6264    -6492    -6772    -7047 
   -7358    -7396    -6895    -6458    -6843    -7524    -7446    -6868 
   -6717    -6886    -6839    -6656    -6566    -6647    -6867    -6940 
   -6820    -6906    -7299    -7604    -7427    -6859    -6590    -6886 
   -7106    -6929    -6936    -7445    -7865    -7771    -7519    -7360 
   -7125    -6893    -6893    -7063    -7233    -7218    -6994    -6848 
   -6930    -7219    -7581    -7709    -7711    -7840    -7665    -7140 
   -7061    -7453    -7680    -7670    -7674    -7758    -7767    -7607 
   -7416    -7375    -7474    -7576    -7561    -7315    -6956    -6880 
   -7111    -7411    -7722    -7776    -7322    -6897    -7045    -7263 
   -7091    -6906    -6848    -6782    -6875    -6947    -6639    -6434 
   -6606    -6432    -5962    -5977    -6296    -6481    -6567    -6427 
   -6199    -6389    -6677    -6473    -6195    -6237    -6353    -6435 
   -6350    -5952    -5717    -6087    -6588    -6615    -6207    -5748 
   -5697    -6099    -6316    -6154    -6253    -6712    -6882    -6627 
   -6265    -5988    -6057    -6354    -6342    -6178    -6338    -6620 
   -6764    -6782    -6708    -6805    -7041    -6951    -6720    -6941 
   -7429    -7492    -7024    -6602    -6671    -6968    -6987    -6810 
   -6887    -7186    -7202    -6733    -6253    -6161    -6230    -6218 
   -6170    -6205    -6399    -6569    -6471    -6187    -5980    -6007 
   -6232    -6453    -6451    -6335    -6365    -6416    -6285    -6241 
   -6458    -6621    -6635    -6652    -6636    -6689    -7025    -7337 
   -7206    -7030    -7358    -7823    -7816    -7550    -7560    -7585 
   -7223    -6999    -7200    -7365    -7542    -7927    -8052    -7790 
   -7611    -7690    -7830    -7838    -7835    -8013    -8117    -7983 
   -7952    -8124    -8280    -8317    -8154    -7808    -7645    -7786 
   -7693    -7284    -7234    -7538    -7528    -7240    -7148    -7129 
   -6902    -6744    -6972    -7290    -7180    -6775    -6625    -6814 
   -7086    -7326    -7438    -7369    -7240    -7269    -7493    -7495 
   -7069    -6708    -6696    -6847    -7024    -6941    -6493    -6259 
   -6428    -6561    -6724    -6930    -6678    -6178    -6196    -6682 
   -6984    -6787    -6413    -6481    -6790    -6562    -6135    -6389 
   -6929    -6982    -6929    -7225    -7439    -7306    -7068    -6840 
   -6725    -6849    -7049    -7177    -7288    -7337    -7263    -7144 
   -7132    -7330    -7574    -7608    -7616    -7824    -7902    -7573 
   -7087    -6785    -6843    -7048    -6926    -6571    -6415    -6593 
   -6883    -6774    -6304    -6172    -6390    -6461    -6508    -6698 
   -6691    -6516    -6516    -6551    -6436    -6339    -6423    -6708 
   -6858    -6585    -6351    -6438    -6273    -5763    -5498    -5458 
   -5408    -5611    -5923    -5919    -5840    -5850    -5722    -5701 
   -6023    -6289    -6372    -6450    -6392    -6366    -6774    -7249 
   -7159    -6777    -6744    -7020    -7234    -7271    -7177    -6995 
   -6772    -6602    -6567    -6644    -6799    -6999    -6995    -6632 
   -6388    -6610    -6844    -6782    -6701    -6758    -6936    -7299 
   -7573    -7362    -7036    -7040    -6971    -6604    -6407    -6523 
   -6612    -6517    -6465    -6751    -7152    -7234    -7190    -7179 
   -6880    -6478    -6465    -6639    -6610    -6492    -6390    -6397 
   -6781    -7095    -6918    -6998    -7425    -7348    -7075    -7206 
   -7344    -7342    -7419    -7481    -7504    -7465    -7373    -7415 
   -7423    -7335    -7514    -7709    -7561    -7500    -7632    -7508 
   -7304    -7321    -7334    -7406    -7663    -7816    -7920    -8191 
   -8328    -8122    -7896    -7990    -8193    -8073    -7866    -7862 
   -7736    -7429    -7130    -6879    -6868    -7020    -7079    -7149 
   -7190    -7034    -6912    -7042    -7271    -7334    -7153    -6876 
   -6624    -6569    -6925    -7264    -7067    -6728    -6771    -6982 
   -6889    -6492    -6380    -6824    -7161    -6944    -6605    -6444 
   -6393    -6512    -6663    -6654    -6821    -7150    -7136    -7014 
   -7160    -7177    -6798    -6413    -6336    -6254    -5865    -5566 
   -5674    -5819    -5755    -5687    -5722    -5880    -6193    -6366 
   -6133    -5991    -6411    -6825    -6683    -6428    -6421    -6358 
   -6196    -6243    -6384    -6326    -6247    -6296    -6097    -5671 
   -5711    -6382    -7020    -7129    -6909    -6828    -6984    -7098 
   -7194    -7512    -7766    -7604    -7407    -7624    -7924    -7948 
   -7909    -7820    -7543    -7292    -7172    -7209    -7379    -7323 
   -7090    -7123    -7222    -7141    -7240    -7500    -7565    -7557 
   -7527    -7385    -7504    -7948    -8209    -8221    -8210    -8024 
   -7634    -7404    -7500    -7562    -7325    -7132    -7204    -7308 
   -7415    -7646    -7823    -7661    -7206    -6924    -6998    -7113 
   -7125    -7026    -6655    -6187    -6035    -6042    -5806    -5553 
   -5529    -5406    -5112    -4993    -5107    -5211    -5208    -5314 
   -5636    -5807    -5640    -5471    -5383    -5236    -5254    -5715 
   -6258    -6131    -5481    -5260    -5503    -5553    -5547    -5834 
   -6281    -6693    -6747    -6430    -6512    -7141    -7456    -7186 
   -6922    -7030    -7291    -7361    -7169    -7010    -7257    -7735 
   -7789    -7317    -6980    -7148    -7377    -7267    -7034    -7009 
   -7164    -7303    -7317    -7283    -7344    -7545    -7830    -7962 
   -7869    -7753    -7592    -7402    -7345    -7191    -6955    -6974 
   -7036    -6952    -6890    -6930    -7187    -7465    -7389    -7327 
   -7663    -7859    -7730    -7839    -8174    -8407    -8510    -8322 
   -7947    -7792    -7701    -7411    -7211    -7310    -7387    -7202 
   -7071    -7384    -7831    -7720    -7237    -7211    -7577    -7609 
   -7290    -7098    -7065    -7013    -7037    -7132    -7152    -7080 
   -6841    -6543    -6523    -6689    -6781    -6843    -6809    -6697 
   -6872    -7186    -7163    -6983    -7014    -7273    -7469    -7249 
   -6952    -7013    -7014    -6718    -6547    -6650    -6664    -6226 
   -5576    -5491    -6106    -6505    -6196    -5922    -6122    -6174 
   -5933    -6061    -6662    -7072    -6833    -6420    -6725    -7410 
   -7379    -6928    -6928    -7040    -6656    -6096    -5911    -6045 
   -6215    -6335    -6444    -6677    -6874    -6596    -6004    -5771 
   -6050    -6442    -6528    -6345    -6389    -6735    -6968    -6909 
   -6497    -6077    -6394    -7168    -7308    -6805    -6435    -6323 
   -6161    -5965    -6029    -6440    -6860    -7020    -6999    -6829 
   -6590    -6732    -7326    -7539    -7021    -6755    -7276    -7634 
   -7186    -6606    -6629    -7107    -7434    -7449    -7511    -7607 
   -7457    -7230    -7099    -7096    -7412    -7757    -7655    -7461 
   -7514    -7456    -7217    -7095    -6994    -6791    -6777    -7145 
   -7573    -7693    -7582    -7419    -7202    -7111    -7364    -7699 
   -7740    -7587    -7477    -7369    -7290    -7389    -7298    -6849 
   -6755    -7126    -7277    -7142    -7156    -7356    -7326    -7003 
   -6949    -7165    -7163    -7032    -6818    -6393    -6177    -6405 
   -6735    -6960    -6967    -6903    -7192    -7468    -7256    -7078 
   -7102    -6895    -6706    -6745    -6623    -6451    -6556    -6663 
   -6650    -6802    -7110    -7379    -7443    -7187    -6916    -6998 
   -7211    -7105    -6735    -6419    -6114    -5875    -5881    -5751 
   -5332    -5278    -5653    -5709    -5381    -5287    -5609    -5895 
   -5842    -5782    -5917    -5956    -5898    -6046    -6378    -6581 
   -6480    -6084    -5629    -5622    -5917    -5734    -5382    -5842 
   -6874    -7470    -7319    -6974    -6961    -7090    -7136    -7209 
   -7153    -6967    -7072    -7507    -7870    -7973    -7933    -7905 
   -7994    -8201    -8255    -7950    -7449    -6936    -6556    -6480 
   -6416    -6119    -6084    -6507    -6764    -6717    -6983    -7758 
   -8519    -8826    -8850    -9019    -9192    -8874    -8338    -8384 
   -8932    -8988    -8105    -6990    -6331    -5977    -5802    -6057 
   -6538    -6697    -6716    -7150    -7564    -7387    -7310    -7769 
   -8021    -7677    -7210    -7137    -7392    -7423    -7190    -7268 
   -7650    -7655    -7180    -6816    -6868    -7175    -7416    -7360 
   -7238    -7253    -7061    -6763    -6897    -7146    -6848    -6135 
   -5560    -5444    -5618    -5598    -5472    -5734    -5995    -5730 
   -5509    -5830    -6374    -6797    -6926    -6872    -7106    -7578 
   -7692    -7519    -7688    -8124    -7974    -7047    -6166    -5614 
   -5174    -5136    -5524    -6218    -7331    -8195    -8106    -7476 
   -7099    -7446    -8299    -8977    -9351    -9609    -9363    -8523 
   -7938    -7932    -7913    -7663    -7207    -6442    -5871    -5856 
   -5811    -5452    -5242    -5427    -5913    -6509    -6867    -6758 
   -6443    -6613    -7630    -8854    -9278    -8803    -8160    -7739 
   -7433    -7306    -7325    -6922    -5656    -4167    -3647    -4167 
   -4735    -4897    -4887    -4939    -5259    -5699    -5799    -5667 
   -5913    -6646    -7361    -7789    -8052    -8006    -7283    -6073 
   -5135    -4824    -4831    -4822    -4627    -4313    -4271    -4739 
   -5327    -5606    -5853    -6330    -6613    -6554    -6519    -6554 
   -6664    -7033    -7442    -7435    -6970    -6513    -6384    -6319 
   -6166    -6160    -6251    -6257    -6247    -6285    -6274    -6264 
   -6659    -7447    -7780    -7585    -7654    -7699    -7252    -7040 
   -7518    -8274    -8704    -8276    -7329    -6732    -6519    -6435 
   -6777    -7595    -8536    -9352    -9714    -9502    -9057    -8689 
   -8623    -8652    -8199    -7678    -7757    -7649    -6813    -6358 
   -6876    -7605    -8162    -8584    -8553    -8162    -7943    -8175 
   -8918    -9688    -9864    -9705    -9709    -9884   -10054    -9865 
   -9090    -8193    -7608    -6990    -6080    -5436    -5513    -6018 
   -6525    -6979    -7231    -6961    -6546    -6759    -7577    -8455 
   -9001    -9126    -9184    -9173    -8490    -7499    -7326    -7719 
   -7562    -6964    -6592    -6253    -5605    -4788    -3967    -3392 
   -3435    -4063    -4901    -5645    -6037    -5953    -5594    -5401 
   -5752    -6471    -6764    -6189    -5474    -5513    -6092    -6736 
   -7302    -7272    -6496    -5755    -5559    -5703    -5670    -5039 
   -4320    -4450    -5325    -6210    -6735    -6799    -6489    -6073 
   -5992    -6767    -8132    -8896    -8483    -7780    -7716    -7873 
   -7515    -6781    -5940    -5127    -4592    -4291    -4198    -4418 
   -4631    -4554    -4596    -5238    -6058    -6389    -6480    -6678 
   -6593    -6304    -6493    -7007    -7244    -7485    -8152    -8538 
   -7906    -6656    -5589    -5256    -5346    -5107    -5108    -5953 
   -6621    -6602    -6494    -6278    -5880    -5751    -6015    -6577 
   -7115    -7036    -6612    -6443    -6323    -6538    -7566    -8356 
   -8257    -8149    -8077    -7580    -7229    -7362    -7604    -7774 
   -7827    -7838    -7823    -7354    -6670    -6635    -6872    -6723 
   -6763    -7256    -7724    -8195    -8675    -8831    -8789    -8517 
   -7761    -7288    -7893    -8849    -9032    -8446    -7792    -7300 
   -6741    -6297    -6347    -6481    -6025    -5169    -4662    -4969 
   -5921    -6990    -7913    -8622    -8995    -9290    -9888   -10647 
  -11130   -10891    -9805    -8721    -8492    -8583    -8125    -7317 
   -6798    -6670    -6640    -6581    -6458    -6284    -6432    -7118 
   -7715    -7746    -7642    -7950    -8734    -9400    -9337    -8942 
   -8804    -8868    -8866    -8630    -8020    -6799    -5132    -3808 
   -3122    -2933    -3376    -3956    -3985    -3990    -4650    -5751 
   -6708    -6998    -6624    -5850    -4885    -4380    -4720    -5389 
   -5787    -5772    -5745    -5989    -6035    -5830    -6077    -6582 
   -6251    -5233    -4754    -5019    -5510    -5992    -6280    -6585 
   -7314    -8213    -8919    -9198    -8806    -8390    -8692    -8950 
   -8603    -8310    -8104    -7686    -7659    -8228    -8456    -7751 
   -6913    -6831    -6937    -6507    -6168    -6583    -7196    -7300 
   -7032    -6544    -5709    -5108    -5379    -6173    -6766    -6615 
   -5865    -5516    -5888    -6183    -6065    -6065    -6538    -7207 
   -7757    -8198    -8471    -8322    -7700    -7006    -6744    -6833 
   -6853    -6594    -6160    -5926    -5856    -5433    -4538    -3439 
   -3026    -4371    -6554    -7645    -7500    -6987    -6554    -6520 
   -6835    -7101    -7472    -7992    -7767    -6592    -5773    -6062 
   -6809    -7331    -7348    -6990    -7033    -7813    -8621    -8850 
   -8565    -8222    -8449    -9236    -9652    -9186    -8483    -8195 
   -8271    -8626    -9343   -10054   -10039    -9207    -8498    -8437 
   -8321    -7929    -7796    -7724    -7372    -7153    -7326    -7485 
   -7565    -8033    -8715    -8893    -8417    -7600    -6804    -6249 
   -5788    -5582    -5806    -5547    -4465    -3852    -4460    -5794 
   -6883    -6656    -5395    -4733    -5140    -5719    -5907    -5732 
   -5517    -5445    -5151    -4649    -4791    -5806    -6772    -6879 
   -6193    -5421    -5034    -4745    -4430    -4587    -5297    -5886 
   -5788    -5151    -4617    -4793    -5637    -6490    -6971    -7133 
   -7049    -6867    -6573    -6178    -6265    -6825    -6947    -6573 
   -6343    -6270    -6119    -6103    -6708    -7812    -8316    -7635 
   -6525    -5779    -5638    -6079    -6867    -7766    -8343    -8290 
   -7985    -7627    -7160    -6988    -7223    -7530    -7911    -8260 
   -8239    -7858    -7269    -6700    -6700    -7541    -8411    -8248 
   -7414    -7144    -7740    -8899   -10247   -10683    -9497    -7804 
   -6939    -6833    -6913    -7020    -7275    -7898    -8650    -8845 
   -8505    -8351    -8735    -9217    -9077    -8320    -7713    -7515 
   -7271    -6947    -6782    -6675    -6799    -7260    -7439    -7080 
   -6798    -6727    -6231    -5379    -5049    -5481    -6031    -6118 
   -5818    -5718    -6084    -6424    -6389    -6273    -6264    -6284 
   -6212    -5911    -5559    -5309    -5055    -5017    -5178    -5023 
   -4733    -4885    -5482    -6184    -6423    -5892    -5481    -6062 
   -6879    -7206    -7619    -8176    -8330    -8409    -8669    -8637 
   -8333    -8333    -8776    -9054    -8480    -7429    -7026    -7462 
   -7794    -7406    -6523    -5719    -5432    -5572    -5935    -6625 
   -7311    -7338    -6978    -7044    -7663    -8278    -8209    -7503 
   -6952    -6709    -6439    -6488    -6933    -6991    -6538    -6116 
   -5965    -6385    -7084    -7059    -6731    -7183    -7780    -7662 
   -7338    -7460    -7865    -7805    -6894    -5748    -5209    -5420 
   -5969    -6621    -7365    -7699    -7196    -6631    -6764    -7117 
   -7168    -7014    -6837    -6925    -7353    -7695    -7877    -8017 
   -7636    -6804    -6377    -6257    -5823    -5335    -5224    -5401 
   -5668    -5921    -6230    -6768    -7258    -7182    -6710    -6388 
   -6324    -6559    -7092    -7496    -7558    -7419    -6918    -6199 
   -5919    -6201    -6561    -6459    -6114    -6453    -7169    -7156 
   -6697    -6604    -6883    -7258    -7603    -7938    -8251    -8245 
   -7759    -7453    -8105    -9018    -8878    -7790    -6658    -5929 
   -5836    -6127    -6158    -6068    -6351    -6802    -7211    -7569 
   -7527    -7091    -6944    -7358    -7754    -7452    -6529    -5949 
   -6305    -7149    -7861    -7952    -7411    -6922    -6679    -6590 
   -6945    -7184    -6598    -6000    -6309    -7069    -7294    -6763 
   -6427    -6944    -7439    -7094    -6521    -6377    -6253    -5998 
   -6254    -7113    -7993    -8337    -7904    -7431    -7653    -8019 
   -8081    -7994    -7684    -7523    -7798    -7574    -6330    -5096 
   -4970    -5707    -6107    -5834    -5678    -5845    -5962    -6168 
   -6558    -6716    -6500    -6331    -6554    -6907    -6960    -6802 
   -6609    -6161    -5359    -4731    -4750    -4945    -4903    -5190 
   -5950    -6365    -6137    -6002    -6555    -7306    -7484    -7306 
   -7192    -6934    -6597    -6534    -6805    -7561    -8548    -8741 
   -7835    -6671    -5918    -5690    -6035    -6984    -8309    -9236 
   -8934    -7738    -7040    -7508    -8355    -8677    -8434    -8023 
   -7896    -8225    -8592    -8608    -8414    -8004    -7317    -6979 
   -7200    -7210    -6817    -6500    -6450    -6706    -6974    -6721 
   -6246    -6291    -6741    -6987    -6791    -6340    -6091    -6199 
   -6326    -6502    -6988    -7290    -6922    -6488    -6552    -6770 
   -6794    -6652    -6519    -6601    -6689    -6531    -6540    -6899 
   -7078    -7199    -7668    -7843    -7404    -7025    -6910    -6812 
   -6872    -7319    -7940    -8248    -8082    -7649    -7203    -6756 
   -6261    -6134    -6498    -6843    -7018    -6966    -6558    -6389 
   -6733    -6895    -6733    -6621    -6442    -6361    -6721    -7045 
   -6944    -6812    -6963    -7362    -7736    -7862    -8145    -8692 
   -8799    -8395    -7938    -7352    -6840    -6831    -6791    -6305 
   -6021    -6308    -6880    -7412    -7311    -6396    -5661    -5617 
