Origin Time       2024/04/02 04:24:00
Lat.              40.133
Long.             141.712
Depth. (km)       71
Mag.              6.0
Station Code      MYG012
Station Lat.      38.3288
Station Long.     141.0128
Station Height(m) 74
Record Time       2024/04/02 04:25:09
Sampling Freq(Hz) 100Hz
Duration Time(s)  97
Dir.              U-D
Scale Factor      7845(gal)/8223790
Max. Acc. (gal)   3.058
Last Correction   2024/04/02 04:25:09
Memo.             
[...]
  -12506   -12519   -12530   -12649   -12673   -12895   -12931   -12803 
  -13027   -12820   -12063   -11966   -12195   -11677   -11530   -12264 
  -12206   -11738   -12077   -12282   -12191   -12594   -12644   -12194 
  -12583   -12841   -12006   -11772   -12020   -11821   -12019   -12144 
  -11722   -11746   -12117   -12530   -12970   -12835   -12586   -12896 
  -13289   -13552   -13626   -13257   -12749   -12492   -12258   -11915 
  -11692   -11476   -11433   -11902   -12266   -12116   -12147   -12579 
  -12876   -12830   -12507   -12420   -12700   -12646   -12305   -12133 
  -12494   -12874   -12220   -11711   -12158   -12394   -12442   -12434 
  -11983   -11878   -12260   -12031   -11952   -12857   -12849   -12147 
  -12757   -13207   -12334   -11812   -11990   -12197   -12717   -12941 
  -12344   -11947   -11755   -11549   -11730   -11897   -12199   -12634 
  -12644   -12738   -12691   -12253   -12310   -11871   -11269   -12305 
  -12540   -11815   -12625   -12930   -12490   -12688   -12187   -11713 
  -11983   -12081   -12399   -12293   -11796   -12417   -12453   -11592 
  -12618   -13952   -13132   -12317   -12622   -12325   -11892   -12334 
  -12374   -12380   -13189   -13108   -12441   -12609   -12611   -12411 
  -12371   -11781   -11550   -11966   -11696   -11411   -12054   -12615 
  -12731   -12816   -12719   -12345   -11962   -11927   -12005   -11982 
  -12344   -12726   -12673   -12617   -12152   -11545   -11992   -12402 
  -12060   -12152   -12503   -12873   -13343   -13213   -12758   -12567 
  -12800   -12924   -12241   -11925   -12268   -11812   -11218   -11611 
  -11666   -11303   -12330   -13101   -12299   -12330   -12596   -12056 
  -12367   -12756   -12548   -12460   -12148   -12156   -12390   -11990 
  -11716   -11638   -11533   -11884   -12166   -12617   -13446   -13343 
  -12687   -12550   -12850   -13057   -12523   -12341   -13049   -12935 
  -11884   -11361   -11875   -12587   -12820   -12804   -12784   -12938 
  -12456   -11446   -11943   -12910   -12370   -12093   -12580   -12178 
  -11820   -11974   -11855   -12474   -13054   -12359   -11658   -11313 
  -11713   -12555   -12194   -12298   -13333   -12621   -11701   -12395 
  -12538   -12015   -12098   -12156   -12235   -12704   -12496   -11758 
  -12112   -12919   -12691   -12058   -11854   -11967   -11978   -11863 
  -11839   -12002   -12807   -13408   -13003   -12642   -12453   -12193 
  -11947   -11708   -12168   -12478   -11971   -12027   -12171   -11934 
  -12233   -12737   -13057   -12757   -12414   -13000   -13215   -12852 
  -12479   -12259   -13005   -13312   -12486   -12093   -11873   -11412 
  -11331   -11803   -12433   -12675   -12780   -13142   -13186   -12411 
  -11973   -12313   -12190   -12158   -12464   -11859   -11383   -11925 
  -12209   -12120   -12120   -11842   -11781   -12222   -12603   -13134 
  -13575   -13189   -12703   -12588   -12432   -12652   -12467   -11603 
  -11934   -12294   -11761   -12263   -12425   -11431   -11778   -12847 
  -13128   -13081   -12503   -12310   -12793   -12317   -11838   -11886 
  -11416   -11680   -12730   -12887   -12279   -12118   -12793   -13126 
  -12478   -11723   -11691   -12217   -12064   -11735   -12194   -12175 
  -12133   -12671   -12465   -12515   -13105   -12838   -12892   -13382 
  -13248   -13217   -12893   -12102   -11719   -11453   -11484   -11821 
  -11724   -11325   -11372   -11982   -12183   -12217   -12491   -12376 
  -12514   -12679   -12214   -12199   -12613   -12598   -12648   -12675 
  -11753   -11296   -12024   -12105   -11870   -12001   -12287   -12753 
  -12328   -12028   -12939   -13193   -12981   -13130   -12707   -12538 
  -13247   -13147   -12106   -11911   -12289   -11854   -11245   -11441 
  -12024   -12010   -11506   -11840   -12386   -11966   -12021   -12803 
  -12937   -12378   -11944   -12545   -13139   -12684   -12461   -12255 
  -11641   -11747   -12457   -13105   -12807   -11908   -12609   -13614 
  -12991   -12484   -12604   -12845   -12787   -11684   -11296   -12145 
  -12128   -11961   -12699   -12789   -12409   -12447   -12175   -11870 
  -12027   -12563   -13070   -12761   -12434   -12893   -12879   -11585 
  -10955   -12004   -12359   -11965   -12224   -12313   -12629   -12962 
  -12276   -12102   -12807   -12534   -11599   -12191   -13176   -12232 
  -11514   -12347   -12560   -11978   -12075   -12548   -12280   -11909 
  -12121   -12510   -12919   -12779   -12572   -12943   -12896   -12488 
  -12224   -12248   -12521   -12143   -11342   -11400   -12507   -13111 
  -12387   -11951   -12164   -11996   -11651   -11489   -11966   -13167 
  -13490   -12307   -11475   -11790   -12349   -12683   -12220   -11740 
  -12599   -13012   -12166   -12213   -13077   -13174   -12845   -12745 
  -12513   -11996   -11541   -11573   -11853   -11751   -11952   -12904 
  -13221   -12575   -12685   -13459   -12815   -11568   -11757   -12131 
  -11483   -11190   -11762   -12397   -12916   -12823   -12349   -12460 
  -12494   -12444   -12684   -12483   -12247   -12344   -12290   -12131 
  -12118   -12064   -11993   -12718   -13193   -12236   -12056   -12672 
  -12248   -12147   -12384   -12177   -12341   -12094   -12067   -12889 
  -12649   -12366   -12665   -12205   -12247   -12487   -12172   -12691 
  -12617   -11809   -12537   -12680   -11785   -12573   -12534   -10720 
  -11276   -13120   -13216   -12999   -12800   -12109   -11873   -11838 
  -12052   -12426   -12334   -12586   -12498   -11746   -12021   -12371 
  -11853   -11962   -12860   -13242   -13066   -13370   -13359   -12495 
  -12471   -12691   -11974   -11705   -11884   -11693   -11749   -12083 
  -12249   -12147   -12013   -12521   -13043   -12568   -12538   -13123 
  -12468   -11992   -12710   -12498   -11909   -12629   -13077   -12506 
  -12421   -12779   -12746   -11956   -11165   -11894   -12575   -11681 
  -11813   -13076   -12717   -12405   -12833   -11800   -11547   -12216 
  -11790   -12675   -13429   -12031   -11820   -12590   -12465   -12544 
  -12405   -11632   -11711   -11839   -11122   -11353   -12225   -12780 
  -13099   -12340   -11758   -12006   -11869   -12189   -13008   -13313 
  -13386   -13220   -12426   -11842   -12204   -12247   -11786   -12028 
  -12062   -11713   -12164   -12348   -12083   -12729   -13058   -12541 
  -12488   -12209   -12120   -13112   -12985   -12349   -13362   -13386 
  -11526   -10837   -11271   -11437   -11550   -11422   -11638   -12471 
  -12642   -12649   -13633   -14133   -12991   -12615   -13414   -12430 
  -11356   -12170   -12328   -11817   -11907   -12356   -12735   -11934 
  -11345   -12552   -13258   -12861   -12916   -12252   -10751   -11443 
  -13111   -12382   -12309   -14141   -13433   -11522   -11515   -11812 
  -11773   -11453   -11666   -13051   -13366   -12744   -12646   -12391 
  -12418   -12714   -12332   -11988   -12177   -12582   -13151   -13545 
  -13224   -12654   -12372   -11952   -11979   -12703   -12700   -12137 
  -12275   -12464   -11797   -11304   -11477   -11466   -11979   -12999 
  -12631   -11913   -12463   -12472   -11418   -11537   -12671   -12795 
  -12665   -13406   -13400   -12567   -12845   -13203   -12393   -12164 
  -12676   -12711   -12330   -12066   -12299   -11996   -11344   -11612 
  -11693   -11815   -12406   -11996   -11921   -12818   -12706   -12310 
  -12394   -12005   -11801   -11832   -11408   -11726   -12295   -11961 
  -12282   -12669   -12012   -12345   -13132   -12436   -11840   -12363 
  -12644   -12486   -12529   -12413   -12305   -13024   -13138   -12043 
  -12240   -12692   -11454   -11133   -11905   -11831   -11923   -12187 
  -11658   -11138   -11213   -11923   -12629   -12436   -12393   -12607 
  -11870   -11770   -12665   -12393   -12263   -13001   -12785   -12874 
  -13043   -11982   -12193   -12721   -11326   -11146   -12415   -11862 
  -11024   -11731   -12232   -12430   -12451   -11641   -11601   -12368 
  -12222   -11634   -11543   -12027   -12102   -11399   -11774   -12745 
  -12222   -11445   -11670   -12235   -12599   -12552   -12918   -13721 
  -13473   -12881   -13332   -13684   -13289   -13508   -14210   -14053 
  -13740   -13774   -13471   -13288   -13247   -13000   -12981   -12826 
  -12577   -12993   -13294   -13278   -13730   -13698   -13289   -13629 
  -13170   -12109   -13115   -14175   -12690   -11616   -12101   -11905 
  -11753   -12222   -11944   -11445   -11550   -11584   -10849   -10045 
  -10566   -11700   -11962   -11846   -11850   -11574   -11476   -11994 
  -12295   -11813   -11776   -12691   -12480   -11862   -13161   -13894 
  -12750   -12081   -12460   -12964   -12548   -11678   -11327   -11210 
  -11269   -10710   -10173   -11257   -11790   -11037   -11435   -12349 
  -11985   -11225   -11171   -11319   -11499   -11630   -11296   -11269 
  -11635   -11888   -12379   -12420   -12259   -13189   -13436   -12694 
  -13446   -13956   -13143   -13713   -14226   -13244   -13292   -13703 
  -12991   -12889   -13506   -13203   -12538   -12722   -12613   -11847 
  -11924   -11785   -11175   -11854   -12118   -11583   -12177   -12263 
  -11484   -11550   -11970   -12580   -12800   -11826   -11391   -12124 
  -12409   -11942   -12093   -12937   -13176   -13150   -13586   -14404 
  -14453   -13097   -13039   -13819   -12617   -11784   -12707   -13194 
  -12781   -12582   -12448   -11354   -10378   -10561   -11028   -11847 
  -12699   -12590   -12285   -12183   -11881   -11597   -11184   -11330 
  -12499   -12448   -11358   -11677   -11970   -11410   -11576   -11958 
  -12136   -12005   -11534   -11996   -12533   -12353   -13081   -13798 
  -12943   -12453   -13027   -12999   -13103   -13564   -13378   -13950 
  -13929   -11904   -11626   -12955   -12742   -12013   -12276   -13012 
  -12995   -12280   -12023   -12402   -12811   -12426   -12225   -12737 
  -12013   -11356   -12212   -12414   -12320   -12625   -12155   -11666 
  -11353   -11182   -12098   -12633   -12239   -12478   -12771   -12660 
  -12503   -11985   -12163   -13153   -13328   -13046   -12833   -12490 
  -12299   -11573   -10928   -11352   -11329   -11026   -11500   -11851 
  -11952   -12178   -12001   -11545   -11750   -11909   -11425   -11817 
  -12405   -12116   -12098   -11886   -11572   -11948   -11990   -12082 
  -12469   -12082   -11801   -11901   -11531   -11726   -12550   -12594 
  -12260   -12399   -13163   -14283   -14366   -13400   -13163   -13338 
  -12934   -13070   -14068   -14774   -14692   -14017   -13320   -13196 
  -13613   -13401   -12221   -11913   -12287   -11438   -10615   -11419 
  -12205   -11794   -11979   -13046   -12700   -11736   -11898   -11882 
  -12044   -12783   -12222   -11556   -11704   -11292   -11452   -12008 
  -11362   -11553   -13043   -12999   -12371   -13225   -13531   -13022 
  -13504   -13563   -12989   -13235   -13319   -13244   -13590   -13419 
  -12933   -12502   -12067   -11965   -11535   -11194   -11846   -11886 
  -11321   -11376   -11184   -11407   -12613   -13311   -13293   -12792 
  -12105   -11669   -11502   -11996   -12094   -11572   -12279   -13057 
  -12523   -12031   -12282   -12949   -12988   -12494   -12120   -11410 
  -11437   -12135   -12059   -11912   -12249   -13026   -13536   -13371 
  -13436   -12953   -11794   -11542   -11732   -11668   -12123   -12993 
  -12992   -12181   -12043   -12108   -11272   -11354   -12825   -13090 
  -12345   -12421   -12737   -12333   -11881   -12120   -12113   -11496 
  -11330   -11462   -11281   -11438   -12309   -12625   -11917   -11321 
  -11051   -11223   -12267   -12951   -12332   -11620   -11429   -11495 
  -12128   -12540   -12237   -12399   -13031   -13116   -12148   -11353 
  -12312   -12739   -11533   -11978   -13263   -12738   -12189   -12374 
  -12066   -11620   -11630   -11902   -12306   -12796   -12645   -11969 
  -12440   -13514   -13294   -12864   -13166   -13001   -12522   -12631 
  -12752   -11931   -11422   -12590   -13194   -12317   -12155   -12939 
  -13629   -13197   -12120   -12507   -13023   -12426   -12550   -12498 
  -11646   -11946   -12496   -12159   -12063   -11888   -11685   -12345 
  -12228   -11666   -12958   -13587   -11848   -11002   -11700   -11911 
  -11438   -11217   -12290   -13784   -13328   -11735   -11337   -11635 
  -11792   -12307   -12895   -12876   -12526   -12710   -13221   -13351 
  -13851   -14126   -13224   -12845   -12723   -12295   -12688   -12206 
  -11303   -12425   -13235   -12415   -12017   -11943   -11491   -11635 
  -12290   -12471   -12739   -13019   -11919   -11222   -12846   -13443 
  -12160   -12210   -12096   -10524    -9953   -10505   -11348   -12070 
  -12371   -13130   -13257   -12127   -12259   -12931   -12619   -13215 
  -13822   -13077   -12707   -12451   -11889   -12343   -12965   -12214 
  -11338   -11769   -11792   -10686   -10859   -12479   -13207   -12414 
  -11634   -11916   -12464   -12271   -11878   -12430   -13134   -13257 
  -13292   -12602   -11881   -12459   -13180   -12981   -12491   -12506 
  -12144   -11572   -12442   -13374   -13424   -13379   -12896   -12434 
  -11731   -10763   -10867   -10777   -10293   -11244   -12382   -12310 
  -11904   -12235   -13124   -12800   -12036   -13028   -14040   -14111 
  -14328   -13953   -13134   -12046   -10805   -10682   -10436    -9640 
  -10035   -10851   -11088   -11686   -12969   -13470   -12877   -12511 
  -12135   -11807   -12286   -13063   -13691   -13512   -13163   -13826 
  -13608   -12465   -12322   -11978   -11070   -10848   -11757   -13425 
  -13864   -12926   -12236   -11758   -11966   -13155   -13910   -13651 
  -12870   -11989   -11388   -11659   -12522   -12259   -11303   -11325 
  -10844   -10222   -11869   -13798   -14467   -14809   -15029   -15538 
  -14770   -12374   -11368   -11322   -10477   -10068   -10790   -11562 
  -11950   -12595   -13317   -13034   -11955   -11672   -12164   -11919 
  -10740    -9944   -10650   -11300   -11098   -12332   -13942   -13929 
  -13875   -14006   -13618   -13518   -13522   -12700   -11533   -11037 
  -11291   -11917   -12645   -13787   -14548   -13356   -12305   -12160 
  -10446    -9580   -10967   -11102   -10816   -11664   -11573   -11510 
  -13096   -14075   -13647   -13559   -13837   -13555   -12784   -12268 
  -12440   -12413   -11813   -11793   -12067   -11599   -11129   -11857 
  -13780   -15168   -15003   -14359   -13640   -12660   -11848   -11703 
  -11907   -11519   -11252   -11581   -11146   -10693   -11425   -11689 
  -11007   -10737   -10963   -11520   -12023   -11761   -11583   -12078 
  -12572   -13246   -13853   -13219   -12663   -13311   -13219   -12548 
  -12587   -12112   -11277   -11506   -12401   -13228   -13452   -12775 
  -12555   -12931   -12492   -11962   -11992   -12270   -12398   -11962 
  -12108   -12455   -12025   -12008   -11862   -11199   -11367   -11735 
  -11462   -11364   -11799   -11952   -11658   -12063   -13360   -14361 
  -14108   -13243   -13583   -14169   -13305   -13016   -13799   -13994 
  -13687   -12147   -10165   -10230   -10874   -11175   -12513   -13055 
  -12253   -12927   -13965   -13074   -12337   -12749   -12614   -12228 
  -12390   -12380   -12086   -12067   -12035   -11361   -11110   -12195 
  -12640   -12171   -12314   -12089   -12020   -12951   -12885   -12414 
  -12762   -12452   -11539   -11001   -11318   -12827   -13934   -13455 
  -12564   -12202   -12376   -12830   -13117   -12946   -12453   -11800 
  -11226   -11003   -10651   -10505   -11568   -12838   -13011   -12459 
  -12037   -12324   -13120   -13355   -12592   -11896   -11970   -11920 
  -11250   -11452   -12626   -12529   -12046   -12418   -11742   -10906 
  -11433   -12353   -13408   -13783   -13501   -13446   -12816   -12320 
  -12853   -13095   -12696   -12440   -12198   -11676   -11956   -12756 
  -12253   -11784   -12237   -11573   -10544   -11214   -12623   -13103 
  -12777   -12654   -12919   -13082   -13132   -13234   -13077   -12572 
  -12073   -11831   -12012   -12478   -12845   -12849   -12807   -12852 
  -12264   -11816   -11809   -11198   -11510   -12742   -13151   -13483 
  -13208   -12286   -12321   -12526   -12163   -11570   -11310   -11684 
  -11905   -11869   -11545   -11195   -11558   -12040   -12394   -12460 
  -11692   -11518   -12711   -13097   -12271   -12451   -13324   -13134 
  -12484   -12310   -12399   -12598   -12603   -12356   -11971   -11128 
  -10476   -10947   -12009   -12738   -12695   -12074   -12000   -12789 
  -13436   -14017   -14312   -13794   -13991   -14176   -12865   -12220 
  -12302   -11931   -12021   -11622   -10790   -11287   -11909   -11982 
  -12266   -12009   -11597   -11936   -12295   -12457   -12706   -12700 
  -12279   -12159   -12660   -12714   -12286   -12441   -12553   -11712 
  -11182   -11789   -12245   -12366   -12707   -12725   -12982   -13610 
  -13228   -12509   -12218   -11497   -10883   -10879   -11014   -11677 
  -12291   -11938   -11862   -12162   -11782   -11873   -12236   -11688 
  -11913   -12868   -12735   -12637   -13123   -13279   -13262   -12756 
  -12128   -12343   -12511   -12448   -12926   -13170   -12717   -12274 
  -12191   -11898   -11434   -11961   -12718   -13022   -13716   -13918 
  -13454   -12916   -12314   -12229   -12058   -11834   -11820   -11291 
  -11236   -11554   -11340   -11794   -12934   -13070   -12299   -12185 
  -12590   -12984   -13574   -13382   -12692   -12665   -12523   -12425 
  -12841   -12536   -11952   -12351   -12717   -12571   -12623   -12460 
  -11927   -11612   -11502   -11479   -11630   -11693   -11319   -10882 
  -10843   -11059   -11931   -13228   -13290   -12746   -13023   -12642 
  -11470   -11306   -11457   -10864   -10822   -11978   -12560   -12328 
  -12604   -13220   -14067   -14239   -13335   -13084   -13096   -12706 
  -12626   -12814   -13181   -12856   -12083   -12387   -13020   -12910 
  -12303   -12110   -12382   -11978   -11734   -12125   -11801   -11619 
  -12148   -12197   -12078   -12042   -12083   -12869   -13400   -13026 
  -12629   -12166   -12158   -13117   -13455   -12934   -13057   -13320 
  -12987   -12961   -13054   -12555   -12217   -12098   -11437   -10840 
  -10706   -10700   -11138   -11572   -11659   -12132   -12271   -11716 
  -11835   -12355   -12224   -12368   -13185   -13266   -12637   -12463 
  -12669   -12291   -10948   -10276   -11148   -11948   -12324   -12849 
  -13221   -13478   -13267   -12563   -12537   -12696   -12312   -12243 
  -11869   -11030   -11334   -12155   -12510   -13165   -13698   -13072 
  -11697   -10964   -11538   -12438   -12931   -13108   -12911   -12565 
  -12116   -11777   -11962   -12074   -12364   -13084   -13138   -13149 
  -13352   -12766   -12484   -12768   -12609   -11975   -10962   -10469 
  -10804   -11245   -12267   -13351   -13257   -13093   -13517   -13190 
  -12415   -12675   -13220   -12906   -12374   -11947   -11595   -12021 
  -12592   -12137   -11916   -12433   -12205   -12075   -12622   -12361 
  -11975   -12208   -12349   -12440   -12113   -11726   -12259   -12746 
  -12622   -12457   -12258   -12371   -12846   -12954   -12861   -13007 
  -12835   -11913   -11041   -11334   -12263   -12407   -12182   -12707 
  -13093   -12297   -11712   -12190   -12432   -12463   -12712   -12417 
  -12031   -11866   -11551   -11479   -11203   -10816   -11600   -12603 
  -12461   -12514   -12943   -12544   -12744   -13382   -12737   -12010 
  -11600   -11701   -12861   -13022   -12258   -12243   -11854   -10971 
  -10748   -11122   -11786   -11940   -11946   -12421   -12410   -12756 
  -13660   -13609   -13346   -12962   -12178   -12222   -12314   -11904 
