Origin Time       2024/04/02 04:24:00
Lat.              40.133
Long.             141.712
Depth. (km)       71
Mag.              6.0
Station Code      MYG008
Station Lat.      38.5676
Station Long.     141.4267
Station Height(m) 26
Record Time       2024/04/02 04:25:05
Sampling Freq(Hz) 100Hz
Duration Time(s)  107
Dir.              E-W
Scale Factor      7845(gal)/8223790
Max. Acc. (gal)   32.476
Last Correction   2024/04/02 04:25:05
Memo.             
[...]
    5355     3323     2479     4155     6343     6818     6108     5509 
    5367     5219     3852     2200     3400     6292     6756     5158 
    4118     3663     3474     4151     4982     4422     2619     2251 
    4171     5454     5787     6264     5227     3589     3932     5221 
    4931     2897     2320     4403     5691     4858     4078     4982 
    7091     7875     6200     3666     2573     4283     6453     5472 
    2625     1760     3192     4557     5281     6280     6781     5661 
    3689     2083     1802     3159     4617     4804     4324     3924 
    4133     5568     7361     7742     6523     4851     3092     1667 
    1906     3330     4166     4676     5918     6806     5441     3275 
    3334     4873     5651     5267     4040     3130     3677     4711 
    4257     2547     2231     4399     6795     6890     4993     3646 
    4155     4804     3599     2068     3240     5931     7036     6972 
    6546     5235     4321     4742     4548     2562     1428     3175 
    5256     5602     5733     6127     5474     4411     3835     2976 
    2504     3126     3287     3013     4459     6937     6768     4758 
    5911     8409     5886      880     1115     5104     5589     2945 
    2901     5350     5522     3541     3584     5549     5818     4320 
    4243     5644     5834     4347     2797     3111     5111     5572 
    3377     1906     3963     7277     7454     4801     3196     3735 
    5487     7217     6508     3657     2072     2717     3962     5022 
    5937     5231     2450     1881     5395     7622     5552     3072 
    2882     2933     2323     3519     6627     7786     5752     4039 
    4951     6825     6701     3896     1579     2610     5418     6570 
    4872     2308     2272     5427     7041     3920     1644     4537 
    6670     4205     2975     5487     5876     3079     2952     5451 
    5940     4735     4545     5776     6755     5622     2959     1557 
    2612     4129     4758     5151     5521     5753     5643     4423 
    2362     2127     4888     6535     4675     3302     4718     6426 
    6023     3913     3053     4260     4891     4000     3353     4218 
    5255     4831     3917     3208     2511     3366     6079     7577 
    6574     5751     6326     6000     3728     1543      946     1151 
    1591     3268     6100     8272     8625     7069     4884     3663 
    2918     2253     2467     3221     3967     4637     4729     4568 
    4725     5026     5775     6654     6308     4972     4600     5613 
    5530     3526     2560     3524     4062     4801     7346     7357 
    2403     -328     3492     8062     7668     3793     1733     2736 
    3537     3098     3559     5945     7952     7477     5922     4688 
    3427     2663     3029     3789     4315     4320     4121     5169 
    6959     6660     4045     2501     3700     5031     4270     2984 
    4033     7161     8311     5946     3389     2725     3442     4202 
    3875     3701     3894     3107     3218     5216     5875     4043 
    3420     6016     8016     6581     4426     4198     4895     4938 
    4229     3573     4203     5699     5213     2234      954     4000 
    7352     6604     4500     4734     4407     1998     1804     3902 
    4086     2964     3847     5940     5688     4401     5948     7608 
    6033     3604     2925     3794     3715     2650     3449     4114 
    2313     2560     6855     8779     4911     1950     4430     7006 
    6488     6282     6597     4739     2420     2714     4203     4548 
    3940     3059     3443     5822     7338     5834     3126     2558 
    4756     6258     4757     2560     3040     5364     5132     3167 
    4212     6084     5105     4185     5620     6858     5486     2947 
    2041     2871     3736     3472     3172     4779     6205     5008 
    4232     5807     6312     4437     3865     5904     6783     4897 
    2852     2450     3838     5872     6486     5656     4676     3526 
    2207     1555     2416     4730     6301     5404     3956     4433 
    5728     5093     3102     2843     4287     5150     5729     7321 
    8514     6569     2806     2033     4234     5139     3775     2559 
    3334     5013     5432     4371     2853     2443     3843     5799 
    7295     7561     5435     2007      722     2922     6214     7678 
    7015     6559     6916     5591     2332      414     2436     6110 
    6438     4267     3693     3767     2508     1278     1854     3643 
    5283     7237     8071     5764     3931     5182     6079     4602 
    3037     3393     4698     4970     3850     2760     3600     6060 
    6906     4405     1626     2066     4746     6513     6014     4650 
    4804     5872     4610     1548     1408     5319     8480     6941 
    2947     1518     3609     6073     7152     7202     5996     3831 
    2960     4411     5047     2992     1844     3578     5360     5394 
    5117     5327     3831     1215     2512     6721     7565     5886 
    6158     6556     3920     1136     2312     5316     5522     3958 
    4426     5849     4946     2774     2502     4360     6069     6273 
    5817     5397     4861     4423     3539     2031     1548     2470 
    3727     5435     7740     8283     4907     1221     2174     5648 
    6350     4091     3289     5331     6416     4970     3794     4557 
    5791     5528     4017     2471     1622     3169     6003     5042 
    1686     3244     8047     7701     3796     4440     7195     5346 
    2501     3065     3611     2322     2442     4741     5297     3596 
    4059     5949     5552     4818     5633     6156     5622     4828 
    4622     4926     4812     3951     2698     2809     5427     6853 
    3948      801     2123     5533     6415     5556     5787     6129 
    4687     2663     2353     3958     6093     6948     5815     4908 
    5408     4800     2876     2959     4870     4838     2394     1232 
    3362     6270     6767     4787     3029     4193     7242     8037 
    5709     4002     4334     4078     3389     4282     4352     2227 
    2169     5054     5737     3512     3854     7454     8245     4386 
    1093     2070     5321     6783     5860     4683     3354     2108 
    2691     4791     6565     6825     6335     6585     6446     4901 
    3789     3564     2370      452      976     4546     6916     6129 
    4681     4618     6145     6600     4364     3206     4662     5209 
    4039     3546     3917     3534     3076     4017     5277     6119 
    6843     6107     3952     2313     1377     1444     3122     5417 
    7169     7034     5491     5086     5772     5062     1884      -31 
    3365     7858     7740     5108     3314     1918     1020     2026 
    4126     5054     5279     6251     6405     4673     3260     4342 
    6889     7122     4675     4490     7375     7622     3966     1756 
    2797     3870     3666     3304     3850     5243     5377     3505 
    2995     5529     7090     4514     1502     3111     6932     7492 
    5503     3962     3168     2945     3003     3406     3794     2890 
    2974     6246     8546     6774     3960     3450     4625     4573 
    2932     2060     3348     5668     6147     5414     7074     8974 
    7080     4039     2749     1131     -735      810     5196     7832 
    7339     5655     3755     3019     5605     8456     6596     2587 
    1580     3038     4099     4132     4102     4932     6199     6084 
    4195     2763     2986     3901     5178     5994     4939     4433 
    6994     8341     4537     1173     3757     6926     5539     3697 
    4966     6242     4159     1093     1121     3704     5756     5713 
    4850     4764     4325     3809     4608     4629     3545     3985 
    5728     6836     6258     4795     3892     3238     3192     3792 
    3091     2617     4990     7024     5749     4295     5026     5449 
    3778     2492     3913     5510     5482     6253     6832     4982 
    3812     4530     3920     2146     2793     5509     5934     4477 
    4908     5313     3416     2394     3195     2845     2219     4465 
    6848     5321     3323     4596     5283     2485      772     3858 
    7554     6862     4891     6311     7824     5433     3369     5344 
    6308     3387     2173     5391     8410     6971     2412     -738 
      82     4079     7129     4988     1414     4129     9814     7858 
      28    -1256     5001     7658     4465     3447     5445     4662 
    2347     3121     5474     7144     8452     7110     2866     1633 
    5028     6399     2683      390     3824     7553     7252     5304 
    3978     3304     3451     4488     5248     4752     3114     1367 
    2118     5113     6277     5794     6837     8344     7365     4766 
    4479     5849     4051      733     1868     6193     7187     3861 
    1602     3029     5043     5439     5263     5050     4807     4931 
    4808     3717     2600     3632     6111     6103     3684     3315 
    5786     6416     3709     2662     4467     5023     5219     7388 
    7449     3611     1479     3311     4403     2678     1719     3052 
    4792     6709     7503     4752     1813     2747     4565     4172 
    4044     5849     6623     4874     3713     4645     5346     5331 
    6338     6484     2947      -13     2597     6409     5749     3183 
    3130     5135     6775     6442     3975     2496     4477     6413 
    4085      526     2004     6853     8553     7133     5475     3561 
    1846     1479     2608     3924     4371     5057     6346     7015 
    5910     3966     4010     5053     4585     4216     5448     6844 
    6210     4137     3674     4288     4409     5363     5944     4125 
    2446     3258     4722     3672      565      610     4488     5877 
    3978     4062     6731     8048     7169     6237     4666     2619 
    3102     4830     4148     2870     4521     6953     7020     5294 
    2215      -64     2319     6930     7816     4747     2323     3499 
    6323     7114     5857     4950     4776     3836     2133     1988 
    3789     4522     2612     1146     3751     7032     5093     1922 
    4688     8976     6997     2014     1606     4918     5827     4068 
    3974     5819     7688     8657     6971     3415     1047      -41 
    -141     2023     5640     7966     7960     7306     6480     3439 
     148     1799     6978     9274     6758     3249     2227     2178 
    1899     3431     5263     4544     3195     4232     7238     8629 
    6736     4396     3368     3369     5049     6650     4465      279 
     773     6189     9310     7875     5863     4853     3040     1004 
    2043     4634     4345     2276     1935     4348     7749     8318 
    5439     2679     3177     7048     9972     8407     4509     1706 
    1845     3832     5034     5941     5860     2945      893     2712 
    5274     5294     3354     2309     3319     4801     5614     6123 
    6432     5713     3813     2289     2165     3154     5047     6334 
    4868     2508     3312     5746     5502     4039     4743     6178 
    5019     2185     1146     1872     2932     4365     5717     6956 
    7963     7015     4233     2114     2070     3160     3640     4507 
    6394     6246     4529     4122     3615     2713     3932     6188 
    5112     1236     1015     4210     4149     1819     2195     3917 
    4220     4618     5980     5204     2115     2026     5899     7036 
    2695     -687      954     3815     4473     3010      824      -41 
     814     2097     3511     5294     6660     7084     7385     8031 
    7591     4965     2478     2423     3048     2484     2733     5938 
    7618     3172       64     5244    10642     8209     3164     4897 
   13259    17849    14305    10566    10895    10548     7161     3935 
    3551     4225     3488     3472     5846     7508     6103     3586 
    4617    10716    16594    18013    17451    18054    17436    10952 
    1598    -2022      754     3140     2930     3578     5335     4031 
    -893    -4245    -1625     5427    10260     8541     4506     4440 
    7388     9049     9671    11148    11223     7767     4492     4369 
    3254    -3013   -11603   -15453   -12715    -9975   -10035    -7084 
     826     7550     9003     7465     5089     1690    -1467    -2594 
   -1348     2058     4631     1845    -4221    -6961    -4549      703 
    5182     3966    -3157    -8716    -7576    -2616     3862    13108 
   22226    25798    22986    15701     7666     4320     6135     7091 
    3110    -3230    -9132   -15057   -18463   -13828    -1590     9328 
   12278    11773    14080    16610    14675    11476    13158    16268 
   13250     6481     2488     3366     8926    15623    18127    17496 
   19033    20912    16100     4270    -7804   -15132   -18585   -20474 
  -19475   -12992    -1736    10777    20623    25843    27098    23715 
   14374     2416    -4349      411    11647    15912     9765     2137 
     634     5265     9909     7504    -2284   -12681   -19863   -25289 
  -24849   -11934     5672    13107    11844    14875    23850    28158 
   23477    17593    14705     9015      533    -3109    -2712    -4363 
   -7526    -8526    -6006     -693     4193     4899     4174     8912 
   16140    14879     4741    -3674    -5259    -1987     3376     7105 
    7855     7599     8139    11047    15286    16573    11647     1219 
   -8629   -11369    -8398    -5784    -5429    -5988    -5431      184 
   12675    27909    38570    38196    25116     4974   -10662   -12318 
   -3230     4995     7398     7321     7634     6909     4237     2772 
    2220    -2100    -8442    -8866       81    13304    21428    16767 
    1993    -7708    -2135    11199    19483    19109    14250     9108 
    5402     3588     3333     3592     1568    -6512   -17768   -21053 
  -12704    -2701     3450    10169    15398    11882     4330     4453 
   11479    12961     5298     -361     2724     8270     9999     8185 
    5443     2481    -1723    -4369     -751     7314    13531    13946 
    8514      720    -3248     1578    11645    15823    10049     2875 
     746       47    -3321    -7398    -6853      149     8216    10760 
    6254    -1630    -4722     2728    15107    22302    19456     8793 
    -627    -2072     4086    14585    22366    21463    14050     5832 
    -642    -5490    -7167    -4243      741     4125     4356     2882 
    3335     7782    12850    11191     2141    -4155    -2436      878 
    3080     7094    10277     8363     3186      935     4639     8815 
    5981    -3319    -9697    -5967     2272     6018     6315     7171 
    6411     1996    -3466    -7273    -7233     -508    10249    15390 
   10536     4005     5837    14916    19963    11928    -3130    -9493 
   -3370     3923     5586     5540     5825     2560    -4704    -8734 
   -3951     5834    11712     8137      851     1182     9915    19402 
   24544    23568    18763    14673    11461     6396     -241    -5489 
   -7129    -4789     -689      106    -3395    -2598     6650    13076 
    8931     3331     4174     6374     5952     6139     6193     2602 
   -1197     1020     9459    18343    20486    11288    -6052   -18727 
  -16422    -4388     6214    13149    16908    14148     5614    -1408 
   -2498    -1533    -1647      -58     2220     2308     3535     6276 
    5263      681    -1302     1915     5112     5502     8205    11859 
    9806     6795     9463    13066    13470    13012    12023     8981 
    3893    -1944    -5358    -5319    -3878     -697     3547     4554 
    1968     1081     3952     4939     1000    -2266     -487     4664 
    9508    12440    15137    17155    14935     8364     2268     1371 
    4205     4056    -1020    -5031    -2756     4472    10611    11295 
    7631     1929    -3218    -4387    -1722     1539     4082     8680 
   15946    20461    18663    11839     5503     4915     4472    -2921 
  -11682   -11827     -700    12920    16247     7835    -2266    -4816 
      74     5223     7159     5991      386    -6706    -7474      657 
   10883    16137    16031    12954     9740     8880     9651     8275 
    3148     -804      939     5533     8136     6463     1567    -2278 
   -1991     1134     2057     -862     -357     7209    14497    15944 
   11936     4931      313     1115     3646     4828     5254     2501 
   -3620    -4264     2933     7249     3508    -1883    -3785     -967 
    7739    16514    14728     4194    -3001    -1783     4414    10914 
   15979    19367    17471     8719    -1229    -7214    -8071    -4353 
    2143     8503     8942     3878     3797     9661    12301     9212 
    2760    -3896    -6247    -2191     6076    13682    15183     7908 
   -2417    -5968     -726     8097    13871    12052     6600     6465 
   11966    14242     9310     3001     1587     5012     8384     8112 
    5995     4044     1124    -2101    -2847      226     5609     7931 
    4048     -719    -1950    -3005    -5472    -5547    -1270     5310 
   11508    16579    19286    15782     6698      203      784     3396 
    3574     3098     3451     3265     1455      -31     2521     7643 
   10617    11489    11051     6948      330    -2852      -64     3666 
    2065    -2423     -727     8289    15738    14966     7257    -1151 
   -5346    -4930    -1640     2043     4689     5863     3476    -1764 
   -3103     3541    11696    11489     3998      105     5063    13109 
   15565    10228     2565    -2805    -3888     1976    12307    18804 
   16106     7755     2315     1452     1482     1584      207    -3123 
   -4579    -2851     -724       40     1005     3306     5124     5540 
    6022     8260    11122    11122     8326     5084     1907      361 
    1899     6064    11994    13919     7882     2816     4954     7890 
    6721     1513    -6151   -10747    -6286     4958    12321    11314 
    8220     6264     4907     6056     9656    13009    12964     7497 
    -777    -5030       -6     8730     9317     3850     4839    11109 
   10849     3025    -2261     -355     3422     5439     7766     8958 
    4579    -1769    -2995      203     4760     8541     5886    -3302 
   -7396      665    12484    17523    15697    11237     5431      562 
       9     3133     7128     9886     9057     3823    -1447    -2269 
   -1259    -1316     -162     2874     5427     6436     5738     3646 
    2239     2655     3678     4619     5907     8413    12752    16908 
   16267     9320      303    -6057    -7850    -5518    -1736      788 
    2616     5296     7333     7333     6192     5734     7492     8005 
    2735    -3331    -1502     7298    13494    11700     6420     1991 
   -1474    -1707     2249     6864     8534     5490     1401     2727 
    7616     9142     6963     5389     5402     4317     1728     1359 
    3801     3669    -1151    -3133     4522    14782    16159     9526 
    3623     2130     2612     3473     5786     8036     7777     7720 
    9674     7990      363    -4372      383     9355    14062    12135 
    6447     -508    -3800     2128     9250     7194     2936     4797 
    6966     3778     1120     3554     6030     6777     7869     5752 
    -496    -3348     1242     6299     5676     4133     5594     6150 
    5254     5413     5456     5000     3543      940     1266     3728 
