Origin Time       2024/04/02 04:24:00
Lat.              40.133
Long.             141.712
Depth. (km)       71
Mag.              6.0
Station Code      MYG014
Station Lat.      38.3173
Station Long.     140.6362
Station Height(m) 259
Record Time       2024/04/02 04:25:13
Sampling Freq(Hz) 100Hz
Duration Time(s)  96
Dir.              U-D
Scale Factor      7845(gal)/8223790
Max. Acc. (gal)   5.192
Last Correction   2024/04/02 04:25:13
Memo.             
[...]
  -36196   -36142   -36113   -36016   -35973   -36015   -36151   -36320 
  -36248   -35864   -35341   -34943   -34923   -35058   -35114   -35414 
  -35827   -35880   -35938   -36315   -36479   -36175   -35669   -35279 
  -35418   -36031   -36498   -36652   -36609   -36360   -36103   -35970 
  -35988   -36127   -36092   -35955   -36022   -36057   -35965   -35954 
  -35792   -35383   -35247   -35548   -35699   -35602   -35954   -36528 
  -36390   -36035   -36390   -36691   -36134   -35622   -35777   -35831 
  -35625   -35631   -35614   -35658   -36298   -36898   -36636   -36081 
  -35907   -35904   -35850   -35714   -35552   -35548   -35568   -35506 
  -35637   -35934   -36009   -35837   -35667   -35592   -35644   -35897 
  -36263   -36323   -35916   -35637   -35764   -35766   -35299   -34541 
  -34121   -34649   -35694   -36351   -36531   -36699   -36938   -36880 
  -36660   -36690   -36578   -36000   -35576   -35591   -35575   -35548 
  -35827   -36015   -35745   -35545   -35908   -36316   -36032   -35464 
  -35557   -36154   -36278   -35904   -35680   -35553   -35529   -35861 
  -36011   -35743   -35641   -35789   -35841   -35911   -36333   -36718 
  -36398   -35757   -35545   -35630   -35652   -35808   -36292   -36671 
  -36466   -35959   -35853   -36188   -36128   -35484   -35361   -35841 
  -35662   -35163   -35503   -36130   -36290   -36279   -36166   -35961 
  -35907   -35708   -35394   -35591   -35951   -35738   -35414   -35661 
  -36109   -36142   -35984   -36185   -36695   -37133   -37208   -36803 
  -36151   -35604   -35410   -35606   -35811   -35645   -35388   -35731 
  -36555   -36586   -35465   -34684   -35073   -35641   -35615   -35394 
  -35444   -35595   -35492   -35496   -36188   -36933   -36938   -36648 
  -36398   -36042   -35949   -36093   -35835   -35577   -36000   -36323 
  -35946   -35525   -35401   -35687   -36382   -36605   -36074   -35745 
  -35873   -35931   -35959   -36197   -36301   -35897   -35419   -35592 
  -36143   -36167   -35711   -35592   -35787   -35657   -35282   -35028 
  -35133   -35637   -35922   -35787   -35827   -36039   -35935   -35546 
  -35421   -35800   -36016   -35665   -35519   -35976   -36300   -36134 
  -35962   -36023   -35977   -35549   -35208   -35676   -36459   -36498 
  -36190   -36258   -36088   -35498   -35488   -36092   -36170   -35557 
  -35469   -36170   -36329   -35827   -35927   -36413   -36285   -35912 
  -35910   -36009   -35881   -35573   -35478   -35876   -36275   -36207 
  -36059   -36258   -36594   -36624   -36350   -36142   -36085   -36042 
  -35905   -35734   -35820   -36166   -36300   -36022   -35793   -35957 
  -36074   -35880   -35721   -35546   -35186   -34967   -35079   -35365 
  -35622   -35769   -35918   -35931   -35685   -35646   -35964   -35866 
  -35214   -34962   -35255   -35442   -35694   -36151   -36120   -35625 
  -35631   -36223   -36464   -36019   -35522   -35498   -35746   -35980 
  -36217   -36360   -36298   -36065   -35861   -36231   -37023   -37143 
  -36582   -36304   -36170   -35640   -35275   -35577   -35912   -35781 
  -35518   -35465   -35754   -36244   -36431   -36262   -36188   -36082 
  -35652   -35405   -35748   -36084   -35961   -35931   -36306   -36567 
  -36521   -36425   -36304   -36117   -35968   -35969   -36090   -36099 
  -36035   -36232   -36369   -35927   -35517   -35680   -35657   -35108 
  -34789   -35008   -35341   -35503   -35556   -35568   -35544   -35708 
  -36205   -36637   -36521   -35947   -35417   -35218   -35302   -35495 
  -35587   -35573   -35595   -35563   -35445   -35479   -35712   -35968 
  -36128   -36144   -36053   -36096   -36398   -36494   -36054   -35625 
  -35733   -36038   -35999   -35804   -35908   -35972   -35681   -35691 
  -36258   -36752   -36992   -36971   -36410   -35792   -35661   -35579 
  -35513   -35951   -36316   -35954   -35634   -35868   -35965   -35866 
  -36036   -36113   -35870   -35829   -36085   -36154   -35937   -35802 
  -35758   -35592   -35635   -35986   -35903   -35344   -35314   -35869 
  -36126   -36096   -36309   -36387   -35919   -35581   -35846   -36090 
  -35951   -35854   -35931   -35922   -35810   -35557   -35252   -35321 
  -35721   -36066   -36185   -35996   -35733   -35754   -35937   -35918 
  -35692   -35691   -36076   -36250   -35964   -35916   -36186   -36153 
  -36051   -36271   -36603   -36938   -36900   -36166   -35455   -35303 
  -35363   -35343   -35176   -35075   -35328   -35649   -35822   -36132 
  -36319   -35942   -35702   -36138   -36427   -36170   -36055   -36243 
  -36198   -35795   -35429   -35546   -36023   -36116   -35826   -35865 
  -35997   -35810   -35700   -35644   -35415   -35347   -35359   -35143 
  -35087   -35591   -36197   -36447   -36599   -36597   -36275   -36347 
  -36776   -36667   -36423   -36545   -36265   -35622   -35590   -35947 
  -35812   -35314   -35156   -35476   -35892   -36111   -36063   -35702 
  -35249   -35320   -35869   -36039   -35789   -35887   -36382   -36617 
  -36273   -35845   -35845   -35953   -35926   -36043   -36128   -35949 
  -35806   -35718   -35480   -35424   -35711   -35630   -35147   -35387 
  -36126   -36109   -35729   -35773   -35838   -35789   -35980   -36274 
  -36451   -36566   -36568   -36300   -35683   -35029   -34882   -35024 
  -35068   -35506   -36270   -36478   -36212   -36193   -36502   -36651 
  -36428   -36371   -36783   -36972   -36444   -35831   -35787   -36061 
  -36130   -35900   -35847   -36181   -36201   -35781   -35791   -36267 
  -36333   -35830   -35526   -35787   -36028   -35957   -35914   -35766 
  -35318   -35071   -35307   -35757   -36265   -36682   -36818   -36775 
  -36605   -36213   -35741   -35379   -35167   -35043   -34911   -34890 
  -35141   -35391   -35434   -35592   -36012   -36283   -36167   -35977 
  -36136   -36583   -36691   -36269   -36099   -36337   -36038   -35402 
  -35469   -35711   -35399   -35106   -35048   -35097   -35490   -35846 
  -35903   -36306   -36832   -36593   -36097   -36040   -35877   -35461 
  -35418   -35657   -35698   -35707   -35927   -36082   -36154   -36362 
  -36275   -35772   -35726   -36269   -36436   -36028   -35671   -35432 
  -35124   -34879   -34781   -34994   -35392   -35289   -34947   -35322 
  -35972   -35959   -35710   -35893   -36189   -36054   -35652   -35492 
  -35414   -35118   -35186   -35703   -35738   -35403   -35617   -36038 
  -35838   -35414   -35498   -35834   -35915   -35950   -36153   -36101 
  -35756   -35642   -35602   -35430   -35621   -35959   -35885   -35834 
  -36231   -36832   -37423   -37746   -37550   -37160   -36960   -36783 
  -36563   -36499   -36490   -36458   -36536   -36636   -36776   -36980 
  -36849   -36591   -36821   -37022   -36553   -35951   -35710   -35592 
  -35526   -35648   -35634   -35282   -35172   -35560   -35735   -35417 
  -35155   -35179   -35293   -35301   -35213   -35449   -35966   -36057 
  -35731   -35540   -35448   -35341   -35445   -35839   -36344   -36621 
  -36471   -36254   -36267   -36208   -35834   -35513   -35646   -35930 
  -35976   -35957   -35891   -35560   -35333   -35611   -35914   -35988 
  -36375   -36803   -36652   -36358   -36227   -36023   -35762   -35438 
  -35264   -35590   -35883   -35795   -36040   -36585   -36598   -36202 
  -35959   -35846   -35731   -35687   -35648   -35455   -35317   -35356 
  -35316   -35306   -35428   -35388   -35194   -34913   -34676   -34769 
  -34859   -34709   -34838   -35314   -35704   -35989   -36340   -36634 
  -36598   -36325   -36155   -36015   -35837   -35934   -36261   -36490 
  -36730   -37123   -37257   -36904   -36616   -36671   -36751   -36844 
  -36919   -36675   -36325   -36235   -36231   -35926   -35355   -35198 
  -35565   -35658   -35506   -35658   -35911   -36072   -36139   -35992 
  -35741   -35594   -35540   -35311   -34875   -34761   -35067   -35245 
  -35197   -35186   -35143   -35120   -35363   -35761   -36136   -36244 
  -35814   -35422   -35650   -35829   -35590   -35496   -35540   -35591 
  -36072   -36641   -36531   -36150   -36108   -36062   -35974   -36259 
  -36524   -36479   -36536   -36458   -36053   -36084   -36624   -36973 
  -37150   -37454   -37547   -36963   -36094   -35833   -35978   -35671 
  -35283   -35526   -35768   -35548   -35534   -35912   -36085   -35949 
  -36032   -36342   -36184   -35560   -35436   -36023   -36321   -35942 
  -35621   -35750   -36251   -36875   -36903   -36239   -35671   -35459 
  -35332   -35147   -34982   -35100   -35337   -35171   -34727   -34522 
  -34611   -34912   -35218   -35129   -34857   -34966   -35387   -35800 
  -36099   -36067   -35761   -35727   -35958   -35806   -35457   -35725 
  -36301   -36275   -35899   -35919   -36167   -36266   -36336   -36184 
  -35545   -35056   -35218   -35554   -35907   -36479   -36838   -36892 
  -37071   -37089   -36767   -36549   -36379   -36047   -35784   -35619 
  -35494   -35536   -35627   -35696   -36015   -36387   -36359   -36296 
  -36586   -36703   -36313   -35949   -35904   -35851   -35735   -35646 
  -35370   -35110   -35325   -35681   -35806   -35946   -35911   -35433 
  -35286   -35873   -36159   -35804   -35883   -36402   -36460   -36317 
  -36261   -35915   -35671   -35935   -36180   -36121   -36190   -36566 
  -36771   -36421   -35897   -35748   -35970   -36238   -36381   -36472 
  -36331   -35742   -35405   -35958   -36613   -36571   -36439   -36796 
  -37027   -36674   -36329   -36306   -36086   -35537   -35235   -35394 
  -35428   -34912   -34480   -34935   -35706   -35625   -34963   -34716 
  -34770   -34786   -34932   -34906   -34462   -34317   -34757   -35001 
  -34947   -35441   -36362   -36729   -36609   -36666   -36678   -36391 
  -36204   -36076   -35752   -35707   -36193   -36693   -36867   -36749 
  -36549   -36575   -36765   -36769   -36520   -36304   -36297   -36263 
  -36113   -36051   -35887   -35437   -35199   -35488   -35991   -36398 
  -36652   -36725   -36448   -35896   -35596   -35716   -35741   -35388 
  -35186   -35490   -35795   -35856   -36045   -36310   -36344   -36279 
  -36201   -35969   -35762   -35837   -35968   -35796   -35429   -35395 
  -35807   -35969   -35644   -35482   -35549   -35527   -35668   -35857 
  -35731   -35753   -36090   -36054   -35658   -35603   -35769   -35634 
  -35442   -35683   -36094   -36090   -35762   -35681   -35835   -35753 
  -35586   -35787   -36177   -36196   -35816   -35793   -36335   -36499 
  -35958   -35488   -35432   -35556   -35707   -35795   -35881   -35864 
  -35405   -34898   -35019   -35448   -35692   -35816   -35784   -35641 
  -35750   -35935   -35776   -35573   -35545   -35402   -35297   -35515 
  -35874   -36294   -36655   -36504   -36042   -35903   -35905   -35831 
  -35951   -36157   -36309   -36555   -36675   -36495   -36374   -36645 
  -37112   -37214   -36807   -36286   -35969   -36018   -36219   -36211 
  -36363   -36747   -36606   -36111   -36032   -36281   -36485   -36609 
  -36674   -36575   -36312   -36289   -36533   -36348   -35864   -35931 
  -36221   -35928   -35382   -35137   -35152   -35402   -35749   -35731 
  -35325   -34982   -34929   -35093   -35349   -35573   -35716   -35776 
  -35891   -36313   -36803   -36861   -36625   -36387   -35953   -35518 
  -35799   -36591   -36811   -36178   -35650   -35932   -36478   -36566 
  -36325   -36147   -36066   -36039   -36057   -35989   -35916   -35993 
  -35949   -35757   -35846   -36049   -35800   -35424   -35631   -36046 
  -36015   -35857   -35839   -35733   -35683   -35826   -35955   -36078 
  -36135   -35947   -35773   -35935   -36174   -35927   -35251   -34740 
  -34460   -34171   -34057   -34226   -34437   -34389   -34061   -33897 
  -34176   -34564   -34825   -35033   -34981   -34655   -34615   -34830 
  -34758   -34692   -34963   -35248   -35568   -35865   -35696   -35344 
  -35433   -35989   -36487   -36383   -36058   -36254   -36548   -36306 
  -36208   -36698   -36891   -36562   -36352   -36147   -35868   -35853 
  -35806   -35523   -35415   -35644   -35915   -36092   -36609   -37521 
  -38078   -38383   -39086   -39394   -38624   -37754   -37137   -36061 
  -34749   -33760   -33180   -33297   -34049   -34875   -35784   -36996 
  -38110   -38718   -38886   -38539   -37646   -37120   -37789   -38685 
  -38583   -38124   -37918   -37066   -35667   -35036   -34921   -34329 
  -33878   -34388   -35317   -36066   -36778   -37586   -38325   -38492 
  -37687   -36591   -36030   -35537   -34551   -33438   -32672   -32482 
  -32876   -33444   -33809   -33997   -34013   -34042   -34674   -35826 
  -36639   -36867   -36882   -36661   -36228   -35812   -34894   -33069 
  -31449   -31095   -31610   -32620   -34198   -35630   -36225   -36475 
  -37029   -37615   -37681   -37255   -36698   -36294   -36142   -36078 
  -36123   -36482   -37039   -37570   -37746   -37246   -36566   -36232 
  -35716   -34654   -33675   -33539   -34634   -36728   -38886   -40211 
  -40335   -39549   -38604   -37801   -36875   -35905   -35370   -35533 
  -36109   -36474   -36402   -36220   -36219   -36212   -35680   -34709 
  -33979   -33677   -33689   -34190   -35116   -35857   -35957   -35595 
  -34878   -33743   -32900   -33242   -34677   -36582   -38425   -39742 
  -40312   -40346   -40143   -39429   -37627   -35212   -33463   -32788 
  -32771   -33200   -34096   -35284   -36261   -36688   -36416   -35191 
  -33612   -32892   -33075   -33600   -34762   -36504   -37901   -39010 
  -40302   -40891   -40115   -38804   -37783   -37111   -36493   -35471 
  -34057   -33210   -33431   -33871   -33956   -33768   -32975   -31897 
  -31735   -32613   -33905   -35413   -36803   -38028   -39522   -40902 
  -41342   -40516   -38422   -35737   -33558   -32274   -31706   -31708 
  -32148   -33014   -34630   -36941   -38854   -39587   -39692   -39413 
  -38241   -36765   -35780   -34780   -33791   -33569   -33781   -34072 
  -34996   -36344   -37076   -37114   -37083   -36876   -36200   -35561 
  -35521   -35862   -36340   -37270   -38470   -38871   -38155   -37197 
  -36468   -35858   -35532   -35375   -34842   -34180   -34172   -34740 
  -35338   -35783   -35943   -35803   -35762   -35908   -35883   -35750 
  -35633   -35248   -34813   -34863   -35347   -35846   -35985   -35830 
  -35819   -35926   -35885   -35839   -35883   -35799   -35623   -35642 
  -35608   -35097   -34402   -33889   -33612   -33755   -34319   -35291 
  -36780   -38119   -38583   -38659   -38796   -38398   -37180   -35688 
  -34263   -32962   -32034   -31499   -31202   -31642   -33135   -34676 
  -35572   -36487   -37534   -37935   -37728   -37447   -36891   -35895 
  -35314   -35698   -36235   -36418   -36641   -36918   -37292   -37974 
  -38294   -37891   -37489   -37416   -37588   -37924   -37898   -37401 
  -36992   -36440   -35428   -34932   -35411   -35797   -35939   -36699 
  -37341   -36819   -36236   -36413   -36340   -35920   -36251   -37154 
  -37523   -37154   -36614   -36166   -35667   -35125   -34842   -35028 
  -35483   -35905   -36215   -36320   -36188   -36057   -36072   -35957 
  -35476   -34796   -34013   -33218   -32710   -32587   -32900   -33581 
  -34248   -34978   -36034   -36923   -37181   -37192   -37199   -36822 
  -36116   -35428   -34754   -34477   -34839   -35228   -35710   -36871 
  -37987   -38065   -37415   -36664   -35787   -34840   -34406   -34584 
  -34770   -34901   -35492   -36324   -36769   -37068   -37501   -37602 
  -37324   -37004   -36455   -35707   -35415   -35683   -35877   -36011 
  -36630   -37362   -37440   -36949   -36412   -36003   -35565   -34836 
  -33886   -33462   -33837   -34060   -33826   -34177   -35359   -36136 
  -35846   -35430   -35537   -35687   -35953   -36725   -37453   -37629 
  -37444   -37068   -36526   -35885   -35325   -35181   -35503   -35881 
  -35876   -35496   -35363   -35692   -35600   -35002   -34992   -35378 
  -35379   -35575   -36170   -36304   -36050   -36049   -36059   -35876 
  -36116   -36913   -37191   -36437   -35725   -35569   -35097   -34339 
  -34252   -34620   -34812   -35090   -35599   -35846   -35895   -36343 
  -36769   -36595   -36648   -37400   -37970   -37940   -37571   -36977 
  -36308   -35661   -35051   -34518   -33940   -33654   -34204   -34969 
  -35290   -35761   -36436   -36671   -36923   -37717   -38329   -38192 
  -37625   -36911   -36031   -35121   -34680   -34969   -35619   -36282 
  -36871   -37346   -37710   -37646   -36941   -36216   -35876   -35490 
  -34824   -34034   -33285   -32834   -32795   -33189   -34207   -35613 
  -36653   -37247   -37903   -38508   -38670   -38503   -38105   -37427 
  -36896   -36931   -37027   -36529   -35781   -35395   -35122   -34425 
  -33696   -33812   -34650   -35437   -36039   -36613   -36940   -36814 
  -36483   -36208   -35858   -35349   -34962   -34898   -34909   -34852 
  -35067   -35679   -36429   -37137   -37625   -37681   -37270   -36494 
  -35567   -34800   -34260   -33955   -34207   -35020   -35926   -36841 
  -37744   -38020   -37490   -36857   -36477   -36157   -35887   -35811 
  -35846   -35687   -35432   -35676   -36370   -36764   -36648   -36290 
  -35722   -34840   -33966   -33731   -33805   -33396   -33259   -34171 
  -35206   -35804   -36262   -36377   -36124   -36018   -36013   -35745 
  -35271   -34977   -35237   -35787   -36127   -36471   -36633   -35984 
  -35163   -34884   -34753   -34867   -35299   -35257   -34892   -34911 
  -35248   -35679   -36003   -36466   -37597   -38684   -38855   -38622 
  -38276   -37346   -36301   -35951   -35731   -35141   -35014   -35496 
  -35708   -35527   -35191   -34678   -34326   -34474   -34871   -35280 
  -35959   -36828   -37139   -36867   -36910   -37218   -36940   -36223 
  -35571   -34848   -34160   -33737   -33717   -34574   -35988   -36994 
  -37459   -37185   -36023   -35144   -35217   -35355   -35274   -35743 
  -36713   -37224   -37126   -37062   -37039   -36676   -36201   -35915 
  -35621   -35236   -35078   -35283   -35737   -36439   -37093   -37185 
  -36906   -36697   -36317   -35653   -35297   -35487   -35734   -35846 
  -36163   -36599   -36660   -36485   -36755   -37363   -37482   -37161 
  -37053   -36952   -36585   -36229   -35916   -35587   -35383   -35469 
  -36082   -37010   -37435   -37093   -36526   -36116   -35850   -35502 
  -35012   -34927   -35387   -35696   -35698   -35866   -36138   -36117 
  -35864   -35446   -34677   -33793   -33141   -32761   -32971   -33714 
  -34275   -34808   -35807   -36610   -36923   -37362   -37436   -36462 
  -35437   -35182   -35055   -34657   -34485   -34840   -35332   -35526 
  -35662   -36144   -36531   -36258   -35947   -36312   -36583   -35993 
  -35332   -35279   -35449   -35849   -36579   -36853   -36518   -36416 
  -36618   -36787   -36960   -36798   -36212   -35854   -35621   -35028 
  -34753   -35324   -36028   -36416   -36747   -36995   -36930   -36562 
  -35891   -34861   -33859   -33600   -34132   -34878   -35688   -36622 
  -37443   -38024   -38229   -37872   -37254   -36688   -35951   -34967 
  -34198   -34095   -34724   -35648   -36175   -36161   -35934   -35583 
  -35195   -35044   -34908   -34412   -34042   -34439   -35332   -36232 
  -37039   -37693   -38286   -38765   -38605   -37856   -37150   -36656 
  -36416   -36433   -36302   -35986   -35999   -36432   -36734   -36404 
  -35764   -35498   -35303   -34696   -34311   -34597   -35047   -35429 
  -35916   -36452   -36764   -36694   -36597   -36729   -36664   -36212 
  -35584   -35019   -34911   -34952   -34623   -34689   -35395   -35563 
  -35166   -35094   -35016   -34439   -34005   -34430   -35256   -35567 
