Origin Time       2024/04/02 04:24:00
Lat.              40.133
Long.             141.712
Depth. (km)       71
Mag.              6.0
Station Code      MYG007
Station Lat.      38.5877
Station Long.     141.2510
Station Height(m) 4
Record Time       2024/04/02 04:25:04
Sampling Freq(Hz) 100Hz
Duration Time(s)  96
Dir.              U-D
Scale Factor      7845(gal)/8223790
Max. Acc. (gal)   14.451
Last Correction   2024/04/02 04:25:03
Memo.             
[...]
  -44574   -43740   -45268   -45912   -45576   -46206   -46213   -45418 
  -45912   -46487   -46344   -46908   -47066   -46095   -45634   -45738 
  -45831   -46044   -46580   -47351   -47090   -45982   -45774   -46361 
  -47048   -47063   -46230   -46726   -47919   -46596   -44377   -44185 
  -44905   -45509   -46562   -46909   -45214   -43738   -44564   -45368 
  -44637   -44417   -46102   -48648   -49447   -47545   -45686   -46160 
  -47819   -48652   -48054   -46915   -46599   -47061   -47229   -46836 
  -45936   -44637   -43699   -43472   -43649   -44679   -46638   -47383 
  -45667   -43584   -43179   -44254   -45797   -47363   -48690   -49050 
  -48690   -47943   -46043   -44883   -46724   -48986   -48969   -47121 
  -45175   -45150   -46305   -46175   -44901   -44275   -44965   -45600 
  -45366   -45832   -46985   -46591   -44864   -44070   -44651   -45550 
  -46168   -46278   -46091   -46635   -48074   -48527   -46992   -45287 
  -45052   -46082   -47065   -46969   -46866   -47202   -46565   -45588 
  -45418   -45758   -46631   -46973   -46178   -46286   -47086   -46338 
  -44984   -44914   -45968   -46962   -46800   -46060   -45904   -46221 
  -46475   -46078   -45420   -45025   -44023   -43414   -44818   -46525 
  -47255   -47742   -47642   -46684   -46063   -46519   -47167   -47116 
  -47034   -47376   -47015   -45589   -44644   -44883   -45335   -45455 
  -45141   -45150   -46753   -48246   -47499   -46194   -45986   -46060 
  -45766   -45210   -45006   -45698   -45995   -44799   -43690   -44104 
  -45465   -46595   -46978   -47187   -47241   -46758   -46842   -47483 
  -46974   -46265   -47135   -48244   -48624   -48513   -46947   -44977 
  -44687   -45152   -45608   -46341   -46738   -46526   -45512   -44377 
  -44482   -44643   -44070   -44535   -45909   -46310   -45727   -45995 
  -47502   -47355   -44948   -44246   -45873   -46851   -47098   -47254 
  -46997   -47175   -47544   -46750   -45611   -45634   -46494   -46984 
  -46422   -45751   -46295   -46704   -45442   -44305   -44906   -46325 
  -47752   -48358   -46491   -43368   -43289   -46371   -47989   -47383 
  -47007   -46377   -45229   -45478   -47113   -48060   -47143   -45852 
  -46202   -46796   -45601   -44216   -44571   -45365   -44941   -44159 
  -44512   -46310   -48415   -48739   -46865   -44992   -45308   -46981 
  -47437   -47035   -47173   -46866   -46480   -46873   -46161   -44555 
  -45017   -47066   -47672   -46639   -45643   -44896   -44247   -44091 
  -44204   -44649   -45742   -46498   -46228   -45754   -46041   -47106 
  -47845   -47952   -48463   -48853   -47995   -47069   -46728   -45536 
  -44149   -44793   -46472   -47312   -47619   -47305   -46819   -47158 
  -46645   -44663   -43540   -43903   -45022   -46579   -46953   -45415 
  -44361   -44845   -45152   -44957   -45130   -45462   -45519   -45443 
  -46271   -48186   -48672   -47349   -47434   -48431   -47378   -45719 
  -45712   -46569   -47096   -46576   -45515   -45104   -44712   -44356 
  -45539   -46919   -46676   -46107   -45339   -43707   -43351   -44790 
  -46025   -46826   -47216   -46867   -46411   -45739   -45203   -45787 
  -46279   -45981   -46708   -48382   -48397   -46724   -45810   -45713 
  -45528   -46155   -46768   -46097   -46770   -49420   -50272   -48494 
  -45771   -43407   -43202   -44726   -46002   -46441   -46234   -46052 
  -45630   -44367   -43237   -42768   -43240   -45427   -47687   -47687 
  -46975   -47637   -48286   -47606   -46187   -45300   -45655   -46152 
  -45994   -45424   -45276   -46499   -46743   -44298   -42893   -45031 
  -48259   -49839   -49620   -48292   -46356   -45789   -47186   -47394 
  -45573   -44859   -45940   -46603   -46055   -45076   -44982   -46030 
  -46103   -44987   -45644   -47636   -47054   -44354   -43729   -45685 
  -47590   -48114   -47721   -47702   -48308   -48655   -48550   -47919 
  -46629   -45192   -44235   -44123   -44899   -45706   -45063   -44277 
  -45725   -46678   -45219   -44883   -45801   -45666   -45909   -46568 
  -46244   -46075   -46313   -46133   -45492   -44909   -46103   -48589 
  -48721   -46317   -45215   -46465   -47244   -46048   -44415   -44082 
  -45384   -47259   -47663   -45897   -44605   -45604   -45692   -43834 
  -43988   -45731   -46476   -47240   -47460   -46688   -46913   -47758 
  -48313   -48234   -46538   -45166   -46133   -47085   -46160   -44309 
  -42886   -43675   -45901   -46241   -45586   -46396   -46948   -46225 
  -46195   -46842   -46298   -45377   -45760   -46350   -46124   -45532 
  -45003   -45415   -46901   -48265   -48832   -48628   -48127   -47880 
  -47977   -47796   -46143   -44031   -44146   -45573   -45269   -43656 
  -43302   -44243   -44559   -44524   -45385   -46226   -46515   -46830 
  -46973   -47320   -48254   -48830   -48440   -46953   -44780   -43835 
  -45291   -47717   -49288   -49044   -46661   -44170   -43602   -43714 
  -44240   -46068   -47448   -47376   -46330   -44386   -43244   -44250 
  -46157   -47183   -46872   -46711   -47287   -47634   -47966   -47717 
  -46103   -44859   -44560   -44614   -45796   -47221   -47264   -46562 
  -45767   -45292   -45873   -46323   -46072   -46971   -47804   -46695 
  -46458   -47698   -47351   -45477   -44243   -44544   -45091   -44486 
  -44227   -45219   -46089   -46774   -47065   -46099   -45612   -46489 
  -46804   -47005   -48068   -47711   -46184   -46552   -47703   -46499 
  -43704   -42453   -43058   -44010   -45750   -47398   -47374   -47869 
  -49303   -48554   -46144   -45519   -46834   -47800   -47864   -47439 
  -47127   -47402   -46666   -44631   -43465   -43349   -43652   -44365 
  -44466   -44065   -45237   -47659   -47919   -46056   -45563   -46410 
  -47274   -48467   -48890   -48122   -47051   -45605   -44606   -44540 
  -44327   -44446   -45717   -46946   -47119   -46219   -44937   -44847 
  -45993   -47008   -47420   -46908   -46153   -46705   -47617   -46921 
  -45142   -44207   -44564   -45445   -46687   -47673   -47557   -46950 
  -46113   -44942   -44536   -45584   -47104   -47329   -46654   -47434 
  -48469   -47110   -45516   -45497   -44851   -43960   -44888   -46033 
  -45774   -45075   -45095   -46423   -47983   -47930   -46797   -46018 
  -46279   -47341   -47120   -45454   -44775   -44980   -44864   -44936 
  -45573   -46539   -47250   -46720   -45567   -46032   -47861   -48263 
  -46723   -45418   -45994   -46997   -45333   -42164   -41956   -45223 
  -48208   -48433   -46688   -44251   -42504   -43317   -45635   -46857 
  -47966   -50298   -50935   -48161   -45665   -46325   -47931   -47402 
  -45335   -44759   -46117   -46811   -45879   -44697   -44752   -45900 
  -45894   -45081   -45870   -46701   -46251   -46323   -46738   -46494 
  -45894   -45133   -44863   -45531   -46975   -48906   -49341   -47418 
  -46053   -46099   -45469   -45175   -46473   -46992   -46228   -46305 
  -46549   -45445   -44451   -45401   -47142   -47398   -47394   -48551 
  -47521   -42917   -39455   -40522   -43879   -45642   -45536   -45912 
  -46612   -46689   -47565   -48635   -48182   -48463   -50037   -49370 
  -46843   -45971   -46645   -46422   -45038   -44375   -45080   -45917 
  -45841   -44586   -43213   -43426   -44771   -45303   -45068   -45978 
  -47788   -47912   -46630   -46479   -46911   -46481   -46403   -47210 
  -47320   -46857   -47610   -48249   -46649   -45439   -46537   -47317 
  -46573   -45261   -44297   -44852   -46502   -47551   -47190   -45423 
  -43740   -43911   -45180   -46078   -46418   -46479   -47217   -48018 
  -45720   -42095   -43194   -47576   -49019   -47112   -45279   -45481 
  -47178   -48081   -46836   -45333   -46170   -47479   -46518   -45474 
  -46033   -46472   -45864   -44583   -44338   -46182   -47426   -46529 
  -45592   -45357   -45669   -46504   -45976   -44825   -45685   -46615 
  -45812   -44697   -43895   -44037   -44925   -45312   -46515   -48972 
  -49995   -48631   -46811   -47140   -49478   -49962   -47532   -45621 
  -46080   -47943   -48739   -46631   -43985   -43586   -44390   -45108 
  -45191   -44008   -43249   -44335   -45941   -46865   -46460   -45445 
  -45469   -45875   -46052   -46746   -47683   -48074   -47263   -46080 
  -46488   -47245   -46095   -44672   -44631   -45234   -46379   -47453 
  -46853   -44921   -43722   -43920   -44506   -45515   -46674   -46406 
  -45557   -45918   -46610   -46523   -46214   -46232   -46044   -45585 
  -46440   -48324   -48527   -47032   -46103   -46269   -46746   -46948 
  -46575   -46260   -47262   -48354   -46622   -43409   -42912   -44905 
  -46418   -47016   -47322   -47426   -47196   -46178   -45519   -46596 
  -47850   -47694   -46677   -45832   -46021   -46762   -46457   -45081 
  -44028   -43876   -44339   -44911   -45161   -45450   -45940   -45979 
  -45951   -46251   -46097   -46121   -46967   -47225   -47171   -47625 
  -46699   -45053   -45692   -47055   -46850   -46332   -45504   -44323 
  -45540   -48023   -47660   -45943   -45519   -45285   -45416   -46143 
  -46106   -45998   -45997   -45414   -45543   -45578   -44486   -45261 
  -47640   -47664   -45927   -45052   -45088   -46012   -48024   -49022 
  -47175   -45330   -46273   -47719   -47632   -46657   -45535   -45750 
  -47398   -47456   -45153   -43495   -43659   -44551   -46130   -47437 
  -46565   -45257   -46014   -47136   -46444   -44699   -43749   -44427 
  -46164   -47433   -46877   -45673   -45783   -46707   -47390   -47348 
  -46853   -47056   -47475   -46961   -46192   -46090   -46032   -45198 
  -44824   -45740   -46171   -45994   -46488   -46496   -45615   -45607 
  -46345   -46086   -45046   -44984   -46026   -46669   -46333   -45971 
  -46033   -45732   -45412   -45817   -46313   -47185   -48038   -46828 
  -45828   -47947   -49204   -46921   -45064   -45854   -47143   -47362 
  -47291   -47849   -47949   -46072   -43883   -44119   -44616   -43140 
  -43447   -46342   -47405   -46338   -45019   -43362   -42600   -43671 
  -44859   -44913   -44678   -45283   -46561   -47694   -47973   -46989 
  -46067   -47467   -49766   -48786   -45669   -45724   -48278   -48726 
  -47409   -46695   -46184   -45833   -46221   -45750   -44284   -44629 
  -46148   -45882   -44487   -43274   -42392   -42367   -43117   -44909 
  -47156   -48004   -48023   -48216   -48713   -50531   -52353   -52330 
  -51602   -50491   -49446   -49960   -50214   -48550   -46903   -46144 
  -45106   -43588   -42485   -42434   -43364   -45152   -47063   -47417 
  -46203   -44941   -44381   -44066   -42804   -41877   -43518   -45553 
  -45512   -44791   -44381   -43929   -44297   -45937   -47370   -47965 
  -49576   -52274   -52875   -51246   -50078   -49378   -48652   -47979 
  -46186   -43557   -42078   -42391   -43264   -42790   -40994   -39911 
  -39830   -39825   -40306   -42018   -44597   -46110   -45420   -44142 
  -43999   -45814   -49184   -51675   -52586   -53338   -53655   -52803 
  -51457   -50417   -48946   -46372   -45130   -46206   -46078   -43752 
  -41492   -39978   -40007   -42479   -45388   -46176   -45863   -46826 
  -48146   -48533   -48671   -47532   -45127   -44007   -43509   -42650 
  -43474   -45813   -47167   -46510   -44813   -43619   -42885   -42655 
  -44814   -48617   -51702   -54336   -54934   -52312   -50503   -50307 
  -49042   -47854   -47000   -44378   -41176   -39425   -38434   -36931 
  -34908   -33806   -35036   -38280   -41688   -43660   -45725   -50098 
  -53954   -53655   -51050   -49337   -49264   -50279   -51694   -54076 
  -56909   -56933   -53350   -48886   -45735   -44578   -43467   -40351 
  -38038   -38284   -37758   -36377   -37575   -41169   -45342   -49275 
  -51723   -53048   -54542   -54696   -52562   -50518   -49054   -46978 
  -46167   -47167   -47216   -46923   -48578   -50137   -48352   -44154 
  -41106   -40660   -41813   -43214   -43884   -44008   -44220   -43305 
  -40259   -38003   -39032   -41758   -45297   -49262   -51424   -51684 
  -50795   -47787   -44906   -45376   -46591   -45825   -44975   -44882 
  -44566   -44424   -44853   -45239   -45489   -46080   -46602   -46677 
  -46977   -47544   -47896   -47806   -47147   -46483   -45647   -43881 
  -42560   -43379   -46012   -49183   -50434   -48417   -46427   -46915 
  -47560   -47829   -49503   -50863   -51040   -53470   -56416   -53944 
  -48864   -46761   -45225   -42504   -41578   -42734   -44019   -44379 
  -42962   -40760   -39938   -39734   -39147   -39745   -41030   -41598 
  -42849   -44668   -45596   -46471   -47898   -50080   -52903   -53890 
  -52231   -50944   -52219   -54166   -52960   -48608   -45031   -44212 
  -45334   -46715   -46430   -44968   -44379   -43252   -40238   -38173 
  -37729   -37233   -37991   -40689   -43598   -46330   -48347   -48093 
  -46749   -46550   -47892   -50884   -53875   -54217   -53283   -53206 
  -52312   -49657   -47545   -47498   -47733   -45997   -44135   -44901 
  -46515   -46994   -47048   -46414   -44855   -44038   -44467   -44050 
  -41975   -40942   -41694   -41288   -40346   -41790   -43924   -44834 
  -46080   -47972   -49572   -51059   -51925   -50943   -48888   -48003 
  -48357   -47669   -45085   -43394   -45369   -48400   -49005   -49030 
  -49968   -49431   -46809   -44217   -42466   -41184   -40706   -41399 
  -42912   -44344   -44899   -44828   -45021   -45747   -45639   -43929 
  -43486   -45380   -45685   -44338   -45094   -47058   -48255   -48836 
  -48493   -48196   -48617   -48645   -48838   -50271   -52486   -54490 
  -54727   -52560   -49829   -48485   -47459   -44365   -39779   -35841 
  -33327   -32258   -31796   -32001   -34553   -38442   -40969   -42672 
  -45203   -47997   -50772   -54622   -58410   -60284   -61299   -60818 
  -57013   -53005   -51007   -48678   -45841   -43806   -42502   -41968 
  -41515   -40853   -40427   -39398   -38628   -40500   -43887   -46121 
  -47170   -47844   -47677   -46257   -43960   -41893   -42079   -44431 
  -46425   -48465   -51709   -53782   -53509   -51911   -49351   -47019 
  -46074   -45744   -44363   -41111   -38169   -38668   -42168   -45767 
  -47659   -48396   -49060   -48257   -45100   -43294   -45468   -48400 
  -48467   -46145   -44953   -46610   -46445   -41197   -36778   -37675 
  -40693   -43357   -45955   -49253   -53678   -56860   -56878   -55332 
  -54017   -53303   -52104   -49881   -47961   -45998   -44578   -46064 
  -47275   -45233   -43163   -41782   -39891   -38983   -38792   -38962 
  -40722   -42647   -43555   -45117   -47790   -49775   -49917   -49900 
  -51671   -53258   -52316   -50278   -48708   -47537   -47706   -49049 
  -47946   -43648   -40759   -40848   -41451   -41756   -41716   -41624 
  -42431   -43564   -43922   -42804   -41369   -42874   -46441   -48061 
  -47785   -47434   -47556   -48274   -48193   -46957   -47197   -49917 
  -52894   -53580   -51123   -47221   -44046   -42129   -41156   -41069 
  -42171   -43749   -45364   -48011   -50153   -49470   -47756   -47416 
  -47518   -46846   -46786   -47706   -47845   -47131   -46290   -45701 
  -45840   -45804   -45231   -45840   -47594   -48240   -47563   -46670 
  -45208   -43879   -43841   -43519   -42415   -42245   -43738   -46938 
  -49711   -49877   -49971   -51495   -51636   -49226   -45955   -43864 
  -43826   -44410   -43762   -43276   -45659   -48224   -47239   -45739 
  -45640   -44579   -43293   -42542   -41670   -42349   -43649   -43132 
  -42653   -42967   -43326   -46111   -50514   -51586   -48725   -45472 
  -44721   -46924   -49405   -49509   -48123   -47036   -45848   -43938 
  -42232   -41289   -40733   -41773   -44950   -46704   -45333   -44335 
  -45805   -48402   -50743   -51768   -50977   -49866   -49597   -48895 
  -47636   -47849   -49432   -49848   -48586   -47599   -47520   -47625 
  -47371   -46410   -45515   -45327   -44815   -43942   -44231   -45391 
  -46118   -46481   -46354   -45372   -44064   -42844   -42222   -43290 
  -45866   -47744   -47947   -47634   -47117   -46303   -45216   -44012 
  -44374   -45829   -46576   -48055   -50182   -50681   -49438   -47190 
  -45274   -44240   -42697   -41465   -42719   -45160   -45681   -44205 
  -43402   -43752   -43147   -42128   -43214   -46009   -47925   -47819 
  -47267   -47719   -48524   -49638   -51088   -51316   -50595   -50750 
  -50797   -49507   -48508   -47221   -43792   -40255   -38248   -38022 
  -41214   -46583   -49512   -48266   -45920   -44775   -43675   -42708 
  -43660   -46398   -48830   -49376   -48890   -48076   -46030   -43704 
  -43017   -43958   -45134   -45134   -45100   -46957   -49029   -49207 
  -47675   -45353   -44019   -44234   -44848   -45669   -46595   -47592 
  -48917   -49466   -48949   -47829   -45355   -43086   -43756   -45902 
  -46846   -46396   -45011   -43348   -42508   -43436   -45985   -48200 
  -49013   -49279   -49005   -48055   -48072   -49495   -49939   -49067 
  -48691   -47785   -45607   -43819   -42084   -40369   -40439   -41505 
  -41898   -41796   -41851   -42079   -42334   -43584   -45677   -46646 
  -46626   -47233   -48685   -49854   -49786   -49632   -50895   -52446 
  -52791   -52122   -50488   -48288   -47046   -46527   -45712   -45837 
  -46980   -47009   -46391   -46369   -45669   -44200   -43573   -44161 
  -45256   -45813   -45307   -44242   -43492   -43746   -44479   -44127 
  -43499   -45515   -48797   -48624   -45546   -44169   -44964   -46070 
  -47918   -49620   -49817   -49904   -49153   -46282   -44417   -45673 
  -48406   -50236   -48929   -44932   -41683   -41372   -43325   -44547 
  -43001   -41798   -43772   -45990   -45816   -44216   -42799   -42786 
  -43933   -44880   -45357   -46110   -48089   -50480   -49863   -46647 
  -45956   -47699   -48173   -47447   -46487   -46257   -47482   -48118 
  -46372   -43127   -41355   -43374   -46774   -47775   -47144   -47896 
  -49966   -50884   -49820   -47826   -46766   -48266   -50328   -49819 
  -47416   -44512   -41746   -40643   -41295   -42869   -44841   -45490 
  -44921   -45014   -44853   -44513   -46033   -47652   -47929   -48497 
  -48821   -47808   -46404   -45769   -46610   -48618   -50485   -50519 
  -48154   -44759   -41619   -40109   -40909   -41709   -40925   -39575 
  -38665   -39479   -42036   -44436   -46880   -49921   -51544   -51239 
  -51081   -52247   -54149   -54730   -52641   -49731   -47771   -46286 
  -44849   -42782   -39999   -39082   -40744   -41602   -40961   -41462 
  -42901   -44298   -46588   -48851   -49804   -51190   -53199   -52544 
  -49065   -46488   -46101   -46245   -45549   -44651   -45381   -47038 
  -47530   -47426   -47730   -47760   -47568   -47997   -48632   -48308 
  -47085   -46125   -45605   -45088   -45265   -46503   -47825   -48477 
  -47776   -45797   -44504   -44396   -44446   -44625   -43924   -42288 
  -42128   -42966   -42940   -43260   -44595   -45678   -45783   -45179 
  -45161   -45952   -46376   -46624   -47101   -47773   -48513   -47803 
  -45416   -43375   -43001   -44031   -44950   -45322   -45674   -45346 
  -44855   -45064   -45303   -46057   -47470   -48639   -50194   -51727 
  -51679   -50807   -50633   -50788   -49742   -47245   -44564   -42736 
  -42383   -43039   -43687   -44059   -43375   -42288   -42411   -41999 
  -40936   -42773   -46566   -48346   -48421   -48897   -49288   -48544 
  -47466   -47337   -48203   -49473   -50787   -52023   -52947   -52262 
  -49287   -46296   -45258   -44940   -43748   -42057   -41639   -43159 
  -44018   -42151   -40643   -42400   -44540   -44551   -44410   -45111 
  -45247   -44910   -45303   -46245   -47137   -48142   -49165   -49966 
