Origin Time       2024/04/02 04:24:00
Lat.              40.133
Long.             141.712
Depth. (km)       71
Mag.              6.0
Station Code      MYG001
Station Lat.      38.9017
Station Long.     141.5709
Station Height(m) 36
Record Time       2024/04/02 04:24:59
Sampling Freq(Hz) 100Hz
Duration Time(s)  115
Dir.              N-S
Scale Factor      7845(gal)/8223790
Max. Acc. (gal)   69.842
Last Correction   2024/04/02 04:24:59
Memo.             
[...]
      18    -2223    -4226    -5526    -7626    -8918    -8106    -6411 
   -4784    -4428    -5196    -5039    -5258    -6342    -4460     -648 
     648     -584    -2504    -3889    -4918    -6354    -6710    -6031 
   -7597   -10388    -9528    -5857    -4500    -5489    -4426    -1024 
     974     1300     1845     1917     1042     -137    -2578    -6565 
  -10039   -12301   -14328   -14436   -10831    -7927    -9158    -9383 
   -5869    -2181     1895     6870     8368     5273     1183    -1726 
   -2760    -2538    -3813    -7198   -10511   -12915   -14335   -13918 
  -11653    -9436    -8843    -8471    -6490    -3535     -287     3588 
    7150     8715     8040     5166     -326    -6654   -10669   -11975 
  -12391   -12965   -12981   -11421    -9725    -9148    -7416    -4248 
   -2127     -257     2042     3137     3454     2841       59    -2656 
   -3978    -6188    -9034   -10309   -10571   -10839   -10415    -8869 
   -6450    -4010    -2295     -438     1607     2228      750    -1738 
   -3194    -3466    -4291    -6033    -8100    -9603    -9543    -8843 
   -8334    -6870    -5408    -5516    -4923    -2038     1094     2169 
     630    -1988    -4538    -6982    -7371    -5466    -4579    -4719 
   -4375    -4731    -5243    -5173    -5995    -6979    -6440    -4985 
   -3678    -2922    -2802    -2756    -2517    -2992    -4140    -4770 
   -5020    -5459    -5262    -4240    -4407    -6276    -7519    -7206 
   -6168    -5371    -5568    -5643    -4232    -2185     -784     -332 
   -1363    -4307    -6794    -5968    -2956    -1217    -2299    -4212 
   -4973    -5737    -7175    -7437    -5999    -5269    -6550    -7416 
   -5903    -3739    -2825    -3365    -5053    -5967    -4673    -3148 
   -2563    -1701    -1537    -3682    -6151    -6974    -7101    -7030 
   -6127    -5161    -5412    -5867    -5101    -4028    -3267    -2776 
   -3933    -6169    -6042    -3256    -1170     -976    -1679    -3287 
   -5475    -6858    -6704    -5601    -4931    -4806    -4810    -5896 
   -7106    -6546    -5354    -4302    -2864    -1962    -2200    -2766 
   -2550    -1756    -2362    -4320    -5119    -4621    -4939    -6342 
   -6835    -6297    -6681    -6998    -5985    -5846    -6340    -4546 
   -1350      657      766     -606    -1587    -1804    -2830    -3825 
   -5061    -8291   -10972   -10987    -9552    -7200    -5541    -6157 
   -7192    -6303    -3681    -1539     -137     1655     1841      353 
     193     -271    -3094    -6000    -8237   -10701   -12648   -13076 
  -11618    -8580    -5541    -3904    -2843    -1405     -143     1146 
    2199     1183    -1695    -4097    -4922    -5067    -5840    -7604 
   -9846   -11157   -10463    -8606    -6084    -2720      232     1633 
    1498      498     -703    -2646    -5233    -6713    -6602    -6523 
   -7017    -6322    -4965    -5798    -7604    -7874    -7485    -6397 
   -3561     -534      818      220    -1409    -2239    -2293    -3693 
   -6583    -8716    -9111    -9518   -10206    -7869    -3082    -1159 
   -2462    -3426    -3910    -4722    -4428    -2722    -1964    -2943 
   -3122    -2180    -2938    -5233    -6820    -7920    -8989    -8822 
   -7279    -5649    -4175    -2276     -342      368    -1210    -3946 
   -5262    -5701    -6933    -7354    -5880    -4168    -3072    -2401 
   -3204    -6446    -9695    -9485    -7404    -6480    -4808    -1540 
     229       85     -108     -336    -1983    -5097    -7427    -7985 
   -8020    -7295    -4972    -3361    -4436    -5806    -5780    -5524 
   -4926    -3834    -3402    -3601    -3773    -3280    -2091    -1506 
   -1447    -1578    -3578    -7199    -9749   -10075    -9196    -8132 
   -6535    -4174    -2153    -1485    -1566    -1497    -1408    -1410 
   -2165    -3932    -5470    -6004    -4800    -3028    -3904    -6357 
   -7407    -7585    -7258    -6081    -5914    -6636    -4927    -1907 
   -1761    -2818    -2396    -2656    -3415    -2473    -2189    -4479 
   -6428    -6335    -6392    -7925    -9423    -9605    -8791    -7264 
   -4924    -2070      387     1275      410     -805    -1367    -2193 
   -3858    -5090    -5802    -7156    -7724    -6666    -6376    -6948 
   -6762    -6609    -6751    -5499    -2997    -1836    -2667    -3223 
   -2550    -2027    -2245    -2767    -3987    -5682    -6847    -7726 
   -8101    -7159    -5563    -3881    -2004    -1219    -2889    -4957 
   -4995    -4558    -5063    -5306    -4718    -4194    -4542    -4629 
   -3024    -1973    -4159    -7584    -9231    -8418    -5456    -2562 
   -2543    -4738    -6264    -6003    -4352    -1848     -598    -2161 
   -4149    -4320    -3476    -2376    -1655    -2795    -5773    -8149 
   -7913    -6367    -5686    -5281    -4652    -5198    -6262    -6211 
   -6169    -6631    -5232    -1578      932      334    -1425    -2116 
   -1871    -2597    -4949    -7095    -8370    -9624    -9817    -7693 
   -5200    -5236    -7026    -7113    -4606    -1902     -818     -791 
    -973    -1633    -2759    -4018    -5026    -4702    -3412    -3129 
   -4576    -7366    -9525    -9163    -7906    -6575    -5206    -6165 
   -7321    -4761    -1701    -1255    -1444    -1012     -179     -217 
   -2277    -3180    -1042     -392    -3530    -7483   -10386   -12204 
  -12753   -11296    -7836    -4726    -2895    -1048     -171    -1201 
   -2061    -1937    -2316    -3169    -3125    -1856      -95     1047 
      39    -3832    -8270   -10656   -11924   -13155   -12465    -8880 
   -3929      472     2245     1012    -1466    -4113    -5778    -5845 
   -5497    -4954    -4047    -3240    -2837    -4167    -6817    -7898 
   -7219    -6123    -5125    -4954    -4723    -3978    -4295    -4548 
   -3910    -4845    -6143    -4970    -2875     -774     1428      997 
   -2247    -4801    -6033    -7290    -8650   -10168   -11030    -9894 
   -7362    -4874    -3654    -4098    -4245    -2376     -232      221 
    -214     -724    -1320    -1807    -2828    -4698    -6453    -7285 
   -6860    -5530    -4413    -5038    -7743   -10157   -10270    -8780 
   -7063    -5593    -4160    -2336     -148      704    -1123    -3950 
   -5524    -4436     -797     1937     1209    -1811    -5202    -6758 
   -5944    -5865    -7965   -10131   -11141   -11194    -9744    -6369 
   -3156    -2157    -2126    -1640       -1     3712     6689     4357 
   -1875    -7318   -10646   -12031   -11705   -11497   -12469   -12609 
  -10281    -7500    -5368    -2224      931     2142     2817     3896 
    4403     3734      915    -3187    -5753    -7242    -9971   -14469 
  -18462   -17915   -13317    -8687    -5127    -3280    -3665    -2890 
     919     4041     4522     4664     5121     4858     3291     -935 
   -7366   -12476   -15365   -17479   -17030   -12771    -7668    -3726 
   -1525    -2181    -3488    -1906     1455     2999     1431    -1340 
   -2826    -2585    -1981    -2845    -5517    -8318    -9639    -9250 
   -7704    -6448    -7049    -8359    -8075    -5922    -3430    -2057 
    -542     1649     1809      187    -1030    -2528    -4784    -7196 
   -9097    -9682    -9579    -8672    -6268    -4577    -4429    -3977 
   -3680    -4039    -3519    -2065     -730      -35     -498    -1799 
   -3470    -5773    -8004    -8891    -8259    -6951    -5294    -3477 
   -3337    -5553    -8095    -9769    -9963    -7137    -2682     -384 
     338     1389      506    -2181    -3206    -3310    -4646    -6223 
   -6966    -7032    -6637    -5845    -5778    -7584    -8793    -7337 
   -5931    -5672    -4299    -1714     1395     4106     3187    -1210 
   -4922    -7275    -9848   -11620   -10964    -8846    -6704    -3329 
     441     -387    -5275    -7114    -4321    -1898    -1996    -2671 
   -2971    -3967    -5825    -6525    -5119    -3592    -3295    -3531 
   -3605    -3462    -3653    -3720    -2971    -3476    -5742    -6430 
   -5039    -4480    -5347    -6115    -7003    -8297    -7464    -3925 
   -1455    -2161    -3831    -3775    -2770    -2484    -1668     -699 
   -2359    -5132    -6089    -6943    -8685    -8945    -8066    -7788 
   -6910    -4617    -2126     -769    -1371    -3025    -4442    -5800 
   -5914    -3767    -2367    -3700    -4962    -4573    -4938    -6733 
   -7453    -6443    -5525    -4865    -3565    -3330    -4660    -4384 
   -2411    -1021     -222     -635    -2459    -4357    -6581    -8872 
  -10427   -12175   -13139   -11003    -7570    -5483    -3418     -211 
    2405     2670      635    -2188    -4159    -4132    -2660    -2168 
   -3883    -6837    -9347   -10353    -9594    -6797    -3819    -3655 
   -5167    -5378    -3817    -1463      -28     -535    -2150    -4148 
   -5719    -6077    -6092    -5813    -4469    -3337    -3696    -5071 
   -6593    -8064    -9211    -8253    -4909    -2064     -726      621 
    1296     -103    -1479    -1146    -1370    -2662    -3265    -4471 
   -7489   -11098   -14362   -15719   -13693    -8685    -2781      978 
    2069     2000     1094     -309    -1980    -3402    -2866    -2386 
   -4909    -6525    -5166    -5259    -6937    -7778    -8935   -10405 
  -10438    -8488    -5263    -2484     -963     -252     -135     -398 
   -1358    -3330    -4568    -4363    -5054    -5988    -4572    -3372 
   -4685    -5967    -6376    -6966    -6732    -5312    -3886    -3068 
   -3653    -5125    -5013    -3535    -3165    -4089    -4976    -5142 
   -4506    -3316    -2231    -2862    -5886    -8356    -7462    -5354 
   -5069    -6042    -7191    -7896    -6214    -2656     -670     -445 
       8     -353    -3003    -5902    -7029    -7545    -7402    -5275 
   -3462    -3470    -3190    -2893    -3794    -4677    -4768    -4072 
   -3188    -3022    -3673    -5074    -6058    -5783    -5760    -6435 
   -7074    -7990    -8082    -6157    -4023    -2737    -1098      336 
      48     -747    -1067    -2203    -3597    -4074    -5112    -7101 
   -8266    -8869    -9666    -9130    -7206    -6308    -6772    -5949 
   -2893      211     2286     2899      460    -4198    -7942    -8228 
   -4762    -1501    -1892    -3640    -4082    -4136    -4911    -6033 
   -7647   -10671   -13360   -12515    -8577    -4692    -2547     -783 
    2110     4369     3727      892    -1850    -3003    -3064    -4368 
   -7746   -10635   -11573   -11558   -10504    -8847    -7911    -7203 
   -5972    -3894    -1640     -885    -1242    -1344     -734       -1 
    -734    -2377    -3048    -3462    -4715    -5830    -6361    -7380 
   -8957    -9956    -9728    -8193    -5767    -3211    -1101     -371 
   -1571    -3331    -4043    -3939    -3331    -1306      834       95 
   -2407    -3748    -4406    -5744    -7503    -9292   -11056   -12603 
  -12997   -10328    -5408    -1607      726     1873      738    -1255 
   -2263    -2303    -1489     -579    -1352    -4564    -8268   -10098 
  -10034    -8816    -7427    -7592    -8849    -7947    -3732      282 
    1090     -344    -2488    -4387    -5175    -5491    -5015    -2263 
    -405    -2925    -6274    -7414    -8924   -11229   -11179    -9409 
   -8722    -7501    -3229     2072     4595     3387      287    -2536 
   -4398    -5557    -4801    -2319    -2161    -5651    -9082    -9763 
   -8654    -8226    -9208    -9913    -9510    -7993    -4121     1185 
    3672     1632    -1182    -1618    -1715    -4014    -8024   -11457 
  -12580   -12889   -13667   -13389   -12657   -12829   -11946    -9073 
   -6003    -3709    -1493     1367     3676     4345     4614     3786 
    -125    -4819    -7657    -8985    -8549    -6859    -6331    -7981 
  -11140   -13726   -13385   -11855   -11604    -9805    -4541     1000 
    4742     7666    10400    11186     8671     5822     5332     5158 
    4446     5193     5409     2322    -1278    -3142    -4936    -7376 
   -9782   -13246   -18335   -21502   -20127   -14112    -2158    12247 
   20609    21865    20592    16822    11048     6496     2118    -3990 
  -11396   -19381   -24397   -24120   -22241   -21909   -23307   -26385 
  -27626   -21176    -6558    10160    21887    26693    27213    24642 
   20316    16399    10758     1023   -11418   -25286   -38022   -45451 
  -48411   -50610   -49998   -42354   -28048    -8893    11180    24241 
   26758    23229    19215    15930    12333     9694     8442     4232 
   -5921   -17921   -25802   -29489   -31226   -28961   -21586   -13151 
   -7522    -5173    -3169     1945     9161    15581    19896    18542 
    7515   -10269   -27193   -36796   -36347   -29774   -23045   -17169 
  -11059    -3310     8347    23028    37447    49999    57900    54999 
   38372    14208    -7771   -25392   -41854   -54816   -59856   -57723 
  -49091   -32211    -9440    11778    25845    29382    19916     5394 
     149     4402     8009    10157    13544    12553     6515     5644 
   12907    18269    11894    -5899   -25267   -37584   -41901   -38349 
  -27230   -14081    -4322     1471     2130    -4318   -14739   -24552 
  -31143   -28807   -15010      940    10706    17643    25726    33083 
   37810    38974    34128    18256    -9609   -37671   -54391   -62761 
  -68134   -69751   -66172   -56041   -39518   -16416    12888    38966 
   54337    61713    59694    46037    27962    12492     2486    -1455 
   -5637   -15847   -28638   -39802   -45841   -42075   -34042   -31599 
  -33793   -35421   -32271   -21452    -4564    16308    37369    53266 
   63244    66457    61025    49786    36499    22346     7492   -10759 
  -35325   -60316   -75069   -77766   -73685   -63509   -46037   -26258 
   -7372    14162    36810    51359    53554    49974    47501    43116 
   30500     9286   -13961   -31081   -40767   -43364   -36028   -26622 
  -28065   -36625   -41592   -41665   -37207   -27247   -16355    -8135 
    1895    17682    35586    49594    56810    55476    45118    29660 
   11272   -10885   -31433   -45365   -55220   -60554   -59077   -52421 
  -39378   -21028    -5152     6409    16773    24705    29135    31067 
   28985    21543    12114     5003      472    -3111    -5880    -7352 
   -8244   -10006   -14941   -23600   -30631   -30800   -24624   -14404 
   -3127     4475     6729     8604    13925    18279    17324    12748 
    6446    -1227    -9742   -16221   -17135   -16941   -21867   -27432 
  -26515   -19581    -9364     3069    12864    14632    11133     8132 
    7069     5705      957    -6038   -10142    -9566    -6421    -4267 
   -7573   -14904   -19422   -19076   -15230    -8842    -3379     -124 
    4684    11364    15399    13894     7600     -746    -9888   -19584 
  -27087   -29076   -24636   -14488     -911    11182    17586    16606 
    6878    -7191   -15469   -15242   -12673   -11688    -9713    -4725 
   -1738    -3855    -5636    -6127   -10215   -13474    -8536     -741 
     895    -2745    -6655    -8425    -7067    -3800     -946     -558 
   -4776   -11373   -15048   -14964   -12394    -6771      533     5765 
    7836     8812     8274     4391      322      531     3769     4984 
    1548    -5786   -15311   -23561   -27729   -27106   -20526   -11452 
   -5595     -805     5846    10436    10368     9108    10496    13101 
   11981     5815    -1892    -7527    -9855   -11254   -13676   -14854 
  -14651   -16125   -18624   -18171   -14031   -10648    -9676    -6242 
    1578     8819    12324    14308    14661     9499      670    -6102 
  -10613   -14017   -15753   -16781   -16700   -15550   -15437   -15006 
  -11003    -3123     4970     9271     9694     6924     1846    -2027 
   -2770    -2344    -3037    -5351    -7939    -7653    -3068     1738 
    1335    -3676    -9128   -13894   -16387   -13933    -8284    -2465 
    1923     3221     1958      402    -1030    -3599    -7206    -9099 
   -7480    -4136     -363     3555     3812    -1188    -5348    -4349 
    -996     -255    -4467   -11591   -18334   -21513   -18723   -12491 
   -7415    -4688    -3221    -1344      689     1024     1464     2646 
     245    -4372    -5070    -3103    -4016    -6974    -7280    -5521 
   -4591    -4294    -6019   -12544   -20650   -23635   -20178   -12633 
   -3118     4827    10018    13467    13684    10755     6122      205 
   -4585    -7678   -10638   -12519   -14389   -18287   -19927   -15418 
   -8218    -2779     -573     -557     -731      253     3632     6033 
    3406      503      221    -2072    -6413    -9501   -11497   -12085 
  -10341    -8536    -9896   -14214   -16960   -13818    -4575     6424 
   12410    12251     9934     5352    -2281    -9293   -12503   -12618 
  -11801   -10831    -9401    -7092    -4877    -2930     1474     5769 
    5663     4521     2247    -4785   -11437   -11512    -7130    -4372 
   -5607    -8113    -9787    -9699    -7007    -4438    -4530    -5194 
   -5883    -7141    -4352     3592     9027     7241     1399    -2797 
   -3288    -2096      275     1378    -3942   -13377   -20173   -22414 
  -20648   -15924   -10835    -6138     -668     3731     4467     4063 
    4229     2023    -1032    -1607    -2787    -6092    -8469    -9464 
   -9085    -6220    -2897    -1872    -3581    -6844    -9834   -11429 
  -10849    -9332    -9261    -8495    -4434     -392     1379     2988 
    3389     1055     -935    -1019    -1378    -4050    -8195   -11043 
  -12148   -11523    -7152    -1343     -395    -4538    -8950   -11619 
  -11518    -8446    -5560    -2766     1256     2417     1034     2525 
    5088     3944       -2    -3375    -5212    -7794   -11507   -13065 
  -13262   -14931   -16008   -15277   -12521    -6134      -95     2389 
    5418     8997     9648     8490     5962     1459    -3123    -6759 
   -9373   -11236   -14168   -17632   -18428   -15873   -10860    -5069 
   -2232    -1815      -55     1345     1333     2662     3889     3068 
     287    -4271    -7115    -6953    -6608    -6253    -6357    -9115 
  -12402   -11832    -7685    -3221      -39     2062     3527     4800 
    6621     6804     3616      352    -2920    -8313   -12708   -13909 
  -14179   -15593   -17354   -16686   -12023    -5967    -1761     1624 
    4094     4337     6019    10525    12478     8468     1572    -3508 
   -7005   -11985   -17631   -21070   -22867   -24376   -22887   -17392 
  -11272    -3300     7365    12798     9131     1748    -5074    -8253 
   -4903     1375     4594     3684     -751    -7206   -11932   -13030 
  -11568   -10439   -12144   -14581   -13582    -8511    -1759     3721 
    5217     1570    -4050    -6436    -5544    -3848    -1449        0 
     315     2805     5717     4320    -1837    -9779   -16140   -19738 
  -20185   -18027   -15866   -13751    -9589    -3264     3932    10292 
   13913    13813    10956     6465     1044    -3191    -5641    -8136 
  -10809   -12874   -14831   -16051   -14682   -11011    -7248    -4590 
   -2332     -465      542     2207     3217     -306    -6254    -9545 
   -8827    -4868     -340      727    -2533    -5691    -4059     -673 
   -1269    -4419    -7881   -12943   -16618   -15441   -11931    -7317 
   -1128     3809     5560     5643     6077     5977     2855    -2442 
   -7169   -10501   -11863   -10282    -7878    -6374    -3667    -1493 
   -2489    -2490     -465     -936    -2982    -3068    -2043    -1686 
   -2678    -4612    -6412    -8942   -11639   -11647   -10417   -10687 
  -10111    -7087    -4004    -1979    -1676    -3600    -4870    -3474 
