Origin Time       2024/04/02 04:24:00
Lat.              40.133
Long.             141.712
Depth. (km)       71
Mag.              6.0
Station Code      MYG015
Station Lat.      38.1037
Station Long.     140.8708
Station Height(m) 3
Record Time       2024/04/02 04:25:12
Sampling Freq(Hz) 100Hz
Duration Time(s)  136
Dir.              U-D
Scale Factor      7845(gal)/8223790
Max. Acc. (gal)   6.595
Last Correction   2024/04/02 04:25:11
Memo.             
[...]
  -11010   -11385   -10948   -10369   -10305   -10750   -11121   -11227 
  -11624   -12189   -12051   -11511   -11473   -11761   -12108   -12602 
  -12775   -12248   -11323   -10666   -10953   -11826   -12033   -11399 
  -10768   -10493   -10516   -10615   -10485   -10322   -10373   -10516 
  -10642   -10773   -11037   -11306   -11076   -10717   -11299   -12370 
  -12548   -11951   -11696   -11952   -11882   -11308   -11164   -11808 
  -12334   -11992   -11342   -11232   -11429   -11481   -11489   -11398 
  -11198   -11211   -11194   -10656   -10233   -10710   -11218   -11038 
  -11271   -12058   -11834   -10813   -10940   -12096   -12471   -11835 
  -11314   -11421   -11700   -11423   -10706   -10562   -11232   -11755 
  -11793   -11969   -12347   -12378   -12015   -11830   -12055   -12131 
  -11695   -11287   -11350   -11562   -11565   -11341   -10905   -10520 
  -10698   -11310   -11545   -11136   -10824   -11086   -11256   -10871 
  -10544   -10852   -11670   -12220   -11886   -11335   -11252   -11348 
  -11547   -11681   -11219   -10762   -11146   -11655   -11503   -11152 
  -11165   -11522   -11813   -11692   -11553   -11796   -11875   -11526 
  -11206   -10922   -10579   -10698   -11333   -11564   -11130   -10916 
  -11259   -11487   -11103   -10471   -10218   -10434   -10894   -11290 
  -11402   -11466   -11476   -11168   -10868   -10905   -11020   -10847 
  -10624   -11017   -11911   -12528   -12594   -12375   -12158   -11996 
  -11956   -11966   -11488   -10604   -10258   -10621   -10924   -10659 
  -10061    -9860   -10362   -11026   -11515   -11859   -11827   -11610 
  -11762   -12064   -12036   -11766   -11530   -11600   -12067   -12483 
  -12507   -12037   -11161   -10782   -11341   -11809   -11611   -11280 
  -11094   -10768   -10242   -10222   -11074   -11739   -11510   -11176 
  -11327   -11669   -11873   -11769   -11616   -11862   -12260   -12233 
  -11757   -11454   -11584   -11516   -11016   -10490   -10130    -9896 
   -9722    -9707   -10077   -10878   -11700   -11731   -11277   -11722 
  -12633   -12540   -11824   -11295   -11030   -11481   -12518   -12999 
  -12388   -11425   -11203   -11637   -11801   -11731   -11786   -11655 
  -11157   -10588   -10551   -11103   -11387   -11257   -11225   -11144 
  -10809   -10435   -10561   -11275   -11599   -11327   -11264   -11334 
  -11188   -10882   -10598   -10797   -11407   -11712   -11499   -11295 
  -11462   -11709   -11812   -11632   -11183   -11180   -11601   -11665 
  -11651   -11988   -12260   -12040   -11442   -11283   -11794   -11974 
  -11403   -10804   -10783   -11168   -11311   -10974   -10593   -10764 
  -11487   -11645   -10906   -10774   -11611   -12166   -12047   -11738 
  -11632   -11607   -11578   -11809   -11739   -11052   -10629   -10685 
  -10831   -11013   -11076   -10895   -10658   -10743   -11149   -11249 
  -10902   -10727   -11001   -11236   -10962   -10619   -10929   -11781 
  -12268   -11938   -11691   -11950   -11739   -11279   -11539   -11824 
  -11651   -11840   -12266   -12206   -11755   -11142   -10717   -10824 
  -11121   -11394   -11680   -11620   -11295   -11238   -11183   -10814 
  -10736   -11114   -11464   -11515   -11075   -10551   -10654   -11159 
  -11460   -11520   -11676   -11723   -11385   -11415   -11947   -12046 
  -11843   -11842   -11777   -11632   -11657   -11784   -11713   -11330 
  -11047   -11072   -11009   -10750   -10702   -10918   -10929   -10719 
  -10762   -11138   -11518   -11618   -11583   -11844   -12174   -12156 
  -12062   -11967   -11983   -12332   -12177   -11367   -11148   -11429 
  -11260   -10778   -10489   -10624   -11079   -11415   -11325   -10989 
  -11087   -11793   -12118   -11430   -10620   -10710   -11250   -11302 
  -11003   -10827   -10879   -11249   -11547   -11315   -10808   -10438 
  -10650   -11373   -11483   -10804   -10388   -10289    -9938    -9358 
   -8995    -9213    -9572    -9574    -9506    -9472    -9505    -9958 
  -10708   -11341   -11607   -11503   -11453   -11776   -12081   -11885 
  -11734   -12355   -13165   -13412   -13039   -12237   -11803   -12025 
  -11882   -11047   -10473   -10678   -11102   -11124   -10914   -10878 
  -10957   -11026   -11275   -11757   -12150   -12214   -12118   -12243 
  -12621   -12906   -13046   -13311   -13572   -13342   -12781   -12753 
  -13397   -13834   -13470   -12654   -12100   -12069   -12297   -12334 
  -12021   -11699   -11465   -11217   -11065   -10893   -10670   -10404 
   -9891    -9691   -10373   -11296   -11781   -11827   -11642   -11639 
  -11885   -11792   -11353   -11126   -10790   -10165   -10420   -11797 
  -12672   -12283   -11635   -11539   -11840   -12150   -12237   -11985 
  -11446   -10922   -10801   -10991   -11088   -11149   -11276   -11117 
  -10601   -10165   -10166   -10447   -10527   -10482   -10693   -10890 
  -10825   -10773   -10840   -10913   -10871   -10652   -10407   -10238 
  -10195   -10409   -10733   -10798   -10498   -10123   -10197   -10937 
  -11653   -11264   -10044    -9472    -9875   -10534   -11163   -11496 
  -11416   -11335   -11187   -10758   -10685   -11302   -11844   -11672 
  -11171   -11140   -11453   -11481   -11568   -12001   -12136   -11851 
  -11550   -11500   -11962   -12309   -11608   -10589   -10521   -11213 
  -11936   -12382   -12312   -11992   -11746   -11425   -11514   -12128 
  -12197   -11622   -11072   -10686   -10697   -11032   -11105   -11067 
  -11430   -11907   -12043   -11947   -11708   -11349   -11129   -11157 
  -11300   -11515   -11871   -12388   -12791   -12629   -12050   -11915 
  -12530   -13317   -13763   -13409   -12297   -11666   -12128   -12460 
  -11892   -11260   -11249   -11491   -11329   -10663   -10204   -10520 
  -11244   -11708   -11659   -11425   -11388   -11065   -10106    -9528 
   -9913   -10299   -10170   -10058   -10197   -10355   -10235    -9761 
   -9606   -10320   -11107   -11152   -10893   -10901   -11167   -11553 
  -11790   -11635   -11290   -11149   -11213   -11152   -10974   -10723 
  -10353   -10474   -11346   -12096   -12310   -12341   -12253   -11970 
  -11816   -12239   -12876   -13112   -13216   -13188   -12745   -12496 
  -12721   -12826   -12483   -11869   -11492   -11387   -11188   -11105 
  -11111   -11002   -11021   -10858   -10293    -9998   -10162   -10300 
  -10112    -9867   -10308   -11356   -11996   -12109   -12175   -12162 
  -12031   -11858   -11762   -11908   -12209   -12484   -12474   -12009 
  -11352   -10852   -10694   -10627   -10358   -10212   -10257   -10322 
  -10631   -10936   -10843   -10579   -10449   -10755   -11416   -11642 
  -11261   -11097   -11350   -11200   -10700   -10760   -11163   -11280 
  -11414   -11549   -11146   -10779   -11392   -12132   -11813   -11385 
  -11723   -12152   -12600   -13120   -13157   -12973   -12613   -11728 
  -11047   -10957   -11071   -11284   -11188   -10378    -9320    -8883 
   -9451   -10154    -9938    -9205    -8887    -9270   -10031   -10374 
  -10081   -10002   -10714   -11809   -12528   -12478   -12025   -11827 
  -11859   -11704   -11485   -11477   -11553   -11506   -11242   -10921 
  -10744   -10643   -10709   -10935   -10949   -10966   -11364   -11593 
  -11318   -11233   -11583   -11855   -11993   -12105   -12116   -12167 
  -12105   -11781   -11704   -11959   -12267   -12672   -12957   -12937 
  -12741   -12461   -12353   -12380   -12158   -11886   -12016   -12237 
  -11928   -11152   -10538   -10660   -11399   -11765   -11350   -11026 
  -11323   -11874   -12280   -12374   -12297   -12187   -11921   -11542 
  -11283   -11377   -11890   -12351   -12401   -12322   -12294   -12258 
  -12155   -11820   -11227   -10648   -10493   -10831   -11273   -11610 
  -11684   -11171   -10507   -10413   -10694   -10895   -10717   -10200 
  -10164   -10660   -10625   -10107   -10316   -11354   -11792   -11026 
  -10297   -10323   -10303    -9926    -9694    -9749    -9996   -10331 
  -10534   -10589   -10724   -11018   -11241   -11074   -10602   -10341 
  -10531   -10733   -10440   -10033   -10250   -10854   -10967   -10455 
  -10227   -10957   -11684   -11422   -11172   -11823   -12483   -12397 
  -12093   -12060   -12021   -12031   -12464   -12815   -12573   -12264 
  -12492   -12993   -12906   -12048   -11280   -11110   -11226   -11268 
  -11229   -11497   -12071   -12204   -11705   -11192   -11142   -11522 
  -11622   -11221   -11118   -11371   -11484   -11556   -11747   -12168 
  -12559   -12474   -12172   -11731   -11217   -11277   -11573   -11421 
  -11268   -11306   -11304   -11610   -11979   -11641   -11103   -11070 
  -11075   -11133   -11638   -12028   -11896   -11584   -11372   -11406 
  -11680   -12010   -12352   -12676   -12685   -12195   -11530   -11340 
  -12001   -12869   -13000   -12557   -12054   -11561   -11226   -10967 
  -10511   -10250   -10455   -10605   -10573   -10581   -10389   -10170 
  -10276   -10162    -9714    -9779   -10385   -10686   -10365    -9875 
   -9921   -10519   -10872   -10878   -11207   -11794   -12133   -12232 
  -12216   -12015   -11786   -11793   -11711   -11377   -11406   -11762 
  -11855   -11824   -11853   -11801   -11758   -11749   -11618   -11375 
  -11155   -11079   -11152   -11269   -11418   -11608   -11705   -11591 
  -11449   -11674   -12247   -12448   -11950   -11416   -11334   -11375 
  -11091   -10759   -11182   -12171   -12502   -12087   -11940   -12052 
  -11803   -11322   -11067   -11171   -11581   -12062   -12128   -11776 
  -11481   -11141   -10635   -10268    -9976    -9595    -9197    -9007 
   -9243    -9745   -10312   -10666   -10725   -11192   -12013   -12320 
  -12189   -11939   -11623   -11561   -11765   -12155   -12766   -13059 
  -12552   -11592   -10810   -10319    -9857    -9594    -9686    -9814 
   -9896    -9922    -9960   -10403   -10940   -10855   -10363   -10027 
  -10034   -10305   -10515   -10411    -9871    -9270    -9319    -9524 
   -9232    -9270   -10061   -10867   -11362   -11819   -12468   -13080 
  -13090   -12564   -11961   -11267   -10795   -11317   -12491   -13167 
  -12833   -11850   -11553   -12614   -13329   -12598   -11750   -11445 
  -11168   -10918   -10694   -10687   -11449   -12506   -12715   -11983 
  -11319   -11248   -11206   -10805   -10384   -10216   -10139   -10106 
  -10427   -11043   -11566   -11947   -12062   -12020   -12388   -12991 
  -13347   -13748   -14335   -14558   -13973   -13136   -12976   -13059 
  -12289   -10662    -8984    -8311    -8997    -9992   -10407   -10162 
   -9387    -8953    -9786   -11155   -11672   -11412   -11573   -12588 
  -13549   -13805   -14076   -15013   -15930   -15753   -14173   -12067 
  -10960   -11302   -11966   -11951   -11502   -11333   -11350   -11110 
  -10787   -10431    -9984   -10019   -10656   -11248   -11435   -11300 
  -11090   -11010   -10906   -10343    -9591    -9856   -11172   -11967 
  -11645   -11087   -10909   -11138   -11719   -12158   -11963   -11504 
  -11117   -10797   -10875   -11649   -12980   -14085   -14256   -13869 
  -13362   -12501   -11240    -9913    -8907    -8537    -8862    -9585 
  -10172   -10260    -9988    -9742    -9593    -9335    -8977    -8972 
   -9683   -10686   -11260   -11291   -11333   -11743   -11979   -11650 
  -11194   -10899   -10451    -9383    -8106    -7805    -8683    -9833 
  -10431   -10318   -10199   -10665   -11325   -11708   -12129   -12916 
  -13593   -14062   -14729   -15180   -15064   -14636   -13937   -13100 
  -12444   -12307   -12588   -12386   -11607   -11152   -11164   -10887 
  -10068    -9985   -11160   -11700   -10708    -9545    -9072    -9031 
   -9158    -9489   -10314   -11566   -12333   -12398   -12914   -14008 
  -14454   -14075   -13683   -13406   -12961   -12660   -13003   -13666 
  -13622   -12669   -11772   -11350   -10989   -10755   -10920   -10871 
  -10110    -9289    -8797    -8089    -7461    -7967    -9112    -9466 
   -8892    -8329    -8816   -10569   -12336   -12739   -12075   -11800 
  -12096   -11846   -11136   -10887   -11173   -11483   -11318   -11106 
  -11542   -12037   -12229   -12371   -11847   -10854   -10685   -11180 
  -11379   -11221   -10922   -10878   -11470   -11743   -10790    -9666 
   -9157    -8910    -9166    -9850   -10322   -11011   -12278   -13267 
  -13321   -12669   -11880   -11209   -10820   -11384   -12861   -13929 
  -13668   -12434   -11149   -10435   -10420   -10488    -9949    -9512 
   -9753    -9987   -10100   -10399   -11078   -12380   -13489   -13478 
  -12615   -11326   -10123    -9783   -10616   -12144   -13304   -13473 
  -13257   -13572   -14114   -13903   -13423   -13639   -14018   -13919 
  -13155   -11614   -10300   -10100   -10389   -10311    -9953   -10064 
  -10750   -11564   -12537   -13733   -14700   -14639   -13716   -13230 
  -13204   -12835   -12394   -11869   -10885   -10026    -9844   -10285 
  -11020   -11511   -11310   -10368    -9566    -9605    -9639    -9196 
   -9266   -10153   -10679   -10285   -10129   -11125   -12264   -12101 
  -11211   -11322   -12239   -12324   -11475   -11009   -11165   -10743 
   -9513    -8654    -8407    -8178    -8320    -9293   -10403   -11037 
  -11468   -11713   -11767   -11934   -11749   -10827    -9693    -8753 
   -8467    -9301   -10654   -11678   -12438   -13269   -14095   -14293 
  -13564   -12710   -12204   -11780   -11620   -11982   -12510   -12436 
  -11881   -12162   -12847   -12091   -10713   -10605   -11175   -11276 
  -10949   -10539   -10362   -10455   -10732   -10947   -10659   -10068 
   -9343    -8522    -8201    -8370    -8866    -9814   -10743   -11527 
  -12058   -11631   -10801   -10843   -11588   -12494   -14010   -16136 
  -17743   -18260   -18099   -17667   -17194   -16232   -14413   -13023 
  -12523   -11649   -10192    -8679    -7392    -6613    -6170    -6197 
   -6964    -7948    -8708    -9019    -8685    -8244    -8546    -9659 
  -10743   -11153   -11263   -11720   -12787   -14233   -15133   -14887 
  -14112   -13485   -12603   -10636    -8370    -7844    -8969   -10110 
  -10949   -11668   -12212   -12428   -11971   -11423   -11537   -12029 
  -12665   -13078   -12862   -12858   -13640   -14238   -13957   -13410 
  -12935   -11647    -9682    -8521    -7948    -6940    -6328    -6851 
   -7477    -7547    -7915    -9088   -10268   -10982   -11769   -12861 
  -13709   -13957   -14003   -14588   -16159   -17933   -17926   -15619 
  -13026   -11990   -12325   -12438   -11431   -10274    -9811   -10052 
  -11005   -11684   -11345   -11040   -11033   -10416    -9143    -7928 
   -7622    -8058    -8345    -8738    -9778   -10926   -11261   -10851 
  -10858   -11603   -12168   -11958   -11140   -10395   -10496   -11321 
  -11703   -11034   -10466   -10956   -11419   -10912   -10355   -10335 
  -10461   -10951   -11780   -12231   -12332   -12347   -12287   -12721 
  -13810   -14431   -13770   -12769   -12718   -13362   -13802   -13730 
  -13400   -13159   -12478   -11267   -10916   -11573   -12164   -12336 
  -12139   -12310   -13131   -13455   -13153   -12964   -12661   -12052 
  -11415   -10760   -10149    -9709    -9196    -8488    -8083    -8517 
   -9332    -9406    -9205   -10199   -11773   -12468   -12252   -11859 
  -12235   -13140   -13023   -11750   -10517    -9814    -9510    -9477 
   -9510    -9421    -9271    -9144    -8919    -8552    -8298    -8278 
   -8195    -7888    -7507    -7690    -9036   -10300   -10179    -9834 
  -10339   -11385   -12465   -12672   -12197   -12440   -13099   -13196 
  -13236   -13697   -14207   -14326   -13695   -12729   -12432   -12468 
  -11986   -11543   -11429   -11222   -11311   -11689   -11958   -12368 
  -12676   -12731   -13077   -13228   -12383   -11014    -9853    -9455 
  -10129   -10682   -10291   -10114   -10579   -11294   -12279   -12868 
  -12852   -12958   -13116   -13062   -12706   -11880   -11213   -11321 
  -11792   -12148   -12379   -12791   -13494   -13813   -13474   -13286 
  -13423   -13294   -12908   -12467   -11863   -11257   -11021   -10960 
  -10386    -9452    -9755   -11497   -12029   -10689   -10088   -10912 
  -11693   -11997   -11974   -11450   -10874   -11141   -11831   -11996 
  -11773   -11159   -10386   -10689   -11646   -11576   -10910   -11076 
  -11875   -12160   -11732   -11631   -12145   -12113   -11179   -10093 
   -9096    -8306    -8110    -8337    -8295    -7680    -7314    -8116 
   -9564   -10844   -11915   -12506   -12298   -11722   -11350   -11361 
  -11642   -11894   -11870   -11583   -11057   -10362    -9856    -9853 
  -10177   -10241    -9683    -9054    -9192    -9834   -10143   -10374 
  -11079   -11719   -11877   -12042   -12586   -13424   -14133   -14185 
  -13578   -12768   -12244   -12220   -12171   -11439   -10590   -10478 
  -10632   -10779   -11453   -11846   -11140   -10497   -10720   -11211 
  -11415   -11055   -10382   -10079   -10211   -10342   -10450   -11038 
  -12247   -13381   -13760   -13356   -12532   -11749   -11457   -11746 
  -12391   -13099   -13302   -12955   -12862   -13095   -13070   -12676 
  -11835   -10620    -9819   -10045   -10947   -11651   -11643   -11334 
  -11472   -12062   -12312   -11793   -11325   -11755   -12359   -11916 
  -10694   -10000   -10211   -10644   -11137   -11758   -11988   -11719 
  -11254   -10694   -10361   -10228    -9979    -9972   -10219   -10293 
  -10786   -11938   -12455   -11924   -11537   -11488   -11110   -10871 
  -11176   -11398   -11226   -10951   -11045   -11703   -12248   -12101 
  -11821   -11942   -12221   -12586   -12984   -13306   -13659   -13351 
  -11750    -9929    -9050    -8903    -8992    -9217    -9617   -10046 
  -10188   -10242   -10681   -11411   -12140   -12537   -12313   -12019 
  -12202   -12349   -12299   -12312   -12020   -11530   -11416   -11730 
  -12209   -12289   -11925   -11647   -11209   -10747   -10849   -10813 
  -10355   -10318   -10609   -10619   -10453   -10604   -11264   -11877 
  -11812   -11314   -10863   -10650   -10862   -11087   -10725   -10018 
   -9572   -10026   -11226   -12039   -12128   -11878   -11533   -11348 
  -11362   -11566   -11857   -11932   -12006   -12355   -12613   -12434 
  -11921   -11149   -10382   -10341   -10825   -10909   -10787   -10878 
  -10817   -10727   -11215   -11859   -11404   -10276   -10237   -11016 
  -11291   -11142   -10771   -10239   -10003   -10034   -10341   -11051 
  -11670   -11927   -11934   -11666   -11462   -11635   -12083   -12827 
  -13616   -13869   -13509   -12953   -12768   -12980   -13001   -12749 
  -12430   -11898   -11184   -10731   -10720   -10631   -10152    -9664 
   -9463    -9555    -9795   -10099   -10544   -11165   -12198   -13520 
  -14292   -14149   -13610   -13204   -12650   -11535   -10694   -10889 
  -11253   -11075   -10705   -10374   -10176   -10392   -11080   -11745 
  -11861   -11695   -11491   -11121   -11149   -11792   -12164   -12141 
  -12206   -12020   -11387   -10867   -10798   -11115   -11422   -11101 
  -10427   -10309   -10763   -11221   -11222   -10725   -10617   -11385 
  -12104   -11911   -11134   -10507    -9937    -9329    -9406   -10173 
  -10876   -11213   -11053   -10477    -9857    -9702   -10466   -11780 
  -12734   -12577   -11429   -10471    -9906    -9207    -8978    -9271 
   -9491   -10120   -11130   -11643   -11835   -12363   -13099   -13396 
  -12899   -12143   -11911   -11986   -11668   -11259   -11398   -11659 
  -11481   -11380   -11842   -12228   -11974   -11427   -10964   -10729 
  -10798   -10966   -11051   -11303   -11809   -11896   -11445   -11453 
  -11853   -11631   -11153   -11263   -11673   -11713   -11380   -11497 
