Origin Time       2024/04/02 04:24:00
Lat.              40.133
Long.             141.712
Depth. (km)       71
Mag.              6.0
Station Code      MYG002
Station Lat.      38.7261
Station Long.     141.5110
Station Height(m) 65
Record Time       2024/04/02 04:25:02
Sampling Freq(Hz) 100Hz
Duration Time(s)  126
Dir.              E-W
Scale Factor      7845(gal)/8223790
Max. Acc. (gal)   53.767
Last Correction   2024/04/02 04:25:02
Memo.             
[...]
     467      602     2901     6918     5945     1598     1507     2702 
    1354      259    -1436    -1459     5466    12453    12291     7207 
   -2551   -10876    -7018     2712     7819     9038     5320    -1030 
    -673     4396     5703     2959      -28     -387     1675     4428 
    6058     3271    -2373    -5023    -2278     4703    10658    10245 
    5162      376    -1730    -1140     2165     5539     4008      657 
     800     1537     2790     5846     4729     -346     -903     2716 
    3253     1198     1177     2434     3663     5661     5387      967 
   -1574      928     3296     3483     4158     3707     -322    -3149 
     606     7604    10064     5216    -1755    -4487    -2083     3599 
    9111     8352     1097    -3129     -172     2774     2848     3996 
    5320     3762     2081     2629     1317    -1351      459     3616 
    4434     5751     5242     1818     -141     -313     1819     5611 
    4517     -109      311     3141     2625     3041     3882     1063 
     792     3874     3249     1529     1952     2076     3331     5008 
    3186      792     1459     2558     3067     5481     6623     1178 
   -4865    -3348     1406     5107     9621    10397     4125    -1972 
   -3817    -2609     1547     5243     6012     5536     3154     -481 
   -1441      371     2343     3514     3634     3753     4770     4464 
    2955     2087      130    -1493     -766     -129     1995     6129 
    7288     6052     5306     2587    -1719    -2253      271      828 
     942     3794     7279     8089     4976     -102    -3542    -3048 
    1464     6332     7051     3377      205     2124     5952     6049 
    2351    -1556    -1691     1227     3338     4887     5323     3319 
    2812     3338      322    -2308    -1109      -79     2424     9000 
   10740     3678    -2358    -2439      742     5516     7634     4043 
    -751    -1611     1775     5391     5665     3175    -1063    -3522 
    -118     4513     5741     5945     4685     1251      143     1163 
     -87    -1969       91     6428    11157     8365     1242    -3412 
   -2529     2955     6251     2605    -3142    -4116     2454    12028 
   15129     9902      380   -10076   -12336    -2496     6988     8781 
    8013     5719     2269     2080     3102      -35    -5247    -5169 
    2257     9585    11260     9031     3466    -3061    -4086     -303 
    2280     2474     2513     3964     6480     7582     4799     -341 
   -2755    -1140     1632     4010     5167     5447     5165     2840 
    1023     1911     1204     -665      661     2065     2191     4725 
    5981     2509      313     2238     3160      540    -1304     1324 
    5306     6924     6504     3113    -2720    -4766     -330     6153 
    8889     5567     1628     1485     1593     1979     4010     2093 
   -2737    -2034     3145     6131     6216     5414     2918    -1120 
   -1879     1317     3026     3281     4795     4507     2076     2169 
    2570      126     -642     1351     3904     6432     5599     1553 
    -580      687     2817     2710      905      722     2951     6204 
    7511     5644     2656    -1749    -4935    -1729     2149     1559 
    3978    10428    12576     9443     2839    -5979    -9710    -5491 
    1094     6018     6945     5626     6524     7821     6656     3076 
   -2722    -6995    -4590     3597     9653     8058     3203     -348 
   -2299      610     5846     5024     1626     1884     2423     1682 
     913       93     2085     6218     5522      471    -1649      805 
    6196     9783     4059    -5300    -5433     1107     5771     7430 
    5533     1742      560     1462     1753     1478     2127     3165 
    2462     1881     2859     3788     5606     5954     1911    -1279 
    -684     1051     3001     4091     2756      581      939     4050 
    6304     5287     1746    -2118    -1979     3875     8149     5769 
    2246      503     -754      942     3780     3761     3642     3551 
    2100     3168     4573      735    -3442    -1841     2353     5852 
    8391     7206     2212    -2146    -2957     -302     2725     5144 
    9008    10156     4437    -3094    -7441    -6435     1644    11273 
   13436     7207     -464    -3858    -3346     -649     2805     4051 
    2976     2459     2786     1887      292     1782     6187     6435 
    1637      248     1991      992       68      766     1080     3011 
    5842     6781     6157     3343    -1170    -3237    -1625     1186 
    5371     9105     6849     2390     1560       28    -2142      234 
    4333     6227     6853     6062     1929    -2752    -1840     2475 
    3523     3435     4942     3964     1152      608      264     -437 
    2033     6284     8216     7103     4641     1043    -2971    -3547 
   -1136      916     3067     4884     5510     6328     6617     4298 
     882    -1706    -4494    -4453     1590     7615     9181     8831 
    6708     1834    -2598    -3808    -3519    -1602     3798     7762 
    7884     7624     3925    -2505    -3272      600     3326     3881 
    3026     2512     2469     3234     5084     3439     -795    -1610 
    -792      658     4896     8529     9139     6909     2047    -2474 
   -4031    -2042     1912     5192     6867     5917     3736     2322 
    -791    -2442     2245     6099     5232     3913      272    -3685 
   -1283     3780     5768     4573     2203     2539     6161     8075 
    4475    -2558    -6895    -4303     3281     9414    10349     7331 
    1439    -3368    -1035     2737        5    -1683     3285     8560 
   10635     8062      -72    -8939   -11286    -2883     8991    13302 
   11209     5566    -2840    -4731     3017     9170     7144      -64 
   -5772    -3372     4141     8415     6158     -541    -3545     1466 
    7237     7452     3252    -1181    -1201     3867     6424     1445 
   -1971     1992     5360     4999     3775     -255    -4500    -1096 
    6833     8914     4522      -28    -1472     1250     5227     5061 
    1335    -2095    -2195     3145     9832     9937     3599    -1081 
   -2002    -1603     1826     4399     1806     1347     4918     6264 
    5497     2886    -2037    -3280     1165     5233     5837     3677 
    1092     1528     2501     1254     1556     2629     1335     2193 
    6268     5470     -718    -2064     2371     5296     6863     6480 
    1375    -3253    -4699    -4614      244     7997    11458    10504 
    5786    -2000    -5887    -4106     -233     6039     9784     6118 
    2944     3919     3271     1258      113    -1506    -1773     1964 
    6652     8946     8322     3005    -3462    -3851      145     4199 
    6417     4529     1453      108     -383     1817     4703     4197 
    4202     5252     2998     1583     3341     2619     -353    -2087 
    -920     4573     8040     5313     4099     4959     1652    -2350 
   -2440    -1100     -247     2897     8579     9821     4687     -310 
   -2787    -3042      919     7285     9720     5206     -832    -1539 
      72     -483     1584     5844     5695     4309     4726     2544 
   -2180    -4017     -664     3065     4870     8642     9512     2265 
   -2909     -368     2874     4043     2625    -1760    -3541     -334 
    4287     8629    10438     7157     2335     -345    -2178    -2635 
     275     3852     3021      495     3727     7936     6354     4378 
    3226      866     1830     3284    -1692    -7252    -3981     4985 
   11246    11781     5319    -3175    -4037     1224     5540     6431 
    2884    -2033    -2880     -302     2439     5584     7466     4476 
     549     1726     4380     2556    -2149    -4390     -436     8114 
   13181     9018      301    -5173    -4453     1345     5517     2868 
     306     2894     4955     5977     6976     2208    -3942    -1567 
    4638     6191     4749     3541     1193     -206     2783     4233 
    1740     2281     3281      421     -175     2420     4638     6717 
    5486      -33    -3527    -2513     1485     7101     9350     6601 
    4853     3213    -3219    -6011     -286     3362     4136     6351 
    4425     1005      234     -716     3886    10804     7446      893 
   -1549    -3797    -1088     6585     8565     3481    -1313    -1761 
    -456     1250     6083     9413     5163    -1277    -3937    -2471 
    3852    11265    10169      -75    -6026    -1074     4837     4645 
    1374     -642     2215     7159     5495     -614    -1856     1507 
    5756     7878     3778    -3060    -3936     2573     8186     7214 
    4870     4137     1304    -1883    -1628     1131     4090     4121 
    2396     3433     4531     3765     3343      445    -2590      157 
    4436     6813     7310     3167    -1374     -892      149     -623 
    1341     5271     6443     6771     7408     3879    -2581    -6461 
   -5593       86     6324     8090     7496     6343     2511    -1121 
    -851     -155     -845      292     2377     5175     9630     9409 
    4028     -322    -4307    -5233       93     4060     3994     4610 
    5221     5070     5078     2205    -2538    -2866      608     3831 
    6201     4959     1063     2118     5999     4706     1439      -40 
   -1911      156     6613     7308     2542     1317     2546     1737 
     973      521     -688     1769     7904    11344     8945     1483 
   -5143    -5930    -3642     1366     8538     9861     6227     5300 
    3215    -1977    -3724    -3550    -2793     2690     8591    10354 
    8502     2413    -2025    -1250    -1814    -1822     2343     3181 
    2436     7663    11088     6925     1779    -1979    -4519    -3747 
      97     5813     9228     7350     5024     2297    -4185    -5826 
    1073     5428     4803     5991     7663     4783     -306    -1506 
     191     1173     3562     5755     2775    -1566     -765     3854 
    6617     6619     5763     1691    -3705    -3122     1524     5074 
    8167     7335     1391    -1738    -1759    -1887     2076     7800 
    8456     4432    -1456    -4214     -210     6097     9656     7168 
    -498    -3570     1345     6135     4942    -1375    -5240    -1325 
    6168    12496    12339     2671    -6054    -5775    -2461     1121 
    5598     8002     8760     7546     3068    -1973    -6191    -6925 
    -992     7487    12195    11103     5305    -1510    -4309    -2450 
     575     4174     6756     4546     1925     2367      669    -1287 
     442     1374     1660     4295     6322     5429     2189     -708 
     410     3364     2733      295      851     2768     3356     3871 
    4633     4955     3778     -629    -4758    -4178     -230     6293 
   11632     7985      356     -999      629     1348     3577     4722 
     966    -5227    -6151     1501     9828    13865    13555     4159 
   -9433   -13512    -6320     3654     9225     9398     6301     2214 
    2120     4887     1853    -4973    -5088     2778    10798    10681 
    2057    -5166    -4392      696     4816     4315      398     1755 
    8102     7935     3036      148    -5842   -10152    -3480     6108 
   10462     7896      365    -3338    -3558    -4018     1019     7882 
    8266     7651     7431      974    -4248      787     8046     8530 
    2713    -2983    -3688    -1748     3785    10261     7479     3218 
    5953     3971    -1462      406     5123    10442    16151    13057 
    1128    -8453   -10759    -6088     5265    17863    23700    19607 
    8413    -3329   -10921   -10746      -13    13603    18932    13672 
     209   -10928    -9661    -6120    -7025    -1775     5626     4183 
    4321    15502    27033    28794    22316     9672    -7069   -18527 
  -18171   -11499    -4035     5728    15759    18334    13228     7836 
    2316    -7387   -15498   -14129    -5633     4567    12374    12048 
    1972   -10532   -12451     -946    10346    15411    16708     8604 
   -7437   -18719   -17154    -3304    13730    21735    11385   -13794 
  -31114   -25394    -5162    14989    25043    23778    13428    -5784 
  -19595   -10138    10511    16892     8046    -3385   -13968   -17375 
   -4218    14922    20725    11809      390    -3387     1298     6022 
    1595   -10177   -14974    -3136    14809    20212     9190    -5413 
  -10962    -5076     8699    21730    23063    13934     2875    -9641 
  -17217    -7133    11439    17242     8619     -915    -7171   -12839 
   -7226    12159    20166    10385     6444     9879     6770     4936 
    9535     7705    -2817   -12077   -13429    -6196     5184    16305 
   19963    11963     2825    -2698   -12015   -20655   -17497    -2087 
   17589    29484    27392    17204     2957   -13436   -20837   -17077 
  -14949   -10305     8117    25143    28518    29166    26195     9489 
  -10374   -19885   -26275   -33469   -28124    -6751    18982    36732 
   37621    24548     5404   -17228   -33102   -29322    -8822    14435 
   24991    16333     3352     5316    15141    13491     2130    -7747 
  -14218   -15469   -10430    -3832     2725    11007    17909    19408 
   17421    11632    -3102   -21521   -30090   -23664    -3558    25666 
   48768    45717    14600   -20551   -34604   -22123     5505    27687 
   29466    16170     3485    -4567   -13498   -19360   -14289    -1243 
   14112    29226    36273    23345    -8060   -36796   -45455   -33725 
   -7646    20688    36196    35995    27650    17238     5470    -8214 
  -18133   -20668   -21926   -16320     7484    35182    48817    44671 
   15565   -28733   -53912   -43758   -11296    23743    41292    31716 
   10644    -4789   -14145   -15272    -7360     1790    10328    16449 
   11499    -2324    -7599     2031     8147     1227    -4822    -8267 
  -16167   -16248     -588    17672    30654    38905    33119     6451 
  -27144   -48682   -47733   -20298    20645    49478    50957    26558 
   -7777   -30123   -27047    -4207    11507     3484   -10555    -9023 
    9478    28518    27811     7788   -15385   -25525   -11480    15998 
   31492    24046     3087   -10862    -7353     5243    18458    19226 
   -2748   -23133   -20488    -8428     7372    26505    29388    12873 
   -2299   -10463   -20015   -24071    -9558    15804    33766    33934 
   12565   -17710   -30877   -18149    10359    36788    36734     9212 
  -16031   -22785   -17084    -2789    10739     6529    -7215    -5356 
    7190    13899    19865    20582     4257   -14979   -22959   -23944 
  -17354     1421    23530    34088    31977    24757     9105   -15475 
  -30438   -23827    -3757    16152    24133    19207     8409    -6025 
  -17220   -12275     6193    19188    18642    13483     4700    -7875 
   -6721    10551    15187    -3198   -16761    -8642     8475    24327 
   30146    14608   -12004   -28898   -27666   -12005     5586    17856 
   23696    17250     1603    -9225    -9778    -4375      980     1788 
   -3034   -11122   -12910    -1277    11144    12928    12158     7897 
   -7384   -17109    -8752     1054     1884     4293    13231    16969 
    7962    -4156   -12368   -18239   -14638     4990    28301    37650 
   29281     9209   -14025   -28364   -25902    -9329    13076    29444 
   32868    26492     7535   -21658   -36871   -29203   -12525    12820 
   40225    43754    23433     2350    -9929   -11090    -4590    -1904 
   -3576    -2164     7778    22638    25593    13902      480   -11885 
  -17757    -9860     1734     7546     9312     7717      891    -8426 
  -10404    -3292     1988     5980    16568    22859    13348    -2911 
  -16040   -21496   -12860     4938    18998    25806    23660    10639 
   -6062   -18843   -22790   -13791     2798    18365    28489    26010 
   10489    -4757   -12857   -15421   -10068    -1647      464      178 
    3561     8194    10397     8661     3133    -8753   -20590   -12937 
    8889    18974    16492     9059    -8841   -20781    -1098    26532 
   22572    -2722   -20078   -21139    -6188    17679    34462    32709 
   13235   -13389   -33238   -33235   -12733     9043    19735    27546 
   30998    18947     -935   -16054   -23431   -15369     5680    17111 
   13316     8877     7604    10192    15329     9456    -6659   -17892 
  -20972   -14705     3086    22755    33134    32011    20780     -737 
  -26419   -37127   -24426    -4889    12052    32178    42747    27530 
    3403    -9246   -15668   -21616   -17613     -858    11337    12189 
   14361    15660     9657     2921    -7697   -21055   -18326      244 
   14499    18350    15421     5374    -5578    -8910    -7761    -3314 
    8514    19272    18064     8579    -1549   -12205   -20299   -15294 
     515    13208    20351    23319    14331    -6361   -17930    -7132 
    5860     6493     7635     7126     -333     2930    13443    10555 
    -167    -9813   -16509    -7179    14446    24007    14104    -7148 
  -24652   -23110    -7862    12480    32509    33362    14307    -5101 
  -20522   -26373   -13682     5494    16885    17047     7776     2612 
    9020    13099     3653   -11529   -17003    -8591     6446    21447 
   26622    16465     1912    -9062   -17716   -18260    -6828     8112 
   17327    17420    11959     7560     1641    -9192   -16457   -14482 
   -5849     7951    20528    19695     6744     -845     2802     5621 
    -699   -13377   -19948   -11360     5331    23552    36153    25020 
   -5321   -25755   -29370   -21741     1318    27463    36586    29199 
   12447    -7055   -18967   -19666   -10021     5938    15084    15577 
   18566    17937     3939   -12147   -20725   -22384   -10558    13869 
   28394    19367     2781    -3353    -2188      619     8317    12117 
     978    -8139      253     9383     5845    -1756    -6346    -5918 
    1146    10393    14099     7897    -5670   -14732    -8209     6022 
   12046    11051     9778     6951     3769     -309    -6689    -6421 
    2397     9612    12033     7537    -3642    -8962    -6343    -3765 
    4081    13726     9092     1046     4843     6197      982     3337 
    9038     6193     -110     -503    -1660    -7245    -2516    10763 
   14490    10247     7057     1547    -8437   -13798    -8113     2444 
   11835    17516    12777    -3680   -17410   -13281     2608    13406 
   12179      395    -8367     -538    12382    18087    18216     8410 
   -8068   -16690   -14033    -4523     5551    10138     9725     7361 
    7670    10369     5661    -3600    -5695    -7101   -12509    -9389 
    1582     9648    18578    24661    12877    -4872    -7425    -4515 
   -6721    -4553      558     2952     9929    19333    20474    11674 
   -3573   -16398   -17535    -9030     2644    13628    19357    16112 
    7693     1706     -909    -1340     -286    -1723    -4457    -4359 
   -2150      865     3136     5991    10604     9169     1304    -2116 
   -2143    -2767     2901    10417     6031    -4309    -6809    -4054 
    -378     6616    13409    14727     9765     1089    -5907    -9420 
   -8807     -972     8716     9883     6816     9936    10650      -86 
   -7761    -4648     -329     6415    15256    12442      313    -5355 
   -4365    -2956     1266     7103     6191    -2573    -7295    -1158 
    5979    11377    19035    15383    -2061   -10268    -6629    -5475 
   -1734     7236    11217    11858    10108     -456   -10822    -7357 
    5452    16051    21359    17632    -1007   -22581   -27546   -15402 
