Origin Time       2024/04/02 04:24:00
Lat.              40.133
Long.             141.712
Depth. (km)       71
Mag.              6.0
Station Code      MYG019
Station Lat.      38.7513
Station Long.     140.7226
Station Height(m) 144
Record Time       2024/04/02 04:25:07
Sampling Freq(Hz) 100Hz
Duration Time(s)  112
Dir.              N-S
Scale Factor      7845(gal)/8223790
Max. Acc. (gal)   8.164
Last Correction   2024/04/02 04:25:06
Memo.             
[...]
   -1467    -1074    -1074    -1359    -1725    -1891    -1655    -1291 
   -1178    -1312    -1540    -1763    -1937    -1962    -1710    -1405 
   -1498    -2146    -3121    -4002    -4417    -4183    -3424    -2577 
   -1968    -1548    -1309    -1394    -1578    -1506    -1324    -1385 
   -1709    -2047    -2232    -2353    -2520    -2600    -2309    -1690 
   -1333    -1578    -2087    -2598    -3046    -3272    -3167    -2737 
   -2312    -2297    -2516    -2631    -2623    -2546    -2440    -2274 
   -1966    -1628    -1413    -1274    -1148    -1144    -1439    -2011 
   -2500    -2644    -2565    -2396    -2266    -2376    -2643    -2924 
   -3248    -3458    -3370    -3044    -2610    -2207    -1896    -1756 
   -1879    -2052    -2057    -2006    -1973    -1764    -1263     -872 
   -1057    -1634    -2131    -2254    -2042    -1933    -2130    -2358 
   -2506    -2632    -2540    -2135    -1802    -1811    -1941    -2103 
   -2392    -2679    -2890    -3018    -3034    -3049    -3083    -2917 
   -2447    -1822    -1294    -1061    -1154    -1385    -1537    -1598 
   -1530    -1297    -1117    -1270    -1915    -2925    -3708    -3896 
   -3761    -3422    -2781    -2139    -1890    -2011    -2272    -2593 
   -2984    -3179    -2937    -2458    -2000    -1659    -1406    -1166 
   -1021    -1054    -1196    -1448    -1804    -2119    -2290    -2307 
   -2204    -2087    -1941    -1817    -2034    -2617    -3138    -3315 
   -3099    -2540    -1888    -1522    -1618    -1876    -1993    -2110 
   -2326    -2502    -2609    -2652    -2525    -2139    -1528     -861 
    -392     -418    -1004    -1854    -2633    -3140    -3237    -2941 
   -2403    -1890    -1641    -1524    -1347    -1344    -1810    -2567 
   -3063    -2921    -2281    -1624    -1321    -1306    -1414    -1745 
   -2292    -2887    -3501    -3998    -4043    -3477    -2556    -1788 
   -1479    -1514    -1695    -2054    -2628    -3106    -3164    -2967 
   -2785    -2536    -2118    -1663    -1352    -1323    -1613    -2130 
   -2663    -2963    -2948    -2656    -2164    -1669    -1302    -1124 
   -1242    -1572    -1876    -1910    -1661    -1483    -1563    -1759 
   -2037    -2500    -3098    -3465    -3381    -3038    -2509    -1831 
   -1355    -1405    -1957    -2650    -3211    -3520    -3219    -2290 
   -1386     -912     -797     -926    -1209    -1638    -2176    -2670 
   -2968    -2911    -2587    -2243    -1775    -1260    -1189    -1513 
   -1834    -2116    -2447    -2759    -2878    -2832    -2837    -2731 
   -2327    -2011    -2031    -2151    -2232    -2380    -2659    -2898 
   -2924    -2839    -2724    -2535    -2313    -2093    -1809    -1467 
   -1281    -1493    -2027    -2519    -2714    -2667    -2478    -2050 
   -1448    -1169    -1502    -2139    -2706    -3125    -3389    -3353 
   -2894    -2201    -1629    -1386    -1437    -1613    -1869    -2162 
   -2242    -2016    -1707    -1493    -1428    -1458    -1412    -1381 
   -1679    -2300    -2967    -3466    -3689    -3689    -3495    -3001 
   -2323    -1775    -1425    -1213    -1173    -1233    -1252    -1314 
   -1464    -1578    -1706    -1922    -2103    -2214    -2290    -2286 
   -2328    -2654    -3068    -3078    -2606    -2114    -1925    -1961 
   -2201    -2713    -3187    -3233    -2975    -2673    -2305    -1883 
   -1660    -1779    -1961    -1818    -1316     -808     -691     -953 
   -1335    -1906    -2775    -3577    -3843    -3541    -3006    -2446 
   -1821    -1375    -1476    -1885    -2103    -1985    -1695    -1568 
   -1811    -2315    -2936    -3456    -3537    -3117    -2407    -1595 
    -885     -598     -903    -1482    -1891    -2128    -2355    -2412 
   -2189    -1984    -2080    -2411    -2727    -2814    -2635    -2475 
   -2586    -2655    -2397    -2195    -2338    -2529    -2423    -2057 
   -1898    -2241    -2656    -2586    -2104    -1590    -1127     -778 
    -834    -1266    -1699    -2018    -2384    -2782    -2916    -2656 
   -2304    -2216    -2389    -2570    -2697    -2871    -3053    -3071 
   -2824    -2401    -1965    -1614    -1425    -1509    -1821    -2052 
   -2169    -2438    -2728    -2868    -3019    -3063    -2695    -1966 
   -1173     -575     -357     -722    -1676    -2752    -3370    -3298 
   -2690    -2029    -1649    -1464    -1530    -2012    -2625    -3042 
   -3159    -2882    -2448    -2193    -2035    -1976    -2118    -2231 
   -2288    -2440    -2394    -1995    -1682    -1728    -1953    -2181 
   -2343    -2425    -2498    -2627    -2830    -2833    -2282    -1460 
    -864     -522     -396     -688    -1556    -2685    -3473    -3755 
   -3535    -2731    -1899    -1722    -2003    -2371    -2789    -3087 
   -3032    -2689    -2404    -2322    -2295    -2290    -2120    -1480 
    -803     -633     -685     -770    -1223    -1876    -2054    -1572 
    -949     -812    -1310    -2131    -3028    -3788    -3952    -3458 
   -2884    -2533    -2269    -2084    -1985    -1929    -2057    -2346 
   -2496    -2470    -2361    -1995    -1451    -1173    -1258    -1516 
   -1831    -2142    -2523    -2836    -2671    -2130    -1660    -1441 
   -1603    -2286    -3211    -3813    -3863    -3565    -3071    -2438 
   -1868    -1575    -1582    -1664    -1584    -1557    -1902    -2254 
   -2168    -1854    -1603    -1398    -1246    -1421    -2120    -2928 
   -3360    -3446    -3364    -3254    -3118    -2859    -2700    -2821 
   -2879    -2550    -1999    -1497    -1147    -1144    -1640    -2328 
   -2681    -2586    -2374    -2245    -2100    -1985    -2142    -2589 
   -3053    -3190    -2776    -1977    -1244     -974    -1209    -1634 
   -2004    -2290    -2415    -2242    -1807    -1425    -1348    -1482 
   -1784    -2308    -2859    -3181    -3211    -3017    -2762    -2547 
   -2234    -1614     -839     -380     -527    -1225    -2141    -2776 
   -2808    -2263    -1555    -1178    -1216    -1561    -2218    -2920 
   -3244    -3163    -2967    -2820    -2631    -2254    -1857    -1853 
   -2192    -2389    -2467    -2762    -3052    -2944    -2478    -1904 
   -1498    -1351    -1212    -1132    -1579    -2474    -3148    -3291 
   -3037    -2616    -2273    -2015    -1788    -1738    -1782    -1742 
   -1775    -1871    -1934    -2290    -2853    -2844    -2079    -1107 
    -342      -94     -610    -1710    -2895    -3699    -3931    -3697 
   -3264    -2928    -2728    -2425    -1956    -1591    -1551    -1657 
   -1745    -1957    -2101    -1777    -1351    -1462    -1995    -2490 
   -2725    -2614    -2311    -2093    -2039    -2234    -2701    -3099 
   -3115    -2849    -2536    -2195    -1815    -1603    -1728    -2137 
   -2497    -2454    -2330    -2462    -2374    -1915    -1575    -1506 
   -1568    -1621    -1730    -2061    -2299    -2101    -1777    -1800 
   -2045    -1996    -1711    -1638    -1695    -1642    -1633    -1880 
   -2343    -2700    -2670    -2259    -1621    -1096    -1081    -1674 
   -2571    -3269    -3545    -3495    -3312    -3142    -2700    -1821 
   -1167    -1140    -1383    -1779    -2309    -2554    -2305    -1806 
   -1355    -1194    -1348    -1679    -2207    -2851    -3240    -3184 
   -2875    -2581    -2431    -2384    -2289    -2162    -2230    -2393 
   -2409    -2550    -2992    -3385    -3599    -3667    -3380    -2810 
   -2315    -1759     -884       72      781      905      182    -1111 
   -2384    -3137    -3199    -2932    -2687    -2417    -2196    -2366 
   -2922    -3319    -3233    -2983    -2883    -2813    -2587    -2299 
   -2182    -2124    -1763    -1196     -837     -830    -1059    -1428 
   -2018    -2722    -3079    -2970    -2666    -2182    -1514    -1080 
   -1263    -1983    -2920    -3793    -4349    -4305    -3570    -2543 
   -1823    -1526    -1371    -1414    -1902    -2656    -3240    -3361 
   -3076    -2614    -2015    -1314     -826     -861    -1345    -1875 
   -2307    -2745    -2898    -2409    -1514     -720     -351     -556 
   -1436    -2686    -3620    -3883    -3443    -2528    -1723    -1297 
   -1266    -1601    -1950    -2092    -1973    -1512    -1116    -1251 
   -1553    -1493    -1370    -1632    -2012    -2223    -2543    -3207 
   -3800    -3699    -3069    -2689    -2758    -2856    -2814    -2759 
   -2589    -2164    -1645    -1201     -940    -1065    -1517    -1985 
   -2339    -2697    -3126    -3234    -2712    -2185    -2316    -2698 
   -2797    -2855    -2990    -2741    -2092    -1607    -1602    -1987 
   -2450    -2849    -3395    -3893    -3719    -2799    -1710     -936 
    -604     -708    -1269    -2212    -3057    -3161    -2716    -2427 
   -2199    -1788    -1703    -2120    -2528    -2571    -2297    -2008 
   -1935    -1860    -1436     -768     -245     -116     -383     -804 
   -1178    -1714    -2535    -3105    -2918    -2331    -1983    -1925 
   -1931    -1954    -1975    -2073    -2376    -2666    -2771    -3001 
   -3496    -3817    -3584    -2975    -2301    -1555     -743     -193 
    -189     -603    -1193    -2018    -3017    -3750    -3873    -3350 
   -2494    -1834    -1718    -2122    -2839    -3673    -4222    -4060 
   -3195    -2076    -1413    -1436    -1568    -1630    -2027    -2674 
   -2938    -2613    -2242    -2128    -1903    -1568    -1553    -1779 
   -1830    -1665    -1539    -1426    -1131     -747     -473     -421 
    -633     -928    -1193    -1570    -2095    -2654    -3075    -3140 
   -2886    -2528    -2168    -2041    -2286    -2525    -2466    -2196 
   -1852    -1813    -2350    -2921    -3080    -3240    -3476    -3218 
   -2577    -2303    -2570    -2837    -2700    -2408    -2168    -1674 
   -1040     -990    -1683    -2462    -2878    -3121    -3356    -3213 
   -2398    -1478    -1086     -982     -923    -1196    -1813    -2447 
   -2991    -3512    -3825    -3599    -2889    -2118    -1756    -1957 
   -2236    -2166    -2016    -2053    -2072    -1873    -1692    -1744 
   -1668    -1368    -1390    -1811    -2066    -1875    -1522    -1333 
   -1370    -1730    -2434    -3165    -3624    -3832    -3889    -3742 
   -3356    -2658    -1530     -364      147     -105     -650    -1170 
   -1729    -2180    -2261    -2335    -2700    -3003    -3157    -3227 
   -2835    -1992    -1289     -961     -901    -1171    -1826    -2586 
   -3034    -2965    -2451    -1829    -1548    -1707    -2119    -2687 
   -3138    -3176    -3019    -3037    -3268    -3500    -3654    -3813 
   -3824    -3588    -3307    -2979    -2382    -1615    -1082     -797 
    -400      -58     -256     -865    -1404    -1945    -2764    -3376 
   -3218    -2527    -1829    -1561    -1695    -1817    -2057    -2612 
   -3034    -3046    -2978    -3015    -2673    -1514      -17      972 
    1097      477     -657    -2018    -3118    -3472    -2856    -1372 
     261     1023      616     -585    -2211    -3650    -4178    -3847 
   -3177    -2396    -1875    -2073    -2797    -3505    -3987    -4228 
   -4047    -3588    -3474    -3890    -4382    -4380    -3491    -1987 
    -631      148      228     -511    -1760    -2637    -2467    -1456 
    -495     -395    -1262    -2652    -4112    -5181    -5394    -4870 
   -4322    -4098    -4031    -3786    -2930    -1575     -286      904 
    1958     2497     2450     1706      238    -1356    -2619    -3559 
   -4058    -3859    -2963    -1883    -1217     -893     -891    -1540 
   -2521    -3304    -3700    -3339    -2153     -688      507     1043 
     642     -695    -2701    -4887    -6650    -7555    -7408    -6239 
   -4531    -2855    -1318     -260     -450    -1775    -3095    -3697 
   -3653    -3053    -1942     -660      314      479     -623    -2505 
   -3785    -3859    -3200    -2301    -1526    -1329    -2003    -3226 
   -4236    -4760    -4961    -4784    -4156    -3287    -2709    -2646 
   -2338    -1323     -133     1063     2330     3087     2922     1764 
    -349    -2720    -4401    -4855    -3666    -1086     1440     2614 
    2367     1059     -980    -2980    -4220    -4588    -4207    -3307 
   -2390    -2018    -2367    -3014    -3491    -3738    -3723    -3238 
   -2250    -1232     -931    -1566    -2755    -3946    -4450    -4002 
   -3053    -2027    -1359    -1478    -2146    -3021    -4037    -4973 
   -5549    -5497    -4649    -3153    -1336      315     1424     1891 
    1717      923     -558    -2755    -5273    -7337    -8139    -7211 
   -4637    -1107     2137     3819     3584     2447     1537      792 
    -229    -1475    -2727    -3738    -4410    -4819    -5032    -5351 
   -5876    -5964    -4901    -2768     -461     1313     2516     2932 
    2231      665    -1335    -3356    -4702    -4671    -3195     -920 
    1306     2563     2139      276    -2269    -4878    -6903    -8039 
   -8321    -7693    -6474    -4965    -2875     -355     1729     2614 
    1836     -575    -3767    -6494    -7942    -8067    -7111    -5239 
   -2582      576     3407     4727     4062     2118        8    -1555 
   -2370    -2687    -3141    -4075    -4949    -5046    -4382    -3400 
   -2463    -1705    -1150     -963    -1213    -1902    -3276    -5123 
   -6324    -5676    -2956      560     3134     4189     3964     2585 
     238    -2718    -5894    -8576    -9838    -9282    -7330    -4668 
   -2080     -494     -124     -247     -237       33      494      861 
     714      -78    -1036    -1391     -793      309     1143     1266 
     359    -1831    -4783    -7236    -8294    -7738    -5471    -1740 
    2385     5487     6389     4548      529    -4198    -8097   -10255 
  -10698   -10177    -9317    -7913    -5564    -2444      874     3595 
    4847     4168     1796    -1471    -4884    -7902    -9701    -9427 
   -7071    -3562      -59     2736     4459     4580     2899      261 
   -2232    -4104    -5256    -5854    -6197    -6232    -5726    -4641 
   -3014     -977     1134     3011     4513     5269     4962     3919 
    2547      837    -1410    -4199    -6733    -7915    -7593    -6102 
   -3543     -414     2085     2849     1822     -432    -3383    -6060 
   -7591    -7758    -6381    -3669     -507     2126     3461     3319 
    1953     -387    -3052    -5077    -6096    -6583    -6936    -6762 
   -5765    -4444    -3253    -2370    -2180    -2940    -4491    -6087 
   -6423    -4926    -2265      654     2727     2887     1142    -1694 
   -4244    -4996    -3754    -1517      653     1907     2034     1412 
     346     -982    -2211    -2837    -2722    -2199    -1541     -873 
    -294      126      178     -305    -1236    -2589    -4132    -5059 
   -4926    -4248    -3743    -3654    -3680    -3377    -2652    -1502 
     -97      741      259    -1231    -2585    -3117    -3341    -4005 
   -5030    -5821    -6130    -6041    -5239    -3375     -939     1170 
    2454     2857     2243      425    -2016    -4023    -5004    -4765 
   -3349    -1163      950     1891     1343       47    -1405    -2875 
   -3987    -4106    -3091    -1737    -1088    -1595    -2998    -4687 
   -6165    -7021    -6706    -4955    -2408     -247      936     1401 
    1566     1355      630       43      -70     -529    -1794    -3402 
   -4695    -5182    -4795    -3743    -2481    -1829    -2374    -3771 
   -4861    -4896    -4202    -3099    -1421      529     1648     1293 
     265     -372     -577     -529     -129      333      391     -160 
   -1414    -3150    -4922    -6239    -6467    -5360    -3342    -1000 
     965     1823     1321      -32    -1345    -2528    -4167    -6085 
   -7678    -8642    -8559    -7314    -5312    -3150    -1528     -630 
    -321     -550     -907     -965     -753     -627    -1050    -1927 
   -2816    -3782    -4753    -4777    -3316    -1391     -310     -274 
    -783    -1254    -1372    -1286    -1144    -1119    -1507    -2176 
   -2771    -3038    -2679    -1664     -195     1335     2064     1331 
    -692    -3186    -4974    -5344    -4600    -3276    -2002    -1825 
   -2911    -3958    -3762    -2446    -1259    -1155    -1848    -2778 
   -3488    -3258    -1926     -417       76     -878    -2763    -4476 
   -4904    -3854    -1973      198     1915     2249     1248     -394 
   -2377    -4388    -5501    -4806    -2675     -585      382       32 
   -1267    -3055    -5035    -6474    -6515    -5467    -4334    -3439 
   -2440    -1003      783     2127     2172     1128     -175    -1462 
   -2651    -3348    -3252    -2397    -1250     -550     -596    -1267 
   -2440    -3623    -4079    -3638    -2601    -1590    -1458    -2212 
   -2760    -2421    -1671    -1190    -1275    -2072    -3354    -4440 
   -4727    -3863    -2076     -530     -198     -970    -2434    -4097 
   -5080    -5080    -4711    -4372    -4083    -3969    -4117    -4511 
   -4749    -4066    -2457     -862       35      342      310     -140 
    -751     -899     -546     -126      -58     -738    -2188    -3874 
   -5038    -5339    -5098    -4615    -3943    -3240    -2521    -1456 
    -106      684      483     -229    -1023    -1459    -1151     -587 
    -369     -468     -729    -1089    -1717    -2714    -3713    -4386 
   -4436    -3708    -2821    -2243    -1602     -824     -276      182 
     699      606     -645    -2493    -3856    -4039    -3029    -1579 
    -778     -936    -1547    -2494    -3983    -5556    -6507    -6700 
   -6411    -5984    -5676    -5454    -5175    -4652    -3580    -2112 
    -669      823     2232     2766     1935      216    -1312    -2007 
   -2253    -2636    -2964    -2619    -1610     -525       82     -229 
   -1552    -3601    -5772    -7080    -6930    -5379    -2791     -234 
    1111     1219     1048     1351     1769     1653     1115      259 
    -886    -1814    -2370    -2812    -3013    -2805    -2280    -1667 
   -1279    -1447    -2457    -4094    -5557    -6150    -5346    -3338 
   -1583     -972     -999    -1113    -1182    -1383    -1686    -1822 
   -2234    -3217    -3855    -3387    -2335    -1618    -1119     -302 
     267     -126    -1152    -2097    -2532    -2552    -2377    -1918 
   -1479    -1621    -2151    -2608    -3051    -3499    -3584    -3279 
   -2921    -2555    -2327    -2656    -3438    -4278    -4932    -5096 
   -4727    -4110    -3553    -3596    -4236    -4233    -2713     -378 
    1499     2134     1408     -244    -2099    -3419    -3666    -2776 
   -1521     -996    -1591    -2902    -4182    -4534    -3314     -831 
    1574     2718     2517     1472      224     -481     -422     -167 
    -268     -842    -1858    -3003    -3647    -3611    -3449    -3703 
   -4320    -4679    -4226    -3225    -2316    -1810    -1975    -2975 
   -4347    -5314    -5324    -4461    -3397    -2331     -903      623 
    1418     1080     -101    -1695    -3420    -4476    -4051    -2817 
   -2057    -2000    -2249    -2376    -2231    -2416    -3453    -4849 
   -5595    -5027    -3257    -1053      564      666     -861    -2694 
   -3218    -2582    -2053    -1850    -1605    -1483    -1270     -324 
     986     1571      916    -1065    -4129    -7067    -8602    -8498 
   -6984    -4487    -1698      886     2822     3497     2632      529 
   -2011    -4005    -4942    -4814    -3804    -2552    -1486     -301 
     831     1147      460     -708    -1588    -2030    -2587    -3217 
   -3393    -3191    -3095    -3269    -3288    -2840    -2385    -2265 
