Origin Time       2024/04/02 04:24:00
Lat.              40.133
Long.             141.712
Depth. (km)       71
Mag.              6.0
Station Code      MYG008
Station Lat.      38.5676
Station Long.     141.4267
Station Height(m) 26
Record Time       2024/04/02 04:25:05
Sampling Freq(Hz) 100Hz
Duration Time(s)  107
Dir.              N-S
Scale Factor      7845(gal)/8223790
Max. Acc. (gal)   34.974
Last Correction   2024/04/02 04:25:05
Memo.             
[...]
    4417     3505     2328     2952     4075     3613     2633     2465 
    3208     4322     4106     2339     1179     1578     3086     5044 
    5659     4572     3727     3087     2004     1865     2690     2868 
    2226     2363     3993     5073     4517     3685     2922     2242 
    2189     1935     1197     1787     3890     4621     2679      897 
    1841     4364     6185     6324     5035     3424     2238     1491 
    1510     2556     3458     2949     2204     2689     3715     5125 
    6897     6777     4151     1410       13      322     1973     3060 
    2736     1965     1641     2712     4914     6108     5336     3646 
    2354     2120     2419     2365     2014     1838     1944     2301 
    3086     4039     4153     3283     2797     3310     3775     4036 
    4920     5691     5228     3781     1902      587     1312     3875 
    5826     5005     2076     -194      102     2282     4359     5530 
    5764     4990     3686     2085      772     1102     2519     3225 
    3298     3268     2859     2408     2398     2747     3169     3649 
    4545     5088     4105     2828     2749     3132     3410     2972 
    1017     -125     1796     4415     5036     4783     4869     3707 
    1814     2417     4781     5371     3566     1483      926     1807 
    2990     3780     4062     3797     3334     3315     3573     3580 
    3361     2866     2174     2218     3055     3179     2651     3441 
    5031     4301     1509      911     3469     5422     4707     3013 
    2471     3537     4645     4104     2555     1524     1630     2475 
    2867     3294     4851     5576     3784     1490     1084     2292 
    3230     3291     3539     3943     3431     2173     1196     1595 
    3410     4600     4194     3630     3515     3589     4494     5923 
    5788     3543     1089      213     1470     3318     3325     1788 
    1013     1919     3450     4124     3596     2592     2465     4043 
    5678     5397     3910     2628     1551      870     1570     3099 
    4160     4816     4646     2953     1557     2277     3508     3838 
    4040     3894     3584     4093     4009     2326      946     1537 
    3454     4968     4849     3141     1678     1927     2890     3686 
    4324     4152     3638     3487     2821     1993     2470     3731 
    3596     1409     -630     -275     2362     4725     4599     3642 
    4395     5875     5725     3928     2616     2698     2632     1907 
    2110     3523     4506     4189     3298     2929     3443     3568 
    2400     1760     2623     3204     2751     1999     1806     3523 
    6501     7106     4348     1553      953     1987     3728     5044 
    4109     1066     -525     1728     5023     5370     3202     1471 
    2215     5167     6435     4185     2031     1861     2397     2805 
    2928     3901     6196     7419     5371     1242    -1471     -598 
    2502     4513     4162     3126     2431     1012     -777     -206 
    2876     5603     6901     6812     5404     4264     4121     3900 
    3069     2169     2077     2776     3242     2970     2739     3384 
    3892     3385     3063     2880     1583      376      710     1718 
    3028     4804     5714     5161     4187     3368     2878     3272 
    4639     5634     4676     2497     1173     1132     2180     3933 
    3874      990    -1347     -607     1840     3866     5456     6446 
    4850     1861     1125     2884     5174     5956     4842     3823 
    3222     1915     1147     2581     4683     5019     4133     3769 
    3802     3492     2937     2258     1308      805     1825     3307 
    3653     3086     1696      619     2084     4737     5633     4796 
    3896     3742     3730     3276     2508     1479      982     1991 
    3843     5364     5715     4853     3989     3321     2685     3200 
    3927     2663      827      619     1138     1599     2839     4646 
    5364     4644     4495     5448     5325     3955     3145     2617 
    1591      730      542     1679     3851     4384     2756     1964 
    2863     3493     3142     2594     2745     3662     3504     1275 
      12     2219     5302     6349     6151     5597     3754     1424 
    1275     2808     3156     2166     1351     1543     2704     3361 
    3214     3975     5435     5999     5231     3368     1617     1390 
    2054     2108     2254     4072     6367     6687     5049     3103 
    1552      469      500     1934     3940     5057     4236     2169 
     419     -124      780     2824     5178     6998     7878     7034 
    3920      834      364     1445     2035     2357     3298     4229 
    4062     2922     2106     2643     3064     1983     1494     3024 
    5196     6025     4147     1613     1576     2971     2980     1270 
     218     1987     5347     7433     6971     4772     2818     2142 
    1887     1667     2641     4885     6485     5863     3626     1906 
    1657     2342     3931     5302     3901      365    -1258      772 
    3827     5336     5373     4556     3346     2369     2065     2398 
    2991     3974     4989     4770     3485     2617     2820     3364 
    3171     2528     2419     2983     3967     4251     3092     1883 
    1613     2042     3125     4602     5578     4302      508    -1663 
    1057     5152     6085     4668     3330     2444     2331     3581 
    4869     4475     3491     3703     4124     3488     2525     1715 
     901      292      282     1247     2837     4140     4962     5130 
    3817     2381     3643     6141     5842     2974      812      122 
     -97     1038     3696     4934     3626     2168     2107     3098 
    4317     4776     3933     2261     1092     1250     2076     2982 
    4205     5085     4594     3757     4110     4897     4783     4055 
    2866      824     -810       70     3724     7109     6480     2984 
     895      963     1652     2365     2718     3543     5340     6331 
    6195     5626     3481       18    -1402      881     4016     5306 
    5247     4924     4892     4476     2631     1090     1756     2864 
    2335     1332     1564     2479     3311     4311     4827     3584 
    1772     2168     4178     4905     4421     4299     3720     1761 
     630     2192     4627     5698     5108     3411     1582     1343 
    3981     7349     7352     3519     -176     -356     1981     3947 
    4205     2795      994     1244     3357     3667     2045     1580 
    2142     2671     3295     3915     4680     4483     2733     2373 
    4158     4899     4598     5259     5157     2851     1012     1136 
    1578     1873     2571     2979     2763     2897     3705     4176 
    4143     4357     4463     4361     4521     4074     2277      -86 
   -1019      738     3624     5456     5714     4962     4090     3904 
    3844     2060     -691    -1131     1460     4599     6199     6254 
    5502     4850     4594     3531     2004     2022     3311     4063 
    3375     1212     -777       39     2805     3784     3007     3510 
    5044     5535     5346     4837     2953      997     1329     2627 
    2504     1339      271      244     1937     4071     5071     5417 
    6006     6027     4698     3334     2362      687     -895    -1181 
     186     3527     6373     6030     4638     4162     3393     2917 
    3921     4479     3090     1418      770      961     2829     6122 
    7744     6415     4153     2681     2843     4499     4958     2575 
     399     1316     3466     3983     3562     3689     3154     1406 
    -178     -693     1140     5401     8487     7373     3407       98 
     305     4275     7750     6669     4367     5026     5150     2176 
     -90      120      761      969     1189     1543     2011     2174 
    1717     2043     3900     5730     6953     7792     6771     3369 
     811     1586     3392     3843     3488     2894     2728     3719 
    4361     3136     1235      436      962     2384     4314     5325 
    3492       74     -409     3117     6458     6866     4860     1551 
   -1004    -1274      287     3142     5969     6446     4434     1876 
    1101     3523     6628     6940     5489     3701      689    -1536 
     -67     3331     5606     6330     6353     5412     2685      329 
     931     2508     2362     1418     1894     3754     4444     3150 
    2166     1912     1236     1405     3055     4353     4676     4735 
    4530     4025     3943     4480     4032     2076     1394     3265 
    4622     3528     2592     3473     4162     3793     3295     2813 
    2709     3457     4047     3678     3221     3014     1883      437 
    1983     6324     7773     4245      774      660     2444     4704 
    5832     4642     3092     3021     3746     4225     3960     2839 
    1640      864       51      -14     1804     4484     5941     5111 
    3269     2575     2899     2988     3470     5159     6686     6092 
    3338     1021     1161     2427     3307     3480     2018      220 
     940     2953     4048     4804     5224     4445     3013     2354 
    2860     3395     2745     1273     1051     3061     5051     4665 
    2932     2266     3241     4669     4989     3485     1329      531 
    1012     1476     2416     3796     3939     2914     1985     1976 
    3624     5888     6208     4530     3341     3137     2641     2211 
    2165     1790     1885     3153     4473     5036     4185     1846 
     460     1746     3298     2303      380      545     2546     4887 
    6309     5112     2389     1813     3214     3460     2808     3063 
    3628     3620     3545     3726     3618     3190     3449     4383 
    4004     1741      198     1543     5140     7944     6708     2670 
     117      623     3065     4796     3458      724     -229     1170 
    3963     6316     6916     6412     4878     2737     2038     2438 
    2435     2052     1019      369     1379     2870     4380     5435 
    4876     3807     2957     1794     1379     2274     2897     2671 
    2299     1524      704     2097     5813     7653     5937     3948 
    3199     3325     4091     4290     3991     3969     3730     2947 
    2371     2932     3308     1698     -103      282     2095     3339 
    3292     3326     4091     3488     1722     2551     6407     9514 
    8646     3133    -3083    -4018      291     4276     4820     4180 
    5009     5896     4714     1985     -191      330     2760     4174 
    4183     3834     3397     2951     2246     1715     2474     4654 
    6616     5753     2278       13      727     2343     3319     3790 
    3816     3640     3735     3662     2972     2478     2506     2697 
    4190     7565     9358     6193     1296       85     2108     3554 
    3073     2092     2177     3057     3696     3466     2569     3136 
    4779     3080     -939    -1486     1640     4671     5857     5616 
    5196     5398     5651     3983      245    -2074     -920     2006 
    4865     6291     5405     4243     4263     3430     1699      972 
     815     1032     2111     2493     1981     2587     3088     1760 
     945     2457     5278     7153     5845     2527      826     1389 
    2463     4162     6666     7156     4708     2824     3115     3697 
    3343     2154      510      130     2824     6335     6775     4164 
    1132     -315      241     2130     4376     5325     4452     3526 
    2971     1744      822     1566     3379     5144     5911     5305 
    4012     3115     2974     2656     2419     3254     4113     4510 
    4145     1494    -1575    -1571      692     2415     3307     4698 
    6076     5630     3870     3125     4822     8182    10174     9514 
    8672     8592     6729     2127    -2508    -5174    -6745    -7314 
   -5109      207     6463    11580    15075    15942    13132     8584 
    5755     5713     6172     4413     1108      -78     2149     4081 
    2573     -931    -3441    -3109     -615     1478     1933      461 
   -2573    -4124    -1528     4311    11268    17000    18893    15865 
    8299    -1813    -8857    -8656    -5899    -6551    -8316    -7507 
   -4843    -2605    -2597    -3036     -824     2980     6030     7743 
    9587    13224    16171    14794     9556     3416    -1039    -2212 
     -58     2835     3495     1975      702     1775     3609     1699 
   -3618    -6459    -5401    -4180    -3215      -89     5926    13691 
   20047    21510    18279    12885     5216    -4887   -12494   -13450 
  -10139    -4942     1998     7358     9089    10481    12669    12741 
    9455     3496    -3763    -7994    -5247      706     3827     5481 
    8360    10212     9344     6917     5223     6801    11664    16524 
   16857    10116    -1113   -11685   -18418   -19971   -16139    -8365 
     267     7381    13992    21050    26060    27441    26118    20717 
   10326        4    -5229    -5584    -2994      -99     -576    -4675 
   -6605    -1390     7935    13915    11550     2003    -8451   -16112 
  -21259   -21806   -15067    -2735    10320    18652    19419    15240 
   11268     9504     7947     4126    -1389    -4664    -4765    -7225 
  -13034   -13906    -6122     4430    12241    17517    23338    29370 
   30596    24858    14381      129   -16075   -28741   -32616   -24401 
   -5987    13089    24163    25085    17861     8757     4739     6277 
    7137      855   -11095   -18751   -14860    -1702    13108    21139 
   19624    14960    14076    17849    22237    20359     8040   -11244 
  -28065   -33496   -26319   -12768     1127    11735    14786     8604 
    -214    -1003     8569    18985    21266    16410    10250     5271 
      54    -5082    -6631    -3466     1794     7609    14060    19300 
   19117     9867    -6354   -20183   -22540   -13238     -891     6647 
    9026     9225     9224     9135     7607     4553     1636      423 
     804     2151     6211    12005    12221     3580    -7510   -13255 
  -11623    -6636    -2386     2620     9767    15076    15529    11966 
    4823    -4888   -12942   -14679    -8679     1632    12043    21898 
   28317    25907    15967     3933    -6840   -13591   -14386    -8256 
    2945    11638    11870     5788     -797    -3199      -59     6077 
   10750     8664     -199    -5682    -2354     1560     1250      896 
    1622     2174     3998     7207     9525     8448     2331    -4195 
   -2286     6058     9275     5440     1954     1185      360    -1556 
   -1146     4764    10949     9448     2002    -3720    -5803    -6558 
   -5522    -1015     6578    13428    15087    12511     9121     6534 
    4907     2008    -2901    -7281    -9262    -6818     1240    11430 
   17672    16559    10270     3877     1607     4450     7526     6739 
    6400     9513    10343     5121    -2481    -8685   -12310   -12861 
   -9745    -1289    10696    18543    17790    10052     -635    -6702 
   -3118     6164    14504    18511    17903    13112     4352    -4068 
   -5579    -1949     -857    -3330    -5201    -4936    -1807     4752 
    9410     6849     1509    -2547    -6748    -6984      228     9057 
   14634    16025    12451     6313     1015    -2164    -2039     1885 
    7709    11183     9846     6760     5591     5991     4914    -1930 
  -14189   -21486   -15198      214    14913    20723    15388     6250 
       6    -3005    -3341    -3399    -4456    -1570     6777    13169 
   12637     8398     5304     4232     3362     2741     3389     5215 
    8171     9617     5501    -2116    -8361   -12448   -12438    -5549 
    4351    10967    10940     5625     2552     4390     3527    -2181 
   -4579     1005    10134    15263    12996     5950     -310    -1215 
    1728     4108     8005    15907    20314    13919     1868    -7036 
  -11460   -12417    -9707    -6565    -3616     3519    12444    17312 
   18274    16929    15468    14355     8033    -3246   -10793   -11078 
   -5775     1266     3484     1258     1390     4735     7354     6320 
    1038    -3870    -2909     2012     5791     8101    10305     9336 
     342   -12499   -16158    -6682     7916    19855    22684    15454 
    6199      797    -1534    -3084    -4090    -2492     1580     4723 
    4816     2752      753      360     1717     3921     5413     5695 
    6035     6257     4464     1282    -1875    -5977    -8995    -6484 
      60     6723    12109    12781     7330     3458     5954     6091 
   -1491    -7851    -6215     1300    10970    16893    13082     1452 
   -6740    -2856     7159    13275    13639     9605     4552     2548 
    1784      947     2029     2025     -688    -1362     1723     7098 
   12868    15028    11681     5024    -1933    -6488    -6542    -2295 
    2411     3825     3167     2095      -66     -864     2073     5211 
    3694    -2755    -8988    -9529    -3797     5807    14962    18476 
   16973    14373    10562     6184     3784     1958     -908    -3586 
   -5421    -4989     -261     6822    11786    10538     2197    -5976 
   -5189     2311     7743     8695     8259     7566     4422    -2709 
   -8762    -7001      -44     4874     5576     4527     5991    11014 
   13756    10669     6544     3354    -1282    -4137    -1548     2428 
    1818    -1156     1028     7342    11276    12178    11083     6459 
   -1973    -9944   -11843    -7956    -3289     -726     1777     7269 
   13532    15827    13775     8614     -445   -10516   -14508   -10037 
   -1944     4726    11412    20547    25641    19662     7518    -1576 
   -4295    -2997    -2471    -4581    -7461    -8660    -5742     1201 
    8708    14037    15920    12846     7398     5838     7161     4409 
   -3538   -11006   -11192    -2754     7207    11327     8816     3258 
     747     4473     8303     6507     3460     3184     2053    -1549 
   -3032       70     5165     8812     9898    10763    11835     9922 
    5136      465    -2637    -4568    -5859    -5175    -1937     2768 
    7811    10547     9949     7159     2289     -450     2322     5410 
    6825     7921     5580     1560      213      618     2489     5503 
    7283     6485     2050    -4949    -9325    -6438     1679     7337 
    5795     -453    -4449     -718     7299    10598     7971     5698 
    4927     3343     3223     5977     9315    11279     9027     2108 
   -3848    -4104      575     4136      579    -4707    -2779     2957 
    6308     7167     5503     2802     1738     1374      498     -546 
    -869     2020     8268    11385     5887    -3223    -6829    -2025 
    6893    12235    11117     6250     -515    -4571     -363     8116 
   12582    10297     2652    -5711    -8185    -4295      689     5366 
   10457    12344     8318     3096     2436     4652     6073     6609 
    5190      800    -3496    -4423    -2905    -2733    -4459    -3921 
     477     5491     9371    12888    13586     9135     4252     2720 
    2535     3171     4110     3647     2434     1458     3040     8083 
   12082    12337     8980     2057    -4749    -6829    -3466     2188 
    5177     5398     6547     6374     1593    -2174      403     4284 
    5493     8221    10990     6878    -1306    -5135    -2388     3993 
    9805     9842     3318    -2069    -1678      560     1927     2069 
    2191     4681     6435     5098     4361     5057     5902     6544 
    5872     5057     4405     2035     -147    -1165    -2046      695 
