Origin Time       2024/04/02 04:24:00
Lat.              40.133
Long.             141.712
Depth. (km)       71
Mag.              6.0
Station Code      MYG015
Station Lat.      38.1037
Station Long.     140.8708
Station Height(m) 3
Record Time       2024/04/02 04:25:12
Sampling Freq(Hz) 100Hz
Duration Time(s)  136
Dir.              N-S
Scale Factor      7845(gal)/8223790
Max. Acc. (gal)   20.760
Last Correction   2024/04/02 04:25:11
Memo.             
[...]
    7808     7635     7812     8162     8392     8552     8633     8522 
    8442     8507     8513     8464     8469     8627     9085     9508 
    9397     9028     8942     9201     9667    10210    10594    10557 
   10169     9848     9725     9602     9302     8656     7821     7457 
    7942     8775     9140     8942     8541     7950     7330     7294 
    7985     8880     9316     8993     8522     8754     9495     9984 
   10050     9965     9958    10058    10110    10015     9818     9553 
    9154     8611     8147     8027     8183     8132     7665     7350 
    7722     8471     9005     9204     9202     9138     9197     9564 
   10211    10729    10716    10327     9952     9755     9830    10000 
    9748     8957     8187     7905     8101     8538     8892     8972 
    8854     8676     8448     8095     7804     7888     8162     8190 
    8005     7939     8199     8814     9576    10065     9996     9393 
    8568     8078     8224     8590     8653     8541     8650     9061 
    9660    10312    10917    11296    11037    10258     9752     9471 
    8680     7535     6608     5859     5269     5150     5537     6215 
    7005     7708     8338     9131     9834     9902     9454     9107 
    9144     9410     9745    10157    10559    10756    10773    10696 
   10482    10266    10191    10014     9482     8652     7724     6929 
    6393     6073     5989     6293     6863     7196     7122     7172 
    7808     8726     9394     9706     9850    10065    10467    10858 
   11029    11233    11697    11956    11454    10427     9559     9028 
    8480     7924     7861     8274     8414     7924     7295     7084 
    7357     7819     8263     8634     8818     9053     9780    10654 
   11124    11344    11421    11101    10481    10039    10030    10200 
   10127     9664     8996     8424     8062     7815     7593     7404 
    7371     7541     7747     7902     8044     8170     8375     8887 
    9760    10642    11260    11696    11678    10810     9536     8580 
    8023     7510     6816     6185     6041     6339     6795     7450 
    8383     9344    10141    10895    11585    11898    11831    11600 
   11118    10268     9335     8758     8519     8167     7596     7026 
    6697     6849     7260     7483     7669     8068     8463     8700 
    8837     8843     8830     9113     9693    10214    10446    10401 
   10324    10384    10293     9778     8977     8360     8526     9420 
   10174    10257     9857     9266     8737     8506     8552     8498 
    8029     7423     7218     7597     8324     8932     9262     9520 
    9649     9602     9607     9513     9035     8433     7969     7543 
    7182     7025     6976     6770     6349     6187     6750     7750 
    8667     9424    10099    10712    11264    11597    11381    10617 
    9886     9602     9597     9529     9165     8603     8217     8108 
    8047     7866     7761     7979     8199     8060     7865     7851 
    7700     7229     6871     7099     7842     8719     9337     9543 
    9605     9629     9308     8704     8343     8469     8733     8641 
    8306     8247     8499     8796     9161     9705    10334    10801 
   10940    10871    10786    10754    10840    10971    10898    10662 
   10565    10552    10303     9813     9306     8847     8345     7942 
    7944     8256     8519     8599     8464     8139     7839     7766 
    7816     7861     8024     8260     8387     8586     9043     9501 
    9613     9429     9292     9397     9522     9389     9232     9238 
    9039     8677     8548     8492     8361     8348     8533     8953 
    9487     9821     9896     9938    10158    10516    10642    10114 
    8934     7838     7539     7678     7601     7504     7704     8093 
    8540     8743     8463     8116     8058     7981     7763     7690 
    7774     7884     8249     9115    10108    10536    10332    10075 
   10093    10355    10755    10917    10577    10096     9806     9609 
    9463     9385     9386     9509     9553     9258     8645     7967 
    7639     7812     7992     7776     7460     7416     7715     8245 
    8725     9008     9157     9288     9553     9714     9383     8834 
    8691     9032     9333     9391     9520     9620     9346     8903 
    8650     8533     8409     8260     8029     7978     8569     9466 
    9961    10080    10004     9566     8911     8471     8414     8665 
    8889     8586     7800     7338     7654     8210     8498     8606 
    8653     8695     8808     9124     9818    10528    10494     9703 
    8942     8711     8838     9038     9204     9228     8891     8190 
    7666     7695     8009     8322     8502     8571     8843     9428 
    9837     9663     9309     9286     9359     9242     9192     9536 
   10208    10673    10515    10034     9811     9917     9906     9664 
    9485     9196     8415     7352     6554     6443     6912     7307 
    7252     6984     6893     7236     8039     9038     9763     9963 
    9894     9904    10173    10602    10605     9822     8734     7942 
    7688     7912     8275     8600     8982     9412     9798    10072 
   10066     9688     9120     8542     7963     7537     7465     7653 
    7863     7989     8162     8540     9088     9764    10492    10986 
   10997    10555     9890     9256     8723     8176     7681     7452 
    7547     8016     8899     9875    10447    10557    10494    10385 
   10211    10060     9967     9653     8761     7543     6737     6689 
    7164     7842     8522     8924     8888     8833     9104     9425 
    9641     9875    10108    10215     9968     9425     9031     8789 
    8403     8121     8248     8559     8931     9520    10079    10045 
    9278     8363     7990     8031     7821     7242     6613     6309 
    6713     7724     8853     9713    10192    10696    11573    12421 
   12764    12549    11923    11136    10274     9313     8590     8380 
    8220     7589     6717     6138     6135     6610     7195     7654 
    8082     8683     9346     9614     9374     9105     9138     9351 
    9626     9863     9813     9474     9135     8946     8841     8749 
    8742     8943     9274     9629     9859     9678     9283     9182 
    9235     9035     8715     8580     8590     8433     7944     7469 
    7410     7560     7577     7543     7657     7943     8262     8449 
    8648     9094     9585     9725     9545     9383     9277     8985 
    8645     8579     8662     8737     8826     8710     8243     7805 
    7804     8247     8926     9599     9941     9624     8824     8171 
    7897     7719     7439     7078     6764     6683     6870     7191 
    7461     7524     7422     7453     7915     8649     9250     9572 
    9474     8945     8569     8685     8861     8776     8615     8695 
    9190     9838    10093     9768     9190     8769     8580     8540 
    8758     9259     9780    10168    10349    10222     9991     9910 
    9904     9919    10052    10179    10056     9775     9666     9864 
   10258    10656    10989    11384    11900    12248    12187    11869 
   11435    10920    10505    10305    10192     9950     9545     9171 
    8850     8438     8075     7800     7312     6810     6818     7161 
    7528     8148     9094     9996    10512    10758    11203    11908 
   12438    12537    12109    11206    10091     8947     7993     7422 
    6828     5841     5125     5560     6970     8280     8611     8064 
    7379     7160     7514     7958     7950     7449     6681     6043 
    6112     6914     7740     8166     8367     8595     9082     9890 
   10625    10747    10107     9123     8409     8185     8260     8525 
    8954     9240     9119     8841     8901     9410     9971    10129 
    9747     9186     8916     8839     8675     8419     8228     8441 
    9178    10021    10687    11360    12170    12781    12727    12204 
   11792    11307    10233     8834     7577     6415     5316     4702 
    4984     6069     7344     8035     7912     7508     7453     7763 
    7824     7248     6412     5914     6050     6562     6812     6880 
    7527     8799    10106    11063    11462    11375    11044    10559 
   10161     9971     9495     8468     7485     7261     7726     8249 
    8544     8754     8938     9077     9385     9981    10442    10369 
   10034     9775     9566     9408     9231     8945     8804     9020 
    9360     9471     9364     9266     8922     7970     6844     6226 
    6214     6540     6826     6847     6864     7183     7686     8407 
    9699    11373    12653    13159    13139    12900    12587    12382 
   12268    11794    10837     9918     9359     8992     8546     7743 
    6529     5348     4735     4780     5161     5647     6156     6620 
    7290     8554    10179    11530    12299    12430    12136    12086 
   12483    12542    11774    10615     9621     9065     8945     9066 
    9269     9540     9921    10339    10615    10594    10222     9567 
    8799     8152     7705     7333     7029     6853     6619     6251 
    6177     6706     7688     8851     9737    10012    10049    10318 
   10729    11072    11195    10845    10034     9139     8370     7682 
    7229     7118     6967     6469     5823     5344     5246     5517 
    5832     5958     6073     6389     6889     7673     8834     9914 
   10249     9849     9475     9644     9992     9979     9556     9065 
    8900     9099     9483    10021    10584    10894    10901    10714 
   10320     9701     9013     8410     8009     7892     7916     8024 
    8228     8294     8163     8109     8405     9194    10243    11114 
   11534    11500    11518    12064    12739    12911    12586    11977 
   11028     9724     8449     7727     7661     7782     7453     6555 
    5688     5433     5759     6334     6921     7476     8198     9166 
   10134    10970    11469    11267    10658    10233     9938     9493 
    8787     7812     6764     5927     5541     5640     5937     6258 
    6594     6856     7263     8067     8862     9186     9116     8893 
    8677     8442     8062     7693     7639     7892     8086     8000 
    7940     8365     9215    10023    10717    11554    12306    12569 
   12459    12289    12299    12536    12718    12707    12754    13069 
   13473    13478    12803    11685    10656    10157    10011     9566 
    8683     7697     6750     5852     5081     4627     4607     4814 
    4992     5066     5215     5709     6327     6659     6849     7223 
    7759     8232     8584     8997     9396     9509     9429     9425 
    9570     9836    10058    10104    10147    10147     9791     9352 
    9200     9058     8797     8664     8743     8922     9013     8901 
    8491     7778     7140     6843     6627     6354     6312     6745 
    7522     8324     9081     9945    10999    12033    12714    13086 
   13236    13001    12596    12332    11951    11195    10162     9115 
    8351     7946     7831     7832     7627     7300     7268     7561 
    8027     8500     8618     8448     8679     9486    10239    10436 
   10200    10068    10411    10962    11157    10885    10400     9755 
    8878     8110     7816     7811     7782     7662     7558     7724 
    8387     9539    10805    11719    12044    11801    11248    10463 
    9432     8476     7697     6681     5266     3975     3446     3670 
    4110     4461     4918     5545     6031     6299     6701     7454 
    8316     8964     9472     9972    10234    10068     9607     9144 
    8924     8901     8772     8424     7946     7479     7257     7221 
    6983     6581     6369     6355     6304     6218     6458     7244 
    8303     9308    10189    10829    11025    10839    10532    10331 
   10181     9822     9386     9219     9209     8951     8290     7534 
    7076     6866     6705     6592     6578     6878     7681     8757 
    9742    10552    11182    11592    11932    12355    12738    12876 
   12568    11912    11570    11817    12064    12013    11885    11727 
   11551    11568    12044    12892    13540    13628    13267    12764 
   12321    11893    11618    11777    11998    11728    11290    11192 
   11219    11068    10613     9751     8861     8321     7869     7304 
    6817     6566     6457     6273     6061     6108     6550     7150 
    7514     7527     7511     7920     8811     9813    10831    11884 
   12409    12000    11172    10574    10262     9931     9342     8471 
    7507     6759     6315     6076     6002     5844     5367     4735 
    4290     4492     5508     6760     7485     7518     7300     7194 
    7084     6705     6169     6097     6841     7911     8563     8472 
    7908     7458     7308     7210     7091     7091     7345     7673 
    7707     7703     8039     8314     8087     7622     7447     7736 
    8322     9150    10181    11083    11433    11234    10875    10399 
    9401     7900     6334     4833     3605     3207     3727     5013 
    7102     9617    11993    13934    15060    15186    14696    14108 
   13448    12393    11025     9624     8243     7002     5799     4229 
    2315      683       99      808     2195     3410     4099     4523 
    5373     7271    10245    13887    17787    21543    24682    26923 
   28278    28594    27432    24501    19888    14208     8554     3597 
    -727    -4124    -5926    -6300    -6054    -5559    -4563    -2763 
    -409     1796     3316     4058     4409     5135     6727     9108 
   11924    14756    17547    20430    23261    26134    28966    30694 
   30352    28054    24471    20021    14964     9954     5645     2154 
    -584    -2315    -2737    -2162    -1246     -363      391     1165 
    2288     3948     6111     8617    11067    13146    15025    16681 
   17617    17766    17713    17710    17109    15385    12914    10166 
    7534     5660     4514     2987      499    -2173    -4128    -5061 
   -4689    -2744      387     3539     5533     6214     6496     7457 
    9185    10315     9903     8934     8658     9185    10195    11410 
   12447    12870    12525    11838    11260    10679     9869     8580 
    6481     4023     2373     2145     3140     4606     5197     4221 
    2582     1560     1769     3014     4441     5661     7160     9173 
   11410    14002    17335    20941    23826    25432    25531    24239 
   22129    19635    16929    14208    11581     9215     7300     5656 
    4164     3006     2216     1682     1398     1659     2380     2829 
    3083     4203     6666     9539    11067    10592     9182     7747 
    6486     5845     6192     7310     8811    10339    11588    12600 
   13464    13880    13819    13691    13612    13545    13568    13594 
   13437    12861    11724    10257     8993     8644     9428    10362 
   10295     9205     7684     6156     4934     4475     5185     6669 
    7881     8544     9250     9979    10103     9574     8650     7581 
    7011     7383     8244     8823     8814     8382     7888     7792 
    8445    10119    12857    15668    17026    16633    15394    14062 
   12993    12572    13034    13913    14150    13073    11030     8942 
    7630     7263     7040     6174     4783     3434     2727     2975 
    3781     4526     5076     5598     6145     6486     6242     5367 
    4244     3445     3454     4010     4541     5108     5796     6323 
    6739     7387     8140     8409     8210     8343     8839     8603 
    6941     4403     2155      838      272      472     1620     3219 
    4720     6334     8775    12276    15974    18770    20248    20621 
   20297    19592    18839    18169    17271    15722    13312    10107 
    6451     2984      314    -1336    -1939    -1647     -896      275 
    2230     4430     6120     7697     9606    11763    14334    17050 
   18952    19818    20271    20522    20310    19732    19283    19164 
   18901    17815    15840    13518    11140     8472     5302     1503 
   -2651    -5995    -7701    -8203    -8005    -6898    -4779    -2158 
     801     4514     8804    12924    16241    18318    19076    19039 
   18667    17238    13915    10195     8487     8681     9111     9414 
    9971    10609    11203    11591    11360    10701    10066     9413 
    8756     8534     9040     9790     9909     9405     9220     9934 
   11222    12366    13104    13999    15519    17089    17313    15217 
   11657     8677     7209     6862     7303     8232     8910     8803 
    8189     7835     8294     9606    11172    12139    12317    11558 
    9273     6045     3468     2357     2535     3262     3730     3796 
    4102     5250     6848     7950     8055     7194     5845     4552 
    3292     1876      648      340     1193     2671     4541     7254 
   10893    14449    16610    17199    16946    16205    14929    13186 
   11437    10262     9333     8129     7460     7931     8818     9826 
   10972    11506    11038     9694     7269     3963      722    -1530 
   -2509    -2470    -1795     -911      137     1946     4730     7943 
   10949    13235    14574    15217    15376    14796    13420    12056 
   11458    11292    10941    10600    10616    10671    10484    10068 
    9474     8954     8248     6759     5085     4143     3438     2299 
    1468     1910     3492     5497     7300     8769    10061    11273 
   12634    14042    15016    15546    15784    15720    15900    17015 
   18501    19145    19020    18836    18736    19029    19870    20483 
   20055    18376    15580    12059     8459     5424     3360     2363 
    2089     2020     2103     2498     3246     4738     7319    10481 
   13200    14782    15190    14524    12874    10716     8440     5987 
    3460     1566     1012     1498     2014     2191     2566     3427 
    4299     4970     5840     6767     7123     6891     6760     7531 
    9209    10817    11763    12455    13225    13829    13942    13489 
   12667    11792    10760     8999     6336     3499     1695     1690 
    3161     5148     6798     7443     6540     4237     2011     1472 
    2515     4051     5486     6608     7214     7159     6640     6133 
    6048     6593     7580     8708     9894    11032    11965    12696 
   13560    14766    15827    16289    16236    15580    14351    13279 
   12555    11384     9576     7969     7350     7707     8357     8750 
    8712     8294     7815     7843     8897    10733    12272    12787 
   12537    11886    10692     8905     7026     5938     6049     6720 
    7433     8257     8885     9117     9401    10127    11514    13428 
   15300    16669    17286    17019    15881    14062    11917     9898 
    8586     8328     8656     8433     7086     5216     3839     3910 
    5605     7773     9216     9667     9408     8812     7888     6463 
    4876     3555     2714     2670     3422     4374     5040     5671 
    6809     8303     9518    10235    10597    10714    10808    10910 
   10503     9333     7889     6751     6164     6174     6724     7474 
    7955     8062     8048     7985     7871     8098     8847     9749 
   10471    10687    10255     9787     9741     9755     9833    10423 
   11102    11057    10301     9148     7692     6319     5412     4704 
    3811     2972     2879     3766     5051     6096     6766     7263 
    8171     9845    11387    11797    11341    10386     8657     6412 
