Origin Time       2024/04/02 04:24:00
Lat.              40.133
Long.             141.712
Depth. (km)       71
Mag.              6.0
Station Code      MYG004
Station Lat.      38.7324
Station Long.     141.0270
Station Height(m) 38
Record Time       2024/04/02 04:25:03
Sampling Freq(Hz) 100Hz
Duration Time(s)  138
Dir.              U-D
Scale Factor      7845(gal)/8223790
Max. Acc. (gal)   7.708
Last Correction   2024/04/02 04:25:02
Memo.             
[...]
  -52408   -52053   -51906   -51817   -51237   -50893   -51869   -53384 
  -53948   -53221   -51962   -51175   -51077   -51148   -50842   -50067 
  -49427   -49296   -49400   -49721   -50332   -51050   -51516   -51555 
  -51861   -52502   -52408   -51861   -52108   -52790   -52536   -51359 
  -50880   -51825   -52593   -51927   -51295   -52122   -53141   -52821 
  -51619   -50957   -51657   -52805   -52552   -51008   -50056   -50199 
  -50386   -50230   -50213   -50376   -50290   -50106   -50554   -51768 
  -52986   -53400   -52710   -51445   -50939   -51773   -52656   -52384 
  -51615   -51386   -51753   -52270   -52589   -52709   -52458   -51443 
  -50415   -50629   -51336   -50878   -49788   -49522   -49751   -49732 
  -50060   -51281   -52533   -52570   -51636   -51355   -52266   -53003 
  -52844   -52577   -52492   -52327   -52097   -51725   -51375   -51271 
  -51205   -51183   -51231   -51050   -50724   -50788   -51335   -51591 
  -51455   -51930   -52691   -52262   -50853   -50253   -51065   -51780 
  -51489   -51339   -51768   -51862   -51794   -52130   -52416   -52293 
  -52093   -51995   -51401   -50161   -49769   -50916   -51977   -52208 
  -52320   -51962   -51252   -51447   -52046   -51807   -50892   -50059 
  -50220   -51139   -51206   -50519   -50819   -52124   -52531   -51607 
  -51468   -52564   -52635   -51780   -51981   -52482   -51970   -51344 
  -51047   -50525   -50229   -50761   -51453   -51382   -50760   -50457 
  -50804   -51347   -51441   -51263   -51480   -51869   -51968   -52058 
  -52269   -52285   -52024   -51887   -52083   -52004   -51721   -52226 
  -52934   -52629   -52024   -51646   -50591   -49543   -50031   -50814 
  -50284   -49715   -50206   -50830   -51071   -51354   -51678   -51580 
  -51039   -50901   -51796   -52961   -53377   -53238   -53110   -52829 
  -52355   -52182   -51987   -51000   -50024   -50425   -51397   -51268 
  -50676   -51160   -52045   -51752   -50575   -50094   -50727   -51120 
  -50356   -49447   -49634   -50596   -51181   -51225   -51563   -52308 
  -52807   -52886   -52716   -52380   -52150   -52238   -52339   -52143 
  -51707   -51178   -50893   -51228   -51911   -52389   -52452   -52008 
  -51502   -51722   -52205   -51935   -51231   -50919   -50966   -50970 
  -50874   -50851   -51158   -51683   -51618   -50939   -51015   -52207 
  -53212   -53252   -52660   -51744   -50680   -50255   -51178   -52485 
  -52524   -51578   -51171   -51429   -51601   -51835   -52218   -51929 
  -50846   -50106   -50283   -50741   -51156   -51788   -52359   -52348 
  -51776   -51328   -51754   -52290   -51547   -50301   -50035   -50469 
  -51177   -52078   -52185   -51305   -51055   -52151   -53095   -52618 
  -51595   -51447   -51904   -51749   -50955   -50622   -51069   -51497 
  -51320   -50944   -51235   -51912   -51757   -50976   -50558   -50546 
  -51039   -51794   -51706   -51047   -51279   -52444   -53048   -52294 
  -51189   -50985   -51497   -51669   -51082   -50159   -49739   -50357 
  -51247   -51426   -51260   -51352   -51642   -51961   -52105   -51933 
  -51733   -51784   -51864   -51741   -51352   -50900   -51093   -51795 
  -51834   -51322   -51611   -52708   -53029   -52095   -51208   -50890 
  -50673   -50646   -50839   -50923   -50911   -51025   -51279   -51286 
  -50904   -50855   -51405   -51690   -51449   -51480   -51989   -52218 
  -51960   -52097   -52721   -52672   -51722   -50928   -50977   -51293 
  -51012   -50630   -50903   -51155   -51124   -51673   -52577   -52910 
  -52489   -51410   -50523   -50857   -51530   -51302   -50818   -51035 
  -51617   -51817   -51760   -52204   -53258   -53925   -53454   -52758 
  -52860   -52814   -51765   -51054   -51795   -52743   -52290   -51058 
  -50654   -50886   -50863   -51105   -51975   -52489   -52068   -51154 
  -50176   -49566   -49948   -50876   -50920   -50174   -50058   -50611 
  -51051   -51580   -52371   -52629   -52105   -51899   -52435   -52632 
  -52045   -51525   -51717   -52108   -51656   -50855   -51062   -51513 
  -51070   -50850   -51750   -52714   -52737   -52162   -51680   -51449 
  -51544   -51939   -52034   -51480   -50772   -50442   -50629   -51054 
  -51175   -50940   -50903   -51358   -51652   -51240   -51204   -52147 
  -52573   -51792   -50997   -51023   -51231   -50751   -50282   -50653 
  -50823   -50141   -49698   -50010   -50587   -50992   -50974   -51067 
  -51726   -51987   -51289   -50861   -51813   -52956   -52312   -50766 
  -50701   -51911   -52600   -52236   -51732   -51726   -51725   -51749 
  -52223   -52505   -52371   -52254   -51790   -50830   -50391   -51254 
  -52188   -51327   -49671   -49736   -51112   -51664   -51262   -50980 
  -51246   -51938   -52515   -52735   -52906   -52760   -51977   -51084 
  -50622   -50931   -52084   -53217   -53272   -52092   -50747   -50664 
  -51517   -51559   -50322   -49243   -49647   -51127   -52417   -52794 
  -52543   -52720   -53442   -53464   -52209   -50539   -49956   -51343 
  -53291   -53368   -51733   -50728   -51275   -52142   -51912   -50615 
  -49863   -50561   -51529   -51845   -51984   -52191   -52242   -52182 
  -52012   -51618   -51363   -51636   -52103   -52293   -52024   -51437 
  -51166   -51370   -51424   -51138   -50670   -50114   -50261   -51521 
  -52501   -52034   -51074   -50873   -51086   -51038   -50913   -50900 
  -50780   -50531   -50445   -50495   -50593   -51015   -51494   -51730 
  -52004   -51852   -50868   -50078   -50280   -50947   -51241   -51074 
  -51235   -51934   -52208   -51965   -52122   -52338   -52002   -52182 
  -53194   -53029   -51347   -50805   -52074   -52822   -52038   -50955 
  -51012   -52105   -52481   -51676   -51119   -51024   -50943   -51505 
  -52340   -52224   -51630   -51448   -51424   -51339   -51277   -51389 
  -51796   -51960   -51478   -51136   -51614   -52234   -52047   -51412 
  -51327   -51648   -51794   -52024   -52432   -52663   -52425   -51459 
  -50290   -49955   -50525   -50935   -50322   -49684   -50434   -51695 
  -51931   -51611   -52158   -53379   -53262   -51146   -49397   -49719 
  -50728   -51410   -52245   -52579   -51849   -51297   -51844   -52687 
  -52428   -51121   -50417   -50776   -50916   -50441   -50371   -51066 
  -51579   -51300   -50973   -51344   -51806   -51742   -51605   -51390 
  -50889   -50861   -51297   -51433   -51898   -52914   -52891   -51825 
  -51619   -52083   -51718   -51204   -51773   -52442   -52012   -51541 
  -51915   -52122   -51682   -51147   -50876   -51032   -51329   -51487 
  -51702   -51660   -51003   -50614   -51405   -52681   -52976   -51973 
  -51023   -51093   -51359   -51264   -51393   -51872   -52284   -52272 
  -51872   -51624   -51609   -51595   -51764   -51579   -50768   -51285 
  -53316   -53470   -51418   -50426   -50769   -50653   -50261   -50495 
  -51256   -51729   -51333   -50818   -51345   -52313   -52227   -51732 
  -52181   -52219   -50788   -50078   -51283   -52497   -52370   -51663 
  -51227   -50855   -50537   -51007   -52029   -52049   -50733   -49858 
  -50328   -51032   -51399   -51421   -50841   -50691   -51551   -51900 
  -51545   -51607   -51381   -50410   -50450   -52358   -54205   -53908 
  -52219   -51179   -50949   -50917   -51348   -51891   -51745   -51352 
  -51510   -51827   -51715   -51887   -52627   -52467   -51032   -49855 
  -49832   -50681   -51420   -51464   -51668   -52311   -52525   -52172 
  -51574   -51220   -51721   -52301   -51649   -50585   -50839   -51711 
  -51532   -50931   -51065   -51646   -52238   -52108   -50868   -49956 
  -50367   -51278   -51879   -52095   -52265   -52386   -51796   -50993 
  -51591   -52960   -52833   -51591   -51416   -52033   -51414   -49927 
  -49970   -51885   -53581   -53446   -51973   -50962   -51102   -51632 
  -52304   -53219   -53766   -53357   -52142   -50804   -50291   -51005 
  -51894   -51683   -50949   -51012   -51530   -51489   -51252   -51487 
  -51721   -51433   -51167   -51474   -51734   -51275   -50718   -50787 
  -50787   -50159   -49817   -49999   -50053   -50512   -51699   -52415 
  -51683   -50105   -49620   -51070   -52606   -52671   -51860   -50804 
  -49748   -49302   -49557   -50106   -50615   -50855   -51075   -51524 
  -52037   -52682   -53346   -53109   -51405   -49700   -50147   -51726 
  -51702   -50425   -49696   -49771   -50515   -51649   -52695   -53438 
  -53073   -51476   -50592   -51254   -51821   -51601   -51460   -51645 
  -51829   -51885   -52277   -53353   -53846   -52594   -50882   -50556 
  -51220   -51146   -50546   -50958   -51808   -51898   -52049   -52771 
  -53164   -52991   -52525   -51899   -51495   -51386   -51331   -51506 
  -51922   -51709   -50560   -50168   -51196   -51266   -49975   -50136 
  -51775   -52293   -51810   -52143   -52791   -52390   -51690   -51725 
  -51748   -51202   -51165   -52358   -53349   -52490   -50900   -50764 
  -51865   -52525   -52091   -51070   -50545   -50932   -51043   -50591 
  -51005   -51551   -50600   -49762   -50172   -50259   -49906   -50398 
  -51705   -52853   -52839   -51578   -50407   -50456   -51289   -51949 
  -52380   -52953   -52965   -51553   -50155   -50593   -51946   -52614 
  -52500   -51918   -51412   -51737   -52280   -51737   -50561   -50403 
  -51594   -52416   -51570   -50841   -52239   -53937   -53793   -53289 
  -53766   -53748   -52555   -51700   -51418   -50683   -50251   -50751 
  -50986   -50689   -50637   -50757   -50635   -50423   -50645   -51228 
  -51228   -50479   -50174   -50741   -51358   -51575   -51453   -51505 
  -52116   -52130   -50992   -50506   -51435   -52272   -52288   -52104 
  -51885   -51378   -50804   -50456   -50319   -50438   -50629   -50588 
  -50751   -51564   -52471   -52794   -52419   -51962   -52216   -52712 
  -52683   -52547   -52583   -52443   -52038   -51594   -51715   -52513 
  -52976   -52766   -52494   -52186   -51929   -52332   -52994   -52845 
  -51923   -50909   -50118   -49798   -50233   -51405   -52569   -52913 
  -52658   -52253   -51784   -51524   -51871   -52918   -53505   -52235 
  -50259   -49574   -49846   -49963   -49918   -50217   -51297   -52324 
  -51501   -49763   -50072   -51898   -52361   -51270   -50355   -50217 
  -50210   -50044   -50224   -50961   -52355   -54291   -55250   -54395 
  -53372   -53246   -53187   -52708   -52111   -51687   -51213   -50252 
  -49540   -49966   -50656   -50677   -50735   -51412   -51714   -51021 
  -50679   -51131   -50973   -51070   -52860   -53724   -51883   -49959 
  -49682   -50215   -50475   -50201   -50355   -50676   -49759   -48689 
  -49056   -50220   -51382   -52116   -51910   -51333   -51183   -50915 
  -50441   -51038   -52461   -53206   -53416   -53711   -53805   -53897 
  -54189   -53844   -52566   -51622   -51536   -51039   -50051   -49987 
  -50923   -51908   -52371   -52149   -51248   -50047   -49971   -51413 
  -51939   -50261   -48968   -50272   -52232   -51999   -50614   -51086 
  -53009   -53198   -50985   -48909   -48834   -50026   -50670   -50399 
  -50072   -49720   -49350   -49678   -50720   -52101   -53643   -54723 
  -54521   -52872   -51094   -51016   -52351   -52874   -51538   -50153 
  -50842   -52498   -52798   -51937   -51406   -51705   -52463   -52953 
  -52477   -51637   -52307   -54128   -54197   -52164   -50824   -51347 
  -52192   -52196   -51910   -52290   -53384   -53935   -52794   -50884 
  -49982   -50301   -50847   -50889   -50542   -50441   -50633   -50463 
  -49878   -49370   -49060   -49239   -49970   -50151   -49422   -48891 
  -49098   -49619   -49964   -49885   -49642   -49943   -50855   -51273 
  -50804   -50811   -52022   -53127   -52968   -52066   -51217   -50815 
  -51526   -53142   -53904   -53316   -53204   -54006   -54043   -53419 
  -53740   -54454   -53959   -52485   -50872   -49470   -48991   -49621 
  -50410   -50712   -51159   -52483   -53577   -53446   -53572   -54252 
  -53576   -51727   -50360   -49945   -50287   -50581   -50701   -52236 
  -54774   -55409   -53937   -52925   -53152   -53304   -52454   -50980 
  -49910   -49574   -49384   -49192   -49253   -48829   -47429   -46584 
  -47320   -48462   -49073   -49489   -50144   -51007   -52142   -53862 
  -55553   -56218   -55975   -55119   -53426   -51156   -49608   -49829 
  -50866   -51352   -51848   -52794   -52739   -50827   -48689   -48226 
  -48809   -48570   -47239   -45825   -45266   -45663   -46476   -47983 
  -50332   -52334   -53515   -54580   -55849   -56656   -55965   -54627 
  -54648   -55182   -53846   -51499   -51021   -52068   -51835   -50175 
  -49347   -50283   -51713   -52030   -51617   -52045   -52917   -52625 
  -51582   -51295   -51475   -51227   -51327   -52348   -53539   -54638 
  -55273   -54588   -53061   -51406   -49611   -48979   -51125   -54432 
  -55464   -53785   -52043   -51534   -51061   -50159   -49883   -50769 
  -52382   -53597   -53775   -54051   -54796   -54421   -52803   -51726 
  -51636   -51413   -50738   -50446   -50575   -49968   -49011   -49813 
  -51865   -52477   -51845   -51856   -52192   -51563   -50309   -50221 
  -51220   -50338   -47358   -46386   -49052   -52450   -53877   -53165 
  -51984   -52118   -53060   -52380   -49747   -48128   -49032   -50202 
  -50090   -50237   -51629   -52980   -53724   -54363   -54302   -53010 
  -51398   -50649   -50836   -50480   -49192   -49607   -52631   -54429 
  -52901   -51837   -53921   -56076   -55375   -53458   -52874   -52759 
  -51039   -49048   -48836   -48703   -47100   -46290   -48019   -50427 
  -51696   -52521   -53651   -54297   -53914   -53545   -54232   -55012 
  -54256   -52521   -52011   -53168   -53973   -53599   -53347   -52839 
  -50707   -48074   -46450   -45369   -44093   -43425   -44716   -47209 
  -48828   -49015   -49027   -50234   -52151   -53730   -55341   -56421 
  -55517   -53832   -53545   -54225   -54460   -54066   -53199   -51904 
  -50734   -49989   -48953   -47619   -47128   -47144   -46522   -45968 
  -46561   -47839   -49230   -50963   -52683   -53333   -53138   -53304 
  -53794   -54191   -55215   -56627   -56663   -55220   -53727   -52447 
  -51534   -51857   -53206   -54394   -54184   -52085   -49582   -48836 
  -49918   -50503   -49113   -47787   -48560   -49738   -49675   -50680 
  -54676   -58623   -59182   -58121   -58244   -58206   -55857   -53096 
  -52600   -52791   -51057   -48886   -49279   -51185   -51327   -50144 
  -50105   -50457   -49187   -47205   -46796   -47641   -47880   -47781 
  -48444   -49673   -51079   -52452   -53472   -53661   -53064   -53181 
  -54079   -53392   -50877   -48762   -48038   -47821   -47128   -46870 
  -48670   -51256   -52043   -51719   -52517   -54220   -55232   -55019 
  -54303   -54252   -55057   -55444   -54741   -53773   -53075   -52488 
  -52162   -52326   -52474   -52069   -51324   -50363   -49266   -48606 
  -48211   -47228   -46311   -47090   -49280   -51027   -51664   -51795 
  -52057   -53142   -54762   -55432   -55093   -54672   -53794   -52246 
  -50738   -49743   -49559   -49709   -49107   -48186   -48311   -49349 
  -49950   -49461   -49156   -50360   -51160   -49619   -48250   -49219 
  -50525   -50666   -50646   -50957   -51478   -52670   -54197   -54776 
  -54272   -53597   -52560   -50391   -48174   -47892   -49578   -51667 
  -52826   -52640   -51934   -51908   -52458   -52763   -52872   -53316 
  -53937   -54268   -54398   -54660   -54812   -54217   -53318   -53179 
  -53033   -51973   -51355   -51656   -51290   -49821   -47942   -46404 
  -46488   -47964   -48506   -47514   -47503   -50233   -53212   -53364 
  -52159   -51930   -52016   -52041   -52583   -53231   -53523   -53303 
  -52911   -53414   -54099   -53017   -50853   -49522   -48697   -47637 
  -47420   -48857   -50257   -49615   -48324   -48703   -49929   -51123 
  -52624   -53100   -52255   -52184   -53256   -54367   -55120   -54953 
  -54001   -53833   -54869   -55656   -54922   -53001   -51453   -50920 
  -50584   -49978   -49368   -49075   -49111   -48705   -47483   -46882 
  -47663   -48421   -49140   -50965   -52467   -52640   -53059   -53678 
  -53663   -53924   -54324   -53680   -52713   -53387   -55363   -55692 
  -54301   -54000   -54068   -52396   -50619   -50788   -51803   -51467 
  -49902   -49492   -50585   -50755   -49639   -49638   -50936   -50533 
  -47845   -46468   -47844   -49320   -49982   -51475   -53581   -54340 
  -53732   -53747   -54788   -55317   -55020   -54837   -54953   -54814 
  -53910   -52658   -52007   -51489   -50340   -49709   -50449   -51352 
  -51393   -50935   -50827   -51399   -52054   -52570   -53212   -53356 
  -52909   -52717   -52285   -50930   -49990   -50742   -52184   -52953 
  -53019   -52415   -51196   -50244   -50140   -50662   -51321   -51098 
  -49709   -48766   -49015   -49076   -48335   -47988   -48783   -49450 
  -48956   -48258   -48180   -49005   -50512   -50846   -49794   -50035 
  -51810   -52601   -52276   -52443   -52816   -52794   -53248   -54630 
  -55965   -55919   -54529   -53361   -53144   -52861   -51586   -49890 
  -48982   -48548   -47482   -46485   -46785   -47900   -49003   -49986 
  -50981   -52046   -52573   -52162   -52141   -53291   -53932   -53543 
  -53752   -54109   -53231   -52211   -52018   -51588   -50488   -50112 
  -51150   -52084   -51736   -51254   -51861   -52223   -50638   -48621 
  -48612   -49823   -50144   -49844   -50120   -50684   -51318   -52591 
  -54062   -54843   -55390   -56108   -56150   -55432   -54332   -52358 
  -50689   -51219   -52458   -52350   -51973   -52547   -53152   -52756 
  -51713   -50816   -50122   -49574   -49689   -50203   -49850   -48743 
  -48392   -49212   -50634   -52218   -52893   -51996   -51127   -51371 
  -51637   -51894   -52628   -52717   -51983   -51618   -51449   -50626 
  -49850   -50049   -50473   -50403   -50248   -50382   -50726   -50464 
  -49018   -47970   -49202   -51518   -52610   -52978   -53731   -53875 
  -53387   -53900   -54997   -54885   -53757   -52813   -52231   -52091 
  -52535   -52312   -50649   -49411   -49702   -50232   -50421   -50726 
  -51339   -52030   -52089   -51706   -52328   -54064   -55262   -55027 
  -53685   -52004   -51402   -52242   -52317   -50737   -50355   -51999 
  -52312   -50572   -49856   -50986   -51841   -51155   -49574   -48250 
  -47476   -47024   -47133   -47972   -49304   -50571   -51146   -51729 
  -53130   -54062   -53593   -52837   -52344   -51594   -50985   -51343 
  -52363   -53161   -53211   -52276   -50361   -48369   -47788   -48616 
  -49393   -49800   -50410   -50780   -50449   -50244   -50868   -51607 
  -51521   -51075   -51583   -53179   -54187   -53461   -52566   -53149 
  -54045   -53732   -52654   -52151   -52596   -52623   -51602   -50917 
  -51381   -52578   -53754   -53892   -52533   -50634   -49897   -50274 
  -50035   -49742   -51185   -53087   -53302   -52485   -52483   -53235 
  -53198   -52204   -51759   -52539   -53154   -52401   -51671   -52479 
  -53766   -53960   -52543   -50193   -48695   -48250   -47871   -48335 
  -49613   -49667   -48240   -46944   -46990   -48328   -49566   -49963 
  -50400   -51383   -51892   -51186   -51000   -52740   -54413   -54486 
  -54349   -55084   -55827   -55381   -54209   -53396   -52547   -51543 
  -51112   -50750   -49839   -49189   -49314   -49491   -49513   -50064 
  -51173   -52276   -52884   -53180   -54004   -55038   -55590   -55953 
  -55425   -53476   -51999   -51833   -51475   -50932   -51214   -51321 
  -50521   -50267   -50878   -50712   -49798   -49655   -49766   -49080 
  -48699   -49208   -49897   -50791   -51237   -50537   -50348   -51759 
