Origin Time       2024/04/02 04:24:00
Lat.              40.133
Long.             141.712
Depth. (km)       71
Mag.              6.0
Station Code      MYG005
Station Lat.      38.7989
Station Long.     140.6512
Station Height(m) 304
Record Time       2024/04/02 04:25:06
Sampling Freq(Hz) 100Hz
Duration Time(s)  154
Dir.              E-W
Scale Factor      7845(gal)/8223790
Max. Acc. (gal)   5.698
Last Correction   2024/04/02 04:25:07
Memo.             
[...]
   -2620    -2282    -2174    -2305    -2650    -3146    -3624    -3827 
   -3701    -3454    -3219    -3060    -3159    -3635    -4338    -4995 
   -5456    -5668    -5452    -4644    -3531    -2705    -2465    -2934 
   -4118    -5364    -5741    -5043    -3820    -2841    -2640    -3165 
   -3917    -4374    -4224    -3584    -2851    -2266    -1952    -1971 
   -2178    -2363    -2458    -2386    -2095    -1811    -1804    -2049 
   -2398    -2720    -2911    -2971    -2747    -2060    -1255     -959 
   -1309    -1944    -2617    -3173    -3298    -2832    -1941    -1030 
    -673    -1190    -2374    -3663    -4369    -4190    -3460    -2654 
   -1964    -1490    -1402    -1775    -2548    -3481    -4082    -4070 
   -3693    -3257    -2852    -2601    -2602    -2795    -3179    -3738 
   -4098    -3971    -3716    -3817    -4299    -4866    -5228    -5243 
   -4841    -4052    -3165    -2490    -2122    -2079    -2351    -2843 
   -3310    -3349    -2718    -1582     -252      950     1567     1350 
     606     -176     -737     -984    -1017    -1074    -1154    -1040 
    -764     -518     -371     -351     -534     -913    -1278    -1372 
   -1088     -460      280      785      803      256     -650    -1534 
   -2199    -2525    -2342    -1715    -1039     -696     -787    -1123 
   -1506    -1879    -2303    -2866    -3450    -3696    -3414    -2783 
   -2060    -1570    -1772    -2767    -4106    -5179    -5494    -5004 
   -4241    -3696    -3389    -3148    -2695    -1852     -981     -596 
    -730    -1212    -1794    -2077    -1772     -881      221     1001 
    1171      619     -573    -1884    -2795    -3342    -3681    -3607 
   -2984    -2050    -1178     -700     -743    -1333    -2515    -3989 
   -5211    -5888    -6019    -5732    -5269    -4990    -5198    -5761 
   -6250    -6450    -6345    -5998    -5630    -5460    -5462    -5516 
   -5724    -6180    -6528    -6381    -5732    -4684    -3396    -2242 
   -1599    -1553    -1995    -2686    -3225    -3438    -3483    -3303 
   -2748    -1972    -1221     -706     -575     -757    -1071    -1340 
   -1513    -1656    -1611    -1270    -1054    -1393    -2208    -3017 
   -3146    -2340    -1077       45      656      445     -414    -1031 
    -738      230     1263     1840     1564      419    -1046    -2087 
   -2307    -1694     -530      537      967      812      415       13 
    -490    -1329    -2289    -2820    -2764    -2481    -2349    -2486 
   -2817    -3083    -3126    -3073    -2952    -2605    -1953    -1044 
    -291     -220     -851    -1744    -2285    -2076    -1395    -1059 
   -1718    -3111    -4197    -4244    -3412    -2272    -1337     -970 
   -1256    -1977    -2843    -3586    -3929    -3738    -3072    -2042 
   -1009     -572     -958    -1837    -2741    -3358    -3539    -3202 
   -2357    -1270     -464     -475    -1471    -3078    -4699    -5864 
   -6106    -5111    -3375    -1989    -1698    -2636    -4463    -6232 
   -6871    -6222    -4962    -3585    -2276    -1221     -514     -217 
    -468    -1113    -1682    -1892    -1663     -986     -276     -217 
   -1039    -2384    -3700    -4442    -4411    -3986    -3658    -3682 
   -4067    -4340    -3933    -3109    -2694    -3010    -3734    -4502 
   -5027    -5062    -4689    -4189    -3650    -3069    -2478    -1877 
   -1466    -1576    -2095    -2623    -3122    -3724    -4367    -4954 
   -5336    -5220    -4564    -3747    -2998    -2226    -1514    -1115 
   -1132    -1533    -2072    -2224    -1591     -464      346      278 
    -616    -1798    -2677    -3091    -3160    -2905    -2276    -1398 
    -780     -951    -1864    -3073    -4252    -5071    -5046    -4063 
   -2532     -873      426      792      272     -572    -1405    -2079 
   -2374    -2249    -1887    -1445    -1036     -805     -903    -1534 
   -2790    -4230    -5054    -4769    -3568    -2154    -1291    -1399 
   -2323    -3316    -3715    -3530    -2978    -2224    -1790    -2077 
   -2677    -2944    -2708    -2084    -1323     -869    -1105    -1792 
   -2296    -2543    -2790    -2917    -2774    -2431    -1894    -1309 
   -1048    -1301    -1980    -2745    -2991    -2384    -1351     -688 
    -743    -1291    -1952    -2386    -2533    -2748    -3262    -3780 
   -3848    -3318    -2515    -2070    -2247    -2743    -3261    -3510 
   -3094    -2047     -905     -157       93      -51     -499     -885 
    -654      159     1019     1620     1768     1175        5     -993 
   -1084     -256      769     1490     1884     1610      345    -1410 
   -2936    -3762    -3484    -2170     -637       81     -454    -1695 
   -2598    -2447    -1471     -575     -313     -612    -1274    -2230 
   -3484    -4762    -5595    -5865    -5679    -5158    -4590    -4141 
   -3726    -3426    -3528    -4008    -4514    -4774    -4483    -3465 
   -2384    -2164    -2968    -4455    -6116    -7163    -7014    -5856 
   -4340    -3122    -2652    -2948    -3684    -4563    -5314    -5655 
   -5599    -5451    -5466    -5653    -5761    -5494    -4781    -3943 
   -3518    -3846    -4776    -5695    -5868    -4993    -3411    -1857 
    -977     -970    -1710    -2806    -3534    -3376    -2484    -1397 
    -724     -882    -1791    -2976    -3855    -4001    -3393    -2304 
   -1089     -286     -330    -1170    -2493    -3889    -4787    -4788 
   -3983    -2717    -1347     -391     -468    -1651    -3254    -4536 
   -5104    -4828    -3867    -2621    -1509     -815     -662    -1054 
   -1779    -2524    -3141    -3522    -3508    -3065    -2465    -2277 
   -2766    -3480    -3777    -3191    -1601      317     1308      677 
   -1069    -2944    -4259    -4513    -3585    -2130     -911     -234 
    -166     -468     -696     -712     -697     -741     -684     -314 
     406     1273     1923     2135     1899     1167      116     -611 
    -604     -230      -18     -122     -469     -822     -816     -419 
     -41      -74     -506     -947    -1117    -1165    -1371    -1777 
   -2061    -1966    -1742    -1872    -2548    -3524    -4260    -4306 
   -3684    -2830    -2173    -1846    -1911    -2486    -3335    -3905 
   -3982    -3694    -3229    -2953    -3203    -3842    -4417    -4590 
   -4321    -3744    -3103    -2814    -3123    -3707    -4132    -4353 
   -4391    -4066    -3257    -2139    -1162     -869    -1649    -3299 
   -4930    -5729    -5576    -4811    -3896    -3246    -2953    -2798 
   -2762    -3013    -3550    -4187    -4510    -4035    -2763    -1254 
    -221     -218    -1244    -2610    -3558    -3620    -2610    -1044 
     112      452      159     -577    -1671    -2857    -3397    -2627 
    -837     1062     2265     2262     1143     -400    -1794    -2752 
   -2898    -2193    -1183     -232      630     1287     1445      719 
    -805    -2407    -3553    -4205    -4299    -3778    -2789    -1574 
    -623     -708    -2085    -3994    -5401    -5678    -4623    -2880 
   -1632    -1335    -1759    -2546    -3142    -3191    -2862    -2436 
   -2058    -1907    -2014    -2147    -2355    -2913    -3763    -4653 
   -5339    -5512    -5092    -4531    -4371    -4735    -5435    -6143 
   -6543    -6478    -6061    -5697    -5756    -6193    -6720    -7002 
   -6741    -5962    -4992    -4131    -3508    -3184    -3310    -3909 
   -4587    -4788    -4221    -3049    -1759     -882     -707    -1013 
   -1344    -1460    -1256     -681      -43      240      222      147 
      58     -122     -579    -1216    -1543    -1293     -550      337 
     712      184     -846    -1606    -1696    -1131      -74      915 
    1148      568     -280     -901    -1221    -1336    -1306    -1266 
   -1242    -1108     -980    -1070    -1302    -1489    -1468    -1089 
    -395      276      495       -1    -1050    -2081    -2667    -2759 
   -2282    -1266     -199      340      190     -351     -862    -1243 
   -1530    -1625    -1543    -1528    -1837    -2482    -3196    -3643 
   -3496    -2681    -1678    -1001     -747     -997    -1767    -2660 
   -3137    -2862    -1958     -973     -400     -504    -1332    -2569 
   -3750    -4666    -5174    -4909    -3769    -2259    -1081     -696 
   -1113    -1899    -2467    -2546    -2509    -2744    -3052    -3177 
   -3011    -2435    -1675    -1358    -1927    -3242    -4583    -5279 
   -5325    -5036    -4774    -4947    -5440    -5869    -6172    -6147 
   -5736    -5420    -5435    -5775    -6513    -7331    -7770    -7686 
   -7145    -6527    -6370    -6825    -7441    -7592    -7129    -6293 
   -5421    -4976    -5254    -6119    -7069    -7408    -6717    -5287 
   -3915    -3080    -2662    -2581    -2911    -3335    -3345    -2829 
   -2076    -1300     -730     -742    -1228    -1599    -1559    -1142 
    -504      -24       14     -170     -140      132      294      207 
     -44     -369     -521     -265      257      768     1121     1212 
     959      367     -553    -1571    -2226    -2147    -1240       68 
     847      430     -984    -2694    -3963    -4209    -3376    -1961 
    -423      855     1298      577     -966    -2629    -3815    -4203 
   -3623    -2209     -618      576     1147      842     -326    -1765 
   -2682    -2558    -1432       91     1171     1127     -105    -1737 
   -2810    -2994    -2454    -1769    -1825    -2835    -4014    -4552 
   -4284    -3483    -2569    -1902    -1548    -1452    -1715    -2384 
   -3253    -3939    -3985    -3306    -2338    -1574    -1318    -1656 
   -2373    -3082    -3368    -2934    -1833     -562      175       72 
    -571    -1258    -1587    -1455    -1043     -515      -93      -35 
    -220     -432     -737    -1088    -1418    -1904    -2346    -2274 
   -1926    -1892    -2288    -3091    -4168    -4774    -4278    -2965 
   -1655    -1017    -1198    -1903    -2791    -3612    -4321    -5101 
   -5934    -6338    -5883    -4884    -4058    -3848    -4405    -5433 
   -6316    -6656    -6301    -5282    -4051    -3275    -3318    -3997 
   -4681    -4812    -4453    -4089    -3935    -3943    -4120    -4229 
   -3982    -3372    -2451    -1530    -1169    -1620    -2655    -3604 
   -3632    -2428     -638      549      549     -232    -1159    -1802 
   -1749     -961     -139      187      141     -330    -1179    -1809 
   -1842    -1364     -677     -229     -314     -853    -1212     -711 
     421     1277     1135      114     -876    -1204     -827      147 
    1312     2060     2034     1347      422     -405     -915     -972 
    -631      105     1044     1428      919       90     -642    -1274 
   -1676    -1795    -1741    -1499    -1046     -608     -494     -886 
   -1861    -3191    -4222    -4321    -3522    -2620    -2401    -2998 
   -4050    -4922    -5003    -4252    -3316    -2925    -3199    -3870 
   -4828    -5838    -6394    -6258    -5497    -4383    -3591    -3712 
   -4627    -5853    -7032    -7797    -7796    -7068    -6000    -5039 
   -4683    -5139    -6052    -7011    -7645    -7285    -5678    -3655 
   -2344    -2095    -2643    -3557    -4212    -4198    -3802    -3478 
   -3272    -2979    -2455    -1836    -1571    -2035    -2894    -3234 
   -2589    -1318      -72      633      518     -338    -1417    -2030 
   -1791     -793      475     1363     1343      384     -889    -1755 
   -2106    -2335    -2721    -3319    -4056    -4726    -5255    -5630 
   -5652    -5364    -5028    -4473    -3573    -2924    -3095    -3856 
   -4684    -5152    -4808    -3492    -1678     -128      606      319 
    -815    -2196    -3091    -3253    -2952    -2415    -1876    -1784 
   -2201    -2714    -3042    -3044    -2606    -1984    -1664    -1714 
   -1856    -2146    -2675    -3068    -3150    -3090    -2662    -1597 
    -414       72     -251    -1020    -1956    -2577    -2475    -1877 
   -1092     -310       28     -310    -1127    -2110    -2887    -3067 
   -2566    -1895    -1699    -2043    -2724    -3485    -3900    -3901 
   -3627    -3071    -2485    -2127    -1891    -1807    -1993    -2253 
   -2349    -2211    -1865    -1441    -1116    -1108    -1528    -2157 
   -2755    -3109    -3026    -2786    -2790    -2863    -2675    -2377 
   -2277    -2376    -2624    -3126    -3809    -4295    -4270    -3707 
   -2802    -2026    -1877    -2407    -3269    -4006    -4240    -4059 
   -3789    -3343    -2590    -1815    -1359    -1309    -1537    -1817 
   -1780    -1074       67      916      984      333     -564    -1173 
   -1150     -607      -75      199      274      -16     -633    -1080 
   -1175    -1167    -1205    -1370    -1679    -1958    -2154    -2307 
   -2392    -2423    -2269    -1834    -1529    -1653    -1800    -1547 
    -994     -472     -199     -279     -718    -1181    -1078     -349 
     355      518       99     -761    -1780    -2566    -2893    -2663 
   -1923    -1140    -1008    -1873    -3343    -4538    -5023    -5108 
   -5204    -5428    -5725    -6025    -6120    -5771    -5152    -4739 
   -4793    -5258    -5755    -5834    -5483    -5107    -5108    -5431 
   -5692    -5814    -5813    -5429    -4654    -3801    -3092    -2713 
   -2713    -2832    -2859    -3007    -3623    -4549    -5212    -5255 
   -4645    -3591    -2544    -2004    -2235    -3021    -3703    -3705 
   -2999    -2073    -1593    -1840    -2380    -2664    -2641    -2442 
   -2173    -1954    -1588     -845     -126      -24     -583    -1294 
   -1514    -1023      -55      981     1584     1560     1279     1067 
     804      426      284      679     1632     2875     3580     3057 
    1536     -318    -1640    -1601     -369      959     1513     1066 
    -168    -1541    -2173    -1734     -712      202      706      758 
     427        5     -283     -442     -521     -737    -1071    -1162 
   -1061    -1077    -1343    -1898    -2421    -2664    -3002    -3550 
   -3943    -4108    -4032    -3724    -3626    -3910    -4202    -4440 
   -4927    -5576    -5854    -5451    -4706    -4256    -4413    -5024 
   -5796    -6508    -6972    -7063    -6802    -6380    -5999    -5655 
   -5260    -4793    -4239    -3828    -3878    -4266    -4687    -4896 
   -4584    -3770    -2886    -2334    -2361    -2874    -3402    -3568 
   -3260    -2641    -2097    -1841    -1873    -2189    -2543    -2666 
   -2702    -2640    -2160    -1503    -1283    -1552    -1980    -2423 
   -2743    -2749    -2647    -2948    -3731    -4401    -4419    -3825 
   -2937    -2276    -2332    -2920    -3476    -3709    -3532    -3017 
   -2432    -2061    -2003    -2074    -2123    -2309    -2625    -2670 
   -2228    -1536     -946     -785    -1290    -2143    -2663    -2613 
   -2232    -1818    -1687    -2026    -2712    -3446    -3835    -3565 
   -2817    -2151    -1991    -2327    -2824    -3181    -3173    -2573 
   -1490     -372      433      747      514      -35     -456     -382 
     243     1081     1556     1329      584     -301    -1143    -1942 
   -2578    -2619    -1807     -588      205      135     -595    -1583 
   -2448    -2825    -2516    -1667     -670       17      -21     -769 
   -1726    -2528    -3079    -3338    -3348    -3192    -3045    -3138 
   -3520    -4066    -4600    -4989    -5267    -5487    -5526    -5395 
   -5406    -5586    -5549    -5138    -4488    -3831    -3466    -3539 
   -3969    -4729    -5765    -6602    -6610    -5711    -4434    -3597 
   -3774    -4634    -5255    -5124    -4395    -3569    -3181    -3454 
   -4104    -4677    -4947    -4766    -4209    -3697    -3372    -3052 
   -2743    -2490    -2342    -2454    -2709    -2880    -2895    -2578 
   -2050    -1845    -1946    -1863    -1476     -932     -378      -54 
    -136     -481     -758     -745     -456      -24      394      625 
     662      745      934     1020      942      805      649      442 
     164        5      225      556      633      592      427      -31 
    -475     -626     -627     -511     -274     -122      -97      -99 
    -268     -766    -1472    -2181    -2725    -2883    -2535    -1769 
    -792       60      436      191     -544    -1422    -2064    -2146 
   -1513     -576        2      -36     -745    -1998    -3221    -3851 
   -3784    -3161    -2324    -1765    -1729    -2162    -2872    -3582 
   -4101    -4357    -4259    -3811    -3285    -2964    -2899    -2952 
   -3024    -3214    -3496    -3577    -3285    -2620    -1790    -1316 
   -1564    -2367    -3230    -3627    -3306    -2565    -1958    -1877 
   -2417    -3184    -3596    -3503    -3071    -2516    -2284    -2758 
   -3639    -4332    -4646    -4599    -4237    -3813    -3607    -3792 
   -4349    -4931    -5152    -4961    -4544    -4124    -3885    -3846 
   -3863    -3915    -4120    -4445    -4653    -4530    -4063    -3514 
   -3221    -3246    -3369    -3396    -3339    -3497    -4140    -4847 
   -4865    -4010    -2722    -1667    -1356    -1818    -2733    -3607 
   -3924    -3562    -2789    -2062    -1898    -2443    -3429    -4414 
   -4914    -4865    -4560    -4152    -3782    -3553    -3354    -3233 
   -3423    -3871    -4225    -4205    -3744    -2887    -1845    -1102 
   -1067    -1622    -2292    -2760    -2886    -2606    -2168    -1853 
   -1645    -1491    -1383    -1240    -1023     -772     -576     -517 
    -496     -448     -481     -479     -190      176      236       37 
     -28      265      730      888      382     -666    -1609    -1810 
   -1210     -290      306      174     -607    -1717    -2727    -3113 
   -2797    -2289    -2031    -2073    -2123    -1827    -1251     -815 
    -920    -1632    -2524    -3090    -3154    -2782    -2185    -1591 
   -1127    -1003    -1310    -1719    -1906    -1927    -1906    -1792 
   -1574    -1398    -1433    -1757    -2376    -3133    -3727    -3996 
   -3948    -3566    -2945    -2381    -2126    -2331    -2983    -3831 
   -4490    -4484    -3705    -2740    -2068    -1624    -1499    -1944 
   -2737    -3335    -3337    -2718    -1857    -1273    -1259    -1757 
   -2602    -3682    -4737    -5385    -5352    -4606    -3553    -2844 
   -2720    -2947    -3199    -3175    -2829    -2369    -1837    -1181 
    -672     -699    -1129    -1505    -1760    -2106    -2471    -2641 
   -2624    -2486    -2054    -1302     -718     -650     -892    -1227 
   -1668    -2104    -2336    -2396    -2290    -1861    -1263     -886 
    -743     -754    -1161    -1939    -2558    -2651    -2362    -2026 
   -1902    -2022    -2181    -2242    -2216    -2126    -2020    -1831 
   -1389     -741      -62      365      108     -905    -2197    -3208 
   -3539    -3069    -2160    -1395    -1233    -1873    -3056    -4252 
   -5124    -5487    -5189    -4383    -3510    -2891    -2647    -2806 
   -3276    -3894    -4563    -5127    -5244    -4719    -3808    -2926 
   -2411    -2512    -3129    -3852    -4361    -4403    -3838    -2932 
   -2118    -1717    -1919    -2556    -3195    -3531    -3277    -2346 
   -1269     -627     -639    -1308    -2192    -2700    -2720    -2435 
   -2106    -1926    -1838    -1804    -1872    -1923    -1853    -1674 
   -1414    -1219    -1212    -1327    -1452    -1580    -1675    -1678 
   -1725    -1983    -2312    -2509    -2655    -2980    -3454    -3790 
   -3812    -3591    -3385    -3377    -3466    -3585    -3739    -3790 
   -3793    -4009    -4275    -4132    -3514    -2799    -2377    -2384 
