Origin Time       2024/04/02 04:24:00
Lat.              40.133
Long.             141.712
Depth. (km)       71
Mag.              6.0
Station Code      MYG005
Station Lat.      38.7989
Station Long.     140.6512
Station Height(m) 304
Record Time       2024/04/02 04:25:06
Sampling Freq(Hz) 100Hz
Duration Time(s)  154
Dir.              N-S
Scale Factor      7845(gal)/8223790
Max. Acc. (gal)   7.756
Last Correction   2024/04/02 04:25:07
Memo.             
[...]
  -10224   -10619   -11160   -11680   -12039   -12051   -11615   -10841 
  -10004    -9356    -9049    -9113    -9391    -9698   -10029   -10343 
  -10474   -10349   -10022    -9526    -8889    -8302    -8109    -8476 
   -9175    -9850   -10362   -10771   -11067   -11128   -10939   -10696 
  -10675   -11053   -11743   -12413   -12694   -12464   -11905   -11296 
  -10905   -10926   -11341   -11902   -12333   -12515   -12552   -12575 
  -12661   -12814   -12843   -12533   -11954   -11431   -11288   -11597 
  -12135   -12633   -12896   -12783   -12344   -11848   -11481   -11218 
  -11010   -10912   -10944   -10975   -10956   -11020   -11146   -11091 
  -10752   -10330   -10230   -10767   -11762   -12598   -12781   -12380 
  -11862   -11506   -11173   -10821   -10666   -10714   -10740   -10647 
  -10515   -10431   -10407   -10484   -10763   -11168   -11504   -11713 
  -11782   -11638   -11182   -10430    -9698    -9352    -9337    -9381 
   -9489    -9841   -10369   -10805   -11011   -11060   -11056   -11010 
  -10859   -10617   -10397   -10238   -10085   -10035   -10358   -11080 
  -11807   -12139   -11929   -11179   -10049    -8924    -8240    -8286 
   -9061   -10203   -11167   -11632   -11645   -11362   -10979   -10754 
  -10868   -11299   -11842   -12287   -12594   -12792   -12858   -12753 
  -12507   -12251   -12075   -11947   -11790   -11551   -11284   -11202 
  -11418   -11747   -11894   -11780   -11614   -11565   -11452   -11024 
  -10382    -9829    -9598    -9769   -10242   -10809   -11241   -11388 
  -11237   -10917   -10720   -10855   -11200   -11543   -11843   -12096 
  -12260   -12291   -12160   -11946   -11804   -11821   -11921   -11958 
  -11832   -11580   -11429   -11608   -12031   -12452   -12783   -12939 
  -12783   -12399   -12081   -11861   -11466   -10914   -10551   -10534 
  -10768   -11059   -11164   -11044   -10948   -10994   -10953   -10735 
  -10559   -10548   -10656   -10855   -11043   -11140   -11237   -11414 
  -11630   -11707   -11499   -11179   -11094   -11346   -11701   -11869 
  -11784   -11542   -11292   -11225   -11360   -11460   -11334   -11075 
  -10951   -11083   -11404   -11770   -11965   -11834   -11443   -11041 
  -10778   -10481   -10031    -9751    -9844   -10058   -10214   -10415 
  -10702   -10971   -11160   -11313   -11354   -11030   -10338    -9775 
   -9714    -9918   -10002   -10026   -10291   -10766   -11117   -11196 
  -11079   -10808   -10474   -10289   -10345   -10527   -10786   -11237 
  -11813   -12125   -11938   -11531   -11300   -11233   -11033   -10598 
  -10142    -9894    -9892   -10052   -10231   -10362   -10467   -10488 
  -10361   -10246   -10273   -10277   -10111    -9956   -10007   -10143 
  -10268   -10609   -11236   -11678   -11596   -11306   -11152   -11018 
  -10847   -10816   -10895   -10854   -10679   -10578   -10621   -10670 
  -10627   -10581   -10666   -10845   -11021   -11245   -11600   -11942 
  -11993   -11645   -11107   -10719   -10643   -10862   -11269   -11705 
  -12024   -12181   -12177   -12001   -11757   -11643   -11743   -11923 
  -11934   -11681   -11331   -11045   -10840   -10670   -10459   -10274 
  -10357   -10800   -11454   -12106   -12582   -12733   -12413   -11578 
  -10539    -9819    -9707   -10201   -11124   -12031   -12507   -12569 
  -12451   -12198   -11740   -11308   -11296   -11635   -11924   -11981 
  -11880   -11713   -11507   -11383   -11601   -12218   -12933   -13405 
  -13482   -13119   -12343   -11404   -10808   -10930   -11570   -12075 
  -11986   -11395   -10700   -10260   -10258   -10632   -11076   -11387 
  -11584   -11639   -11507   -11249   -10881   -10358    -9783    -9505 
   -9810   -10557   -11368   -12047   -12507   -12598   -12275   -11793 
  -11391   -11025   -10685   -10530   -10559   -10617   -10605   -10569 
  -10590   -10660   -10794   -11071   -11364   -11412   -11178   -10839 
  -10588   -10451   -10235    -9871    -9637    -9837   -10435   -11098 
  -11531   -11669   -11507   -10995   -10327   -10012   -10287   -10782 
  -11111   -11372   -11719   -11821   -11372   -10725   -10407   -10466 
  -10642   -10727   -10744   -10822   -10894   -10818   -10678   -10619 
  -10601   -10546   -10512   -10573   -10692   -10841   -11070   -11391 
  -11713   -11963   -12090   -11924   -11412   -10854   -10484   -10291 
  -10354   -10724   -11160   -11421   -11441   -11265   -11036   -10839 
  -10652   -10550   -10675   -11114   -11815   -12552   -12999   -12906 
  -12245   -11291   -10382    -9683    -9255    -9216    -9551   -10012 
  -10378   -10571   -10685   -10890   -11122   -11090   -10704   -10150 
   -9675    -9482    -9607    -9850   -10000   -10071   -10255   -10723 
  -11419   -12101   -12583   -12845   -12883   -12734   -12575   -12447 
  -12160   -11716   -11475   -11669   -12077   -12410   -12694   -12966 
  -13124   -13182   -13171   -12974   -12513   -11881   -11279   -10868 
  -10674   -10659   -10762   -10897   -11061   -11311   -11558   -11612 
  -11452   -11280   -11273   -11470   -11920   -12577   -13138   -13259 
  -12838   -12073   -11342   -10881   -10694   -10782   -11115   -11511 
  -11780   -11805   -11527   -11106   -10821   -10678   -10486   -10269 
  -10299   -10685   -11187   -11568   -11751   -11654   -11334   -11059 
  -11071   -11445   -11989   -12336   -12258   -11821   -11333   -10960 
  -10551   -10033    -9578    -9294    -9186    -9302    -9668   -10102 
  -10400   -10708   -11217   -11695   -11827   -11645   -11291   -10812 
  -10342   -10255   -10746   -11422   -11720   -11457   -10812   -10046 
   -9375    -9030    -9244    -9996   -10945   -11647   -11788   -11380 
  -10669    -9940    -9574    -9799   -10400   -11011   -11365   -11187 
  -10428    -9628    -9647   -10845   -12582   -13752   -13770   -12719 
  -11006    -9347    -8635    -9235   -10629   -12001   -12834   -12965 
  -12407   -11418   -10528   -10141   -10222   -10498   -10710   -10665 
  -10382   -10071    -9791    -9504    -9364    -9580   -10174   -10995 
  -11759   -12205   -12220   -11839   -11341   -11083   -11233   -11723 
  -12202   -12262   -11934   -11549   -11310   -11286   -11396   -11427 
  -11290   -11032   -10750   -10536   -10427   -10423   -10442   -10416 
  -10465   -10647   -10748   -10547   -10107    -9724    -9678   -10168 
  -11214   -12484   -13490   -13965   -13840   -13112   -12048   -11153 
  -10731   -10728   -10928   -11114   -11164   -11126   -11180   -11443 
  -11821   -12101   -12046   -11564   -10956   -10736   -11078   -11665 
  -12081   -12129   -11843   -11419   -11206   -11476   -12158   -12857 
  -13097   -12714   -11939   -11080   -10382   -10044   -10044   -10118 
   -9996    -9725    -9620    -9860   -10411   -11199   -11946   -12212 
  -11996   -11700   -11415   -11048   -10912   -11263   -11755   -11889 
  -11580   -11098   -10755   -10739   -11041   -11480   -11816   -11857 
  -11492   -10751    -9998    -9841   -10420   -11263   -11951   -12313 
  -12217   -11662   -10875   -10247   -10085   -10355   -10764   -11082 
  -11211   -11118   -10841   -10489   -10211   -10129   -10120    -9906 
   -9475    -9116    -8962    -8905    -8860    -8824    -8900    -9323 
  -10122   -10794   -10859   -10521   -10237   -10111   -10158   -10408 
  -10717   -10982   -11221   -11391   -11392   -11237   -11137   -11335 
  -11878   -12583   -13108   -13208   -12954   -12467   -11736   -10952 
  -10446   -10296   -10417   -10698   -10979   -11171   -11223   -11114 
  -10998   -11070   -11290   -11411   -11240   -10889   -10619   -10444 
  -10203   -10026   -10334   -11257   -12378   -13185   -13497   -13360 
  -12919   -12433   -12194   -12312   -12684   -13092   -13208   -12876 
  -12294   -11745   -11381   -11254   -11290   -11352   -11260   -10829 
  -10114    -9522    -9481    -9960   -10542   -10935   -11206   -11557 
  -11950   -12089   -11820   -11341   -10929   -10685   -10528   -10309 
  -10034    -9980   -10436   -11254   -11978   -12394   -12572   -12555 
  -12397   -12213   -12042   -11873   -11643   -11233   -10751   -10513 
  -10617   -10909   -11210   -11325   -11111   -10739   -10594   -10800 
  -11067   -11164   -11125   -10976   -10670   -10311   -10206   -10589 
  -11383   -12208   -12636   -12492   -11948   -11346   -10899   -10597 
  -10498   -10764   -11264   -11557   -11358   -10800   -10188    -9742 
   -9548    -9616    -9949   -10521   -11088   -11354   -11290   -11070 
  -10847   -10652   -10427   -10176   -10019    -9994    -9998   -10069 
  -10416   -10993   -11341   -11097   -10454    -9879    -9678    -9979 
  -10762   -11757   -12567   -12989   -13047   -12833   -12533   -12438 
  -12619   -12754   -12480   -11973   -11858   -12240   -12596   -12825 
  -13213   -13630   -13741   -13660   -13760   -13913   -13662   -13099 
  -12679   -12407   -11975   -11426   -11087   -10898   -10434    -9742 
   -9337    -9451    -9913   -10436   -10921   -11461   -11939   -12074 
  -11908   -11769   -11998   -12694   -13510   -13953   -13757   -12937 
  -11881   -11106   -10744   -10611   -10578   -10639   -10667   -10485 
  -10253   -10238   -10323   -10277   -10143   -10099   -10201   -10339 
  -10501   -10847   -11372   -11767   -11678   -11151   -10628   -10297 
   -9975    -9603    -9305    -9159    -9138    -9127    -8973    -8575 
   -8097    -7897    -8062    -8374    -8716    -9123    -9582    -9977 
  -10258   -10567   -10995   -11412   -11649   -11597   -11344   -11161 
  -11152   -11188   -11199   -11225   -11356   -11626   -11889   -11971 
  -11830   -11522   -11109   -10625   -10161    -9791    -9518    -9547 
  -10161   -11260   -12452   -13377   -13716   -13261   -12236   -11287 
  -10841   -10655   -10218    -9441    -8845    -9051   -10152   -11604 
  -12600   -12542   -11418    -9903    -8977    -9120    -9860   -10430 
  -10578   -10426   -10131    -9844    -9632    -9580    -9833   -10395 
  -11055   -11557   -11820   -12023   -12368   -12756   -12941   -12923 
  -12758   -12314   -11546   -10679   -10108   -10123   -10652   -11412 
  -12075   -12310   -12079   -11713   -11502   -11499   -11669   -12054 
  -12546   -12681   -12205   -11554   -11290   -11561   -12198   -12800 
  -12880   -12339   -11530   -10886   -10724   -11072   -11483   -11460 
  -11038   -10674   -10559   -10424   -10230   -10385   -10984   -11564 
  -11665   -11241   -10550    -9850    -9324    -9189    -9617   -10542 
  -11681   -12785   -13647   -13909   -13266   -12019   -10928   -10516 
  -10828   -11658   -12742   -13691   -13968   -13343   -12117   -10731 
   -9659    -9555   -10783   -12785   -14416   -14963   -14512   -13474 
  -12367   -11792   -11975   -12461   -12569   -12104   -11412   -10791 
  -10223    -9680    -9159    -8505    -7704    -7099    -6974    -7249 
   -7809    -8662    -9655   -10473   -11060   -11647   -12312   -12714 
  -12430   -11542   -10647   -10266   -10466   -11007   -11695   -12399 
  -12808   -12622   -11913   -11041   -10397   -10187   -10299   -10450 
  -10361    -9990    -9637    -9559    -9606    -9578    -9674   -10235 
  -11184   -12085   -12604   -12580   -11894   -10721    -9570    -8849 
   -8681    -8978    -9477    -9876   -10006    -9818    -9477    -9347 
   -9563    -9834    -9814    -9437    -8928    -8742    -9363   -10940 
  -12897   -14210   -14443   -14046   -13504   -12987   -12573   -12190 
  -11716   -11144   -10612   -10412   -10687   -11187   -11601   -11848 
  -11951   -11997   -12128   -12380   -12681   -13001   -13367   -13686 
  -13822   -13752   -13412   -12741   -11962   -11410   -11226   -11458 
  -12123   -12943   -13448   -13386   -12943   -12541   -12376   -12305 
  -12141   -11753   -11128   -10482   -10061   -10046   -10462   -10972 
  -11105   -10642    -9755    -8978    -8780    -9035    -9240    -9135 
   -8872    -8738    -9008    -9799   -10832   -11596   -11745   -11253 
  -10430    -9819    -9869   -10573   -11453   -11963   -11770   -10800 
   -9423    -8387    -8311    -9402   -11260   -12826   -13219   -12498 
  -11335   -10176    -9115    -8432    -8534    -9238    -9895   -10287 
  -10736   -11465   -12236   -12621   -12540   -12235   -11801   -11261 
  -10940   -11287   -12247   -13173   -13471   -12999   -12015   -10951 
  -10118    -9583    -9366    -9583   -10245   -11095   -11839   -12268 
  -12241   -11819   -11311   -11075   -11253   -11612   -11704   -11380 
  -10962   -10578    -9894    -8857    -8082    -8248    -9275   -10237 
  -10393    -9888    -9231    -8804    -8931    -9813   -11178   -12271 
  -12451   -11674   -10400    -9324    -9113    -9969   -11464   -12895 
  -13852   -14411   -14719   -14755   -14489   -13953   -13311   -12818 
  -12528   -12217   -11653   -10795    -9934    -9617   -10150   -11142 
  -11781   -11623   -10914   -10208    -9917   -10127   -10631   -11060 
  -11172   -11109   -11209   -11562   -11950   -12116   -11955   -11546 
  -11161   -11072   -11244   -11448   -11626   -11875   -12171   -12231 
  -11659   -10513    -9386    -8698    -8456    -8653    -9243    -9948 
  -10427   -10598   -10719   -11136   -11911   -12711   -13215   -13351 
  -13084   -12474   -11892   -11730   -12002   -12325   -12341   -12124 
  -11938   -11862   -11942   -12236   -12607   -12822   -12654   -11884 
  -10656    -9499    -8761    -8559    -9039   -10045   -10974   -11408 
  -11527   -11597   -11573   -11454   -11418   -11454   -11358   -10964 
  -10390   -10081   -10346   -11013   -11623   -11708   -11063   -10014 
   -9269    -9377   -10378   -11751   -12796   -13223   -13181   -12916 
  -12548   -11997   -11254   -10590   -10431   -11236   -13108   -15591 
  -17942   -19259   -18859   -16823   -13647   -10093    -7406    -6571 
   -7565    -9633   -11875   -13574   -14455   -14624   -14331   -13961 
  -13925   -14358   -15039   -15543   -15556   -15068   -14199   -12993 
  -11527   -10077    -9173    -9252   -10162   -11268   -12093   -12471 
  -12340   -11877   -11468   -11349   -11570   -11966   -12148   -11948 
  -11622   -11398   -11182   -10828   -10363    -9850    -9383    -9144 
   -9209    -9462    -9636    -9413    -8754    -8086    -7869    -7975 
   -7936    -7777    -7874    -8174    -8415    -8754    -9498   -10540 
  -11507   -12004   -11664   -10500    -8962    -7504    -6401    -5880 
   -6234    -7508    -9023    -9915   -10130   -10319   -10783   -10987 
  -10413    -9379    -8491    -8054    -8158    -8550    -8689    -8424 
   -8162    -8267    -8619    -8923    -9240    -9849   -10503   -10558 
   -9896    -9004    -8370    -8333    -8932    -9659    -9902    -9657 
   -9498    -9859   -10598   -11172   -11183   -10804   -10538   -10656 
  -11033   -11427   -11769   -11996   -11970   -11881   -12081   -12465 
  -12680   -12596   -12141   -11311   -10470   -10080   -10233   -10719 
  -11205   -11226   -10489    -9239    -8090    -7487    -7549    -8297 
   -9520   -10737   -11686   -12537   -13443   -14103   -14042   -13153 
  -11796   -10596   -10092   -10412   -11269   -12194   -12796   -12946 
  -12758   -12430   -12060   -11699   -11560   -11769   -12131   -12352 
  -12239   -11835   -11541   -11680   -12071   -12355   -12375   -12131 
  -11713   -11379   -11452   -11881   -12015   -11095    -8973    -6347 
   -4347    -3801    -4873    -7171    -9973   -12403   -13794   -14122 
  -13914   -13504   -12710   -11499   -10430   -10138   -10795   -12174 
  -13760   -14760   -14721   -14121   -13734   -13864   -14478   -15427 
  -16349   -16695   -16052   -14631   -13238   -12579   -12707   -13207 
  -13687   -13971   -13941   -13564   -13201   -13440   -14519   -16100 
  -17570   -18388   -18065   -16235   -13367   -10879    -9861   -10220 
  -11272   -12429   -13244   -13431   -12896   -11718   -10260    -9181 
   -9116   -10235   -12020   -13625   -14435   -14199   -13004   -11256 
   -9639    -8877    -9081    -9609    -9926   -10045   -10057   -10023 
  -10149   -10474   -10646   -10230    -9209    -8060    -7329    -7187 
   -7344    -7437    -7512    -7816    -8228    -8380    -8104    -7506 
   -6794    -6123    -5598    -5370    -5576    -6299    -7472    -8649 
   -9197    -8829    -7854    -7128    -7419    -8571    -9790   -10531 
  -10700   -10470   -10161   -10058   -10338   -11030   -11916   -12634 
  -13020   -13230   -13466   -13753   -13976   -13990   -13690   -13028 
  -12090   -11211   -10778   -10947   -11665   -12729   -13686   -14139 
  -14231   -14234   -13944   -13108   -12086   -11570   -12008   -13360 
  -15056   -16333   -16723   -16083   -14535   -12550   -10897   -10368 
  -11298   -13171   -14862   -15411   -14693   -13252   -11686   -10558 
  -10439   -11399   -12764   -13743   -14069   -13967   -13639   -12982 
  -11971   -11142   -11153   -11884   -12494   -12322   -11354    -9958 
   -8538    -7497    -7192    -7686    -8719    -9931   -10955   -11402 
  -11065   -10127    -9038    -8247    -7998    -8305    -9166   -10628 
  -12422   -13879   -14449   -14069   -12918   -11298    -9699    -8500 
   -7885    -8094    -9158   -10648   -11912   -12374   -11877   -10887 
  -10026    -9458    -9120    -9208    -9710   -10100   -10122   -10200 
  -10824   -12008   -13279   -14053   -14030   -13174   -11534    -9458 
   -7882    -7844    -9514   -12017   -14003   -14341   -12866   -10435 
   -8220    -7211    -7659    -8876    -9971   -10389    -9910    -8707 
   -7338    -6370    -5969    -6183    -7271    -9104   -10863   -11857 
  -11951   -11192    -9803    -8367    -7491    -7487    -8371    -9826 
  -11211   -11827   -11352   -10258    -9562    -9788   -10679   -11873 
  -12987   -13441   -12879   -11504   -10061    -9356    -9624   -10543 
  -11558   -12096   -11932   -11361   -10885   -10797   -11045   -11522 
  -12399   -13763   -14952   -14944   -13468   -11466   -10292   -10372 
  -10924   -11151   -11022   -10849   -10798   -10894   -11121   -11466 
  -11834   -11978   -11765   -11399   -11107   -10856   -10623   -10625 
  -11043   -11863   -12949   -13996   -14708   -15105   -15407   -15601 
  -15429   -14881   -14283   -13759   -13153   -12592   -12424   -12561 
  -12544   -12262   -11958   -11696   -11535   -11794   -12559   -13335 
  -13578   -13320   -12955   -12636   -12244   -11596   -10611    -9570 
   -8880    -8708    -9011    -9551    -9860    -9537    -8518    -7078 
   -5906    -5948    -7510    -9698   -11267   -11781   -11522   -10999 
  -11011   -11997   -13410   -14431   -14616   -13987   -12996   -12118 
  -11580   -11541   -12052   -12753   -13085   -12870   -12291   -11502 
  -10635    -9990    -9888   -10374   -11203   -11985   -12395   -12357 
  -11959   -11429   -11126   -11227   -11404   -11057   -10004    -8743 
   -7909    -7792    -8403    -9456   -10254   -10162    -9132    -7708 
   -6686    -6521    -7068    -8056    -9340   -10397   -10492    -9591 
   -8336    -7326    -6912    -7145    -7717    -8202    -8302    -8071 
   -8000    -8437    -9092    -9518    -9717    -9936   -10238   -10454 
  -10427   -10142    -9683    -9208    -8869    -8851    -9312   -10035 
  -10633   -11094   -11661   -12421   -13111   -13248   -12569   -11334 
  -10177    -9675    -9996   -10875   -11908   -12802   -13338   -13278 
  -12464   -11130    -9958    -9547    -9929   -10712   -11499   -12244 
  -13136   -14107   -14859   -15179   -14836   -13697   -12249   -11371 
  -11425   -12118   -13088   -14077   -14775   -15007   -14836   -14175 
  -12857   -11271   -10201    -9987   -10385   -10987   -11580   -12372 
  -13562   -14747   -15267   -14990   -14350   -13678   -12960   -12297 
