Origin Time       2024/04/02 04:24:00
Lat.              40.133
Long.             141.712
Depth. (km)       71
Mag.              6.0
Station Code      MYG013
Station Lat.      38.2661
Station Long.     140.9286
Station Height(m) 5
Record Time       2024/04/02 04:25:09
Sampling Freq(Hz) 100Hz
Duration Time(s)  115
Dir.              E-W
Scale Factor      7845(gal)/8223790
Max. Acc. (gal)   10.673
Last Correction   2024/04/02 04:25:08
Memo.             
[...]
   -1856    -1931    -2052    -2168    -2227    -2235    -2285    -2388 
   -2408    -2344    -2257    -2072    -1759    -1367     -989     -683 
    -444     -345     -384     -411     -526     -931    -1539    -2069 
   -2254    -2118    -1931    -1763    -1642    -1653    -1599    -1363 
   -1173    -1173    -1335    -1529    -1605    -1638    -1668    -1486 
   -1097     -739     -522     -430     -415     -471     -594     -712 
    -865    -1170    -1505    -1655    -1625    -1555    -1583    -1740 
   -1910    -1961    -1825    -1601    -1547    -1701    -1823    -1841 
   -1911    -2106    -2262    -2195    -1921    -1556    -1312    -1358 
   -1455    -1313     -992     -676     -546     -542     -427     -278 
    -240     -332     -656    -1200    -1775    -2189    -2358    -2412 
   -2436    -2320    -2118    -1989    -1903    -1884    -2037    -2208 
   -2162    -1869    -1575    -1499    -1467    -1355    -1327    -1389 
   -1445    -1467    -1416    -1304    -1140    -1050    -1212    -1552 
   -1856    -1921    -1707    -1499    -1506    -1653    -1811    -1887 
   -1879    -1742    -1387     -980     -668     -434     -407     -583 
    -695     -675     -761    -1108    -1526    -1741    -1661    -1309 
    -886     -648     -589     -646     -772     -953    -1336    -1868 
   -2261    -2461    -2500    -2382    -2232    -2092    -1907    -1750 
   -1772    -2027    -2293    -2296    -2106    -1873    -1594    -1333 
   -1165    -1066    -1092    -1247    -1390    -1386    -1202     -988 
    -931     -999    -1057    -1113    -1227    -1389    -1556    -1659 
   -1668    -1667    -1725    -1814    -1873    -1810    -1618    -1441 
   -1298    -1231    -1429    -1699    -1671    -1453    -1283    -1212 
   -1173    -1017     -853     -874     -993    -1105    -1147    -1065 
   -1011    -1063    -1058     -949     -838     -896    -1200    -1471 
   -1487    -1449    -1501    -1505    -1382    -1156     -932     -967 
   -1344    -1887    -2431    -2783    -2820    -2623    -2266    -1779 
   -1204     -622     -241     -195     -448     -911    -1335    -1571 
   -1787    -2056    -2220    -2141    -1861    -1594    -1459    -1445 
   -1513    -1506    -1317    -1053     -878     -810     -760     -749 
    -819     -930    -1075    -1286    -1536    -1671    -1624    -1597 
   -1647    -1618    -1521    -1416    -1347    -1449    -1744    -2085 
   -2276    -2261    -2247    -2254    -2143    -2027    -1954    -1799 
   -1614    -1493    -1426    -1389    -1310    -1224    -1313    -1512 
   -1570    -1478    -1287    -1065    -1005     -985     -762     -522 
    -577    -1013    -1539    -1759    -1749    -1745    -1745    -1764 
   -1783    -1732    -1593    -1305     -988     -797     -672     -691 
    -938    -1182    -1306    -1436    -1669    -2010    -2270    -2230 
   -2030    -1985    -2068    -2053    -1898    -1579    -1120     -791 
    -731     -791     -774     -623     -561     -764    -1017    -1210 
   -1482    -1854    -2303    -2709    -2840    -2681    -2295    -1773 
   -1385    -1233    -1162    -1051     -934    -1004    -1335    -1653 
   -1683    -1391     -924     -598     -652    -1030    -1517    -1902 
   -2053    -2027    -1922    -1696    -1332     -878     -409     -199 
    -463     -997    -1489    -1767    -1863    -1958    -2062    -2023 
   -1799    -1448    -1270    -1521    -1853    -1925    -1891    -1837 
   -1742    -1605    -1260     -805     -585     -603     -683     -801 
   -1059    -1625    -2340    -2751    -2673    -2282    -1888    -1713 
   -1691    -1690    -1656    -1548    -1518    -1675    -1799    -1814 
   -1769    -1548    -1178     -859     -685     -689     -783     -862 
   -1058    -1296    -1220     -904     -726     -876    -1282    -1618 
   -1702    -1702    -1809    -2069    -2319    -2338    -2195    -2004 
   -1682    -1239     -859     -719     -800     -918     -993    -1125 
   -1354    -1530    -1472    -1174     -783     -468     -369     -432 
    -415     -334     -541    -1108    -1657    -1912    -1984    -2077 
   -2193    -2199    -2080    -1888    -1698    -1614    -1557    -1332 
    -907     -473     -430     -869    -1355    -1633    -1823    -2033 
   -2208    -2191    -1999    -1825    -1645    -1370    -1144    -1063 
   -1050    -1047    -1020    -1032    -1217    -1506    -1733    -1815 
   -1715    -1510    -1316    -1162    -1143    -1352    -1684    -1869 
   -1788    -1664    -1705    -1768    -1536    -1039     -757     -912 
   -1250    -1470    -1489    -1522    -1775    -2154    -2404    -2277 
   -1929    -1782    -1894    -2054    -2016    -1696    -1439    -1389 
   -1306    -1151     -985     -947    -1162    -1379    -1483    -1567 
   -1563    -1566    -1684    -1783    -1791    -1665    -1437    -1306 
   -1252    -1156    -1074    -1034    -1098    -1389    -1794    -2155 
   -2448    -2562    -2377    -1981    -1551    -1177     -919     -861 
   -1050    -1317    -1425    -1451    -1603    -1759    -1726    -1528 
   -1197     -869     -711     -716     -854    -1005    -1121    -1425 
   -1818    -1917    -1749    -1553    -1358    -1177    -1097    -1040 
    -814     -487     -313     -287     -249     -307     -683    -1296 
   -1863    -2234    -2482    -2610    -2471    -2108    -1691    -1339 
   -1202    -1204    -1085     -881     -772     -811    -1011    -1390 
   -1877    -2241    -2357    -2346    -2215    -1915    -1622    -1526 
   -1614    -1741    -1845    -1981    -2003    -1760    -1509    -1467 
   -1568    -1742    -1844    -1807    -1692    -1404     -955     -541 
    -228     -179     -487     -866    -1136    -1406    -1734    -2056 
   -2299    -2353    -2108    -1741    -1553    -1498    -1439    -1372 
   -1316    -1379    -1471    -1273     -818     -437     -278     -283 
    -422     -702    -1021    -1287    -1547    -1825    -2008    -1971 
   -1834    -1875    -2050    -2008    -1707    -1525    -1669    -1980 
   -2224    -2270    -2138    -1950    -1830    -1761    -1574    -1215 
    -878     -730     -714     -648     -487     -329     -211     -124 
     -71     -120     -426     -959    -1470    -1906    -2334    -2636 
   -2710    -2582    -2262    -1787    -1263     -841     -616     -573 
    -662     -888    -1181    -1312    -1196    -1097    -1210    -1436 
   -1718    -2087    -2440    -2627    -2559    -2340    -2133    -1853 
   -1377     -788     -303     -124     -261     -550     -776     -896 
   -1174    -1742    -2378    -2812    -2945    -2902    -2848    -2655 
   -2119    -1432     -893     -616     -619     -766     -896     -946 
    -930     -961    -1111    -1300    -1507    -1819    -2234    -2579 
   -2739    -2763    -2662    -2394    -1957    -1455    -1169    -1135 
   -1090     -996     -965    -1028    -1217    -1428    -1525    -1539 
   -1528    -1540    -1622    -1668    -1551    -1348    -1178    -1098 
   -1175    -1377    -1593    -1750    -1776    -1696    -1721    -1930 
   -2061    -1863    -1440    -1092     -984    -1004    -1000    -1036 
   -1132    -1197    -1258    -1269    -1179    -1175    -1231    -1111 
    -901     -823     -892    -1028    -1127    -1204    -1418    -1745 
   -1948    -1888    -1664    -1490    -1493    -1591    -1617    -1564 
   -1551    -1599    -1657    -1665    -1632    -1628    -1564    -1289 
    -915     -635     -479     -419     -425     -525     -796    -1186 
   -1536    -1783    -1972    -2085    -2088    -2115    -2278    -2452 
   -2493    -2357    -2035    -1544     -922     -268      199      324 
     178     -113     -510     -945    -1318    -1533    -1553    -1460 
   -1316    -1205    -1188    -1194    -1217    -1224    -1081     -853 
    -692     -699     -962    -1375    -1806    -2251    -2651    -2864 
   -2774    -2432    -2057    -1817    -1787    -1981    -2262    -2397 
   -2285    -2061    -1857    -1637    -1395    -1208    -1067     -986 
   -1019    -1123    -1305    -1683    -2180    -2520    -2625    -2597 
   -2508    -2346    -2134    -1969    -1884    -1887    -1992    -1993 
   -1696    -1237     -828     -503     -240     -162     -398     -785 
   -1112    -1385    -1660    -1921    -2062    -2054    -2050    -2184 
   -2450    -2710    -2749    -2455    -1984    -1659    -1556    -1513 
   -1412    -1174     -897     -842     -950     -951     -891     -969 
   -1166    -1225     -980     -652     -603     -888    -1274    -1493 
   -1497    -1467    -1516    -1574    -1586    -1610    -1733    -1869 
   -1853    -1714    -1534    -1310    -1101     -915     -778     -911 
   -1312    -1647    -1678    -1482    -1339    -1289    -1032     -490 
      13      229      238      211      221      238      132     -207 
    -589     -703     -625     -693    -1035    -1429    -1648    -1759 
   -1907    -2026    -2099    -2173    -2172    -2133    -2196    -2396 
   -2636    -2691    -2502    -2303    -2091    -1684    -1273    -1048 
    -915     -851     -776     -599     -507     -472     -371     -396 
    -556     -826    -1314    -1787    -2120    -2457    -2660    -2614 
   -2361    -1964    -1688    -1618    -1536    -1480    -1614    -1838 
   -1945    -1760    -1391    -1182    -1183    -1297    -1505    -1611 
   -1544    -1514    -1567    -1653    -1790    -1904    -1980    -2019 
   -1894    -1610    -1228     -781     -595     -903    -1332    -1522 
   -1530    -1494    -1525    -1574    -1447    -1206    -1040    -1047 
   -1242    -1428    -1521    -1721    -2030    -2249    -2336    -2380 
   -2398    -2288    -2068    -2000    -2192    -2463    -2562    -2285 
   -1706    -1235    -1129    -1221    -1192     -901     -560     -507 
    -760    -1070    -1286    -1391    -1516    -1782    -1995    -1954 
   -1734    -1447    -1277    -1399    -1699    -1908    -1911    -1861 
   -2035    -2430    -2718    -2677    -2419    -2230    -2224    -2223 
   -2037    -1655    -1140     -672     -538     -751     -931     -837 
    -545     -137      330      704      764      418     -106     -546 
    -909    -1332    -1834    -2346    -2745    -2922    -2914    -2826 
   -2694    -2512    -2268    -1907    -1382     -853     -529     -291 
       8      261      400      427      252     -133     -522     -716 
    -827    -1074    -1298    -1186     -919     -926    -1293    -1732 
   -2000    -2160    -2258    -2219    -2162    -2189    -2162    -2007 
   -1795    -1603    -1468    -1318    -1166    -1105     -984     -637 
    -251      -89     -120     -197     -432     -965    -1609    -2046 
   -2107    -1911    -1726    -1659    -1671    -1674    -1520    -1271 
   -1233    -1455    -1678    -1763    -1740    -1711    -1779    -1844 
   -1854    -1939    -2027    -1937    -1710    -1557    -1602    -1688 
   -1725    -1858    -2106    -2324    -2434    -2463    -2501    -2579 
   -2656    -2614    -2408    -2187    -2097    -2083    -1885    -1463 
   -1166    -1219    -1462    -1659    -1726    -1769    -1794    -1710 
   -1597    -1391     -980     -534     -108      333      537      292 
    -334    -1042    -1502    -1736    -1910    -2027    -2108    -2158 
   -2058    -1779    -1611    -1838    -2207    -2285    -2022    -1541 
   -1012     -583     -133      290      332        2     -415     -766 
   -1017    -1351    -1899    -2528    -3059    -3306    -3268    -3203 
   -3123    -2872    -2569    -2300    -1972    -1583    -1105     -598 
    -342     -309     -298     -328     -352     -414     -664     -900 
    -985    -1067    -1102    -1046    -1016    -1067    -1305    -1645 
   -1837    -1892    -1741    -1151     -310      342      673      828 
     976     1109     1042      677      175     -341     -849    -1212 
   -1428    -1647    -1792    -1804    -1721    -1486    -1281    -1246 
   -1119     -805     -525     -490     -695     -889     -969    -1001 
    -993    -1069    -1393    -1925    -2409    -2563    -2400    -2145 
   -1948    -1926    -2076    -2340    -2632    -2720    -2578    -2466 
   -2539    -2736    -2829    -2705    -2459    -2154    -1953    -1942 
   -1912    -1885    -2096    -2548    -3098    -3510    -3707    -3906 
   -4153    -4357    -4523    -4617    -4590    -4340    -3743    -2972 
   -2249    -1645    -1333    -1350    -1456    -1549    -1767    -2106 
   -2308    -2257    -2106    -1918    -1552    -1007     -560     -372 
    -280     -168     -114     -162     -275     -356     -333     -218 
      52      444      805     1169     1444     1435     1256      977 
     518       70     -213     -430     -699    -1175    -1755    -2049 
   -1925    -1507    -1021     -649     -194      565     1408     1931 
    1891     1439      878      129     -919    -2158    -3477    -4621 
   -5505    -6407    -7360    -8105    -8264    -7534    -6130    -4434 
   -2544     -585     1263     2941     4203     4548     3769     2195 
     256    -1615    -2949    -3597    -3742    -3423    -2528    -1232 
      89     1355     2555     3453     3885     3758     3082     1975 
     252    -2099    -4534    -6632    -8147    -8680    -8074    -6669 
   -4845    -2887    -1235     -206       31     -749    -2099    -3051 
   -3512    -3877    -3858    -3005    -1325      811     2825     4363 
    5412     5962     6010     5485     4179     2153      113    -1146 
   -1676    -2064    -2659    -3515    -4252    -4348    -3832    -3073 
   -2443    -2473    -3237    -4090    -4823    -5587    -6014    -5857 
   -5167    -3800    -1953       44     2227     4148     4959     4334 
    2288     -992    -4742    -8016   -10465   -12070   -12627   -11614 
   -8545    -4044      599     4645     7314     7855     6513     3933 
     768    -2191    -4598    -6363    -7195    -7010    -6039    -4595 
   -2783     -608     1487     3191     4747     5853     5568     3784 
    1386    -1102    -3574    -5645    -7276    -8478    -8676    -7786 
   -6112    -3774    -1229     1185     3377     5130     6392     6794 
    5811     3839     1827      301     -869    -1836    -2238    -1879 
   -1175     -325      834     1872     2061     1327     -159    -2485 
   -5320    -7838    -9498    -9887    -8712    -6438    -3780    -1279 
     495     1258     1078      276     -513     -784     -348      795 
    2346     3871     4976     5294     4819     3774     2268      368 
   -1875    -4047    -5355    -5703    -5645    -5316    -4602    -3728 
   -3094    -2735    -2282    -1541     -758     -286     -341     -936 
   -1877    -2944    -3974    -4831    -5533    -6073    -6362    -6516 
   -6427    -5568    -3713    -1192     1345     3322     4469     4645 
    3778     2045     -180    -2548    -4835    -6797    -8071    -8305 
   -7561    -6342    -4860    -3102    -1374      217     1772     2902 
    3078     2281     1127      491      573      970     1560     2251 
    2821     3250     3510     3431     2598      787    -1321    -2964 
   -4021    -4680    -5174    -5474    -5360    -4741    -3628    -2349 
   -1517    -1359    -1621    -1902    -1912    -1790    -1740    -1575 
   -1162     -707     -202      715     1910     2600     2327     1359 
     279     -456     -607     -299     -186     -807    -2057    -3466 
   -4626    -5495    -6091    -6169    -5761    -5252    -4779    -4210 
   -3577    -3169    -3150    -3346    -3406    -2864    -1594       -2 
    1536     2741     3343     3407     3094     2412     1425      268 
    -738    -1350    -1933    -2905    -4090    -5192    -6149    -6785 
   -6700    -5782    -4479    -3226    -2106    -1244     -657      109 
    1243     2322     3010     3345     3439     3188     2323      819 
   -1030    -2917    -4560    -5579    -5778    -5364    -4534    -3099 
    -868     1752     3805     4550     3901     2187       63    -1838 
   -3445    -4606    -5022    -4982    -4703    -4135    -3596    -3314 
   -3226    -3160    -2857    -2388    -1966    -1566    -1166     -828 
    -641     -596     -468      -95      461      965     1229     1360 
    1470     1605     1823     1845     1304      243    -1148    -2727 
   -4170    -5016    -4993    -4353    -3767    -3572    -3480    -3157 
   -2477    -1653    -1372    -1996    -2991    -3524    -3083    -1710 
      83     1715     2829     3244     2979     2334     1437      252 
    -970    -2015    -2744    -2789    -2106    -1178     -307      545 
    1278     1622     1544     1100      130    -1513    -3769    -6253 
   -8128    -8698    -7950    -6288    -4355    -2635    -1177       32 
    1066     1923     2243     1919     1206      271     -789    -2006 
   -3307    -4257    -4585    -4345    -3658    -3063    -3196    -3732 
   -3940    -3666    -2894    -1655     -314      855     1738     2219 
    2432     2610     2762     2736     2357     1487       63    -1768 
   -3564    -4880    -5530    -5489    -4874    -3994    -3090    -2353 
   -1891    -1489    -1066     -940    -1320    -2147    -3107    -3774 
   -3925    -3404    -2261     -980       91      866     1190     1125 
     878      484       60     -203     -344     -384     -224       85 
     453      893     1344     1618     1362      346    -1224    -2975 
   -4598    -5967    -7030    -7639    -7747    -7404    -6686    -5877 
   -5274    -4973    -4928    -4934    -4849    -4557    -3727    -2166 
    -170     1755     3210     3997     4117     3690     2810     1597 
     248    -1066    -2045    -2304    -1771     -658      691     1850 
    2489     2432     1811     1031      341     -229     -668     -934 
   -1069    -1021     -521      313      972     1282     1181      702 
     209     -224     -737    -1321    -2169    -3366    -4527    -5282 
   -5447    -5059    -4507    -4029    -3669    -3704    -4280    -5130 
   -5850    -5921    -5053    -3694    -2319     -823      818     2295 
    3254     3384     2760     1740      454     -847    -1764    -2192 
   -2141    -1563     -503      799     1850     2200     1641      176 
   -1655    -3123    -4182    -5100    -5842    -6421    -7021    -7572 
   -7722    -7060    -5493    -3456    -1367      473     1792     2710 
    3225     3091     2424     1366      101    -1003    -1831    -2373 
   -2679    -2874    -2845    -2525    -2041    -1553    -1399    -1765 
   -2428    -3063    -3299    -2963    -2230    -1362     -719     -518 
    -564     -675     -807     -908    -1040    -1185    -1142     -826 
    -311      257      727     1067     1301     1385     1270     1040 
     864      746      541      103     -662    -1505    -1861    -1706 
   -1701    -2282    -3240    -4067    -4293    -3762    -2766    -1759 
    -950     -344      -98     -351     -931    -1626    -2243    -2605 
   -2797    -2955    -3052    -3049    -2860    -2371    -1561     -400 
     959     2015     2326     1733      299    -1649    -3591    -4962 
   -5468    -5250    -4522    -3330    -1779      -45     1711     3227 
    4220     4561     4180     3018     1281     -309    -1101    -1278 
   -1264    -1090     -912    -1066    -1660    -2558    -3435    -4125 
   -4783    -5448    -5961    -6114    -5761    -5146    -4718    -4618 
   -4671    -4581    -4198    -3597    -2849    -2143    -1784    -1818 
   -2004    -2010    -1717    -1335     -936     -430      160      787 
    1250     1162      448     -467    -1128    -1482    -1749    -2131 
   -2670    -3211    -3570    -3607    -3240    -2587    -1895    -1377 
