Origin Time       2024/04/02 04:24:00
Lat.              40.133
Long.             141.712
Depth. (km)       71
Mag.              6.0
Station Code      MYG002
Station Lat.      38.7261
Station Long.     141.5110
Station Height(m) 65
Record Time       2024/04/02 04:25:02
Sampling Freq(Hz) 100Hz
Duration Time(s)  126
Dir.              U-D
Scale Factor      7845(gal)/8223790
Max. Acc. (gal)   13.608
Last Correction   2024/04/02 04:25:02
Memo.             
[...]
  -11936   -14916   -23321   -26647   -21340   -13838   -12972   -20270 
  -26293   -23448   -16252   -14095   -19890   -26676   -25400   -18195 
  -15920   -19656   -21886   -21219   -19803   -18976   -19772   -21463 
  -22786   -20598   -15515   -14953   -18828   -21987   -24062   -22617 
  -17219   -14304   -17509   -23267   -24898   -21146   -16962   -16083 
  -20058   -25348   -23809   -16459   -13432   -17329   -22925   -25898 
  -22627   -16530   -16764   -21151   -21825   -19225   -17327   -19823 
  -24745   -24692   -19222   -13755   -14451   -22289   -26666   -22091 
  -16495   -15843   -19429   -23268   -23742   -20089   -14845   -15169 
  -21359   -23861   -21494   -20235   -20223   -19500   -18546   -19184 
  -21419   -20746   -17548   -19533   -24233   -22373   -17406   -16317 
  -18191   -20833   -21996   -21784   -21640   -18947   -16050   -18326 
  -21712   -21139   -18380   -17930   -22084   -24611   -20290   -15664 
  -14871   -16526   -22493   -27392   -23741   -18657   -17470   -16127 
  -18110   -24511   -25529   -19422   -14285   -16317   -23545   -25650 
  -20217   -15283   -14538   -19026   -25014   -24295   -20498   -19529 
  -18447   -17482   -17829   -19440   -22384   -21820   -18851   -18819 
  -19523   -20787   -22184   -19978   -17544   -18154   -20645   -23383 
  -23473   -20933   -17058   -14532   -18458   -25168   -25726   -20764 
  -17057   -17181   -19062   -19923   -19692   -19935   -20216   -20595 
  -21524   -21262   -20140   -19557   -18628   -17845   -19350   -22167 
  -21821   -18230   -16923   -19230   -22103   -23390   -21254   -16318 
  -13973   -18450   -24831   -25394   -21703   -17869   -15583   -18428 
  -22769   -21722   -19175   -19672   -20904   -20231   -18451   -18947 
  -20359   -19579   -19599   -21257   -21612   -20823   -19380   -18144 
  -18874   -19885   -19395   -19568   -21123   -20725   -18751   -19010 
  -19430   -18536   -20295   -23022   -22577   -20175   -17113   -15817 
  -19714   -24463   -23101   -18678   -18219   -20078   -19981   -20120 
  -21799   -21037   -17653   -16777   -19626   -22825   -23992   -22762 
  -19930   -16495   -15353   -19076   -22819   -21942   -19931   -19192 
  -19210   -20356   -20958   -19962   -19176   -19246   -19442   -19568 
  -20082   -21215   -21352   -19785   -19457   -20401   -19164   -17377 
  -18855   -22434   -23326   -20399   -18385   -18472   -18200   -18956 
  -21622   -23044   -20568   -17217   -18148   -20919   -21277   -21195 
  -20488   -17301   -16016   -20048   -24399   -22962   -17250   -14131 
  -18085   -24629   -24703   -19290   -16221   -16781   -19431   -23039 
  -23890   -20983   -17814   -17014   -18778   -21771   -22377   -18837 
  -16432   -18536   -21911   -24559   -23279   -16391   -12491   -17884 
  -25674   -25778   -18099   -13853   -18266   -22893   -22951   -20931 
  -18987   -19832   -21481   -19896   -18523   -20270   -21757   -20331 
  -17609   -18243   -22370   -22825   -18769   -17639   -20298   -21698 
  -20328   -17578   -16204   -19103   -24142   -24678   -19149   -15018 
  -17329   -20943   -22357   -24397   -24449   -19476   -15773   -17274 
  -20429   -22567   -22068   -18603   -16129   -17907   -22324   -24459 
  -19915   -13247   -14613   -22094   -25677   -23430   -18987   -16676 
  -17825   -19207   -21442   -24205   -21739   -16204   -15834   -21222 
  -25169   -22782   -18023   -16575   -19014   -22221   -22582   -20677 
  -18935   -18400   -19751   -20409   -18904   -18782   -20217   -20673 
  -20475   -20243   -20547   -20333   -17910   -17238   -20767   -23022 
  -21492   -19140   -17266   -17521   -20757   -23301   -22434   -18115 
  -14747   -18509   -23804   -23562   -21244   -18414   -16787   -19179 
  -21365   -21289   -20132   -18099   -18441   -20715   -21095   -20495 
  -19514   -18569   -20000   -21105   -19587   -20223   -22617   -20574 
  -17799   -19315   -21226   -22106   -21026   -17483   -16680   -18581 
  -20923   -23028   -20279   -16239   -18307   -21370   -21332   -21604 
  -20889   -18202   -17602   -20552   -23534   -21169   -16746   -18654 
  -22198   -20946   -19251   -19207   -19529   -20417   -21566   -21876 
  -19184   -16696   -20200   -24115   -22125   -18454   -16341   -17281 
  -21891   -24416   -21764   -18031   -17479   -20340   -21917   -20066 
  -18662   -18553   -18052   -18260   -19876   -22370   -22380   -17805 
  -16704   -22370   -23510   -17158   -14507   -19360   -24590   -24619 
  -19984   -16116   -17756   -22619   -24327   -20004   -14366   -15175 
  -22049   -26397   -23458   -17216   -15277   -18773   -20007   -18146 
  -20622   -23923   -21393   -17726   -16046   -16303   -19890   -23396 
  -23962   -21897   -18936   -18773   -20605   -21647   -21466   -18775 
  -15157   -15985   -21714   -25651   -23244   -17744   -15511   -19002 
  -23468   -23776   -21069   -18192   -17307   -19047   -20960   -22513 
  -23665   -20653   -15369   -16067   -20918   -22113   -21250   -20117 
  -17437   -16656   -18230   -21078   -24162   -21753   -17598   -19498 
  -21392   -19236   -19244   -22519   -22897   -18382   -16348   -19743 
  -20908   -19807   -21411   -20505   -15661   -15174   -20713   -25878 
  -25118   -18949   -14450   -16410   -21713   -24214   -20942   -17813 
  -20445   -21209   -17671   -18326   -20432   -19912   -20563   -20001 
  -18218   -19722   -21672   -21907   -21292   -19165   -18493   -20993 
  -21493   -18569   -16625   -16499   -18727   -23683   -25986   -23199 
  -18453   -15180   -16150   -19246   -21771   -24624   -24742   -19808 
  -15651   -15975   -18937   -23735   -25658   -20429   -15768   -17347 
  -20440   -22366   -22365   -19688   -17116   -17734   -20912   -21455 
  -18847   -19627   -22019   -19830   -17543   -19885   -21824   -20525 
  -19530   -19465   -19192   -20031   -21293   -20251   -18021   -18472 
  -21280   -22599   -21267   -19111   -18423   -19105   -19352   -20293 
  -21880   -21232   -19550   -19315   -20390   -20645   -18729   -19581 
  -23152   -20983   -16588   -17851   -20232   -20364   -20719   -21197 
  -20474   -18422   -18096   -20852   -21397   -18848   -18385   -20661 
  -22410   -20077   -16105   -18291   -23566   -23063   -18711   -16401 
  -17921   -20760   -21185   -20796   -19982   -17651   -19607   -24183 
  -22740   -18682   -16866   -17001   -21104   -25149   -22511   -16474 
  -14666   -19406   -24802   -24120   -19348   -17271   -19460   -20966 
  -20991   -21795   -18580   -14034   -18476   -25421   -24663   -19549 
  -15647   -16318   -19375   -21851   -24597   -21834   -15211   -16279 
  -20891   -21500   -21897   -21721   -18748   -16295   -16800   -21567 
  -26862   -24086   -15603   -12316   -17498   -25436   -27791   -21450 
  -12366   -11317   -21180   -29462   -25886   -15529   -10126   -15570 
  -23900   -25381   -21537   -17246   -16533   -20823   -24410   -23519 
  -20073   -15951   -15714   -19822   -21344   -19734   -18948   -19753 
  -20737   -20518   -21033   -21259   -18808   -18422   -20120   -18894 
  -18894   -22303   -22021   -18747   -19126   -20997   -20240   -17760 
  -17047   -21597   -26071   -22249   -15831   -15662   -19171   -22279 
  -23615   -21564   -19040   -18300   -18234   -21358   -25837   -23442 
  -15060   -12224   -19734   -25681   -21678   -17632   -20217   -22613 
  -19792   -16644   -18738   -21929   -21816   -20459   -19511   -19596 
  -19796   -19944   -21155   -20412   -17041   -15593   -18897   -23384 
  -22540   -19419   -18843   -18015   -18523   -22129   -24131   -21455 
  -16799   -16463   -20128   -23056   -24541   -22592   -18266   -16529 
  -18287   -22268   -23838   -20941   -17909   -15788   -16465   -21400 
  -23240   -18994   -16383   -19561   -21798   -18565   -18513   -24784 
  -24547   -15824   -13959   -21805   -25922   -22123   -18576   -19147 
  -19936   -18600   -18809   -21859   -22646   -19124   -15376   -16740 
  -22573   -24687   -21358   -18704   -16977   -16336   -21244   -25035 
  -20042   -16482   -19707   -22153   -22585   -20653   -17525   -18234 
  -19970   -20603   -20386   -18465   -19658   -21443   -18168   -17500 
  -21689   -22989   -19565   -14797   -15257   -22119   -26585   -23868 
  -17533   -14665   -18065   -22248   -23232   -20768   -16171   -14908 
  -18898   -22817   -24208   -23689   -20121   -15705   -14628   -18384 
  -25316   -27988   -21847   -13998   -13788   -21093   -25833   -22399 
  -16117   -13385   -18230   -26495   -28017   -21809   -14343   -12949 
  -18854   -23589   -23137   -20305   -17817   -18304   -19840   -20607 
  -22403   -22503   -19149   -16627   -18473   -23584   -24682   -18446 
  -13801   -16792   -22650   -25714   -22481   -14478   -12222   -19792 
  -25542   -22697   -17371   -14700   -17358   -24320   -27122   -22395 
  -16852   -15813   -18392   -21448   -23770   -23800   -20017   -18146 
  -20294   -19043   -16746   -19643   -22470   -22177   -20506   -17470 
  -17204   -20730   -21870   -19723   -17907   -18052   -20502   -22609 
  -21427   -19543   -19680   -18804   -17390   -19678   -21730   -21683 
  -22975   -21220   -17442   -17923   -18986   -21004   -23828   -20563 
  -18322   -21115   -19791   -16710   -16575   -19438   -24576   -22790 
  -15857   -16429   -21039   -22680   -21736   -18607   -18176   -20937 
  -20621   -18195   -17560   -20977   -26052   -23426   -14388   -12141 
  -20395   -27772   -23072   -13946   -15558   -23963   -26541   -21883 
  -15213   -13466   -19499   -26543   -26416   -17984   -11001   -15800 
  -24332   -24536   -21042   -19537   -19067   -19526   -18384   -17805 
  -22130   -24197   -21162   -18785   -16880   -16977   -20833   -23685 
  -22491   -17724   -16056   -21215   -22940   -18590   -17593   -19954 
  -20772   -21033   -21683   -20013   -16725   -18196   -23124   -22643 
  -17883   -15595   -16609   -20170   -23661   -23746   -21841   -20341 
  -19580   -18658   -17747   -18446   -21139   -24435   -24406   -19967 
  -15753   -15808   -20815   -24011   -19549   -16209   -19908   -22684 
  -20945   -18538   -18258   -20864   -22959   -21408   -18474   -16715 
  -17856   -22264   -25111   -22094   -16051   -14365   -19441   -24525 
  -24158   -19908   -15905   -15952   -20079   -23337   -21859   -18659 
  -18472   -20911   -22249   -19861   -16749   -16908   -18959   -21249 
  -22037   -19932   -17806   -16825   -18138   -23580   -25874   -20542 
  -16336   -17226   -18862   -20434   -21539   -21816   -22585   -21112 
  -17763   -17505   -18816   -19670   -20888   -19981   -18073   -19515 
  -22292   -22372   -20081   -18438   -20243   -22489   -20136   -17136 
  -18254   -20640   -21232   -19707   -17921   -18049   -19870   -21255 
  -20341   -18874   -19413   -21990   -22870   -18484   -16121   -20682 
  -23954   -23774   -22065   -17154   -14310   -17641   -21892   -22327 
  -20518   -20218   -19619   -16700   -16718   -21236   -24062   -21212 
  -16185   -16384   -20043   -20155   -20409   -22875   -22032   -19036 
  -16869   -16703   -20980   -25577   -24159   -18366   -15017   -18478 
  -24189   -25377   -21730   -14895   -11291   -17443   -25339   -25951 
  -20298   -12723   -13126   -23772   -29582   -22908   -14516   -14777 
  -20119   -21266   -19662   -20644   -20109   -17803   -19961   -23332 
  -22846   -21182   -19830   -18551   -19934   -22258   -20050   -18272 
  -22675   -23873   -18183   -16262   -18589   -18025   -18040   -22050 
  -23319   -18214   -15024   -19187   -22149   -20495   -21131   -22100 
  -19683   -17633   -17809   -20235   -21663   -18461   -16225   -18675 
  -22419   -24394   -20987   -16082   -16615   -19283   -21315   -21146 
  -18408   -20235   -23276   -19654   -16440   -18535   -21270   -21122 
  -19128   -20240   -22840   -21192   -18104   -16980   -18801   -23642 
  -24769   -21546   -19021   -15211   -14588   -21239   -25996   -25084 
  -21250   -16371   -14781   -18382   -24440   -25624   -19957   -18536 
  -23691   -24459   -19039   -15176   -17483   -23911   -28097   -23701 
  -13995   -12943   -21986   -27800   -25316   -18314   -14758   -17899 
  -21586   -25543   -26146   -18592   -14975   -18603   -20301   -20719 
  -20553   -18385   -17493   -19866   -23572   -24931   -22144   -18621 
  -19273   -21074   -20335   -20862   -20526   -17712   -18939   -21185 
  -20673   -21608   -21470   -19823   -20815   -20532   -19492   -22734 
  -24390   -20479   -17640   -19257   -21883   -22073   -20812   -21501 
  -21932   -18496   -15371   -17026   -21544   -24170   -21352   -16033 
  -14249   -14840   -14882   -18320   -24112   -23418   -18563   -18744 
  -20783   -18636   -15600   -15337   -17941   -21006   -19530   -14723 
  -13487   -16453   -18630   -18157   -18011   -19539   -20205   -19660 
  -19450   -18724   -16503   -14828   -16416   -19978   -21598   -20605 
  -20524   -22499   -22054   -18874   -17567   -17146   -16839   -18864 
  -21373   -23043   -24086   -24202   -22312   -16865   -15242   -21551 
  -24553   -22534   -21695   -20208   -20634   -23577   -23186   -19784 
  -15570   -14986   -19591   -20676   -18612   -21055   -24254   -23422 
  -20182   -16390   -16340   -22423   -27656   -26208   -19765   -13393 
  -15419   -23549   -23130   -14365    -9775   -13163   -21855   -28269 
  -26157   -19927   -14168   -13370   -21914   -28336   -22971   -17707 
  -19909   -23815   -25645   -21039   -13200   -11936   -14280   -15444 
  -16509   -16745   -19160   -22561   -21112   -19872   -23955   -28864 
  -28993   -23754   -20466   -22734   -23392   -20437   -18635   -19070 
  -22966   -28232   -26634   -18812   -13247   -11542   -11542   -13788 
  -15288   -12132   -12371   -23634   -34234   -31351   -18824    -8131 
   -9553   -21423   -30040   -27918   -18673   -12598   -17059   -24864 
  -24984   -16796    -8529    -8567   -17111   -26442   -27421   -21546 
  -19458   -22195   -24834   -25789   -24247   -23322   -22144   -16158 
  -11520   -15863   -25633   -29984   -24187   -16595   -14480   -16524 
  -18500   -17055   -14168   -14920   -21736   -29371   -28595   -23025 
  -22376   -23384   -20784   -16807   -15309   -20325   -27847   -27622 
  -21015   -16640   -16448   -17450   -15664   -12586   -14928   -20436 
  -21540   -20484   -21020   -20174   -20024   -24154   -24726   -18017 
  -15203   -20263   -24085   -23731   -20684   -15997   -16362   -19035 
  -16181   -17089   -24484   -26752   -25555   -25134   -22686   -20922 
  -18507   -12124   -11573   -20052   -25209   -23928   -20096   -15774 
  -18424   -24545   -21816   -16677   -16842   -17352   -21519   -27616 
  -23522   -15156   -11361    -9359   -14580   -25775   -27784   -20353 
  -15300   -19622   -29242   -29794   -20742   -14928   -13801   -15287 
  -18932   -20221   -19845   -18431   -15156   -15168   -16637   -15934 
  -18505   -24075   -26771   -25284   -23488   -25660   -27135   -21591 
  -13888   -13394   -19816   -24024   -23535   -22069   -21676   -22023 
  -17184    -9468   -10791   -18739   -23101   -21689   -18369   -19728 
  -23827   -22877   -20056   -20054   -20106   -20966   -23471   -23953 
  -20835   -17049   -19431   -26053   -25629   -19911   -17948   -17987 
  -16654   -17329   -20740   -22250   -22110   -19880   -12310   -10674 
  -21433   -27719   -24085   -20048   -15882   -14793   -20225   -24749 
  -24067   -17257   -10440   -16150   -26374   -26352   -22076   -19813 
  -18481   -19072   -19134   -19874   -22588   -19489   -13956   -15435 
  -18442   -19899   -22501   -22742   -22257   -23253   -20399   -14582 
  -12912   -18037   -24736   -25316   -20267   -17284   -19953   -21770 
  -20908   -24524   -24632   -15435   -12919   -18825   -23089   -25658 
  -22468   -14783   -13956   -19894   -24686   -24981   -20223   -14528 
  -17626   -27988   -29286   -17977    -8594   -11187   -21485   -27392 
  -25397   -21205   -17435   -17909   -22283   -21124   -16507   -17532 
  -21601   -23053   -19253   -15107   -20480   -27672   -23572   -16649 
  -17037   -19295   -19511   -18648   -16947   -17092   -17652   -16403 
  -19052   -24624   -24286   -19241   -16391   -18828   -25107   -26420 
  -18636   -11990   -13533   -18072   -20270   -19631   -19033   -20584 
  -20258   -17760   -18225   -17721   -14937   -19795   -28998   -28480 
  -20412   -16897   -20089   -24601   -24945   -18794   -13243   -16405 
  -23861   -26123   -21440   -16555   -15811   -16966   -18729   -20019 
  -20887   -22063   -20683   -20374   -23121   -20957   -17342   -18902 
  -19629   -17691   -18353   -23669   -28705   -26264   -20528   -19873 
  -20551   -18569   -18346   -20690   -22029   -20038   -16970   -18153 
  -20672   -20345   -20299   -19935   -19907   -22316   -20822   -17666 
  -21546   -24412   -18654   -13830   -15476   -19097   -21978   -20920 
  -16044   -14457   -18566   -24212   -25142   -18773   -14284   -17145 
  -18106   -16309   -18922   -21247   -22107   -25552   -23218   -14783 
  -13806   -21006   -26453   -24470   -17520   -14696   -19622   -24910 
  -22658   -15881   -14882   -20367   -22624   -19924   -19091   -21097 
  -24553   -27013   -22816   -17181   -15680   -14562   -17760   -24174 
  -25524   -24004   -19276   -13991   -17288   -22252   -22805   -22621 
  -16806   -10093   -15414   -24540   -25431   -21196   -17568   -18416 
  -22987   -24254   -19273   -13616   -12970   -16052   -20854   -26399 
  -26927   -21581   -17710   -17086   -16332   -17139   -21246   -23919 
  -22616   -20306   -19450   -20578   -23292   -25404   -21635   -14099 
  -14393   -21471   -24170   -22360   -20833   -21809   -25066   -24067 
  -18370   -16918   -19427   -20132   -19094   -17699   -20403   -26562 
  -23885   -14073   -12869   -19506   -23139   -23508   -23363   -19786 
  -13919   -12032   -16355   -24682   -28811   -23126   -15751   -13197 
  -14929   -22670   -29943   -25103   -14418   -12305   -17296   -21365 
  -22196   -20035   -18343   -18426   -18989   -21620   -22617   -18763 
  -16332   -16748   -15858   -15067   -16426   -19256   -22870   -24166 
  -20362   -15695   -15826   -19341   -22439   -23934   -21675   -16000 
  -15063   -23460   -31013   -26904   -16352   -10247   -13359   -23569 
  -29732   -26050   -20096   -15080   -11924   -14754   -19588   -22441 
  -23600   -19526   -12935   -13895   -22377   -28992   -28976   -21795 
  -11442   -10746   -22480   -30400   -26100   -17910   -14530   -19165 
  -25698   -24861   -19498   -15969   -16783   -22640   -24948   -20256 
  -19431   -21983   -19151   -15816   -18365   -22859   -23976   -21123 
  -18065   -19634   -24487   -25589   -21799   -18765   -19334   -20726 
  -18704   -15788   -17548   -19951   -17726   -15728   -19822   -26967 
  -28821   -24669   -20272   -15292   -11793   -17167   -24811   -24333 
  -21369   -19849   -16482   -16333   -22225   -25408   -21382   -16760 
  -16776   -18677   -19803   -20790   -20817   -19791   -19163   -16910 
  -13477   -14328   -19284   -24300   -25591   -20722   -16565   -17510 
  -17864   -19815   -25151   -23715   -16218   -14049   -18285   -23604 
  -24845   -20533   -15426   -12488   -14175   -20182   -23194   -22528 
  -21276   -17728   -13833   -13621   -18212   -25015   -27313   -23519 
  -19464   -17925   -18347   -20547   -21766   -20169   -18466   -18696 
  -21215   -26127   -28742   -23949   -16089   -12399   -14403   -20545 
  -25569   -24439   -21451   -20827   -19552   -16417   -14169   -17038 
  -22177   -21756   -20256   -21637   -20297   -18879   -21035   -22316 
  -20440   -17232   -16561   -19800   -22783   -22283   -20023   -20137 
