Origin Time       2024/04/02 04:24:00
Lat.              40.133
Long.             141.712
Depth. (km)       71
Mag.              6.0
Station Code      MYG006
Station Lat.      38.5660
Station Long.     140.9767
Station Height(m) 17
Record Time       2024/04/02 04:25:06
Sampling Freq(Hz) 100Hz
Duration Time(s)  131
Dir.              E-W
Scale Factor      7845(gal)/8223790
Max. Acc. (gal)   11.317
Last Correction   2024/04/02 04:25:05
Memo.             
[...]
    -295       44      421      904     1368     1629     1725     1776 
    1783     1737     1692     1634     1524     1409     1337     1333 
    1437     1637     1907     2254     2575     2721     2697     2488 
    1965     1225      599      263      160      267      548      810 
     915      895      803      621      360      116      -54     -198 
    -361     -530     -657     -734     -776     -720     -471      -55 
     441      938     1313     1566     1852     2228     2565     2775 
    2914     2922     2727     2508     2376     2193     1907     1602 
    1300      988      769      753      903     1094     1246     1313 
    1231     1042      886      739      450       24     -386     -745 
   -1092    -1312    -1256     -939     -383      386     1144     1664 
    1946     2023     1872     1614     1460     1414     1298     1173 
    1285     1621     2014     2443     2889     3233     3376     3277 
    2976     2608     2250     1885     1537     1223      874      468 
      95     -122     -122       76      396      685      823      827 
     735      565      387      226       32     -149     -176      -22 
     237      575      980     1324     1420     1247      988      835 
     868     1047     1289     1541     1779     1956     2057     2154 
    2297     2439     2505     2471     2396     2241     1892     1414 
     873      225     -387     -799    -1038    -1046     -778     -488 
    -357     -230       13      294      587      928     1291     1606 
    1741     1648     1448     1165      761      375      241      386 
     623      923     1362     1787     2043     2219     2349     2307 
    2062     1750     1503     1366     1333     1405     1583     1760 
    1771     1648     1486     1259     1001      788      581      390 
     390      625      819      826      849      970     1000      936 
     985     1104     1107     1011      909      839      837      919 
    1081     1290     1490     1721     2027     2304     2457     2490 
    2427     2247     1942     1595     1274      878      352     -172 
    -564     -781     -795     -645     -352      128      656      985 
    1092     1071      932      746      692      808      965     1134 
    1359     1529     1551     1571     1671     1695     1649     1717 
    1844     1776     1480     1134      785      398       47     -179 
    -265     -240     -140      -37      -72     -263     -395     -372 
    -310     -125      324      804     1093     1354     1678     1921 
    2008     1953     1746     1395      950      579      456      545 
     696      827      892      884      899     1026     1243     1498 
    1723     1845     1869     1829     1780     1800     1802     1688 
    1539     1443     1424     1487     1548     1480     1259      915 
     519      256      253      468      826     1260     1636     1848 
    1841     1590     1213      873      616      453      407      490 
     662      881     1206     1633     1946     2034     1992     1850 
    1601     1302      989      719      577      562      657      908 
    1306     1714     2038     2268     2362     2301     2149     1938 
    1613     1078      371     -287     -730     -924     -872     -610 
    -194      402     1117     1741     2176     2382     2292     1958 
    1545     1163      945      924      934      876      814      768 
     723      716      796      919     1034     1198     1395     1483 
    1425     1294     1109      891      658      414      179       -2 
     -93      -45      160      510     1026     1659     2245     2700 
    2975     2972     2679     2178     1549      903      372      -16 
    -278     -330     -176       79      415      774     1066     1293 
    1397     1266      889      360      -91     -261     -191       18 
     369      799     1213     1621     2018     2312     2444     2392 
    2128     1737     1367     1097      982     1020     1117     1274 
    1516     1728     1860     2004     2088     1906     1487     1048 
     669      352      155       49     -130     -395     -531     -511 
    -419     -155      175      249      144      129      194      310 
     585     1040     1607     2200     2668     2965     3163     3240 
    3094     2671     2019     1296      670      288      233      403 
     573      595      469      275       14     -338     -692     -943 
   -1093    -1124     -936     -576     -211      133      457      672 
     826     1057     1354     1676     2141     2786     3384     3684 
    3636     3339     2891     2378     1984     1817     1717     1518 
    1277     1089      990     1032     1229     1517     1841     2207 
    2628     3010     3241     3264     3006     2492     1896     1345 
     911      706      696      719      789      965     1112     1111 
     990      747      326     -187     -635     -923     -981     -855 
    -726     -658     -612     -576     -448      -33      602     1161 
    1576     1911     1975     1687     1289      903      492      211 
     274      592      985     1475     1980     2286     2403     2430 
    2338     2065     1652     1206      781      386       72     -105 
    -147      -90       49      201      214      120      102      210 
     400      661      873      888      791      735      638      411 
     175      -24     -221     -245       81      616     1148     1668 
    2208     2702     3072     3261     3159     2727     2188     1809 
    1678     1853     2343     2930     3281     3262     2983     2567 
    2076     1601     1252      969      610      218     -125     -475 
    -795     -974    -1073    -1169    -1143     -918     -660     -457 
    -203       21       89      159      414      805     1258     1767 
    2276     2693     2891     2801     2531     2239     1956     1653 
    1412     1291     1217     1196     1355     1710     2169     2601 
    2845     2867     2778     2587     2199     1703     1220      669 
      83     -351     -619     -729     -577     -205      260      816 
    1409     1814     1976     2045     1999     1768     1512     1327 
    1150     1015      976      977      951      857      681      530 
     486      406      240      130       62      -74     -171      -78 
     176      473      681      633      259     -284     -781    -1047 
    -946     -502      105      702     1259     1792     2216     2509 
    2713     2786     2691     2443     2077     1659     1193      675 
     237       45      156      571     1236     2038     2791     3285 
    3423     3226     2740     2091     1448      915      564      367 
     155     -148     -475     -768     -963     -920     -621     -253 
     109      587     1189     1741     2081     2154     1929     1397 
     711      151      -90      -29      255      723     1260     1725 
    2093     2385     2556     2565     2463     2270     1844     1204 
     588       78     -432     -951    -1383    -1710    -1912    -1780 
   -1175     -294      565     1278     1836     2192     2371     2554 
    2783     2914     2817     2462     2003     1617     1286      958 
     672      487      480      710     1105     1510     1857     2062 
    2056     1981     1857     1521     1116      881      753      653 
     703      955     1236     1389     1453     1462     1341     1098 
     854      662      510      402      340      274      135      -20 
     -81      -87     -140     -193     -151      -41       68      282 
     737     1271     1602     1768     1948     2110     2234     2397 
    2569     2658     2628     2520     2420     2330     2203     2050 
    1806     1368      866      544      452      535      743      977 
    1155     1274     1324     1219      864      310     -371    -1158 
   -1777    -1921    -1692    -1271     -573      376     1318     2046 
    2519     2709     2532     2033     1512     1231     1109     1028 
    1127     1368     1501     1593     1841     2161     2415     2623 
    2766     2713     2423     1964     1420      920      529      201 
     -67     -222     -265     -182       86      446      737      996 
    1294     1513     1696     2026     2305     2196     1722     1148 
     719      549      639      892     1125     1217     1100      804 
     607      635      652      580      627      857     1146     1416 
    1661     1871     2000     2008     1983     2073     2250     2394 
    2521     2635     2660     2624     2614     2628     2641     2687 
    2733     2700     2556     2249     1756     1217      688      160 
    -166     -203     -168     -182     -184     -280     -687    -1281 
   -1738    -2054    -2335    -2511    -2651    -2963    -3416    -3871 
   -4357    -4966    -5626    -6185    -6602    -6845    -6723    -6124 
   -5190    -4085    -2905    -1717     -560      490     1402     2258 
    3038     3622     4036     4368     4499     4349     4125     4039 
    4129     4380     4703     5061     5530     6046     6453     6752 
    6972     7059     7022     6941     6852     6809     6851     6853 
    6713     6466     6099     5613     5136     4729     4253     3581 
    2786     2025     1378      951      804      866     1062     1352 
    1730     2235     2844     3419     3785     3742     3060     1684 
    -116    -2011    -3805    -5343    -6500    -7318    -7911    -8205 
   -8005    -7314    -6343    -5182    -3832    -2543    -1572     -812 
    -129      310      380      257       60     -284     -687     -895 
    -830     -567      -72      648     1308     1663     1842     2043 
    2305     2731     3392     4116     4658     4828     4654     4442 
    4360     4436     4814     5514     6405     7408     8441     9429 
   10285    10729    10388     9099     7037     4622     2263      110 
   -1818    -3480    -4911    -6041    -6516    -6123    -5086    -3700 
   -2096     -446     1005     2151     2922     3117     2636     1684 
     523     -650    -1602    -2208    -2474    -2272    -1664    -1047 
    -607     -272     -220     -702    -1555    -2313    -2655    -2515 
   -1804     -511     1034     2451     3618     4483     4914     4845 
    4355     3559     2440      994     -486    -1744    -2853    -3811 
   -4380    -4446    -4006    -3017    -1664     -372      600     1117 
    1062      653      318      272      642     1556     2907     4453 
    5972     7121     7520     7056     5933     4444     2741     1026 
    -264     -774     -517      342     1605     2960     4164     5138 
    5784     6079     6196     6093     5535     4652     3692     2593 
    1352      233     -483     -635     -290      283      827     1121 
    1000      486     -398    -1690    -3150    -4318    -4837    -4440 
   -3080    -1125      947     2844     4268     4928     4774     3993 
    2835     1555      348     -612    -1050     -839     -229      391 
     658      332     -529    -1659    -2685    -3318    -3620    -3697 
   -3457    -2988    -2538    -2135    -1836    -1692    -1385     -568 
     719     2276     3774     4758     4931     4329     3168     1696 
     272     -719    -1142    -1032     -491      230      818     1147 
    1337     1622     2169     2975     3862     4661     5394     6081 
    6535     6583     6228     5521     4530     3412     2366     1439 
     561     -264     -977    -1379    -1252     -768     -321     -113 
    -233     -676    -1077     -912      -39     1220     2490     3484 
    3896     3504     2285      464    -1537    -3200    -3966    -3550 
   -2181     -403     1062     1660     1383      583     -367    -1098 
   -1385    -1267     -892     -333      440     1425     2438     3353 
    4170     4669     4621     4114     3207     1794       27    -1745 
   -3408    -4922    -6050    -6691    -6968    -6941    -6590    -5800 
   -4341    -2135      731     4071     7350     9833    11026    10844 
    9535     7582     5557     3820     2361     1086       13     -853 
   -1513    -1912    -2031    -1810    -1120        1     1304     2536 
    3589     4255     4155     3364     2620     2548     3238     4560 
    6349     8195     9409     9450     8336     6399     3962     1451 
    -622    -1945    -2439    -2200    -1425     -305      837     1574 
    1706     1179        4    -1401    -2520    -3267    -3717    -3846 
   -3661    -3204    -2459    -1394      -56     1341     2461     3091 
    3154     2632     1715      718     -176     -926    -1398    -1251 
    -213     1603     3748     5564     6440     6162     4788     2374 
    -757    -3900    -6451    -8156    -8779    -8112    -6439    -4372 
   -2289     -364     1259     2581     3746     4854     5903     6822 
    7493     7690     7132     5796     3985     1939     -137    -1807 
   -2659    -2674    -2149    -1366     -422      571     1453     2214 
    2924     3576     4116     4419     4322     3838     3261     2890 
    2754     2786     2857     2728     2380     2180     2494     3284 
    4230     5074     5598     5589     5113     4410     3483     2226 
     656    -1170    -3173    -5109    -6578    -7256    -7024    -5934 
   -4199    -2223     -463      822     1595     1927     1942     1701 
    1165      378     -549    -1572    -2597    -3373    -3721    -3825 
   -3951    -3969    -3674    -3156    -2386    -1235      114     1401 
    2513     3230     3437     3354     3184     3105     3375     4044 
    4986     6131     7452     8892    10346    11642    12575    12911 
   12440    11176     9332     7048     4390     1514    -1385    -4126 
   -6443    -7943    -8302    -7578    -6177    -4513    -2882    -1502 
    -519        2      125       81      -25     -313     -675     -788 
    -531      122     1183     2458     3677     4707     5497     5968 
    6048     5787     5294     4549     3496     2234      884     -594 
   -2169    -3550    -4511    -4942    -4607    -3437    -1810     -268 
     739      889      157    -1005    -2087    -2914    -3271    -2729 
   -1335      450     2409     4318     5709     6328     6205     5325 
    3815     2211     1061      573      773     1533     2470     3136 
    3380     3431     3451     3391     3360     3584     4056     4498 
    4513     3871     2620      901    -1105    -3136    -4793    -5729 
   -5927    -5710    -5366    -4865    -4156    -3558    -3389    -3555 
   -3732    -3597    -2918    -1661      102     2197     4168     5503 
    6038     5944     5470     4843     4301     4006     3990     4191 
    4375     4217     3708     3073     2436     1987     1998     2457 
    3088     3716     4266     4583     4575     4329     3856     3094 
    2227     1574     1275     1301     1533     1761     1757     1552 
    1459     1674     2115     2668     3321     4077     4939     5798 
    6305     6185     5506     4344     2713      882     -784    -2137 
   -3262    -4317    -5328    -6269    -7126    -7898    -8641    -9262 
   -9441    -9050    -8222    -6966    -5211    -3291    -1879    -1281 
   -1278    -1597    -2004    -2172    -1885    -1183     -109     1431 
    3330     5161     6678     7912     8800     9267     9414     9390 
    9219     8889     8446     7755     6569     5007     3511     2384 
    1672     1447     1803     2416     2631     2168     1206     -139 
   -1941    -4062    -6003    -7371    -8100    -8245    -8024    -7819 
   -7777    -7666    -7141    -5908    -3920    -1435     1174     3523 
    5327     6485     6876     6439     5530     4711     4274     4367 
    5109     6291     7410     8025     7885     6874     5089     2937 
    1011     -341    -1215    -1682    -1640    -1291     -947     -514 
     132      760     1162     1247      784     -406    -2110    -3823 
   -5113    -5746    -5595    -4714    -3316    -1644       58     1588 
    2875     3851     4257     3836     2741     1416      264     -406 
    -472        6      908     1960     2841     3393     3429     2686 
    1240     -518    -2247    -3558    -4072    -3813    -3009    -1732 
    -118     1413     2527     3267     3757     3981     3998     3977 
    3943     3805     3626     3584     3682     3800     3936     4098 
    4010     3411     2567     1914     1503     1331     1470     1676 
    1579     1213      859      525       90     -267     -387     -373 
    -214      183      677     1120     1561     2068     2587     2982 
    3203     3389     3630     3827     3924     3902     3558     2682 
    1479      442      -75       89      928     2176     3424     4293 
    4482     3893     2685     1221      -43     -747     -710      129 
    1586     3141     4303     4828     4526     3400     1865      390 
    -916    -2085    -2980    -3419    -3430    -3208    -2920    -2655 
   -2488    -2349    -1929    -1030      191     1464     2469     2938 
    2961     2806     2598     2535     2947     3943     5313     6832 
    8279     9219     9202     8110     6151     3707     1112    -1336 
   -3165    -3901    -3488    -2187     -305     1687     3211     4021 
    4129     3439     1985      157    -1629    -3015    -3597    -3226 
   -2226    -1125     -390     -265     -712    -1521    -2450    -3261 
   -3838    -4288    -4739    -5127    -5368    -5433    -5074    -3987 
   -2332     -541     1206     2745     3694     3821     3087     1582 
    -299    -1939    -2878    -3006    -2384    -1115      612     2548 
    4380     5799     6647     6897     6578     5792     4735     3539 
    2232     1084      584      951     1972     3294     4591     5521 
    5856     5644     5057     4171     2979     1649      562     -109 
    -433     -372       76      714     1229     1228      419    -1094 
   -2949    -4752    -6162    -7026    -7379    -7253    -6544    -5186 
   -3272     -969     1440     3514     4996     5992     6453     6050 
    4843     3277     1566     -162    -1420    -1780    -1216      144 
    1960     3546     4284     3960     2577      271    -2439    -4792 
   -6255    -6519    -5463    -3431     -953     1698     4240     6278 
    7700     8644     9220     9517     9568     9343     8846     8136 
    7276     6347     5499     4927     4773     4942     5036     4739 
    4045     3005     1637       79    -1453    -2826    -3966    -4738 
   -5022    -4804    -4102    -3029    -1865     -932     -513     -731 
   -1429    -2299    -2995    -3192    -2797    -2110    -1518    -1070 
    -629     -180      348     1104     1973     2721     3352     3956 
    4480     4831     5005     4955     4585     3950     3244     2632 
    2160     1822     1618     1505     1416     1304     1034      635 
     365      230      128      202      409      506      554      741 
    1055     1402     1699     1946     2214     2535     3028     3894 
    5152     6608     7888     8437     7888     6312     4010     1328 
   -1340    -3708    -5609    -6849    -7372    -7400    -7133    -6604 
   -5914    -5254    -4677    -4117    -3570    -3029    -2358    -1547 
    -831     -442     -459     -868    -1524    -2107    -2280    -1929 
   -1182     -297      456     1044     1667     2457     3476     4757 
    6126     7218     7771     7792     7407     6623     5470     4299 
    3569     3453     3929     4954     6393     7932     9127     9705 
