Origin Time       2024/04/02 04:24:00
Lat.              40.133
Long.             141.712
Depth. (km)       71
Mag.              6.0
Station Code      MYG003
Station Lat.      38.7349
Station Long.     141.3116
Station Height(m) 32
Record Time       2024/04/02 04:25:02
Sampling Freq(Hz) 100Hz
Duration Time(s)  110
Dir.              E-W
Scale Factor      7845(gal)/8223790
Max. Acc. (gal)   44.322
Last Correction   2024/04/02 04:25:01
Memo.             
[...]
    4098     4248     4621     4872     3365     1512     3203     6750 
    6659     3927     3168     3597     2845     1637      727      650 
    2243     4167     3956     2247     2301     4297     4599     2756 
    2585     4448     5097     4831     6199     7724     5552      214 
   -2980     -962     3123     4792     4475     5066     5864     4198 
    1148       62     1402     3924     6146     5894     3975     3699 
    5151     5179     2408     -351      -91     2034     2957     2516 
    2795     3319     2582     2601     4523     5243     4351     5053 
    6415     5100     2064      626     1468     2380     2749     4430 
    6226     5221     2648     1012      432      962     2632     4217 
    4904     4492     3620     3967     5163     5027     3114     1313 
    1741     3848     4584     2416     -265       18     3295     6234 
    6498     4807     3221     2367     1215      673     2612     5499 
    6654     5863     4626     3844     3370     2785     2276     3217 
    4646     3249       28    -1008      830     3666     5825     6570 
    5918     4596     3798     2826      820     -575     -317     1602 
    4729     6885     6624     5494     5532     5196     2677      896 
    1838     2689     1498      811     3392     6666     6772     4568 
    2371      604     -418      702     4028     6651     6463     4739 
    3392     2604     1962     1912     2521     2604     1324       -2 
     864     3068     4276     5481     7537     8484     7825     6567 
    4915     3038     1144     -824    -1918     -495     2552     4866 
    6025     5734     3285      172     -650     1254     3160     4360 
    6207     7452     6650     4542     2718     2678     3195     2336 
    1178      861     1057     1718     3195     4698     5042     5171 
    5393     4243     2573     2293     2949     2917     2106     2095 
    4029     6855     7441     4880     2258      926     -336     -665 
    1223     4085     6220     7038     6376     4320     1660     -128 
    -406      222     1999     5308     8120     7747     4900     3221 
    3423     2290     -274     -673     1557     3829     5112     5844 
    5626     4112     2732     2243     2097     2349     2635     3346 
    5242     6602     5701     2880      417      440     1711     2700 
    3924     4811     3808     1718     1625     4136     5682     4666 
    4068     4745     3915     1991     2093     3337     2555      967 
    1957     4571     5910     6280     6554     5043     1112    -2130 
   -1584     1692     4050     5059     6837     7434     4487     1138 
     395     1196     1914     2370     3225     4683     5726     5428 
    4091     3188     3618     3516     1583      149     1101     2679 
    3352     4895     7106     7111     6143     6114     4644      460 
   -3321    -2878     1244     4641     5123     4760     5971     6673 
    3959     1561     2790     3658     1822      643     1629     2554 
    3283     5113     6444     5406     2975     1815     2901     3932 
    3308     2430     2521     3025     3931     5471     5522     3060 
     907      540      600     1023     2388     3908     4639     4010 
    3294     4815     6798     6851     6563     5679     2739      488 
    1057     2003     1081     -334      213     2550     4091     4783 
    7060     8445     4907      176     -355     2511     5633     7249 
    6929     5027     2890     1642     -157    -2489    -1831     2116 
    5409     5853     5449     6521     7080     4989     2741     2188 
    1937     2057     3674     5144     4762     3873     2770      862 
     502     1980     2535     2691     3813     4410     3790     3640 
    4806     5971     6022     5081     4158     4168     3508      426 
   -2473    -2010      973     4627     7473     7650     5643     3279 
    1316      715     1601     2667     2943     2872     3678     4402 
    4009     4047     5065     6015     5281     2180      -64      889 
    2037     1792     2786     4911     5772     5799     5961     5294 
    2775     -477    -2041    -1155     1356     4398     6319     5879 
    4068     3213     3581     3470     2920     2820     2454     2396 
    4330     6852     7057     4440     1251     -203      201     2087 
    5022     6878     6011     3782     2342     1609      657      506 
    2135     4133     4282     2224      591     1271     3298     5736 
    7337     6940     5726     4588     3091     1530      378      -54 
    1088     3596     4985     4720     4986     4531     2342     2228 
    4442     4835     3389     2994     3697     3690     2755     2330 
    3288     4324     3877     3215     3931     4679     3898     2026 
     526     1144     3412     4754     4861     4584     3566     2528 
    2466     2984     3569     3623     3258     3279     2870     2026 
    2976     4656     3546     1568     3134     6493     7882     7102 
    4386      716    -1534    -1702     -460     1740     4882     7921 
    8120     5223     2431     1852     2605     2920     3330     4945 
    6191     5625     3361      523     -245     1895     3862     2600 
     326     1633     4749     4889     3456     4434     6126     4199 
    1341     2802     5543     5127     3576     2662     1201       16 
     811     2344     2988     3616     4846     4822     3121     2840 
    5065     6119     3681     1696     3381     4935     3504     1649 
     976      881     1890     4114     5032     3373     2500     4384 
    5387     3678     2926     4930     6334     5314     4522     4171 
    1183    -2592    -1907     2034     4001     4731     6785     7134 
    4055     1417     1505     1966     1421     2049     4907     7360 
    6444     3137     1368     2029     2729     2242      932      507 
    2554     5003     5497     5622     5796     4352     2596     2378 
    3168     3792     3867     3592     2547     1188     1645     4345 
    5877     3866     1925     2563     2760     1289      417     1713 
    3958     4891     5090     5748     5647     4017     1809      730 
    1703     3483     4496     4052     3176     3929     5262     5062 
    3817     1984      217      795     4058     7318     8581     7638 
    4479      386    -2127    -1993      229     2324     2431     2664 
    4760     6482     6847     7060     6702     5034     2675      595 
    -145      757     2115     2340     2316     4541     6812     5012 
    1710     2096     4788     4495     1860     2002     4511     4935 
    2975     2188     3943     5822     5857     4234     1826     -224 
   -1158     -556     1732     4469     6242     7098     7213     6068 
    3640     1868     2627     4257     4406     2968     1085      621 
    1563     1787     1409     2010     2490     2134     3989     8217 
   10160     8503     5644     2678     -232    -2147    -1254     1791 
    3458     3755     4684     4550     2218      422     1377     3345 
    4337     5609     7118     6509     4313     2944     2056      376 
    -440      918     2427     3046     4676     7384     8037     5162 
    1136     -793      128     2614     4970     5235     3493     2542 
    3711     5587     6444     5555     2840    -1059    -2944      261 
    5150     6443     5412     5078     4615     3234     2274     2697 
    3379     2616     1348     1420     2126     2277     2899     5364 
    7519     6436     4230     3738     3426     1786      508     1464 
    3465     3510     1298     -144     1140     4077     6493     7330 
    7010     6030     4602     2880     1907     3252     5098     4299 
    2070     1188     1395      909     -378     -657     1309     4781 
    7753     8468     6921     4735     3461     3366     3789     3971 
    3578     2259     -341    -2620    -1999     1377     4588     6080 
    7800     9574     7803     3223     -233    -1139     1129     5664 
    8284     7268     5371     3249     -564    -3790    -3213      261 
    3645     5167     5724     7005     8025     7005     4788     3329 
    2373      461    -1094      387     4422     7121     5503     1448 
    -696      453     2416     3564     4819     5649     4807     3284 
    2965     4779     7693     8984     6636     2177    -1210    -2766 
   -2587     -276     2841     4525     4587     4498     4297     3415 
    3184     4072     4756     4568     3311     2542     4155     5578 
    4224     2535     2397     1822     -232    -1487      275     4348 
    7597     8105     7186     5254     1884      503     3114     5240 
    3289      440     1061     3505     3951     3204     3495     3354 
    1344     1151     5306     8739     7140     3156      355     -144 
    1258     3242     4963     5741     5648     5730     5104     2396 
    -672     -832     2351     5304     5285     3464     2413     3592 
    5447     5294     3547     2119     2513     4326     3977     1767 
    2012     3913     3834     2019     1444     2632     3060     2633 
    3898     6243     6272     4164     2789     2255     1177     -221 
    -774     -309     1366     4900     8311     8946     7180     4365 
    1389      -32     1702     5143     6651     4955     2493     1030 
    -552    -1437      508     3588     5586     6230     5626     4869 
    4477     3352     1533     1021     2940     5725     6285     4274 
    3441     4513     4382     3026     1548     -314    -1035      643 
    2841     4509     7377    11041    11804     7696     1537    -1517 
   -1196    -1559    -1722     1479     6454     9389     7913     3636 
     -79    -1861     -974     1903     4001     3624     3379     6420 
    9005     7064     3792     2038      828     -314     -434      892 
    2731     4973     7365     8357     7608     5243     2137      633 
    1077     2201     3210     2312     -761    -1989     1260     5514 
    6863     7236     8812     7897     2336    -2234     -496     4104 
    5267     3423     2579     2910     2080      670     1873     5246 
    6643     4572     1800     1240     1844     2195     3524     5400 
    6718     7461     6697     4411     1906      148     -486     -156 
    1040     2546     3397     3256     2687     2660     3098     4045 
    5823     6691     5580     3989     2772     1464      449     1794 
    5166     5740     2640      453      353      588      990     2953 
    6251     7537     6027     4738     5165     5387     3183      504 
     328      950      398     1170     4384     6278     5040     3720 
    4465     5664     5073     3287     2347     1954     1111      859 
    2083     4237     6448     7419     6392     5013     4594     2745 
    -993    -1949      945     3311     3834     4727     6330     6604 
    4617     2872     3172     2465       66      839     4584     5784 
    3588     1660     2416     4048     3434     2235     3865     6620 
    6988     5238     3115     1237       99     -418     -461      869 
    3504     5933     6211     4318     2789     2315     2378     2913 
    2832     2697     3576     4229     3487     1991     2035     3775 
    4521     3812     2824     2685     4548     6671     6301     4068 
    2670     3141     3431     1490    -1189     -643     3511     5517 
    3402     2698     5166     6666     5175     2639     1359     1466 
    1826     2002     3071     5425     6563     5098     2887     1374 
    1435     3388     4864     4097     3358     4522     5139     3091 
     882     1526     4048     5435     4999     5058     6087     5486 
    3580     2029     -349    -2134     -191     3869     6197     5549 
    3523     1796     1098     1605     2384     3258     4708     5462 
    4887     3765     1838     -294    -1050    -1050    -1038      414 
    3424     5401     5286     4612     4380     4318     3053      573 
     182     3002     5170     4023     2155     2160     2025      634 
      45      857     2867     5915     8518     8788     5903     1453 
   -2160    -2890      742     7226    12370    11785     6249     2307 
    2411     3558     4429     6014     8290     9589     9323     8502 
    7962     6727     2185    -4943   -10044   -10801    -8662    -5408 
   -1894     2778    10983    20333    24139    21158    15075     7006 
   -3118   -11260   -12033    -5386     3292     8969    11566    12276 
    9930     6299     4588     2694    -2729   -10461   -15908   -15685 
  -10660    -4013     2525     8972    12579     9468     4287     5806 
   12657    16309    13961     9286     4646     1198     2732     9082 
   12168     5656    -8023   -20995   -26098   -20710    -7237     9502 
   24846    33654    32436    25147    18543    12156     3163    -6319 
  -11538    -6413     7015    14216     8833     -372    -7836   -15596 
  -21492   -19076    -9182     1308    10130    18832    26391    30523 
   31236    27928    18454     6048    -2465    -6652   -10095   -12827 
  -13208   -13014   -16328   -21428   -20872   -12395     -136    10481 
   15704    17837    20402    20602    14612     5952     2647     5551 
    8989    11886    15028    15088    10798     5425      324    -6984 
  -16043   -19402   -13849    -7163    -2548     6099    18003    23341 
   17236     5367    -5668   -15757   -23787   -24634   -15724     2596 
   25806    43055    44982    32594    14995    -1337   -14233   -20722 
  -19599   -10550     5320    18546    20846    17050    14752    11381 
     172   -17801   -34836   -41566   -30528    -4029    26397    47700 
   49790    33670    14396     4000    -1163    -6513    -9459   -10447 
  -13907   -16155   -10906    -1837     5331    10368    13896    17554 
   21550    20552    11607      533    -5294    -3935     2535    10345 
   15253    13275     2835   -11276   -21366   -24518   -22319   -15934 
   -5998     5078    15707    25478    31284    29735    19427     2245 
  -12626   -17145   -12806    -2965     8739    17023    21182    21678 
   17022     8927      413    -6671   -12270   -18459   -21940   -15935 
   -2339    11460    22017    27907    25343    13275     -954    -9900 
  -12912   -11595    -8122    -4579     -683     5553    15105    22754 
   20891    11866     5255     4347     6033     7497     4363    -5360 
  -13126   -12471    -8993    -6119     -275     7894    13177    15290 
   16830    15728    10415     2107    -7794   -13952   -11520    -2749 
    7182    14118    15657    12417     7827     5090     5073     7371 
    9705     9439     7253     3321    -2133    -5155    -6791   -11387 
  -14716   -11769    -4577     5564    18526    28695    28248    17405 
    5389      -95      796     1020    -6274   -16343   -18017    -8472 
    8318    24803    30262    21246     5242    -7535   -12525   -13150 
  -12549   -11300   -10488    -5204     9367    26923    38977    39808 
   24493    -1744   -22238   -25959   -16533    -2147    11983    20368 
   19876    14085     7744     2501    -3167   -11327   -18870   -19604 
  -11573     1958    14141    18127    13385     5737     1615     2224 
    3321     1586    -2628    -6525    -6968    -3653     1339     6905 
   12671    15642    12742     6698     4209     7238    10152     9381 
    8425     9649     8962     2577    -4656    -7496    -8251    -7009 
   -1313     5625     9026     7569     2781     -976     1753     9019 
   10864     4631    -1917    -3937    -3935    -3068     3468    14264 
   18409    12653     4494     -484    -2793    -2895      997     6735 
    9644     8874     6347     4178     2544      993     1269     4187 
    7616     7830     2922    -3836    -6968    -3439     4444    10238 
    9304     2949    -2126    -1529     2493     7581    12132    12339 
    7261     1394    -1198    -1498     -567     3214     6975     7123 
    7167     8749     8001     4114    -1860   -10442   -16942   -13558 
   -3222     4167     5024     2145     2840    11137    18820    17867 
   10611     2192    -3018    -3040     -870      977     2373     1971 
     603     2178     6647    10123    11489    11033     7217     1354 
   -2990    -6898   -12255   -15229   -11395    -1796     9263    17909 
   21466    19273    12746     3357    -6516   -10629    -3299    10353 
   17281    14085     9871     9467     9296     7329     1834    -8147 
  -14377    -9661      724     8383     9929     6575     1413    -1860 
     978     9563    18416    22114    16398     2065   -12005   -16382 
   -9877      549     6732     6673     5451     7094     9435     8741 
    4251     -162      272     2560      270    -3854    -3051      869 
    2763     4178     7913    11040    10601     8284     6008     2274 
   -4762   -11156   -10505    -3321     5498    12430    13917     8032 
    -839    -5236    -4243    -2112      780     4837     8919    14145 
   18322    16212     8622     1277    -1398     -184      486     -346 
    -387      473      807      610     1358     3269     3194    -1152 
   -5216    -2508     5427    11666    12792     9667     4653      677 
     -97     2177     5584     8649    10890    11676    10176     6443 
    2929     2232     1655    -2992    -9321   -11801    -9117    -3727 
    2045     6750     9045     8152     4355      124     -919     2201 
    6940    10840    14447    16780    14289     8129     1528    -5408 
  -10451    -8409     1414    12332    16077     9946     -148    -5391 
   -4063      -99     3348     5127     5705     6199     8592    13428 
   16995    15747    11364     6131    -2409   -12047   -14204    -9147 
   -3430     2197     8640    12135     9401     3973      126    -3225 
   -7001    -8749    -5686     2209    10935    16060    16206    12312 
    6548     1653     -939    -2729    -4421    -3828    -2304    -2887 
   -2047     4531    13123    16204    11736     4531     -315    -1679 
   -1127     -724    -1404      364     8232    15830    14889     6883 
   -2870    -9687   -10798    -7534    -1522     5406     9845    11464 
   11665     9506     5915     3346     1021     -562      891     4310 
    7468     8222     5915     3055     1012     -820    -3358    -5520 
   -4094     1364    10035    19368    22866    18357     9198     -896 
   -7137    -7533    -6048    -5998    -5751    -3615     -913     2446 
    7148    10867    12868    15044    16695    14536     7439    -1102 
   -6120    -5336     -110     5576     7562     3789    -3346    -6849 
   -2978     4037     8695     8712     4272    -1691    -4333     -426 
    7349    13404    17182    19180    15585     6384    -3045    -9576 
  -11919    -9926    -6529    -3821    -1115     2479     6453     9657 
   11946    12015     9200     7704     8943     8340     5019     2160 
     558     -259     -363    -1331    -4438    -7780    -8911    -5490 
    4456    16773    22600    17302     4941    -5377    -8564    -5904 
      45     6606    10827    12619    13162    10606     4957      248 
   -3109    -6636    -7782    -4711      203     4197     6793     9000 
   10689    10287     7335     2443    -3096    -5724    -3427      607 
    3666     5836     6577     5967     4823     3383     2192     1333 
    1659     4733     8793    10488     9170     6015     2112     -545 
      22     1513     -727    -5806    -7402    -2970     4217    10851 
   14339    13398     9674     5559     3167     3254     4680     5686 
    4291     1012       76     2521     3499     1213       63     3038 
