Origin Time       2024/04/02 04:24:00
Lat.              40.133
Long.             141.712
Depth. (km)       71
Mag.              6.0
Station Code      MYG014
Station Lat.      38.3173
Station Long.     140.6362
Station Height(m) 259
Record Time       2024/04/02 04:25:13
Sampling Freq(Hz) 100Hz
Duration Time(s)  96
Dir.              N-S
Scale Factor      7845(gal)/8223790
Max. Acc. (gal)   21.380
Last Correction   2024/04/02 04:25:13
Memo.             
[...]
   -4779    -4988    -4926    -4843    -5034    -5108    -5007    -5147 
   -5339    -5327    -5420    -5540    -5304    -4972    -4985    -5112 
   -4997    -4901    -5050    -5100    -4945    -4911    -4822    -4322 
   -3920    -4135    -4436    -4363    -4365    -4749    -5209    -5413 
   -5271    -5027    -5003    -5163    -5319    -5394    -5358    -5304 
   -5270    -5094    -4795    -4526    -4280    -4039    -3870    -3964 
   -4419    -4874    -4982    -5013    -5287    -5545    -5535    -5494 
   -5616    -5827    -5910    -5634    -5313    -5336    -5344    -5113 
   -4884    -4580    -4195    -4027    -4070    -4162    -4185    -4023 
   -3867    -4077    -4596    -4943    -4938    -5082    -5572    -5902 
   -6027    -6323    -6453    -6045    -5661    -5744    -5884    -5765 
   -5593    -5513    -5321    -4974    -4752    -4556    -4109    -3716 
   -3667    -3784    -3977    -4216    -4330    -4390    -4546    -4720 
   -4924    -5278    -5756    -6259    -6539    -6416    -6268    -6448 
   -6651    -6416    -5651    -4793    -4484    -4577    -4473    -4216 
   -4044    -3959    -4102    -4330    -4234    -4035    -4167    -4583 
   -5078    -5485    -5755    -5979    -6060    -6026    -6147    -6288 
   -6205    -5981    -5630    -5260    -5138    -5124    -4858    -4467 
   -4311    -4216    -3969    -3956    -4090    -3751    -3461    -4014 
   -4627    -4533    -4515    -4904    -4915    -4761    -5144    -5476 
   -5337    -5398    -5705    -5660    -5386    -5350    -5524    -5605 
   -5428    -5140    -4936    -4702    -4403    -4255    -4311    -4455 
   -4592    -4776    -5150    -5494    -5489    -5370    -5364    -5321 
   -5277    -5293    -5205    -4996    -4849    -5013    -5408    -5508 
   -5255    -5143    -5331    -5591    -5637    -5422    -5290    -5366 
   -5397    -5278    -5016    -4679    -4529    -4691    -4855    -4692 
   -4441    -4673    -5258    -5389    -4962    -4719    -4843    -4806 
   -4479    -4203    -4097    -4094    -4074    -3877    -3827    -4329 
   -4972    -5265    -5439    -5725    -5833    -5616    -5437    -5506 
   -5548    -5352    -4993    -4714    -4783    -5022    -4999    -4853 
   -5049    -5382    -5412    -5402    -5536    -5404    -5071    -4843 
   -4511    -4143    -3971    -3846    -4064    -4903    -5520    -5518 
   -5806    -6551    -6781    -6162    -5329    -4830    -4575    -4186 
   -3726    -3591    -3909    -4471    -5004    -5428    -5698    -5644 
   -5470    -5630    -5829    -5452    -4939    -5009    -5116    -4644 
   -4414    -5039    -5602    -5366    -4966    -5186    -5551    -5174 
   -4506    -4391    -4428    -4328    -4580    -4811    -4550    -4544 
   -5036    -5269    -5204    -5205    -4986    -4608    -4656    -4954 
   -5036    -5015    -5059    -5302    -5738    -5921    -5656    -5243 
   -4905    -4750    -4715    -4542    -4338    -4372    -4418    -4248 
   -4122    -4248    -4523    -4696    -4731    -5166    -6084    -6500 
   -6141    -5884    -6080    -6266    -5899    -5098    -4602    -4464 
   -4299    -4332    -4545    -4496    -4340    -4396    -4571    -4677 
   -4614    -4623    -5119    -5682    -5556    -5146    -5285    -5637 
   -5460    -5084    -5100    -5112    -4758    -4719    -5231    -5412 
   -5159    -5316    -5802    -5953    -5773    -5556    -5454    -5400 
   -5057    -4546    -4457    -4637    -4368    -3811    -3788    -4298 
   -4564    -4484    -4645    -5044    -5348    -5626    -5857    -5883 
   -5768    -5513    -5151    -5024    -5134    -4990    -4658    -4684 
   -4995    -5202    -5320    -5327    -5040    -4608    -4401    -4383 
   -4099    -3640    -3736    -4421    -4941    -5107    -5346    -5668 
   -5670    -5424    -5309    -5173    -4773    -4499    -4711    -5167 
   -5567    -5935    -6292    -6408    -6135    -5607    -5036    -4611 
   -4240    -3759    -3609    -3956    -4156    -4244    -4768    -5351 
   -5502    -5495    -5564    -5606    -5566    -5366    -5078    -5163 
   -5598    -5567    -4954    -4734    -5084    -5032    -4469    -4295 
   -4468    -4288    -4024    -4194    -4469    -4556    -4757    -5243 
   -5633    -5609    -5587    -5907    -6016    -5701    -5632    -5759 
   -5275    -4440    -4168    -4338    -4317    -4131    -4131    -4364 
   -4584    -4722    -4936    -5189    -5332    -5364    -5389    -5533 
   -5665    -5545    -5355    -5395    -5522    -5449    -5211    -4926 
   -4579    -4340    -4480    -4853    -5119    -5238    -5350    -5476 
   -5545    -5566    -5521    -5200    -4668    -4517    -4851    -4969 
   -4768    -4874    -5134    -5012    -4803    -4797    -4858    -5020 
   -5094    -4823    -4617    -4675    -4635    -4626    -4833    -4797 
   -4475    -4483    -4815    -4920    -4892    -5117    -5355    -5278 
   -5138    -5211    -5281    -5166    -5162    -5274    -5051    -4757 
   -4919    -5046    -4737    -4608    -4811    -4783    -4672    -4907 
   -5023    -4627    -4390    -4703    -5066    -5293    -5529    -5691 
   -5907    -6354    -6664    -6573    -6372    -6151    -5729    -5247 
   -4806    -4218    -3611    -3430    -3661    -3855    -4023    -4409 
   -4741    -4818    -4966    -5278    -5594    -5871    -5968    -6062 
   -6475    -6658    -6108    -5432    -5074    -4818    -4588    -4382 
   -4153    -3920    -3572    -3294    -3469    -3817    -3962    -4207 
   -4704    -5024    -5020    -5026    -5239    -5543    -5648    -5441 
   -5370    -5741    -6029    -5853    -5535    -5312    -5308    -5447 
   -5163    -4553    -4317    -4229    -3955    -3986    -4293    -4218 
   -3960    -4236    -4772    -4974    -5163    -5428    -5244    -4988 
   -5262    -5641    -5755    -5836    -5969    -6092    -6261    -6458 
   -6465    -6079    -5470    -4997    -4684    -4325    -3908    -3623 
   -3677    -3998    -4145    -4079    -4245    -4557    -4698    -4820 
   -4909    -4754    -4548    -4629    -5090    -5620    -5736    -5599 
   -5834    -6330    -6386    -6075    -6019    -5977    -5509    -5098 
   -4897    -4418    -3915    -3871    -4017    -4017    -3983    -4131 
   -4396    -4513    -4642    -5078    -5366    -5211    -5130    -5211 
   -5088    -4897    -4793    -4777    -4985    -5163    -4977    -4797 
   -5036    -5449    -5640    -5680    -5892    -6092    -5904    -5798 
   -6149    -6100    -5285    -4731    -4891    -4993    -4564    -4099 
   -4078    -4104    -3894    -3870    -4087    -4270    -4437    -4527 
   -4571    -4818    -5049    -5023    -5107    -5471    -5790    -5788 
   -5455    -5167    -5144    -5031    -4765    -4653    -4673    -4827 
   -5166    -5379    -5341    -5250    -5096    -4943    -4951    -4707 
   -3971    -3573    -3894    -4091    -3915    -4024    -4494    -5042 
   -5629    -5977    -5945    -5908    -5985    -6064    -6251    -6327 
   -5896    -5298    -5065    -4974    -4668    -4328    -4158    -4067 
   -4110    -4457    -4912    -5279    -5665    -5884    -5710    -5539 
   -5621    -5567    -5205    -4907    -4976    -5252    -5232    -4741 
   -4365    -4442    -4472    -4345    -4560    -5119    -5644    -6033 
   -6481    -7015    -7071    -6520    -6176    -6045    -5404    -4710 
   -4594    -4459    -4016    -3974    -4469    -4743    -4545    -4504 
   -4838    -5100    -5189    -5242    -5232    -5362    -5587    -5346 
   -4927    -5154    -5529    -5341    -5200    -5422    -5486    -5382 
   -5348    -5252    -5071    -4941    -4931    -5007    -4855    -4388 
   -4105    -4121    -4027    -3885    -3948    -4095    -4364    -4869 
   -5320    -5513    -5601    -5613    -5378    -4908    -4518    -4365 
   -4332    -4459    -4757    -4982    -5003    -4880    -4842    -5152 
   -5486    -5329    -5035    -5073    -5059    -4702    -4369    -4270 
   -4222    -4168    -4228    -4423    -4530    -4406    -4402    -4797 
   -5155    -5148    -5244    -5655    -5886    -5917    -6212    -6520 
   -6340    -5930    -5680    -5437    -5097    -4903    -4716    -4314 
   -4083    -4147    -4135    -3981    -3697    -3430    -3649    -4234 
   -4672    -4996    -5344    -5603    -5773    -5818    -5692    -5501 
   -5250    -4957    -4799    -4838    -4962    -5065    -5146    -5201 
   -5208    -5247    -5282    -5273    -5386    -5449    -5158    -4865 
   -4926    -5104    -5113    -4996    -5016    -5216    -5350    -5394 
   -5481    -5571    -5671    -5771    -5694    -5433    -5152    -4860 
   -4607    -4581    -4606    -4359    -4145    -4325    -4542    -4483 
   -4445    -4607    -4542    -4104    -3971    -4382    -4603    -4479 
   -4602    -4990    -5359    -5686    -5829    -5695    -5576    -5667 
   -5717    -5553    -5370    -5269    -5197    -5174    -5124    -4985 
   -4976    -5171    -5294    -5344    -5551    -5732    -5699    -5613 
   -5474    -5316    -5262    -5016    -4531    -4338    -4473    -4552 
   -4617    -4801    -4961    -5031    -5040    -5005    -5058    -5212 
   -5238    -5120    -5105    -5212    -5360    -5638    -6016    -6173 
   -5825    -5346    -5364    -5471    -4909    -4166    -3924    -3865 
   -3746    -3808    -3998    -4078    -4105    -4403    -4938    -5101 
   -4764    -4444    -4205    -3824    -3435    -3076    -2786    -2984 
   -3558    -3851    -4118    -4953    -5907    -6447    -6785    -7138 
   -7327    -7119    -6608    -6046    -5451    -4873    -4546    -4337 
   -3991    -3808    -3994    -4117    -4070    -4257    -4530    -4527 
   -4630    -5115    -5520    -5648    -5887    -6304    -6462    -6262 
   -6049    -5871    -5648    -5544    -5441    -5205    -5286    -5765 
   -6016    -5954    -5923    -5852    -5746    -5729    -5495    -5058 
   -4911    -5036    -5015    -4820    -4762    -4908    -4918    -4575 
   -4133    -3943    -4009    -4141    -4423    -5022    -5692    -6138 
   -6392    -6457    -6193    -5621    -4855    -4168    -3989    -4140 
   -4023    -3906    -4324    -4668    -4413    -4349    -4796    -4823 
   -4452    -4780    -5583    -5856    -5834    -6039    -6211    -6158 
   -5954    -5668    -5481    -5436    -5471    -5557    -5508    -5251 
   -5065    -5084    -4988    -4584    -4302    -4422    -4473    -4179 
   -3966    -4068    -4175    -4135    -4190    -4237    -3902    -3546 
   -3781    -4278    -4401    -4399    -4962    -5931    -6431    -6382 
   -6494    -6697    -6465    -6168    -6324    -6493    -6223    -5738 
   -5144    -4410    -3898    -3717    -3403    -2884    -2708    -3013 
   -3330    -3499    -3771    -4141    -4464    -4777    -4989    -5012 
   -5053    -5057    -4801    -4700    -5120    -5491    -5418    -5405 
   -5718    -5977    -6003    -5850    -5472    -5076    -4918    -4722 
   -4306    -4071    -4229    -4521    -4730    -4850    -4992    -5131 
   -5032    -4773    -4693    -4781    -4841    -4907    -4954    -4835 
   -4762    -5051    -5528    -5892    -6199    -6509    -6673    -6632 
   -6442    -5961    -5109    -4341    -4156    -4245    -3950    -3353 
   -2932    -2721    -2832    -3451    -4051    -4309    -4754    -5420 
   -5690    -5543    -5486    -5630    -5692    -5640    -5690    -5840 
   -5956    -6049    -6170    -6315    -6388    -6258    -6049    -6022 
   -5922    -5332    -4733    -4703    -4753    -4405    -4036    -3971 
   -4005    -3854    -3645    -3813    -4190    -4297    -4496    -5094 
   -5578    -6012    -6862    -7564    -7542    -7258    -7096    -6843 
   -6409    -5867    -5270    -4696    -4033    -3319    -2941    -2951 
   -3036    -3159    -3388    -3704    -4197    -4753    -5031    -5036 
   -5061    -5216    -5348    -5319    -5328    -5572    -5814    -5899 
   -6016    -6166    -5996    -5281    -4383    -3812    -3395    -2864 
   -2573    -2722    -3065    -3549    -4261    -4992    -5269    -5070 
   -5132    -5590    -5609    -5240    -5302    -5593    -5562    -5451 
   -5468    -5495    -5607    -5729    -5594    -5329    -5217    -5138 
   -4797    -4294    -4008    -3902    -3773    -3947    -4572    -5088 
   -5370    -5954    -6772    -7221    -7331    -7626    -8112    -8351 
   -8182    -7838    -7539    -7345    -7310    -7454    -7585    -7672 
   -7906    -7979    -7477    -6828    -6466    -5941    -4995    -4175 
   -3697    -3191    -2681    -2423    -2195    -1888    -1804    -1881 
   -1891    -1895    -1918    -2003    -2215    -2455    -2817    -3321 
   -3662    -3877    -4120    -4344    -4772    -5350    -5609    -5647 
   -5908    -6388    -6659    -6357    -5722    -5208    -4706    -4101 
   -3618    -3084    -2390    -2185    -2690    -3289    -3792    -4317 
   -4773    -5414    -6409    -7277    -7681    -7830    -8097    -8355 
   -8000    -7206    -6596    -5668    -3794    -1620      168     1726 
    3025     3670     3537     2359       14    -2633    -4966    -7430 
  -10015   -11831   -12555   -12663   -12195   -10922    -9652    -9231 
   -8816    -7508    -5988    -4779    -3527    -2392    -1524     -500 
     338      157     -966    -2396    -3623    -4383    -4941    -5722 
   -6471    -6524    -5891    -5250    -4820    -4437    -4572    -5725 
   -7371    -8908   -10449   -11803   -12568   -13165   -13871   -14064 
  -13432   -12197   -10458    -8471    -6277    -3376       -6     2782 
    4700     6060     6646     5975     4112     1664    -1028    -4166 
   -7611   -10471   -11954   -12024   -10918    -8873    -6621    -4627 
   -2103     1471     5127     7875     9652    10782    11600    11862 
   10755     8124     4445     -297    -6193   -12649   -18782   -23731 
  -26735   -27419   -26145   -23749   -20347   -15363    -9221    -3643 
      25     2058     3447     4028     3088     1108    -1132    -3654 
   -6388    -8916   -11230   -13539   -15492   -16344   -15861   -14485 
  -12638   -10397    -7932    -5755    -4140    -2747    -1258      -21 
     116    -1059    -2490    -3099    -2986    -2828    -3111    -4121 
   -5657    -6824    -7177    -7670    -8885    -9428    -7915    -4769 
    -953     3109     7002     9684     9725     6889     2596    -1706 
   -5111    -7068    -8129    -9177    -9705    -8646    -6278    -3865 
   -2178    -1313    -1050     -830     -630    -1759    -4704    -7560 
   -8796    -9132    -9300    -9093    -8999    -9876   -11287   -12051 
  -11699   -10586    -9428    -8664    -7685    -5557    -2745     -708 
    -164     -961    -2421    -3542    -3962    -3998    -3846    -3649 
   -3426    -3119    -3226    -3952    -4538    -4942    -6081    -7735 
   -8503    -7572    -5228    -2334      307     2316     3657     4113 
    3038      202    -3623    -7402   -10397   -12272   -13109   -12818 
  -11029    -8147    -5281    -3034    -1557    -1220    -2242    -4112 
   -6106    -8001    -9923   -11974   -13981   -15157   -14270   -10926 
   -6462    -2785     -646      376      847      913      216    -1945 
   -5678    -9648   -11871   -11591    -9983    -8645    -7684    -6156 
   -3834    -1347      681     1836     1979     1466      753     -259 
   -1822    -3441    -4314    -4299    -3859    -3335    -2745    -2376 
   -2627    -3130    -3384    -3693    -4361    -5067    -5624    -6060 
   -6006    -5196    -3863    -2200     -621      137       31     -531 
   -1618    -3269    -5316    -7830   -10492   -12397   -13000   -12383 
  -10878    -9001    -7419    -6559    -6158    -5625    -4959    -4788 
   -5622    -7285    -8637    -8394    -6766    -5220    -4499    -4193 
   -3890    -3530    -3473    -4457    -6496    -8630   -10299   -11620 
  -12788   -14102   -15280   -15057   -12807    -9288    -5184     -912 
    2548     4777     6497     7705     7654     6643     5296     3343 
     920     -953    -2034    -3082    -4307    -5096    -5151    -5059 
   -5568    -6991    -9271   -11676   -13115   -13610   -13852   -13473 
  -11682    -8743    -5421    -2223      178     1173     1312     1834 
    2627     2278      503    -1436    -2505    -2720    -2693    -2749 
   -2779    -3217    -4815    -7114    -9005   -10659   -12625   -14084 
  -14210   -13466   -12329   -10763    -9040    -7626    -6555    -5458 
   -4133    -2817    -1783    -1020     -168     1121     2409     2967 
    2836     2130      500    -1709    -3681    -5648    -7998    -9895 
  -10720   -11072   -11238   -10636    -9040    -7072    -5537    -4865 
   -4788    -4604    -4198    -4179    -4773    -5725    -7248    -9337 
  -10650   -10210    -8953    -7665    -5637    -2763     -490      287 
       4     -920    -2296    -3800    -5327    -6724    -7762    -8679 
   -9485    -9491    -8662    -8139    -8461    -8402    -6835    -4531 
   -2532     -895     -105     -522     -666      649     2131     2412 
    2085     1826     1071     -523    -2481    -4818    -7873   -10758 
  -12286   -12634   -12171   -10615    -8472    -6839    -5522    -3608 
   -1333      379     1227     1260      607     -226    -1067    -2396 
   -4151    -5509    -6116    -6416    -6948    -7696    -8311    -8966 
   -9830   -10323   -10395   -10579   -10424    -9495    -8445    -7403 
   -5925    -4295    -3019    -2340    -2295    -2320    -2097    -2251 
   -3126    -4336    -5541    -6482    -6887    -6755    -6571    -6909 
   -7350    -7115    -6674    -6592    -6297    -5525    -4681    -3694 
   -2239     -602      406      530      399       82    -1011    -2288 
   -2683    -2835    -3757    -4885    -5562    -6404    -7858    -9024 
   -9030    -8646    -9124   -10046   -10162    -9437    -8536    -7398 
   -5778    -3996    -2138      -93     1368     1275     -141    -1910 
   -3466    -4672    -5356    -5275    -4652    -4275    -4622    -5483 
   -6353    -6983    -7834    -9194   -10197    -9983    -8764    -6909 
   -4523    -2095       74     2431     4657     5171     3415      504 
   -2586    -5566    -8260   -10562   -12197   -12831   -12568   -11614 
   -9850    -7447    -5367    -4388    -4171    -4072    -3946    -3715 
   -3238    -2586    -1934    -1227     -109     1129     1117     -688 
   -3121    -5386    -7916   -10827   -13327   -14774   -15322   -15267 
  -14311   -12383   -10265    -8132    -5487    -2947    -1367     -449 
      51      174      441      936     1156      761     -249    -1362 
   -2289    -3501    -5034    -6436    -7489    -7646    -6671    -5632 
   -5248    -4847    -4016    -3221    -2592    -2131    -2365    -3203 
   -3770    -4005    -4523    -5117    -5147    -4792    -4631    -4756 
   -5178    -6070    -7196    -8147    -8716    -8607    -7815    -7041 
   -6631    -6176    -5679    -5749    -6756    -8282    -9340    -9583 
   -9448    -8803    -7346    -5629    -4012    -2184     -287      876 
     851       51     -967    -2230    -3681    -4903    -5957    -6948 
   -7250    -6574    -5547    -4696    -4091    -3888    -4363    -5321 
   -6018    -6048    -5486    -4266    -2610    -1317     -684     -391 
    -494    -1337    -2855    -4671    -6589    -8473    -9911   -10550 
  -10304    -9331    -8110    -6799    -5063    -3177    -2174    -2613 
   -3919    -4985    -5346    -5571    -6214    -6951    -7210    -7053 
   -6912    -6783    -6446    -6247    -6670    -7520    -8210    -8576 
   -8819    -8614    -7584    -6188    -4556    -2430     -735     -147 
     287      808      519     -544    -1711    -2851    -4207    -5686 
   -6577    -6702    -6920    -7442    -7476    -7106    -7167    -7473 
   -7339    -7067    -7227    -7172    -6093    -4648    -3325    -1570 
