Origin Time       2024/04/02 04:24:00
Lat.              40.133
Long.             141.712
Depth. (km)       71
Mag.              6.0
Station Code      NIG006
Station Lat.      38.4514
Station Long.     139.4963
Station Height(m) 4
Record Time       2024/04/02 04:25:47
Sampling Freq(Hz) 100Hz
Duration Time(s)  60
Dir.              U-D
Scale Factor      7845(gal)/8223790
Max. Acc. (gal)   0.289
Last Correction   2024/04/02 04:25:46
Memo.             
[...]
   18553    18550    18562    18613    18669    18679    18636    18573 
   18527    18511    18512    18516    18542    18604    18667    18704 
   18708    18688    18669    18638    18574    18513    18480    18461 
   18445    18432    18426    18426    18432    18446    18457    18459 
   18451    18428    18416    18439    18469    18496    18546    18593 
   18617    18639    18635    18596    18559    18528    18485    18450 
   18443    18466    18508    18536    18547    18566    18581    18563 
   18527    18481    18436    18416    18407    18400    18401    18395 
   18378    18345    18291    18247    18252    18304    18370    18427 
   18473    18497    18513    18539    18550    18536    18509    18474 
   18458    18482    18524    18574    18628    18655    18665    18677 
   18690    18698    18686    18650    18623    18609    18584    18559 
   18543    18515    18496    18505    18504    18488    18463    18423 
   18408    18418    18420    18438    18455    18463    18489    18530 
   18565    18589    18596    18594    18608    18631    18639    18620 
   18589    18559    18555    18581    18607    18617    18613    18590 
   18569    18551    18531    18490    18438    18414    18422    18428 
   18439    18461    18473    18482    18519    18566    18580    18569 
   18570    18584    18589    18578    18543    18488    18426    18384 
   18392    18432    18466    18496    18512    18504    18497    18497 
   18488    18462    18428    18409    18411    18418    18418    18407 
   18407    18419    18416    18424    18462    18486    18478    18451 
   18428    18427    18430    18418    18409    18432    18469    18489 
   18496    18508    18535    18573    18590    18576    18553    18539 
   18523    18515    18512    18499    18492    18499    18481    18439 
   18426    18453    18495    18509    18489    18485    18528    18570 
   18584    18570    18524    18481    18458    18432    18414    18416 
   18436    18466    18501    18544    18588    18616    18630    18617 
   18588    18571    18566    18557    18559    18588    18617    18636 
   18640    18625    18624    18643    18635    18597    18559    18512 
   18453    18411    18400    18385    18355    18339    18342    18351 
   18370    18389    18405    18427    18434    18436    18462    18484 
   18478    18458    18445    18461    18504    18547    18561    18546 
   18534    18520    18482    18435    18396    18373    18380    18404 
   18423    18436    18441    18419    18401    18416    18438    18454 
   18466    18468    18476    18485    18477    18454    18423    18400 
   18405    18426    18431    18419    18399    18378    18366    18372 
   18400    18443    18477    18503    18540    18582    18613    18640 
   18651    18644    18628    18608    18588    18563    18532    18517 
   18540    18600    18679    18740    18762    18754    18735    18723 
   18706    18670    18628    18586    18535    18485    18446    18426 
   18424    18431    18447    18474    18501    18512    18492    18463 
   18449    18441    18439    18453    18457    18461    18495    18532 
   18544    18547    18558    18577    18608    18640    18648    18613 
   18531    18445    18396    18368    18345    18335    18328    18322 
   18333    18370    18415    18432    18424    18419    18411    18397 
   18399    18405    18409    18427    18455    18476    18493    18504 
   18499    18497    18503    18500    18492    18484    18473    18474 
   18500    18539    18559    18551    18546    18536    18511    18496 
   18488    18463    18438    18414    18388    18368    18355    18346 
   18327    18324    18377    18457    18523    18563    18577    18598 
   18646    18685    18704    18689    18632    18578    18557    18543 
   18536    18540    18549    18561    18569    18566    18569    18562 
   18530    18492    18453    18414    18396    18389    18391    18423 
   18481    18536    18566    18562    18540    18526    18516    18499 
   18481    18469    18457    18445    18441    18449    18461    18472 
   18484    18503    18527    18544    18532    18493    18468    18468 
   18478    18489    18493    18482    18488    18531    18567    18588 
   18613    18615    18580    18557    18554    18542    18527    18504 
   18469    18454    18450    18439    18432    18418    18404    18427 
   18468    18489    18490    18474    18454    18441    18442    18461 
   18503    18549    18582    18628    18688    18727    18729    18705 
   18670    18642    18620    18598    18565    18512    18469    18462 
   18465    18461    18466    18466    18468    18485    18489    18481 
   18484    18473    18459    18468    18480    18492    18507    18516 
   18531    18555    18574    18577    18554    18517    18501    18501 
   18474    18428    18401    18378    18360    18376    18415    18461 
   18505    18522    18522    18543    18580    18604    18613    18624 
   18644    18666    18674    18655    18616    18574    18550    18539 
   18515    18477    18439    18396    18358    18338    18328    18330 
   18337    18335    18347    18388    18438    18505    18571    18589 
   18570    18544    18523    18528    18553    18563    18565    18563 
   18555    18549    18527    18485    18466    18472    18451    18404 
   18354    18312    18299    18310    18333    18369    18397    18418 
   18457    18490    18509    18532    18530    18513    18522    18535 
   18546    18554    18547    18546    18547    18534    18532    18561 
   18580    18571    18559    18551    18549    18544    18522    18484 
   18472    18492    18528    18567    18585    18594    18619    18647 
   18670    18667    18616    18554    18530    18512    18481    18470 
   18490    18531    18573    18582    18561    18519    18459    18420 
   18416    18416    18420    18445    18478    18517    18558    18582 
   18586    18573    18538    18481    18426    18391    18381    18387 
   18403    18446    18508    18557    18590    18604    18600    18605 
   18609    18604    18592    18561    18515    18485    18472    18468 
   18457    18418    18366    18346    18357    18372    18388    18395 
   18378    18357    18347    18345    18355    18377    18403    18442 
   18485    18511    18519    18512    18486    18466    18459    18462 
   18481    18497    18503    18516    18523    18522    18527    18509 
   18469    18453    18461    18466    18466    18462    18458    18472 
   18505    18539    18576    18613    18644    18663    18662    18644 
   18638    18646    18643    18638    18632    18596    18546    18497 
   18447    18435    18459    18476    18489    18495    18473    18453 
   18436    18408    18382    18365    18355    18366    18392    18436 
   18485    18515    18551    18600    18608    18574    18528    18476 
   18431    18422    18404    18370    18365    18382    18405    18424 
   18427    18422    18411    18377    18341    18341    18354    18342 
   18328    18312    18284    18276    18288    18303    18323    18337 
   18338    18339    18337    18341    18351    18357    18372    18399 
   18428    18472    18513    18551    18600    18647    18659    18648 
   18644    18638    18623    18616    18619    18609    18581    18554 
   18551    18577    18613    18631    18617    18584    18543    18527 
   18531    18535    18551    18570    18593    18636    18677    18694 
   18689    18659    18646    18650    18632    18584    18527    18490 
   18495    18509    18504    18482    18465    18469    18490    18524 
   18558    18596    18630    18642    18638    18640    18648    18658 
   18655    18638    18628    18624    18611    18585    18549    18513 
   18495    18484    18462    18416    18357    18312    18292    18300 
   18350    18408    18458    18501    18527    18549    18563    18539 
   18493    18447    18396    18372    18382    18404    18423    18435 
   18459    18503    18544    18577    18597    18617    18639    18644 
   18628    18596    18538    18468    18414    18387    18374    18362 
   18349    18358    18397    18415    18404    18396    18361    18308 
   18293    18312    18342    18392    18451    18524    18601    18662 
   18716    18750    18743    18728    18720    18711    18690    18635 
   18559    18490    18428    18388    18362    18331    18303    18293 
   18308    18331    18354    18387    18422    18457    18488    18512 
   18528    18526    18513    18519    18534    18539    18550    18566 
   18578    18607    18647    18670    18684    18690    18678    18677 
   18685    18686    18692    18673    18625    18598    18569    18504 
   18436    18378    18335    18324    18331    18337    18343    18346 
   18349    18372    18407    18432    18459    18492    18519    18539 
   18553    18558    18563    18558    18536    18523    18524    18524 
   18516    18497    18470    18447    18415    18370    18337    18310 
   18291    18306    18333    18347    18355    18364    18381    18414 
   18445    18477    18500    18495    18500    18536    18562    18573 
   18585    18589    18593    18613    18627    18635    18639    18608 
   18563    18544    18523    18489    18457    18427    18422    18431 
   18422    18405    18387    18366    18382    18432    18470    18501 
   18522    18522    18530    18555    18586    18621    18650    18654 
   18663    18690    18694    18675    18663    18648    18631    18620 
   18594    18562    18542    18539    18565    18600    18600    18576 
   18536    18465    18401    18370    18346    18335    18346    18373 
   18438    18513    18570    18615    18630    18612    18596    18567 
   18519    18468    18415    18381    18387    18405    18423    18441 
   18453    18459    18461    18455    18443    18431    18424    18412 
   18403    18427    18459    18466    18465    18489    18528    18559 
   18576    18571    18540    18496    18469    18461    18450    18419 
   18380    18357    18345    18341    18360    18393    18423    18446 
   18455    18462    18474    18496    18515    18515    18517    18539 
   18549    18544    18553    18562    18571    18581    18580    18565 
   18553    18551    18565    18588    18604    18601    18586    18567 
   18551    18542    18544    18551    18565    18594    18619    18625 
   18623    18601    18561    18511    18446    18392    18381    18392 
   18396    18411    18446    18495    18528    18534    18532    18535 
   18523    18492    18454    18419    18405    18424    18459    18489 
   18504    18505    18508    18509    18497    18481    18476    18476 
   18465    18445    18426    18415    18411    18403    18401    18414 
   18441    18470    18482    18474    18473    18480    18481    18478 
   18478    18474    18466    18474    18493    18505    18505    18493 
   18486    18488    18484    18488    18490    18470    18455    18473 
   18511    18559    18613    18655    18669    18665    18655    18636 
   18588    18520    18477    18458    18436    18431    18461    18488 
   18504    18522    18547    18578    18586    18562    18539    18522 
   18500    18482    18459    18428    18420    18434    18428    18403 
   18380    18366    18355    18350    18351    18372    18399    18408 
   18428    18469    18488    18504    18539    18570    18601    18640 
   18662    18651    18604    18538    18496    18484    18458    18431 
   18426    18415    18409    18434    18455    18455    18445    18426 
   18431    18474    18515    18540    18551    18557    18576    18601 
   18616    18624    18615    18584    18559    18557    18576    18600 
   18598    18578    18567    18567    18569    18561    18538    18517 
   18528    18547    18555    18569    18584    18581    18580    18589 
   18590    18577    18571    18582    18607    18625    18623    18608 
   18594    18573    18550    18540    18534    18523    18499    18459 
   18438    18445    18449    18447    18446    18451    18466    18462 
   18435    18422    18395    18360    18362    18384    18387    18380 
   18362    18337    18337    18358    18370    18370    18377    18395 
   18423    18450    18472    18499    18516    18500    18492    18511 
   18522    18505    18481    18469    18476    18486    18474    18450 
   18450    18477    18500    18512    18516    18515    18511    18511 
   18509    18497    18484    18488    18493    18501    18522    18544 
   18569    18581    18570    18561    18546    18524    18520    18513 
   18490    18472    18458    18450    18455    18459    18462    18470 
   18484    18497    18509    18522    18534    18543    18544    18534 
   18528    18523    18512    18520    18536    18544    18553    18547 
   18530    18519    18508    18495    18470    18438    18420    18414 
   18412    18426    18445    18473    18516    18576    18644    18693 
   18708    18702    18678    18646    18613    18569    18509    18453 
   18431    18446    18466    18481    18497    18501    18493    18488 
   18484    18465    18427    18392    18381    18395    18428    18473 
   18512    18534    18550    18570    18584    18584    18584    18580 
   18562    18532    18501    18470    18434    18392    18354    18330 
   18328    18341    18355    18365    18388    18432    18469    18490 
   18497    18478    18453    18439    18427    18423    18434    18450 
   18473    18500    18519    18523    18497    18446    18395    18355 
   18331    18316    18299    18291    18318    18362    18419    18495 
   18553    18590    18646    18712    18765    18802    18801    18762 
   18725    18698    18671    18646    18605    18554    18528    18522 
   18507    18490    18468    18436    18428    18445    18469    18497 
   18527    18550    18571    18584    18565    18536    18527    18515 
   18503    18509    18508    18493    18481    18466    18466    18486 
   18507    18528    18535    18526    18544    18576    18585    18597 
   18608    18613    18639    18670    18690    18686    18647    18600 
   18555    18503    18465    18446    18430    18426    18450    18495 
   18526    18517    18504    18512    18528    18542    18554    18561 
   18554    18543    18539    18528    18504    18485    18473    18463 
   18454    18445    18424    18382    18333    18300    18292    18292 
   18300    18331    18381    18445    18509    18561    18597    18609 
   18596    18578    18559    18536    18528    18519    18492    18465 
   18442    18418    18388    18353    18316    18296    18292    18293 
   18306    18333    18365    18407    18470    18542    18604    18644 
   18659    18657    18643    18611    18561    18508    18469    18450 
   18450    18461    18465    18463    18461    18461    18485    18511 
   18524    18540    18538    18532    18551    18570    18574    18567 
   18565    18590    18624    18632    18620    18593    18563    18540 
   18523    18511    18496    18469    18445    18449    18474    18500 
   18513    18523    18531    18535    18540    18550    18551    18530 
   18507    18507    18513    18515    18500    18461    18423    18404 
   18380    18347    18324    18312    18315    18337    18364    18396 
   18419    18423    18431    18451    18473    18481    18473    18465 
   18474    18496    18519    18530    18528    18519    18513    18516 
   18517    18505    18473    18439    18423    18412    18419    18435 
   18432    18426    18439    18470    18513    18549    18561    18567 
   18576    18578    18586    18600    18593    18571    18559    18555 
   18565    18589    18600    18586    18565    18544    18519    18490 
   18472    18453    18445    18446    18436    18432    18434    18424 
   18427    18445    18462    18488    18509    18519    18535    18553 
   18547    18520    18496    18482    18472    18481    18509    18524 
   18530    18540    18551    18565    18569    18555    18539    18517 
   18495    18484    18482    18478    18473    18477    18497    18524 
   18538    18544    18538    18515    18504    18517    18524    18524 
   18526    18527    18535    18540    18534    18532    18527    18513 
   18512    18509    18504    18513    18512    18493    18484    18485 
   18490    18477    18436    18409    18415    18427    18441    18450 
   18455    18472    18504    18540    18566    18569    18555    18538 
   18527    18519    18511    18499    18477    18477    18509    18538 
   18543    18546    18535    18507    18488    18482    18477    18481 
   18482    18482    18501    18520    18517    18503    18495    18497 
   18504    18496    18474    18450    18416    18381    18364    18362 
   18376    18404    18439    18484    18540    18594    18630    18635 
   18631    18632    18624    18604    18581    18551    18528    18528 
   18524    18501    18481    18462    18438    18439    18469    18508 
   18547    18563    18570    18592    18604    18588    18559    18520 
   18482    18465    18455    18457    18469    18461    18457    18478 
   18490    18499    18526    18536    18532    18542    18557    18562 
   18550    18512    18469    18443    18441    18447    18445    18439 
   18439    18443    18445    18427    18397    18389    18403    18405 
   18400    18415    18426    18411    18418    18454    18476    18488 
   18493    18489    18489    18478    18455    18435    18401    18366 
   18361    18376    18399    18427    18439    18434    18447    18481 
   18508    18530    18543    18538    18524    18516    18504    18486 
   18469    18453    18446    18455    18476    18500    18516    18511 
   18493    18476    18453    18422    18381    18351    18365    18404 
   18443    18499    18550    18569    18585    18620    18655    18675 
   18674    18657    18640    18631    18619    18588    18539    18489 
   18458    18441    18427    18416    18404    18400    18418    18453 
   18493    18544    18594    18619    18643    18692    18728    18717 
   18684    18654    18634    18624    18617    18603    18580    18555 
   18538    18520    18500    18493    18490    18485    18495    18524 
   18562    18578    18566    18555    18544    18507    18462    18416 
   18361    18324    18324    18343    18378    18418    18439    18461 
   18499    18530    18527    18507    18481    18457    18455    18481 
   18497    18496    18504    18532    18565    18603    18632    18627 
   18590    18542    18500    18469    18431    18399    18385    18377 
   18391    18423    18457    18499    18538    18559    18574    18570 
   18549    18516    18474    18459    18480    18489    18480    18486 
   18503    18516    18535    18561    18574    18566    18539    18512 
   18485    18449    18415    18396    18389    18400    18436    18473 
   18501    18523    18528    18531    18555    18576    18559    18516 
   18458    18427    18428    18423    18431    18469    18501    18555 
   18631    18661    18640    18611    18565    18516    18478    18445 
   18423    18426    18441    18462    18473    18447    18409    18388 
   18373    18373    18392    18405    18399    18385    18389    18415 
   18445    18466    18485    18505    18526    18547    18558    18558 
   18558    18553    18551    18565    18576    18581    18586    18582 
   18589    18615    18634    18632    18630    18625    18620    18613 
   18597    18574    18550    18516    18490    18481    18473    18480 
