Origin Time       2024/04/02 04:24:00
Lat.              40.133
Long.             141.712
Depth. (km)       71
Mag.              6.0
Station Code      SIT008
Station Lat.      35.9829
Station Long.     139.7456
Station Height(m) 7
Record Time       2024/04/02 04:26:35
Sampling Freq(Hz) 100Hz
Duration Time(s)  93
Dir.              N-S
Scale Factor      7845(gal)/8223790
Max. Acc. (gal)   1.591
Last Correction   2024/04/02 04:26:36
Memo.             
[...]
     900      911      905      878      838      795      754      724 
     702      679      639      573      494      425      386      388 
     437      513      595      672      734      780      810      828 
     827      793      746      711      697      702      712      726 
     739      731      689      616      526      441      365      287 
     217      167      133      124      140      178      232      268 
     247      176       95       48       55      110      199      318 
     450      585      731      878     1023     1161     1285     1406 
    1528     1637     1729     1800     1852     1894     1923     1933 
    1915     1861     1780     1682     1574     1476     1389     1296 
    1182     1042      869      668      452      244       49     -124 
    -267     -388     -502     -619     -734     -822     -862     -846 
    -793     -743     -711     -688     -654     -611     -567     -507 
    -438     -384     -332     -282     -229     -153      -72        0 
      81      174      294      434      562      672      772      861 
     945     1016     1065     1085     1069     1034     1001      972 
     961      965      970      984     1009     1035     1065     1094 
    1108     1096     1055      990      926      882      861      866 
     905      966     1038     1116     1161     1144     1090     1008 
     904      787      670      573      492      433      391      348 
     306      264      206      137       52      -63     -187     -303 
    -405     -473     -502     -502     -491     -491     -506     -533 
    -560     -572     -561     -522     -456     -368     -263     -133 
      17      182      333      453      535      583      623      684 
     765      858      963     1075     1178     1285     1393     1482 
    1541     1560     1541     1513     1491     1464     1418     1364 
    1329     1306     1278     1256     1231     1167     1063      942 
     837      774      739      710      685      656      611      584 
     598      634      685      741      772      792      841      922 
    1008     1063     1066     1023      965      911      866      842 
     846      866      882      882      861      812      739      639 
     522      407      311      240      195      176      184      229 
     310      407      491      523      495      450      426      433 
     465      523      608      710      799      869      908      919 
     926      936      938      918      877      827      785      758 
     747      739      716      677      622      554      487      430 
     402      386      360      332      306      282      263      234 
     190      139       91       66       54       35       14        2 
       0       12       43       83      125      179      263      390 
     533      649      727      765      772      774      761      718 
     642      541      453      399      359      319      267      191 
     102       -9     -148     -292     -430     -560     -672     -754 
    -801     -808     -788     -765     -745     -729     -710     -670 
    -625     -573     -502     -406     -291     -163      -28      112 
     253      388      513      631      754      888     1017     1135 
    1252     1371     1485     1571     1602     1584     1544     1494 
    1449     1418     1390     1354     1305     1259     1232     1216 
    1194     1181     1182     1196     1205     1202     1190     1173 
    1140     1093     1038      988      946      907      874      854 
     838      805      756      684      587      468      344      225 
     120       37      -18      -48      -44      -32      -39      -49 
     -32        5       49       98      136      157      184      225 
     288      388      506      611      700      774      841      918 
    1000     1080     1152     1208     1246     1251     1219     1185 
    1163     1136     1115     1105     1105     1111     1112     1115 
    1125     1143     1181     1233     1267     1286     1289     1254 
    1197     1147     1112     1088     1058     1001      915      812 
     720      660      638      633      610      565      510      456 
     411      368      306      226      140       58      -22     -110 
    -193     -260     -319     -379     -423     -441     -440     -419 
    -372     -318     -271     -226     -193     -178     -172     -168 
    -167     -157     -120      -44       54      164      280      390 
     486      564      614      643      666      707      780      876 
     974     1065     1147     1225     1294     1350     1402     1443 
    1453     1452     1449     1437     1429     1443     1458     1449 
    1409     1355     1301     1254     1209     1159     1104     1051 
    1015      994      982      965      918      830      712      581 
     442      287      114      -49     -182     -282     -359     -415 
    -449     -444     -409     -369     -341     -329     -338     -365 
    -386     -380     -336     -249     -143      -49       21       82 
     145      211      280      338      373      390      411      445 
     496      557      606      635      642      637      629      608 
     591      581      562      556      585      638      696      734 
     737      703      649      583      504      430      379      332 
     274      234      233      264      324      384      414      429 
     440      440      434      425      391      336      292      279 
     301      345      399      449      480      495      496      498 
     535      598      653      710      765      808      855      920 
    1001     1084     1143     1173     1173     1158     1151     1152 
    1161     1181     1198     1193     1167     1128     1077     1030 
     996      951      893      837      792      766      757      761 
     772      770      751      712      665      626      610      612 
     619      621      621      619      604      585      581      583 
     567      537      502      457      399      332      265      213 
     190      197      205      184      137       89       64       87 
     151      230      307      359      382      387      390      413 
     459      510      549      564      568      569      568      554 
     544      541      540      544      556      562      553      529 
     506      503      511      508      503      511      541      579 
     621      664      697      730      783      843      900      959 
    1021     1086     1165     1248     1321     1377     1406     1409 
    1383     1335     1269     1179     1066      947      838      735 
     650      588      546      515      480      437      391      342 
     279      182       66      -28      -89     -125     -156     -193 
    -228     -243     -236     -213     -178     -153     -155     -175 
    -191     -193     -180     -172     -178     -199     -237     -288 
    -342     -386     -414     -423     -413     -396     -375     -342 
    -311     -290     -256     -213     -156      -68       36      141 
     245      342      433      531      657      815      980     1117 
    1228     1320     1393     1466     1543     1611     1651     1655 
    1651     1663     1695     1742     1804     1865     1892     1880 
    1840     1775     1699     1618     1541     1483     1453     1451 
    1470     1493     1510     1526     1540     1553     1564     1547 
    1490     1406     1320     1248     1197     1152     1102     1027 
     916      773      604      437      292      174       67      -39 
    -140     -220     -287     -352     -411     -475     -557     -639 
    -700     -729     -716     -665     -594     -518     -440     -364 
    -306     -259     -225     -216     -226     -249     -264     -253 
    -225     -197     -163     -116      -59        1       49       67 
      62       47       29       21       45       99      162      230 
     294      346      394      441      494      558      629      706 
     777      845      934     1047     1167     1286     1387     1453 
    1482     1471     1432     1379     1321     1271     1224     1170 
    1107     1019      896      764      643      525      405      286 
     172       63      -35     -109     -156     -186     -213     -253 
    -310     -363     -399     -414     -411     -400     -383     -349 
    -286     -170       -6      162      306      415      492      552 
     614      673      724      784      846      907      962     1008 
    1063     1128     1185     1236     1273     1277     1248     1182 
    1100     1021      942      880      842      822      807      769 
     716      675      642      614      589      583      615      675 
     737      799      858      909      963     1013     1047     1058 
    1043     1013      981      946      916      893      870      845 
     819      796      781      770      756      741      734      741 
     754      770      785      791      788      789      804      835 
     877      913      943      961      954      940      947      966 
     970      962      950      938      938      957      969      965 
     950      916      864      799      723      653      596      550 
     508      461      406      344      280      229      187      139 
      81       14      -41      -78      -94      -94      -90      -74 
     -39       -6       20       43       55       60       70       85 
     103      120      128      133      145      160      175      190 
     206      213      206      187      168      157      145      126 
      94       59       33       16       12       32       71      135 
     226      330      436      535      625      700      762      810 
     851      900      959     1020     1081     1142     1206     1264 
    1321     1385     1435     1462     1467     1437     1386     1333 
    1279     1224     1177     1120     1043      946      831      706 
     585      480      388      303      229      174      141      114 
      79       58       63       97      147      201      257      309 
     361      421      483      546      611      665      706      730 
     739      743      745      738      733      731      726      719 
     719      718      703      673      622      554      486      419 
     355      291      229      182      147      141      178      225 
     264      295      321      346      373      399      421      442 
     456      461      463      468      480      513      562      612 
     652      685      715      731      729      712      688      649 
     595      537      479      419      360      309      274      260 
     257      247      221      189      148      116      112      130 
     167      216      270      325      384      442      503      567 
     623      664      700      741      781      819      864      913 
     967     1021     1066     1098     1104     1090     1071     1053 
    1034     1013      989      961      922      877      831      796 
     772      737      685      630      580      534      487      450 
     433      426      430      449      468      484      513      571 
     652      733      800      853      889      919      954      989 
    1013     1016      989      940      886      827      770      714 
     648      579      506      421      340      268      209      180 
     171      182      218      249      260      267      275      282 
     290      301      322      364      423      498      588      669 
     734      791      845      897      943      965      959      931 
     885      841      810      789      773      742      689      622 
     550      484      433      398      379      383      414      461 
     494      506      515      522      510      483      449      417 
     392      379      376      383      383      369      349      325 
     307      301      291      276      255      225      198      176 
     162      153      137      117       94       52       -1      -47 
     -90     -126     -153     -172     -170     -153     -148     -155 
    -172     -201     -224     -226     -209     -171     -114      -43 
      37      120      194      251      286      309      325      338 
     353      376      409      450      506      585      689      787 
     861      907      920      924      946      993     1070     1156 
    1240     1323     1393     1443     1476     1491     1499     1517 
    1528     1525     1513     1478     1417     1348     1282     1219 
    1156     1088     1023      977      943      926      913      895 
     866      828      785      737      672      598      535      490 
     461      444      409      359      330      319      299      278 
     259      230      190      162      157      157      145      130 
     114      103      105       99       81       54       33       48 
      99      159      216      256      274      286      299      315 
     326      318      294      259      220      190      163      137 
     116       86       48        1      -48      -89     -130     -180 
    -233     -284     -321     -333     -329     -307     -265     -210 
    -143      -64       13       90      172      261      359      468 
     585      700      814      934     1062     1194     1327     1464 
    1606     1732     1841     1938     2011     2061     2096     2111 
    2116     2130     2153     2177     2203     2218     2215     2196 
    2154     2091     2011     1927     1838     1750     1675     1605 
    1530     1452     1366     1267     1166     1051      919      785 
     645      496      345      194       62      -41     -124     -195 
    -261     -315     -363     -414     -461     -492     -506     -500 
    -481     -454     -423     -386     -338     -280     -218     -157 
    -103      -64      -43      -28       -9       14       44       70 
      95      135      180      222      260      275      264      244 
     218      197      182      157      136      121      105       97 
      99      108      126      153      182      210      220      207 
     193      191      211      251      287      332      388      444 
     508      584      645      702      758      807      862      915 
     950      989     1032     1082     1154     1231     1312     1402 
    1476     1533     1582     1607     1615     1609     1580     1540 
    1495     1455     1433     1418     1398     1367     1329     1300 
    1278     1248     1192     1101      989      886      803      730 
     669      615      556      496      434      360      276      187 
      91      -14     -130     -257     -379     -490     -575     -623 
    -653     -681     -718     -770     -822     -857     -886     -911 
    -928     -926     -895     -843     -774     -684     -583     -486 
    -390     -302     -232     -164      -86       12      135      268 
     402      541      675      791      884      940      961      963 
     962      958      951      958      982     1015     1054     1100 
    1142     1175     1183     1165     1135     1104     1078     1063 
    1062     1074     1090     1094     1086     1080     1081     1086 
    1100     1121     1146     1167     1175     1165     1144     1111 
    1071     1036     1001      981      978      972      963      963 
     955      938      903      842      762      679      603      533 
     472      446      459      490      514      522      507      476 
     441      418      407      403      413      438      475      515 
     561      607      649      685      716      741      764      787 
     801      804      805      811      818      828      838      831 
     812      789      772      761      750      737      737      745 
     741      724      689      648      616      598      587      576 
     554      526      508      502      498      500      498      480 
     475      500      549      606      650      679      704      733 
     764      796      818      831      834      841      866      896 
     919      926      913      900      895      889      880      847 
     795      737      679      629      595      565      531      500 
     468      433      402      364      307      240      167       94 
      29      -24      -63      -85      -91      -85      -64      -45 
     -28      -20      -22      -21      -16      -17      -10        4 
      28       74      126      164      189      203      209      206 
     197      176      141       98       62       48       76      139 
     207      275      348      415      472      517      553      591 
     629      660      689      719      756      807      849      876 
     907      935      950      954      949      932      908      877 
     832      777      716      652      583      518      453      378 
     292      211      139       78       36        8      -22      -47 
     -70      -93     -102      -97      -78      -41        4       59 
     124      191      260      337      418      496      556      606 
     656      699      738      773      804      828      843      847 
     842      841      853      859      845      827      819      828 
     857      895      934      969      994     1016     1042     1062 
    1070     1063     1048     1031     1026     1030     1031     1036 
    1040     1021      977      911      838      787      754      742 
     747      741      715      680      639      599      565      531 
     495      459      433      423      434      460      490      514 
     530      553      580      599      610      616      611      592 
     569      550      530      503      481      465      454      452 
     452      438      414      396      390      382      380      380 
     379      387      409      434      442      429      414      403 
     390      371      342      314      280      237      206      189 
     176      163      136      109       98      101      108      120 
     139      167      198      225      243      252      261      271 
     282      298      315      334      356      382      413      449 
     490      537      587      626      649      665      679      696 
     722      756      791      805      785      738      688      653 
     642      648      639      610      572      522      468      427 
     407      395      373      344      325      330      367      426 
     487      540      583      614      634      650      661      672 
     688      699      711      729      743      760      783      807 
     831      851      861      857      842      822      795      764 
     731      691      641      595      548      492      440      387 
     334      295      276      272      279      298      328      364 
     403      448      500      552      591      621      657      699 
     739      778      814      845      876      905      932      954 
     962      951      926      903      878      854      831      811 
     791      780      787      805      822      827      812      774 
     733      691      648      608      571      530      494      453 
     410      364      324      292      270      243      203      149 
