Origin Time       2024/04/02 04:24:00
Lat.              40.133
Long.             141.712
Depth. (km)       71
Mag.              6.0
Station Code      SIT008
Station Lat.      35.9829
Station Long.     139.7456
Station Height(m) 7
Record Time       2024/04/02 04:26:35
Sampling Freq(Hz) 100Hz
Duration Time(s)  93
Dir.              E-W
Scale Factor      7845(gal)/8223790
Max. Acc. (gal)   1.562
Last Correction   2024/04/02 04:26:36
Memo.             
[...]
    3603     3488     3349     3196     3056     2961     2945     3041 
    3233     3470     3663     3730     3639     3411     3142     2972 
    2972     3119     3333     3512     3593     3559     3416     3195 
    2940     2729     2637     2671     2793     2951     3109     3254 
    3362     3353     3187     2921     2679     2555     2552     2614 
    2713     2840     3011     3254     3546     3805     3967     4004 
    3927     3788     3642     3539     3501     3491     3465     3418 
    3346     3265     3206     3171     3119     3024     2933     2917 
    3003     3194     3438     3670     3871     4031     4128     4136 
    4054     3909     3730     3520     3269     2998     2740     2504 
    2299     2164     2127     2193     2347     2547     2739     2879 
    2968     3022     3048     3088     3192     3321     3423     3478 
    3438     3298     3126     2976     2887     2894     2971     3090 
    3235     3389     3541     3673     3742     3738     3724     3758 
    3824     3871     3855     3762     3638     3531     3446     3361 
    3250     3110     2972     2852     2776     2810     2979     3284 
    3688     4071     4298     4321     4170     3913     3655     3527 
    3565     3682     3777     3796     3747     3726     3785     3851 
    3813     3612     3245     2772     2299     1931     1730     1696 
    1818     2049     2323     2608     2898     3153     3283     3248 
    3127     3013     2945     2929     2906     2832     2745     2687 
    2708     2855     3106     3369     3508     3443     3213     2917 
    2659     2528     2543     2668     2862     3052     3188     3298 
    3408     3523     3631     3693     3642     3449     3190     2960 
    2798     2758     2909     3222     3581     3879     4060     4117 
    4056     3915     3735     3528     3315     3136     2986     2860 
    2787     2790     2870     3024     3183     3244     3165     2964 
    2677     2390     2203     2149     2205     2331     2511     2743 
    3025     3369     3777     4205     4550     4704     4635     4374 
    3991     3607     3322     3206     3312     3620     4010     4349 
    4554     4603     4496     4243     3902     3569     3287     3098 
    3044     3122     3331     3662     4037     4372     4591     4603 
    4372     3951     3487     3153     3021     3073     3253     3473 
    3669     3817     3883     3862     3774     3607     3331     2994 
    2682     2448     2311     2285     2371     2535     2694     2755 
    2698     2581     2473     2413     2420     2492     2616     2751 
    2856     2938     3037     3142     3204     3186     3099     2991 
    2909     2878     2909     3013     3188     3376     3483     3474 
    3376     3225     3086     3034     3092     3221     3377     3551 
    3751     3971     4193     4390     4537     4611     4590     4444 
    4185     3878     3592     3375     3238     3163     3144     3144 
    3091     2972     2841     2763     2752     2771     2767     2717 
    2633     2544     2462     2376     2296     2243     2241     2330 
    2517     2747     2988     3219     3376     3423     3381     3296 
    3200     3105     3025     2971     2953     3014     3169     3368 
    3568     3732     3809     3781     3667     3504     3346     3254 
    3233     3229     3231     3265     3302     3315     3315     3284 
    3202     3113     3079     3115     3196     3275     3331     3404 
    3523     3642     3670     3545     3283     2947     2608     2339 
    2168     2101     2141     2246     2385     2542     2681     2762 
    2771     2747     2739     2758     2817     2907     3024     3202 
    3445     3708     3962     4189     4364     4480     4529     4467 
    4272     4016     3796     3674     3667     3724     3766     3759 
    3736     3735     3766     3808     3820     3766     3632     3422 
    3165     2917     2700     2551     2508     2571     2714     2891 
    3073     3292     3559     3842     4071     4179     4112     3877 
    3537     3179     2886     2700     2647     2727     2886     3065 
    3225     3327     3339     3262     3127     2976     2853     2795 
    2802     2866     3010     3250     3541     3831     4083     4230 
    4226     4086     3834     3488     3119     2852     2745     2772 
    2899     3078     3218     3283     3276     3207     3092     2948 
    2801     2662     2552     2536     2623     2756     2916     3075 
    3187     3240     3227     3177     3140     3127     3121     3086 
    3030     3001     3017     3099     3246     3395     3487     3499 
    3442     3343     3206     3021     2841     2720     2681     2731 
    2844     2960     3051     3142     3268     3416     3539     3586 
    3524     3362     3156     2948     2759     2629     2585     2600 
    2655     2764     2933     3127     3322     3516     3686     3792 
    3805     3707     3518     3329     3222     3240     3387     3605 
    3801     3935     4023     4078     4097     4050     3921     3732 
    3523     3345     3271     3329     3485     3663     3792     3859 
    3871     3815     3667     3422     3113     2829     2644     2604 
    2721     2949     3202     3404     3480     3376     3121     2794 
    2496     2272     2119     2046     2072     2219     2501     2887 
    3296     3651     3882     3928     3792     3547     3307     3136 
    3040     2992     2967     2971     3061     3244     3457     3632 
    3732     3784     3821     3819     3762     3692     3623     3558 
    3526     3546     3639     3813     4025     4203     4280     4220 
    4047     3811     3538     3252     2970     2708     2516     2440 
    2482     2636     2872     3122     3323     3435     3437     3353 
    3207     2997     2741     2525     2455     2567     2799     3033 
    3186     3252     3267     3253     3227     3219     3245     3292 
    3338     3373     3406     3456     3535     3634     3717     3740 
    3678     3527     3295     3028     2793     2614     2486     2404 
    2359     2355     2413     2544     2760     3037     3287     3446 
    3518     3526     3481     3383     3234     3071     2957     2945 
    3045     3225     3446     3646     3774     3829     3812     3720 
    3572     3373     3152     2948     2776     2681     2717     2880 
    3133     3391     3547     3572     3485     3322     3117     2909 
    2779     2795     2911     3048     3176     3298     3431     3576 
    3685     3719     3673     3580     3499     3466     3493     3570 
    3659     3740     3815     3851     3832     3792     3730     3622 
    3485     3368     3299     3269     3264     3258     3206     3100 
    2988     2887     2809     2772     2778     2824     2910     2999 
    3068     3123     3175     3233     3307     3407     3535     3678 
    3807     3900     3937     3906     3802     3626     3397     3148 
    2891     2643     2435     2281     2184     2149     2151     2184 
    2261     2358     2439     2498     2548     2617     2740     2906 
    3094     3300     3505     3665     3750     3753     3669     3515 
    3337     3168     3006     2839     2670     2547     2527     2650 
    2916     3273     3643     3956     4179     4287     4291     4244 
    4185     4112     4021     3910     3797     3724     3699     3694 
    3711     3739     3755     3735     3645     3488     3316     3186 
    3118     3111     3169     3300     3480     3659     3790     3832 
    3792     3678     3474     3210     2968     2791     2689     2677 
    2762     2941     3207     3534     3878     4183     4406     4515 
    4477     4309     4075     3840     3649     3522     3461     3468 
    3522     3574     3601     3585     3516     3381     3172     2906 
    2613     2331     2115     2003     2011     2138     2338     2524 
    2655     2743     2790     2802     2795     2770     2740     2722 
    2725     2775     2889     3033     3165     3261     3331     3412 
    3508     3588     3628     3645     3689     3769     3838     3865 
    3848     3780     3651     3472     3254     3024     2825     2694 
    2641     2662     2763     2934     3119     3281     3404     3458 
    3442     3366     3240     3095     2970     2875     2830     2844 
    2897     2928     2897     2795     2631     2440     2261     2116 
    2046     2074     2176     2309     2444     2562     2631     2668 
    2716     2767     2810     2874     2975     3121     3295     3461 
    3582     3624     3576     3481     3380     3306     3277     3285 
    3319     3368     3418     3468     3511     3523     3481     3412 
    3368     3369     3412     3487     3568     3638     3723     3836 
    3954     4043     4074     4043     3994     3966     3954     3951 
    3944     3929     3917     3921     3951     4008     4052     4039 
    3952     3820     3694     3611     3573     3577     3607     3631 
    3634     3615     3580     3546     3527     3531     3547     3562 
    3565     3551     3520     3481     3438     3387     3321     3245 
    3187     3191     3262     3366     3456     3487     3441     3335 
    3207     3082     2975     2895     2839     2779     2704     2643 
    2624     2625     2625     2592     2490     2349     2182     2002 
    1864     1819     1873     2033     2282     2565     2845     3107 
    3315     3451     3534     3569     3547     3473     3387     3339 
    3365     3468     3597     3704     3761     3731     3576     3302 
    2971     2647     2381     2205     2139     2187     2331     2531 
    2735     2901     3009     3037     2961     2809     2648     2551 
    2560     2667     2833     3038     3260     3469     3663     3844 
    3998     4091     4087     3989     3825     3647     3503     3412 
    3372     3345     3296     3240     3217     3246     3337     3464 
    3561     3580     3522     3402     3235     3055     2901     2795 
    2740     2733     2772     2848     2951     3063     3142     3173 
    3183     3186     3198     3240     3288     3316     3339     3385 
    3473     3620     3804     3956     4021     4002     3935     3835 
    3721     3627     3550     3488     3439     3384     3330     3321 
    3377     3476     3572     3628     3651     3636     3580     3510 
    3450     3412     3412     3445     3487     3523     3527     3476 
    3373     3250     3153     3105     3082     3056     3005     2928 
    2856     2822     2845     2906     2949     2943     2907     2875 
    2872     2920     2994     3053     3076     3075     3079     3113 
    3183     3280     3395     3522     3650     3761     3835     3879 
    3912     3947     3970     3956     3906     3848     3827     3870 
    3954     4021     4044     4032     3986     3936     3898     3834 
    3726     3620     3561     3565     3615     3661     3651     3559 
    3395     3184     2970     2801     2698     2627     2550     2486 
    2461     2465     2490     2513     2504     2463     2428     2423 
    2438     2475     2552     2670     2818     2975     3113     3234 
    3353     3461     3545     3595     3622     3635     3638     3635 
    3623     3616     3631     3662     3678     3654     3584     3476 
    3349     3234     3141     3076     3040     3018     3001     2984 
    2978     2992     3033     3084     3118     3114     3076     3025 
    2994     2994     3003     2998     2963     2916     2883     2891 
    2940     3002     3064     3115     3146     3160     3152     3133 
    3132     3159     3215     3304     3406     3474     3465     3348 
    3138     2901     2697     2578     2573     2668     2829     3022 
    3219     3387     3496     3527     3495     3408     3276     3122 
    2972     2866     2864     2997     3234     3516     3767     3937 
    4000     3966     3883     3805     3765     3751     3734     3696 
    3649     3604     3568     3518     3429     3312     3194     3079 
    2972     2884     2822     2795     2822     2905     3015     3107 
    3154     3168     3167     3160     3156     3150     3132     3111 
    3115     3156     3221     3272     3275     3207     3069     2898 
    2735     2605     2543     2571     2701     2913     3160     3377 
    3497     3516     3488     3450     3419     3424     3476     3557 
    3670     3812     3963     4095     4190     4233     4236     4222 
    4210     4203     4190     4152     4102     4070     4055     4025 
    3946     3801     3588     3325     3068     2868     2729     2641 
    2585     2536     2496     2486     2509     2552     2593     2619 
    2614     2577     2513     2436     2371     2358     2408     2506 
    2617     2694     2701     2662     2624     2614     2662     2762 
    2878     2982     3063     3141     3258     3433     3643     3846 
    3982     4027     3982     3869     3728     3582     3443     3338 
    3271     3241     3254     3296     3341     3380     3423     3489 
    3573     3657     3724     3746     3716     3649     3551     3433 
    3308     3188     3105     3079     3073     3046     2990     2894 
    2751     2573     2377     2181     1999     1845     1750     1737 
    1831     2035     2286     2509     2666     2739     2751     2756 
    2787     2860     2987     3134     3289     3474     3681     3873 
    4016     4086     4085     4031     3956     3909     3940     4063 
    4259     4486     4691     4834     4887     4837     4706     4541 
    4372     4213     4064     3928     3813     3728     3651     3555 
    3431     3289     3126     2948     2774     2620     2506     2454 
    2461     2523     2647     2803     2947     3045     3072     3017 
    2913     2795     2681     2579     2511     2486     2509     2563 
    2625     2673     2691     2683     2652     2609     2589     2619 
    2706     2832     2982     3153     3325     3472     3595     3697 
    3782     3850     3882     3885     3893     3920     3956     3982 
    3987     3956     3898     3848     3838     3871     3925     3977 
    4035     4124     4249     4372     4438     4409     4299     4149 
    4005     3877     3771     3701     3661     3639     3624     3601 
    3561     3504     3427     3327     3198     3042     2894     2766 
    2651     2563     2508     2465     2423     2378     2335     2323 
    2346     2377     2380     2339     2285     2262     2296     2385 
    2492     2597     2708     2825     2952     3090     3226     3345 
    3439     3484     3472     3414     3337     3279     3267     3302 
    3373     3466     3546     3580     3561     3500     3402     3273 
    3130     2984     2836     2700     2598     2540     2521     2533 
    2538     2512     2479     2465     2465     2492     2540     2597 
    2658     2737     2836     2940     3053     3168     3244     3256 
    3211     3117     3003     2910     2862     2862     2905     2968 
    3040     3122     3217     3319     3419     3522     3632     3734 
    3802     3842     3858     3865     3901     3973     4067     4180 
    4286     4367     4421     4441     4428     4399     4365     4334 
    4299     4261     4232     4221     4228     4230     4193     4106 
    3973     3785     3576     3385     3223     3086     2982     2914 
    2891     2929     3014     3125     3237     3338     3429     3503 
    3561     3599     3615     3628     3669     3726     3773     3798 
    3802     3781     3734     3646     3511     3330     3126     2937 
    2795     2705     2636     2559     2486     2440     2423     2428 
    2439     2431     2403     2369     2343     2351     2400     2469 
    2548     2628     2691     2737     2772     2797     2806     2806 
    2828     2883     2959     3032     3075     3067     3026     2980 
    2933     2898     2882     2871     2859     2863     2880     2907 
    2943     2983     3017     3025     3001     2943     2847     2743 
    2681     2677     2736     2848     2978     3099     3206     3307 
    3427     3557     3657     3704     3693     3653     3627     3639 
    3685     3738     3770     3781     3775     3758     3743     3728 
    3701     3680     3670     3672     3692     3734     3771     3785 
    3770     3734     3681     3618     3551     3480     3412     3356 
    3289     3208     3130     3064     3018     3003     3018     3051 
    3079     3099     3126     3150     3146     3103     3024     2933 
    2866     2841     2868     2936     3011     3057     3060     3022 
    2959     2899     2866     2864     2910     2999     3110     3233 
    3377     3542     3692     3785     3800     3743     3659     3596 
    3562     3557     3582     3635     3708     3804     3920     4037 
    4137     4190     4182     4125     4036     3954     3910     3894 
    3883     3862     3800     3699     3581     3481     3435     3445 
    3487     3535     3539     3472     3361     3240     3132     3034 
    2936     2837     2756     2708     2698     2706     2702     2687 
    2670     2644     2612     2573     2533     2504     2506     2569 
    2678     2803     2933     3053     3148     3219     3271     3311 
    3362     3418     3462     3510     3573     3642     3712     3767 
    3789     3796     3804     3817     3828     3829     3820     3813 
    3816     3825     3821     3789     3730     3640     3526     3402 
    3262     3095     2918     2760     2641     2554     2471     2370 
    2242     2083     1918     1790     1732     1744     1783     1829 
    1907     2020     2160     2317     2474     2619     2743     2828 
    2887     2936     2971     2991     3013     3052     3109     3177 
    3241     3283     3307     3338     3380     3404     3396     3369 
    3326     3275     3241     3227     3215     3200     3175     3132 
    3103     3121     3181     3264     3339     3383     3383     3349 
    3316     3299     3302     3352     3458     3591     3713     3804 
    3858     3886     3883     3834     3740     3635     3549     3487 
    3450     3430     3415     3407     3416     3427     3431     3433 
    3404     3327     3226     3125     3053     3051     3126     3258 
    3418     3570     3690     3773     3832     3890     3951     4020 
    4093     4160     4226     4290     4344     4395     4449     4491 
    4513     4496     4421     4297     4135     3951     3781     3661 
    3603     3582     3561     3512     3411     3252     3060     2862 
    2664     2484     2336     2214     2119     2076     2072     2089 
    2110     2114     2097     2072     2053     2064     2106     2182 
    2303     2450     2617     2795     2949     3068     3154     3208 
    3248     3294     3352     3424     3515     3623     3734     3832 
    3898     3912     3865     3767     3645     3528     3453     3441 
    3489     3566     3627     3639     3615     3570     3511     3431 
    3333     3217     3100     3007     2944     2911     2911     2943 
    2983     2999     2972     2893     2776     2675     2619     2605 
    2633     2701     2794     2910     3037     3159     3260     3329 
    3352     3326     3267     3194     3117     3034     2951     2879 
    2816     2762     2732     2708     2664     2605     2551     2517 
