Origin Time       2024/04/02 04:24:00
Lat.              40.133
Long.             141.712
Depth. (km)       71
Mag.              6.0
Station Code      SIT003
Station Lat.      36.0721
Station Long.     139.6969
Station Height(m) 8
Record Time       2024/04/02 04:26:40
Sampling Freq(Hz) 100Hz
Duration Time(s)  136
Dir.              U-D
Scale Factor      7845(gal)/8223790
Max. Acc. (gal)   0.835
Last Correction   2024/04/02 04:26:40
Memo.             
     338      290      272      294      356      456      548      602 
     635      631      583      541      498      419      363      399 
     491      576      676      756      723      602      488      419 
     407      440      464      477      553      687      753      687 
     584      558      591      577      534      587      706      743 
     681      614      596      584      540      544      616      635 
     599      602      614      604      641      710      733      707 
     673      639      594      569      615      696      726      729 
     745      734      675      596      499      371      251      194 
     207      301      463      610      672      680      637      517 
     390      325      291      319      440      552      627      747 
     854      823      716      637      540      427      396      450 
     530      615      668      637      538      422      340      315 
     319      328      341      382      452      519      544      545 
     560      569      552      545      572      633      683      649 
     545      453      391      345      356      446      552      610 
     619      608      573      496      422      436      517      575 
     612      650      635      575      565      614      634      626 
     627      610      557      507      498      538      584      603 
     631      693      758      787      760      685      603      565 
     569      573      591      637      662      637      564      457 
     371      365      438      541      629      658      623      571 
     535      511      513      545      560      507      422      363 
     311      268      286      319      326      368      450      490 
     492      510      469      359      328      398      445      483 
     571      630      599      554      546      545      556      619 
     688      693      658      637      634      642      654      666 
     689      722      719      707      723      699      603      531 
     500      449      417      477      561      561      560      680 
     789      738      639      618      622      573      461      355 
     346      417      475      535      600      585      518      499 
     495      479      517      561      542      519      533      544 
     542      549      558      573      602      611      573      557 
     602      630      580      525      542      564      521      481 
     500      503      457      463      558      637      637      610 
     592      550      445      338      329      386      419      476 
     604      712      720      668      604      537      468      442 
     463      437      352      326      373      425      490      561 
     564      490      383      280      248      319      426      495 
     571      724      880      923      892      831      708      568 
     499      498      517      545      592      657      730      764 
     715      670      708      730      668      587      534      483 
     434      411      415      472      577      641      643      661 
     688      677      634      554      427      295      218      230 
     318      452      584      645      595      494      411      337 
     279      292      351      388      409      421      430      459 
     481      445      376      380      486      621      708      733 
     726      716      669      573      502      492      535      602 
     618      567      517      491      454      469      612      788 
     832      769      707      634      504      399      409      523 
     687      838      950     1020     1007      861      616      392 
     264      222      261      403      604      765      793      700 
     587      472      345      298      353      406      444      515 
     584      643      722      773      760      716      697      704 
     703      661      567      449      375      373      403      419 
     454      567      720      824      827      738      630      533 
     383      211      199      383      560      612      623      684 
     776      820      795      769      803      838      796      739 
     703      579      391      337      445      537      557      576 
     561      500      467      441      371      342      434      553 
     603      615      594      499      398      405      494      556 
     581      603      585      484      307      159      120      170 
     297      481      635      700      680      596      515      460 
     353      226      234      344      399      437      549      656 
     645      513      329      198      171      228      386      583 
     666      635      591      527      446      457      567      641 
     669      734      777      739      691      634      499      371 
     353      386      421      545      729      762      603      460 
     453      502      587      766      943      951      823      719 
     676      587      413      315      413      531      513      463 
     473      498      564      695      742      612      453      378 
     314      268      367      599      816      935      911      722 
     465      286      190      105       90      270      553      749 
     818      796      704      606      540      500      503      513 
     457      369      353      391      391      444      687     1021 
    1269     1374     1298      984      507      109      -49       21 
     267      594      837      916      903      855      730      535 
     400      376      383      421      561      707      702      598 
     552      592      615      541      445      444      476      467 
     549      735      769      572      324      121       10       71 
     257      414      499      588      673      634      461      280 
     163      132      224      365      392      332      360      494 
     604      661      660      585      498      449      449      496 
     545      612      772      922      899      793      746      685 
     562      507      603      781      915      974      994      951 
     819      650      549      594      747      877      901      864 
     803      691      535      394      337      405      557      715 
     773      670      495      360      278      261      365      552 
     714      827      892      849      727      635      565      452 
     372      410      475      453      386      376      410      387 
     328      318      325      332      421      514      492      515 
     666      754      737      758      789      680      498      426 
     459      538      708      878      854      627      332      103 
      22       76      221      392      504      576      702      789 
     677      418      172       24       18      160      383      642 
     859      927      908      918      907      810      702      630 
     535      383      268      288      406      576      876     1208 
    1252      924      494      201      109      205      414      672 
     936     1047      903      708      638      558      391      297 
     368      506      598      675      783      791      612      464 
     571      751      708      526      432      405      351      321 
     356      355      240      108       99      224      427      677 
     823      714      471      287      172      112      151      291 
     492      656      724      769      799      722      553      449 
     472      498      430      326      310      425      598      746 
     819      793      737      688      616      595      619      508 
     313      298      400      336      186      264      537      800 
    1063     1285     1274     1026      643      180     -210     -330 
    -164      152      521      900     1173     1142      777      332 
      89       90      229      438      646      738      675      542 
     460      434      402      337      272      297      465      702 
     884      959      918      720      426      211      129      124 
     206      367      483      488      495      583      653      658 
     646      561      394      353      538      749      891     1070 
    1186     1058      849      784      778      714      684      718 
     650      445      326      400      486      473      510      634 
     677      646      685      761      735      580      399      287 
     230      234      353      513      549      471      450      535 
     619      665      675      560      342      202      184      207 
     314      568      849     1011     1040      932      668      360 
     166      121      176      278      378      409      355      367 
     525      637      658      811     1051     1104      939      726 
     513      253        5     -124      -87      135      514      884 
    1063     1078     1074     1038      903      762      675      498 
     199        0       41      232      488      784     1023     1111 
    1051      882      607      256       -1       -6      187      457 
     737      928      954      862      764      658      496      391 
     507      734      818      729      643      615      494      263 
     191      369      537      587      650      715      739      807 
     858      804      772      745      525      267      259      391 
     442      477      611      754      772      650      446      214 
      49       55      221      437      641      815      873      754 
     571      457      386      301      276      346      414      460 
     519      560      608      729      846      866      780      643 
     544      480      441      479      553      546      456      383 
     395      421      409      484      703      888      947      992 
     974      680      183     -174     -236      -71      245      653 
    1007     1121      942      608      271      -48     -290     -279 
     -14      307      622      946     1123     1059      936      846 
     708      560      503      511      460      311      179      164 
     274      472      656      743      784      785      681      537 
     484      535      625      720      808      832      733      541 
     376      297      280      315      419      526      529      476 
     499      575      580      538      585      712      792      795 
     756      641      477      398      383      264       63      -59 
     -76       -8      183      426      621      774      881      855 
     691      521      426      375      407      618      923     1090 
    1046      926      780      527      230       68       62      133 
     286      515      787     1039     1104      877      546      340 
     259      244      344      525      675      795      916      958 
     889      749      549      363      321      373      403      476 
     635      750      792      866      927      877      812      843 
     857      747      600      498      426      367      341      387 
     488      587      680      826      963      967      835      646 
     445      278      218      314      492      642      730      749 
     689      546      351      190       98       59      128      306 
     446      461      422      407      430      502      615      691 
     720      764      760      627      463      359      255      151 
     153      288      513      753      880      822      676      576 
     510      419      325      282      307      369      430      507 
     598      679      753      785      747      699      685      692 
     729      797      811      724      662      711      772      764 
     739      747      770      788      758      626      426      248 
     110       59      167      324      417      526      672      745 
     724      681      657      645      641      650      618      487 
     359      336      352      372      498      684      739      646 
     506      361      253      230      255      259      225      197 
     229      297      361      475      623      675      639      631 
     616      507      357      282      290      380      587      846 
    1042     1112     1027      861      753      726      753      850 
     903      754      510      371      299      195      179      329 
     492      581      658      742      768      675      517      422 
     396      395      467      600      695      695      607      463 
     357      342      363      390      436      463      453      481 
     580      657      633      553      494      441      390      392 
     394      299      176      163      288      467      577      604 
     615      638      666      675      639      625      688      765 
     803      839      877      866      799      704      618      571 
     557      545      545      587      646      670      656      677 
     756      780      719      692      695      618      523      542 
     656      761      784      664      418      198       78      -13 
     -56       54      224      299      338      384      328      243 
     307      436      498      548      550      392      237      321 
     531      653      729      847      924      868      730      604 
     508      430      403      432      464      517      596      642 
     676      745      787      762      730      719      679      565 
     471      507      612      722      854      926      842      712 
     623      507      391      375      456      579      711      839 
     913      874      753      611      403      129      -55      -66 
      45      252      502      683      768      770      683      553 
     484      484      453      386      413      564      692      712 
     706      727      688      540      392      372      464      565 
     646      724      742      660      565      568      631      638 
     610      614      603      535      467      467      545      614 
     635      673      711      664      572      518      484      448 
     459      546      662      729      729      664      477      236 
     108       99      141      297      615      935     1050      990 
     935      942      897      724      515      351      180       21 
      -9       87      184      237      321      440      465      400 
     380      419      441      471      560      650      670      639 
     598      545      471      379      298      245      193      126 
     108      193      334      469      610      769      872      845 
     726      585      477      464      554      685      800      900 
     947      874      688      481      357      344      372      409 
     523      680      715      661      675      666      498      309 
     326      526      716      868     1071     1260     1266     1092 
     892      743      594      444      390      453      538      569 
     514      399      351      403      432      422      488      598 
     625      587      596      649      630      515      418      410 
     454      502      579      703      777      693      469      229 
      81        1      -44       22      244      500      675      753 
     738      626      492      402      351      359      414      463 
     496      507      467      384      288      197      133      166 
     319      506      668      796      841      784      695      650 
     653      676      737      814      811      729      675      665 
     641      600      584      635      733      773      760      796 
     818      731      696      849     1023     1039      966      915 
     854      737      637      604      576      537      567      629 
     630      604      600      575      523      523      602      683 
     641      452      260      174      175      238      340      437 
     521      598      649      642      577      472      299       95 
      20      121      255      329      388      433      426      400 
     387      403      444      448      406      400      449      480 
     490      504      479      411      382      368      326      328 
     394      445      481      562      638      654      618      526 
     407      325      295      325      433      588      727      846 
     959     1008      939      814      720      626      492      419 
     476      567      608      633      662      688      719      745 
     716      638      571      531      452      324      265      322 
     379      373      380      457      560      588      553      580 
     673      729      742      774      793      754      700      665 
     622      544      480      523      639      700      683      649 
     610      599      645      648      587      611      689      652 
     560      562      649      735      776      774      764      734 
     646      521      427      388      382      409      511      669 
     774      770      707      616      500      415      403      411 
     388      357      328      283      255      238      221      256 
     346      427      490      569      626      603      519      413 
     310      244      229      255      309      383      473      544 
     553      529      526      546      562      585      612      615 
     622      683      787      896      972      982      932      827 
     712      657      643      629      645      673      625      535 
     506      548      614      669      689      699      715      697 
     652      626      585      486      426      511      687      849 
     958      978      862      657      479      380      342      340 
     376      469      599      691      695      626      522      390 
     270      234      282      361      453      550      637      664 
     584      460      371      330      324      329      325      326 
     360      378      317      236      191      135       52       45 
     167      310      386      440      487      460      392      396 
     472      571      695      818      868      818      724      648 
     548      407      346      418      508      565      643      708 
     677      610      603      630      657      711      785      816 
     780      710      625      544      488      442      396      406 
     494      585      627      641      619      525      409      329 
     280      279      345      454      612      785      847      783 
     683      567      445      391      438      511      514      456 
     426      446      449      419      434      515      581      558 
     486      437      421      398      371      369      372      372 
     423      490      484      479      573      684      711      681 
     612      490      384      363      391      419      434      473 
     564      664      741      795      781      693      600      556 
     553      575      623      684      726      749      799      881 
     931      915      873      822      746      696      712      724 
     697      681      691      696      706      741      803      868 
     877      801      677      537      419      394      460      562 
     666      745      769      738      666      588      529      484 
