Origin Time       2024/04/02 04:24:00
Lat.              40.133
Long.             141.712
Depth. (km)       71
Mag.              6.0
Station Code      SIT003
Station Lat.      36.0721
Station Long.     139.6969
Station Height(m) 8
Record Time       2024/04/02 04:26:40
Sampling Freq(Hz) 100Hz
Duration Time(s)  136
Dir.              E-W
Scale Factor      7845(gal)/8223790
Max. Acc. (gal)   2.114
Last Correction   2024/04/02 04:26:40
Memo.             
[...]
  -15086   -15068   -15124   -15184   -15161   -15072   -15021   -15048 
  -15091   -15078   -15021   -14987   -15007   -15043   -15030   -14949 
  -14866   -14812   -14746   -14652   -14557   -14486   -14420   -14338 
  -14254   -14223   -14295   -14459   -14627   -14716   -14712   -14665 
  -14620   -14551   -14427   -14270   -14126   -14033   -13968   -13900 
  -13868   -13896   -13922   -13903   -13861   -13845   -13884   -13949 
  -13980   -13986   -13991   -13977   -13934   -13883   -13833   -13755 
  -13682   -13695   -13757   -13774   -13752   -13745   -13760   -13790 
  -13830   -13861   -13856   -13842   -13876   -13950   -14030   -14131 
  -14273   -14458   -14686   -14914   -15068   -15118   -15122   -15125 
  -15124   -15140   -15178   -15238   -15317   -15334   -15244   -15106 
  -14960   -14816   -14692   -14598   -14523   -14462   -14420   -14389 
  -14373   -14392   -14438   -14489   -14513   -14508   -14519   -14531 
  -14497   -14427   -14335   -14261   -14235   -14193   -14104   -14033 
  -14004   -13977   -13950   -13949   -13963   -13952   -13938   -13980 
  -14068   -14131   -14150   -14185   -14276   -14391   -14482   -14507 
  -14438   -14312   -14216   -14179   -14130   -14037   -13984   -14030 
  -14126   -14191   -14179   -14156   -14207   -14281   -14320   -14359 
  -14419   -14466   -14472   -14432   -14376   -14353   -14369   -14373 
  -14341   -14301   -14262   -14219   -14192   -14222   -14296   -14354 
  -14413   -14505   -14594   -14651   -14671   -14675   -14692   -14710 
  -14728   -14731   -14685   -14623   -14582   -14540   -14489   -14463 
  -14470   -14482   -14500   -14509   -14493   -14473   -14466   -14473 
  -14517   -14590   -14638   -14640   -14629   -14635   -14646   -14644 
  -14651   -14705   -14769   -14770   -14751   -14783   -14827   -14850 
  -14868   -14878   -14881   -14904   -14929   -14921   -14894   -14883 
  -14912   -14971   -15003   -14974   -14885   -14748   -14604   -14511 
  -14467   -14458   -14508   -14617   -14717   -14750   -14728   -14675 
  -14585   -14493   -14450   -14455   -14497   -14546   -14558   -14535 
  -14513   -14532   -14601   -14670   -14696   -14693   -14712   -14750 
  -14744   -14698   -14667   -14655   -14632   -14589   -14521   -14435 
  -14346   -14281   -14251   -14242   -14242   -14229   -14212   -14241 
  -14293   -14304   -14258   -14168   -14046   -13911   -13756   -13616 
  -13529   -13471   -13419   -13382   -13360   -13363   -13420   -13541 
  -13709   -13864   -13976   -14046   -14079   -14081   -14076   -14058 
  -14021   -13988   -14002   -14037   -14015   -13930   -13842   -13797 
  -13795   -13817   -13857   -13936   -14027   -14106   -14183   -14288 
  -14409   -14497   -14532   -14570   -14646   -14713   -14733   -14729 
  -14732   -14739   -14724   -14698   -14710   -14740   -14744   -14739 
  -14739   -14737   -14710   -14644   -14578   -14557   -14566   -14584 
  -14602   -14621   -14654   -14719   -14789   -14833   -14855   -14852 
  -14801   -14743   -14744   -14763   -14748   -14723   -14689   -14619 
  -14513   -14403   -14307   -14235   -14189   -14176   -14215   -14316 
  -14435   -14532   -14592   -14604   -14573   -14530   -14509   -14511 
  -14501   -14467   -14428   -14401   -14373   -14314   -14207   -14073 
  -13971   -13938   -13977   -14058   -14123   -14158   -14210   -14310 
  -14449   -14592   -14701   -14783   -14870   -14952   -14993   -14970 
  -14909   -14859   -14825   -14798   -14786   -14777   -14770   -14775 
  -14778   -14785   -14845   -14978   -15122   -15203   -15236   -15284 
  -15369   -15461   -15518   -15520   -15477   -15400   -15291   -15164 
  -15040   -14947   -14901   -14877   -14816   -14721   -14638   -14581 
  -14565   -14569   -14561   -14550   -14540   -14523   -14499   -14422 
  -14254   -14076   -13986   -13965   -13968   -13986   -14030   -14107 
  -14173   -14183   -14153   -14130   -14137   -14156   -14176   -14200 
  -14222   -14237   -14257   -14245   -14162   -14037   -13922   -13846 
  -13780   -13691   -13622   -13574   -13506   -13463   -13506   -13597 
  -13699   -13813   -13914   -13984   -14027   -14046   -14060   -14084 
  -14098   -14091   -14083   -14079   -14048   -13964   -13841   -13718 
  -13632   -13568   -13489   -13414   -13414   -13501   -13635   -13772 
  -13873   -13948   -14056   -14202   -14311   -14384   -14501   -14646 
  -14736   -14785   -14829   -14848   -14824   -14793   -14801   -14823 
  -14812   -14791   -14797   -14829   -14872   -14912   -14935   -14943 
  -14947   -14955   -14959   -14999   -15114   -15245   -15326   -15346 
  -15307   -15244   -15172   -15059   -14935   -14890   -14945   -15021 
  -15026   -14979   -14944   -14940   -14971   -15010   -15021   -15022 
  -15013   -14982   -14931   -14840   -14713   -14586   -14484   -14411 
  -14377   -14369   -14338   -14295   -14285   -14304   -14337   -14380 
  -14442   -14547   -14650   -14692   -14693   -14689   -14689   -14685 
  -14665   -14635   -14590   -14519   -14439   -14404   -14397   -14355 
  -14310   -14331   -14385   -14426   -14472   -14520   -14539   -14517 
  -14480   -14454   -14439   -14430   -14439   -14467   -14527   -14616 
  -14670   -14651   -14608   -14609   -14650   -14671   -14658   -14627 
  -14589   -14555   -14515   -14450   -14361   -14273   -14220   -14204 
  -14208   -14227   -14222   -14175   -14164   -14239   -14345   -14412 
  -14434   -14447   -14453   -14403   -14314   -14245   -14211   -14188 
  -14170   -14158   -14158   -14157   -14119   -14049   -13983   -13934 
  -13884   -13806   -13718   -13676   -13672   -13651   -13602   -13572 
  -13603   -13674   -13756   -13875   -14029   -14187   -14324   -14420 
  -14504   -14619   -14751   -14847   -14871   -14855   -14851   -14860 
  -14862   -14851   -14810   -14771   -14746   -14692   -14613   -14530 
  -14445   -14397   -14399   -14430   -14474   -14482   -14462   -14466 
  -14516   -14594   -14658   -14681   -14696   -14732   -14793   -14845 
  -14866   -14882   -14898   -14891   -14874   -14840   -14787   -14728 
  -14639   -14517   -14411   -14366   -14391   -14409   -14368   -14299 
  -14249   -14229   -14222   -14192   -14138   -14099   -14068   -14041 
  -14026   -14018   -13990   -13923   -13873   -13875   -13875   -13852 
  -13859   -13890   -13886   -13821   -13740   -13705   -13730   -13802 
  -13886   -13954   -14040   -14145   -14231   -14297   -14353   -14413 
  -14517   -14655   -14779   -14858   -14895   -14916   -14916   -14918 
  -14955   -14989   -14990   -14979   -14990   -15017   -15022   -15007 
  -15006   -15014   -15006   -14972   -14944   -14953   -14979   -15001 
  -15024   -15072   -15153   -15213   -15242   -15298   -15375   -15438 
  -15461   -15430   -15390   -15377   -15376   -15354   -15287   -15199 
  -15120   -15022   -14899   -14786   -14732   -14733   -14720   -14692 
  -14686   -14689   -14697   -14690   -14648   -14604   -14584   -14565 
  -14508   -14400   -14270   -14139   -14006   -13875   -13725   -13541 
  -13365   -13228   -13134   -13069   -13043   -13057   -13090   -13147 
  -13219   -13266   -13274   -13262   -13285   -13370   -13464   -13535 
  -13570   -13554   -13532   -13535   -13508   -13446   -13419   -13446 
  -13490   -13525   -13556   -13612   -13686   -13783   -13905   -14017 
  -14107   -14200   -14303   -14382   -14411   -14403   -14372   -14334 
  -14307   -14287   -14276   -14314   -14403   -14493   -14561   -14625 
  -14694   -14774   -14871   -14964   -15029   -15070   -15068   -15034 
  -15014   -15012   -15012   -15006   -14990   -14983   -14995   -15003 
  -15009   -15040   -15111   -15202   -15273   -15331   -15388   -15431 
  -15454   -15449   -15423   -15392   -15364   -15346   -15340   -15304 
  -15233   -15172   -15130   -15094   -15059   -15002   -14928   -14890 
  -14881   -14855   -14809   -14759   -14735   -14732   -14725   -14720 
  -14715   -14694   -14658   -14629   -14652   -14702   -14713   -14662 
  -14566   -14470   -14407   -14362   -14304   -14220   -14133   -14067 
  -14008   -13949   -13896   -13875   -13884   -13883   -13872   -13886 
  -13905   -13892   -13840   -13776   -13738   -13710   -13656   -13590 
  -13547   -13527   -13491   -13432   -13370   -13315   -13277   -13300 
  -13396   -13529   -13652   -13748   -13841   -13941   -14015   -14058 
  -14116   -14191   -14241   -14273   -14320   -14378   -14431   -14482 
  -14538   -14578   -14611   -14661   -14732   -14806   -14845   -14844 
  -14836   -14831   -14833   -14870   -14936   -14998   -15029   -15025 
  -14989   -14933   -14868   -14793   -14733   -14732   -14773   -14813 
  -14844   -14874   -14921   -15001   -15091   -15169   -15229   -15283 
  -15342   -15392   -15430   -15442   -15408   -15338   -15241   -15129 
  -15021   -14924   -14818   -14692   -14580   -14528   -14513   -14489 
  -14440   -14399   -14393   -14412   -14422   -14403   -14362   -14365 
  -14408   -14430   -14436   -14434   -14411   -14397   -14415   -14466 
  -14512   -14499   -14457   -14424   -14380   -14312   -14216   -14112 
  -14015   -13930   -13898   -13905   -13910   -13933   -13987   -14060 
  -14129   -14165   -14199   -14274   -14382   -14481   -14503   -14442 
  -14353   -14269   -14196   -14142   -14114   -14092   -14052   -14015 
  -14004   -14002   -13992   -13981   -13977   -13971   -13940   -13905 
  -13883   -13863   -13822   -13747   -13682   -13674   -13703   -13744 
  -13778   -13821   -13911   -14048   -14210   -14346   -14426   -14494 
  -14565   -14597   -14582   -14557   -14582   -14651   -14696   -14696 
  -14659   -14612   -14580   -14540   -14503   -14499   -14527   -14597 
  -14674   -14712   -14719   -14704   -14685   -14670   -14654   -14648 
  -14652   -14654   -14656   -14667   -14681   -14692   -14697   -14719 
  -14767   -14825   -14868   -14878   -14845   -14801   -14782   -14782 
  -14778   -14781   -14790   -14794   -14809   -14839   -14870   -14908 
  -14945   -14956   -14939   -14913   -14901   -14902   -14902   -14893 
  -14882   -14868   -14851   -14825   -14786   -14747   -14721   -14692 
  -14639   -14570   -14505   -14457   -14426   -14412   -14413   -14413 
  -14404   -14388   -14391   -14416   -14442   -14466   -14507   -14543 
  -14554   -14558   -14578   -14584   -14551   -14504   -14451   -14381 
  -14280   -14153   -14042   -13973   -13936   -13917   -13903   -13909 
  -13926   -13953   -14021   -14100   -14145   -14168   -14188   -14202 
  -14191   -14145   -14085   -14015   -13937   -13884   -13861   -13855 
  -13836   -13811   -13821   -13859   -13913   -13986   -14046   -14094 
  -14139   -14179   -14207   -14242   -14300   -14350   -14364   -14347 
  -14308   -14262   -14227   -14203   -14214   -14265   -14322   -14381 
  -14454   -14540   -14642   -14747   -14851   -14944   -15021   -15087 
  -15115   -15111   -15117   -15140   -15169   -15198   -15215   -15249 
  -15286   -15287   -15276   -15279   -15288   -15284   -15263   -15264 
  -15288   -15296   -15286   -15264   -15236   -15223   -15228   -15210 
  -15165   -15109   -15043   -14985   -14925   -14859   -14828   -14836 
  -14836   -14794   -14716   -14628   -14543   -14439   -14296   -14129 
  -13972   -13846   -13734   -13605   -13464   -13352   -13296   -13265 
  -13224   -13194   -13188   -13178   -13159   -13146   -13142   -13136 
  -13127   -13123   -13131   -13158   -13201   -13246   -13293   -13348 
  -13413   -13479   -13537   -13576   -13599   -13609   -13605   -13610 
  -13651   -13707   -13763   -13814   -13855   -13883   -13919   -13961 
  -14006   -14087   -14200   -14314   -14426   -14531   -14621   -14709 
  -14790   -14871   -14971   -15088   -15217   -15321   -15387   -15450 
  -15503   -15530   -15527   -15487   -15457   -15462   -15449   -15376 
  -15260   -15120   -14982   -14871   -14796   -14746   -14721   -14724 
  -14750   -14791   -14847   -14920   -14995   -15049   -15101   -15148 
  -15157   -15121   -15049   -14966   -14887   -14794   -14693   -14594 
  -14484   -14393   -14362   -14373   -14397   -14418   -14446   -14488 
  -14515   -14526   -14543   -14555   -14550   -14519   -14481   -14443 
  -14391   -14320   -14237   -14145   -14072   -14025   -14021   -14068 
  -14149   -14247   -14330   -14369   -14386   -14401   -14413   -14431 
  -14459   -14484   -14467   -14427   -14419   -14432   -14413   -14374 
  -14366   -14420   -14504   -14580   -14651   -14716   -14763   -14818 
  -14891   -14962   -14989   -14964   -14941   -14939   -14928   -14914 
  -14893   -14833   -14750   -14662   -14569   -14490   -14404   -14303 
  -14215   -14141   -14056   -13960   -13879   -13815   -13748   -13680 
  -13644   -13656   -13701   -13737   -13761   -13832   -13961   -14085 
  -14145   -14153   -14166   -14192   -14191   -14152   -14112   -14087 
  -14065   -14052   -14041   -14038   -14060   -14076   -14068   -14058 
  -14067   -14091   -14125   -14160   -14195   -14242   -14310   -14391 
  -14476   -14573   -14696   -14845   -15005   -15140   -15248   -15375 
  -15512   -15604   -15665   -15750   -15832   -15869   -15880   -15913 
  -15965   -15992   -15996   -15985   -15974   -15969   -15939   -15885 
  -15826   -15743   -15645   -15552   -15462   -15361   -15221   -15059 
  -14921   -14794   -14663   -14558   -14486   -14454   -14478   -14511 
  -14507   -14478   -14457   -14457   -14466   -14445   -14372   -14272 
  -14176   -14069   -13938   -13788   -13657   -13578   -13497   -13378 
  -13289   -13250   -13221   -13171   -13088   -12997   -12912   -12831 
  -12768   -12706   -12633   -12559   -12475   -12379   -12297   -12243 
  -12231   -12264   -12299   -12324   -12405   -12555   -12726   -12903 
  -13076   -13246   -13417   -13589   -13751   -13906   -14072   -14242 
  -14420   -14617   -14783   -14897   -14968   -15016   -15070   -15120 
  -15142   -15147   -15151   -15159   -15161   -15133   -15079   -15032 
  -15006   -15012   -15056   -15121   -15175   -15218   -15280   -15369 
  -15465   -15533   -15561   -15566   -15574   -15595   -15600   -15573 
  -15538   -15488   -15412   -15333   -15233   -15109   -15013   -14958 
  -14917   -14885   -14855   -14841   -14859   -14871   -14832   -14756 
  -14689   -14642   -14602   -14558   -14500   -14426   -14338   -14258 
  -14215   -14223   -14262   -14291   -14307   -14324   -14342   -14351 
  -14361   -14369   -14358   -14342   -14339   -14343   -14338   -14324 
  -14310   -14299   -14295   -14283   -14254   -14234   -14241   -14257 
  -14268   -14293   -14354   -14438   -14501   -14530   -14546   -14588 
  -14648   -14701   -14737   -14762   -14791   -14824   -14836   -14836 
  -14833   -14824   -14817   -14806   -14779   -14746   -14708   -14648 
  -14566   -14492   -14449   -14409   -14370   -14361   -14373   -14369 
  -14342   -14331   -14339   -14322   -14277   -14239   -14222   -14204 
  -14160   -14099   -14052   -14027   -14011   -13998   -14010   -14034 
  -14053   -14088   -14145   -14223   -14323   -14403   -14445   -14463 
  -14482   -14507   -14517   -14511   -14494   -14442   -14358   -14291 
  -14251   -14224   -14215   -14222   -14222   -14197   -14157   -14143 
  -14158   -14166   -14168   -14165   -14152   -14137   -14130   -14137 
  -14164   -14199   -14234   -14262   -14278   -14281   -14273   -14289 
  -14330   -14357   -14377   -14397   -14409   -14422   -14430   -14434 
  -14449   -14451   -14432   -14427   -14440   -14453   -14470   -14497 
  -14536   -14573   -14585   -14602   -14647   -14679   -14669   -14625 
  -14575   -14532   -14477   -14418   -14373   -14342   -14332   -14339 
  -14332   -14328   -14354   -14395   -14415   -14408   -14400   -14411 
  -14438   -14470   -14501   -14530   -14567   -14608   -14625   -14617 
  -14601   -14584   -14569   -14558   -14535   -14494   -14449   -14415 
  -14404   -14396   -14369   -14337   -14330   -14347   -14351   -14330 
  -14315   -14319   -14351   -14420   -14485   -14526   -14558   -14589 
  -14625   -14652   -14652   -14638   -14619   -14605   -14607   -14611 
  -14596   -14561   -14524   -14499   -14473   -14439   -14395   -14349 
  -14316   -14289   -14258   -14218   -14183   -14156   -14149   -14164 
  -14180   -14196   -14208   -14200   -14196   -14214   -14231   -14238 
  -14243   -14266   -14300   -14300   -14261   -14212   -14183   -14188 
  -14208   -14229   -14261   -14316   -14378   -14440   -14499   -14559 
  -14635   -14712   -14781   -14839   -14875   -14899   -14917   -14936 
  -14970   -14985   -14966   -14949   -14944   -14941   -14933   -14916 
  -14914   -14936   -14963   -14987   -14998   -15012   -15033   -15041 
  -15036   -15013   -14989   -14975   -14956   -14921   -14855   -14777 
  -14719   -14669   -14619   -14585   -14577   -14577   -14558   -14523 
  -14486   -14455   -14440   -14439   -14426   -14396   -14373   -14355 
  -14330   -14310   -14310   -14327   -14355   -14377   -14381   -14391 
  -14407   -14418   -14424   -14434   -14463   -14512   -14523   -14494 
  -14470   -14453   -14442   -14431   -14408   -14400   -14418   -14438 
  -14443   -14427   -14413   -14412   -14400   -14380   -14361   -14346 
  -14337   -14322   -14295   -14276   -14278   -14293   -14305   -14332 
  -14385   -14438   -14470   -14467   -14447   -14440   -14445   -14451 
  -14458   -14445   -14407   -14366   -14347   -14331   -14285   -14223 
  -14173   -14133   -14112   -14114   -14108   -14096   -14095   -14092 
  -14091   -14106   -14138   -14168   -14177   -14175   -14162   -14146 
  -14141   -14145   -14148   -14141   -14139   -14156   -14177   -14202 
  -14237   -14262   -14288   -14343   -14416   -14465   -14492   -14538 
  -14612   -14683   -14735   -14756   -14766   -14777   -14767   -14742 
  -14720   -14713   -14724   -14725   -14705   -14689   -14678   -14671 
  -14675   -14679   -14662   -14627   -14611   -14636   -14674   -14694 
  -14698   -14694   -14716   -14759   -14802   -14843   -14878   -14913 
  -14944   -14945   -14932   -14906   -14854   -14798   -14746   -14666 
  -14565   -14473   -14405   -14349   -14273   -14184   -14089   -14004 
  -13953   -13938   -13938   -13938   -13925   -13910   -13909   -13919 
  -13940   -13953   -13967   -13994   -14011   -14006   -13994   -13991 
  -14013   -14056   -14104   -14150   -14187   -14200   -14199   -14193 
  -14172   -14139   -14116   -14106   -14098   -14099   -14106   -14121 
  -14143   -14170   -14189   -14187   -14168   -14162   -14187   -14234 
  -14276   -14308   -14345   -14389   -14449   -14513   -14580   -14651 
  -14704   -14733   -14763   -14796   -14825   -14848   -14877   -14931 
  -14985   -15012   -15010   -14985   -14959   -14944   -14922   -14883 
  -14825   -14767   -14731   -14710   -14694   -14679   -14661   -14642 
  -14631   -14609   -14578   -14561   -14566   -14589   -14615   -14620 
  -14601   -14582   -14588   -14608   -14600   -14559   -14531   -14528 
  -14523   -14511   -14513   -14520   -14513   -14501   -14474   -14438 
  -14416   -14403   -14399   -14413   -14431   -14449   -14462   -14458 
  -14466   -14493   -14519   -14543   -14557   -14550   -14531   -14501 
  -14477   -14469   -14462   -14443   -14407   -14373   -14354   -14342 
  -14341   -14334   -14320   -14328   -14345   -14357   -14376   -14397 
  -14436   -14480   -14489   -14470   -14440   -14409   -14378   -14349 
  -14335   -14337   -14346   -14358   -14372   -14392   -14403   -14392 
  -14397   -14438   -14497   -14551   -14578   -14600   -14638   -14677 
  -14702   -14708   -14697   -14692   -14693   -14677   -14623   -14539 
