Origin Time       2024/04/02 04:24:00
Lat.              40.133
Long.             141.712
Depth. (km)       71
Mag.              6.0
Station Code      TCG006
Station Lat.      36.7638
Station Long.     140.1295
Station Height(m) 122
Record Time       2024/04/02 04:26:14
Sampling Freq(Hz) 100Hz
Duration Time(s)  87
Dir.              N-S
Scale Factor      7845(gal)/8223790
Max. Acc. (gal)   2.451
Last Correction   2024/04/02 04:26:14
Memo.             
[...]
   -5601    -5583    -5626    -5640    -5707    -5857    -5913    -5736 
   -5470    -5339    -5355    -5454    -5616    -5715    -5663    -5628 
   -5757    -5911    -5902    -5776    -5709    -5668    -5582    -5652 
   -5919    -6025    -5830    -5599    -5552    -5629    -5671    -5691 
   -5772    -5895    -5985    -6016    -6035    -6006    -5827    -5589 
   -5487    -5597    -5778    -5857    -5892    -6000    -6073    -6049 
   -6050    -6099    -6103    -6057    -6026    -6073    -6158    -6141 
   -5989    -5810    -5698    -5676    -5667    -5595    -5529    -5516 
   -5509    -5512    -5580    -5713    -5836    -5896    -5937    -6007 
   -6054    -5989    -5929    -6099    -6369    -6439    -6335    -6243 
   -6223    -6235    -6234    -6262    -6339    -6315    -6143    -6033 
   -6096    -6162    -6130    -6093    -6079    -6000    -5863    -5818 
   -5899    -5949    -5931    -5890    -5803    -5718    -5682    -5709 
   -5857    -6023    -6010    -5852    -5668    -5512    -5555    -5805 
   -5900    -5728    -5586    -5617    -5671    -5709    -5860    -6019 
   -5960    -5860    -5983    -6161    -6135    -5948    -5805    -5815 
   -5886    -5868    -5775    -5752    -5823    -5856    -5832    -5823 
   -5786    -5724    -5697    -5692    -5736    -5876    -6060    -6133 
   -6053    -5957    -5931    -5918    -5836    -5806    -5983    -6100 
   -5960    -5852    -5869    -5832    -5768    -5744    -5741    -5728 
   -5655    -5589    -5633    -5729    -5773    -5764    -5760    -5771 
   -5772    -5840    -6050    -6218    -6141    -6006    -6046    -6126 
   -6068    -5979    -6015    -6130    -6147    -6053    -5958    -5867 
   -5829    -5922    -5956    -5815    -5751    -5903    -6114    -6234 
   -6208    -6111    -6107    -6137    -6050    -5985    -6030    -6027 
   -5967    -5962    -5972    -5933    -5957    -6102    -6207    -6141 
   -6000    -5960    -6053    -6104    -5998    -5902    -5910    -5900 
   -5873    -5906    -5853    -5589    -5366    -5413    -5503    -5481 
   -5499    -5525    -5443    -5410    -5540    -5710    -5823    -5869 
   -5859    -5852    -5910    -6015    -6049    -5964    -5898    -5973 
   -6141    -6161    -5922    -5778    -5965    -6131    -5995    -5844 
   -5952    -6112    -6116    -6085    -6049    -5921    -5822    -5819 
   -5818    -5879    -5973    -5917    -5803    -5790    -5799    -5755 
   -5710    -5803    -5965    -5965    -5913    -5984    -6068    -6096 
   -6070    -5945    -5805    -5802    -5857    -5810    -5767    -5841 
   -5948    -6050    -6142    -6158    -6100    -6041    -6010    -5918 
   -5803    -5833    -5931    -5950    -5933    -5910    -5841    -5753 
   -5806    -6010    -6092    -6004    -5965    -6043    -6169    -6199 
   -6053    -5884    -5832    -5852    -5827    -5772    -5869    -6049 
   -6056    -5940    -5890    -5942    -6010    -5998    -5934    -5890 
   -5848    -5815    -5818    -5827    -5853    -5908    -5896    -5759 
   -5618    -5605    -5717    -5864    -5956    -5979    -5942    -5911 
   -6035    -6311    -6466    -6363    -6223    -6197    -6218    -6286 
   -6343    -6218    -5984    -5838    -5776    -5748    -5755    -5715 
   -5641    -5690    -5790    -5751    -5711    -5875    -6081    -6095 
   -5980    -5863    -5715    -5601    -5613    -5632    -5578    -5513 
   -5509    -5609    -5695    -5633    -5595    -5705    -5764    -5724 
   -5742    -5764    -5649    -5525    -5520    -5524    -5493    -5529 
   -5609    -5659    -5721    -5775    -5724    -5624    -5611    -5649 
   -5624    -5602    -5730    -5914    -5929    -5845    -5914    -6100 
   -6131    -5977    -5965    -6184    -6332    -6322    -6285    -6210 
   -6124    -6153    -6241    -6247    -6196    -6195    -6243    -6308 
   -6376    -6386    -6350    -6335    -6266    -6131    -6048    -5960 
   -5826    -5744    -5688    -5579    -5459    -5482    -5668    -5807 
   -5842    -5929    -6070    -6150    -6154    -6165    -6173    -6127 
   -6065    -5984    -5887    -5892    -5979    -6004    -5918    -5725 
   -5532    -5506    -5628    -5765    -5865    -5884    -5794    -5740 
   -5884    -6072    -6041    -5926    -5960    -5984    -5900    -5880 
   -5898    -5856    -5819    -5786    -5746    -5767    -5834    -5875 
   -5867    -5907    -6062    -6184    -6137    -6004    -5960    -6023 
   -6058    -6053    -6131    -6227    -6169    -6035    -6019    -6056 
   -6027    -6014    -6034    -6011    -6012    -6042    -5999    -5896 
   -5751    -5516    -5351    -5458    -5724    -5937    -6012    -5938 
   -5834    -5757    -5640    -5526    -5441    -5382    -5456    -5651 
   -5850    -5991    -6033    -6069    -6154    -6139    -6035    -6022 
   -6093    -6131    -6102    -6062    -6089    -6151    -6143    -6076 
   -6081    -6161    -6189    -6089    -5922    -5934    -6157    -6268 
   -6177    -6026    -5836    -5665    -5652    -5768    -5805    -5655 
   -5549    -5590    -5564    -5526    -5616    -5652    -5609    -5638 
   -5714    -5763    -5787    -5784    -5759    -5687    -5544    -5319 
   -5108    -5171    -5509    -5764    -5788    -5709    -5630    -5593 
   -5497    -5329    -5348    -5548    -5643    -5674    -5890    -6216 
   -6408    -6407    -6308    -6191    -6100    -6084    -6119    -6072 
   -5935    -5859    -5856    -5915    -6068    -6183    -6160    -6137 
   -6224    -6340    -6448    -6529    -6471    -6327    -6239    -6172 
   -6083    -6084    -6204    -6280    -6246    -6239    -6266    -6223 
   -6216    -6297    -6255    -6129    -6205    -6399    -6408    -6255 
   -6133    -6069    -5991    -5925    -5948    -5979    -5925    -5930 
   -6052    -6120    -6147    -6211    -6150    -5991    -6033    -6208 
   -6158    -5887    -5757    -5934    -6169    -6228    -6114    -5888 
   -5667    -5536    -5432    -5344    -5336    -5385    -5471    -5552 
   -5509    -5390    -5409    -5572    -5684    -5688    -5663    -5640 
   -5655    -5718    -5706    -5512    -5242    -5098    -5174    -5389 
   -5590    -5742    -5877    -5857    -5641    -5506    -5643    -5846 
   -5888    -5836    -5783    -5705    -5670    -5703    -5640    -5494 
   -5537    -5779    -5930    -5850    -5651    -5537    -5620    -5788 
   -5925    -5962    -5836    -5719    -5873    -6174    -6315    -6327 
   -6443    -6651    -6790    -6835    -6752    -6457    -6056    -5760 
   -5663    -5784    -5977    -5980    -5819    -5752    -5859    -5971 
   -5940    -5886    -5958    -6134    -6353    -6569    -6789    -6949 
   -6870    -6619    -6423    -6276    -6102    -5917    -5724    -5572 
   -5544    -5571    -5555    -5560    -5584    -5509    -5463    -5640 
   -5888    -6034    -6097    -6088    -6068    -6054    -5938    -5756 
   -5590    -5360    -5136    -5139    -5382    -5671    -5886    -6010 
   -5922    -5645    -5529    -5682    -5823    -5902    -6077    -6222 
   -6158    -6026    -5956    -5987    -6126    -6254    -6339    -6370 
   -6270    -6219    -6335    -6308    -5887    -5341    -5132    -5298 
   -5517    -5698    -5969    -6187    -6073    -5725    -5485    -5385 
   -5201    -5040    -5136    -5281    -5358    -5589    -5837    -5815 
   -5559    -5286    -5258    -5506    -5810    -6057    -6257    -6390 
   -6357    -6169    -6046    -6025    -5962    -5871    -5825    -5795 
   -5728    -5678    -5738    -5791    -5644    -5404    -5346    -5514 
   -5686    -5725    -5734    -5769    -5913    -6282    -6616    -6625 
   -6512    -6390    -6184    -5979    -5809    -5730    -5922    -6189 
   -6126    -5794    -5606    -5728    -6000    -6295    -6602    -6868 
   -6975    -6868    -6679    -6582    -6547    -6431    -6247    -6080 
   -5840    -5508    -5447    -5810    -6092    -6060    -6050    -6072 
   -5914    -5798    -6029    -6463    -6706    -6720    -6794    -7002 
   -7285    -7507    -7303    -6666    -6149    -5961    -5752    -5432 
   -5250    -5254    -5316    -5341    -5324    -5351    -5377    -5310 
   -5246    -5331    -5645    -6010    -6134    -6129    -6204    -6226 
   -6073    -5772    -5413    -5225    -5277    -5323    -5202    -4997 
   -4837    -4808    -4923    -5071    -5220    -5467    -5721    -5876 
   -6096    -6378    -6509    -6524    -6556    -6485    -6158    -5791 
   -5671    -5682    -5621    -5514    -5362    -5093    -4838    -4888 
   -5238    -5510    -5524    -5436    -5347    -5325    -5548    -5977 
   -6303    -6424    -6500    -6659    -6979    -7321    -7344    -6952 
   -6448    -6183    -6183    -6273    -6316    -6191    -6003    -5930 
   -5836    -5684    -5575    -5491    -5670    -6154    -6465    -6521 
   -6608    -6624    -6380    -6033    -5759    -5560    -5548    -5799 
   -6081    -6324    -6550    -6453    -6006    -5579    -5329    -5317 
   -5589    -5949    -6147    -6124    -6045    -6095    -6203    -6119 
   -5818    -5575    -5552    -5652    -5765    -5845    -5832    -5661 
   -5436    -5385    -5512    -5601    -5502    -5325    -5258    -5274 
   -5305    -5366    -5394    -5422    -5589    -5834    -5976    -6039 
   -6135    -6168    -6085    -6079    -6266    -6559    -6698    -6446 
   -5880    -5289    -4854    -4662    -4807    -5169    -5364    -5348 
   -5539    -6000    -6309    -6161    -5549    -4843    -4487    -4536 
   -4926    -5551    -6022    -6069    -5848    -5606    -5490    -5625 
   -6070    -6570    -6706    -6520    -6426    -6644    -7038    -7322 
   -7242    -6772    -6286    -6223    -6540    -6793    -6656    -6291 
   -6156    -6408    -6712    -6721    -6563    -6451    -6151    -5640 
   -5443    -5589    -5462    -4949    -4563    -4587    -4955    -5472 
   -5876    -6185    -6577    -6840    -6798    -6740    -6835    -6837 
   -6685    -6577    -6350    -5871    -5580    -5683    -5819    -5795 
   -5698    -5659    -5767    -5923    -5984    -6039    -6162    -6195 
   -6151    -6192    -6168    -6053    -6102    -6104    -5827    -5695 
   -5880    -5950    -5780    -5618    -5471    -5173    -4945    -5159 
   -5674    -6106    -6297    -6276    -6266    -6415    -6697    -7021 
   -7074    -6890    -6936    -7103    -7080    -6964    -6713    -6274 
   -5954    -5915    -5971    -5944    -5857    -5837    -5926    -6073 
   -6129    -5976    -5717    -5448    -5212    -5154    -5197    -5155 
   -5135    -5243    -5350    -5424    -5576    -5692    -5599    -5445 
   -5339    -5220    -5277    -5618    -5844    -5621    -5310    -5320 
   -5336    -5044    -4814    -5000    -5409    -5665    -5713    -5765 
   -5821    -5748    -5611    -5468    -5258    -4995    -4878    -5019 
   -5159    -5138    -5123    -5132    -5044    -4900    -4818    -4866 
   -5020    -5192    -5246    -5143    -5219    -5717    -6251    -6389 
   -6316    -6439    -6647    -6567    -6370    -6297    -6127    -5921 
   -5988    -6107    -5933    -5748    -5898    -6119    -6177    -6188 
   -6169    -6205    -6421    -6651    -6814    -6990    -7191    -7396 
   -7429    -7198    -6926    -6783    -6643    -6280    -5690    -5174 
   -5007    -5209    -5741    -6389    -6732    -6770    -6851    -6886 
   -6689    -6523    -6519    -6504    -6535    -6743    -6897    -6681 
   -6169    -5755    -5676    -5856    -6127    -6331    -6407    -6426 
   -6494    -6594    -6524    -6180    -5737    -5355    -5063    -4978 
   -5216    -5520    -5526    -5317    -5163    -5189    -5405    -5675 
   -5863    -5971    -6012    -5935    -5734    -5518    -5420    -5587 
   -5989    -6205    -5969    -5414    -4773    -4398    -4587    -5225 
   -5829    -6043    -6029    -6011    -5935    -5887    -6041    -6168 
   -6023    -5787    -5609    -5525    -5687    -5952    -5821    -5201 
   -4633    -4662    -5263    -5884    -5967    -5447    -4772    -4507 
   -4734    -5073    -5471    -6060    -6453    -6336    -5989    -5795 
   -5868    -6026    -6219    -6500    -6596    -6413    -6284    -6268 
   -6079    -5597    -5108    -4828    -4665    -4834    -5517    -6129 
   -6158    -5881    -5783    -6031    -6473    -6901    -7268    -7469 
   -7240    -6655    -6258    -6208    -6116    -5977    -6026    -6118 
   -6139    -6115    -6008    -5890    -5819    -5711    -5568    -5626 
   -5991    -6307    -6345    -6423    -6683    -6748    -6434    -6050 
   -5896    -5965    -6164    -6347    -6291    -6076    -6131    -6493 
   -6721    -6673    -6551    -6463    -6482    -6644    -6814    -6764 
   -6376    -5846    -5533    -5591    -5869    -6043    -5919    -5560 
   -5112    -4687    -4348    -4109    -4093    -4440    -4955    -5239 
   -5223    -5300    -5718    -6266    -6658    -6770    -6678    -6480 
   -6068    -5605    -5475    -5490    -5385    -5366    -5475    -5629 
   -5961    -6517    -7107    -7479    -7456    -7002    -6408    -6254 
   -6763    -7485    -7824    -7665    -7250    -6702    -6151    -5837 
   -5771    -5917    -6318    -6777    -6871    -6374    -5710    -5360 
   -4914    -4226    -4236    -5062    -5746    -6010    -6088    -5952 
   -5687    -5524    -5530    -5736    -6083    -6212    -5915    -5506 
   -5143    -4653    -4301    -4546    -5263    -5825    -5876    -5786 
   -5917    -6019    -5879    -5559    -5097    -4599    -4229    -4278 
   -4847    -5355    -5409    -5301    -5238    -5247    -5267    -5154 
   -5152    -5448    -5630    -5493    -5377    -5503    -5763    -5894 
   -5630    -5111    -4814    -4843    -4862    -4760    -4746    -4972 
   -5395    -5836    -5985    -5740    -5513    -5652    -5967    -6353 
   -6975    -7708    -8253    -8472    -8343    -7998    -7503    -6725 
   -5810    -5258    -5333    -5795    -6303    -6759    -7225    -7730 
   -7973    -7512    -6615    -6145    -6486    -7129    -7519    -7780 
   -8001    -7835    -7318    -6747    -6070    -5347    -4947    -5049 
   -5495    -5937    -5953    -5413    -4725    -4359    -4326    -4378 
   -4318    -4122    -4210    -5000    -6054    -6617    -6731    -6673 
   -6204    -5440    -4943    -4653    -4330    -4209    -4406    -4773 
   -5165    -5447    -5528    -5387    -5229    -5308    -5535    -5814 
   -6319    -6951    -7252    -7179    -6995    -6705    -6459    -6443 
   -6401    -6177    -5906    -5655    -5451    -5266    -5107    -5071 
   -5157    -5302    -5373    -5425    -5875    -6706    -7333    -7622 
   -7859    -7931    -7504    -6740    -6204    -6158    -6411    -6706 
   -6852    -6687    -6246    -5832    -5655    -5518    -5348    -5354 
   -5459    -5513    -5691    -6115    -6602    -6789    -6517    -6091 
   -5842    -5759    -5717    -5806    -6106    -6205    -5756    -5294 
   -5344    -5580    -5724    -5880    -5914    -5765    -5692    -5759 
   -5871    -6003    -6023    -5894    -5738    -5545    -5437    -5692 
   -6016    -5865    -5390    -5108    -5216    -5602    -5995    -6208 
   -6211    -5894    -5308    -4909    -5119    -5767    -6196    -6122 
   -5972    -5969    -5892    -5861    -6114    -6394    -6312    -5879 
   -5526    -5468    -5425    -5327    -5360    -5458    -5576    -5823 
   -6166    -6458    -6462    -6258    -6297    -6561    -6652    -6394 
   -5857    -5374    -5256    -5503    -5892    -6095    -6062    -6048 
   -6151    -6374    -6646    -6700    -6485    -6389    -6639    -6895 
   -6840    -6585    -6220    -5800    -5614    -5680    -5670    -5556 
   -5556    -5643    -5656    -5555    -5354    -5053    -4783    -4764 
   -4953    -5127    -5166    -5015    -4803    -4773    -5024    -5691 
   -6640    -7133    -6787    -6160    -5884    -5984    -6197    -6405 
   -6486    -6201    -5606    -5140    -5069    -5320    -5714    -5890 
   -5597    -5200    -5140    -5356    -5655    -5892    -5929    -5802 
   -5670    -5746    -6123    -6480    -6536    -6424    -6268    -6046 
   -5875    -5921    -6118    -6234    -6137    -5856    -5485    -5127 
   -4874    -4792    -4869    -4965    -5027    -5293    -5842    -6363 
   -6589    -6461    -6137    -5941    -5910    -5849    -5730    -5659 
   -5746    -5857    -5753    -5734    -6068    -6259    -5983    -5570 
   -5254    -5097    -5274    -5715    -6100    -6377    -6733    -7107 
   -7236    -7091    -6887    -6704    -6501    -6471    -6772    -7192 
   -7437    -7352    -7037    -6766    -6544    -6320    -6187    -6030 
   -5771    -5582    -5514    -5522    -5568    -5506    -5246    -4896 
   -4627    -4568    -4830    -5447    -6183    -6671    -6814    -6787 
   -6681    -6442    -6169    -6124    -6269    -6332    -6313    -6215 
   -5834    -5244    -4936    -5185    -5593    -5745    -5895    -6339 
   -6809    -6961    -6918    -6839    -6558    -6065    -5598    -5215 
   -4912    -4846    -5026    -5213    -5243    -5177    -5144    -5297 
   -5773    -6350    -6556    -6343    -5930    -5362    -4849    -4758 
   -5011    -5225    -5363    -5578    -5780    -5944    -6153    -6255 
   -6222    -6389    -6751    -6779    -6458    -6417    -6737    -6912 
   -6791    -6581    -6403    -6292    -6223    -6110    -5981    -5998 
   -6220    -6450    -6404    -6164    -6035    -5996    -5985    -6131 
   -6274    -6226    -6088    -5840    -5398    -4930    -4673    -4725 
   -4966    -5142    -5196    -5296    -5489    -5725    -6021    -6357 
   -6532    -6309    -5815    -5444    -5283    -5044    -4673    -4580 
   -4888    -5049    -4857    -4815    -5096    -5362    -5508    -5674 
   -5892    -6054    -6099    -6056    -5975    -6027    -6214    -6222 
   -6046    -6108    -6744    -7732    -8359    -8351    -8078    -7715 
   -7261    -6891    -6687    -6520    -6359    -6403    -6646    -6779 
   -6700    -6511    -6172    -5587    -4950    -4797    -5271    -5832 
   -6176    -6357    -6273    -6043    -5992    -6029    -5800    -5409 
   -5486    -6185    -6759    -6664    -6137    -5578    -5171    -4924 
   -4777    -4622    -4369    -4133    -4120    -4291    -4483    -4752 
   -5101    -5340    -5463    -5420    -5073    -4689    -4544    -4514 
   -4546    -4710    -4887    -4976    -5134    -5382    -5529    -5628 
   -5721    -5632    -5494    -5664    -6085    -6405    -6470    -6416 
   -6413    -6462    -6438    -6211    -5783    -5366    -5179    -5216 
   -5406    -5768    -6228    -6538    -6525    -6347    -6272    -6435 
   -6799    -7119    -7241    -7238    -7038    -6617    -6234    -6006 
   -5902    -5891    -5821    -5641    -5548    -5740    -6131    -6363 
   -6365    -6394    -6529    -6750    -7030    -7202    -7198    -7125 
   -6990    -6736    -6459    -6326    -6365    -6490    -6658    -6870 
   -7020    -6912    -6550    -6241    -6192    -6150    -5822    -5393 
   -5139    -5113    -5348    -5601    -5540    -5382    -5383    -5505 
   -5879    -6384    -6546    -6359    -6138    -5931    -5722    -5570 
   -5493    -5401    -5259    -5282    -5551    -5817    -6007    -6215 
   -6355    -6243    -5732    -5039    -4711    -4799    -4957    -5267 
   -5899    -6467    -6509    -6166    -5888    -5741    -5678    -5811 
   -5933    -5786    -5687    -5903    -6081    -5881    -5479    -5192 
   -5096    -5169    -5421    -5702    -5833    -5931    -6102    -6176 
   -6048    -5787    -5468    -5235    -5165    -5069    -4877    -4864 
   -5124    -5427    -5607    -5672    -5637    -5540    -5455    -5413 
   -5452    -5572    -5668    -5714    -5837    -6002    -6093    -6262 
   -6547    -6604    -6338    -6118    -6164    -6393    -6674    -6941 
