Origin Time       2024/04/02 04:24:00
Lat.              40.133
Long.             141.712
Depth. (km)       71
Mag.              6.0
Station Code      TCG006
Station Lat.      36.7638
Station Long.     140.1295
Station Height(m) 122
Record Time       2024/04/02 04:26:14
Sampling Freq(Hz) 100Hz
Duration Time(s)  87
Dir.              E-W
Scale Factor      7845(gal)/8223790
Max. Acc. (gal)   2.445
Last Correction   2024/04/02 04:26:14
Memo.             
[...]
   -1857    -1942    -1776    -1644    -1745    -1906    -1939    -1910 
   -1879    -1771    -1611    -1578    -1733    -1923    -1942    -1809 
   -1764    -1804    -1738    -1651    -1710    -1818    -1879    -1964 
   -2079    -2118    -2088    -2061    -2058    -2060    -2095    -2147 
   -2072    -1858    -1710    -1668    -1611    -1553    -1583    -1676 
   -1773    -1852    -1879    -1883    -1952    -2027    -1993    -1919 
   -1942    -2018    -2038    -2042    -2089    -2115    -2037    -1904 
   -1858    -1929    -2022    -2120    -2236    -2277    -2196    -2056 
   -1892    -1775    -1757    -1740    -1691    -1725    -1800    -1783 
   -1675    -1564    -1525    -1598    -1752    -1923    -2080    -2153 
   -2039    -1804    -1686    -1732    -1764    -1723    -1729    -1840 
   -1934    -1877    -1742    -1686    -1686    -1624    -1512    -1493 
   -1611    -1688    -1621    -1524    -1458    -1404    -1404    -1474 
   -1584    -1705    -1757    -1734    -1730    -1711    -1615    -1552 
   -1563    -1570    -1567    -1522    -1358    -1219    -1301    -1489 
   -1560    -1575    -1640    -1664    -1582    -1505    -1491    -1475 
   -1432    -1440    -1545    -1652    -1684    -1717    -1783    -1833 
   -1869    -1930    -2019    -2145    -2286    -2380    -2415    -2419 
   -2411    -2427    -2427    -2340    -2208    -2100    -2033    -1971 
   -1873    -1796    -1800    -1838    -1884    -1962    -1992    -1939 
   -1937    -1989    -1949    -1804    -1698    -1746    -1907    -2010 
   -1977    -1881    -1802    -1745    -1690    -1691    -1794    -1899 
   -1869    -1741    -1659    -1647    -1663    -1733    -1817    -1750 
   -1563    -1462    -1494    -1601    -1752    -1825    -1725    -1591 
   -1580    -1621    -1618    -1624    -1656    -1669    -1656    -1649 
   -1674    -1732    -1742    -1628    -1491    -1453    -1449    -1456 
   -1548    -1663    -1683    -1647    -1675    -1798    -1946    -2033 
   -2069    -2111    -2096    -1965    -1848    -1857    -1892    -1864 
   -1867    -1912    -1854    -1722    -1707    -1792    -1875    -1964 
   -2010    -1933    -1804    -1728    -1649    -1544    -1533    -1628 
   -1711    -1773    -1841    -1860    -1791    -1695    -1678    -1759 
   -1813    -1730    -1633    -1669    -1732    -1663    -1555    -1588 
   -1678    -1711    -1818    -2002    -2123    -2200    -2254    -2259 
   -2257    -2277    -2285    -2257    -2270    -2313    -2178    -1888 
   -1753    -1810    -1802    -1687    -1629    -1641    -1638    -1613 
   -1603    -1642    -1776    -1971    -2100    -2173    -2259    -2220 
   -2012    -1873    -1857    -1826    -1795    -1777    -1707    -1625 
   -1568    -1474    -1347    -1297    -1382    -1478    -1478    -1497 
   -1624    -1719    -1683    -1621    -1613    -1602    -1567    -1553 
   -1606    -1745    -1884    -1890    -1779    -1730    -1773    -1763 
   -1701    -1736    -1834    -1865    -1846    -1864    -1892    -1858 
   -1779    -1721    -1721    -1748    -1761    -1787    -1841    -1871 
   -1852    -1800    -1745    -1737    -1773    -1763    -1653    -1530 
   -1483    -1502    -1530    -1536    -1548    -1602    -1667    -1674 
   -1610    -1583    -1679    -1810    -1885    -1896    -1834    -1772 
   -1873    -2080    -2164    -2139    -2151    -2126    -2023    -1980 
   -2022    -2060    -2079    -2077    -2062    -2061    -2049    -2015 
   -2045    -2116    -2088    -1961    -1818    -1651    -1524    -1582 
   -1783    -1927    -1968    -1966    -1863    -1638    -1467    -1475 
   -1614    -1817    -1984    -1979    -1804    -1664    -1669    -1692 
   -1691    -1765    -1840    -1755    -1584    -1516    -1534    -1512 
   -1464    -1502    -1606    -1630    -1568    -1568    -1633    -1594 
   -1462    -1420    -1502    -1621    -1702    -1709    -1713    -1763 
   -1792    -1827    -1907    -1984    -2030    -2041    -2022    -2015 
   -2038    -2089    -2135    -2146    -2151    -2150    -2049    -1854 
   -1733    -1721    -1705    -1698    -1742    -1760    -1715    -1660 
   -1626    -1657    -1800    -1976    -2072    -2073    -1988    -1852 
   -1796    -1934    -2165    -2284    -2247    -2085    -1825    -1621 
   -1556    -1525    -1551    -1721    -1884    -1871    -1776    -1795 
   -1896    -1917    -1885    -1896    -1861    -1714    -1583    -1552 
   -1578    -1659    -1753    -1760    -1695    -1659    -1644    -1548 
   -1449    -1541    -1741    -1826    -1860    -1995    -2089    -1969 
   -1763    -1642    -1591    -1576    -1575    -1588    -1665    -1741 
   -1660    -1476    -1389    -1413    -1429    -1437    -1506    -1590 
   -1597    -1559    -1614    -1814    -2008    -2010    -1845    -1675 
   -1559    -1498    -1530    -1653    -1763    -1750    -1680    -1709 
   -1794    -1767    -1687    -1734    -1856    -1923    -1953    -1933 
   -1836    -1710    -1571    -1449    -1472    -1626    -1701    -1649 
   -1667    -1800    -1875    -1907    -2058    -2230    -2246    -2222 
   -2226    -2115    -1954    -1953    -2077    -2134    -2085    -1999 
   -1865    -1757    -1794    -1918    -2068    -2254    -2334    -2216 
   -2083    -2065    -2128    -2176    -2173    -2227    -2343    -2331 
   -2168    -2031    -1961    -1838    -1679    -1615    -1633    -1567 
   -1393    -1282    -1320    -1408    -1463    -1459    -1363    -1227 
   -1219    -1398    -1647    -1857    -1911    -1757    -1598    -1579 
   -1590    -1559    -1547    -1533    -1455    -1402    -1432    -1456 
   -1453    -1437    -1324    -1150    -1112    -1259    -1418    -1529 
   -1655    -1719    -1663    -1652    -1761    -1818    -1767    -1718 
   -1722    -1776    -1880    -2003    -2037    -1911    -1772    -1745 
   -1760    -1817    -2006    -2228    -2331    -2394    -2477    -2377 
   -2039    -1768    -1737    -1798    -1850    -1923    -1984    -2011 
   -2014    -2004    -2058    -2176    -2231    -2177    -2084    -2010 
   -1971    -1975    -2014    -2019    -1912    -1741    -1690    -1841 
   -2096    -2304    -2323    -2155    -1995    -1949    -1960    -1977 
   -2003    -2049    -2076    -1987    -1794    -1641    -1613    -1721 
   -1972    -2282    -2482    -2527    -2504    -2435    -2258    -1976 
   -1759    -1695    -1609    -1422    -1271    -1165    -1069    -1116 
   -1340    -1561    -1695    -1821    -1927    -1899    -1736    -1583 
   -1537    -1588    -1705    -1833    -1885    -1803    -1617    -1424 
   -1281    -1258    -1341    -1354    -1282    -1287    -1378    -1474 
   -1582    -1760    -2073    -2442    -2729    -2984    -3186    -3099 
   -2714    -2301    -2008    -1815    -1675    -1514    -1345    -1246 
   -1179    -1129    -1197    -1367    -1528    -1703    -1977    -2232 
   -2296    -2181    -2027    -1931    -1898    -1849    -1760    -1701 
   -1609    -1363    -1070     -885     -823     -950    -1296    -1634 
   -1713    -1575    -1417    -1347    -1405    -1567    -1761    -1914 
   -1944    -1880    -1830    -1779    -1671    -1544    -1402    -1205 
   -1054    -1092    -1251    -1313    -1202    -1147    -1350    -1657 
   -1833    -1903    -2006    -2091    -2112    -2243    -2390    -2215 
   -1836    -1640    -1628    -1593    -1491    -1370    -1285    -1344 
   -1553    -1799    -2030    -2187    -2228    -2293    -2484    -2662 
   -2678    -2558    -2415    -2313    -2200    -2030    -1887    -1769 
   -1543    -1279    -1158    -1119    -1101    -1243    -1574    -1946 
   -2315    -2687    -2967    -3122    -3148    -2990    -2813    -2822 
   -2891    -2808    -2571    -2266    -1937    -1647    -1480    -1468 
   -1580    -1761    -1915    -1969    -1972    -2000    -2014    -1962 
   -1868    -1777    -1738    -1736    -1752    -1869    -2058    -2069 
   -1788    -1458    -1302    -1196     -986     -865    -1003    -1194 
   -1291    -1448    -1630    -1647    -1578    -1588    -1657    -1718 
   -1756    -1752    -1713    -1664    -1553    -1317    -1032     -870 
    -935    -1111    -1219    -1247    -1198    -1032     -873     -904 
   -1150    -1474    -1722    -1849    -1881    -1817    -1668    -1580 
   -1721    -2052    -2403    -2664    -2764    -2654    -2335    -1844 
   -1324    -1024    -1061    -1372    -1840    -2223    -2299    -2160 
   -2022    -1969    -2087    -2405    -2712    -2768    -2597    -2407 
   -2363    -2447    -2562    -2675    -2720    -2570    -2335    -2281 
   -2347    -2324    -2281    -2282    -2193    -2058    -1998    -1908 
   -1721    -1594    -1648    -1880    -2227    -2461    -2365    -2049 
   -1742    -1536    -1451    -1425    -1378    -1341    -1269    -1067 
    -864     -869    -1121    -1555    -2061    -2404    -2423    -2224 
   -1942    -1675    -1514    -1416    -1294    -1086     -745     -391 
    -244     -294     -364     -380     -388     -477     -706    -1012 
   -1293    -1436    -1340    -1096     -965    -1058    -1270    -1440 
   -1503    -1487    -1410    -1344    -1355    -1371    -1343    -1348 
   -1460    -1692    -1960    -2122    -2178    -2205    -2180    -2126 
   -2172    -2278    -2286    -2211    -2170    -2191    -2239    -2239 
   -2085    -1844    -1745    -1877    -2180    -2520    -2601    -2366 
   -2188    -2241    -2423    -2706    -2920    -2793    -2428    -2151 
   -2046    -2027    -2062    -2150    -2239    -2211    -2019    -1819 
   -1806    -1964    -2085    -2111    -2222    -2459    -2694    -2895 
   -3003    -2830    -2367    -1853    -1506    -1377    -1350    -1313 
   -1290    -1328    -1460    -1698    -1946    -2116    -2165    -2110 
   -2087    -2116    -2029    -1786    -1537    -1328    -1100    -1031 
   -1252    -1414    -1247     -955     -741     -648     -777    -1077 
   -1368    -1655    -1849    -1809    -1814    -2037    -2130    -1988 
   -1872    -1877    -1946    -1939    -1782    -1636    -1580    -1526 
   -1583    -1881    -2204    -2357    -2459    -2521    -2407    -2195 
   -2007    -1822    -1745    -1938    -2196    -2231    -2158    -2174 
   -2214    -2208    -2231    -2281    -2312    -2431    -2677    -2818 
   -2620    -2201    -1941    -1867    -1715    -1525    -1402    -1224 
   -1120    -1321    -1645    -1734    -1475    -1082     -830     -795 
    -969    -1302    -1644    -1885    -1993    -1917    -1671    -1414 
   -1356    -1486    -1552    -1440    -1302    -1236    -1255    -1395 
   -1549    -1570    -1595    -1741    -1757    -1413     -847     -373 
    -176     -270     -615    -1097    -1460    -1571    -1567    -1563 
   -1524    -1601    -2031    -2610    -2965    -3063    -3032    -2866 
   -2531    -2195    -2083    -2106    -2015    -1784    -1557    -1435 
   -1467    -1611    -1629    -1394    -1188    -1188    -1204    -1158 
   -1193    -1366    -1611    -1831    -1996    -2069    -1890    -1563 
   -1479    -1690    -1941    -2106    -2115    -1841    -1360    -1051 
   -1061    -1188    -1439    -1903    -2381    -2721    -2994    -3179 
   -3167    -2956    -2706    -2614    -2613    -2446    -2101    -1755 
   -1467    -1329    -1485    -1860    -2142    -2120    -1904    -1711 
   -1645    -1695    -1804    -1931    -2091    -2326    -2562    -2663 
   -2655    -2647    -2612    -2528    -2461    -2370    -2072    -1528 
   -1063    -1004    -1237    -1543    -1956    -2392    -2467    -2112 
   -1779    -1763    -1867    -1908    -2006    -2353    -2943    -3485 
   -3631    -3250    -2493    -1706    -1228    -1093    -1112    -1179 
   -1281    -1321    -1228    -1084     -977     -936    -1098    -1482 
   -1733    -1713    -1717    -1782    -1687    -1575    -1709    -1996 
   -2204    -2201    -1895    -1310     -789     -650     -774     -942 
   -1169    -1524    -1914    -2035    -1707    -1167     -746     -598 
    -827    -1314    -1744    -1948    -1791    -1240     -696     -503 
    -560     -716    -1017    -1482    -1831    -1760    -1368     -945 
    -681     -810    -1421    -2147    -2581    -2871    -3257    -3460 
   -3303    -3146    -3088    -2802    -2347    -2057    -1956    -1933 
   -1907    -1782    -1570    -1318    -1061     -984    -1296    -1906 
   -2531    -2976    -3106    -2802    -2199    -1647    -1439    -1679 
   -2188    -2623    -2883    -3060    -3145    -3094    -2889    -2542 
   -2201    -1933    -1605    -1215     -839     -502     -452     -909 
   -1544    -2016    -2380    -2547    -2273    -1645     -985     -456 
    -120     -108     -427     -857    -1225    -1459    -1460    -1290 
   -1252    -1494    -1858    -2192    -2442    -2517    -2358    -2061 
   -1725    -1395    -1177    -1192    -1395    -1526    -1447    -1336 
   -1321    -1426    -1675    -1857    -1861    -1957    -2060    -1779 
   -1312    -1143    -1302    -1514    -1575    -1448    -1215    -1031 
   -1030    -1198    -1447    -1768    -2160    -2432    -2416    -2214 
   -1969    -1790    -1919    -2386    -2820    -2979    -3024    -3048 
   -2868    -2511    -2334    -2308    -2029    -1609    -1445    -1439 
   -1475    -1802    -2335    -2736    -3061    -3416    -3597    -3555 
   -3353    -2809    -2035    -1517    -1385    -1489    -1809    -2182 
   -2326    -2197    -1972    -1885    -1991    -2002    -1842    -1880 
   -2230    -2562    -2701    -2749    -2747    -2673    -2571    -2450 
   -2304    -2106    -1744    -1250     -824     -623     -704     -915 
    -965     -909     -980    -1067    -1090    -1275    -1632    -1942 
   -2130    -2123    -1845    -1433    -1116     -961     -861     -804 
    -826     -724     -306      241      633      773      675      349 
    -147     -608     -822     -789     -666     -554     -465     -453 
    -596     -835    -1028    -1139    -1206    -1158     -973     -876 
    -981    -1247    -1779    -2478    -2913    -2964    -2928    -3029 
   -3235    -3449    -3657    -3761    -3620    -3348    -3121    -2934 
   -2706    -2415    -2119    -1884    -1755    -1783    -1976    -2192 
   -2277    -2354    -2616    -2933    -3130    -3271    -3379    -3308 
   -3010    -2614    -2286    -2103    -2116    -2358    -2620    -2689 
   -2718    -2671    -2150    -1240     -494      -89      -66     -643 
   -1533    -2146    -2494    -2816    -3013    -2961    -2736    -2454 
   -2249    -2214    -2173    -1845    -1235     -567      -14      321 
     398      263       22     -252     -550     -913    -1394    -1941 
   -2401    -2635    -2640    -2543    -2404    -2139    -1819    -1669 
   -1644    -1534    -1375    -1244    -1075     -861     -760     -915 
   -1275    -1602    -1690    -1645    -1684    -1763    -1757    -1775 
   -1910    -2054    -2173    -2359    -2494    -2459    -2415    -2392 
   -2236    -2080    -2170    -2351    -2236    -1810    -1499    -1613 
   -1965    -2158    -2192    -2346    -2517    -2404    -2162    -2149 
   -2365    -2610    -2640    -2350    -2053    -1979    -1917    -1803 
   -1857    -2091    -2334    -2532    -2705    -2825    -2872    -2956 
   -3164    -3284    -3056    -2648    -2377    -2296    -2386    -2621 
   -2739    -2428    -1637     -685      -45      198      203      -63 
    -429     -598     -816    -1367    -1890    -1960    -1647    -1306 
   -1227    -1472    -1818    -1867    -1468     -884     -373      -89 
    -199     -598     -877     -864     -831    -1074    -1470    -1831 
   -2299    -2844    -3099    -2963    -2679    -2389    -1996    -1479 
   -1047     -868     -886     -926     -915     -949    -1046    -1170 
   -1347    -1520    -1620    -1760    -1960    -1987    -1822    -1741 
   -1750    -1594    -1248     -824     -291      263      521      436 
     261       29     -440    -1128    -1849    -2452    -2810    -2876 
   -2762    -2625    -2538    -2489    -2492    -2515    -2376    -2004 
   -1664    -1574    -1655    -1788    -1876    -1811    -1606    -1418 
   -1460    -1804    -2311    -2768    -2986    -2948    -2899    -2926 
   -2983    -3179    -3418    -3431    -3244    -2956    -2538    -2165 
   -2193    -2608    -3021    -3164    -3015    -2697    -2420    -2281 
   -2141    -1912    -1702    -1599    -1579    -1559    -1545    -1609 
   -1603    -1389    -1208    -1259    -1337    -1333    -1451    -1706 
   -1908    -2011    -2022    -1945    -1888    -1898    -1861    -1667 
   -1378    -1175    -1159    -1281    -1410    -1475    -1479    -1447 
   -1401    -1320    -1248    -1350    -1625    -1873    -1993    -1991 
   -1856    -1675    -1556    -1501    -1559    -1777    -1999    -1998 
   -1733    -1343    -1058    -1027    -1150    -1316    -1556    -1748 
   -1651    -1333    -1158    -1273    -1452    -1502    -1429    -1263 
   -1048     -926    -1082    -1495    -1918    -2297    -2713    -3046 
   -3260    -3445    -3496    -3362    -3181    -2924    -2571    -2381 
   -2421    -2404    -2247    -2169    -2220    -2269    -2219    -2058 
   -1921    -1935    -2037    -1999    -1721    -1501    -1532    -1518 
   -1374    -1364    -1445    -1424    -1397    -1447    -1489    -1547 
   -1672    -1728    -1579    -1337    -1183    -1165    -1332    -1672 
   -1857    -1678    -1417    -1273    -1047     -696     -513     -702 
   -1146    -1605    -1973    -2323    -2732    -3148    -3464    -3566 
   -3373    -3034    -2812    -2720    -2529    -2107    -1588    -1290 
   -1389    -1640    -1765    -1876    -2020    -2025    -1975    -2095 
   -2280    -2312    -2277    -2278    -2112    -1636    -1062     -544 
     -71      213      152     -140     -437     -637     -697     -592 
    -525     -739    -1100    -1385    -1644    -1863    -1836    -1588 
   -1412    -1416    -1486    -1526    -1490    -1387    -1254    -1034 
    -799     -780     -901     -949    -1115    -1553    -1981    -2284 
   -2632    -2903    -2828    -2516    -2227    -1987    -1764    -1690 
   -1860    -2046    -1942    -1714    -1692    -1730    -1594    -1530 
   -1767    -2130    -2528    -2911    -3032    -2907    -2771    -2574 
   -2297    -2180    -2219    -2068    -1683    -1404    -1389    -1564 
   -1792    -1921    -2045    -2365    -2714    -2809    -2683    -2475 
   -2226    -2095    -2232    -2492    -2654    -2679    -2533    -2141 
   -1701    -1541    -1705    -2092    -2596    -2949    -2945    -2623 
   -2120    -1637    -1441    -1634    -1969    -2219    -2440    -2663 
   -2820    -2991    -3169    -3136    -2856    -2547    -2349    -2259 
   -2249    -2246    -2195    -2064    -1822    -1506    -1201     -951 
    -770     -645     -606     -753    -1070    -1390    -1549    -1521 
   -1451    -1436    -1406    -1301    -1124     -907     -764     -827 
   -1021    -1148    -1163    -1123     -943     -533      -75      108 
     -67     -415     -703     -837     -846     -722     -535     -477 
    -581     -703     -793    -1003    -1422    -1933    -2401    -2793 
   -3018    -2980    -2739    -2529    -2479    -2404    -2147    -1884 
   -1809    -1890    -2010    -2112    -2170    -2074    -1802    -1603 
   -1637    -1725    -1776    -1910    -2080    -2173    -2215    -2176 
   -2053    -2042    -2245    -2442    -2417    -2269    -2187    -2205 
   -2344    -2621    -2883    -2994    -2980    -2767    -2201    -1445 
    -878     -703     -908    -1281    -1467    -1421    -1391    -1437 
   -1516    -1656    -1767    -1748    -1655    -1525    -1402    -1421 
   -1547    -1624    -1717    -1925    -2018    -1796    -1478    -1321 
