Origin Time       2024/04/02 04:24:00
Lat.              40.133
Long.             141.712
Depth. (km)       71
Mag.              6.0
Station Code      TCG013
Station Lat.      36.4368
Station Long.     140.0227
Station Height(m) 66
Record Time       2024/04/02 04:26:27
Sampling Freq(Hz) 100Hz
Duration Time(s)  60
Dir.              U-D
Scale Factor      7845(gal)/8223790
Max. Acc. (gal)   0.864
Last Correction   2024/04/02 04:26:26
Memo.             
[...]
   16861    17301    17481    17320    17095    16988    17028    17167 
   17255    17201    17138    17146    17103    17024    17047    17122 
   17174    17244    17285    17280    17312    17340    17309    17284 
   17236    17077    16965    17088    17263    17242    17039    16839 
   16861    17111    17329    17305    17135    17165    17404    17419 
   17147    17026    17163    17230    17119    17046    17130    17383 
   17617    17463    17059    16993    17316    17537    17444    17217 
   17062    17022    16999    16956    17023    17215    17352    17334 
   17178    17012    17012    17138    17161    17034    16935    16984 
   17165    17355    17308    16983    16692    16741    17122    17518 
   17590    17343    17081    17019    17096    17136    17115    17123 
   17123    17062    17096    17300    17447    17379    17145    16858 
   16773    17007    17261    17320    17311    17232    17054    17000 
   17143    17281    17343    17374    17354    17336    17336    17228 
   17140    17267    17361    17154    16899    16960    17262    17452 
   17401    17254    17157    17188    17320    17402    17412    17435 
   17412    17307    17251    17208    17010    16808    16918    17281 
   17512    17401    17157    17024    17012    17077    17150    17115 
   17076    17226    17397    17331    17146    17032    16995    17108 
   17294    17216    16908    16773    16914    17139    17251    17170 
   17041    16962    16849    16779    16951    17236    17261    16957 
   16758    17015    17358    17329    17107    16993    17028    17169 
   17289    17265    17158    17078    17041    17016    16978    16949 
   17028    17197    17266    17253    17327    17394    17302    17216 
   17366    17604    17605    17410    17240    17184    17258    17316 
   17259    17270    17324    17248    17197    17246    17243    17216 
   17248    17274    17204    17058    16968    17028    17199    17313 
   17255    17103    17058    17185    17234    17028    16916    17184 
   17493    17460    17151    16895    16893    17043    17182    17265 
   17274    17238    17203    17130    17018    17045    17265    17381 
   17180    16926    16947    17085    17086    17077    17200    17324 
   17305    17118    16912    16965    17274    17523    17458    17147 
   16942    17073    17328    17460    17446    17288    17080    17018 
   17086    17118    17142    17255    17319    17247    17211    17219 
   17103    16978    17014    17096    17180    17257    17181    17046 
   17042    17081    17157    17305    17311    17174    17196    17388 
   17502    17459    17286    17078    17088    17305    17402    17348 
   17343    17311    17130    16995    17081    17213    17174    17053 
   17076    17231    17259    17139    17078    17061    17064    17186 
   17259    17120    16970    16938    16999    17151    17262    17227 
   17158    17070    16912    16918    17203    17429    17404    17298 
   17185    17077    17073    17086    17026    17059    17242    17369 
   17338    17159    16969    17038    17216    17096    16960    17259 
   17510    17226    16900    17001    17266    17325    17131    16947 
   17082    17348    17231    16823    16750    17097    17383    17336 
   17028    16823    17099    17547    17593    17327    17086    16893 
   16849    17135    17463    17410    17126    16953    16991    17207 
   17352    17327    17400    17415    16988    16623    17016    17709 
   17739    17061    16551    16819    17401    17474    17140    17066 
   17290    17419    17367    17271    17243    17270    17180    16997 
   16997    17223    17408    17413    17371    17321    17227    17294 
   17435    17221    16866    16910    17232    17374    17150    16850 
   16919    17257    17369    17155    16931    16923    17058    17153 
   17155    17139    17192    17230    17111    17019    17142    17194 
   16976    16829    17038    17378    17432    17186    17068    17251 
   17369    17212    17093    17182    17273    17186    16942    16772 
   16900    17200    17382    17361    17250    17118    16919    16794 
   17008    17433    17560    17244    16954    16978    17055    17068 
   17204    17358    17315    17169    17100    17193    17396    17416 
   17103    16889    17145    17452    17331    17064    17130    17475 
   17707    17527    17089    16920    17154    17356    17281    17062 
   16895    16969    17259    17358    17104    16868    16887    17058 
   17216    17228    17221    17419    17539    17165    16642    16686 
   17211    17486    17261    16950    16924    17077    17143    17116 
   17101    17097    17065    16966    16930    17157    17509    17564 
   17217    16904    16957    17119    17153    17205    17328    17371 
   17292    17186    17095    16965    16881    16996    17235    17444 
   17505    17270    16942    17045    17514    17610    17135    16841 
   17167    17602    17612    17304    17046    17035    17172    17275 
   17343    17454    17523    17375    17126    17101    17362    17564 
   17385    16987    16853    17081    17257    17101    16888    16949 
   17115    17146    17177    17253    17209    17150    17246    17374 
   17366    17207    17037    17049    17142    17059    16876    16833 
   16969    17192    17351    17285    17058    16991    17149    17263 
   17257    17174    17014    17058    17347    17302    16934    16992 
   17432    17552    17269    17016    17074    17375    17560    17424 
   17211    17163    17169    17085    17030    17140    17363    17466 
   17275    16906    16653    16799    17320    17653    17340    16864 
   16992    17506    17614    17207    16846    16961    17410    17620 
   17270    16806    16764    16938    16946    16954    17070    17042 
   16985    17219    17477    17408    17143    16885    16887    17315 
   17667    17520    17311    17313    17246    17074    16992    17150 
   17473    17448    16939    16686    17082    17497    17354    16945 
   16841    17116    17304    17115    16996    17288    17464    17172 
   16900    16954    17053    17128    17358    17581    17479    17099 
   16789    16804    17057    17231    17208    17165    17209    17254 
   17235    17181    17124    17109    17154    17199    17158    17050 
   17101    17369    17491    17371    17351    17408    17207    16945 
   17054    17379    17450    17220    17015    17084    17321    17358 
   17189    17213    17348    17227    16988    16916    17049    17292 
   17308    16911    16591    16803    17266    17467    17313    17089 
   17084    17267    17285    17019    16854    17093    17558    17821 
   17568    17073    16895    17061    17244    17338    17312    17089 
   16800    16764    17099    17567    17724    17270    16599    16503 
   17062    17483    17248    16838    16904    17236    17246    17022 
   17072    17377    17485    17262    17038    17149    17470    17510 
   17151    16908    17120    17378    17205    16854    16849    17216 
   17593    17559    17149    16984    17246    17393    17190    16965 
   17045    17386    17525    17128    16596    16676    17377    17832 
   17525    17027    17045    17379    17374    17073    17055    17307 
   17378    17174    16848    16735    17111    17524    17351    16875 
   16803    17153    17366    17220    17045    17145    17402    17462 
   17227    16956    16895    17030    17132    17111    17131    17136 
   17015    17092    17475    17641    17298    16848    16835    17289 
   17691    17726    17535    17259    16951    16725    16744    17068 
   17339    17136    16784    16783    16966    17113    17308    17475 
   17470    17370    17289    17236    17147    16960    16835    17070 
   17437    17396    17109    17026    16977    16881    17055    17354 
   17413    17343    17347    17385    17383    17296    17149    17020 
   16879    16845    17100    17386    17505    17624    17574    17196 
   16933    17058    17339    17501    17329    16951    16943    17408 
   17616    17182    16711    16826    17334    17644    17566    17366 
   17331    17431    17388    17041    16656    16715    17211    17452 
   17041    16557    16648    17039    17107    16953    17120    17442 
   17285    16792    16700    17149    17516    17334    16920    16918 
   17313    17486    17226    16997    17088    17230    17119    16846 
   16700    16777    16958    17203    17413    17290    16911    16803 
   17053    17324    17517    17548    17308    17145    17379    17679 
   17635    17301    16868    16675    16961    17192    16996    16949 
   17193    17166    17055    17358    17685    17575    17265    17062 
   17045    17238    17436    17336    17041    16829    16811    17026 
   17271    17182    16892    16966    17377    17446    17000    16619 
   16683    16988    17221    17270    17170    17072    17131    17328 
   17494    17454    17196    16980    17005    17147    17139    16978 
   16962    17184    17348    17254    17015    16880    17095    17537 
   17664    17394    17271    17378    17400    17369    17369    17338 
   17321    17323    17163    16835    16703    17028    17424    17346 
   17018    17054    17428    17590    17298    16941    17018    17336 
   17358    17124    16977    17027    17181    17212    17099    17031 
   16931    16833    17037    17338    17315    17128    17065    17066 
   17059    17127    17336    17614    17652    17271    16960    17158 
   17410    17224    16908    16903    17139    17316    17311    17132 
   16912    16970    17302    17454    17334    17259    17298    17350 
   17370    17262    17105    17091    17135    17157    17228    17332 
   17451    17491    17267    16991    17070    17293    17178    16970 
   17076    17255    17261    17180    17089    17159    17363    17265 
   16877    16804    17170    17462    17402    17108    16740    16580 
   16849    17302    17586    17689    17695    17636    17483    17018 
   16375    16313    16951    17374    17190    16987    17061    17192 
   17219    17031    16810    17061    17539    17442    16973    16877 
   17061    17135    17140    17235    17446    17541    17308    17023 
   17051    17317    17564    17618    17398    17070    17100    17624 
   17955    17591    17034    16883    17092    17296    17242    17066 
   17103    17265    17204    17023    16980    17010    17082    17213 
   17297    17348    17351    17103    16776    16756    16876    16906 
   17066    17319    17379    17321    17288    17255    17236    17181 
   17024    16968    17120    17170    16974    16837    16849    16845 
   16915    17170    17362    17240    16957    16873    17061    17261 
   17271    17092    16875    16816    16929    17077    17166    17111 
   16983    17076    17451    17710    17505    17074    17012    17402 
   17659    17486    17240    17139    17024    16916    16912    16938 
   17064    17286    17298    17140    17119    17158    17154    17122 
   16956    16880    17213    17520    17361    17096    17086    17281 
   17471    17321    17020    17216    17632    17494    17020    16852 
   16961    16984    16826    16707    16941    17479    17710    17277 
   16787    16970    17591    17892    17639    17220    17072    17269 
   17482    17446    17346    17321    17180    16965    16950    17134 
   17394    17635    17612    17204    16788    16783    16956    16918 
   16831    17034    17454    17664    17440    17064    16927    17203 
   17601    17562    17190    17132    17379    17450    17325    17257 
   17230    17177    17158    17196    17254    17289    17216    17042 
   16992    17228    17493    17431    17135    16953    16949    16880 
   16748    16914    17275    17247    16875    16750    16923    16970 
   16838    16841    17053    17292    17494    17544    17262    16923 
   16946    17200    17464    17694    17624    17209    16949    17082 
   17246    17151    16923    16756    16816    17118    17240    17026 
   17004    17311    17419    17201    16931    16715    16748    17192 
   17512    17234    16912    17049    17211    17076    16976    17172 
   17379    17238    16891    16749    16914    17169    17278    17261 
   17320    17431    17394    17277    17242    17193    17035    16964 
   17135    17371    17421    17243    16974    16896    17189    17427 
   17155    16931    17379    17936    17937    17578    17212    16993 
   16907    16787    16711    16815    16924    16929    17003    17323 
   17676    17543    17031    16881    17149    17274    17220    17316 
   17458    17338    17116    17186    17498    17582    17221    16924 
   17199    17604    17520    17138    16974    17192    17483    17466 
   17173    16956    16958    16964    16806    16703    16935    17385 
   17601    17392    17100    17050    17188    17316    17294    17099 
   16835    16665    16725    16968    17176    17270    17304    17288 
   17269    17294    17325    17389    17532    17567    17343    17092 
   17077    17155    17062    16958    17157    17500    17582    17378 
   17194    17227    17289    17088    16818    16902    17239    17378 
   17131    16789    16883    17401    17606    17223    17034    17448 
   17743    17537    17298    17192    17024    16822    16713    16838 
   17142    17173    16829    16656    16825    16919    16916    17161 
   17525    17567    17304    17250    17637    17863    17343    16629 
   16649    17182    17219    16626    16268    16565    17027    17118 
   16908    16896    17304    17653    17402    16884    16877    17315 
   17437    17155    17042    17226    17346    17281    17213    17344 
   17620    17624    17294    17251    17666    17892    17527    16883 
   16600    16969    17504    17598    17259    16931    16968    17221 
   17236    17080    17234    17477    17254    16965    17230    17624 
   17558    17185    16839    16725    16981    17346    17346    17049 
   16953    17145    17282    17251    17080    16771    16699    17132 
   17497    17363    17172    17212    17250    17188    17066    16892 
   16883    17112    17236    17138    17077    17116    17184    17334 
   17462    17351    17209    17334    17432    17194    16845    16592 
   16621    17092    17527    17406    17020    16843    16984    17274 
   17373    17167    16970    17046    17320    17533    17477    17228 
   17020    16942    16989    17154    17362    17471    17385    17254 
   17296    17416    17423    17365    17382    17367    17151    16908 
   16843    16889    16949    16989    17069    17257    17339    17157 
   16962    16953    16985    17018    17173    17313    17275    17196 
   17188    17167    17105    17161    17388    17545    17512    17415 
   17319    17282    17338    17290    17089    17003    17134    17312 
   17429    17389    17093    16753    16708    16850    16860    16779 
   16816    16981    17189    17301    17199    17099    17236    17409 
   17379    17193    17008    17004    17189    17323    17230    17037 
   17046    17208    17166    17038    17161    17317    17204    16991 
   16976    17223    17493    17486    17235    17080    17200    17344 
   17271    17158    17182    17302    17444    17355    16974    16831 
   17131    17257    16935    16706    16956    17456    17703    17524 
   17354    17532    17745    17621    17393    17467    17670    17517 
   17077    16873    16989    17038    16951    16910    16843    16719 
   16683    16725    16761    16835    16887    16904    17047    17194 
   17077    16903    17030    17307    17350    17150    16977    16989 
   17053    17031    17074    17280    17429    17371    17261    17274 
   17316    17163    16903    16857    17068    17253    17250    17151 
   17101    17142    17200    17213    17250    17339    17356    17281 
   17323    17521    17504    17146    16934    17140    17475    17651 
   17524    17181    17014    17201    17475    17521    17350    17174 
   17020    16883    16923    17105    17188    17093    16949    16891 
   16915    16980    17124    17293    17343    17292    17246    17199 
   17116    17035    16992    17028    17157    17203    17058    16945 
   16993    17074    17135    17173    17186    17305    17528    17608 
   17419    17104    16889    16910    17124    17339    17440    17477 
   17381    17111    16968    17176    17452    17431    17162    16961 
   17005    17157    17157    17001    16827    16652    16568    16744 
   17108    17402    17483    17400    17257    17189    17269    17354 
   17406    17570    17683    17452    16999    16791    17026    17325 
   17221    16896    16947    17365    17555    17401    17290    17362 
   17462    17415    17199    17142    17460    17666    17409    17166 
   17234    17227    16973    16808    17022    17408    17514    17302 
   17166    17320    17535    17433    17155    17269    17624    17485 
   17059    17159    17601    17589    17092    16761    16950    17316 
   17278    16821    16563    16838    17180    17097    16822    16845 
   17147    17311    17163    16868    16698    16883    17257    17425 
   17340    17209    17150    17143    17082    16962    16958    17107 
   17108    16776    16536    16744    17073    17174    17112    17016 
   17003    17139    17281    17319    17347    17393    17374    17338 
   17323    17221    17074    17068    17158    17108    16885    16768 
   16927    17151    17188    17059    16978    17034    17088    17051 
   17097    17361    17595    17517    17254    17064    17042    17232 
   17491    17431    17031    16792    16966    17307    17483    17336 
   17058    16984    17001    16938    17065    17375    17460    17308 
   17122    16945    16946    17118    17112    16926    16904    17122 
   17382    17501    17388    17190    17212    17412    17351    16983 
   16850    17163    17400    17169    16796    16754    17089    17458 
   17478    17312    17473    17859    17890    17516    17263    17425 
   17644    17463    17015    16775    16938    17267    17363    17135 
   16924    16984    17107    17065    17073    17307    17525    17520 
   17455    17513    17501    17269    17086    17085    17108    17127 
   17122    17031    16972    17012    16981    16879    16951    17161 
   17269    17266    17192    17113    17231    17431    17355    17155 
   17228    17421    17379    17223    17211    17281    17293    17247 
   17150    17084    17072    16895    16654    16799    17228    17362 
   17089    16914    17169    17487    17365    16989    16873    17077 
   17363    17556    17493    17248    17193    17325    17227    16933 
   16876    17069    17193    17128    16992    16923    16974    17109 
   17192    17126    17076    17239    17528    17675    17554    17285 
   17015    16754    16588    16729    17140    17416    17255    16943 
   16970    17325    17566    17370    16911    16740    17081    17454 
   17363    17055    17027    17163    17103    16970    17093    17363 
   17416    17207    17046    17158    17385    17347    16931    16542 
   16590    16969    17266    17181    16885    16896    17339    17697 
   17574    17212    17004    17038    17181    17188    16969    16803 
   16852    16945    16935    16819    16784    17053    17393    17332 
