Origin Time       2024/04/02 04:24:00
Lat.              40.133
Long.             141.712
Depth. (km)       71
Mag.              6.0
Station Code      TCG009
Station Lat.      36.7261
Station Long.     139.7159
Station Height(m) 361
Record Time       2024/04/02 04:26:21
Sampling Freq(Hz) 100Hz
Duration Time(s)  62
Dir.              E-W
Scale Factor      7845(gal)/8223790
Max. Acc. (gal)   3.831
Last Correction   2024/04/02 04:26:20
Memo.             
[...]
     963     1032     1151     1298     1385     1390     1364     1304 
    1204     1105     1026      981      969      919      824      761 
     766      872     1051     1170     1174     1162     1227     1359 
    1485     1552     1586     1588     1544     1479     1367     1188 
    1048     1008     1039     1144     1274     1327     1317     1287 
    1228     1183     1161     1102     1017      924      839      845 
     967     1108     1209     1289     1355     1410     1470     1501 
    1475     1397     1278     1135      982      866      822      812 
     797      801      830      857      886      931     1005     1132 
    1278     1412     1568     1755     1906     1975     1957     1892 
    1807     1675     1474     1232      972      695      441      284 
     268      372      507      600      672      785      966     1163 
    1328     1462     1578     1678     1759     1800     1759     1624 
    1459     1335     1267     1223     1127      919      653      477 
     515      747     1053     1306     1448     1551     1715     1906 
    2052     2108     1983     1699     1436     1266     1136     1017 
     884      734      645      648      658      665      760      946 
    1127     1277     1404     1495     1560     1594     1584     1544 
    1448     1306     1151      981      849      804      766      697 
     680      743      888     1142     1456     1736     1948     2068 
    2065     1962     1807     1615     1409     1233     1082      869 
     587      342      202      184      278      400      525      683 
     851     1015     1193     1371     1517     1626     1711     1768 
    1769     1702     1597     1505     1425     1323     1197     1043 
     835      630      513      495      589      785     1013     1235 
    1432     1599     1780     2006     2208     2295     2242     2080 
    1814     1425      963      535      156     -207     -467     -506 
    -319       -9      310      633     1019     1448     1864     2234 
    2528     2724     2814     2852     2903     2899     2722     2403 
    2029     1622     1179      730      369      171       81       44 
     116      303      513      673      803      978     1231     1476 
    1669     1831     1927     1906     1845     1817     1771     1669 
    1532     1362     1171      965      696      399      147      -37 
    -125      -71      129      436      731      932     1082     1229 
    1412     1687     2022     2290     2392     2317     2158     2015 
    1912     1818     1696     1543     1372     1224     1124     1038 
     913      750      602      550      648      881     1152     1347 
    1478     1591     1647     1678     1729     1715     1583     1381 
    1173     1003      866      731      610      545      556      646 
     808     1019     1197     1248     1167     1061     1005      977 
     959      980      973      866      688      521      436      449 
     541      661      737      762      824      980     1206     1433 
    1606     1722     1757     1668     1516     1382     1244     1108 
    1051     1096     1229     1420     1613     1810     2037     2269 
    2496     2690     2768     2678     2448     2119     1728     1358 
    1042      746      513      378      282      224      214      187 
     147      149      194      284      453      681      942     1192 
    1348     1406     1444     1480     1512     1547     1548     1489 
    1387     1260     1120     1004      978     1028     1048     1042 
    1081     1146     1233     1367     1529     1734     1937     2030 
    2006     1873     1586     1213      896      672      518      430 
     364      326      418      657      981     1350     1696     1965 
    2145     2208     2177     2110     1958     1664     1279      878 
     513      245       93       36       36       18       12      116 
     355      742     1286     1822     2216     2512     2706     2766 
    2760     2744     2700     2555     2232     1753     1206      661 
     176     -218     -527     -712     -760     -680     -437      -27 
     480     1058     1672     2245     2731     3087     3252     3199 
    2957     2617     2278     1972     1656     1301      942      627 
     373      153      -58     -190     -141       81      437      897 
    1354     1686     1844     1842     1753     1663     1624     1651 
    1692     1664     1539     1336     1078      781      461      167 
     -27      -76       58      398      837     1237     1638     2141 
    2716     3264     3709     3956     3963     3793     3449     2889 
    2211     1541      923      409       21     -278     -531     -769 
   -1017    -1233    -1350    -1323    -1088     -627      -13      687 
    1408     2054     2585     2947     3083     3082     3037     2917 
    2709     2400     1931     1337      681       18     -542     -945 
   -1178    -1169     -893     -440       97      661     1194     1687 
    2124     2419     2536     2573     2606     2659     2716     2702 
    2520     2115     1520      873      355       67      -24        6 
     133      344      589      816     1058     1374     1729     2073 
    2390     2651     2828     2852     2631     2204     1644      946 
     193     -534    -1254    -1873    -2266    -2442    -2354    -1934 
   -1275     -425      658     1834     2924     3859     4519     4841 
    4916     4784     4413     3805     2974     1966      943      102 
    -467     -788     -884     -750     -409       67      567     1015 
    1409     1791     2191     2604     2963     3195     3242     3025 
    2550     1944     1286      633       93     -286     -577     -822 
   -1007    -1134    -1162    -1007     -642     -129      448     1043 
    1648     2257     2805     3186     3346     3312     3153     2903 
    2548     2088     1570     1012      407     -155     -550     -764 
    -846     -784     -569     -257      133      631     1202     1741 
    2161     2444     2601     2619     2520     2420     2386     2373 
    2304     2115     1800     1458     1148      908      839      946 
    1107     1244     1274     1115      824      529      333      341 
     589      939     1202     1363     1505     1653     1810     1925 
    1906     1795     1694     1602     1482     1304     1020      673 
     368      137      -14      -72      -21      194      622     1217 
    1868     2425     2759     2864     2872     2871     2799     2575 
    2138     1486      797      276      -58     -261     -406     -540 
    -564     -345      110      742     1426     1952     2241     2400 
    2506     2582     2674     2762     2772     2686     2478     2093 
    1501      723      -62     -608     -828     -747     -437      -81 
     180      380      549      684      799      862      857      882 
    1017     1224     1447     1655     1782     1750     1513     1074 
     594      238      -51     -375     -630     -673     -477     -106 
     365      885     1490     2222     2951     3527     3898     3920 
    3515     2847     2119     1485     1057      841      812      946 
    1123     1197     1144     1017      824      558      342      359 
     607      954     1367     1853     2335     2721     2948     2983 
    2852     2598     2204     1618      822      -75     -828    -1296 
   -1476    -1350     -953     -394      305     1127     1980     2743 
    3303     3666     3951     4182     4290     4255     4028     3511 
    2744     1849      884      -56     -866    -1518    -1973    -2187 
   -2193    -1989    -1548     -915      -90      884     1802     2546 
    3115     3481     3657     3650     3404     2972     2488     2015 
    1582     1161      672      140     -303     -598     -743     -726 
    -569     -367     -178       13      236      556     1011     1497 
    1939     2425     2967     3407     3574     3346     2751     1991 
    1289      811      553      282     -144     -596     -900     -993 
    -897     -677     -369       75      664     1285     1825     2211 
    2405     2463     2508     2604     2686     2668     2477     2019 
    1290      422     -421    -1089    -1472    -1497    -1135     -440 
     454     1364     2142     2783     3375     3913     4288     4402 
    4197     3673     2934     2133     1406      815      290     -247 
    -774    -1178    -1285     -999     -418      301     1070     1813 
    2454     2952     3268     3435     3547     3527     3265     2845 
    2305     1601      878      290     -201     -556     -670     -584 
    -387      -94      259      588      873     1178     1552     1968 
    2292     2378     2226     1930     1603     1382     1359     1463 
    1539     1510     1375     1139      812      448      163       16 
     -25       22      122      205      282      438      708     1042 
    1385     1680     1840     1879     1923     1965     1962     1966 
    1945     1845     1759     1728     1672     1536     1258      868 
     594      554      641      760      884      931      862      795 
     857     1013     1152     1289     1476     1609     1509     1183 
     849      616      383      175      195      476      924     1431 
    1776     1842     1763     1620     1393     1127      826      500 
     292      270      373      588      909     1291     1692     2038 
    2257     2401     2548     2698     2820     2818     2583     2185 
    1769     1395     1111      932      796      684      626      596 
     596      662      750      816      905     1005     1080     1150 
    1213     1251     1309     1425     1570     1674     1645     1429 
    1090      760      464      198       89      209      484      864 
    1298     1701     2046     2377     2681     2894     2968     2866 
    2555     2115     1703     1335      911      405     -145     -672 
   -1104    -1389    -1510    -1452    -1120     -479      274     1019 
    1802     2488     2872     2975     2948     2940     2952     2779 
    2311     1668     1001      432       47     -144     -175     -135 
     -82       75      434      823      969      904      830      796 
     853     1048     1297     1611     2025     2376     2643     2938 
    3121     3048     2808     2400     1794     1170      684      355 
     193      182      291      510      811     1139     1397     1495 
    1463     1395     1350     1298     1200     1077      936      707 
     386       76     -144     -244     -224     -129       81      463 
     958     1472     1921     2259     2529     2786     3009     3130 
    3119     2957     2617     2172     1722     1243      688      108 
    -400     -727     -805     -662     -378       -9      440      966 
    1532     2100     2585     2901     3088     3235     3335     3265 
    2913     2330     1707     1217      965      976     1143     1237 
    1107      816      492      203       41       62      140       83 
     -99     -186       -6      423      977     1534     2074     2575 
    2961     3188     3242     3144     2990     2785     2438     1946 
    1371      772      230     -199     -487     -615     -699     -784 
    -707     -398       64      638     1202     1637     2016     2382 
    2589     2505     2110     1490      737      -85     -791    -1215 
   -1385    -1306     -913     -272      467     1208     1884     2467 
    2975     3404     3693     3784     3680     3418     3017     2496 
    1914     1286      611      -29     -564     -978    -1231    -1301 
   -1196     -861     -278      452     1179     1798     2315     2798 
    3207     3435     3437     3227     2794     2080     1138      163 
    -625    -1102    -1263    -1128     -679       52      951     1917 
    2857     3597     3933     3874     3601     3230     2841     2556 
    2401     2246     1921     1412      827      198     -423     -940 
   -1359    -1621    -1510    -1017     -356      344      993     1509 
    1984     2525     3056     3496     3798     3817     3481     2937 
    2354     1771     1175      545      -68     -521     -820    -1061 
   -1169    -1074     -877     -616     -226      309      989     1798 
    2643     3391     3896     3981     3586     2863     2027     1239 
     567       27     -361     -657     -893     -999     -949     -765 
    -414      108      738     1382     1938     2312     2479     2515 
    2506     2443     2323     2208     2003     1629     1283     1066 
     855      689      664      714      757      753      688      635 
     687      851     1117     1468     1775     1860     1705     1480 
    1354     1294     1212     1128     1119     1206     1385     1624 
    1860     2016     2065     2041     2007     1964     1834     1605 
    1318     1012      781      702      746      888     1026      970 
     750      552      411      365      513      777     1067     1324 
    1416     1375     1301     1107      838      737      839     1026 
    1229     1417     1626     1946     2342     2744     3088     3173 
    2849     2181     1355      626      175      -52     -172     -221 
    -233     -245     -238      -91      344     1004     1676     2231 
    2582     2690     2664     2658     2662     2517     2135     1599 
    1032      476      -62     -533     -884    -1109    -1169     -978 
    -530       83      811     1682     2681     3677     4488     5019 
    5219     5022     4469     3663     2658     1564      487     -531 
   -1391    -2064    -2578    -2812    -2705    -2389    -1925    -1258 
    -361      672     1678     2608     3472     4182     4612     4691 
    4421     3869     3087     2211     1426      677     -139     -882 
   -1462    -1811    -1806    -1551    -1190     -677     -103      436 
    1084     1861     2660     3454     4079     4378     4395     4102 
    3488     2716     1872      982      189     -454     -967    -1260 
   -1324    -1239     -946     -419      259     1090     1980     2664 
    3052     3254     3311     3103     2531     1750     1036      464 
      21     -186     -147       10      191      365      594      899 
    1101     1150     1305     1719     2227     2651     2933     3022 
    2856     2477     2045     1671     1287      758      106     -488 
    -854     -928     -772     -449       74      799     1651     2535 
    3289     3782     3994     3939     3677     3321     2902     2362 
    1642      766     -152    -1004    -1692    -2091    -2093    -1733 
   -1154     -481      241     1027     1875     2721     3433     3879 
    3979     3685     3100     2517     2073     1725     1435     1093 
     669      303       98       60      125      189      238      313 
     387      459      587      784     1043     1377     1705     1971 
    2236     2463     2540     2482     2320     2047     1709     1313 
     835      326     -125     -444     -575     -488     -191      211 
     611      978     1310     1671     2123     2515     2655     2583 
    2417     2196     1902     1520     1112      726      365       28 
    -279     -517     -595     -441      -90      333      765     1174 
    1516     1848     2199     2416     2396     2214     1971     1721 
    1507     1368     1231      932      433      -87     -391     -352 
     -68      218      402      560      727      923     1258     1802 
    2471     3051     3381     3520     3557     3424     3006     2331 
    1652     1174      815      467      199       91       85      109 
     214      450      737      978     1212     1510     1869     2222 
    2448     2488     2454     2455     2440     2296     1969     1534 
    1096      680      328      109      -20     -184     -361     -398 
    -238      102      580     1051     1472     1921     2380     2774 
    3018     3028     2825     2481     2042     1605     1255      923 
     511       55     -341     -565     -515     -189      325      885 
    1383     1786     2039     2081     1944     1725     1474     1162 
     841      577      336      167      233      533      969     1478 
    1942     2265     2470     2524     2332     1875     1250      642 
     164     -190     -379     -380     -280      -83      290      801 
    1321     1729     1950     2030     2118     2292     2477     2556 
    2502     2355     2104     1709     1202      696      305       56 
    -114     -217     -183      -54       82      278      587      959 
    1320     1626     1892     2093     2181     2231     2262     2164 
    1964     1756     1566     1449     1402     1297     1096      855 
     639      552      622      797     1012     1134     1152     1197 
    1197     1059      899      862     1055     1460     1868     2184 
    2424     2478     2295     1960     1529     1011      450      -36 
    -356     -580     -797     -943     -935     -724     -222      552 
    1366     2042     2628     3129     3473     3654     3618     3341 
    2953     2515     1984     1379      726       72     -402     -592 
    -581     -461     -232      112      550     1074     1680     2277 
    2693     2925     3076     3087     2890     2520     1968     1285 
     653      162     -249     -576     -762     -831     -801     -618 
    -298       35      328      662     1081     1526     1954     2350 
    2713     3067     3341     3410     3294     3013     2455     1671 
     847       93     -473     -739     -777     -735     -619     -283 
     265      826     1329     1852     2344     2725     3026     3279 
    3372     3138     2585     1929     1347      909      565      195 
    -148     -353     -472     -508     -423     -355     -310     -105 
     290      828     1445     1931     2246     2565     2884     3127 
    3308     3370     3240     2924     2470     1998     1614     1294 
    1019      810      631      459      295      184      211      364 
     494      535      589      785     1100     1383     1555     1649 
    1706     1773     1921     2089     2135     2015     1782     1537 
    1344     1138      855      494       85     -234     -349     -313 
    -224     -187     -260     -251        5      378      781     1251 
    1680     1957     2119     2254     2417     2593     2679     2582 
    2266     1722     1042      423      -29     -334     -494     -540 
    -464     -166      338      899     1429     1917     2358     2745 
    3037     3199     3191     2957     2542     2084     1686     1359 
    1077      842      673      537      426      311      157      109 
     280      529      710      814      842      865      911      827 
     575      318      117       20      166      553     1080     1688 
    2266     2712     3056     3302     3402     3426     3429     3331 
    3082     2709     2239     1707     1156      627      206      -81 
    -338     -571     -642     -530     -324      -13      457     1040 
    1638     2145     2443     2496     2338     2058     1780     1525 
    1252      972      688      476      440      510      584      706 
     912     1175     1491     1826     2064     2127     2056     1930 
    1784     1665     1665     1752     1786     1713     1560     1351 
    1124      892      691      641      704      693      596      523 
