Origin Time       2024/04/02 04:24:00
Lat.              40.133
Long.             141.712
Depth. (km)       71
Mag.              6.0
Station Code      TCG014
Station Lat.      36.5428
Station Long.     140.1804
Station Height(m) 139
Record Time       2024/04/02 04:25:34
Sampling Freq(Hz) 100Hz
Duration Time(s)  129
Dir.              N-S
Scale Factor      7845(gal)/8223790
Max. Acc. (gal)   4.334
Last Correction   2024/04/02 04:25:34
Memo.             
[...]
    1876     1815     1939     2249     2592     2999     3461     3767 
    3855     3834     3740     3597     3469     3408     3446     3514 
    3499     3385     3206     2986     2729     2452     2236     2104 
    2023     2056     2288     2714     3235     3686     3939     3964 
    3843     3724     3622     3456     3288     3184     3045     2789 
    2494     2268     2072     1915     1996     2338     2690     2918 
    3106     3276     3354     3388     3462     3531     3615     3767 
    3843     3801     3844     3923     3775     3489     3254     2963 
    2494     1921     1393     1065      986     1061     1209     1557 
    2218     3041     3851     4598     5208     5536     5589     5532 
    5368     5022     4599     4106     3427     2671     1980     1354 
     855      658      842     1165     1343     1456     1755     2297 
    2906     3468     4066     4618     4912     4974     4899     4676 
    4355     4039     3758     3456     3095     2732     2431     2222 
    2104     2107     2258     2454     2600     2686     2752     2851 
    2928     2895     2863     3009     3310     3674     4128     4499 
    4482     4151     3785     3514     3368     3258     3071     2845 
    2654     2478     2243     1939     1675     1530     1513     1738 
    2374     3264     4099     4855     5452     5491     4949     4314 
    3816     3323     2879     2554     2223     1861     1549     1327 
    1296     1517     1818     2106     2555     3210     3848     4340 
    4704     4873     4722     4378     4064     3793     3605     3541 
    3395     3109     2797     2344     1718     1177      838      653 
     660      838     1159     1773     2775     3969     5096     5991 
    6417     6264     5776     5196     4545     3815     3082     2438 
    1885     1447     1231     1166     1102     1127     1480     2228 
    3125     3908     4503     4891     5058     4990     4634     4036 
    3368     2808     2466     2339     2231     1935     1595     1582 
    1956     2420     2787     3071     3321     3584     3890     4255 
    4530     4356     3667     2893     2390     2142     2043     2050 
    2062     2033     2038     2201     2585     3010     3181     3110 
    3092     3256     3465     3703     4068     4291     4009     3393 
    2768     2193     1810     1826     2177     2631     2995     3157 
    3199     3368     3688     3870     3794     3568     3210     2809 
    2589     2647     2879     3095     3181     3175     3206     3315 
    3454     3681     3928     3851     3354     2843     2582     2388 
    2205     2238     2407     2506     2620     2866     3269     3871 
    4506     4814     4762     4598     4325     3844     3323     2932 
    2516     1925     1370     1028      835      837     1071     1560 
    2378     3142     3481     3738     4108     4402     4783     5395 
    5836     5609     4764     3662     2438     1309      648      413 
     427      738     1215     1595     1984     2565     3207     3883 
    4785     5697     6066     5788     5204     4490     3639     2812 
    2176     1742     1507     1495     1726     2174     2713     3272 
    3846     4309     4556     4509     4002     3192     2539     2211 
    2038     1864     1814     2110     2543     2855     3331     4135 
    4897     5444     5846     5830     5070     3758     2421     1452 
     907      735      905     1228     1537     1911     2407     2984 
    3639     4263     4660     4830     4934     5042     5071     4936 
    4607     4005     3082     2047     1201      660      487      735 
    1251     1803     2312     2733     3119     3673     4390     5031 
    5339     5092     4318     3419     2725     2205     1804     1536 
    1302     1116     1194     1656     2431     3304     3973     4244 
    4222     4081     3825     3507     3288     3145     2902     2539 
    2207     1984     1813     1887     2457     3214     3805     4229 
    4371     4158     3867     3638     3199     2332     1328      641 
     440      819     1830     3080     4024     4573     4908     5063 
    5050     4926     4610     4062     3437     2857     2354     1960 
    1729     1761     2101     2581     2979     3296     3623     3935 
    4275     4654     4768     4459     4025     3549     2756     1715 
     882      423      216      356      907     1583     2304     3296 
    4387     5076     5236     5044     4681     4421     4287     3994 
    3547     3130     2658     2069     1588     1445     1567     1852 
    2374     2988     3446     3739     3820     3716     3685     3697 
    3589     3489     3335     2902     2565     2863     3526     3962 
    4110     4089     3726     3068     2492     2056     1730     1696 
    1888     2137     2350     2377     2425     2868     3469     3794 
    3788     3584     3424     3508     3761     3966     3939     3600 
    3084     2766     2880     3134     3183     3057     2816     2484 
    2238     2245     2438     2574     2619     2754     2937     2920 
    2621     2358     2656     3613     4761     5580     5744     5204 
    4239     3256     2581     2106     1485      886      719      932 
    1337     1923     2614     3294     3943     4585     5258     5929 
    6320     6085     5229     4148     3221     2544     2123     1998 
    2130     2278     2112     1595     1066      853     1113     1871 
    2875     3673     4077     4329     4611     4801     4808     4793 
    4827     4704     4405     4012     3256     2023      792       93 
     -12      234      792     1726     2764     3515     3767     3429 
    2756     2268     2188     2366     2667     3107     3557     3789 
    3996     4403     4664     4463     3971     3346     2643     2046 
    1669     1428     1263     1208     1329     1740     2423     3123 
    3523     3485     3152     2790     2647     2820     3129     3410 
    3672     3912     4122     4225     4261     4446     4588     4365 
    3883     3366     2999     2994     3370     3835     3904     3373 
    2509     1583      885      815     1293     1998     3011     4234 
    5112     5547     5910     6137     5887     5287     4598     3681 
    2493     1397      679      426      692     1331     2046     2691 
    3258     3797     4353     4804     4916     4658     4220     3696 
    3071     2463     2019     1787     1876     2394     3167     3883 
    4395     4531     4166     3480     2710     2127     2018     2214 
    2411     2641     2963     3383     3820     4037     3946     3615 
    3063     2358     1746     1529     1767     2211     2578     2716 
    2677     2660     2700     2679     2732     3169     3892     4549 
    5054     5201     4707     3892     3176     2443     1586      812 
     276      -14       10      519     1487     2635     3774     4791 
    5397     5539     5571     5676     5653     5247     4440     3365 
    2234     1406      981      695      530      645     1062     1729 
    2496     3250     3913     4268     4225     3883     3391     3044 
    3138     3553     3893     3927     3578     2787     1734      946 
     862     1467     2419     3352     3974     4152     3954     3577 
    3241     3057     2980     2893     2771     2686     2574     2438 
    2621     3257     3889     4206     4340     4330     4136     3897 
    3619     3105     2317     1417      653      256      232      561 
    1285     2231     3222     4236     5182     5960     6390     6277 
    5776     5174     4494     3769     3258     3083     3057     2990 
    2724     2085     1308      901      994     1517     2369     3103 
    3396     3518     3759     3973     4041     4179     4442     4627 
    4629     4495     4479     4696     4769     4463     3947     3235 
    2293     1459     1089     1051      974      754      540      488 
     730     1379     2344     3226     3788     4195     4514     4681 
    4853     5063     5076     4893     4685     4284     3403     2201 
    1119      351       -9      135      630     1237     1773     2187 
    2724     3581     4627     5655     6384     6528     6203     5724 
    5058     4032     2805     1609      544     -140     -144      415 
    1181     2053     3103     4190     4909     5012     4734     4490 
    4465     4583     4594     4255     3531     2605     1764     1163 
     793      756     1170     1908     2698     3373     3902     4247 
    4260     3886     3402     3088     2901     2887     3219     3613 
    3654     3323     2704     1977     1692     2106     2759     3188 
    3240     2951     2664     2729     3165     3719     4016     3846 
    3377     2994     2907     3034     3153     3053     2764     2492 
    2266     2111     2189     2463     2782     3161     3566     3812 
    3780     3489     3032     2605     2467     2639     2910     3339 
    4052     4707     4900     4591     3875     3011     2290     1688 
    1161      781      452      139      116      635     1637     2786 
    3835     4756     5487     5948     6130     6057     5792     5282 
    4417     3402     2512     1687      896      448      504      859 
    1409     2184     2934     3470     3978     4553     4984     5066 
    4815     4353     3742     3082     2587     2347     2292     2423 
    2813     3354     3825     4153     4183     3672     2817     2173 
    2101     2490     2910     3090     2987     2712     2619     2921 
    3474     4108     4639     4854     4653     4121     3546     3196 
    2956     2533     1977     1487     1030      734      896     1414 
    1995     2474     2801     2983     3083     3368     4082     5009 
    5686     5880     5756     5471     4920     4117     3284     2462 
    1576      843      548      572      703      931     1128     1092 
     947     1140     1948     3183     4554     5841     6751     7055 
    6816     6330     5744     5022     4283     3507     2392     1042 
     -76     -788     -984     -453      584     1578     2432     3447 
    4537     5313     5703     5830     5589     4911     4098     3362 
    2565     1746     1175      893      854     1092     1525     2070 
    2639     3110     3631     4361     5028     5340     5352     5143 
    4612     3790     2930     2176     1543     1131     1067     1428 
    2165     2986     3573     3888     4045     4060     3962     4010 
    4309     4461     4099     3426     2747     2043     1393     1015 
     882      861      990     1528     2533     3636     4607     5567 
    6384     6604     6195     5643     5040     4093     2884     1718 
     679     -280     -969     -993     -351      679     1996     3384 
    4495     5232     5633     5732     5586     5236     4684     3954 
    3164     2411     1809     1633     1999     2519     2673     2415 
    2169     2166     2195     2151     2145     2107     2046     2224 
    2609     3045     3599     4102     4310     4448     4746     4957 
    4847     4499     3997     3331     2532     1699     1028      711 
     747     1036     1507     2047     2555     3034     3481     3856 
    4176     4472     4726     4881     4735     4106     3349     2911 
    2716     2636     2548     2058     1242      758      764      846 
     989     1455     2126     2890     3862     4949     5899     6566 
    6845     6636     5935     4885     3604     2322     1482     1208 
    1177     1175     1278     1539     1853     2253     2870     3481 
    3809     3958     4136     4391     4631     4754     4672     4297 
    3728     3229     2970     2971     3090     3067     2790     2511 
    2478     2589     2748     2982     3122     3033     2849     2713 
    2678     2794     3164     3812     4480     4888     5016     4896 
    4546     4132     3709     3090     2309     1692     1289      978 
     892     1053     1274     1533     1829     2116     2556     3176 
    3716     4140     4529     4762     4869     5112     5377     5150 
    4284     3154     2107     1227      595      298      149       89 
     459     1267     2181     3167     4199     5017     5508     5583 
    5111     4382     3804     3350     3028     3030     3210     3277 
    3206     3051     2771     2342     1938     1775     1763     1765 
    1806     1791     1694     1699     1795     1939     2378     3156 
    3997     4806     5526     5903     5880     5571     5015     4374 
    3786     3177     2459     1620      797      253       79      176 
     556     1328     2292     3095     3674     4040     4328     4769 
    5127     5158     5088     4869     4218     3361     2764     2531 
    2434     2212     1757     1173      661      415      669     1468 
    2366     3010     3604     4272     4924     5601     6130     6228 
    5953     5436     4702     3942     3341     2705     1818      980 
     556      427      484     1005     1991     2970     3667     4054 
    4063     3759     3330     2890     2528     2454     2837     3547 
    4257     4727     4853     4726     4604     4569     4472     4186 
    3659     2941     2231     1676     1229      866      715      783 
     949     1310     2039     2955     3694     4198     4634     4980 
    5071     4969     4815     4530     4194     4095     4143     4044 
    3708     3014     1908      749       -2     -306     -417     -394 
    -144      290      932     1942     3277     4750     6149     7168 
    7609     7531     7087     6373     5455     4390     3279     2311 
    1497      718      187      157      483     1005     1686     2403 
    3149     3990     4720     5013     4811     4297     3677     3195 
    3014     3064     3233     3468     3697     3770     3462     2770 
    2016     1422      957      653      577      625      787     1260 
    2022     2891     3836     4689     5127     5167     5117     5065 
    4922     4723     4495     4087     3476     2894     2452     2060 
    1745     1580     1468     1335     1291     1452     1763     2101 
    2532     3109     3585     3802     3986     4320     4680     4826 
    4564     4040     3577     3102     2536     2258     2370     2506 
    2515     2497     2442     2246     2046     2110     2400     2772 
    3246     3757     4131     4253     4128     3952     3879     3738 
    3446     3272     3296     3292     3203     3075     2875     2693 
    2608     2436     2108     1777     1474     1248     1416     2168 
    3229     4205     5027     5655     5840     5638     5346     4927 
    4287     3518     2569     1447      429     -249     -396       99 
     959     1815     2593     3325     3986     4530     4932     5231 
    5390     5246     4749     4083     3387     2654     1954     1425 
    1161     1224     1567     2062     2656     3298     3785     3939 
    3823     3596     3346     3218     3308     3457     3522     3519 
    3430     3254     3172     3325     3600     3869     4094     4120 
    3836     3472     3256     3086     2790     2396     1942     1386 
     896      843     1281     1972     2839     3809     4591     5024 
    5266     5422     5328     4909     4342     3638     2700     1730 
     984      448      148      282      862     1684     2621     3612 
    4564     5329     5748     5810     5620     5247     4762     4234 
    3677     3071     2416     1752     1123      621      359      356 
     646     1340     2362     3406     4199     4688     4958     5113 
    5219     5270     5198     4897     4375     3731     2976     2184 
    1489      908      553      606     1038     1723     2562     3446 
    4260     4831     4993     4780     4379     3898     3399     2944 
    2492     2054     1782     1713     1790     2039     2479     2986 
    3381     3559     3501     3264     2902     2455     2041     1809 
    1846     2197     2797     3514     4194     4611     4666     4423 
    3920     3227     2517     1976     1730     1786     2031     2334 
    2597     2799     2976     3156     3333     3470     3518     3503 
    3481     3393     3230     3060     2878     2702     2646     2759 
    2940     3109     3364     3707     3973     4087     4029     3751 
    3249     2635     2011     1417     1054     1107     1462     1979 
    2509     2830     3029     3356     3804     4234     4549     4685 
    4560     4112     3512     2948     2462     2170     2061     1954 
    1887     2047     2504     3061     3503     3902     4315     4625 
    4849     5097     5317     5314     5043     4615     4016     3240 
    2478     1881     1436     1069      799      715      820     1065 
    1453     2045     2878     3843     4752     5549     6231     6637 
    6610     6197     5475     4477     3358     2335     1495      832 
     383      207      303      639     1066     1358     1588     2045 
    2764     3547     4172     4534     4671     4631     4429     4117 
    3788     3495     3180     2818     2513     2354     2369     2508 
    2605     2506     2204     1892     1796     1900     2062     2247 
    2447     2656     2889     3179     3608     4233     4935     5489 
    5678     5416     4814     4077     3322     2654     2155     1777 
    1453     1239     1142     1081     1098     1354     1817     2312 
    2836     3410     3931     4382     4768     5028     5175     5208 
    5046     4633     3977     3169     2371     1728     1223      757 
     406      298      442      868     1614     2538     3369     4004 
    4527     4972     5308     5520     5517     5244     4726     3960 
    3075     2311     1740     1312     1032      926     1031     1332 
    1734     2185     2717     3366     4148     4959     5625     6052 
    6156     5872     5301     4642     4013     3418     2860     2363 
    1973     1736     1566     1441     1587     2012     2454     2926 
    3550     4104     4378     4494     4553     4457     4190     3875 
    3586     3326     3114     3010     3063     3203     3265     3207 
    3145     3154     3217     3261     3191     2974     2691     2443 
    2245     2173     2382     2700     2857     2938     3032     3106 
    3257     3493     3682     3761     3712     3530     3214     2694 
    2029     1464     1146     1039     1048     1121     1306     1586 
    1935     2458     3152     3877     4449     4683     4519     4044 
    3426     2848     2362     1894     1429     1066      869      881 
    1173     1668     2243     2889     3493     3854     3982     4027 
    4045     4083     4136     4075     3842     3510     3175     2916 
    2732     2593     2477     2371     2340     2496     2851     3306 
    3711     3954     4035     3997     3831     3619     3456     3296 
    3140     3030     2895     2708     2533     2439     2556     2918 
    3279     3465     3553     3573     3566     3692     3971     4195 
    4133     3789     3389     3079     2833     2643     2501     2389 
    2323     2376     2571     2829     3001     3006     2948     2955 
    3025     3167     3387     3618     3805     3920     3924     3801 
    3541     3177     2833     2662     2678     2756     2848     2988 
    3149     3285     3412     3526     3573     3469     3191     2917 
    2822     2813     2839     3019     3285     3426     3412     3339 
