Origin Time       2024/04/02 04:24:00
Lat.              40.133
Long.             141.712
Depth. (km)       71
Mag.              6.0
Station Code      TCG006
Station Lat.      36.7638
Station Long.     140.1295
Station Height(m) 122
Record Time       2024/04/02 04:26:14
Sampling Freq(Hz) 100Hz
Duration Time(s)  87
Dir.              U-D
Scale Factor      7845(gal)/8223790
Max. Acc. (gal)   1.292
Last Correction   2024/04/02 04:26:14
Memo.             
[...]
   16173    16208    16175    16086    16114    16302    16510    16572 
   16560    16636    16680    16726    16958    16942    16524    16540 
   17097    17257    16858    16664    16933    17158    17108    17108 
   17205    17154    17050    17174    17405    17405    17358    17613 
   17868    17847    17847    17964    17948    17771    17543    17296 
   17154    17226    17381    17431    17317    17231    17359    17323 
   16883    16757    17208    17381    17136    17255    17590    17334 
   16812    16762    16776    16576    16734    17142    17238    17146 
   17217    17444    17417    16946    16586    16645    16772    16946 
   17343    17655    17574    17193    16777    16549    16515    16617 
   16768    16696    16437    16391    16421    16201    16113    16421 
   16665    16605    16560    16646    16517    16119    15950    16167 
   16322    16225    16148    16179    16052    15718    15610    15888 
   16021    15765    15616    15858    16139    16217    16264    16391 
   16456    16467    16641    16893    16904    16630    16286    16083 
   16090    16155    16148    16220    16453    16560    16384    16243 
   16318    16360    16349    16538    16783    16764    16578    16528 
   16602    16560    16470    16587    16729    16600    16472    16610 
   16742    16718    16779    17012    17209    17277    17336    17354 
   17200    17084    17134    17200    17406    17610    17255    16752 
   16748    16702    16341    16302    16708    17061    17112    17227 
   17597    17550    16943    16653    16806    16735    16490    16657 
   17078    17084    16842    16852    16835    16611    16479    16573 
   16954    17413    17444    17159    17081    17095    16889    16870 
   17262    17489    17474    17562    17443    17011    16729    16637 
   16549    16549    16695    16861    16916    16977    17085    16946 
   16664    16680    16771    16686    16915    17416    17409    16999 
   16907    16954    16710    16587    16808    16935    16949    16992 
   16802    16559    16680    16833    16713    16652    16769    16783 
   16645    16584    16598    16456    16258    16247    16376    16563 
   16783    16872    16761    16646    16576    16414    16309    16475 
   16741    16802    16669    16734    17039    17053    16850    16946 
   16961    16603    16397    16409    16302    16141    16047    15975 
   15947    16094    16449    16812    17001    16899    16511    16267 
   16522    16830    16715    16617    16826    16761    16382    16353 
   16621    16650    16401    16291    16564    16776    16650    16625 
   16605    16237    16056    16285    16424    16515    16738    16935 
   17147    17221    16810    16286    16221    16367    16309    16143 
   16065    16320    16888    17070    16758    16733    16929    16897 
   16951    17109    16958    16498    16012    15789    15842    16008 
   16335    16696    16818    16742    16702    16838    16976    16927 
   16884    16927    16951    17024    17193    17408    17599    17605 
   17537    17712    17919    17829    17568    17351    17300    17281 
   17028    16920    17216    17244    16875    16799    17080    17226 
   17086    16938    17039    17369    17717    17763    17510    17439 
   17572    17504    17294    17153    17051    16966    16837    16734 
   16904    17196    17146    16807    16667    16762    16757    16821 
   17155    17267    16939    16719    16812    16789    16507    16305 
   16355    16483    16526    16556    16663    16731    16548    16168 
   15994    16132    16218    16252    16433    16456    16274    16320 
   16421    16183    15903    15844    15769    15600    15681    16077 
   16343    16359    16374    16357    16336    16521    16695    16540 
   16390    16568    16713    16744    16953    17170    17262    17285 
   17119    16993    17174    17409    17462    17385    17281    17142 
   16908    16740    16679    16428    16071    16058    16324    16420 
   16333    16482    16849    16934    16761    16811    17066    17185 
   17176    17147    16953    16633    16563    16723    16681    16445 
   16336    16329    16205    16032    16189    16648    16775    16403 
   16133    16232    16332    16220    16245    16534    16584    16433 
   16582    16748    16587    16389    16317    16337    16329    16023 
   15753    16062    16421    16339    16453    16977    17316    17402 
   17370    17165    17115    17240    17132    17076    17367    17525 
   17381    17339    17477    17448    17170    17136    17497    17581 
   17174    16885    16924    17001    17020    17138    17331    17240 
   16941    16900    17019    17058    17219    17500    17508    17041 
   16602    16711    16910    16746    16546    16494    16501    16506 
   16437    16434    16517    16395    16125    16116    16494    16923 
   17054    16991    16927    16768    16541    16524    16852    17145 
   16937    16605    16640    16614    16282    16096    16144    16163 
   16175    16302    16421    16465    16588    16702    16664    16688 
   16864    17041    17096    16984    16906    16978    16916    16702 
   16691    16806    16744    16663    16814    17065    17100    16830 
   16563    16565    16638    16694    16949    17215    17219    17082 
   16846    16487    16187    16128    16289    16444    16591    16920 
   17176    17126    17030    16978    16849    16731    16767    16907 
   16930    16804    16822    16923    16708    16309    16264    16684 
   17051    17051    17080    17199    17069    17005    17215    17327 
   17450    17647    17467    17020    16810    16861    16818    16494 
   16233    16372    16610    16715    16939    17169    16914    16424 
   16372    16528    16441    16588    17104    17199    16826    16722 
   16818    16654    16499    16537    16532    16578    16613    16380 
   16173    16174    16227    16417    16672    16788    16949    17128 
   16964    16637    16541    16569    16602    16713    16818    16777 
   16634    16488    16343    16221    16224    16375    16472    16441 
   16532    16595    16252    15876    15877    15878    15678    15789 
   16368    16806    16808    16838    17023    16893    16476    16402 
   16734    16902    16825    16903    17076    16991    16731    16596 
   16654    16912    17234    17221    16993    17088    17275    17134 
   17146    17527    17614    17362    17405    17558    17201    16731 
   16713    16683    16325    16218    16465    16443    16260    16491 
   16808    16769    16688    16644    16494    16482    16605    16627 
   16676    16798    16718    16524    16637    16910    16848    16613 
   16715    17088    17246    17170    17212    17226    16938    16650 
   16641    16771    16956    17234    17501    17536    17216    16833 
   16804    16972    16961    16838    16872    17076    17107    16838 
   16722    17037    17340    17196    16912    16856    16727    16476 
   16519    16641    16522    16502    16686    16788    16819    16899 
   16915    16781    16700    16744    16653    16515    16600    16784 
   16864    16830    16846    16961    16914    16713    16645    16673 
   16610    16513    16474    16363    16067    15816    15900    16160 
   16237    16217    16449    16677    16437    16278    16696    16957 
   16690    16552    16785    16941    16765    16579    16677    16733 
   16476    16357    16583    16704    16659    16814    17057    17058 
   16918    16777    16640    16629    16745    16699    16644    17010 
   17385    17271    17122    17172    17027    16730    16588    16518 
   16417    16425    16447    16390    16515    16780    16902    16997 
   17066    16837    16546    16578    16619    16297    15970    16074 
   16367    16445    16395    16491    16745    16974    16997    16931 
   17038    17103    16841    16544    16541    16729    16804    16726 
   16814    17065    17176    17145    17001    16811    16775    16823 
   16880    16950    16891    16772    16764    16853    17018    17119 
   17107    17208    17317    17159    16972    16991    17026    16958 
   16984    17319    17724    17718    17419    17286    17298    17247 
   17247    17377    17327    16929    16645    16717    16673    16447 
   16360    16262    16117    16096    16081    16159    16341    16305 
   16212    16345    16449    16355    16302    16613    17049    16961 
   16599    16584    16548    16252    16224    16611    17000    16992 
   16707    16717    16934    16781    16483    16594    16870    16852 
   16767    16943    16950    16525    16295    16409    16321    16156 
   16241    16336    16363    16475    16592    16663    16723    16815 
   16897    16834    16807    16951    16872    16545    16465    16669 
   16864    16968    16938    16838    16880    16968    16835    16578 
   16490    16626    16749    16704    16717    16893    16865    16578 
   16525    16814    16981    16892    16873    16915    16795    16714 
   16831    16860    16690    16509    16457    16632    16876    16953 
   16968    16947    16823    16823    16988    17034    16983    17136 
   17404    17323    17030    17081    17266    17139    16991    17104 
   17203    17057    16835    16810    16958    17050    17059    17146 
   17278    17154    16773    16618    16677    16437    16146    16249 
   16333    16156    16116    16228    16225    16140    16194    16407 
   16482    16414    16497    16586    16487    16380    16399    16633 
   17042    17323    17324    17143    16937    16881    16919    16849 
   16707    16654    16688    16638    16522    16600    16829    16835 
   16629    16619    16845    16912    16781    16787    16861    16822 
   16980    17234    17077    16896    17081    17147    17039    17058 
   16943    16638    16603    16870    16908    16615    16480    16607 
   16703    16675    16552    16409    16322    16279    16279    16279 
   16235    16317    16591    16756    16718    16721    16802    16853 
   16895    16900    16849    16848    16848    16669    16502    16594 
   16729    16733    16754    16744    16565    16465    16650    16796 
   16621    16376    16345    16452    16476    16393    16438    16752 
   17035    17028    17080    17328    17311    17108    17161    17212 
   16987    16872    17070    17232    17154    17001    16934    16943 
   16884    16706    16587    16564    16457    16281    16324    16595 
   16675    16522    16521    16661    16706    16754    16880    16902 
   16814    16796    16853    16914    16954    16923    16842    16772 
   16634    16451    16471    16656    16584    16332    16414    16644 
   16459    16060    15942    16044    16102    16085    16114    16283 
   16470    16479    16416    16486    16546    16437    16501    16862 
   17010    16860    16839    16942    16907    16727    16661    16888 
   17061    16956    16939    17096    17159    17140    17100    16973 
   16807    16735    16762    16799    16904    17101    17134    16951 
   16887    16956    16892    16842    16927    16810    16482    16333 
   16380    16453    16532    16610    16788    17023    17016    16893 
   16926    16910    16733    16609    16700    16985    17158    17077 
   17062    17257    17362    17240    17188    17355    17393    17242 
   17242    17219    17007    16931    16926    16798    16794    16852 
   16654    16436    16563    16829    16891    16829    16839    16810 
   16613    16495    16614    16638    16443    16347    16390    16375 
   16343    16405    16579    16683    16575    16488    16538    16559 
   16592    16653    16627    16618    16657    16654    16690    16730 
   16657    16591    16671    16864    17024    17035    17051    17197 
   17292    17296    17292    17247    17226    17200    17105    17078 
   17111    17062    16947    16839    16738    16571    16401    16449 
   16637    16636    16514    16578    16757    16893    16931    16781 
   16677    16838    16903    16758    16818    17032    17003    16879 
   17042    17209    17019    16826    16791    16614    16441    16506 
   16626    16659    16625    16619    16698    16646    16420    16297 
   16274    16227    16232    16260    16293    16378    16421    16394 
   16426    16549    16727    16957    17131    17116    17011    16935 
   16792    16606    16565    16568    16472    16470    16522    16341 
   16089    16074    16191    16324    16511    16565    16428    16465 
   16703    16694    16486    16484    16632    16696    16626    16449 
   16402    16573    16650    16626    16803    17049    17070    16924 
   16830    16924    17115    17226    17238    17174    17088    17041 
   17007    17035    17128    17153    17147    17189    17221    17207 
   17096    16954    16964    17050    16912    16610    16587    16842 
   16873    16707    16819    17128    17205    17112    17167    17350 
   17343    17082    16906    16926    16906    16815    16784    16773 
   16687    16548    16519    16657    16723    16605    16451    16353 
   16290    16183    16075    16158    16324    16302    16272    16386 
   16389    16297    16303    16266    16104    15955    15863    15843 
   15935    16051    16102    16108    16078    16023    15996    16086 
   16243    16252    16129    16162    16432    16665    16665    16594 
   16638    16707    16696    16777    17008    17103    16984    16922 
   16965    17045    17262    17482    17531    17633    17810    17822 
   17799    17890    17967    18026    18090    18103    18042    17825 
   17575    17597    17744    17744    17772    17863    17759    17560 
   17417    17298    17244    17093    16807    16749    16834    16799 
   16783    16780    16700    16584    16406    16314    16398    16386 
   16178    16008    16054    16214    16231    16114    16116    16222 
   16237    16198    16306    16503    16492    16297    16310    16600 
   16762    16625    16478    16509    16571    16568    16575    16592 
   16553    16498    16474    16437    16398    16320    16155    16071 
   16132    16155    16152    16299    16507    16603    16677    16869 
   17024    16937    16717    16576    16548    16607    16686    16694 
   16652    16596    16529    16486    16542    16625    16532    16405 
   16534    16723    16765    16860    16961    16887    16897    17066 
   16999    16803    16931    17172    17089    16858    16848    16958 
   16883    16692    16717    16965    17165    17223    17273    17339 
   17344    17315    17251    17112    16995    16947    16865    16795 
   16911    17099    17081    16985    17051    17163    17185    17150 
   17147    17151    16930    16551    16429    16486    16355    16179 
   16249    16434    16470    16409    16414    16422    16364    16285 
   16256    16348    16519    16568    16475    16484    16617    16648 
   16638    16725    16772    16740    16737    16719    16665    16632 
   16575    16542    16626    16675    16579    16495    16579    16737 
   16715    16533    16528    16717    16734    16559    16551    16681 
   16549    16285    16343    16521    16443    16383    16565    16696 
   16641    16606    16714    16852    16823    16699    16800    17134 
   17329    17323    17435    17660    17724    17658    17591    17560 
   17643    17733    17606    17382    17342    17447    17490    17510 
   17568    17477    17258    17178    17217    17170    17032    16918 
   16843    16748    16654    16619    16603    16501    16283    16112 
   16123    16156    15994    15770    15726    15761    15699    15639 
   15646    15637    15635    15745    15961    16162    16244    16264 
   16359    16507    16602    16644    16664    16692    16785    16870 
   16858    16854    16868    16788    16694    16686    16667    16596 
   16582    16622    16661    16764    16912    16931    16825    16829 
   17004    17085    16969    16897    16885    16815    16918    17158 
   17139    17012    17132    17343    17447    17475    17444    17448 
   17481    17377    17266    17365    17463    17370    17290    17319 
   17298    17221    17200    17132    16912    16741    16798    16918 
   16896    16758    16621    16528    16498    16537    16525    16397 
   16314    16322    16241    16063    15954    15984    16033    15994 
   16004    16147    16202    16133    16143    16208    16220    16208 
   16187    16260    16524    16731    16686    16632    16734    16748 
   16555    16479    16694    16835    16699    16607    16648    16567 
   16511    16659    16733    16722    16829    16892    16866    16937 
   17042    17089    17118    17204    17328    17324    17248    17297 
   17389    17394    17329    17230    17130    16985    16834    16827 
   16884    16808    16671    16629    16673    16734    16735    16679 
   16723    16906    17037    17003    16972    17041    16947    16657 
   16561    16640    16560    16491    16719    16956    16812    16567 
   16633    16696    16459    16283    16283    16252    16243    16262 
   16281    16437    16660    16692    16486    16325    16411    16511 
   16533    16654    16767    16741    16746    16839    16821    16708 
   16771    16915    16865    16776    16810    16761    16595    16578 
   16761    16891    16872    16899    17064    17209    17240    17244 
   17289    17282    17176    17134    17266    17393    17305    17126 
   17076    17051    16862    16663    16696    16833    16826    16735 
   16725    16831    16981    16985    16802    16669    16700    16731 
   16664    16579    16565    16573    16528    16421    16249    16131 
   16187    16236    16159    16156    16325    16542    16741    16969 
   17162    17166    17089    17177    17293    17178    17008    17023 
   17093    17064    17026    17014    16939    16800    16630    16452 
   16324    16283    16382    16525    16488    16348    16301    16270 
   16171    16117    16202    16379    16517    16594    16659    16606 
   16413    16310    16378    16467    16528    16552    16565    16661 
   16710    16572    16495    16545    16452    16272    16260    16429 
   16591    16613    16702    16958    17014    16873    16953    17172 
   17208    17167    17227    17278    17236    17240    17324    17354 
   17343    17352    17351    17346    17315    17223    17150    17167 
   17184    17081    16983    17070    17136    16974    16852    16954 
   17066    17066    17049    17068    17136    17186    17101    16935 
   16780    16634    16518    16461    16417    16441    16551    16467 
   16217    16208    16328    16285    16268    16352    16360    16303 
   16287    16352    16434    16438    16387    16330    16321    16418 
   16526    16522    16470    16472    16491    16476    16507    16665 
   16802    16730    16578    16548    16646    16771    16768    16692 
   16727    16719    16546    16471    16580    16637    16546    16499 
   16630    16756    16734    16721    16845    17000    16985    16880 
   17001    17235    17211    17118    17258    17431    17427    17369 
   17439    17556    17475    17261    17161    17149    17085    16947 
   16839    16865    16852    16684    16606    16636    16569    16499 
   16563    16683    16717    16654    16691    16834    16876    16887 
   16980    16964    16810    16733    16741    16734    16704    16664 
