Origin Time       2024/04/02 04:24:00
Lat.              40.133
Long.             141.712
Depth. (km)       71
Mag.              6.0
Station Code      TCG009
Station Lat.      36.7261
Station Long.     139.7159
Station Height(m) 361
Record Time       2024/04/02 04:26:21
Sampling Freq(Hz) 100Hz
Duration Time(s)  62
Dir.              N-S
Scale Factor      7845(gal)/8223790
Max. Acc. (gal)   3.586
Last Correction   2024/04/02 04:26:20
Memo.             
[...]
  -10577   -10439   -10269   -10143   -10091   -10080   -10089   -10102 
  -10118   -10150   -10199   -10265   -10350   -10450   -10540   -10624 
  -10727   -10824   -10872   -10887   -10867   -10795   -10701   -10594 
  -10469   -10355   -10304   -10351   -10457   -10523   -10509   -10444 
  -10377   -10370   -10438   -10500   -10469   -10328   -10129    -9923 
   -9760    -9691    -9725    -9813    -9949   -10164   -10416   -10592 
  -10635   -10562   -10407   -10253   -10174   -10129   -10069   -10018 
   -9980    -9957    -9990   -10075   -10158   -10211   -10238   -10280 
  -10386   -10540   -10669   -10702   -10612   -10458   -10369   -10392 
  -10457   -10508   -10512   -10422   -10274   -10142   -10033    -9945 
   -9880    -9842    -9856    -9927   -10053   -10201   -10327   -10419 
  -10517   -10633   -10747   -10827   -10835   -10767   -10666   -10579 
  -10521   -10488   -10480   -10498   -10571   -10687   -10750   -10716 
  -10635   -10534   -10430   -10382   -10413   -10480   -10542   -10562 
  -10496   -10365   -10226   -10100    -9987    -9896    -9853    -9899 
  -10035   -10172   -10191   -10080    -9949    -9909    -9979   -10107 
  -10254   -10396   -10484   -10494   -10451   -10393   -10342   -10284 
  -10195   -10133   -10201   -10397   -10621   -10785   -10844   -10818 
  -10746   -10635   -10473   -10268   -10060    -9927    -9926   -10042 
  -10231   -10428   -10577   -10656   -10705   -10786   -10894   -10956 
  -10928   -10836   -10729   -10619   -10477   -10297   -10092    -9900 
   -9780    -9744    -9776    -9900   -10069   -10183   -10235   -10296 
  -10366   -10412   -10411   -10341   -10230   -10137   -10064    -9984 
   -9923    -9904    -9915    -9981   -10098   -10195   -10262   -10347 
  -10455   -10561   -10675   -10810   -10945   -11047   -11071   -10982 
  -10813   -10660   -10584   -10563   -10578   -10623   -10642   -10582 
  -10440   -10245   -10058    -9927    -9832    -9725    -9633    -9603 
   -9663    -9826   -10045   -10208   -10284   -10323   -10370   -10458 
  -10590   -10706   -10759   -10751   -10701   -10624   -10527   -10399 
  -10233   -10057    -9953    -9958   -10031   -10127   -10223   -10291 
  -10332   -10370   -10396   -10409   -10470   -10590   -10686   -10692 
  -10600   -10434   -10237   -10071    -9976    -9954    -9998   -10071 
  -10110   -10110   -10123   -10174   -10245   -10336   -10471   -10647 
  -10822   -10929   -10918   -10844   -10781   -10723   -10643   -10547 
  -10450   -10366   -10292   -10219   -10169   -10173   -10193   -10158 
  -10093   -10060   -10052   -10099   -10226   -10343   -10350   -10272 
  -10197   -10174   -10181   -10164   -10103   -10046   -10054   -10146 
  -10316   -10571   -10894   -11210   -11429   -11489   -11364   -11072 
  -10728   -10449   -10243   -10115   -10089   -10107   -10080   -10018 
   -9949    -9865    -9780    -9722    -9707    -9783    -9968   -10166 
  -10289   -10361   -10416   -10465   -10517   -10528   -10462   -10369 
  -10293   -10255   -10264   -10291   -10318   -10358   -10412   -10443 
  -10442   -10469   -10570   -10729   -10893   -10966   -10866   -10608 
  -10287    -9996    -9796    -9701    -9668    -9678    -9760    -9929 
  -10135   -10324   -10451   -10489   -10481   -10469   -10439   -10399 
  -10376   -10386   -10449   -10534   -10552   -10466   -10343   -10282 
  -10301   -10361   -10419   -10444   -10438   -10440   -10458   -10446 
  -10430   -10440   -10431   -10408   -10434   -10481   -10482   -10409 
  -10265   -10110   -10027   -10034   -10104   -10200   -10266   -10311 
  -10395   -10505   -10617   -10714   -10724   -10627   -10550   -10557 
  -10558   -10485   -10307    -9991    -9660    -9501    -9493    -9549 
   -9695    -9945   -10230   -10519   -10793   -10995   -11115   -11171 
  -11145   -11063   -10993   -10941   -10862   -10716   -10488   -10235 
  -10084   -10081   -10125   -10103   -10017    -9952    -9977   -10096 
  -10250   -10362   -10384   -10327   -10247   -10216   -10270   -10384 
  -10480   -10527   -10590   -10713   -10849   -10924   -10879   -10747 
  -10605   -10486   -10373   -10235   -10092   -10004    -9994   -10022 
  -10030    -9979    -9890    -9836    -9872   -10003   -10188   -10350 
  -10430   -10416   -10358   -10331   -10342   -10328   -10264   -10181 
  -10098   -10012    -9954    -9964   -10037   -10142   -10238   -10293 
  -10323   -10362   -10430   -10517   -10575   -10540   -10422   -10300 
  -10214   -10180   -10246   -10403   -10566   -10675   -10704   -10650 
  -10570   -10512   -10474   -10440   -10380   -10257   -10119   -10030 
   -9987    -9976   -10003   -10046   -10091   -10114   -10098   -10100 
  -10170   -10255   -10305   -10334   -10361   -10404   -10461   -10525 
  -10638   -10801   -10936   -10971   -10879   -10696   -10512   -10369 
  -10250   -10189   -10224   -10338   -10497   -10648   -10727   -10725 
  -10677   -10590   -10474   -10362   -10311   -10353   -10458   -10551 
  -10569   -10492   -10372   -10254   -10133   -10029    -9981    -9972 
   -9995   -10089   -10239   -10384   -10503   -10555   -10511   -10454 
  -10471   -10547   -10616   -10632   -10584   -10513   -10500   -10566 
  -10646   -10651   -10559   -10392   -10192   -10019    -9911    -9841 
   -9771    -9720    -9745    -9882   -10077   -10257   -10372   -10436 
  -10505   -10562   -10574   -10554   -10484   -10355   -10214   -10092 
  -10000    -9913    -9792    -9653    -9575    -9634    -9852   -10183 
  -10525   -10756   -10866   -10930   -10948   -10890   -10797   -10705 
  -10633   -10612   -10597   -10534   -10465   -10412   -10323   -10196 
  -10060    -9900    -9768    -9756    -9872   -10076   -10363   -10692 
  -10945   -11075   -11113   -11063   -10957   -10856   -10725   -10515 
  -10268   -10037    -9845    -9703    -9570    -9412    -9269    -9202 
   -9247    -9406    -9636    -9913   -10253   -10624   -10930   -11128 
  -11241   -11269   -11234   -11227   -11256   -11248   -11190   -11094 
  -10959   -10812   -10671   -10523   -10350   -10168   -10007    -9898 
   -9861    -9860    -9840    -9796    -9784    -9863   -10045   -10260 
  -10397   -10419   -10393   -10393   -10428   -10442   -10374   -10241 
  -10116   -10057   -10042   -10014    -9934    -9801    -9668    -9636 
   -9756   -10002   -10305   -10581   -10777   -10925   -11049   -11114 
  -11082   -10936   -10682   -10404   -10177    -9985    -9776    -9563 
   -9405    -9374    -9479    -9656    -9837   -10000   -10145   -10262 
  -10369   -10494   -10617   -10717   -10808   -10908   -11036   -11192 
  -11314   -11353   -11323   -11218   -11040   -10847   -10655   -10416 
  -10129    -9841    -9599    -9439    -9391    -9459    -9620    -9852 
  -10120   -10409   -10727   -11047   -11323   -11515   -11588   -11543 
  -11406   -11217   -11018   -10810   -10563   -10235    -9802    -9300 
   -8823    -8479    -8307    -8301    -8449    -8743    -9188    -9748 
  -10343   -10876   -11252   -11456   -11560   -11570   -11450   -11165 
  -10714   -10173    -9664    -9263    -9004    -8880    -8853    -8914 
   -9107    -9463    -9980   -10589   -11163   -11611   -11921   -12116 
  -12201   -12143   -11912   -11558   -11191   -10891   -10696   -10594 
  -10504   -10366   -10242   -10195   -10211   -10231   -10220   -10195 
  -10201   -10297   -10530   -10837   -11102   -11268   -11326   -11269 
  -11126   -10953   -10790   -10636   -10471   -10292   -10114    -9957 
   -9822    -9667    -9482    -9304    -9159    -9103    -9200    -9401 
   -9587    -9701    -9753    -9752    -9738    -9786    -9934   -10153 
  -10351   -10430   -10372   -10224   -10029    -9830    -9682    -9586 
   -9543    -9591    -9752   -10018   -10361   -10667   -10821   -10851 
  -10839   -10822   -10825   -10836   -10793   -10698   -10632   -10613 
  -10627   -10697   -10828   -10980   -11126   -11244   -11321   -11368 
  -11371   -11286   -11122   -10929   -10729   -10539   -10365   -10189 
  -10015    -9873    -9769    -9694    -9666    -9695    -9772    -9873 
   -9964   -10002   -10011   -10039   -10100   -10219   -10392   -10488 
  -10397   -10164    -9909    -9740    -9698    -9710    -9680    -9571 
   -9398    -9231    -9157    -9197    -9321    -9543    -9873   -10265 
  -10669   -11033   -11294   -11456   -11550   -11556   -11497   -11458 
  -11460   -11495   -11573   -11638   -11587   -11362   -10980   -10534 
  -10188   -10096   -10253   -10513   -10789   -11013   -11072   -10966 
  -10818   -10697   -10575   -10426   -10210    -9923    -9643    -9458 
   -9391    -9358    -9271    -9154    -9053    -9035    -9200    -9566 
  -10072   -10646   -11202   -11620   -11807   -11757   -11503   -11080 
  -10540    -9948    -9385    -8965    -8775    -8816    -9015    -9258 
   -9458    -9583    -9644    -9690    -9801   -10010   -10243   -10405 
  -10486   -10559   -10712   -10997   -11396   -11784   -12012   -12020 
  -11828   -11479   -11025   -10527   -10004    -9499    -9124    -8997 
   -9120    -9371    -9617    -9802    -9971   -10168   -10393   -10621 
  -10836   -11032   -11190   -11249   -11188   -11047   -10859   -10632 
  -10388   -10139    -9886    -9668    -9558    -9589    -9751   -10002 
  -10293   -10570   -10778   -10913   -11007   -11088   -11175   -11272 
  -11326   -11254   -11040   -10716   -10319    -9940    -9663    -9495 
   -9454    -9564    -9780   -10049   -10320   -10528   -10654   -10704 
  -10685   -10638   -10577   -10469   -10334   -10234   -10164   -10106 
  -10064   -10006    -9892    -9771    -9741    -9822    -9977   -10184 
  -10393   -10551   -10644   -10665   -10596   -10455   -10258   -10014 
   -9780    -9691    -9869   -10339   -11016   -11720   -12286   -12631 
  -12712   -12510   -12091   -11554   -10968   -10444   -10052    -9730 
   -9420    -9107    -8781    -8488    -8303    -8255    -8353    -8613 
   -9049    -9666   -10404   -11121   -11731   -12208   -12513   -12629 
  -12595   -12399   -12015   -11522   -10991   -10381    -9698    -9030 
   -8473    -8136    -8060    -8155    -8314    -8533    -8804    -9134 
   -9614   -10299   -11099   -11869   -12460   -12772   -12816   -12609 
  -12109   -11379   -10557    -9744    -9027    -8500    -8222    -8237 
   -8549    -9066    -9676   -10269   -10732   -11029   -11223   -11392 
  -11570   -11786   -12040   -12245   -12310   -12181   -11809   -11215 
  -10478    -9656    -8833    -8135    -7662    -7497    -7696    -8205 
   -8895    -9643   -10318   -10836   -11240   -11607   -11923   -12087 
  -11963   -11489   -10810   -10138    -9583    -9188    -8961    -8877 
   -8896    -8939    -8915    -8820    -8694    -8577    -8604    -8903 
   -9456   -10164   -10882   -11461   -11861   -12120   -12204   -12079 
  -11813   -11511   -11253   -11106   -11037   -10891   -10548   -10085 
   -9684    -9439    -9332    -9310    -9331    -9373    -9463    -9660 
   -9921   -10119   -10191   -10161   -10118   -10161   -10276   -10407 
  -10600   -10895   -11233   -11562   -11893   -12137   -12160   -11963 
  -11627   -11225   -10827   -10431    -9952    -9378    -8797    -8305 
   -8008    -7978    -8175    -8564    -9126    -9775   -10426   -11007 
  -11457   -11782   -12062   -12368   -12745   -13149   -13367   -13200 
  -12671   -11942   -11144   -10314    -9450    -8635    -8037    -7754 
   -7767    -8027    -8494    -9154    -9940   -10741   -11475   -12046 
  -12341   -12297   -11983   -11535   -11037   -10573   -10230   -10021 
   -9915    -9913   -10010   -10160   -10273   -10246   -10010    -9630 
   -9267    -8980    -8761    -8684    -8850    -9240    -9744   -10237 
  -10616   -10851   -10926   -10783   -10481   -10199   -10072   -10129 
  -10316   -10579   -10941   -11412   -11846   -12025   -11908   -11605 
  -11230   -10882   -10601   -10282    -9865    -9440    -9055    -8719 
   -8529    -8554    -8766    -9121    -9566   -10029   -10455   -10789 
  -10974   -11021   -11024   -11071   -11178   -11263   -11236   -11126 
  -11003   -10854   -10605   -10235    -9861    -9680    -9761    -9994 
  -10214   -10288   -10166    -9938    -9720    -9544    -9420    -9390 
   -9482    -9694    -9981   -10272   -10525   -10721   -10802   -10808 
  -10924   -11237   -11668   -12094   -12397   -12538   -12576   -12552 
  -12460   -12217   -11681   -10825    -9778    -8719    -7830    -7231 
   -6909    -6839    -7113    -7761    -8618    -9513   -10376   -11171 
  -11904   -12575   -13050   -13219   -13117   -12804   -12374   -11971 
  -11604   -11159   -10601    -9952    -9246    -8572    -7955    -7368 
   -6926    -6847    -7209    -7977    -9093   -10365   -11514   -12394 
  -12978   -13279   -13321   -13112   -12656   -12002   -11283   -10633 
  -10115    -9686    -9283    -8874    -8478    -8147    -7908    -7797 
   -7948    -8482    -9379   -10462   -11500   -12326   -12795   -12819 
  -12476   -11907   -11207   -10476    -9836    -9382    -9155    -9150 
   -9267    -9331    -9296    -9281    -9390    -9718   -10278   -10833 
  -11164   -11298   -11279   -11151   -11083   -11146   -11209   -11171 
  -10974   -10555   -10045    -9647    -9412    -9302    -9270    -9256 
   -9239    -9269    -9364    -9478    -9630    -9891   -10211   -10498 
  -10773   -11121   -11556   -11979   -12229   -12201   -11959   -11669 
  -11439   -11227   -10855   -10237    -9478    -8752    -8206    -7997 
   -8197    -8668    -9169    -9526    -9718    -9840   -10000   -10237 
  -10561   -10980   -11437   -11826   -12062   -12029   -11673   -11114 
  -10496    -9896    -9393    -8981    -8634    -8475    -8654    -9153 
   -9828   -10611   -11526   -12505   -13358   -13929   -14103   -13792 
  -13070   -12158   -11276   -10562   -10012    -9539    -9067    -8534 
   -8004    -7717    -7804    -8148    -8565    -8965    -9397    -9892 
  -10359   -10773   -11187   -11553   -11790   -11954   -12055   -12002 
  -11745   -11284   -10667   -10004    -9418    -8977    -8760    -8804 
   -8966    -9119    -9305    -9572    -9911   -10307   -10673   -10852 
  -10804   -10644   -10507   -10423   -10385   -10409   -10476   -10561 
  -10696   -10886   -11121   -11419   -11678   -11693   -11449   -11109 
  -10778   -10447   -10098    -9772    -9513    -9351    -9296    -9298 
   -9312    -9300    -9227    -9111    -9045    -9127    -9410    -9880 
  -10438   -10933   -11288   -11561   -11781   -11866   -11781   -11630 
  -11503   -11346   -11053   -10629   -10153    -9714    -9401    -9229 
   -9123    -9024    -8958    -8992    -9200    -9603   -10079   -10417 
  -10546   -10531   -10486   -10552   -10812   -11210   -11641   -12005 
  -12251   -12364   -12309   -12063   -11662   -11148   -10570   -10027 
   -9605    -9304    -9082    -8908    -8773    -8739    -8820    -8893 
   -8901    -8918    -8931    -8895    -8868    -8924    -9154    -9657 
  -10370   -11117   -11794   -12352   -12685   -12671   -12301   -11727 
  -11165   -10787   -10598   -10427   -10122    -9702    -9293    -9008 
   -8897    -8923    -8978    -9008    -9096    -9350    -9772   -10322 
  -10930   -11475   -11897   -12236   -12424   -12339   -12015   -11554 
  -11017   -10550   -10320   -10251   -10119    -9864    -9552    -9279 
   -9165    -9220    -9323    -9412    -9547    -9780   -10138   -10632 
  -11167   -11565   -11684   -11449   -10952   -10442   -10123   -10041 
  -10104   -10187   -10262   -10405   -10611   -10755   -10802   -10779 
  -10636   -10342    -9980    -9649    -9448    -9458    -9610    -9753 
   -9841    -9899    -9899    -9841    -9826    -9903   -10019   -10115 
  -10096    -9892    -9701    -9772   -10052   -10377   -10702   -10984 
  -11171   -11271   -11338   -11425   -11507   -11466   -11254   -10955 
  -10624   -10319   -10104    -9911    -9647    -9360    -9120    -8946 
   -8873    -8954    -9256    -9833   -10584   -11291   -11843   -12247 
  -12511   -12656   -12725   -12735   -12633   -12310   -11745   -11025 
  -10314    -9759    -9363    -8988    -8584    -8295    -8282    -8587 
   -9093    -9597    -9999   -10376   -10798   -11213   -11519   -11735 
  -11938   -12054   -11929   -11529   -10953   -10342    -9769    -9255 
   -8829    -8584    -8587    -8722    -8789    -8760    -8761    -8873 
   -9105    -9494   -10079   -10778   -11398   -11766   -11832   -11646 
  -11291   -10864   -10474   -10196   -10019    -9877    -9740    -9651 
   -9676    -9879   -10291   -10851   -11380   -11716   -11840   -11815 
  -11668   -11406   -11060   -10713   -10440   -10162    -9757    -9267 
   -8808    -8469    -8321    -8328    -8433    -8714    -9217    -9787 
  -10247   -10554   -10789   -11071   -11422   -11704   -11780   -11673 
  -11466   -11172   -10833   -10538   -10297   -10091    -9903    -9744 
   -9691    -9802   -10006   -10184   -10304   -10372   -10341   -10189 
   -9976    -9794    -9788   -10044   -10467   -10913   -11263   -11430 
  -11394   -11236   -11071   -10908   -10651   -10264    -9822    -9454 
   -9298    -9406    -9688   -10031   -10381   -10697   -10912   -10994 
  -11040   -11169   -11353   -11491   -11542   -11485   -11325   -11060 
  -10724   -10438   -10265   -10134    -9965    -9717    -9386    -9013 
   -8656    -8341    -8101    -7979    -8046    -8348    -8846    -9459 
  -10103   -10712   -11303   -11865   -12336   -12711   -13023   -13243 
  -13281   -13092   -12645   -11828   -10665    -9421    -8360    -7611 
   -7191    -7005    -7020    -7383    -8154    -9181   -10278   -11263 
  -12027   -12571   -12860   -12893   -12787   -12602   -12337   -11992 
  -11539   -10962   -10270    -9498    -8734    -8068    -7599    -7453 
   -7628    -7950    -8326    -8843    -9562   -10404   -11268   -12066 
  -12722   -13173   -13324   -13107   -12599   -11970   -11300   -10565 
   -9759    -8966    -8272    -7762    -7543    -7651    -7986    -8426 
   -8885    -9289    -9663   -10093   -10621   -11240   -11840   -12231 
  -12368   -12382   -12332   -12140   -11793   -11384   -10970   -10546 
  -10169    -9937    -9841    -9796    -9764    -9728    -9660    -9606 
   -9607    -9657    -9803   -10039   -10216   -10318   -10462   -10619 
  -10737   -10889   -11076   -11209   -11236   -11221   -11276   -11402 
  -11480   -11433   -11236   -10895   -10490   -10099    -9733    -9387 
   -9104    -8973    -9034    -9266    -9641   -10039   -10326   -10504 
  -10604   -10598   -10496   -10320   -10076    -9848    -9737    -9763 
   -9914   -10157   -10439   -10689   -10790   -10759   -10717   -10620 
  -10343    -9971    -9660    -9472    -9439    -9512    -9568    -9591 
   -9656    -9772    -9938   -10188   -10517   -10905   -11326   -11736 
  -12096   -12317   -12309   -12129   -11901   -11672   -11443   -11156 
  -10727   -10162    -9531    -8920    -8452    -8176    -8064    -8147 
   -8505    -9126    -9894   -10669   -11337   -11826   -12127   -12280 
  -12294   -12117   -11685   -10944   -10011    -9198    -8672    -8372 
   -8241    -8249    -8410    -8827    -9482   -10130   -10594   -10901 
  -11121   -11307   -11481   -11600   -11658   -11686   -11688   -11655 
  -11547   -11230   -10679   -10062    -9548    -9236    -9161    -9269 
   -9475    -9710    -9909   -10035   -10085   -10080   -10058   -10058 
  -10093   -10118   -10110   -10126   -10218   -10376   -10521   -10584 
  -10585   -10515   -10299    -9972    -9693    -9566    -9595    -9733 
   -9895   -10052   -10282   -10629   -10997   -11250   -11314   -11187 
  -10935   -10625   -10335   -10162   -10162   -10334   -10631   -10944 
