Origin Time       2024/04/02 04:24:00
Lat.              40.133
Long.             141.712
Depth. (km)       71
Mag.              6.0
Station Code      TCG013
Station Lat.      36.4368
Station Long.     140.0227
Station Height(m) 66
Record Time       2024/04/02 04:26:27
Sampling Freq(Hz) 100Hz
Duration Time(s)  60
Dir.              E-W
Scale Factor      7845(gal)/8223790
Max. Acc. (gal)   1.603
Last Correction   2024/04/02 04:26:26
Memo.             
[...]
   -3279    -3245    -3272    -3267    -3218    -3194    -3198    -3213 
   -3230    -3257    -3295    -3287    -3214    -3164    -3164    -3175 
   -3230    -3345    -3419    -3406    -3366    -3366    -3397    -3399 
   -3433    -3597    -3730    -3657    -3507    -3399    -3319    -3276 
   -3296    -3369    -3438    -3449    -3402    -3318    -3229    -3168 
   -3161    -3227    -3329    -3407    -3457    -3469    -3433    -3343 
   -3234    -3203    -3242    -3234    -3186    -3159    -3129    -3075 
   -3046    -3110    -3186    -3136    -3044    -3073    -3173    -3246 
   -3306    -3350    -3322    -3218    -3126    -3095    -3080    -3082 
   -3119    -3149    -3140    -3144    -3221    -3285    -3233    -3164 
   -3137    -3060    -3014    -3115    -3237    -3241    -3192    -3190 
   -3175    -3060    -2994    -3171    -3426    -3454    -3307    -3246 
   -3277    -3238    -3225    -3380    -3539    -3559    -3545    -3551 
   -3527    -3524    -3636    -3782    -3816    -3734    -3588    -3384 
   -3157    -3025    -3084    -3276    -3424    -3456    -3437    -3353 
   -3175    -3071    -3153    -3299    -3395    -3414    -3327    -3138 
   -2968    -2968    -3106    -3231    -3308    -3343    -3289    -3142 
   -3038    -3106    -3267    -3357    -3381    -3357    -3213    -2976 
   -2798    -2776    -2867    -2968    -3060    -3168    -3241    -3223 
   -3194    -3237    -3275    -3235    -3213    -3271    -3338    -3364 
   -3389    -3435    -3419    -3311    -3241    -3264    -3291    -3322 
   -3434    -3564    -3595    -3541    -3450    -3325    -3244    -3281 
   -3379    -3474    -3555    -3591    -3543    -3393    -3202    -3107 
   -3144    -3188    -3183    -3245    -3406    -3497    -3407    -3231 
   -3132    -3129    -3163    -3235    -3342    -3364    -3240    -3088 
   -3046    -3110    -3190    -3287    -3414    -3454    -3319    -3164 
   -3154    -3208    -3248    -3357    -3495    -3512    -3412    -3288 
   -3171    -3041    -2970    -3052    -3214    -3268    -3177    -3071 
   -2998    -2938    -2961    -3078    -3194    -3294    -3375    -3385 
   -3287    -3152    -3169    -3335    -3379    -3254    -3202    -3280 
   -3310    -3256    -3256    -3311    -3361    -3441    -3511    -3470 
   -3384    -3338    -3261    -3165    -3179    -3271    -3316    -3321 
   -3335    -3333    -3279    -3211    -3196    -3256    -3350    -3468 
   -3588    -3618    -3566    -3519    -3441    -3307    -3227    -3246 
   -3300    -3376    -3501    -3608    -3586    -3431    -3221    -3065 
   -3037    -3090    -3172    -3267    -3287    -3169    -2978    -2824 
   -2791    -2882    -3042    -3191    -3225    -3145    -3042    -2965 
   -2945    -3001    -3082    -3136    -3140    -3122    -3127    -3149 
   -3160    -3221    -3397    -3565    -3591    -3569    -3545    -3435 
   -3276    -3195    -3252    -3369    -3402    -3341    -3326    -3372 
   -3365    -3348    -3407    -3457    -3395    -3253    -3153    -3164 
   -3237    -3323    -3395    -3424    -3416    -3343    -3248    -3267 
   -3350    -3372    -3426    -3569    -3655    -3638    -3623    -3613 
   -3572    -3597    -3708    -3738    -3667    -3627    -3565    -3414 
   -3291    -3307    -3381    -3335    -3142    -2992    -2972    -2936 
   -2890    -2999    -3161    -3157    -2975    -2760    -2620    -2558 
   -2586    -2775    -3060    -3262    -3330    -3345    -3289    -3073 
   -2836    -2828    -2987    -3122    -3285    -3507    -3551    -3342 
   -3122    -3060    -3119    -3244    -3400    -3514    -3499    -3350 
   -3183    -3114    -3141    -3191    -3253    -3326    -3335    -3223 
   -3075    -3046    -3121    -3181    -3264    -3353    -3352    -3308 
   -3276    -3203    -3115    -3091    -3165    -3300    -3377    -3400 
   -3497    -3586    -3515    -3400    -3392    -3389    -3289    -3221 
   -3280    -3334    -3294    -3252    -3264    -3302    -3373    -3508 
   -3626    -3597    -3454    -3331    -3276    -3241    -3264    -3400 
   -3496    -3450    -3423    -3451    -3418    -3350    -3329    -3346 
   -3356    -3342    -3361    -3408    -3408    -3387    -3330    -3142 
   -2897    -2770    -2802    -2938    -3148    -3348    -3384    -3262 
   -3095    -2894    -2731    -2806    -3127    -3456    -3657    -3711 
   -3566    -3300    -3096    -3034    -3117    -3277    -3408    -3470 
   -3423    -3261    -3126    -3094    -3105    -3172    -3314    -3415 
   -3435    -3438    -3372    -3210    -3095    -3123    -3164    -3125 
   -3125    -3208    -3254    -3213    -3154    -3175    -3246    -3238 
   -3221    -3298    -3323    -3261    -3296    -3415    -3434    -3337 
   -3252    -3195    -3114    -3073    -3159    -3314    -3433    -3470 
   -3487    -3458    -3308    -3138    -3099    -3177    -3304    -3434 
   -3503    -3472    -3353    -3231    -3211    -3223    -3168    -3196 
   -3410    -3531    -3388    -3295    -3450    -3535    -3364    -3231 
   -3275    -3264    -3140    -3073    -3136    -3238    -3268    -3226 
   -3180    -3099    -3032    -3168    -3392    -3441    -3414    -3406 
   -3264    -3029    -2964    -3114    -3254    -3310    -3418    -3535 
   -3484    -3280    -3132    -3211    -3364    -3327    -3264    -3414 
   -3530    -3333    -3072    -3082    -3190    -3113    -2971    -2994 
   -3142    -3233    -3229    -3273    -3356    -3310    -3190    -3160 
   -3207    -3268    -3349    -3454    -3577    -3727    -3816    -3700 
   -3495    -3395    -3277    -3098    -3106    -3318    -3469    -3443 
   -3322    -3184    -3057    -2953    -2940    -3084    -3254    -3272 
   -3202    -3150    -3122    -3138    -3180    -3181    -3207    -3295 
   -3322    -3245    -3207    -3253    -3250    -3187    -3258    -3496 
   -3636    -3514    -3267    -3136    -3173    -3211    -3234    -3327 
   -3370    -3261    -3095    -2968    -2934    -3028    -3183    -3262 
   -3233    -3204    -3231    -3206    -3121    -3111    -3211    -3329 
   -3423    -3568    -3746    -3748    -3532    -3337    -3231    -3157 
   -3218    -3445    -3666    -3738    -3580    -3271    -3022    -2956 
   -3095    -3420    -3753    -3847    -3659    -3341    -3057    -2956 
   -3059    -3226    -3379    -3505    -3483    -3257    -3007    -2895 
   -2921    -3053    -3287    -3570    -3781    -3765    -3414    -2916 
   -2664    -2705    -2855    -3172    -3631    -3883    -3735    -3369 
   -3078    -2955    -2949    -3109    -3454    -3757    -3829    -3748 
   -3569    -3306    -3079    -2959    -2909    -2986    -3289    -3631 
   -3690    -3524    -3388    -3233    -2963    -2775    -2887    -3215 
   -3481    -3519    -3341    -3005    -2697    -2650    -2817    -3029 
   -3329    -3673    -3735    -3415    -3071    -2947    -2928    -2959 
   -3105    -3304    -3434    -3450    -3376    -3237    -3114    -3150 
   -3339    -3493    -3534    -3534    -3478    -3349    -3252    -3234 
   -3214    -3134    -3040    -3025    -3069    -3053    -2992    -3024 
   -3141    -3240    -3364    -3543    -3601    -3424    -3125    -2886 
   -2840    -2976    -3248    -3603    -3839    -3754    -3429    -3118 
   -2952    -2964    -3206    -3593    -3917    -4021    -3808    -3341 
   -2972    -2909    -2957    -3072    -3385    -3676    -3620    -3296 
   -2988    -2835    -2836    -2952    -3172    -3457    -3651    -3686 
   -3657    -3541    -3285    -3053    -3013    -3179    -3472    -3676 
   -3636    -3484    -3294    -2975    -2698    -2756    -3045    -3284 
   -3429    -3528    -3537    -3416    -3200    -2970    -2911    -3084 
   -3229    -3225    -3219    -3210    -3118    -3030    -3042    -3125 
   -3244    -3329    -3253    -3094    -3052    -3037    -2991    -3154 
   -3508    -3701    -3520    -3075    -2722    -2675    -2822    -3113 
   -3595    -4029    -4035    -3582    -3030    -2706    -2674    -2878 
   -3308    -3875    -4249    -4128    -3686    -3322    -3083    -2862 
   -2862    -3310    -3927    -4248    -4153    -3816    -3410    -3014 
   -2752    -2786    -3096    -3478    -3730    -3757    -3555    -3210 
   -2910    -2843    -3005    -3288    -3651    -4009    -4106    -3769 
   -3261    -2984    -2928    -2909    -2980    -3198    -3380    -3365 
   -3254    -3148    -2994    -2830    -2808    -2957    -3171    -3341 
   -3442    -3470    -3346    -3076    -2903    -2937    -3006    -3105 
   -3310    -3433    -3366    -3258    -3156    -3051    -3029    -3102 
   -3172    -3173    -3154    -3219    -3304    -3257    -3129    -3064 
   -3006    -2874    -2826    -2988    -3248    -3501    -3640    -3524 
   -3300    -3211    -3191    -3157    -3252    -3447    -3466    -3277 
   -3169    -3268    -3399    -3411    -3389    -3431    -3446    -3424 
   -3487    -3578    -3557    -3389    -3082    -2689    -2416    -2511 
   -2959    -3476    -3855    -3982    -3802    -3464    -3114    -2855 
   -2872    -3194    -3655    -4074    -4183    -3912    -3546    -3238 
   -2894    -2597    -2631    -3010    -3393    -3613    -3825    -4032 
   -3966    -3523    -3034    -2872    -2987    -3187    -3472    -3715 
   -3694    -3501    -3288    -3007    -2758    -2825    -3173    -3453 
   -3497    -3457    -3404    -3180    -2863    -2808    -3053    -3304 
   -3395    -3337    -3198    -3068    -2961    -2851    -2841    -3010 
   -3198    -3248    -3260    -3387    -3519    -3396    -3072    -2852 
   -2759    -2689    -2749    -2961    -3181    -3314    -3365    -3445 
   -3549    -3510    -3385    -3403    -3591    -3811    -3974    -4071 
   -4002    -3618    -3002    -2436    -2160    -2261    -2640    -3144 
   -3589    -3734    -3570    -3318    -3056    -2878    -3003    -3348 
   -3555    -3450    -3123    -2828    -2681    -2651    -2916    -3473 
   -3840    -3801    -3593    -3350    -3138    -3145    -3453    -3867 
   -4101    -3985    -3499    -2879    -2506    -2515    -2905    -3649 
   -4369    -4584    -4241    -3574    -2820    -2338    -2463    -3075 
   -3681    -3932    -3850    -3597    -3218    -2821    -2783    -3267 
   -3863    -4102    -3954    -3627    -3219    -2817    -2633    -2760 
   -3026    -3172    -3109    -3037    -3159    -3410    -3636    -3767 
   -3777    -3618    -3227    -2803    -2704    -2934    -3190    -3300 
   -3291    -3169    -2916    -2727    -2820    -3042    -3192    -3337 
   -3469    -3423    -3226    -3029    -2870    -2749    -2732    -2878 
   -3165    -3466    -3589    -3526    -3456    -3348    -3086    -2933 
   -3132    -3441    -3611    -3693    -3622    -3237    -2708    -2413 
   -2555    -2968    -3369    -3707    -3960    -3906    -3495    -3091 
   -3024    -3196    -3380    -3570    -3807    -3885    -3596    -3156 
   -2956    -3040    -3195    -3343    -3551    -3689    -3520    -3198 
   -3006    -2906    -2856    -2924    -3030    -3107    -3233    -3451 
   -3623    -3564    -3296    -3017    -2851    -2806    -2974    -3468 
   -4047    -4272    -4095    -3739    -3287    -2909    -2906    -3300 
   -3781    -4083    -4186    -4051    -3561    -2944    -2660    -2779 
   -3060    -3392    -3700    -3784    -3478    -2891    -2361    -2151 
   -2328    -2798    -3310    -3628    -3595    -3122    -2484    -2176 
   -2327    -2710    -3150    -3562    -3811    -3730    -3319    -2901 
   -2790    -2847    -2825    -2859    -3044    -3204    -3306    -3431 
   -3488    -3360    -3136    -2992    -2976    -3052    -3233    -3477 
   -3616    -3620    -3585    -3568    -3672    -3890    -4047    -4064 
   -3904    -3595    -3294    -3044    -2875    -2944    -3196    -3362 
   -3438    -3596    -3744    -3777    -3859    -3977    -3928    -3798 
   -3696    -3541    -3433    -3541    -3727    -3854    -3948    -3893 
   -3612    -3291    -3064    -2916    -2855    -2926    -3111    -3262 
   -3215    -3005    -2799    -2643    -2494    -2438    -2623    -2959 
   -3113    -2988    -2735    -2458    -2339    -2506    -2787    -3051 
   -3358    -3622    -3623    -3422    -3256    -3136    -3003    -2922 
   -2922    -2994    -3076    -3186    -3449    -3704    -3693    -3580 
   -3572    -3564    -3522    -3582    -3735    -3829    -3820    -3801 
   -3754    -3545    -3246    -3006    -2810    -2774    -2998    -3295 
   -3516    -3565    -3289    -2853    -2623    -2691    -3030    -3566 
   -3932    -3869    -3462    -2789    -2128    -2026    -2587    -3522 
   -4467    -4897    -4565    -3740    -2741    -1954    -1881    -2602 
   -3597    -4291    -4482    -4182    -3458    -2643    -2208    -2340 
   -2866    -3558    -4179    -4423    -4118    -3457    -2866    -2573 
   -2531    -2736    -3165    -3599    -3805    -3688    -3335    -2955 
   -2617    -2394    -2515    -2994    -3478    -3708    -3684    -3468 
   -3171    -2955    -2963    -3195    -3457    -3680    -3933    -4083 
   -3989    -3767    -3557    -3383    -3192    -2925    -2717    -2763 
   -2979    -3153    -3226    -3217    -3194    -3217    -3159    -3010 
   -2995    -3071    -3032    -3011    -3138    -3292    -3485    -3767 
   -3939    -3882    -3696    -3437    -3241    -3296    -3586    -3906 
   -4039    -4004    -3900    -3580    -3038    -2623    -2570    -2790 
   -3063    -3314    -3535    -3539    -3188    -2694    -2421    -2490 
   -2760    -3133    -3485    -3558    -3253    -2716    -2211    -1980 
   -2157    -2776    -3601    -4178    -4280    -3931    -3211    -2490 
   -2286    -2681    -3352    -4040    -4477    -4311    -3532    -2654 
   -2232    -2392    -2924    -3599    -4140    -4206    -3667    -2768 
   -1930    -1591    -2000    -2872    -3670    -4233    -4598    -4567 
   -3970    -3150    -2706    -2787    -3164    -3759    -4459    -4857 
   -4644    -3928    -3111    -2558    -2519    -3044    -3769    -4213 
   -4210    -3805    -3167    -2636    -2504    -2736    -3086    -3375 
   -3537    -3535    -3399    -3235    -3163    -3187    -3199    -3157 
   -3121    -3084    -2999    -2965    -3057    -3117    -3067    -3059 
   -3190    -3306    -3222    -3032    -2926    -2860    -2751    -2762 
   -3064    -3469    -3605    -3476    -3302    -3138    -3057    -3165 
   -3395    -3574    -3609    -3526    -3339    -3094    -2951    -2930 
   -2839    -2619    -2511    -2739    -3103    -3268    -3383    -3626 
   -3643    -3267    -2845    -2644    -2683    -2890    -3226    -3686 
   -4039    -4008    -3672    -3310    -3164    -3296    -3597    -4037 
   -4506    -4612    -4217    -3674    -3262    -2924    -2681    -2748 
   -3169    -3735    -4168    -4302    -4133    -3684    -3007    -2363 
   -2046    -2182    -2681    -3229    -3477    -3322    -2920    -2508 
   -2313    -2509    -3036    -3582    -3854    -3758    -3411    -3021 
   -2745    -2685    -2862    -3145    -3379    -3520    -3549    -3431 
   -3198    -2918    -2691    -2636    -2844    -3304    -3812    -4151 
   -4298    -4214    -3786    -3159    -2747    -2864    -3404    -3989 
   -4440    -4734    -4696    -4307    -3855    -3578    -3572    -3743 
   -3812    -3669    -3407    -3100    -2867    -2790    -2848    -3080 
   -3391    -3399    -3038    -2743    -2681    -2620    -2636    -3005 
   -3523    -3704    -3438    -3002    -2605    -2245    -1958    -2004 
   -2551    -3323    -3854    -3979    -3855    -3586    -3142    -2619 
   -2371    -2628    -3110    -3383    -3445    -3456    -3234    -2682 
   -2192    -2095    -2339    -2779    -3306    -3734    -3885    -3802 
   -3632    -3402    -3191    -3198    -3468    -3856    -4180    -4307 
   -4187    -3802    -3268    -2837    -2700    -2886    -3292    -3777 
   -4135    -4060    -3493    -2803    -2312    -2131    -2339    -2906 
   -3572    -3958    -3850    -3424    -2976    -2594    -2461    -2845 
   -3496    -3905    -4083    -4199    -4036    -3538    -3073    -2820 
   -2670    -2712    -3075    -3562    -3846    -3820    -3564    -3186 
   -2890    -2841    -2974    -3150    -3306    -3342    -3244    -3168 
   -3254    -3499    -3784    -3862    -3615    -3219    -2822    -2506 
   -2481    -2806    -3321    -3878    -4309    -4437    -4159    -3553 
   -2916    -2532    -2513    -2793    -3117    -3307    -3287    -2955 
   -2519    -2416    -2733    -3318    -3983    -4406    -4371    -3935 
   -3288    -2679    -2242    -2072    -2350    -2998    -3657    -4008 
   -3942    -3568    -3078    -2709    -2735    -3119    -3523    -3775 
   -3855    -3678    -3279    -2875    -2708    -2906    -3358    -3777 
   -4006    -4074    -3933    -3524    -3080    -2975    -3195    -3414 
   -3549    -3651    -3565    -3253    -2982    -2945    -3084    -3238 
   -3314    -3260    -3045    -2779    -2652    -2732    -2937    -3173 
   -3404    -3612    -3753    -3820    -3811    -3704    -3532    -3334 
   -3183    -3172    -3229    -3230    -3265    -3391    -3434    -3280 
   -3010    -2783    -2731    -2803    -2959    -3272    -3550    -3527 
   -3281    -3015    -2857    -2867    -2995    -3192    -3426    -3599 
   -3669    -3670    -3573    -3389    -3218    -3119    -3056    -2979 
   -2984    -3125    -3265    -3372    -3541    -3731    -3817    -3716 
   -3473    -3288    -3217    -3148    -3156    -3379    -3673    -3835 
   -3867    -3862    -3819    -3669    -3429    -3221    -3136    -3095 
   -3064    -3186    -3434    -3572    -3545    -3480    -3429    -3296 
   -3051    -2889    -2986    -3214    -3384    -3468    -3408    -3138 
   -2812    -2655    -2749    -3142    -3738    -4175    -4225    -3923 
   -3327    -2662    -2258    -2247    -2559    -2937    -3127    -3213 
   -3298    -3230    -3001    -2806    -2693    -2552    -2357    -2207 
   -2223    -2416    -2641    -2764    -2814    -2884    -2998    -3091 
   -3169    -3331    -3564    -3786    -3960    -4066    -4072    -3851 
   -3366    -2909    -2704    -2744    -3092    -3731    -4348    -4590 
   -4357    -3821    -3223    -2821    -2828    -3114    -3366    -3460 
   -3372    -3175    -3082    -3217    -3523    -3855    -4074    -4155 
   -4114    -3952    -3761    -3643    -3534    -3311    -3021    -2824 
   -2837    -3059    -3312    -3404    -3322    -3127    -2921    -2897 
   -3107    -3383    -3620    -3782    -3746    -3442    -2988    -2621 
   -2538    -2747    -3118    -3568    -4032    -4283    -4113    -3693 
   -3346    -3138    -3057    -3168    -3396    -3558    -3499    -3194 
   -2775    -2385    -2130    -2076    -2193    -2384    -2516    -2554 
   -2609    -2740    -2949    -3246    -3526    -3624    -3503    -3260 
   -3001    -2821    -2871    -3204    -3576    -3628    -3354    -3024 
   -2743    -2559    -2667    -3090    -3578    -3929    -4023    -3800 
   -3423    -3129    -2933    -2835    -2982    -3335    -3624    -3696 
   -3574    -3337    -3102    -2960    -2957    -3156    -3514    -3727 
   -3535    -3190    -3115    -3271    -3406    -3600    -3954    -4183 
   -4025    -3649    -3372    -3303    -3403    -3631    -3931    -4141 
   -4075    -3732    -3287    -2925    -2771    -2832    -3038    -3327 
   -3569    -3572    -3319    -3046    -2910    -2821    -2790    -2945 
   -3184    -3327    -3352    -3298    -3223    -3122    -2959    -2849 
   -2894    -3024    -3173    -3314    -3388    -3385    -3406    -3519 
   -3645    -3674    -3630    -3612    -3632    -3669    -3753    -3831 
   -3848    -3842    -3747    -3508    -3244    -3063    -2914    -2752 
   -2671    -2801    -3114    -3466    -3723    -3777    -3597    -3250 
