Origin Time       2024/04/02 04:24:00
Lat.              40.133
Long.             141.712
Depth. (km)       71
Mag.              6.0
Station Code      TCG014
Station Lat.      36.5428
Station Long.     140.1804
Station Height(m) 139
Record Time       2024/04/02 04:25:34
Sampling Freq(Hz) 100Hz
Duration Time(s)  129
Dir.              E-W
Scale Factor      7845(gal)/8223790
Max. Acc. (gal)   5.176
Last Correction   2024/04/02 04:25:34
Memo.             
[...]
   -1799    -1898    -2049    -2172    -2230    -2151    -1985    -1884 
   -1890    -1962    -2088    -2236    -2370    -2496    -2612    -2735 
   -2872    -2929    -2825    -2608    -2342    -2045    -1738    -1537 
   -1545    -1653    -1745    -1876    -2058    -2241    -2427    -2652 
   -2938    -3175    -3184    -2995    -2787    -2600    -2373    -2110 
   -1821    -1498    -1136     -789     -657     -874    -1328    -1854 
   -2403    -2933    -3338    -3500    -3404    -3190    -2970    -2725 
   -2458    -2184    -1823    -1402    -1070     -882     -861    -1078 
   -1472    -1918    -2386    -2806    -3051    -3184    -3311    -3325 
   -3159    -2871    -2531    -2247    -2008    -1755    -1609    -1587 
   -1557    -1570    -1657    -1734    -1842    -2010    -2150    -2296 
   -2471    -2589    -2601    -2512    -2423    -2461    -2562    -2621 
   -2613    -2513    -2358    -2214    -2095    -1995    -1935    -1969 
   -2077    -2137    -2072    -1934    -1863    -1929    -2046    -2119 
   -2143    -2124    -2092    -2155    -2327    -2462    -2489    -2435 
   -2338    -2295    -2301    -2266    -2230    -2211    -2170    -2160 
   -2133    -2018    -1956    -2020    -2155    -2354    -2536    -2621 
   -2668    -2720    -2763    -2776    -2687    -2473    -2220    -2030 
   -1917    -1853    -1883    -2034    -2201    -2297    -2335    -2286 
   -2147    -2061    -2130    -2255    -2308    -2322    -2344    -2312 
   -2243    -2261    -2346    -2343    -2257    -2212    -2223    -2259 
   -2272    -2164    -2004    -1931    -1930    -1993    -2166    -2355 
   -2488    -2663    -2841    -2806    -2573    -2336    -2157    -1962 
   -1787    -1792    -1921    -1919    -1853    -1934    -2042    -2010 
   -2016    -2263    -2574    -2706    -2705    -2693    -2655    -2506 
   -2316    -2235    -2164    -1965    -1829    -1942    -2170    -2313 
   -2428    -2604    -2674    -2539    -2361    -2232    -2111    -1969 
   -1826    -1736    -1707    -1675    -1640    -1686    -1830    -2038 
   -2288    -2571    -2870    -3078    -3123    -3052    -2856    -2540 
   -2238    -1977    -1703    -1509    -1510    -1649    -1795    -1895 
   -1984    -2062    -2127    -2292    -2629    -3015    -3287    -3402 
   -3377    -3136    -2683    -2245    -1880    -1466    -1096     -912 
    -888    -1050    -1387    -1804    -2226    -2505    -2614    -2663 
   -2613    -2543    -2641    -2749    -2727    -2690    -2616    -2462 
   -2334    -2218    -2054    -1888    -1737    -1636    -1591    -1557 
   -1583    -1625    -1601    -1629    -1831    -2158    -2498    -2721 
   -2794    -2808    -2789    -2697    -2551    -2381    -2166    -1902 
   -1733    -1811    -2015    -2157    -2290    -2442    -2489    -2423 
   -2355    -2335    -2301    -2211    -2118    -2000    -1809    -1659 
   -1629    -1696    -1894    -2207    -2573    -2910    -3117    -3194 
   -3159    -2979    -2731    -2528    -2357    -2120    -1865    -1756 
   -1719    -1615    -1614    -1779    -1931    -2065    -2245    -2478 
   -2749    -2910    -2933    -2963    -2952    -2795    -2592    -2448 
   -2322    -2161    -2004    -1927    -1935    -1987    -2008    -1952 
   -1906    -1927    -1965    -2027    -2118    -2188    -2226    -2261 
   -2359    -2521    -2641    -2662    -2660    -2718    -2756    -2679 
   -2574    -2471    -2235    -1864    -1588    -1512    -1462    -1363 
   -1310    -1275    -1240    -1328    -1630    -2127    -2628    -2956 
   -3149    -3207    -3033    -2708    -2409    -2151    -1852    -1570 
   -1432    -1428    -1456    -1491    -1583    -1742    -1938    -2212 
   -2608    -2949    -2988    -2783    -2602    -2519    -2500    -2559 
   -2616    -2582    -2432    -2182    -2011    -1979    -1898    -1788 
   -1795    -1856    -1926    -2026    -2128    -2236    -2382    -2601 
   -2820    -2871    -2776    -2681    -2579    -2469    -2415    -2432 
   -2428    -2265    -1999    -1815    -1657    -1429    -1296    -1381 
   -1593    -1858    -2249    -2818    -3416    -3792    -3867    -3751 
   -3528    -3164    -2729    -2398    -2131    -1777    -1372    -1020 
    -800     -820    -1090    -1482    -1904    -2293    -2605    -2849 
   -3060    -3295    -3481    -3422    -3134    -2797    -2435    -2034 
   -1676    -1387    -1159    -1019    -1012    -1236    -1687    -2197 
   -2637    -2947    -3038    -2905    -2702    -2521    -2331    -2110 
   -1841    -1620    -1549    -1584    -1818    -2285    -2639    -2749 
   -2862    -2941    -2806    -2598    -2511    -2459    -2273    -2007 
   -1821    -1671    -1494    -1449    -1630    -1880    -2064    -2203 
   -2327    -2411    -2431    -2496    -2625    -2631    -2469    -2280 
   -2115    -2035    -2133    -2343    -2504    -2492    -2293    -1981 
   -1710    -1684    -1900    -2114    -2181    -2142    -2052    -1973 
   -2006    -2182    -2394    -2569    -2728    -2803    -2724    -2466 
   -1984    -1503    -1372    -1534    -1804    -2258    -2867    -3294 
   -3339    -3138    -2718    -2015    -1235     -714     -611     -843 
   -1252    -1787    -2403    -2984    -3505    -3923    -4070    -3873 
   -3377    -2682    -1989    -1447    -1107     -953     -743     -426 
    -390     -807    -1467    -2251    -3018    -3508    -3744    -3886 
   -3844    -3547    -3098    -2616    -2215    -1861    -1480    -1202 
   -1117    -1212    -1549    -2047    -2436    -2598    -2544    -2323 
   -2122    -2124    -2241    -2305    -2427    -2740    -3080    -3254 
   -3269    -3100    -2671    -2060    -1510    -1275    -1302    -1270 
   -1108    -1021    -1044    -1096    -1348    -1906    -2484    -2893 
   -3307    -3780    -4082    -4029    -3616    -2997    -2405    -1906 
   -1435    -1089     -982    -1038    -1128    -1232    -1393    -1574 
   -1746    -2070    -2594    -3073    -3306    -3318    -3284    -3337 
   -3321    -3044    -2660    -2358    -2015    -1647    -1653    -2006 
   -2046    -1642    -1337    -1318    -1347    -1386    -1609    -2033 
   -2498    -3005    -3589    -4036    -4186    -4143    -4016    -3777 
   -3292    -2492    -1587     -923     -567     -417     -472     -708 
   -1089    -1660    -2307    -2806    -3110    -3134    -2772    -2320 
   -2197    -2319    -2304    -2127    -2100    -2330    -2620    -2835 
   -2979    -2999    -2778    -2273    -1667    -1304    -1217    -1142 
   -1173    -1556    -2018    -2316    -2604    -2825    -2822    -2724 
   -2601    -2474    -2488    -2562    -2538    -2430    -2188    -1846 
   -1602    -1534    -1648    -1830    -1914    -2014    -2249    -2471 
   -2623    -2747    -2756    -2536    -2092    -1575    -1310    -1490 
   -1879    -2226    -2562    -2864    -2979    -2857    -2602    -2409 
   -2315    -2150    -1935    -1821    -1733    -1507    -1224    -1127 
   -1324    -1763    -2326    -2776    -2964    -2890    -2566    -2170 
   -1891    -1686    -1570    -1630    -1876    -2308    -2748    -2975 
   -3092    -3195    -3052    -2539    -1989    -1773    -1836    -1941 
   -2038    -2088    -1891    -1510    -1398    -1707    -2065    -2181 
   -2114    -1969    -1741    -1456    -1273    -1279    -1451    -1856 
   -2516    -3241    -3878    -4317    -4402    -4112    -3522    -2713 
   -1883    -1228     -733     -319      -16       28     -361    -1183 
   -2274    -3397    -4162    -4260    -3848    -3408    -3302    -3416 
   -3307    -2840    -2326    -1971    -1733    -1628    -1696    -1825 
   -1879    -1911    -1988    -2002    -1827    -1510    -1294    -1404 
   -1749    -2085    -2340    -2465    -2351    -2184    -2273    -2640 
   -3187    -3763    -4114    -4074    -3623    -3057    -2747    -2490 
   -2056    -1659    -1221     -625     -372     -760    -1385    -1887 
   -2181    -2176    -1860    -1512    -1580    -2188    -2957    -3595 
   -4059    -4220    -3969    -3530    -3218    -2930    -2394    -1733 
   -1120     -492        5      124     -117     -633    -1452    -2585 
   -3754    -4509    -4783    -4726    -4191    -3281    -2614    -2332 
   -1949    -1378    -1008     -884     -742     -653     -880    -1368 
   -2033    -2868    -3559    -3807    -3666    -3265    -2824    -2608 
   -2527    -2272    -1698     -918     -256        2     -197     -739 
   -1343    -1749    -1977    -2259    -2739    -3283    -3727    -4113 
   -4409    -4369    -3927    -3219    -2276    -1073       52      554 
     395       31     -472    -1344    -2361    -3118    -3663    -4066 
   -4006    -3466    -2868    -2359    -1926    -1551    -1166     -940 
    -959    -1012    -1150    -1587    -2263    -2932    -3373    -3495 
   -3333    -2972    -2606    -2533    -2882    -3319    -3350    -2880 
   -2155    -1382     -618      -20      151      -35     -373     -973 
   -1914    -2889    -3424    -3377    -3119    -2991    -2929    -2856 
   -2924    -3144    -3175    -2820    -2303    -1826    -1462    -1263 
   -1223    -1402    -1792    -2188    -2547    -2853    -2886    -2583 
   -2053    -1422     -977     -807     -800    -1142    -1844    -2416 
   -2682    -2864    -3034    -3235    -3532    -3801    -3904    -3757 
   -3283    -2668    -2184    -1833    -1694    -2016    -2698    -3279 
   -3399    -3015    -2311    -1509     -946     -892    -1206    -1641 
   -2030    -2184    -2104    -1968    -2012    -2365    -2832    -3402 
   -4268    -5086    -5348    -5050    -4363    -3419    -2407    -1444 
    -558      105      348      205     -193     -704    -1136    -1659 
   -2431    -2988    -3056    -2955    -2806    -2556    -2482    -2875 
   -3554    -4062    -4145    -3921    -3681    -3511    -3157    -2370 
   -1267      -31     1309     2392     2700     2214     1161     -423 
   -2235    -3649    -4536    -5130    -5305    -4950    -4386    -3862 
   -3331    -2864    -2581    -2319    -2043    -2016    -2178    -2161 
   -1914    -1532     -909     -143      371      391       27     -422 
    -835    -1404    -2281    -3331    -4217    -4656    -4568    -4021 
   -3242    -2427    -1594     -967     -909    -1331    -1845    -2309 
   -2863    -3550    -4224    -4779    -5007    -4519    -3326    -1849 
    -328      928     1501     1688     1975     2026     1308     -243 
   -2309    -4351    -5865    -6662    -6791    -6322    -5413    -4330 
   -3136    -1833     -718      -20      400      564      180     -700 
   -1485    -1861    -2053    -2130    -2039    -1989    -2174    -2432 
   -2443    -2273    -2373    -2806    -3249    -3792    -4569    -5115 
   -4989    -4333    -3434    -2416    -1393     -572       16      467 
     557       41     -880    -1863    -2708    -3400    -3920    -3969 
   -3454    -2790    -2269    -1926    -1845    -1993    -2122    -2161 
   -2327    -2733    -3321    -3960    -4303    -4097    -3558    -2983 
   -2400    -1683     -830      -94      305      369      135     -399 
   -1143    -1911    -2682    -3615    -4522    -4864    -4445    -3666 
   -2986    -2484    -2215    -2362    -2682    -2818    -2891    -2933 
   -2675    -2079    -1421     -942     -653     -527     -637     -886 
   -1163    -1676    -2407    -2979    -3285    -3414    -3523    -3731 
   -3738    -3264    -2432    -1494     -826     -708    -1034    -1579 
   -2173    -2675    -2967    -2978    -2763    -2344    -1755    -1348 
   -1429    -1744    -1842    -1660    -1422    -1366    -1675    -2196 
   -2496    -2536    -2551    -2565    -2659    -2862    -2891    -2609 
   -2101    -1584    -1354    -1363    -1455    -1773    -2351    -2924 
   -3311    -3507    -3505    -3298    -3022    -2704    -2054    -1001 
     114      950     1240      958      332     -687    -2322    -4325 
   -6031    -6917    -6876    -6131    -5132    -4310    -3736    -3146 
   -2199     -855      396     1142     1529     1818     1968     1795 
    1108      -49    -1278    -2385    -3528    -4657    -5502    -5861 
   -5602    -4788    -3761    -2964    -2644    -2450    -1796     -689 
     463     1235     1255      662     -210    -1364    -2592    -3581 
   -4348    -4653    -4345    -3966    -3757    -3454    -3073    -2620 
   -1996    -1358     -777     -306     -191     -346     -618    -1366 
   -2662    -3900    -4650    -4969    -4976    -4716    -4320    -3978 
   -3678    -3173    -2266    -1146     -211      394      606      344 
    -184     -897    -1954    -3156    -4082    -4606    -4657    -4171 
   -3568    -3395    -3430    -3134    -2502    -1773    -1146     -847 
    -903    -1135    -1432    -1651    -1582    -1329    -1188    -1152 
   -1120    -1200    -1475    -1823    -2081    -2350    -3001    -4067 
   -4992    -5282    -4870    -3919    -2876    -2235    -1945    -1718 
   -1435     -990     -556     -441     -626    -1159    -2030    -2705 
   -2893    -2812    -2612    -2531    -2799    -3123    -3137    -2876 
   -2515    -2354    -2604    -3006    -3188    -2945    -2324    -1674 
   -1235     -963     -784     -687     -750    -1088    -1559    -1818 
   -1813    -1726    -1663    -1732    -1949    -2135    -2201    -2290 
   -2531    -2836    -2997    -2882    -2625    -2662    -3235    -4055 
   -4645    -4664    -3983    -2786    -1318      198     1379     1958 
    1972     1463      419    -1026    -2478    -3527    -4214    -4707 
   -4851    -4703    -4575    -4436    -4121    -3612    -2793    -1603 
    -252      815     1181      834       49     -997    -2169    -3289 
   -4286    -5040    -5386    -5374    -5105    -4639    -4212    -3905 
   -3380    -2324     -810      869     2354     3200     3177     2416 
     989     -932    -2789    -4334    -5746    -6922    -7535    -7338 
   -6320    -4750    -2907    -1051      631     2070     2961     3014 
    2323     1065     -488    -2054    -3665    -5189    -6068    -6057 
   -5508    -4735    -3800    -2870    -2268    -2037    -1852    -1649 
   -1730    -2066    -2201    -1926    -1598    -1607    -1815    -1981 
   -2172    -2347    -2394    -2390    -2392    -2442    -2589    -2731 
   -2830    -3036    -3334    -3415    -3030    -2319    -1593     -942 
    -406     -207     -490    -1090    -1837    -2766    -3732    -4275 
   -4259    -3936    -3442    -2714    -1705     -765     -318     -209 
    -390    -1174    -2239    -2913    -3114    -3042    -2781    -2374 
   -1934    -1706    -1622    -1291     -870     -789    -1048    -1610 
   -2504    -3434    -3879    -3519    -2701    -2118    -1953    -1996 
   -2147    -2394    -2654    -2771    -2690    -2566    -2640    -2920 
   -3029    -2624    -1842    -1102     -756     -957    -1452    -1748 
   -1742    -1684    -1807    -2326    -3109    -3628    -3662    -3356 
   -2756    -1906     -992     -283      -72     -445    -1173    -1993 
   -2830    -3615    -4206    -4726    -5346    -5591    -4904    -3504 
   -1825     -218      768     1024     1004      888      614      163 
    -653    -1919    -3327    -4488    -5221    -5575    -5653    -5536 
   -5325    -5019    -4441    -3611    -2833    -2177    -1436     -650 
     -54      275      352      237      -74     -631    -1335    -2085 
   -2832    -3423    -3739    -3708    -3461    -3383    -3500    -3503 
   -3330    -3053    -2691    -2324    -2100    -2079    -2069    -1930 
   -1741    -1408     -845     -332     -114     -229     -693    -1426 
   -2262    -3075    -3771    -4241    -4487    -4706    -4968    -5036 
   -4700    -3956    -2878    -1568     -272      662     1109     1178 
     892      337     -352    -1227    -2177    -2979    -3678    -4271 
   -4522    -4294    -3693    -3038    -2609    -2347    -2087    -1830 
   -1520    -1055     -658     -599     -850    -1274    -1772    -2235 
   -2554    -2659    -2555    -2357    -2184    -1999    -1809    -1695 
   -1532    -1243    -1109    -1309    -1622    -1929    -2330    -2783 
   -3171    -3524    -3873    -4006    -3613    -2743    -1845    -1278 
   -1071     -989     -787     -544     -453     -454     -629    -1154 
   -1765    -2265    -2830    -3484    -4148    -4785    -5158    -5097 
   -4633    -3773    -2736    -1945    -1426     -919     -433      -72 
     179      251      -31     -843    -2072    -3171    -3835    -4266 
   -4502    -4418    -4216    -4060    -3747    -3092    -2087     -893 
       4      220     -140     -857    -1776    -2551    -2890    -2948 
   -3029    -3315    -3788    -4102    -4041    -3732    -3133    -2184 
   -1235     -614     -230       64      143      -98     -562    -1246 
   -2168    -3122    -3832    -4225    -4399    -4425    -4314    -4112 
   -3746    -3055    -2080    -1005       -1      696      953      756 
      76     -868    -1732    -2431    -3009    -3549    -4126    -4630 
   -4959    -5142    -5103    -4633    -3655    -2446    -1370     -523 
      31      186       63     -170     -580    -1302    -2317    -3408 
   -4317    -4804    -4692    -4060    -3222    -2373    -1490     -596 
      20      156       16     -232     -730    -1512    -2373    -3133 
   -3696    -4016    -4083    -3985    -3832    -3496    -2843    -2049 
   -1283     -541       99      469      521      267     -344    -1248 
   -2157    -2841    -3275    -3435    -3365    -3291    -3388    -3574 
   -3649    -3572    -3399    -3051    -2533    -2000    -1439     -855 
    -454     -318     -355     -510     -831    -1381    -2107    -2853 
   -3477    -3838    -3808    -3508    -3275    -3306    -3491    -3586 
   -3427    -2979    -2407    -1987    -1804    -1703    -1561    -1449 
   -1474    -1561    -1652    -1890    -2367    -2910    -3204    -3063 
   -2592    -2068    -1717    -1726    -2081    -2386    -2423    -2438 
   -2488    -2374    -2181    -1995    -1622    -1024     -541     -591 
   -1193    -1911    -2497    -2956    -3099    -2841    -2404    -1961 
   -1634    -1471    -1466    -1742    -2185    -2405    -2424    -2527 
   -2602    -2388    -1957    -1664    -1741    -2080    -2504    -2976 
   -3330    -3373    -3249    -3199    -3226    -3159    -2836    -2409 
   -2226    -2255    -2259    -2227    -2108    -1863    -1665    -1667 
   -1996    -2714    -3458    -3763    -3543    -2971    -2297    -1656 
   -1170    -1086    -1233    -1248    -1314    -1626    -2034    -2467 
   -2920    -3362    -3717    -3703    -3264    -2741    -2261    -1759 
   -1374    -1119     -843     -653     -719    -1057    -1624    -2191 
   -2485    -2650    -2884    -3033    -3026    -3032    -3069    -3034 
   -2863    -2548    -2174    -1821    -1571    -1480    -1458    -1390 
   -1286    -1235    -1487    -2239    -3252    -4064    -4357    -3970 
   -3098    -2222    -1606    -1251    -1066     -907     -756     -646 
    -625     -845    -1354    -2128    -3171    -4228    -4947    -5212 
   -5040    -4487    -3690    -2860    -2110    -1305     -433      178 
     265     -120     -772    -1408    -1750    -1800    -1935    -2415 
   -3011    -3447    -3685    -3685    -3411    -2948    -2444    -2047 
   -1744    -1449    -1289    -1312    -1362    -1480    -1725    -1863 
   -1764    -1580    -1459    -1506    -1849    -2436    -3064    -3559 
   -3759    -3619    -3252    -2802    -2470    -2430    -2573    -2656 
   -2542    -2178    -1678    -1286    -1116    -1125    -1298    -1563 
   -1745    -1822    -1929    -2116    -2292    -2296    -2130    -2014 
   -2066    -2228    -2462    -2701    -2843    -2830    -2619    -2235 
