Origin Time       2024/04/02 04:24:00
Lat.              40.133
Long.             141.712
Depth. (km)       71
Mag.              6.0
Station Code      TKY031
Station Lat.      35.6789
Station Long.     139.7070
Station Height(m) 29
Record Time       2024/04/02 04:26:45
Sampling Freq(Hz) 100Hz
Duration Time(s)  60
Dir.              N-S
Scale Factor      7845(gal)/8223790
Max. Acc. (gal)   1.347
Last Correction   2024/04/02 04:26:45
Memo.             
   -3431    -3370    -3333    -3331    -3326    -3329    -3353    -3380 
   -3427    -3485    -3492    -3443    -3427    -3472    -3515    -3537 
   -3562    -3580    -3553    -3496    -3460    -3442    -3402    -3333 
   -3273    -3264    -3291    -3291    -3248    -3227    -3315    -3507 
   -3670    -3677    -3554    -3431    -3377    -3388    -3420    -3424 
   -3397    -3343    -3258    -3206    -3245    -3372    -3520    -3581 
   -3527    -3434    -3346    -3327    -3415    -3488    -3491    -3522 
   -3588    -3619    -3618    -3615    -3616    -3566    -3469    -3399 
   -3381    -3407    -3447    -3462    -3439    -3397    -3400    -3468 
   -3514    -3503    -3492    -3511    -3505    -3460    -3445    -3464 
   -3464    -3439    -3370    -3342    -3466    -3609    -3609    -3523 
   -3443    -3395    -3368    -3348    -3358    -3380    -3335    -3289 
   -3345    -3451    -3524    -3515    -3429    -3348    -3303    -3288 
   -3310    -3360    -3445    -3485    -3422    -3380    -3451    -3537 
   -3534    -3446    -3345    -3280    -3295    -3380    -3462    -3485 
   -3441    -3419    -3478    -3526    -3518    -3474    -3365    -3267 
   -3308    -3442    -3547    -3592    -3605    -3627    -3640    -3595 
   -3510    -3447    -3430    -3420    -3388    -3381    -3420    -3410 
   -3326    -3281    -3350    -3465    -3495    -3454    -3474    -3551 
   -3613    -3650    -3634    -3530    -3397    -3281    -3187    -3150 
   -3177    -3234    -3304    -3333    -3304    -3264    -3230    -3245 
   -3311    -3357    -3383    -3419    -3466    -3514    -3534    -3500 
   -3447    -3447    -3503    -3547    -3562    -3534    -3457    -3377 
   -3360    -3397    -3397    -3334    -3302    -3362    -3526    -3686 
   -3682    -3534    -3410    -3438    -3586    -3717    -3796    -3843 
   -3820    -3692    -3485    -3311    -3256    -3284    -3349    -3407 
   -3434    -3416    -3342    -3302    -3368    -3456    -3468    -3435 
   -3438    -3501    -3582    -3627    -3649    -3661    -3626    -3561 
   -3511    -3466    -3431    -3412    -3381    -3335    -3319    -3325 
   -3289    -3234    -3257    -3345    -3426    -3495    -3555    -3595 
   -3599    -3568    -3526    -3491    -3469    -3441    -3376    -3334 
   -3404    -3561    -3657    -3603    -3489    -3411    -3358    -3316 
   -3327    -3441    -3593    -3622    -3515    -3435    -3470    -3549 
   -3585    -3547    -3492    -3495    -3510    -3453    -3349    -3275 
   -3260    -3267    -3254    -3238    -3244    -3271    -3281    -3296 
   -3360    -3426    -3430    -3377    -3287    -3229    -3281    -3399 
   -3464    -3456    -3457    -3470    -3411    -3302    -3262    -3338 
   -3443    -3461    -3406    -3376    -3369    -3337    -3300    -3281 
   -3264    -3265    -3302    -3360    -3418    -3420    -3356    -3326 
   -3368    -3411    -3400    -3343    -3314    -3380    -3492    -3524 
   -3476    -3411    -3322    -3261    -3316    -3453    -3554    -3580 
   -3582    -3607    -3645    -3692    -3713    -3655    -3550    -3443 
   -3389    -3423    -3469    -3451    -3415    -3414    -3443    -3504 
   -3570    -3596    -3592    -3608    -3665    -3736    -3742    -3651 
   -3564    -3570    -3615    -3588    -3477    -3356    -3291    -3312 
   -3368    -3376    -3345    -3334    -3350    -3369    -3362    -3327 
   -3316    -3375    -3456    -3515    -3554    -3539    -3437    -3319 
   -3302    -3379    -3437    -3442    -3438    -3461    -3507    -3510 
   -3434    -3330    -3249    -3229    -3258    -3311    -3397    -3487 
   -3541    -3539    -3450    -3323    -3252    -3283    -3397    -3505 
   -3550    -3510    -3407    -3346    -3404    -3503    -3524    -3457 
   -3365    -3333    -3397    -3477    -3507    -3520    -3514    -3457 
   -3368    -3306    -3331    -3411    -3419    -3343    -3281    -3245 
   -3190    -3153    -3200    -3321    -3461    -3557    -3596    -3613 
   -3624    -3627    -3628    -3612    -3574    -3507    -3410    -3349 
   -3389    -3476    -3496    -3442    -3380    -3353    -3346    -3345 
   -3400    -3515    -3570    -3537    -3500    -3505    -3505    -3437 
   -3365    -3393    -3446    -3411    -3331    -3315    -3366    -3443 
   -3515    -3562    -3566    -3545    -3539    -3557    -3538    -3483 
   -3446    -3416    -3372    -3315    -3242    -3200    -3225    -3241 
   -3202    -3165    -3191    -3291    -3392    -3433    -3476    -3555 
   -3613    -3616    -3578    -3572    -3619    -3624    -3561    -3472 
   -3372    -3341    -3406    -3453    -3429    -3399    -3435    -3516 
   -3526    -3435    -3383    -3439    -3514    -3527    -3450    -3341 
   -3334    -3423    -3530    -3622    -3638    -3589    -3558    -3570 
   -3581    -3518    -3426    -3407    -3441    -3483    -3532    -3572 
   -3585    -3553    -3484    -3426    -3372    -3306    -3269    -3281 
   -3303    -3312    -3268    -3164    -3083    -3069    -3121    -3250 
   -3399    -3457    -3422    -3412    -3492    -3600    -3680    -3690 
   -3646    -3613    -3566    -3438    -3298    -3211    -3179    -3223 
   -3357    -3520    -3601    -3532    -3389    -3279    -3233    -3277 
   -3392    -3487    -3537    -3568    -3569    -3505    -3387    -3322 
   -3384    -3476    -3532    -3600    -3699    -3792    -3804    -3717 
   -3593    -3495    -3433    -3369    -3330    -3366    -3407    -3361 
   -3279    -3269    -3369    -3476    -3477    -3420    -3430    -3511 
   -3574    -3596    -3589    -3605    -3659    -3630    -3483    -3337 
   -3260    -3267    -3325    -3358    -3365    -3393    -3451    -3474 
   -3389    -3272    -3264    -3373    -3473    -3508    -3534    -3534 
   -3478    -3411    -3393    -3461    -3561    -3582    -3481    -3339 
   -3296    -3353    -3372    -3356    -3391    -3465    -3508    -3484 
   -3451    -3462    -3439    -3321    -3206    -3181    -3245    -3368 
   -3451    -3438    -3377    -3307    -3264    -3258    -3279    -3331 
   -3373    -3411    -3469    -3470    -3379    -3241    -3144    -3171 
   -3288    -3383    -3400    -3380    -3407    -3504    -3584    -3595 
   -3616    -3665    -3686    -3670    -3607    -3489    -3393    -3379 
   -3416    -3464    -3503    -3520    -3508    -3460    -3369    -3277 
   -3262    -3366    -3534    -3657    -3728    -3820    -3858    -3734 
   -3523    -3362    -3316    -3334    -3334    -3331    -3322    -3310 
   -3360    -3431    -3462    -3484    -3491    -3469    -3442    -3435 
   -3464    -3510    -3537    -3514    -3485    -3531    -3626    -3688 
   -3674    -3609    -3551    -3518    -3476    -3411    -3333    -3277 
   -3279    -3303    -3314    -3306    -3260    -3225    -3279    -3365 
   -3387    -3346    -3298    -3327    -3424    -3489    -3514    -3497 
   -3399    -3280    -3217    -3248    -3404    -3619    -3739    -3717 
   -3638    -3580    -3555    -3487    -3321    -3200    -3249    -3354 
   -3397    -3399    -3407    -3419    -3360    -3241    -3200    -3304 
   -3453    -3520    -3515    -3527    -3568    -3591    -3553    -3453 
   -3383    -3408    -3462    -3476    -3469    -3437    -3362    -3308 
   -3331    -3391    -3408    -3376    -3325    -3279    -3265    -3302 
   -3407    -3574    -3681    -3618    -3465    -3412    -3510    -3615 
   -3589    -3431    -3287    -3288    -3400    -3537    -3613    -3572 
   -3468    -3375    -3304    -3258    -3272    -3352    -3433    -3472 
   -3499    -3512    -3458    -3306    -3105    -2978    -3026    -3207 
   -3366    -3414    -3377    -3330    -3323    -3331    -3357    -3501 
   -3727    -3840    -3762    -3573    -3418    -3354    -3326    -3314 
   -3316    -3311    -3307    -3335    -3433    -3543    -3541    -3439 
   -3391    -3464    -3576    -3626    -3605    -3532    -3447    -3441 
   -3519    -3554    -3461    -3342    -3348    -3454    -3581    -3690 
   -3736    -3711    -3649    -3562    -3443    -3357    -3307    -3211 
   -3105    -3075    -3161    -3395    -3665    -3777    -3692    -3564 
   -3570    -3680    -3700    -3597    -3484    -3391    -3331    -3322 
   -3345    -3400    -3508    -3632    -3693    -3627    -3497    -3437 
   -3470    -3538    -3573    -3527    -3443    -3399    -3376    -3334 
   -3308    -3396    -3574    -3653    -3543    -3354    -3196    -3133 
   -3188    -3318    -3442    -3477    -3410    -3319    -3296    -3352 
   -3441    -3468    -3370    -3245    -3221    -3337    -3518    -3588 
   -3489    -3368    -3352    -3408    -3422    -3381    -3315    -3211 
   -3173    -3261    -3361    -3433    -3531    -3645    -3699    -3612 
   -3388    -3179    -3141    -3272    -3483    -3686    -3817    -3844 
   -3748    -3559    -3404    -3404    -3551    -3723    -3774    -3635 
   -3334    -2999    -2797    -2782    -2901    -3130    -3451    -3707 
   -3748    -3627    -3464    -3345    -3256    -3102    -2961    -3032 
   -3315    -3584    -3661    -3611    -3573    -3596    -3631    -3588 
   -3487    -3416    -3377    -3331    -3294    -3300    -3348    -3411 
   -3500    -3585    -3607    -3569    -3480    -3315    -3133    -3046 
   -3094    -3207    -3284    -3315    -3412    -3612    -3789    -3836 
   -3771    -3673    -3582    -3514    -3483    -3503    -3618    -3788 
   -3847    -3738    -3537    -3335    -3207    -3172    -3196    -3223 
   -3208    -3148    -3084    -3091    -3223    -3464    -3719    -3890 
   -3943    -3932    -3960    -4014    -3939    -3646    -3230    -2884 
   -2754    -2805    -2878    -2924    -3017    -3187    -3389    -3596 
   -3811    -4005    -4133    -4198    -4179    -4004    -3703    -3424 
   -3213    -3041    -2986    -3044    -3115    -3192    -3334    -3516 
   -3620    -3615    -3620    -3699    -3781    -3798    -3723    -3584 
   -3489    -3456    -3397    -3307    -3272    -3364    -3559    -3727 
   -3769    -3711    -3573    -3397    -3279    -3222    -3179    -3111 
   -3021    -2983    -2984    -2937    -2914    -2983    -3071    -3132 
   -3167    -3188    -3190    -3123    -3103    -3319    -3717    -4120 
   -4344    -4257    -3969    -3667    -3402    -3161    -2956    -2810 
   -2747    -2747    -2770    -2771    -2760    -2833    -3061    -3416 
   -3838    -4234    -4499    -4568    -4453    -4220    -3970    -3786 
   -3686    -3620    -3516    -3380    -3294    -3272    -3277    -3271 
   -3214    -3136    -3126    -3235    -3431    -3659    -3893    -4074 
   -4139    -4124    -4079    -3969    -3759    -3497    -3269    -3167 
   -3200    -3231    -3177    -3169    -3319    -3520    -3600    -3561 
   -3555    -3618    -3667    -3701    -3717    -3692    -3653    -3654 
   -3730    -3809    -3798    -3699    -3561    -3461    -3419    -3341 
   -3169    -2963    -2779    -2644    -2590    -2593    -2663    -2848 
   -3082    -3299    -3535    -3811    -4099    -4294    -4256    -4005 
   -3697    -3438    -3217    -3072    -3105    -3245    -3280    -3175 
   -3080    -3083    -3113    -3025    -2798    -2613    -2631    -2859 
   -3191    -3480    -3654    -3757    -3815    -3823    -3817    -3819 
   -3835    -3925    -4010    -3878    -3547    -3244    -3110    -3106 
   -3156    -3269    -3412    -3481    -3439    -3308    -3171    -3121 
   -3159    -3289    -3531    -3753    -3793    -3609    -3277    -3006 
   -3003    -3308    -3763    -4122    -4263    -4221    -4058    -3813 
   -3468    -3057    -2701    -2477    -2424    -2512    -2673    -2867 
   -3061    -3199    -3241    -3267    -3360    -3460    -3531    -3565 
   -3478    -3316    -3210    -3200    -3319    -3580    -3848    -3952 
   -3900    -3834    -3829    -3825    -3677    -3343    -2959    -2639 
   -2417    -2317    -2382    -2621    -2949    -3271    -3578    -3912 
   -4243    -4491    -4661    -4792    -4847    -4737    -4407    -3942 
   -3477    -3090    -2826    -2682    -2662    -2835    -3161    -3469 
   -3649    -3709    -3673    -3558    -3484    -3603    -3869    -4048 
   -3994    -3819    -3666    -3534    -3392    -3214    -3026    -2997 
   -3223    -3524    -3640    -3596    -3593    -3688    -3800    -3846 
   -3829    -3848    -3909    -3902    -3801    -3662    -3523    -3383 
   -3249    -3140    -3042    -2955    -2940    -3009    -3060    -3057 
   -3038    -3014    -3083    -3333    -3651    -3885    -3947    -3858 
   -3747    -3715    -3727    -3692    -3569    -3389    -3195    -3009 
   -2889    -2898    -3001    -3126    -3229    -3273    -3277    -3241 
   -3123    -2999    -2999    -3165    -3423    -3620    -3681    -3643 
   -3565    -3582    -3778    -4077    -4333    -4384    -4131    -3646 
   -3153    -2868    -2808    -2797    -2758    -2768    -2891    -3071 
   -3227    -3370    -3537    -3713    -3883    -3971    -3900    -3724 
   -3550    -3366    -3122    -2883    -2745    -2727    -2802    -2976 
   -3241    -3504    -3665    -3696    -3673    -3701    -3769    -3771 
   -3673    -3504    -3329    -3231    -3221    -3192    -3038    -2837 
   -2809    -3005    -3230    -3380    -3566    -3874    -4248    -4548 
   -4650    -4604    -4534    -4415    -4132    -3701    -3326    -3132 
   -3032    -2894    -2710    -2617    -2718    -2948    -3214    -3460 
   -3631    -3700    -3672    -3620    -3628    -3636    -3542    -3377 
   -3273    -3276    -3319    -3330    -3358    -3526    -3801    -4033 
   -4108    -3978    -3705    -3395    -3086    -2801    -2625    -2631 
   -2817    -3133    -3493    -3823    -4102    -4248    -4147    -3805 
   -3379    -3122    -3188    -3504    -3851    -4002    -3909    -3694 
   -3415    -3134    -3040    -3198    -3396    -3370    -3122    -2902 
   -2884    -3034    -3233    -3435    -3655    -3817    -3840    -3751 
   -3613    -3514    -3461    -3370    -3246    -3198    -3235    -3204 
   -3052    -2924    -2898    -2897    -2878    -2951    -3191    -3488 
   -3696    -3785    -3807    -3815    -3805    -3694    -3443    -3194 
   -3106    -3132    -3090    -2889    -2678    -2656    -2781    -2956 
   -3192    -3457    -3589    -3473    -3245    -3167    -3360    -3665 
   -3863    -3931    -3925    -3893    -3893    -3933    -3985    -4001 
   -3924    -3736    -3495    -3302    -3203    -3107    -2902    -2633 
   -2454    -2450    -2589    -2786    -2980    -3242    -3623    -4037 
   -4368    -4553    -4633    -4669    -4599    -4365    -4054    -3771 
   -3531    -3273    -3048    -2968    -2975    -2974    -2971    -3006 
   -3095    -3202    -3298    -3396    -3496    -3591    -3634    -3584 
   -3489    -3433    -3468    -3581    -3676    -3658    -3577    -3578 
   -3643    -3647    -3605    -3562    -3492    -3383    -3257    -3192 
   -3231    -3319    -3397    -3487    -3578    -3584    -3481    -3352 
   -3260    -3199    -3168    -3281    -3593    -3939    -4149    -4195 
   -4116    -3973    -3815    -3697    -3618    -3465    -3211    -2965 
   -2822    -2786    -2803    -2825    -2878    -3040    -3291    -3477 
   -3500    -3438    -3446    -3568    -3786    -4071    -4293    -4369 
   -4326    -4164    -3894    -3558    -3237    -2986    -2744    -2490 
   -2313    -2286    -2415    -2636    -2859    -3080    -3354    -3632 
   -3813    -3912    -3993    -4050    -4028    -3893    -3713    -3553 
   -3380    -3187    -2959    -2739    -2716    -2947    -3237    -3406 
   -3410    -3325    -3264    -3245    -3246    -3333    -3549    -3815 
   -3973    -3931    -3709    -3372    -3019    -2813    -2829    -3046 
   -3361    -3589    -3655    -3636    -3607    -3574    -3551    -3607 
   -3723    -3751    -3640    -3460    -3272    -3127    -3029    -2986 
   -3018    -3087    -3184    -3358    -3573    -3715    -3711    -3640 
   -3707    -3973    -4272    -4359    -4140    -3732    -3329    -3086 
   -3030    -3115    -3289    -3512    -3766    -3989    -4105    -4137 
   -4118    -4045    -3915    -3748    -3566    -3357    -3111    -2862 
   -2678    -2648    -2774    -2949    -3113    -3299    -3518    -3678 
   -3724    -3742    -3862    -4082    -4248    -4221    -3979    -3595 
   -3167    -2835    -2740    -2902    -3191    -3388    -3349    -3156 
   -2984    -2920    -2965    -3090    -3287    -3532    -3734    -3820 
   -3790    -3690    -3592    -3485    -3352    -3291    -3372    -3454 
   -3331    -3037    -2860    -2988    -3311    -3601    -3730    -3699 
   -3607    -3558    -3542    -3507    -3443    -3325    -3184    -3129 
   -3163    -3196    -3160    -3041    -2913    -2856    -2897    -3007 
   -3154    -3273    -3291    -3252    -3248    -3307    -3380    -3407 
   -3383    -3322    -3272    -3295    -3370    -3441    -3453    -3379 
   -3257    -3146    -3087    -3127    -3206    -3219    -3246    -3414 
   -3659    -3854    -3913    -3861    -3865    -3986    -4066    -4004 
   -3827    -3609    -3424    -3267    -3144    -3110    -3100    -3001 
   -2839    -2740    -2813    -3048    -3356    -3669    -3955    -4199 
   -4396    -4468    -4347    -4141    -3944    -3719    -3472    -3192 
   -2893    -2695    -2646    -2722    -2955    -3302    -3653    -3920 
   -4059    -4118    -4170    -4144    -3950    -3612    -3215    -2878 
   -2701    -2670    -2760    -2998    -3325    -3623    -3817    -3936 
   -3996    -3921    -3754    -3645    -3639    -3709    -3750    -3647 
   -3484    -3443    -3570    -3763    -3900    -3921    -3848    -3711 
   -3531    -3362    -3221    -3115    -3059    -3036    -3115    -3369 
   -3611    -3576    -3291    -3038    -3021    -3177    -3381    -3572 
   -3677    -3649    -3505    -3304    -3172    -3200    -3350    -3568 
   -3854    -4101    -4128    -3940    -3707    -3561    -3497    -3478 
   -3511    -3541    -3499    -3442    -3427    -3439    -3457    -3443 
   -3379    -3285    -3187    -3123    -3103    -3068    -2988    -2917 
   -2929    -3053    -3288    -3564    -3796    -3971    -4031    -3890 
   -3592    -3214    -2849    -2679    -2770    -2956    -3083    -3098 
   -3059    -3092    -3246    -3474    -3696    -3801    -3793    -3761 
   -3782    -3892    -4013    -4029    -3886    -3596    -3233    -2913 
   -2771    -2820    -2907    -2938    -2978    -3084    -3219    -3315 
   -3389    -3485    -3585    -3678    -3763    -3819    -3835    -3858 
   -3937    -4059    -4201    -4295    -4226    -4023    -3794    -3522 
   -3180    -2872    -2720    -2745    -2851    -2955    -3129    -3451 
   -3813    -4047    -4129    -4141    -4125    -4043    -3897    -3773 
   -3732    -3720    -3640    -3470    -3314    -3267    -3296    -3349 
   -3408    -3472    -3574    -3696    -3730    -3667    -3613    -3588 
   -3534    -3420    -3285    -3231    -3285    -3395    -3503    -3505 
   -3369    -3229    -3169    -3167    -3213    -3289    -3379    -3465 
   -3505    -3458    -3368    -3291    -3252    -3267    -3306    -3291 
   -3213    -3102    -2995    -2992    -3103    -3149    -3102    -3111 
   -3226    -3424    -3639    -3732    -3677    -3531    -3400    -3373 
   -3357    -3277    -3196    -3079    -2895    -2770    -2829    -3060 
   -3277    -3387    -3488    -3624    -3751    -3813    -3751    -3635 
   -3547    -3443    -3331    -3267    -3242    -3269    -3348    -3481 
   -3630    -3667    -3630    -3630    -3586    -3469    -3380    -3364 
   -3396    -3395    -3360    -3383    -3410    -3404    -3393    -3311 
   -3164    -3061    -3060    -3152    -3261    -3319    -3335    -3302 
   -3180    -3001    -2820    -2725    -2812    -3014    -3196    -3308 
