Origin Time       2024/04/02 04:24:00
Lat.              40.133
Long.             141.712
Depth. (km)       71
Mag.              6.0
Station Code      YMT001
Station Lat.      38.9142
Station Long.     139.8123
Station Height(m) 2
Record Time       2024/04/02 04:25:35
Sampling Freq(Hz) 100Hz
Duration Time(s)  120
Dir.              U-D
Scale Factor      7845(gal)/8223790
Max. Acc. (gal)   1.237
Last Correction   2024/04/02 04:25:36
Memo.             
[...]
   36020    36026    36109    36055    35841    35718    35806    35907 
   35912    35870    35833    35878    35930    35889    35861    35976 
   36158    36194    36128    36105    36112    36167    36236    36251 
   36250    36271    36340    36386    36321    36252    36247    36274 
   36270    36184    36139    36197    36239    36247    36242    36193 
   36184    36255    36313    36304    36282    36321    36437    36481 
   36375    36323    36421    36499    36383    36236    36382    36626 
   36634    36593    36675    36774    36780    36686    36636    36661 
   36586    36458    36418    36398    36359    36355    36412    36481 
   36375    36153    36116    36194    36120    35964    35931    36015 
   36063    36045    36031    36059    36113    36158    36104    35932 
   35864    35950    35947    35838    35793    35861    35977    36013 
   35959    36026    36240    36378    36333    36200    36123    36144 
   36188    36202    36146    36054    36093    36162    36078    35968 
   35957    35991    36001    36020    36081    36105    36103    36159 
   36231    36240    36165    36097    36154    36227    36158    36050 
   36128    36355    36456    36406    36471    36637    36640    36552 
   36566    36622    36668    36693    36688    36690    36661    36629 
   36651    36613    36521    36472    36397    36297    36250    36234 
   36184    36057    35958    35977    36001    35966    35918    35938 
   36038    36055    35999    36011    36046    36050    36020    36012 
   36070    36108    36154    36259    36323    36298    36243    36247 
   36288    36250    36181    36198    36258    36251    36198    36204 
   36286    36358    36342    36265    36267    36406    36489    36382 
   36331    36475    36575    36580    36647    36636    36498    36486 
   36572    36539    36389    36240    36211    36278    36254    36078 
   35891    35853    35899    35858    35779    35742    35777    35919 
   36004    35950    35926    35945    35927    35888    35880    36005 
   36180    36227    36252    36304    36292    36292    36323    36389 
   36498    36455    36300    36336    36443    36382    36342    36462 
   36571    36574    36541    36510    36450    36400    36386    36310 
   36224    36265    36283    36180    36081    36024    36024    36109 
   36215    36231    36166    36205    36282    36224    36148    36139 
   36165    36177    36096    36018    36077    36189    36185    36108 
   36153    36263    36244    36173    36167    36143    36117    36185 
   36228    36166    36151    36239    36285    36224    36093    35986 
   36092    36356    36493    36462    36416    36390    36351    36312 
   36290    36221    36150    36181    36219    36155    36043    35962 
   35984    36099    36128    36007    35992    36159    36216    36126 
   36130    36247    36320    36306    36258    36239    36312    36375 
   36313    36263    36366    36470    36369    36240    36252    36197 
   36088    36084    36105    36143    36174    36148    36165    36143 
   36050    36069    36162    36207    36180    36100    36077    36117 
   36162    36171    36136    36161    36190    36069    35972    36119 
   36385    36529    36525    36568    36678    36697    36690    36729 
   36764    36868    36994    36941    36730    36643    36782    36838 
   36675    36531    36435    36319    36275    36262    36173    36036 
   35989    36066    36043    35891    35802    35803    35911    35991 
   35873    35777    35838    35914    35934    35949    35950    35869 
   35796    35854    35935    35943    35950    36077    36331    36439 
   36282    36175    36292    36445    36468    36435    36482    36570 
   36613    36667    36722    36651    36521    36524    36589    36533 
   36346    36192    36189    36134    35860    35696    35846    35982 
   35910    35803    35846    35995    36050    36053    36136    36242 
   36374    36462    36410    36400    36497    36553    36553    36568 
   36606    36649    36664    36659    36616    36514    36447    36431 
   36433    36485    36408    36115    35904    35889    35856    35735 
   35688    35799    35942    35970    35934    35964    36031    36043 
   36008    36001    36063    36107    36069    36020    36009    36062 
   36134    36143    36109    36123    36209    36247    36215    36223 
   36273    36364    36456    36443    36456    36572    36628    36549 
   36474    36450    36377    36308    36343    36373    36296    36171 
   36086    36011    35914    35839    35777    35721    35707    35696 
   35649    35581    35602    35772    35905    35903    35892    35893 
   35877    35916    36011    36078    36124    36256    36452    36489 
   36391    36424    36590    36690    36664    36659    36751    36741 
   36580    36425    36362    36374    36333    36215    36127    36039 
   35949    35943    35930    35884    35968    36127    36207    36201 
   36216    36366    36553    36624    36605    36553    36532    36537 
   36498    36410    36331    36383    36508    36481    36400    36450 
   36495    36417    36328    36255    36132    36085    36228    36373 
   36354    36316    36417    36556    36570    36474    36440    36555 
   36644    36539    36440    36556    36688    36663    36636    36680 
   36647    36513    36485    36562    36566    36526    36479    36432 
   36477    36532    36485    36396    36331    36356    36433    36413 
   36305    36261    36274    36217    36028    35841    35841    35937 
   35970    35977    35969    35968    36069    36204    36235    36235 
   36286    36317    36300    36256    36238    36293    36412    36521 
   36549    36504    36429    36335    36228    36142    36061    35959 
   35922    35907    35824    35806    35851    35837    35864    35954 
   35955    35889    35899    35992    36057    36045    36022    36034 
   36131    36273    36242    36150    36255    36369    36310    36251 
   36304    36418    36450    36319    36193    36173    36113    35980 
   35893    35895    35918    35873    35795    35785    35796    35785 
   35830    35892    35857    35748    35691    35725    35826    35958 
   35997    35966    36047    36174    36184    36104    36039    36065 
   36132    36139    36100    36090    36153    36244    36288    36292 
   36319    36401    36495    36502    36397    36302    36244    36127 
   35986    35918    35928    35896    35748    35668    35667    35627 
   35698    35841    35878    35885    35978    36139    36217    36189 
   36290    36526    36679    36780    36925    37034    37049    37035 
   37066    37066    36960    36838    36765    36729    36656    36505 
   36397    36364    36298    36221    36181    36080    35981    36028 
   36063    36005    36035    36124    36138    36099    36107    36132 
   36132    36181    36212    36184    36207    36298    36405    36450 
   36429    36423    36445    36502    36531    36485    36472    36502 
   36535    36585    36574    36520    36559    36586    36437    36240 
   36211    36310    36336    36316    36367    36423    36495    36572 
   36529    36474    36479    36400    36266    36190    36109    35977 
   35887    35866    35843    35768    35710    35750    35826    35893 
   35861    35718    35723    35880    35924    35830    35757    35841 
   36030    36111    35999    35912    36036    36213    36270    36306 
   36409    36521    36603    36595    36528    36589    36718    36717 
   36634    36644    36755    36794    36753    36698    36614    36599 
   36625    36563    36447    36371    36393    36412    36346    36221 
   36077    36019    36074    36113    36009    35845    35865    35993 
   35982    35897    35907    36030    36169    36207    36184    36223 
   36331    36440    36455    36408    36456    36531    36504    36456 
   36424    36398    36455    36490    36332    36208    36292    36285 
   36069    35949    36062    36174    36126    36034    36026    36088 
   36082    35942    35858    35955    36030    35993    36016    36132 
   36270    36382    36443    36497    36574    36645    36668    36620 
   36614    36676    36613    36468    36435    36475    36447    36289 
   36153    36215    36319    36254    36116    36094    36184    36198 
   36107    36063    36096    36117    36147    36196    36235    36282 
   36342    36391    36385    36327    36316    36348    36358    36319 
   36266    36283    36283    36177    36111    36154    36190    36158 
   36117    36109    36142    36240    36293    36224    36229    36358 
   36377    36205    36069    36175    36343    36335    36288    36313 
   36346    36363    36386    36432    36435    36350    36290    36293 
   36269    36188    36124    36175    36242    36185    36093    36076 
   36134    36180    36182    36219    36275    36313    36331    36301 
   36285    36321    36332    36308    36312    36387    36445    36374 
   36283    36342    36443    36373    36201    36167    36201    36099 
   36024    36151    36235    36138    36046    36040    36027    35972 
   35860    35731    35750    35854    35777    35579    35569    35734 
   35781    35683    35630    35703    35827    35884    35868    35928 
   36131    36292    36316    36397    36566    36626    36612    36639 
   36639    36556    36466    36418    36371    36306    36239    36130 
   36042    36008    35959    35903    35866    35850    35858    35897 
   35916    35904    35959    36093    36189    36175    36157    36286 
   36433    36420    36360    36342    36324    36324    36294    36142 
   35999    36013    36050    36001    35974    36013    36065    36074 
   36009    35969    36000    36045    36073    36066    36038    36024 
   36038    36120    36252    36339    36359    36393    36504    36593 
   36583    36629    36768    36868    36942    37014    37054    37075 
   37058    36996    36879    36724    36621    36585    36525    36429 
   36316    36169    36054    36040    36036    35924    35746    35630 
   35608    35672    35804    35950    36111    36292    36417    36462 
   36522    36668    36811    36890    36945    36956    36869    36720 
   36585    36433    36234    36089    35988    35860    35815    35827 
   35731    35622    35679    35811    35842    35807    35822    35907 
   36009    36073    36096    36165    36316    36404    36339    36282 
   36382    36466    36354    36255    36282    36283    36251    36198 
   36220    36350    36301    36136    36136    36144    36034    35949 
   35937    35911    35812    35725    35707    35685    35702    35756 
   35721    35722    35846    35895    35892    35939    35977    36011 
   36061    36074    35992    35914    35972    36032    35984    35939 
   35931    35930    35974    36074    36169    36235    36271    36265 
   36301    36396    36414    36406    36483    36531    36491    36463 
   36450    36410    36382    36393    36391    36387    36490    36595 
   36541    36535    36678    36749    36711    36720    36834    36948 
   36996    37060    37052    36963    37022    37149    37119    36977 
   36877    36931    36980    36782    36463    36288    36271    36219 
   36074    36016    36036    35959    35862    35824    35765    35754 
   35839    35920    35986    36055    36200    36437    36620    36717 
   36796    36903    37011    36992    36903    36855    36829    36802 
   36680    36489    36394    36339    36159    35911    35758    35707 
   35571    35324    35202    35233    35233    35152    35027    34958 
   35029    35109    35143    35243    35348    35388    35471    35617 
   35715    35780    35951    36200    36285    36201    36290    36524 
   36586    36622    36747    36740    36682    36715    36713    36578 
   36418    36425    36537    36545    36495    36428    36331    36362 
   36444    36386    36300    36337    36487    36552    36428    36335 
   36333    36315    36305    36352    36448    36467    36373    36364 
   36477    36548    36508    36439    36497    36612    36533    36325 
   36216    36211    36198    36086    35926    35862    35847    35808 
   35835    35931    35989    35992    36028    36119    36170    36169 
   36157    36128    36108    36055    35957    35947    35972    35895 
   35818    35818    35803    35729    35660    35677    35749    35799 
   35869    35919    35916    35989    36032    35981    36039    36165 
   36212    36177    36155    36296    36445    36440    36429    36482 
   36522    36482    36374    36393    36537    36544    36512    36645 
   36761    36752    36713    36706    36740    36690    36570    36544 
   36576    36580    36540    36441    36355    36305    36204    36000 
   35804    35781    35858    35827    35726    35726    35806    35824 
   35777    35799    35931    36038    36084    36146    36225    36321 
   36406    36447    36508    36585    36645    36678    36660    36679 
   36699    36651    36655    36706    36713    36651    36532    36487 
   36553    36575    36477    36378    36441    36585    36576    36458 
   36462    36544    36544    36497    36431    36409    36509    36593 
   36564    36495    36455    36474    36483    36491    36583    36629 
   36575    36610    36717    36730    36647    36618    36676    36688 
   36620    36512    36441    36478    36509    36433    36332    36255 
   36202    36198    36193    36094    35964    35959    36012    35941 
   35819    35820    35897    35891    35780    35648    35548    35460 
   35321    35170    35079    35041    35031    35001    34939    34936 
   35054    35198    35244    35247    35349    35522    35614    35689 
   35853    35968    36049    36247    36450    36556    36670    36823 
   36963    37018    36991    36976    37002    36980    36863    36715 
   36609    36521    36401    36256    36128    36055    36022    36009 
   36039    36084    36132    36186    36182    36134    36077    35988 
   35923    35878    35764    35630    35540    35452    35382    35368 
   35437    35575    35723    35823    35891    36027    36232    36370 
   36400    36460    36656    36846    36890    36871    36900    36987 
   37037    36967    36845    36810    36855    36787    36621    36566 
   36572    36522    36510    36529    36491    36487    36559    36585 
   36556    36559    36563    36553    36598    36643    36613    36540 
   36456    36405    36421    36433    36340    36184    36132    36213 
   36263    36209    36139    36165    36252    36252    36180    36150 
   36186    36252    36302    36337    36342    36297    36308    36396 
   36400    36297    36231    36201    36136    36038    35918    35842 
   35842    35808    35706    35665    35791    35914    35884    35912 
   36072    36144    36111    36113    36197    36288    36328    36302 
   36202    36177    36308    36397    36379    36367    36420    36521 
   36559    36486    36452    36528    36575    36552    36525    36532 
   36583    36598    36555    36522    36512    36514    36502    36447 
   36397    36351    36279    36229    36234    36281    36347    36397 
   36383    36263    36159    36190    36205    36123    36049    36003 
   35982    35950    35827    35718    35781    35947    35989    35907 
   35926    36055    36113    36089    36108    36151    36108    36032 
   35993    35965    35957    35951    35958    36047    36139    36134 
   36169    36336    36482    36562    36641    36682    36688    36699 
   36693    36688    36726    36806    36823    36705    36602    36559 
   36468    36347    36213    36105    36059    35977    35806    35658 
   35637    35650    35602    35541    35517    35521    35538    35536 
   35444    35360    35451    35581    35554    35496    35621    35808 
   35873    35888    35932    36074    36292    36396    36371    36393 
   36509    36553    36482    36460    36495    36478    36470    36464 
   36385    36294    36208    36112    36082    36100    36121    36140 
   36180    36313    36433    36448    36489    36591    36682    36744 
   36771    36726    36653    36653    36666    36606    36524    36443 
   36424    36498    36533    36479    36481    36571    36589    36544 
   36547    36541    36506    36472    36414    36333    36305    36324 
   36271    36171    36131    36119    36111    36121    36080    36008 
   36030    36063    36026    36058    36182    36266    36312    36389 
   36466    36470    36474    36566    36629    36622    36606    36545 
   36440    36379    36332    36182    36059    36113    36196    36166 
   36099    36089    36151    36167    36090    36084    36161    36188 
   36190    36242    36294    36275    36275    36400    36486    36458 
   36485    36562    36586    36603    36616    36568    36472    36451 
   36539    36599    36598    36559    36513    36540    36564    36463 
   36316    36306    36373    36332    36251    36234    36227    36202 
   36174    36140    36080    36035    36040    35988    35912    35927 
   35957    35942    35927    35966    36043    36045    36016    36066 
   36107    36128    36154    36104    36070    36061    35992    35974 
   35914    35766    35695    35615    35526    35515    35509    35523 
   35527    35491    35540    35634    35661    35676    35721    35803 
   35946    36053    36092    36165    36271    36346    36424    36539 
   36613    36651    36725    36728    36598    36531    36529    36387 
   36212    36178    36170    36051    35923    35932    36032    36085 
   36043    36031    36201    36386    36397    36360    36431    36571 
   36652    36693    36782    36855    36873    36872    36790    36652 
   36598    36563    36425    36243    36134    36134    36140    36065 
   35958    35935    36034    36100    36038    35977    36032    36181 
   36289    36251    36186    36259    36355    36320    36234    36204 
   36209    36212    36221    36185    36094    36065    36123    36166 
   36121    36072    36139    36275    36378    36425    36401    36373 
   36447    36563    36605    36513    36440    36566    36680    36621 
   36552    36589    36705    36761    36683    36589    36533    36471 
   36393    36319    36251    36175    36099    36007    35885    35792 
   35762    35718    35667    35683    35704    35708    35745    35793 
   35893    36034    36107    36099    36074    36085    36119    36142 
   36143    36112    36094    36144    36180    36167    36212    36281 
   36266    36254    36319    36336    36254    36225    36315    36344 
   36265    36262    36315    36310    36377    36497    36536    36514 
   36459    36424    36485    36547    36445    36281    36300    36378 
   36267    36089    36034    36092    36142    36074    35904    35789 
   35888    36035    36000    35932    35993    36116    36215    36231 
   36182    36201    36339    36432    36374    36323    36371    36405 
   36402    36400    36375    36378    36429    36400    36328    36381 
   36460    36421    36352    36348    36373    36389    36405    36369 
   36265    36209    36216    36190    36162    36169    36123    36062 
   36096    36119    36086    36147    36269    36312    36292    36306 
   36362    36390    36401    36406    36404    36418    36382    36275 
   36217    36202    36159    36082    35988    35969    36062    36135 
   36084    36046    36198    36351    36293    36193    36173    36169 
