Origin Time       2024/04/02 04:24:00
Lat.              40.133
Long.             141.712
Depth. (km)       71
Mag.              6.0
Station Code      YMT007
Station Lat.      38.4302
Station Long.     140.3902
Station Height(m) 120
Record Time       2024/04/02 04:25:10
Sampling Freq(Hz) 100Hz
Duration Time(s)  110
Dir.              U-D
Scale Factor      7845(gal)/8223790
Max. Acc. (gal)   2.230
Last Correction   2024/04/02 04:25:10
Memo.             
[...]
   13135    13134    13135    13136    13135    13135    13135    13136 
   13135    13132    13132    13134    13135    13134    13132    13134 
   13136    13136    13138    13136    13136    13139    13138    13135 
   13136    13138    13136    13136    13138    13139    13134    13132 
   13134    13134    13134    13138    13135    13132    13134    13135 
   13136    13136    13135    13138    13142    13136    13130    13134 
   13138    13140    13140    13134    13131    13135    13136    13135 
   13132    13134    13135    13136    13139    13139    13135    13135 
   13138    13135    13132    13135    13136    13136    13136    13136 
   13136    13138    13136    13134    13134    13135    13135    13132 
   13135    13138    13135    13134    13138    13136    13132    13136 
   13136    13134    13135    13135    13134    13138    13138    13132 
   13131    13132    13138    13139    13136    13138    13136    13128 
   13128    13134    13136    13138    13139    13136    13132    13132 
   13132    13135    13139    13138    13134    13135    13136    13132 
   13130    13134    13136    13139    13139    13136    13135    13136 
   13135    13135    13135    13131    13130    13135    13139    13139 
   13138    13135    13134    13136    13136    13135    13136    13135 
   13130    13132    13136    13136    13138    13139    13135    13135 
   13132    13130    13136    13139    13134    13134    13136    13136 
   13140    13140    13135    13134    13135    13135    13134    13136 
   13138    13136    13136    13135    13132    13134    13138    13139 
   13139    13136    13134    13135    13136    13134    13132    13131 
   13132    13135    13136    13136    13138    13134    13131    13134 
   13132    13132    13135    13138    13138    13136    13136    13136 
   13134    13135    13138    13138    13138    13135    13132    13138 
   13140    13132    13130    13135    13136    13135    13136    13136 
   13136    13135    13131    13132    13134    13134    13140    13142 
   13134    13132    13135    13135    13135    13135    13135    13136 
   13138    13136    13135    13135    13138    13136    13132    13134 
   13134    13132    13138    13138    13134    13132    13132    13134 
   13135    13136    13136    13134    13132    13135    13136    13139 
   13142    13138    13132    13131    13132    13136    13139    13138 
   13135    13135    13132    13132    13135    13136    13138    13135 
   13134    13136    13138    13134    13131    13131    13138    13140 
   13138    13136    13136    13131    13132    13140    13139    13134 
   13132    13135    13135    13134    13135    13136    13134    13134 
   13135    13132    13136    13142    13139    13138    13136    13132 
   13135    13142    13140    13134    13135    13136    13132    13134 
   13135    13134    13139    13139    13130    13130    13142    13142 
   13131    13131    13140    13140    13135    13134    13132    13132 
   13138    13140    13138    13136    13136    13136    13138    13134 
   13130    13134    13139    13138    13134    13132    13132    13132 
   13134    13140    13136    13130    13134    13139    13139    13140 
   13142    13138    13131    13131    13134    13132    13132    13138 
   13139    13135    13134    13134    13136    13140    13140    13136 
   13136    13139    13135    13124    13127    13143    13144    13138 
   13135    13132    13136    13140    13140    13143    13139    13126 
   13120    13135    13153    13147    13139    13144    13134    13119 
   13120    13124    13132    13138    13134    13151    13163    13128 
   13116    13150    13149    13120    13120    13131    13132    13143 
   13153    13143    13127    13126    13135    13132    13127    13128 
   13136    13159    13165    13124    13108    13146    13154    13126 
   13126    13135    13128    13132    13142    13136    13132    13134 
   13139    13144    13134    13119    13128    13143    13140    13135 
   13132    13136    13143    13134    13127    13139    13143    13130 
   13127    13135    13139    13139    13138    13135    13128    13128 
   13134    13135    13140    13147    13140    13124    13127    13146 
   13144    13126    13135    13146    13130    13132    13149    13134 
   13122    13135    13144    13150    13154    13134    13108    13111 
   13128    13144    13157    13161    13134    13089    13107    13159 
   13170    13167    13149    13107    13093    13107    13132    13165 
   13167    13149    13127    13101    13107    13149    13170    13162 
   13132    13099    13104    13144    13170    13166    13131    13100 
   13109    13130    13144    13151    13139    13138    13149    13140 
   13132    13132    13132    13144    13144    13127    13124    13132 
   13138    13142    13136    13135    13143    13142    13135    13131 
   13117    13119    13140    13154    13153    13135    13119    13132 
   13146    13134    13131    13136    13128    13128    13143    13146 
   13138    13131    13135    13142    13136    13131    13132    13130 
   13131    13139    13134    13135    13147    13146    13128    13117 
   13122    13139    13157    13154    13138    13127    13131    13132 
   13128    13134    13140    13144    13143    13127    13123    13138 
   13140    13140    13143    13124    13117    13138    13143    13139 
   13142    13134    13136    13146    13127    13119    13138    13146 
   13142    13132    13120    13135    13149    13135    13130    13140 
   13147    13144    13131    13127    13136    13142    13142    13142 
   13127    13122    13140    13147    13139    13127    13120    13135 
   13151    13139    13127    13136    13143    13138    13131    13134 
   13142    13147    13138    13119    13119    13134    13144    13155 
   13151    13127    13124    13136    13127    13131    13149    13144 
   13136    13132    13123    13126    13140    13154    13151    13119 
   13107    13130    13146    13149    13146    13134    13135    13144 
   13123    13105    13136    13162    13142    13128    13146    13144 
   13119    13120    13142    13146    13132    13128    13147    13153 
   13119    13111    13153    13169    13136    13112    13112    13126 
   13144    13153    13157    13149    13115    13112    13153    13159 
   13128    13108    13122    13157    13158    13124    13119    13139 
   13140    13139    13150    13128    13108    13131    13139    13140 
   13155    13135    13122    13138    13138    13130    13134    13139 
   13131    13122    13135    13151    13154    13142    13116    13109 
   13131    13150    13149    13142    13140    13127    13120    13151 
   13166    13128    13111    13124    13127    13138    13158    13150 
   13122    13122    13132    13123    13131    13151    13153    13139 
   13117    13116    13136    13154    13154    13128    13115    13134 
   13147    13162    13158    13107    13089    13136    13159    13140 
   13139    13147    13132    13117    13119    13136    13162    13149 
   13112    13115    13139    13144    13144    13144    13134    13120 
   13128    13159    13146    13103    13124    13174    13162    13120 
   13113    13131    13154    13159    13123    13105    13135    13143 
   13132    13142    13142    13124    13138    13165    13138    13089 
   13112    13167    13167    13139    13124    13117    13142    13146 
   13108    13139    13181    13123    13096    13142    13157    13146 
   13144    13132    13107    13103    13146    13178    13154    13126 
   13119    13113    13124    13146    13140    13146    13173    13143 
   13092    13105    13146    13157    13155    13146    13113    13113 
   13154    13158    13138    13130    13101    13095    13157    13197 
   13154    13100    13107    13149    13166    13142    13112    13119 
   13157    13159    13112    13111    13150    13136    13123    13157 
   13159    13112    13113    13165    13151    13103    13116    13136 
   13140    13158    13159    13139    13135    13136    13117    13115 
   13153    13162    13128    13122    13136    13143    13147    13147 
   13123    13097    13135    13174    13142    13115    13126    13149 
   13166    13146    13122    13116    13119    13136    13154    13161 
   13140    13104    13119    13153    13143    13120    13127    13163 
   13169    13120    13092    13122    13180    13188    13124    13093 
   13117    13143    13162    13109    13041    13151    13316    13255 
   13068    12966    13007    13180    13281    13149    13049    13151 
   13248    13146    12920    12992    13323    13340    13154    13058 
   12960    13049    13329    13356    13109    12943    12980    13159 
   13313    13211    13026    13080    13203    13185    13034    12954 
   13203    13393    13196    13034    13043    13062    13153    13212 
   13153    13112    13130    13157    13167    13134    13096    13120 
   13146    13132    13157    13166    13120    13113    13132    13128 
   13139    13147    13138    13140    13136    13111    13122    13158 
   13149    13134    13138    13112    13117    13162    13155    13130 
   13128    13128    13131    13131    13128    13138    13150    13146 
   13124    13112    13139    13163    13143    13127    13134    13126 
   13113    13126    13140    13150    13158    13131    13105    13136 
   13162    13136    13116    13149    13173    13108    13061    13154 
   13239    13158    13042    13095    13204    13159    13086    13136 
   13158    13100    13096    13157    13216    13193    13063    13016 
   13173    13258    13101    13034    13190    13235    13115    13066 
   13113    13176    13163    13117    13140    13108    13055    13153 
   13235    13200    13115    12995    13031    13269    13323    13138 
   13041    13031    13041    13150    13227    13223    13215    13113 
   13031    13085    13119    13140    13181    13161    13138    13117 
   13093    13158    13220    13180    13100    13041    13059    13134 
   13165    13205    13265    13178    13018    13007    13105    13181 
   13207    13165    13120    13126    13123    13119    13134    13142 
   13143    13127    13115    13151    13173    13126    13099    13138 
   13161    13140    13131    13143    13139    13120    13120    13144 
   13162    13149    13113    13097    13130    13163    13150    13131 
   13136    13138    13122    13122    13144    13153    13134    13126 
   13135    13136    13136    13140    13138    13139    13139    13130 
   13131    13138    13138    13143    13143    13131    13130    13131 
   13134    13138    13134    13134    13138    13132    13138    13146 
   13139    13138    13134    13124    13128    13135    13139    13140 
   13128    13128    13146    13147    13134    13120    13108    13123 
   13158    13167    13149    13131    13130    13135    13131    13124 
   13122    13123    13143    13159    13143    13130    13134    13138 
   13146    13139    13111    13109    13136    13163    13167    13142 
   13127    13127    13122    13128    13136    13134    13143    13147 
   13142    13142    13131    13120    13128    13143    13150    13142 
   13134    13132    13130    13128    13130    13135    13143    13143 
   13143    13136    13127    13134    13143    13139    13139    13138 
   13128    13130    13143    13149    13143    13138    13124    13112 
   13130    13153    13149    13139    13135    13135    13138    13140 
   13135    13127    13126    13128    13139    13154    13162    13159 
   13143    13116    13099    13097    13116    13155    13182    13180 
   13150    13111    13103    13126    13140    13139    13128    13119 
   13123    13144    13169    13166    13147    13127    13105    13100 
   13117    13140    13163    13176    13165    13134    13103    13101 
   13123    13147    13157    13146    13132    13128    13135    13146 
   13144    13132    13126    13130    13134    13135    13140    13143 
   13142    13147    13142    13127    13119    13120    13138    13154 
   13149    13135    13126    13128    13142    13144    13134    13131 
   13139    13139    13134    13136    13139    13142    13146    13143 
   13140    13127    13115    13123    13136    13147    13147    13140 
   13135    13128    13126    13127    13136    13149    13143    13130 
   13130    13136    13140    13139    13136    13138    13138    13134 
   13130    13120    13124    13131    13131    13134    13135    13127 
   13117    13108    13103    13101    13100    13093    13096    13115 
   13117    13103    13093    13095    13103    13099    13081    13072 
   13077    13086    13089    13089    13081    13066    13051    13031 
   13018    13001    12974    12947    12926    12897    12854    12814 
   12793    12777    12749    12715    12688    12687    12711    12737 
   12765    12807    12869    12945    13032    13134    13230    13319 
   13410    13483    13525    13548    13556    13552    13549    13549 
   13533    13505    13471    13413    13325    13215    13092    12985 
   12910    12866    12876    12950    13081    13250    13454    13698 
   13965    14231    14447    14586    14650    14632    14548    14443 
   14385    14420    14528    14656    14755    14766    14639    14365 
   14008    13666    13406    13243    13109    12957    12798    12618 
   12367    12062    11797    11647    11610    11628    11653    11695 
   11794    11948    12158    12432    12718    12883    12854    12680 
   12429    12104    11693    11256    10930    10798    10849    11079 
   11516    12125    12772    13321    13718    14044    14407    14758 
   14945    14878    14548    14081    13640    13270    12938    12637 
   12418    12388    12595    12939    13223    13248    13026    12870 
   13035    13336    13420    13247    12984    12708    12441    12224 
   12110    12193    12457    12734    13005    13427    13992    14457 
   14578    14419    14243    14112    13871    13536    13331    13311 
   13259    13124    13151    13392    13509    13246    12841    12834 
   13413    14046    14081    13572    13090    12961    13024    13027 
   12976    12937    12950    13107    13277    13201    12920    12727 
   12823    13022    13020    12982    13216    13525    13533    13320 
   13221    13292    13294    13173    13153    13316    13398    13149 
   12752    12564    12571    12594    12631    12717    12807    12819 
   12734    12645    12621    12680    12814    12796    12444    12096 
   12252    12915    13614    14011    14261    14440    14274    13849 
   13575    13498    13459    13440    13481    13590    13717    13848 
   13987    13964    13743    13502    13254    13042    13122    13487 
   13803    13786    13524    13290    13034    12598    12187    12105 
   12401    12858    13144    13051    12667    12363    12509    12980 
   13297    13340    13451    13806    14110    14045    13683    13288 
   13011    12766    12378    12037    12187    12933    13792    14142 
   13936    13500    12922    12363    12158    12370    12729    12896 
   12791    12583    12391    12320    12436    12650    12923    13208 
   13319    13216    13070    12985    12916    12829    12830    12965 
   13113    13269    13454    13539    13510    13491    13443    13259 
   13015    12901    13050    13386    13659    13733    13698    13597 
   13439    13427    13630    13801    13798    13562    13059    12600 
   12430    12451    12575    12773    13001    13184    13235    13261 
   13383    13587    13884    14111    14013    13714    13495    13417 
   13389    13235    12876    12494    12353    12511    12850    13300 
   13801    14137    13999    13373    12714    12449    12584    12788 
   12737    12542    12522    12642    12769    12938    13020    12938 
   12951    13061    13001    12884    12933    13066    13177    13269 
   13427    13633    13525    12966    12474    12405    12577    12748 
   12864    13024    13166    13086    12943    13034    13286    13486 
   13575    13610    13609    13479    13181    12852    12665    12595 
   12491    12411    12549    12911    13325    13564    13601    13694 
   13809    13633    13274    13032    12922    12811    12618    12455 
   12565    12858    13001    13011    13112    13335    13555    13759 
   14006    14220    14295    14131    13674    13207    12982    12738 
   12383    12252    12387    12569    12764    13053    13405    13605 
   13610    13706    13876    13733    13251    12773    12407    12021 
   11718    11820    12372    13142    13855    14148    13972    13741 
   13674    13606    13302    12793    12457    12474    12634    12804 
   12951    13116    13312    13323    13134    13074    13234    13520 
   13883    14052    13840    13437    12988    12681    12785    13036 
   13111    13232    13450    13501    13419    13329    13274    13282 
   13230    13069    13004    13176    13389    13332    13103    13126 
   13385    13531    13525    13468    13288    12934    12556    12379 
   12441    12552    12630    12838    13167    13346    13275    13061 
   12853    12887    13193    13495    13568    13420    13329    13559 
   13838    13740    13371    13078    12962    12972    13073    13200 
   13230    13105    12951    12991    13240    13400    13273    12995 
   12766    12671    12694    12785    12834    12831    12880    12939 
   13000    13194    13497    13743    13765    13571    13340    13099 
   12849    12766    12906    13165    13392    13495    13464    13224 
   12919    12879    13001    13016    12942    12861    12834    12883 
   13007    13258    13554    13736    13716    13379    12816    12472 
   12595    12885    13004    13016    13045    13061    13072    13082 
   13097    13161    13192    13084    12849    12552    12307    12259 
   12511    13018    13481    13639    13587    13582    13598    13390 
   13034    12825    12799    12912    13101    13169    13146    13171 
   13223    13267    13234    13077    12978    13039    13097    13036 
   12951    12970    13085    13232    13375    13443    13432    13443 
   13522    13603    13559    13317    13023    12857    12841    12945 
   13154    13455    13745    13819    13624    13317    13014    12775 
   12703    12823    13053    13308    13490    13502    13471    13617 
   13830    13903    13842    13670    13450    13244    12972    12742 
   12680    12540    12280    12217    12395    12565    12650    12823 
   13111    13301    13319    13193    12953    12829    12837    12711 
   12606    12780    13050    13275    13485    13597    13586    13489 
   13336    13186    13047    12974    13026    13157    13363    13545 
   13520    13389    13259    13081    12907    12745    12607    12599 
   12623    12573    12529    12549    12658    12823    12984    13124 
   13242    13369    13485    13525    13564    13714    13932    13968 
   13670    13277    13051    13007    13158    13435    13659    13794 
   13780    13563    13346    13209    13035    12919    12914    12931 
   13042    13150    12982    12631    12444    12611    12968    13157 
   13257    13486    13563    13300    12961    12750    12664    12584 
   12510    12588    12839    13274    13859    14208    14033    13641 
   13398    13221    12992    12880    12915    12915    12930    13012 
