Origin Time       2024/04/02 04:24:00
Lat.              40.133
Long.             141.712
Depth. (km)       71
Mag.              6.0
Station Code      YMT005
Station Lat.      38.6079
Station Long.     140.1627
Station Height(m) 330
Record Time       2024/04/02 04:25:12
Sampling Freq(Hz) 100Hz
Duration Time(s)  103
Dir.              U-D
Scale Factor      7845(gal)/8223790
Max. Acc. (gal)   1.835
Last Correction   2024/04/02 04:25:12
Memo.             
[...]
   16626    16667    16499    16397    16382    16229    15898    15647 
   15614    15697    15738    15643    15504    15485    15593    15708 
   15715    15620    15546    15550    15570    15573    15596    15716 
   16013    16407    16602    16444    16181    16120    16255    16416 
   16497    16449    16345    16352    16425    16344    16069    15859 
   15989    16389    16691    16687    16532    16474    16537    16503 
   16210    15792    15498    15392    15372    15300    15183    15214 
   15514    15889    16020    15867    15761    15924    16155    16181 
   16038    15923    15874    15803    15780    16012    16443    16779 
   16908    16899    16726    16417    16200    16259    16479    16606 
   16626    16686    16711    16491    16027    15557    15363    15520 
   15836    16073    16135    16035    15862    15711    15608    15558 
   15515    15438    15387    15384    15388    15457    15660    15924 
   16174    16387    16505    16452    16289    16187    16247    16351 
   16357    16345    16393    16335    16109    15944    15978    16116 
   16255    16328    16260    16054    15835    15792    15990    16267 
   16413    16387    16262    16109    15954    15800    15695    15687 
   15743    15842    15971    16044    16029    15993    15896    15661 
   15380    15202    15172    15271    15465    15746    16063    16298 
   16382    16379    16451    16675    16934    17023    16860    16576 
   16387    16347    16325    16204    16083    16191    16510    16734 
   16646    16306    15946    15747    15692    15628    15472    15291 
   15215    15250    15272    15267    15380    15627    15854    16036 
   16239    16362    16281    16054    15796    15580    15507    15676 
   16027    16317    16370    16351    16572    16961    17096    16861 
   16575    16433    16308    16087    15892    15886    16017    16123 
   16173    16206    16236    16309    16406    16391    16216    16013 
   15925    15947    15915    15685    15367    15172    15144    15232 
   15381    15545    15720    15871    15925    15925    15963    16075 
   16237    16382    16425    16321    16110    15947    15943    16059 
   16189    16274    16349    16434    16451    16378    16317    16328 
   16379    16376    16228    16017    15916    15931    16024    16170 
   16267    16275    16283    16336    16393    16378    16229    15940 
   15568    15250    15130    15206    15381    15641    15961    16185 
   16204    16136    16132    16127    16051    16038    16159    16276 
   16313    16286    16186    16069    16015    16032    16129    16306 
   16463    16430    16141    15741    15407    15218    15238    15465 
   15720    15819    15766    15735    15865    16062    16168    16208 
   16255    16310    16397    16526    16602    16567    16483    16374 
   16174    15878    15642    15654    15909    16148    16156    16006 
   15938    16025    16101    16016    15816    15665    15643    15664 
   15624    15631    15870    16248    16452    16407    16348    16406 
   16463    16359    16089    15851    15842    16052    16314    16463 
   16424    16210    15952    15817    15827    15878    15961    16048 
   16036    15916    15763    15669    15719    15886    16028    16092 
   16159    16275    16376    16383    16337    16376    16490    16479 
   16263    16020    15919    15944    15994    16013    16066    16225 
   16372    16332    16150    15988    15900    15854    15828    15840 
   15850    15763    15610    15484    15385    15373    15600    16002 
   16305    16398    16437    16536    16598    16482    16202    15957 
   15909    15992    16032    15992    15917    15865    15877    15934 
   15959    15973    16059    16154    16097    15898    15689    15562 
   15580    15720    15866    15994    16193    16422    16526    16475 
   16328    16128    15915    15757    15719    15796    15904    15955 
   15970    16067    16293    16522    16596    16488    16366    16394 
   16476    16413    16218    16073    16009    15873    15624    15481 
   15631    15948    16120    16031    15840    15697    15661    15797 
   16066    16260    16254    16135    16038    15950    15823    15749 
   15869    16152    16391    16443    16390    16344    16254    16060 
   15816    15597    15503    15614    15831    15977    16039    16108 
   16243    16402    16486    16530    16636    16677    16482    16193 
   16081    16148    16201    16158    16070    15958    15811    15642 
   15499    15417    15410    15502    15727    16038    16291    16379 
   16303    16120    15911    15795    15880    16141    16351    16291 
   16029    15817    15789    15886    15981    16009    16008    16000 
   15950    15917    16023    16232    16384    16391    16318    16313 
   16410    16501    16494    16380    16182    15965    15824    15812 
   15920    16048    16044    15878    15703    15653    15685    15730 
   15797    15917    16054    16090    15974    15830    15834    15989 
   16112    16077    15966    15884    15836    15843    15927    16025 
   16056    16067    16191    16348    16276    16009    15948    16251 
   16555    16529    16301    16116    15996    15896    15855    15917 
   16051    16175    16227    16216    16177    16178    16283    16407 
   16375    16133    15831    15670    15666    15678    15630    15562 
   15511    15519    15668    15901    16056    16116    16209    16379 
   16528    16536    16409    16252    16164    16186    16237    16209 
   16147    16124    16074    15952    15834    15799    15881    16028 
   16144    16190    16175    16158    16164    16113    15977    15854 
   15799    15811    15828    15749    15637    15607    15564    15433 
   15346    15408    15579    15755    15871    16017    16313    16618 
   16696    16569    16406    16303    16362    16583    16776    16808 
   16700    16497    16271    16073    15896    15759    15646    15518 
   15423    15439    15600    15871    16123    16225    16206    16214 
   16303    16420    16515    16537    16417    16186    15963    15828 
   15789    15804    15830    15908    16060    16171    16167    16101 
   16001    15908    15901    15951    15984    15997    15952    15786 
   15557    15442    15637    16113    16563    16744    16687    16528 
   16321    16071    15823    15650    15637    15817    16054    16124 
   15961    15709    15604    15732    15947    16100    16187    16255 
   16286    16202    16005    15880    15931    16021    16082    16166 
   16225    16191    16100    16029    16051    16171    16318    16413 
   16422    16344    16175    15932    15658    15444    15406    15589 
   15869    16035    16001    15911    15943    16093    16290    16546 
   16788    16798    16498    16101    15897    15947    16070    16129 
   16148    16137    16032    15830    15619    15461    15383    15417 
   15518    15627    15788    16035    16321    16606    16810    16819 
   16648    16391    16079    15745    15515    15538    15803    16110 
   16344    16546    16665    16632    16542    16434    16244    16097 
   16106    16133    16074    15993    15900    15763    15658    15680 
   15826    15959    15919    15701    15492    15430    15492    15612 
   15755    15885    15936    15865    15742    15664    15654    15741 
   15947    16212    16447    16660    16896    17081    17115    17003 
   16806    16568    16344    16152    15965    15812    15776    15882 
   16083    16217    16124    15917    15820    15815    15762    15622 
   15465    15404    15437    15446    15404    15412    15526    15699 
   15884    16100    16312    16425    16448    16455    16356    16113 
   15961    16035    16129    16077    15970    15957    16031    16127 
   16228    16321    16362    16297    16073    15769    15634    15827 
   16224    16563    16671    16548    16321    16040    15681    15331 
   15148    15215    15510    15844    16048    16158    16275    16390 
   16407    16328    16287    16390    16510    16440    16212    16065 
   16097    16194    16263    16337    16398    16330    16127    15930 
   15886    16006    16175    16302    16370    16355    16279    16187 
   16012    15731    15549    15623    15822    15942    15961    15966 
   15967    15859    15588    15299    15222    15392    15639    15813 
   15880    15881    15905    15981    16056    16105    16163    16287 
   16451    16479    16287    16058    15971    15962    15911    15844 
   15819    15819    15832    15838    15815    15805    15828    15862 
   15990    16254    16479    16480    16279    16071    16008    16042 
   16096    16220    16478    16830    17107    17089    16748    16308 
   15979    15831    15813    15858    15962    16025    15878    15627 
   15519    15560    15647    15735    15730    15664    15724    15900 
   16016    16054    16119    16258    16434    16575    16645    16664 
   16675    16681    16584    16306    15989    15846    15892    15984 
   16054    16136    16187    16071    15770    15479    15404    15526 
   15708    15876    15974    15948    15892    15958    16070    16005 
   15732    15453    15373    15516    15749    15963    16146    16267 
   16328    16378    16389    16322    16221    16113    16009    15969 
   16021    16162    16324    16387    16363    16347    16341    16290 
   16131    15774    15309    15090    15357    15907    16343    16526 
   16602    16656    16536    16183    15835    15662    15556    15438 
   15411    15535    15736    15900    15974    15982    16000    16105 
   16299    16474    16556    16590    16569    16443    16260    16102 
   16009    16025    16079    16020    15831    15583    15390    15411 
   15588    15665    15585    15519    15580    15768    16042    16326 
   16509    16534    16488    16480    16540    16672    16841    16958 
   16927    16713    16424    16213    16094    16040    16079    16198 
   16336    16383    16224    15923    15641    15414    15265    15302 
   15530    15855    16206    16468    16510    16356    16205    16205 
   16291    16333    16347    16355    16285    16121    15936    15731 
   15499    15357    15403    15608    15911    16202    16333    16289 
   16202    16189    16302    16507    16621    16542    16413    16317 
   16129    15846    15693    15773    15920    16021    16078    16009 
   15709    15263    14875    14692    14712    14914    15307    15826 
   16249    16340    16071    15688    15466    15480    15601    15695 
   15843    16243    16798    17165    17163    16960    16816    16740 
   16569    16313    16058    15865    15874    16128    16336    16298 
   16221    16264    16308    16285    16258    16214    16102    15961 
   15826    15670    15562    15637    15842    15971    15908    15700 
   15550    15639    15900    16128    16255    16359    16526    16702 
   16722    16546    16355    16341    16472    16568    16549    16484 
   16457    16424    16271    16044    15912    15877    15844    15811 
   15785    15762    15766    15770    15695    15481    15241    15202 
   15360    15458    15465    15610    15911    16119    16123    16081 
   16158    16303    16440    16640    16872    16915    16713    16433 
   16168    15920    15784    15880    16151    16405    16476    16332 
   16104    15947    15894    15866    15741    15493    15342    15419 
   15476    15327    15168    15205    15360    15429    15364    15346 
   15498    15696    15834    15911    15904    15817    15719    15639 
   15589    15611    15722    15869    15962    15963    15932    15977 
   16109    16191    16146    16035    15835    15498    15206    15184 
   15450    15888    16340    16629    16644    16434    16174    16012 
   16011    16189    16510    16831    16992    17004    17038    17155 
   17290    17458    17587    17451    17068    16756    16687    16783 
   16969    17190    17297    17209    17018    16822    16649    16501 
   16351    16213    16125    16104    16174    16301    16347    16271 
   16163    16013    15735    15387    15178    15209    15318    15323 
   15282    15298    15318    15253    15080    14848    14702    14755 
   14908    14971    14929    14956    15205    15611    15928    16015 
   16002    16005    15959    15900    15917    15992    16147    16386 
   16515    16437    16299    16225    16222    16241    16209    16179 
   16285    16470    16549    16475    16344    16227    16012    15596 
   15110    14775    14658    14704    14855    15113    15506    15958 
   16285    16344    16143    15867    15765    15840    15857    15736 
   15635    15749    16182    16752    17069    17008    16768    16544 
   16429    16490    16668    16829    16981    17161    17236    17061 
   16711    16470    16498    16594    16559    16587    16831    17070 
   17112    17019    16865    16692    16614    16619    16471    16075 
   15672    15453    15434    15573    15688    15622    15516    15545 
   15647    15661    15525    15404    15485    15650    15695    15718 
   15955    16366    16626    16545    16271    16077    16044    16027 
   15920    15823    15878    16043    16137    16085    15975    15928 
   15950    15897    15649    15306    15071    14978    14935    14921 
   14936    14958    15056    15264    15392    15313    15149    15086 
   15199    15453    15784    16151    16502    16756    16827    16757 
   16731    16842    17014    17169    17342    17589    17832    17956 
   17967    17841    17475    16927    16411    16047    15751    15398 
   15053    14949    15141    15373    15375    15223    15201    15287 
   15217    15007    14904    14968    15153    15473    15804    15931 
   15884    15815    15719    15630    15727    16048    16453    16826 
   17138    17365    17377    17116    16753    16421    16114    15911 
   15957    16263    16656    16916    16960    16850    16641    16295 
   15809    15314    14933    14686    14636    14864    15174    15287 
   15290    15434    15611    15543    15292    15130    15201    15446 
   15709    15881    15986    16208    16671    17130    17261    17101 
   16849    16617    16532    16600    16609    16474    16401    16463 
   16386    16031    15681    15631    15747    15701    15495    15454 
   15662    15766    15510    15099    14895    15037    15407    15761 
   15923    15954    16038    16137    16101    16038    16093    16123 
   16038    16040    16252    16536    16762    16927    17042    17138 
   17286    17506    17662    17629    17490    17377    17226    16939 
   16587    16314    16216    16206    16079    15861    15792    15882 
   15889    15714    15477    15302    15213    15122    14993    14970 
   15153    15452    15723    15840    15751    15604    15626    15795 
   15939    16101    16355    16567    16605    16471    16210    16005 
   16066    16322    16509    16524    16488    16475    16418    16298 
   16162    16039    15962    15873    15664    15385    15159    15040 
   15121    15426    15784    16031    16108    16043    15920    15769 
   15633    15606    15654    15684    15705    15792    15970    16137 
   16164    16129    16132    16089    15986    15951    16048    16325 
   16703    16860    16695    16447    16259    16140    16044    15924 
   15957    16231    16422    16301    16036    15811    15654    15615 
   15708    15786    15707    15552    15534    15728    16029    16282 
   16397    16352    16152    15855    15680    15827    16170    16424 
   16457    16320    16175    16170    16293    16430    16483    16420 
   16291    16163    16085    16131    16314    16484    16509    16459 
   16471    16538    16521    16295    15904    15502    15201    15105 
   15249    15461    15561    15603    15780    16200    16680    16904 
   16816    16605    16384    16144    15890    15751    15819    15930 
   15905    15830    15832    15925    16136    16425    16565    16362 
   15984    15827    15981    16178    16229    16152    16019    15861 
   15631    15383    15384    15719    16120    16401    16632    16808 
   16734    16328    15770    15248    14756    14328    14158    14358 
   14808    15260    15549    15676    15691    15599    15506    15643 
   15998    16258    16247    16085    15912    15869    16052    16351 
   16571    16664    16664    16575    16416    16229    16062    16054 
   16321    16715    16995    17112    17068    16818    16492    16267 
   16158    16200    16455    16787    16951    16930    16839    16586 
   16104    15692    15610    15788    16086    16351    16414    16279 
   16073    15894    15847    15988    16227    16437    16552    16511 
   16312    16078    15909    15803    15776    15861    15971    15989 
   15878    15660    15431    15337    15417    15604    15805    15916 
   15921    15870    15790    15680    15581    15645    15912    16093 
   15851    15330    15010    15051    15201    15315    15462    15618 
   15693    15695    15676    15700    15807    15911    15890    15811 
   15832    15979    16189    16413    16522    16399    16156    16029 
   16077    16168    16221    16308    16488    16700    16848    16900 
   16891    16829    16684    16494    16356    16293    16237    16110 
   15927    15763    15633    15545    15600    15876    16214    16340 
   16218    16113    16178    16290    16318    16310    16348    16428 
   16465    16367    16154    15982    15961    16029    16085    16114 
   16198    16368    16542    16587    16433    16168    15997    15992 
   15970    15772    15452    15145    14971    14978    15063    15187 
   15469    15830    15966    15824    15599    15460    15507    15705 
   15952    16197    16360    16459    16660    16910    17019    17035 
   17086    17182    17257    17194    16958    16663    16416    16205 
   15977    15773    15664    15593    15512    15487    15510    15419 
   15137    14858    14827    14968    15045    15075    15179    15292 
   15284    15226    15373    15804    16276    16588    16791    16996 
   17159    17184    17201    17369    17496    17350    17024    16794 
   16758    16714    16498    16266    16120    15961    15776    15603 
   15425    15303    15267    15264    15346    15529    15672    15727 
   15736    15701    15704    15813    15942    15998    16011    16050 
   16167    16348    16487    16492    16421    16382    16370    16328 
   16235    16156    16247    16475    16573    16432    16208    15984 
   15743    15606    15724    16019    16244    16194    15890    15564 
   15421    15535    15871    16245    16441    16382    16164    15971 
   15844    15692    15606    15753    16004    16133    16139    16050 
   15816    15542    15471    15666    15928    16056    16067    16001 
   15830    15642    15608    15762    15996    16209    16410    16590 
   16615    16460    16318    16274    16210    16086    15985    15935 
   15896    15865    15934    16124    16287    16286    16182    16140 
   16209    16303    16416    16619    16812    16795    16567    16264 
   16002    15877    15844    15715    15504    15431    15554    15766 
   15992    16190    16330    16345    16162    15919    15876    16001 
   16065    16020    15970    15934    15836    15693    15672    15786 
   15813    15697    15631    15704    15792    15777    15696    15634 
