Origin Time       2024/04/02 04:24:00
Lat.              40.133
Long.             141.712
Depth. (km)       71
Mag.              6.0
Station Code      YMT011
Station Lat.      38.1484
Station Long.     140.2671
Station Height(m) 180
Record Time       2024/04/02 04:25:35
Sampling Freq(Hz) 100Hz
Duration Time(s)  101
Dir.              E-W
Scale Factor      7845(gal)/8223790
Max. Acc. (gal)   4.784
Last Correction   2024/04/02 04:25:35
Memo.             
[...]
   -1574    -1563    -1606    -1649    -1663    -1648    -1587    -1493 
   -1424    -1421    -1456    -1485    -1494    -1483    -1426    -1304 
   -1138     -996     -943    -1001    -1132    -1270    -1351    -1364 
   -1331    -1258    -1194    -1229    -1375    -1567    -1738    -1858 
   -1948    -2019    -2053    -2073    -2130    -2208    -2255    -2269 
   -2289    -2326    -2326    -2259    -2174    -2116    -2072    -2010 
   -1956    -1945    -1958    -1965    -1950    -1895    -1798    -1698 
   -1641    -1648    -1695    -1771    -1885    -2012    -2096    -2127 
   -2110    -2060    -1998    -1938    -1903    -1891    -1884    -1885 
   -1888    -1871    -1860    -1884    -1930    -1992    -2054    -2092 
   -2101    -2100    -2119    -2147    -2138    -2083    -2016    -1956 
   -1883    -1784    -1717    -1711    -1706    -1659    -1629    -1649 
   -1690    -1722    -1753    -1791    -1811    -1784    -1723    -1663 
   -1629    -1641    -1703    -1800    -1908    -1999    -2039    -2007 
   -1925    -1837    -1783    -1783    -1822    -1857    -1867    -1849 
   -1807    -1746    -1675    -1618    -1601    -1611    -1620    -1617 
   -1621    -1657    -1710    -1765    -1845    -1921    -1946    -1926 
   -1890    -1848    -1803    -1771    -1773    -1786    -1771    -1733 
   -1702    -1703    -1742    -1796    -1856    -1923    -1988    -2019 
   -1992    -1923    -1858    -1838    -1873    -1954    -2062    -2170 
   -2268    -2349    -2381    -2353    -2297    -2236    -2188    -2173 
   -2182    -2184    -2146    -2077    -2007    -1948    -1895    -1850 
   -1831    -1858    -1911    -1946    -1961    -1962    -1945    -1938 
   -1953    -1969    -1987    -1966    -1877    -1765    -1649    -1528 
   -1453    -1432    -1412    -1379    -1333    -1289    -1289    -1333 
   -1405    -1509    -1626    -1718    -1768    -1776    -1767    -1761 
   -1771    -1813    -1907    -2023    -2116    -2149    -2116    -2070 
   -2057    -2096    -2178    -2259    -2303    -2284    -2185    -2052 
   -1939    -1875    -1895    -1993    -2114    -2212    -2247    -2220 
   -2182    -2146    -2123    -2135    -2141    -2112    -2066    -1968 
   -1811    -1652    -1516    -1402    -1283    -1136    -1015     -943 
    -868     -799     -784     -800     -818     -855     -918     -984 
   -1051    -1123    -1190    -1239    -1232    -1155    -1063    -1000 
    -978    -1026    -1134    -1269    -1425    -1574    -1682    -1749 
   -1792    -1841    -1904    -1961    -2016    -2081    -2141    -2195 
   -2238    -2254    -2254    -2245    -2234    -2251    -2295    -2355 
   -2423    -2450    -2432    -2415    -2367    -2263    -2154    -2060 
   -1952    -1818    -1686    -1605    -1580    -1574    -1572    -1588 
   -1617    -1653    -1691    -1745    -1819    -1910    -2019    -2123 
   -2182    -2205    -2219    -2235    -2238    -2209    -2162    -2133 
   -2137    -2180    -2257    -2342    -2392    -2386    -2336    -2272 
   -2200    -2145    -2146    -2184    -2224    -2263    -2305    -2365 
   -2436    -2482    -2506    -2548    -2612    -2681    -2733    -2754 
   -2741    -2700    -2620    -2486    -2293    -2072    -1852    -1640 
   -1447    -1297    -1190    -1109    -1065    -1086    -1171    -1278 
   -1401    -1548    -1701    -1848    -1989    -2120    -2247    -2334 
   -2358    -2347    -2289    -2170    -2041    -1933    -1852    -1806 
   -1773    -1749    -1738    -1686    -1571    -1463    -1418    -1437 
   -1472    -1460    -1402    -1341    -1296    -1269    -1279    -1337 
   -1431    -1506    -1536    -1530    -1507    -1458    -1383    -1320 
   -1294    -1271    -1212    -1109     -967     -822     -741     -757 
    -839     -936    -1019    -1086    -1128    -1135    -1154    -1236 
   -1348    -1451    -1543    -1640    -1742    -1788    -1745    -1667 
   -1591    -1520    -1475    -1456    -1441    -1418    -1354    -1237 
   -1112    -1028    -1017    -1088    -1231    -1417    -1587    -1705 
   -1775    -1822    -1894    -2026    -2203    -2400    -2606    -2821 
   -3024    -3167    -3215    -3183    -3115    -3030    -2943    -2886 
   -2884    -2929    -2988    -3018    -3022    -3037    -3055    -3051 
   -3001    -2903    -2817    -2762    -2697    -2624    -2556    -2458 
   -2328    -2207    -2116    -2085    -2110    -2143    -2166    -2154 
   -2060    -1911    -1772    -1652    -1564    -1530    -1528    -1532 
   -1498    -1394    -1260    -1146    -1066    -1039    -1067    -1132 
   -1213    -1275    -1287    -1242    -1177    -1170    -1260    -1422 
   -1633    -1867    -2072    -2215    -2290    -2311    -2311    -2304 
   -2285    -2265    -2241    -2204    -2146    -2050    -1921    -1784 
   -1690    -1651    -1645    -1675    -1744    -1809    -1849    -1884 
   -1908    -1927    -1958    -2008    -2049    -2056    -2025    -1962 
   -1864    -1713    -1548    -1432    -1364    -1300    -1235    -1185 
   -1156    -1128    -1078    -1030    -1016    -1047    -1134    -1271 
   -1424    -1570    -1687    -1744    -1761    -1786    -1807    -1803 
   -1775    -1749    -1730    -1682    -1601    -1534    -1505    -1506 
   -1521    -1557    -1648    -1780    -1907    -1992    -2012    -1976 
   -1910    -1838    -1779    -1746    -1736    -1752    -1800    -1876 
   -1962    -2046    -2142    -2251    -2316    -2289    -2177    -2006 
   -1806    -1615    -1458    -1356    -1308    -1277    -1256    -1236 
   -1192    -1134    -1098    -1117    -1194    -1298    -1405    -1486 
   -1517    -1516    -1520    -1556    -1637    -1753    -1890    -2007 
   -2056    -2012    -1885    -1732    -1595    -1499    -1489    -1598 
   -1795    -2027    -2227    -2357    -2440    -2509    -2575    -2641 
   -2694    -2762    -2845    -2898    -2909    -2894    -2853    -2802 
   -2743    -2712    -2758    -2862    -2964    -3045    -3099    -3099 
   -3024    -2918    -2853    -2859    -2911    -2990    -3078    -3138 
   -3113    -2994    -2822    -2625    -2431    -2276    -2139    -1981 
   -1814    -1676    -1603    -1621    -1714    -1846    -2002    -2161 
   -2288    -2347    -2309    -2182    -2019    -1865    -1723    -1590 
   -1483    -1420    -1360    -1274    -1179    -1105    -1048    -1001 
    -946     -870     -789     -699     -577     -444     -341     -282 
    -261     -253     -243     -276     -363     -440     -480     -534 
    -637     -764     -865     -927     -938     -869     -724     -541 
    -364     -247     -216     -259     -333     -380     -394     -414 
    -445     -496     -584     -710     -862    -1007    -1136    -1305 
   -1507    -1711    -1915    -2107    -2270    -2397    -2477    -2532 
   -2594    -2651    -2690    -2717    -2732    -2743    -2776    -2859 
   -3003    -3163    -3283    -3338    -3302    -3184    -3044    -2941 
   -2926    -2987    -3080    -3196    -3329    -3435    -3484    -3473 
   -3439    -3399    -3343    -3276    -3181    -3067    -2960    -2853 
   -2713    -2552    -2401    -2284    -2214    -2185    -2205    -2277 
   -2385    -2490    -2544    -2529    -2485    -2442    -2398    -2373 
   -2365    -2340    -2266    -2120    -1912    -1688    -1480    -1298 
   -1167    -1090    -1028     -992    -1026    -1098    -1177    -1286 
   -1436    -1610    -1791    -1939    -2025    -2056    -2062    -2058 
   -2025    -1962    -1888    -1795    -1661    -1517    -1401    -1302 
   -1209    -1119    -1034     -950     -870     -800     -734     -664 
    -585     -518     -486     -508     -604     -765     -958    -1155 
   -1340    -1498    -1606    -1625    -1540    -1379    -1189    -1000 
    -842     -715     -627     -600     -599     -568     -525     -525 
    -583     -700     -864    -1027    -1158    -1252    -1310    -1362 
   -1440    -1547    -1682    -1836    -1977    -2112    -2257    -2397 
   -2511    -2593    -2656    -2718    -2778    -2816    -2825    -2817 
   -2818    -2859    -2947    -3052    -3117    -3114    -3057    -2952 
   -2802    -2651    -2533    -2447    -2390    -2339    -2268    -2209 
   -2188    -2188    -2228    -2315    -2409    -2501    -2583    -2621 
   -2604    -2527    -2389    -2230    -2065    -1912    -1818    -1768 
   -1726    -1675    -1593    -1491    -1401    -1328    -1316    -1394 
   -1551    -1780    -2025    -2211    -2358    -2520    -2700    -2872 
   -3013    -3099    -3100    -2991    -2774    -2489    -2192    -1927 
   -1717    -1567    -1455    -1355    -1250    -1113     -973     -880 
    -846     -878     -996    -1173    -1359    -1541    -1709    -1849 
   -1938    -1962    -1964    -1995    -2035    -2050    -2052    -2012 
   -1883    -1675    -1440    -1223    -1043     -909     -843     -846 
    -850     -804     -730     -649     -561     -492     -496     -588 
    -720     -837     -916     -978    -1031    -1067    -1102    -1175 
   -1314    -1514    -1734    -1935    -2091    -2162    -2118    -1956 
   -1733    -1522    -1363    -1269    -1242    -1267    -1296    -1287 
   -1274    -1296    -1356    -1489    -1719    -1999    -2284    -2535 
   -2682    -2732    -2764    -2825    -2916    -3015    -3107    -3195 
   -3245    -3233    -3195    -3154    -3105    -3055    -3025    -3024 
   -3044    -3090    -3164    -3242    -3292    -3295    -3267    -3231 
   -3188    -3160    -3163    -3163    -3157    -3167    -3146    -3076 
   -2997    -2913    -2817    -2705    -2581    -2458    -2327    -2161 
   -1966    -1767    -1561    -1370    -1229    -1163    -1186    -1259 
   -1314    -1356    -1398    -1406    -1377    -1360    -1393    -1455 
   -1480    -1433    -1312    -1135     -923     -692     -492     -340 
    -207     -101      -24       36       62       27      -56     -160 
    -248     -297     -322     -344     -367     -380     -375     -359 
    -342     -340     -364     -432     -556     -745     -954    -1144 
   -1344    -1579    -1837    -2080    -2254    -2340    -2370    -2362 
   -2320    -2250    -2137    -2002    -1872    -1738    -1597    -1460 
   -1360    -1344    -1404    -1507    -1664    -1876    -2126    -2384 
   -2597    -2740    -2852    -2951    -3028    -3090    -3165    -3262 
   -3342    -3349    -3268    -3130    -2979    -2824    -2691    -2600 
   -2520    -2430    -2319    -2189    -2070    -1944    -1807    -1733 
   -1756    -1836    -1930    -2012    -2074    -2093    -2035    -1937 
   -1877    -1871    -1894    -1939    -2003    -2070    -2103    -2060 
   -1992    -1960    -1953    -1954    -1971    -2011    -2066    -2101 
   -2118    -2180    -2335    -2593    -2913    -3233    -3524    -3769 
   -3928    -4008    -4063    -4110    -4101    -3986    -3767    -3472 
   -3132    -2760    -2361    -1957    -1597    -1316    -1120     -974 
    -853     -756     -680     -604     -542     -530     -562     -612 
    -643     -626     -556     -444     -302     -135       59      255 
     436      616      811     1030     1242     1383     1414     1310 
    1058      656      112     -479     -994    -1417    -1769    -2053 
   -2269    -2403    -2470    -2488    -2435    -2312    -2187    -2123 
   -2115    -2119    -2127    -2157    -2215    -2292    -2367    -2443 
   -2565    -2744    -2961    -3183    -3343    -3410    -3408    -3349 
   -3252    -3148    -3024    -2882    -2743    -2606    -2475    -2350 
   -2234    -2145    -2069    -1961    -1787    -1539    -1220     -873 
    -594     -453     -441     -529     -691     -884    -1089    -1310 
   -1552    -1813    -2084    -2362    -2633    -2864    -3036    -3181 
   -3323    -3412    -3419    -3381    -3303    -3167    -2971    -2724 
   -2492    -2346    -2278    -2286    -2392    -2571    -2789    -3009 
   -3164    -3234    -3242    -3179    -3017    -2779    -2500    -2196 
   -1883    -1563    -1242     -963     -766     -654     -591     -513 
    -387     -225      -33      183      414      622      791      907 
     949      872      612      164     -388     -990    -1586    -2092 
   -2474    -2708    -2791    -2774    -2673    -2478    -2208    -1880 
   -1528    -1192     -919     -773     -791     -926    -1089    -1247 
   -1418    -1626    -1898    -2245    -2652    -3083    -3484    -3829 
   -4106    -4279    -4336    -4287    -4147    -3952    -3739    -3541 
   -3407    -3354    -3321    -3262    -3187    -3094    -2944    -2722 
   -2461    -2188    -1906    -1598    -1246     -843     -438      -87 
     168      303      340      313      232      116        5      -75 
    -145     -229     -310     -411     -562     -734     -899    -1040 
   -1113    -1107    -1067    -1086    -1258    -1568    -1938    -2320 
   -2662    -2911    -3076    -3179    -3264    -3389    -3541    -3677 
   -3775    -3813    -3797    -3781    -3820    -3913    -4000    -4058 
   -4082    -4021    -3832    -3499    -2999    -2358    -1657     -992 
    -471     -170      -67     -106     -186     -203     -149      -60 
     -25     -175     -498     -886    -1254    -1485    -1459    -1173 
    -734     -299       45      317      521      664      778      865 
     869      739      438      -83     -838    -1717    -2562    -3279 
   -3835    -4228    -4503    -4727    -4953    -5197    -5397    -5463 
   -5362    -5097    -4707    -4271    -3898    -3685    -3613    -3607 
   -3604    -3541    -3420    -3276    -3117    -3002    -2960    -2924 
   -2889    -2860    -2732    -2493    -2253    -2026    -1775    -1479 
   -1129     -766     -380        9      274      415      565      773 
    1066     1460     1929     2412     2820     3084     3181     3095 
    2868     2550     2110     1517      827      113     -553    -1093 
   -1471    -1709    -1842    -1945    -2096    -2339    -2679    -3059 
   -3385    -3628    -3742    -3678    -3530    -3397    -3311    -3280 
   -3249    -3157    -2997    -2772    -2521    -2305    -2209    -2323 
   -2625    -2980    -3302    -3557    -3681    -3661    -3584    -3527 
   -3512    -3531    -3554    -3539    -3464    -3358    -3269    -3187 
   -3094    -3007    -2924    -2816    -2667    -2435    -2095    -1718 
   -1390    -1138     -994     -984    -1050    -1123    -1181    -1229 
   -1339    -1601    -2007    -2482    -2936    -3262    -3420    -3451 
   -3419    -3341    -3190    -2945    -2610    -2220    -1815    -1425 
   -1084     -820     -642     -533     -483     -508     -623     -801 
    -994    -1150    -1255    -1317    -1351    -1385    -1452    -1566 
   -1721    -1884    -2026    -2149    -2253    -2342    -2430    -2494 
   -2474    -2339    -2123    -1831    -1439     -942     -386      137 
     565      859      986      953      819      650      442      172 
    -114     -384     -691    -1065    -1437    -1714    -1863    -1918 
   -1931    -1946    -2011    -2158    -2366    -2586    -2758    -2822 
   -2739    -2524    -2281    -2110    -2069    -2169    -2374    -2654 
   -2960    -3211    -3383    -3524    -3659    -3798    -3935    -4000 
   -3966    -3881    -3754    -3576    -3375    -3177    -2983    -2764 
   -2504    -2239    -2012    -1825    -1644    -1467    -1340    -1279 
   -1271    -1298    -1328    -1348    -1339    -1262    -1139    -1031 
    -947     -855     -727     -576     -444     -348     -290     -287 
    -357     -496     -687     -922    -1198    -1482    -1715    -1860 
   -1921    -1863    -1597    -1129     -619     -225      -52      -93 
    -252     -459     -643     -749     -747     -650     -550     -561 
    -741    -1089    -1541    -2041    -2508    -2833    -2964    -2930 
   -2789    -2606    -2447    -2326    -2219    -2093    -1937    -1741 
   -1489    -1197     -940     -807     -851    -1074    -1437    -1864 
   -2272    -2648    -3003    -3276    -3415    -3460    -3496    -3574 
   -3658    -3693    -3681    -3612    -3465    -3238    -2959    -2652 
   -2340    -2069    -1898    -1840    -1912    -2154    -2513    -2880 
   -3210    -3505    -3770    -3977    -4089    -4105    -4064    -4012 
   -3967    -3905    -3751    -3435    -2980    -2490    -2046    -1669 
   -1372    -1181    -1112    -1107    -1109    -1159    -1294    -1467 
   -1599    -1647    -1593    -1455    -1266    -1032     -757     -453 
    -143      149      450      815     1215     1545     1687     1591 
    1316      915      417      -55     -384     -581     -723     -857 
   -1004    -1182    -1426    -1726    -1989    -2155    -2247    -2280 
   -2255    -2205    -2146    -2115    -2139    -2180    -2209    -2238 
   -2259    -2299    -2378    -2498    -2698    -2960    -3211    -3396 
   -3495    -3505    -3430    -3271    -3083    -2967    -2941    -2953 
   -2999    -3071    -3125    -3206    -3368    -3570    -3782    -3942 
   -3987    -3904    -3669    -3284    -2799    -2269    -1760    -1278 
    -760     -206      319      778     1134     1333     1332     1089 
     654      172     -228     -488     -615     -660     -688     -773 
    -949    -1192    -1468    -1721    -1883    -1952    -2004    -2100 
   -2220    -2346    -2512    -2686    -2771    -2748    -2677    -2609 
   -2550    -2478    -2390    -2293    -2192    -2095    -1964    -1787 
   -1618    -1424    -1143     -785     -419     -116      126      307 
     368      305      137     -101     -338     -569     -861    -1225 
   -1614    -1958    -2234    -2485    -2694    -2798    -2789    -2708 
   -2656    -2667    -2704    -2771    -2880    -3005    -3114    -3208 
   -3289    -3349    -3369    -3341    -3268    -3168    -3082    -3034 
   -3011    -3013    -3046    -3068    -3024    -2902    -2725    -2509 
   -2273    -2054    -1865    -1714    -1587    -1439    -1259    -1096 
   -1000    -1023    -1171    -1409    -1721    -2073    -2390    -2619 
   -2767    -2847    -2860    -2814    -2700    -2496    -2224    -1944 
   -1686    -1459    -1274    -1134    -1016     -912     -834     -781 
    -766     -805     -862     -909     -949     -990    -1086    -1251 
   -1439    -1620    -1729    -1725    -1668    -1611    -1560    -1559 
   -1620    -1692    -1767    -1867    -2002    -2176    -2354    -2528 
   -2736    -2998    -3267    -3472    -3592    -3680    -3748    -3732 
   -3589    -3339    -3010    -2635    -2263    -1921    -1637    -1445 
   -1312    -1146     -905     -615     -295       35      328      538 
     637      630      535      376      194      -24     -298     -575 
    -811    -1036    -1254    -1441    -1580    -1645    -1626    -1529 
   -1328    -1027     -692     -380     -164      -98     -156     -299 
    -522     -788    -1062    -1324    -1560    -1819    -2126    -2420 
   -2666    -2855    -2940    -2884    -2710    -2459    -2208    -2054 
   -2045    -2174    -2400    -2650    -2890    -3087    -3217    -3315 
   -3410    -3492    -3553    -3555    -3504    -3420    -3252    -2965 
   -2601    -2231    -1911    -1672    -1532    -1526    -1667    -1887 
   -2097    -2266    -2407    -2524    -2641    -2803    -2991    -3099 
   -3061    -2883    -2594    -2259    -1933    -1641    -1393    -1186 
   -1011     -884     -832     -843     -896     -997    -1121    -1224 
   -1308    -1397    -1512    -1653    -1804    -1968    -2145    -2313 
   -2457    -2570    -2624    -2625    -2613    -2594    -2594    -2631 
   -2659    -2666    -2664    -2609    -2451    -2226    -2004    -1811 
   -1644    -1525    -1502    -1601    -1795    -2030    -2272    -2493 
