Origin Time       2024/04/02 04:24:00
Lat.              40.133
Long.             141.712
Depth. (km)       71
Mag.              6.0
Station Code      YMT008
Station Lat.      38.3854
Station Long.     139.9924
Station Height(m) 452
Record Time       2024/04/02 04:25:39
Sampling Freq(Hz) 100Hz
Duration Time(s)  81
Dir.              N-S
Scale Factor      7845(gal)/8223790
Max. Acc. (gal)   1.828
Last Correction   2024/04/02 04:25:39
Memo.             
[...]
   11090    11009    10929    10871    10817    10773    10767    10800 
   10854    10921    10995    11078    11159    11237    11330    11435 
   11537    11627    11693    11720    11713    11673    11589    11488 
   11406    11358    11335    11315    11287    11263    11261    11283 
   11319    11364    11400    11411    11435    11503    11587    11666 
   11753    11820    11854    11888    11909    11890    11851    11804 
   11753    11716    11703    11703    11691    11669    11670    11699 
   11719    11716    11685    11618    11520    11411    11314    11238 
   11169    11121    11117    11155    11203    11256    11303    11334 
   11356    11380    11418    11456    11472    11476    11487    11489 
   11483    11480    11461    11414    11394    11423    11449    11453 
   11456    11433    11398    11398    11435    11475    11480    11466 
   11442    11391    11344    11283    11175    11070    10998    10943 
   10932    10979    11034    11084    11151    11214    11260    11298 
   11318    11304    11265    11223    11171    11102    11044    11010 
   10982    10967    10986    11028    11072    11122    11187    11253 
   11304    11329    11331    11311    11267    11226    11215    11214 
   11200    11182    11169    11153    11136    11136    11152    11153 
   11136    11111    11084    11068    11074    11086    11103    11141 
   11186    11230    11290    11368    11443    11514    11605    11718 
   11812    11882    11942    11985    12000    11982    11932    11854 
   11747    11619    11496    11385    11275    11167    11076    10984 
   10881    10801    10766    10760    10741    10675    10577    10453 
   10304    10168    10058     9960     9876     9809     9763     9737 
    9737     9787     9884     9999    10119    10243    10361    10462 
   10535    10586    10627    10660    10714    10804    10920    11061 
   11230    11407    11560    11673    11754    11815    11867    11924 
   11975    11990    11985    11989    12001    12033    12105    12213 
   12348    12498    12618    12680    12695    12680    12625    12546 
   12461    12356    12232    12118    12036    11981    11936    11904 
   11880    11846    11815    11823    11869    11921    11975    12033 
   12078    12098    12093    12048    11963    11870    11784    11712 
   11645    11574    11504    11443    11395    11344    11281    11223 
   11176    11113    11029    10953    10891    10848    10818    10804 
   10813    10848    10901    10967    11043    11122    11199    11286 
   11387    11487    11600    11727    11817    11854    11842    11773 
   11666    11574    11507    11445    11395    11360    11322    11277 
   11245    11223    11210    11205    11202    11194    11194    11203 
   11195    11144    11053    10940    10812    10708    10655    10623 
   10623    10677    10736    10790    10879    10997    11124    11279 
   11453    11611    11751    11878    11979    12058    12117    12155 
   12183    12193    12156    12066    11954    11836    11712    11581 
   11460    11357    11269    11199    11160    11155    11168    11194 
   11218    11225    11226    11219    11200    11188    11176    11153 
   11140    11138    11134    11111    11059    10983    10883    10786 
   10729    10704    10694    10700    10701    10675    10627    10573 
   10534    10532    10571    10643    10748    10893    11055    11194 
   11290    11342    11340    11286    11173    10994    10778    10577 
   10431    10347    10311    10312    10347    10390    10444    10528 
   10640    10779    10926    11044    11087    11059    11001    10928 
   10862    10820    10773    10713    10675    10673    10712    10782 
   10867    10949    11013    11061    11110    11176    11288    11462 
   11670    11873    12051    12174    12226    12232    12186    12066 
   11886    11686    11510    11380    11290    11221    11167    11137 
   11129    11157    11234    11357    11516    11693    11878    12036 
   12133    12177    12185    12162    12120    12077    12050    12054 
   12073    12079    12048    11963    11846    11734    11662    11650 
   11708    11831    12005    12214    12436    12642    12810    12911 
   12934    12892    12795    12652    12475    12260    12031    11809 
   11611    11452    11319    11198    11082    10959    10817    10662 
   10525    10454    10466    10552    10705    10882    11016    11098 
   11156    11190    11203    11213    11229    11252    11263    11249 
   11214    11173    11130    11068    10991    10903    10802    10696 
   10581    10457    10332    10214    10098    10007     9969     9987 
   10046    10139    10268    10403    10509    10592    10667    10762 
   10894    11037    11172    11303    11416    11519    11631    11735 
   11794    11803    11776    11734    11695    11658    11623    11587 
   11530    11456    11388    11337    11303    11286    11290    11319 
   11348    11365    11368    11335    11271    11213    11198    11240 
   11327    11452    11591    11696    11750    11772    11782    11788 
   11793    11817    11853    11871    11882    11897    11924    11988 
   12098    12221    12320    12376    12390    12370    12334    12294 
   12235    12141    12023    11893    11761    11626    11489    11364 
   11283    11271    11318    11391    11461    11503    11510    11504 
   11506    11514    11534    11556    11549    11499    11416    11319 
   11237    11190    11178    11202    11252    11300    11337    11364 
   11369    11364    11349    11307    11245    11183    11124    11079 
   11053    11047    11025    10940    10808    10658    10486    10342 
   10243    10141    10034     9968     9938     9930     9958    10014 
   10065    10106    10153    10211    10264    10303    10323    10312 
   10277    10254    10257    10291    10359    10451    10546    10624 
   10687    10744    10812    10905    10998    11053    11057    10991 
   10879    10800    10786    10832    10937    11084    11238    11376 
   11496    11593    11662    11700    11716    11722    11727    11740 
   11759    11781    11781    11735    11672    11614    11547    11499 
   11477    11443    11412    11427    11480    11558    11662    11776 
   11890    11989    12046    12066    12074    12090    12124    12182 
   12263    12340    12395    12441    12482    12507    12526    12526 
   12486    12410    12329    12252    12166    12052    11909    11761 
   11623    11507    11423    11350    11267    11192    11142    11114 
   11132    11188    11254    11319    11396    11511    11665    11834 
   11989    12096    12129    12113    12064    11990    11940    11951 
   11977    11985    11978    11955    11924    11888    11828    11757 
   11684    11610    11530    11450    11375    11292    11218    11172 
   11130    11072    11003    10917    10787    10615    10423    10255 
   10153    10123    10146    10212    10309    10427    10565    10719 
   10876    11018    11132    11210    11246    11246    11200    11092 
   10935    10756    10588    10451    10362    10322    10330    10388 
   10500    10640    10787    10929    11048    11130    11180    11221 
   11271    11317    11334    11307    11236    11148    11084    11052 
   11026    11003    11003    11024    11053    11098    11156    11217 
   11273    11323    11360    11380    11406    11434    11441    11421 
   11380    11330    11298    11300    11337    11404    11491    11566 
   11604    11614    11620    11623    11634    11658    11662    11635 
   11588    11529    11470    11408    11340    11265    11196    11144 
   11110    11109    11153    11229    11323    11446    11587    11728 
   11858    11969    12051    12097    12116    12120    12098    12066 
   12037    12008    11970    11917    11842    11736    11605    11472 
   11362    11263    11168    11106    11082    11075    11078    11071 
   11056    11051    11064    11105    11169    11218    11232    11223 
   11190    11145    11124    11124    11118    11098    11047    10974 
   10920    10902    10917    10963    11036    11105    11146    11144 
   11094    11029    10987    10972    10989    11034    11095    11159 
   11213    11252    11299    11371    11446    11518    11578    11612 
   11620    11605    11560    11503    11457    11392    11310    11259 
   11245    11248    11287    11364    11445    11500    11522    11522 
   11522    11523    11522    11531    11539    11518    11475    11419 
   11340    11241    11132    11024    10943    10883    10836    10802 
   10785    10797    10836    10901    11002    11140    11295    11445 
   11580    11689    11769    11819    11811    11742    11647    11534 
   11419    11337    11288    11254    11242    11236    11209    11161 
   11110    11070    11047    11041    11070    11142    11238    11349 
   11487    11628    11738    11793    11797    11776    11736    11705 
   11730    11803    11881    11965    12051    12091    12078    12035 
   11966    11873    11784    11707    11639    11591    11560    11543 
   11539    11538    11519    11473    11380    11256    11128    11003 
   10889    10806    10756    10716    10683    10675    10690    10739 
   10828    10949    11099    11265    11426    11570    11691    11772 
   11807    11790    11709    11566    11377    11157    10925    10710 
   10544    10432    10374    10366    10386    10422    10471    10517 
   10567    10609    10624    10629    10636    10621    10611    10633 
   10660    10678    10687    10670    10623    10569    10517    10489 
   10478    10457    10434    10442    10497    10585    10694    10832 
   10984    11133    11280    11412    11508    11564    11585    11587 
   11572    11539    11491    11426    11341    11264    11222    11205 
   11233    11325    11443    11577    11738    11916    12096    12251 
   12360    12425    12445    12434    12418    12397    12353    12297 
   12232    12141    12040    11934    11786    11603    11403    11198 
   11003    10863    10800    10802    10863    10975    11101    11210 
   11306    11389    11458    11511    11550    11593    11649    11696 
   11723    11736    11718    11659    11581    11485    11367    11232 
   11080    10926    10791    10697    10642    10615    10624    10669 
   10743    10871    11049    11253    11470    11672    11828    11943 
   12019    12064    12077    12043    11977    11898    11826    11790 
   11816    11890    11974    12047    12102    12141    12159    12139 
   12093    12040    11981    11923    11869    11809    11731    11618 
   11479    11337    11215    11145    11117    11107    11134    11191 
   11250    11317    11375    11373    11319    11254    11194    11128 
   11075    11038    10995    10941    10894    10864    10872    10897 
   10914    10943    10975    11001    11037    11072    11086    11097 
   11105    11115    11138    11155    11167    11186    11188    11171 
   11145    11118    11103    11122    11161    11203    11244    11265 
   11264    11265    11279    11284    11264    11240    11226    11198 
   11159    11126    11090    11049    11024    11009    10998    10991 
   10986    10993    11006    11010    11010    10995    10953    10898 
   10835    10781    10762    10760    10785    10859    10953    11033 
   11105    11176    11249    11325    11381    11421    11458    11480 
   11480    11476    11443    11380    11306    11225    11160    11114 
   11079    11072    11095    11149    11225    11300    11380    11462 
   11526    11591    11670    11755    11854    11948    12024    12101 
   12179    12262    12353    12415    12438    12432    12357    12245 
   12160    12078    11990    11929    11869    11797    11743    11699 
   11645    11592    11543    11503    11472    11437    11408    11375 
   11314    11236    11145    11048    10970    10914    10878    10870 
   10875    10883    10878    10852    10812    10755    10706    10692 
   10692    10700    10737    10795    10868    10964    11055    11117 
   11151    11138    11111    11099    11074    11034    11007    11007 
   11038    11099    11203    11344    11480    11605    11726    11831 
   11908    11961    11996    11986    11919    11812    11692    11570 
   11445    11331    11257    11202    11159    11138    11118    11082 
   11044    11018    11007    10993    10949    10870    10782    10721 
   10678    10635    10589    10554    10538    10547    10585    10639 
   10702    10785    10885    10987    11082    11161    11213    11225 
   11211    11191    11182    11206    11276    11371    11464    11565 
   11678    11797    11935    12067    12156    12228    12302    12359 
   12395    12422    12436    12436    12428    12414    12384    12333 
   12255    12155    12037    11893    11728    11573    11443    11334 
   11260    11229    11229    11253    11281    11284    11272    11269 
   11276    11280    11298    11334    11340    11299    11245    11182 
   11122    11106    11133    11184    11263    11360    11473    11591 
   11685    11749    11774    11761    11716    11654    11591    11522 
   11441    11360    11286    11230    11202    11176    11141    11103 
   11067    11049    11055    11084    11110    11109    11118    11152 
   11200    11281    11385    11468    11512    11523    11502    11454 
   11376    11260    11105    10910    10692    10471    10262    10110 
   10031     9983     9949     9933     9911     9879     9828     9753 
    9676     9593     9501     9431     9402     9400     9424     9495 
    9601     9724     9863    10017    10181    10351    10521    10696 
   10872    11037    11180    11300    11398    11472    11547    11635 
   11724    11815    11916    12020    12091    12124    12144    12145 
   12118    12101    12097    12087    12094    12127    12158    12183 
   12204    12206    12190    12175    12163    12155    12172    12224 
   12289    12363    12440    12498    12530    12545    12559    12584 
   12621    12658    12688    12699    12702    12692    12646    12565 
   12468    12348    12214    12094    11974    11847    11749    11680 
   11632    11612    11607    11601    11591    11574    11553    11514 
   11452    11350    11218    11092    10990    10918    10878    10859 
   10852    10858    10879    10929    11007    11095    11186    11286 
   11365    11418    11466    11500    11523    11558    11591    11599 
   11577    11527    11461    11384    11303    11211    11118    11047 
   11002    10970    10955    10980    11037    11109    11183    11232 
   11250    11253    11240    11192    11117    11036    10955    10890 
   10840    10781    10725    10690    10659    10648    10658    10650 
   10621    10582    10515    10415    10307    10215    10130    10049 
   10004    10008    10037    10089    10204    10368    10531    10706 
   10917    11117    11277    11418    11545    11653    11724    11767 
   11817    11865    11907    11944    11947    11911    11853    11786 
   11724    11685    11657    11624    11591    11565    11550    11545 
   11556    11596    11649    11705    11774    11826    11830    11799 
   11736    11638    11537    11460    11379    11272    11152    11010 
   10833    10639    10455    10315    10228    10180    10188    10250 
   10315    10361    10416    10490    10586    10694    10802    10920 
   11017    11084    11168    11268    11364    11456    11547    11653 
   11766    11863    11935    11981    11994    11969    11923    11867 
   11793    11707    11605    11476    11342    11238    11172    11126 
   11101    11109    11130    11142    11151    11168    11195    11218 
   11246    11298    11345    11381    11430    11465    11483    11511 
   11526    11523    11533    11547    11554    11562    11585    11632 
   11681    11713    11735    11745    11750    11766    11786    11805 
   11812    11790    11746    11688    11620    11564    11511    11452 
   11404    11362    11291    11215    11153    11094    11061    11068 
   11095    11137    11209    11314    11416    11489    11539    11569 
   11576    11570    11581    11604    11622    11661    11732    11793 
   11839    11896    11947    11990    12044    12101    12140    12155 
   12141    12086    11988    11871    11757    11645    11538    11439 
   11341    11241    11148    11049    10963    10913    10882    10864 
   10876    10920    10994    11078    11141    11191    11244    11286 
   11310    11314    11306    11300    11303    11327    11372    11429 
   11491    11539    11568    11610    11685    11766    11816    11823 
   11794    11753    11713    11701    11716    11722    11697    11654 
   11599    11529    11433    11321    11205    11071    10932    10805 
   10685    10570    10470    10377    10295    10214    10138    10077 
   10034    10017    10034    10065    10104    10176    10273    10361 
   10443    10527    10593    10652    10719    10777    10829    10881 
   10903    10878    10824    10756    10681    10609    10550    10519 
   10536    10585    10654    10759    10889    11018    11156    11286 
   11375    11434    11454    11422    11364    11304    11263    11249 
   11271    11344    11454    11572    11707    11853    11998    12155 
   12298    12405    12469    12469    12403    12306    12193    12064 
   11924    11778    11655    11574    11534    11527    11542    11535 
   11500    11470    11453    11442    11434    11422    11415    11435 
   11487    11553    11632    11727    11804    11843    11867    11878 
   11862    11840    11820    11796    11762    11707    11641    11565 
   11462    11344    11221    11084    10941    10798    10655    10538 
   10455    10415    10419    10446    10496    10578    10674    10762 
   10832    10875    10898    10925    10975    11045    11118    11179 
   11211    11209    11191    11171    11121    11041    10970    10922 
   10893    10891    10910    10935    10963    10999    11049    11114 
   11186    11248    11283    11277    11230    11159    11079    11006 
   10943    10890    10866    10870    10885    10925    10998    11088 
   11198    11327    11469    11619    11776    11958    12166    12347 
   12484    12606    12714    12795    12846    12872    12879    12858 
   12823    12792    12761    12718    12656    12591    12542    12501 
   12468    12445    12421    12417    12447    12480    12488    12483 
   12465    12422    12370    12310    12244    12199    12166    12127 
   12093    12060    12033    12010    11959    11888    11800    11680 
   11569    11484    11377    11244    11099    10928    10735    10547 
   10368    10193    10037     9903     9790     9697     9641     9632 
    9641     9670     9736     9814     9892     9972    10035    10093 
   10146    10195    10257    10308    10341    10390    10471    10581 
   10714    10870    11029    11148    11229    11287    11292    11257 
   11215    11144    11052    10984    10945    10926    10929    10944 
   10968    10999    11026    11041    11043    11036    11032    11032 
   11030    11038    11056    11084    11142    11227    11308    11365 
   11388    11372    11330    11288    11252    11202    11137    11076 
   11021    10963    10895    10820    10747    10670    10578    10505 
   10457    10403    10351    10323    10323    10366    10473    10625 
