Origin Time       2024/04/02 04:24:00
Lat.              40.133
Long.             141.712
Depth. (km)       71
Mag.              6.0
Station Code      YMT006
Station Lat.      38.6001
Station Long.     140.4057
Station Height(m) 96
Record Time       2024/04/02 04:25:34
Sampling Freq(Hz) 100Hz
Duration Time(s)  70
Dir.              U-D
Scale Factor      7845(gal)/8223790
Max. Acc. (gal)   1.366
Last Correction   2024/04/02 04:25:35
Memo.             
[...]
   14374    14662    14775    14710    14818    15140    15396    15520 
   15645    15647    15375    15098    15068    15066    14850    14620 
   14658    14817    14841    14816    14867    14932    14989    15099 
   15221    15303    15391    15412    15277    15165    15246    15345 
   15267    15107    14982    14854    14709    14528    14337    14305 
   14500    14755    14935    15086    15283    15412    15314    15103 
   15022    15007    14835    14584    14488    14513    14573    14715 
   14887    14959    14886    14747    14661    14513    14196    13990 
   14058    14206    14350    14575    14881    15152    15275    15323 
   15372    15218    14848    14600    14488    14264    14083    14154 
   14274    14299    14359    14559    14871    15122    15145    14968 
   14682    14404    14218    14002    13738    13657    13821    14170 
   14620    14863    14771    14646    14519    14206    13905    13768 
   13686    13741    13976    14207    14408    14530    14439    14297 
   14203    14054    14044    14327    14652    14812    14883    14980 
   15140    15314    15360    15236    15124    15090    14951    14677 
   14526    14582    14665    14706    14694    14521    14307    14358 
   14656    14854    14816    14809    14989    15147    15111    15056 
   15137    15246    15284    15310    15360    15438    15589    15759 
   15839    15788    15588    15331    15201    15186    15194    15238 
   15282    15253    15196    15199    15230    15202    15061    14816 
   14607    14546    14420    14143    14073    14334    14592    14762 
   14983    15103    15043    15014    14972    14763    14540    14416 
   14364    14403    14457    14447    14476    14609    14724    14685 
   14593    14666    14859    14897    14744    14634    14659    14742 
   14779    14685    14542    14586    14783    14863    14889    15045 
   15114    14971    14790    14605    14416    14350    14422    14534 
   14736    15090    15412    15543    15611    15639    15457    15182 
   15084    15053    14860    14648    14627    14723    14804    14859 
   14936    15132    15438    15587    15434    15272    15317    15307 
   15030    14662    14434    14440    14678    14975    15055    14872 
   14696    14763    14967    15030    14882    14613    14422    14465 
   14598    14632    14628    14697    14845    14951    14922    14839 
   14710    14478    14261    14207    14220    14162    14146    14283 
   14362    14261    14220    14349    14494    14555    14543    14569 
   14601    14515    14504    14729    14966    15115    15240    15169 
   14899    14746    14701    14513    14312    14335    14413    14399 
   14454    14602    14678    14631    14512    14504    14702    14801 
   14670    14619    14692    14640    14566    14736    14986    15021 
   14987    15090    15149    14979    14771    14781    14820    14640 
   14458    14411    14450    14705    14985    14944    14852    14990 
   15132    15176    15230    15194    14974    14720    14588    14608 
   14671    14719    14862    14993    14939    14864    14833    14702 
   14554    14508    14565    14679    14769    14870    15034    15178 
   15244    15186    15039    15018    15136    15169    15072    15001 
   14964    14836    14748    14839    14829    14619    14509    14601 
   14731    14774    14818    14994    15125    14949    14594    14368 
   14249    14071    14062    14431    14836    14985    14986    14989 
   15003    14932    14715    14446    14249    14183    14239    14357 
   14523    14750    14970    15115    15213    15267    15195    15030 
   14879    14690    14478    14432    14569    14744    14905    15056 
   15130    15071    14975    14917    14855    14751    14596    14473 
   14480    14574    14748    15016    15233    15269    15195    15103 
   14987    14801    14526    14304    14338    14509    14566    14538 
   14536    14593    14731    14856    14841    14781    14791    14821 
   14862    14968    15024    14922    14806    14824    14912    14879 
   14677    14486    14488    14654    14840    14948    14932    14750 
   14478    14339    14435    14611    14719    14823    14928    14867 
   14636    14412    14301    14327    14376    14365    14413    14458 
   14330    14203    14300    14490    14565    14521    14497    14530 
   14553    14616    14728    14689    14548    14582    14713    14721 
   14650    14646    14744    14837    14864    14893    14936    14958 
   14949    14939    14939    14867    14693    14555    14570    14750 
   15024    15238    15286    15232    15157    15068    15001    14968 
   14939    15001    15179    15276    15233    15174    15179    15246 
   15240    15072    14917    14947    15071    15144    15184    15257 
   15346    15383    15313    15118    14860    14729    14798    14882 
   14908    14994    15126    15214    15218    15149    15047    14864 
   14571    14332    14253    14281    14370    14496    14662    14801 
   14775    14662    14701    14914    15028    14906    14756    14646 
   14436    14258    14297    14397    14392    14439    14712    15075 
   15219    15087    14941    14885    14785    14683    14612    14426 
   14243    14319    14557    14723    14771    14860    15049    15064 
   14779    14503    14354    14189    14091    14195    14331    14381 
   14481    14642    14770    14881    14974    15060    15160    15147 
   15022    14978    14979    14908    14801    14706    14698    14809 
   14944    15091    15209    15215    15221    15233    15130    15024 
   14939    14739    14588    14582    14489    14341    14343    14380 
   14366    14494    14713    14774    14748    14824    14943    14958 
   14843    14674    14592    14702    14885    14944    14939    14951 
   14916    14918    15082    15286    15383    15398    15340    15128 
   14829    14671    14702    14729    14692    14743    14885    14971 
   14966    14902    14809    14715    14608    14535    14546    14550 
   14566    14731    15036    15340    15492    15518    15538    15523 
   15461    15399    15296    15188    15097    14913    14705    14639 
   14640    14615    14650    14775    14862    14793    14596    14386 
   14246    14218    14220    14162    14091    13996    13896    13981 
   14299    14613    14715    14585    14361    14193    14096    14022 
   13975    13968    14108    14454    14773    14933    14994    14925 
   14796    14759    14796    14848    14883    14847    14779    14831 
   15051    15168    14956    14678    14623    14678    14706    14725 
   14717    14624    14501    14551    14747    14806    14685    14532 
   14431    14466    14627    14759    14779    14678    14418    14067 
   13914    14045    14187    14312    14598    14832    14851    14951 
   15137    15072    14818    14671    14656    14674    14752    14902 
   15072    15250    15291    15138    15039    14991    14798    14620 
   14632    14638    14467    14307    14423    14670    14732    14735 
   14890    15005    14970    14925    14839    14690    14648    14704 
   14666    14555    14559    14619    14547    14467    14512    14553 
   14555    14536    14393    14274    14393    14558    14530    14404 
   14376    14449    14557    14758    15018    15164    15265    15452 
   15588    15566    15423    15184    14955    14860    14863    14901 
   15022    15202    15290    15294    15399    15537    15434    15110 
   14816    14721    14855    15059    15120    15013    14935    14994 
   15043    14987    14856    14689    14575    14536    14616    14852 
   14980    14871    14805    14872    14886    14766    14605    14539 
   14539    14509    14463    14412    14399    14521    14740    14925 
   14978    14901    14877    15006    15086    14980    14831    14785 
   14879    15022    14994    14848    14897    15049    14983    14808 
   14781    14817    14791    14798    14881    14941    14944    14926 
   14921    14909    14840    14744    14643    14566    14635    14816 
   14891    14847    14796    14705    14623    14737    14940    14929 
   14809    14837    14963    15136    15400    15546    15369    15083 
   14974    14962    14855    14679    14575    14609    14732    14893 
   15063    15136    15103    15102    15140    15147    15126    15114 
   15145    15188    15199    15230    15252    15125    14912    14771 
   14690    14623    14590    14559    14492    14386    14281    14229 
   14242    14330    14493    14623    14597    14494    14515    14635 
   14659    14601    14617    14739    14882    14912    14740    14439 
   14180    14098    14188    14341    14463    14585    14732    14802 
   14774    14747    14696    14598    14562    14511    14319    14123 
   14099    14207    14289    14243    14121    14054    14091    14168 
   14230    14292    14419    14674    15039    15291    15279    15196 
   15207    15138    14939    14806    14824    14926    15021    15066 
   15070    15002    14858    14675    14450    14237    14184    14326 
   14517    14636    14677    14692    14740    14855    14979    15060 
   15144    15263    15348    15294    15095    14840    14631    14581 
   14678    14732    14689    14662    14669    14685    14733    14742 
   14608    14439    14422    14505    14570    14692    14816    14791 
   14735    14771    14828    14845    14804    14797    14959    15111 
   15097    15117    15194    15064    14775    14608    14588    14604 
   14677    14827    15012    15099    14974    14875    14970    14898 
   14571    14381    14407    14400    14323    14338    14473    14643 
   14895    15206    15317    15202    15093    15055    15043    15049 
   15028    14993    15028    15099    15101    15006    14924    14926 
   14921    14832    14716    14624    14619    14754    14893    14852 
   14717    14644    14607    14596    14673    14800    14879    14910 
   14935    14926    14859    14762    14617    14457    14446    14573 
   14620    14609    14673    14739    14801    14921    14989    14960 
   14944    14976    15022    15076    15113    15040    14832    14639 
   14619    14746    14870    14916    14909    14889    14925    15024 
   15066    15020    14922    14786    14727    14847    14997    14990 
   14928    14993    15053    14905    14682    14590    14628    14716 
   14732    14634    14551    14557    14559    14524    14553    14677 
   14805    14885    14877    14769    14658    14582    14524    14573 
   14719    14831    14878    14872    14841    14877    14971    14953 
   14782    14670    14725    14810    14840    14856    14854    14812 
   14817    14886    14850    14720    14732    14852    14882    14872 
   14918    14871    14627    14431    14469    14521    14474    14521 
   14705    14843    14848    14805    14742    14624    14536    14512 
   14478    14520    14686    14832    14952    15153    15340    15340 
   15238    15263    15368    15380    15326    15269    15198    15152 
   15178    15195    15098    14962    14905    14870    14744    14542 
   14358    14219    14110    14056    14062    14099    14195    14395 
   14634    14767    14715    14530    14392    14381    14381    14320 
   14297    14416    14609    14669    14554    14463    14488    14524 
   14558    14592    14539    14457    14519    14650    14673    14689 
   14828    14952    14956    14887    14823    14825    14859    14841 
   14771    14692    14656    14705    14808    14883    14859    14777 
   14755    14766    14724    14712    14747    14710    14698    14827 
   14953    14959    14864    14721    14588    14507    14486    14463 
   14427    14449    14493    14551    14678    14774    14740    14647 
   14611    14686    14771    14796    14901    15087    15134    14968 
   14736    14563    14445    14343    14295    14372    14551    14706 
   14791    14889    14990    14968    14818    14696    14667    14650 
   14602    14616    14739    14931    15156    15375    15473    15411 
   15333    15314    15259    15156    15094    15072    15080    15113 
   15157    15252    15319    15314    15399    15500    15357    15132 
   15078    15114    15138    15167    15191    15242    15321    15385 
   15481    15584    15562    15445    15323    15186    15043    14976 
   15012    15066    15082    15114    15151    15109    15029    14990 
   14937    14812    14670    14588    14542    14504    14566    14735 
   14835    14833    14860    14877    14809    14747    14702    14573 
   14438    14430    14501    14536    14519    14535    14613    14656 
   14613    14536    14488    14472    14445    14368    14292    14315 
   14457    14628    14729    14739    14654    14484    14303    14168 
   14084    14052    14060    14116    14234    14311    14246    14195 
   14295    14347    14249    14170    14134    14084    14087    14103 
   14062    14052    14176    14354    14389    14326    14345    14355 
   14262    14168    14088    14017    14040    14137    14212    14256 
   14310    14427    14613    14771    14829    14821    14793    14787 
   14839    14863    14806    14827    14987    15114    15099    14989 
   14885    14879    14940    14970    14898    14760    14704    14732 
   14646    14454    14380    14396    14316    14192    14181    14233 
   14253    14350    14578    14782    14868    14928    15084    15345 
   15557    15589    15526    15506    15515    15485    15449    15438 
   15404    15414    15608    15857    15934    15965    16102    16208 
   16163    16000    15753    15489    15337    15336    15388    15445 
   15515    15533    15475    15437    15434    15387    15250    15043 
   14850    14724    14643    14675    14820    14874    14789    14717 
   14704    14701    14678    14648    14643    14642    14650    14712 
   14817    14899    14902    14827    14742    14688    14650    14612 
   14532    14419    14378    14392    14327    14219    14154    14099 
   14029    13990    14019    14092    14148    14224    14401    14604 
   14712    14740    14742    14713    14689    14713    14723    14650 
   14620    14747    14921    15032    15103    15152    15175    15192 
   15195    15178    15145    15040    14879    14789    14755    14635 
   14488    14477    14570    14639    14670    14743    14856    14913 
   14902    14854    14746    14616    14562    14569    14569    14596 
   14678    14785    14886    14883    14731    14573    14497    14439 
   14401    14427    14515    14670    14824    14897    14931    14933 
   14827    14596    14381    14295    14214    14056    13981    14006 
   14002    14030    14156    14289    14393    14486    14517    14500 
   14567    14685    14706    14702    14778    14837    14814    14812 
   14874    14909    14864    14802    14789    14773    14725    14763 
   14885    14891    14786    14762    14801    14800    14847    14987 
   15094    15130    15182    15267    15276    15168    15070    15067 
   15111    15176    15246    15286    15330    15402    15450    15487 
   15552    15572    15491    15384    15325    15259    15133    15037 
   15047    15061    15009    14998    15059    15056    14979    14904 
   14800    14669    14569    14532    14574    14609    14546    14477 
   14446    14376    14287    14243    14266    14337    14374    14341 
   14268    14156    14040    14014    14069    14134    14185    14196 
   14183    14249    14366    14423    14432    14457    14486    14505 
   14484    14416    14354    14319    14297    14314    14413    14569 
   14692    14754    14831    14960    15051    15020    14906    14797 
   14698    14521    14315    14288    14449    14602    14710    14800 
   14827    14818    14816    14746    14577    14458    14540    14725 
   14864    14993    15136    15248    15318    15318    15267    15210 
   15122    15043    15063    15128    15126    15063    15016    14968 
   14864    14801    14851    14909    14894    14844    14833    14893 
   14960    14949    14875    14814    14798    14793    14769    14778 
   14897    15120    15342    15473    15547    15587    15503    15298 
   15083    14913    14812    14843    14978    15070    15111    15211 
   15346    15429    15442    15392    15283    15156    15036    14953 
   14906    14859    14847    14924    14995    14990    14926    14808 
   14686    14613    14528    14451    14446    14484    14526    14538 
   14543    14588    14623    14681    14813    14901    14883    14863 
   14939    15071    15120    15068    15026    14989    14881    14777 
   14808    14926    14944    14844    14800    14787    14682    14569 
   14557    14608    14663    14671    14666    14724    14760    14694 
   14636    14656    14673    14655    14673    14701    14655    14588 
   14550    14496    14428    14355    14270    14234    14250    14274 
   14328    14411    14512    14655    14752    14715    14631    14578 
   14524    14488    14523    14600    14636    14669    14790    14940 
   15018    15028    14966    14872    14836    14848    14827    14760 
   14719    14719    14747    14802    14856    14868    14866    14910 
   14953    14933    14918    14953    14937    14786    14586    14482 
   14467    14459    14482    14584    14709    14791    14823    14794 
   14690    14582    14528    14473    14411    14395    14386    14361 
   14374    14397    14384    14389    14438    14485    14513    14534 
   14544    14530    14546    14643    14727    14713    14648    14571 
   14469    14385    14384    14462    14546    14573    14597    14634 
   14612    14592    14663    14732    14719    14677    14654    14709 
   14813    14832    14835    14979    15178    15353    15537    15615 
   15581    15600    15627    15543    15453    15419    15379    15352 
   15394    15477    15512    15483    15460    15427    15333    15226 
   15147    15115    15164    15226    15223    15184    15180    15198 
   15178    15140    15060    14904    14810    14840    14839    14740 
   14612    14523    14555    14650    14623    14520    14500    14557 
   14601    14604    14581    14515    14389    14272    14223    14202 
   14200    14265    14357    14378    14349    14382    14472    14485 
   14408    14370    14405    14458    14542    14642    14700    14733 
   14731    14662    14596    14581    14550    14455    14370    14357 
   14376    14382    14385    14418    14493    14578    14634    14671 
   14661    14570    14470    14419    14418    14477    14569    14640 
   14694    14743    14758    14742    14766    14847    14912    14935 
   14964    15005    14995    14940    14955    15053    15110    15088 
   15048    14986    14901    14840    14841    14847    14785    14710 
   14682    14651    14628    14678    14759    14814    14852    14862 
   14858    14889    14901    14848    14844    14939    14982    14940 
   14952    15001    14939    14760    14585    14428    14238    14091 
   14073    14116    14134    14164    14264    14407    14497    14509 
   14527    14571    14548    14507    14600    14771    14821    14797 
   14871    14991    15041    15041    14991    14877    14750    14661 
   14636    14647    14620    14582    14617    14712    14818    14958 
   15103    15178    15148    15071    14999    14917    14856    14874 
