Origin Time       2024/04/02 04:24:00
Lat.              40.133
Long.             141.712
Depth. (km)       71
Mag.              6.0
Station Code      YMT006
Station Lat.      38.6001
Station Long.     140.4057
Station Height(m) 96
Record Time       2024/04/02 04:25:34
Sampling Freq(Hz) 100Hz
Duration Time(s)  70
Dir.              E-W
Scale Factor      7845(gal)/8223790
Max. Acc. (gal)   2.592
Last Correction   2024/04/02 04:25:35
Memo.             
[...]
   14142    14184    14162    14139    14168    14261    14396    14528 
   14643    14755    14858    14898    14870    14844    14845    14797 
   14650    14432    14161    13844    13555    13374    13292    13230 
   13163    13150    13200    13262    13343    13455    13524    13517 
   13501    13532    13622    13756    13914    14060    14166    14251 
   14361    14512    14669    14771    14777    14694    14571    14432 
   14274    14131    14056    14064    14127    14179    14189    14189 
   14191    14181    14172    14165    14160    14175    14212    14264 
   14373    14542    14663    14698    14727    14775    14775    14720 
   14667    14617    14536    14451    14401    14374    14366    14399 
   14457    14499    14499    14473    14436    14364    14258    14160 
   14096    14065    14067    14107    14170    14227    14281    14305 
   14247    14142    14023    13860    13668    13541    13506    13497 
   13479    13493    13570    13737    13995    14258    14445    14608 
   14820    15044    15214    15360    15488    15553    15580    15606 
   15570    15421    15211    15026    14856    14644    14393    14125 
   13842    13576    13373    13235    13157    13143    13150    13124 
   13109    13178    13336    13556    13798    14018    14193    14322 
   14413    14517    14669    14816    14889    14895    14889    14868 
   14794    14654    14478    14280    14080    13905    13736    13575 
   13504    13536    13574    13575    13583    13563    13490    13460 
   13491    13482    13402    13329    13302    13284    13275    13324 
   13419    13500    13510    13470    13462    13516    13566    13574 
   13590    13671    13794    13917    14033    14118    14122    14054 
   13980    13918    13799    13599    13410    13297    13228    13188 
   13176    13163    13154    13197    13331    13525    13718    13869 
   14010    14222    14500    14748    14924    15056    15176    15307 
   15458    15596    15622    15492    15282    15066    14868    14688 
   14539    14416    14261    14060    13860    13711    13614    13528 
   13493    13563    13663    13707    13725    13790    13923    14104 
   14310    14517    14727    14944    15144    15288    15404    15514 
   15531    15414    15259    15153    15070    14971    14881    14809 
   14733    14658    14563    14411    14226    14065    13938    13815 
   13626    13324    12968    12650    12414    12293    12297    12372 
   12486    12669    12899    13088    13266    13505    13767    13994 
   14177    14261    14177    14006    13894    13863    13871    13927 
   14019    14100    14180    14246    14220    14123    14072    14052 
   13959    13825    13724    13620    13497    13404    13302    13143 
   13015    13019    13136    13309    13548    13848    14135    14395 
   14677    14971    15245    15493    15692    15863    16043    16174 
   16218    16209    16144    15971    15649    15199    14721    14304 
   13995    13778    13597    13436    13344    13344    13409    13487 
   13512    13450    13356    13288    13259    13324    13535    13815 
   14072    14338    14636    14872    14968    14968    14925    14828 
   14720    14690    14723    14698    14557    14338    14122    13934 
   13707    13404    13095    12881    12796    12815    12931    13134 
   13350    13522    13684    13884    14131    14378    14521    14499 
   14361    14243    14246    14395    14634    14831    14891    14837 
   14712    14555    14442    14391    14322    14199    14068    13960 
   13909    13957    14052    14099    14110    14127    14125    14069 
   13953    13803    13695    13674    13732    13833    13923    14015 
   14172    14403    14681    14952    15153    15284    15398    15518 
   15599    15584    15489    15399    15368    15395    15445    15473 
   15426    15253    14960    14584    14134    13639    13142    12673 
   12298    12104    12113    12267    12476    12688    12838    12887 
   12923    13035    13167    13254    13325    13433    13587    13794 
   14069    14377    14627    14744    14702    14531    14289    14007 
   13678    13359    13184    13197    13302    13386    13396    13342 
   13281    13270    13308    13401    13567    13741    13844    13930 
   14112    14380    14634    14814    14970    15133    15246    15233 
   15072    14791    14481    14264    14187    14184    14180    14172 
   14238    14418    14655    14866    14999    15061    15041    14886 
   14573    14150    13748    13532    13559    13752    14045    14431 
   14793    14936    14844    14671    14474    14230    14010    13940 
   14004    14065    14017    13878    13722    13601    13521    13500 
   13567    13684    13761    13736    13613    13486    13450    13493 
   13570    13668    13782    13886    13964    14037    14123    14204 
   14269    14339    14420    14440    14330    14095    13802    13524 
   13312    13185    13154    13211    13332    13500    13711    13956 
   14168    14238    14156    14046    14077    14334    14755    15196 
   15561    15838    16027    16139    16231    16344    16437    16441 
   16313    16046    15688    15369    15202    15114    14955    14728 
   14482    14176    13810    13498    13281    13096    12924    12815 
   12784    12814    12904    13088    13355    13651    13957    14251 
   14445    14496    14463    14439    14476    14574    14698    14825 
   14894    14812    14592    14357    14158    13952    13725    13500 
   13266    13018    12826    12762    12766    12754    12785    12911 
   13063    13171    13234    13290    13344    13366    13375    13439 
   13608    13898    14241    14501    14623    14654    14661    14656 
   14623    14523    14300    13963    13594    13288    13107    13005 
   12839    12553    12240    12075    12195    12596    13155    13741 
   14289    14748    15049    15210    15354    15537    15689    15759 
   15761    15655    15380    14987    14644    14484    14512    14586 
   14508    14253    13975    13810    13783    13856    13973    14041 
   14021    14004    14057    14104    14092    14037    13940    13805 
   13703    13705    13771    13821    13836    13875    14003    14218 
   14427    14569    14663    14719    14737    14760    14763    14647 
   14416    14165    13932    13736    13636    13589    13468    13297 
   13217    13266    13348    13404    13437    13477    13564    13734 
   13919    14008    13981    13883    13753    13678    13760    13988 
   14270    14553    14808    14964    14993    14941    14845    14671 
   14412    14126    13903    13788    13741    13736    13787    13853 
   13875    13856    13834    13810    13755    13703    13703    13759 
   13915    14185    14445    14600    14694    14801    14921    14979 
   14921    14771    14577    14405    14347    14397    14453    14440 
   14377    14326    14358    14503    14739    14997    15180    15261 
   15282    15225    15045    14841    14786    14881    14953    14898 
   14720    14442    14142    13921    13761    13590    13429    13358 
   13402    13541    13718    13852    13910    13948    14048    14251 
   14507    14666    14643    14538    14505    14581    14685    14744 
   14758    14751    14731    14694    14632    14527    14373    14177 
   13999    13936    13973    13994    13932    13822    13747    13801 
   14026    14307    14480    14540    14553    14484    14292    14023 
   13757    13570    13464    13360    13244    13197    13269    13451 
   13702    13946    14115    14203    14272    14376    14512    14670 
   14804    14804    14632    14372    14100    13859    13666    13475 
   13217    12914    12636    12438    12384    12502    12708    12899 
   13024    13082    13128    13257    13490    13733    13899    14038 
   14208    14376    14492    14534    14473    14345    14231    14146 
   14040    13905    13724    13444    13105    12829    12673    12596 
   12582    12650    12788    12962    13166    13387    13578    13713 
   13821    13963    14179    14435    14656    14839    15006    15132 
   15179    15175    15098    14831    14384    13930    13591    13365 
   13234    13194    13201    13224    13339    13613    13998    14435 
   14909    15373    15777    16094    16320    16464    16532    16528 
   16484    16424    16294    16042    15701    15388    15144    14925 
   14696    14435    14135    13844    13610    13462    13450    13587 
   13801    14014    14202    14368    14512    14646    14794    14918 
   14948    14881    14755    14616    14512    14463    14434    14366 
   14266    14164    14067    13977    13922    13905    13863    13734 
   13563    13420    13311    13204    13096    13005    12949    12943 
   13008    13138    13275    13367    13414    13470    13585    13730 
   13855    13940    13981    14000    14042    14099    14098    14031 
   13967    13913    13838    13768    13783    13900    14017    14044 
   14058    14142    14272    14412    14542    14623    14663    14713 
   14827    15002    15140    15132    14941    14615    14277    14053 
   13953    13914    13914    13922    13886    13848    13891    13996 
   14069    14054    13934    13720    13473    13298    13228    13209 
   13251    13414    13653    13846    13973    14116    14300    14440 
   14465    14401    14326    14283    14268    14284    14361    14470 
   14503    14373    14104    13776    13467    13248    13136    13051 
   12926    12826    12874    13069    13316    13587    13922    14287 
   14604    14864    15110    15309    15392    15387    15345    15261 
   15136    14999    14829    14601    14377    14214    14067    13905 
   13784    13736    13706    13662    13614    13545    13444    13358 
   13347    13400    13459    13487    13491    13491    13497    13502 
   13560    13728    13944    14161    14420    14708    14926    15029 
   15048    14982    14790    14504    14197    13964    13890    13954 
   14034    14087    14193    14392    14619    14818    14936    14883 
   14631    14270    13936    13709    13602    13555    13490    13428 
   13458    13583    13774    14015    14245    14366    14369    14330 
   14287    14210    14116    14091    14200    14462    14813    15107 
   15265    15353    15426    15462    15458    15387    15171    14813 
   14440    14160    13976    13826    13640    13431    13293    13305 
   13477    13752    14052    14320    14548    14709    14777    14787 
   14800    14825    14859    14921    15028    15140    15191    15153 
   15025    14802    14497    14153    13792    13479    13348    13448 
   13670    13894    14092    14292    14501    14696    14844    14917 
   14877    14706    14463    14229    14011    13753    13444    13173 
   13026    13027    13165    13358    13475    13444    13343    13278 
   13235    13198    13221    13274    13296    13290    13263    13239 
   13289    13446    13649    13809    13865    13749    13451    13132 
   12961    12915    12879    12819    12754    12685    12672    12787 
   12976    13138    13236    13275    13282    13325    13491    13786 
   14114    14405    14678    14944    15159    15268    15225    15024 
   14751    14550    14492    14532    14597    14611    14515    14327 
   14148    14045    14013    14034    14115    14204    14226    14204 
   14234    14362    14534    14678    14779    14845    14890    14941 
   14989    15022    15070    15156    15264    15295    15148    14871 
   14632    14550    14616    14720    14747    14674    14543    14377 
   14223    14156    14166    14170    14115    14014    13930    13941 
   14058    14212    14305    14312    14285    14264    14242    14230 
   14260    14330    14378    14365    14289    14183    14099    14054 
   14018    14000    14015    14022    13971    13875    13749    13560 
   13304    13035    12823    12722    12757    12899    13066    13201 
   13311    13435    13598    13809    14031    14184    14249    14304 
   14411    14554    14685    14771    14774    14681    14553    14493 
   14546    14648    14712    14710    14683    14673    14712    14806 
   14894    14901    14845    14785    14702    14554    14354    14158 
   14008    13919    13871    13817    13714    13568    13419    13324 
   13289    13231    13123    13026    12962    12918    12941    13096 
   13344    13579    13768    13964    14180    14355    14489    14650 
   14890    15195    15520    15805    15938    15827    15542    15222 
   14924    14639    14405    14260    14134    13953    13744    13601 
   13593    13714    13891    14034    14099    14067    13930    13732 
   13585    13581    13698    13853    13980    14061    14083    14042 
   13991    13976    13972    13949    13936    13960    13990    13992 
   13967    13913    13880    13948    14094    14207    14219    14153 
   14067    14014    14052    14208    14457    14710    14897    15026 
   15136    15201    15172    15043    14825    14524    14173    13859 
   13606    13329    12992    12691    12509    12451    12499    12622 
   12746    12833    12923    13081    13301    13541    13786    14000 
   14129    14192    14284    14403    14459    14403    14254    14083 
   13907    13711    13545    13477    13470    13456    13464    13537 
   13644    13748    13855    13949    14002    14034    14139    14377 
   14721    15141    15623    16097    16467    16683    16771    16806 
   16831    16769    16532    16150    15738    15411    15211    15071 
   14920    14759    14609    14504    14509    14631    14756    14756 
   14619    14436    14303    14257    14234    14103    13857    13635 
   13510    13450    13429    13451    13494    13576    13718    13876 
   14022    14185    14345    14432    14443    14438    14442    14420 
   14332    14187    14054    13988    13957    13895    13786    13643 
   13475    13305    13135    12935    12688    12426    12201    12044 
   11967    11986    12104    12280    12495    12741    12982    13215 
   13419    13552    13643    13748    13873    14004    14118    14200 
   14285    14415    14574    14673    14646    14523    14372    14222 
   14099    14018    13926    13803    13718    13707    13709    13666 
   13572    13456    13374    13363    13413    13487    13559    13603 
   13621    13686    13867    14142    14459    14781    15045    15223 
   15329    15357    15307    15176    14949    14658    14368    14118 
   13898    13720    13616    13555    13467    13325    13126    12874 
   12645    12564    12672    12893    13140    13393    13672    13995 
   14376    14790    15159    15426    15589    15639    15562    15404 
   15242    15101    14963    14756    14427    14044    13732    13541 
   13477    13522    13594    13572    13450    13316    13232    13232 
   13359    13555    13693    13741    13734    13714    13745    13859 
   14045    14281    14524    14728    14860    14953    15068    15161 
   15157    15071    14970    14902    14898    14955    15044    15130 
   15196    15219    15160    15026    14895    14801    14694    14543 
   14385    14262    14202    14196    14180    14103    13980    13824 
   13628    13435    13286    13140    12974    12876    12904    12992 
   13096    13254    13460    13648    13788    13918    14091    14296 
   14461    14577    14710    14905    15114    15286    15375    15325 
   15129    14881    14642    14362    14013    13672    13432    13331 
   13373    13497    13628    13717    13747    13738    13733    13743 
   13799    13915    14030    14098    14154    14254    14404    14570 
   14736    14882    14944    14918    14854    14783    14705    14609 
   14499    14384    14237    14025    13756    13464    13185    12978 
   12918    13008    13201    13463    13768    14102    14422    14662 
   14810    14901    14987    15113    15232    15267    15237    15190 
   15106    14980    14862    14739    14546    14256    13903    13558 
   13288    13124    13041    12997    12995    13054    13184    13369 
   13576    13770    13918    14010    14065    14114    14195    14345 
   14544    14748    14940    15097    15183    15191    15102    14879 
   14543    14184    13880    13651    13466    13286    13112    13004 
   13024    13180    13414    13643    13819    13948    14057    14196 
   14376    14530    14597    14570    14473    14372    14327    14326 
   14342    14376    14399    14362    14281    14242    14291    14372 
   14395    14331    14247    14254    14397    14623    14817    14932 
   14991    14983    14877    14696    14489    14288    14115    13992 
   13886    13716    13460    13197    13000    12887    12841    12823 
   12816    12865    13039    13333    13705    14145    14666    15213 
   15651    15888    15946    15905    15816    15696    15564    15441 
   15296    15095    14867    14659    14482    14324    14153    13905 
   13564    13216    12969    12866    12872    12911    12919    12892 
   12887    12973    13166    13436    13738    14013    14234    14426 
   14585    14708    14835    15003    15174    15245    15153    14897 
   14540    14195    13911    13663    13458    13296    13107    12870 
   12706    12712    12804    12831    12766    12684    12646    12681 
   12784    12947    13176    13477    13822    14108    14269    14355 
   14422    14463    14500    14555    14566    14438    14184    13927 
   13791    13801    13883    13934    13933    13953    14067    14264 
   14453    14567    14644    14739    14845    14914    14916    14886 
   14820    14670    14466    14301    14207    14141    14034    13838 
   13574    13338    13215    13213    13274    13339    13401    13487 
   13578    13630    13666    13710    13729    13705    13701    13790 
   13950    14098    14220    14357    14476    14524    14528    14516 
   14489    14461    14418    14301    14127    13996    13960    14008 
   14137    14291    14372    14384    14423    14521    14639    14760 
   14877    14941    14906    14770    14592    14465    14435    14451 
   14465    14494    14559    14648    14752    14854    14910    14909 
   14860    14743    14550    14332    14116    13886    13691    13609 
   13606    13603    13605    13624    13610    13556    13559    13667 
   13790    13838    13818    13788    13801    13886    14029    14181 
   14319    14419    14450    14442    14457    14505    14563    14602 
   14609    14602    14619    14658    14686    14705    14729    14706 
   14598    14453    14322    14238    14206    14204    14222    14260 
   14287    14266    14256    14349    14544    14758    14916    14970 
   14902    14762    14639    14557    14454    14323    14200    14073 
   13918    13771    13674    13617    13602    13652    13732    13774 
   13755    13716    13701    13690    13609    13451    13306    13248 
   13262    13297    13362    13459    13531    13543    13514    13450 
   13339    13216    13161    13231    13417    13657    13846    13941 
   14030    14222    14501    14778    14989    15099    15095    14995 
   14866    14774    14754    14794    14836    14810    14709    14580 
   14450    14328    14224    14110    13907    13601    13284    13032 
   12852    12729    12660    12606    12522    12422    12379    12456 
