Origin Time       2024/04/02 04:24:00
Lat.              40.133
Long.             141.712
Depth. (km)       71
Mag.              6.0
Station Code      YMT011
Station Lat.      38.1484
Station Long.     140.2671
Station Height(m) 180
Record Time       2024/04/02 04:25:35
Sampling Freq(Hz) 100Hz
Duration Time(s)  101
Dir.              N-S
Scale Factor      7845(gal)/8223790
Max. Acc. (gal)   5.507
Last Correction   2024/04/02 04:25:35
Memo.             
[...]
   32259    32270    32337    32410    32440    32425    32387    32341 
   32292    32254    32256    32317    32406    32460    32429    32310 
   32146    31993    31893    31839    31818    31830    31845    31823 
   31779    31741    31730    31758    31803    31834    31864    31914 
   31982    32054    32124    32209    32312    32401    32464    32503 
   32498    32445    32395    32389    32408    32421    32417    32400 
   32354    32269    32179    32120    32082    32063    32088    32127 
   32130    32123    32159    32229    32294    32328    32301    32200 
   32062    31949    31876    31843    31882    31977    32057    32074 
   32031    31955    31881    31842    31881    31995    32125    32227 
   32287    32319    32327    32319    32314    32348    32432    32521 
   32571    32567    32513    32420    32328    32270    32265    32308 
   32360    32379    32351    32273    32174    32104    32082    32076 
   32069    32055    32011    31939    31874    31823    31762    31699 
   31665    31681    31739    31800    31847    31896    31935    31953 
   31965    31993    32028    32063    32103    32143    32166    32161 
   32131    32084    32038    32016    32026    32058    32098    32150 
   32215    32263    32287    32305    32327    32347    32359    32364 
   32356    32328    32281    32206    32111    32008    31896    31792 
   31738    31719    31687    31638    31585    31527    31468    31407 
   31356    31337    31367    31429    31483    31510    31550    31633 
   31743    31873    32026    32177    32277    32321    32331    32309 
   32275    32282    32339    32394    32390    32331    32274    32244 
   32227    32224    32248    32286    32325    32383    32460    32525 
   32566    32584    32564    32491    32410    32364    32356    32385 
   32445    32522    32584    32617    32636    32672    32733    32810 
   32883    32941    32954    32899    32786    32632    32449    32267 
   32120    32034    32009    32012    32017    32032    32049    32040 
   32004    31961    31931    31932    31965    32039    32166    32301 
   32390    32441    32472    32494    32524    32567    32598    32587 
   32528    32435    32335    32242    32163    32120    32124    32155 
   32169    32128    32020    31854    31658    31464    31317    31267 
   31310    31392    31480    31549    31584    31587    31556    31519 
   31529    31581    31657    31754    31849    31897    31891    31830 
   31752    31703    31695    31742    31834    31915    31968    32005 
   32017    32004    31982    31970    31970    31985    32019    32067 
   32130    32202    32274    32339    32398    32451    32482    32479 
   32444    32386    32317    32228    32120    32028    31990    31990 
   32003    32042    32119    32185    32221    32273    32350    32425 
   32501    32571    32616    32634    32624    32578    32506    32451 
   32440    32441    32436    32444    32447    32402    32317    32205 
   32082    31962    31853    31779    31760    31784    31822    31850 
   31877    31934    32035    32152    32259    32343    32394    32412 
   32394    32350    32300    32269    32263    32263    32235    32157 
   32050    31941    31827    31689    31531    31379    31268    31217 
   31191    31164    31135    31106    31091    31132    31234    31375 
   31542    31711    31834    31885    31873    31807    31688    31542 
   31426    31368    31351    31356    31371    31378    31386    31423 
   31517    31650    31789    31916    32013    32059    32081    32115 
   32154    32193    32258    32360    32463    32536    32582    32621 
   32651    32657    32660    32680    32713    32738    32725    32663 
   32595    32545    32506    32494    32541    32632    32721    32773 
   32780    32748    32714    32710    32738    32791    32863    32934 
   32995    33048    33091    33122    33134    33111    33062    33011 
   32962    32914    32887    32903    32954    33000    33004    32973 
   32926    32857    32786    32734    32694    32671    32688    32717 
   32721    32717    32734    32759    32772    32802    32848    32857 
   32813    32740    32632    32474    32310    32184    32071    31949 
   31845    31772    31688    31572    31463    31388    31348    31344 
   31355    31333    31282    31230    31174    31095    31006    30948 
   30937    30946    30960    31005    31089    31214    31365    31487 
   31536    31553    31585    31608    31585    31523    31453    31388 
   31294    31156    31013    30888    30793    30757    30775    30808 
   30829    30839    30847    30867    30909    30974    31048    31147 
   31295    31461    31590    31665    31696    31688    31658    31638 
   31644    31702    31824    31980    32107    32186    32246    32290 
   32304    32304    32317    32367    32478    32637    32811    32973 
   33097    33164    33164    33110    33035    32977    32961    32988 
   33037    33092    33137    33161    33174    33199    33262    33392 
   33550    33655    33670    33621    33529    33400    33264    33170 
   33141    33134    33114    33064    32973    32853    32725    32605 
   32528    32545    32620    32649    32603    32521    32409    32270 
   32140    32071    32074    32097    32084    32032    31955    31853 
   31737    31615    31514    31457    31432    31421    31423    31442 
   31480    31540    31619    31715    31804    31866    31903    31924 
   31938    31968    32030    32098    32142    32143    32092    31985 
   31865    31791    31766    31769    31793    31812    31779    31676 
   31540    31421    31342    31303    31313    31372    31448    31513 
   31583    31689    31839    32009    32189    32364    32489    32544 
   32551    32509    32433    32364    32340    32367    32413    32451 
   32474    32428    32289    32107    31939    31811    31726    31706 
   31761    31819    31811    31772    31745    31733    31738    31761 
   31818    31922    32017    32031    31954    31812    31633    31453 
   31325    31280    31309    31364    31402    31426    31450    31477 
   31548    31679    31845    32019    32182    32316    32421    32487 
   32482    32404    32300    32227    32186    32151    32125    32128 
   32131    32094    32024    31963    31970    32058    32178    32290 
   32412    32536    32611    32648    32711    32818    32926    33002 
   33046    33083    33120    33151    33168    33153    33096    33002 
   32877    32742    32632    32567    32548    32556    32556    32516 
   32444    32370    32300    32229    32171    32157    32184    32212 
   32193    32119    32031    31976    31976    32039    32162    32313 
   32463    32610    32734    32795    32784    32714    32614    32510 
   32373    32178    31949    31723    31538    31403    31328    31349 
   31464    31610    31761    31928    32104    32263    32387    32467 
   32494    32470    32408    32300    32132    31931    31729    31537 
   31357    31203    31104    31087    31118    31129    31093    31039 
   30998    30998    31072    31247    31515    31807    32040    32190 
   32262    32259    32209    32162    32140    32107    32019    31878 
   31716    31577    31492    31450    31433    31441    31476    31526 
   31572    31585    31554    31507    31486    31506    31538    31542 
   31536    31548    31565    31602    31693    31843    32015    32182 
   32323    32382    32323    32204    32142    32184    32305    32475 
   32648    32759    32779    32725    32625    32530    32498    32540 
   32617    32699    32792    32884    32954    33027    33123    33226 
   33326    33439    33566    33658    33670    33627    33586    33574 
   33559    33504    33396    33242    33068    32904    32792    32744 
   32749    32792    32849    32899    32953    32988    32964    32896 
   32836    32788    32721    32602    32440    32265    32082    31904 
   31743    31618    31565    31585    31602    31568    31506    31429 
   31369    31371    31436    31541    31668    31810    31951    32059 
   32109    32100    32027    31893    31729    31569    31455    31402 
   31398    31414    31419    31395    31351    31309    31305    31342 
   31403    31455    31449    31357    31207    31039    30889    30792 
   30744    30747    30812    30913    31006    31064    31077    31066 
   31058    31066    31114    31226    31379    31554    31776    32027 
   32260    32455    32609    32722    32813    32879    32888    32819 
   32687    32529    32352    32167    32011    31903    31837    31792 
   31765    31757    31750    31727    31699    31689    31700    31715 
   31725    31752    31820    31911    31973    32016    32088    32173 
   32247    32344    32498    32672    32798    32877    32953    32998 
   32996    33006    33061    33137    33207    33272    33327    33346 
   33315    33242    33135    33006    32868    32755    32694    32683 
   32674    32622    32535    32444    32382    32366    32405    32486 
   32572    32638    32675    32702    32737    32764    32779    32803 
   32840    32881    32935    32984    33007    33018    33029    33023 
   33018    33034    33027    32937    32779    32601    32405    32184 
   31968    31781    31608    31430    31241    31048    30851    30666 
   30531    30450    30397    30352    30318    30311    30345    30422 
   30541    30692    30855    31005    31136    31243    31324    31398 
   31486    31584    31689    31819    31957    32063    32143    32202 
   32200    32132    32047    31981    31928    31869    31812    31788 
   31803    31838    31882    31931    31996    32093    32211    32317 
   32383    32408    32397    32359    32316    32289    32263    32224 
   32182    32155    32169    32233    32319    32402    32482    32540 
   32571    32589    32607    32659    32779    32961    33185    33427 
   33652    33825    33917    33922    33870    33786    33670    33502 
   33280    33033    32769    32476    32167    31882    31649    31480 
   31384    31341    31317    31311    31332    31367    31414    31476 
   31545    31617    31699    31793    31889    31992    32125    32275 
   32418    32539    32606    32610    32563    32458    32293    32101 
   31939    31834    31772    31737    31720    31692    31654    31650 
   31696    31766    31854    31958    32026    32009    31932    31843 
   31737    31608    31507    31498    31585    31722    31845    31914 
   31901    31810    31680    31572    31476    31349    31186    31020 
   30863    30703    30566    30516    30561    30666    30816    30996 
   31182    31345    31468    31576    31691    31796    31896    31997 
   32100    32201    32290    32370    32451    32506    32541    32597 
   32660    32699    32715    32706    32651    32551    32436    32351 
   32316    32308    32308    32327    32364    32412    32470    32529 
   32564    32555    32495    32400    32296    32213    32169    32169 
   32211    32282    32346    32346    32296    32215    32092    31978 
   31962    32035    32128    32194    32232    32270    32317    32373 
   32471    32634    32853    33107    33336    33497    33575    33567 
   33494    33407    33334    33292    33266    33222    33189    33192 
   33200    33196    33181    33166    33170    33178    33156    33103 
   33030    32926    32791    32652    32535    32447    32390    32341 
   32282    32216    32166    32154    32178    32208    32223    32211 
   32175    32152    32155    32163    32166    32171    32177    32174 
   32182    32205    32211    32167    32069    31934    31788    31656 
   31568    31538    31519    31468    31390    31298    31206    31155 
   31182    31301    31500    31738    31959    32115    32193    32229 
   32251    32273    32327    32421    32502    32533    32509    32414 
   32239    32005    31779    31595    31433    31270    31097    30901 
   30672    30423    30183    29965    29782    29644    29554    29496 
   29446    29393    29350    29319    29282    29242    29223    29247 
   29323    29443    29592    29748    29911    30095    30299    30519 
   30743    30973    31229    31514    31803    32093    32389    32680 
   32948    33168    33347    33498    33627    33741    33848    33940 
   34020    34099    34180    34252    34285    34249    34160    34067 
   33990    33944    33960    34037    34136    34233    34318    34380 
   34429    34484    34545    34605    34655    34670    34654    34632 
   34609    34595    34601    34620    34614    34534    34352    34060 
   33682    33258    32809    32350    31915    31540    31233    30978 
   30753    30566    30446    30427    30499    30605    30735    30885 
   31009    31066    31083    31118    31199    31336    31523    31719 
   31857    31892    31811    31630    31386    31147    30990    30952 
   30993    31040    31072    31124    31218    31328    31438    31561 
   31688    31800    31919    32094    32373    32773    33265    33760 
   34159    34383    34427    34314    34060    33702    33299    32861 
   32358    31800    31247    30735    30299    29995    29876    29924 
   30061    30194    30271    30307    30354    30510    30843    31340 
   31935    32513    32922    33087    32985    32629    32140    31687 
   31364    31195    31126    31059    30919    30639    30195    29644 
   29087    28599    28244    28066    28094    28317    28709    29246 
   29932    30792    31780    32819    33868    34874    35796    36613 
   37268    37705    37891    37825    37532    37018    36343    35602 
   34866    34190    33571    32996    32483    32062    31743    31504 
   31356    31336    31429    31607    31850    32124    32387    32606 
   32794    32991    33211    33458    33702    33847    33817    33594 
   33178    32636    32104    31677    31347    31047    30692    30176 
   29434    28526    27656    27032    26792    26964    27441    28082 
   28790    29478    30080    30591    31081    31619    32212    32791 
   33266    33613    33871    34015    34015    33913    33743    33488 
   33127    32684    32221    31792    31441    31214    31167    31337 
   31710    32267    32940    33608    34200    34704    35097    35351 
   35457    35440    35305    35025    34634    34234    33898    33639 
   33442    33253    33016    32688    32225    31644    31054    30568 
   30267    30188    30294    30522    30782    30962    31016    30982 
   30939    30964    31137    31473    31904    32310    32571    32599 
   32363    31916    31409    30979    30686    30539    30465    30357 
   30187    29976    29794    29740    29870    30161    30545    30952 
   31334    31679    31999    32283    32525    32752    33034    33403 
   33755    33968    34002    33868    33579    33185    32800    32521 
   32364    32329    32397    32516    32624    32686    32721    32765 
   32836    32933    33092    33312    33488    33569    33571    33457 
   33205    32919    32738    32690    32732    32863    33006    33045 
   32988    32868    32680    32440    32197    32011    31860    31692 
   31531    31414    31342    31344    31442    31625    31891    32209 
   32503    32711    32779    32697    32532    32346    32179    32081 
   32046    32030    32039    32100    32200    32333    32530    32746 
   32913    33016    33052    32979    32803    32606    32471    32416 
   32416    32431    32389    32217    31908    31510    31077    30685 
   30433    30339    30369    30465    30526    30474    30321    30145 
   30032    30007    30056    30142    30225    30252    30208    30133 
   30086    30127    30331    30730    31279    31874    32420    32891 
   33286    33589    33805    33952    34020    33955    33725    33309 
   32697    31955    31217    30586    30117    29817    29683    29701 
   29814    29979    30200    30514    30927    31383    31800    32147 
   32425    32638    32788    32911    33075    33307    33548    33693 
   33670    33486    33184    32817    32444    32144    31972    31893 
   31822    31712    31556    31376    31264    31328    31610    32080 
   32644    33164    33525    33712    33770    33766    33786    33916 
   34191    34572    34963    35259    35387    35325    35148    34975 
   34870    34830    34821    34771    34597    34279    33883    33508 
   33230    33083    33061    33116    33166    33162    33110    33018 
   32922    32859    32810    32728    32559    32292    31968    31612 
   31232    30838    30461    30134    29864    29658    29552    29585 
   29744    29994    30315    30676    31055    31432    31777    32063 
   32267    32398    32471    32418    32209    31923    31603    31251 
   30900    30574    30254    29902    29509    29107    28728    28408 
   28178    28074    28121    28325    28640    28981    29300    29597 
   29893    30213    30565    30913    31226    31513    31735    31855 
   31884    31887    31970    32159    32402    32652    32846    32965 
   33042    33103    33156    33204    33265    33363    33455    33465 
   33390    33289    33212    33211    33334    33598    33952    34335 
   34711    35037    35266    35399    35486    35526    35505    35425 
   35260    34967    34554    34044    33447    32817    32238    31780 
   31476    31324    31244    31166    31087    31029    30986    30970 
   31032    31221    31515    31823    32074    32269    32420    32514 
   32555    32566    32551    32497    32395    32231    31992    31696 
   31411    31220    31140    31160    31264    31441    31664    31889 
   32061    32123    32073    31981    31916    31916    32012    32197 
   32433    32676    32900    33073    33127    33031    32826    32548 
   32205    31835    31514    31303    31247    31337    31526    31761 
   31984    32143    32224    32255    32310    32468    32715    32962 
   33124    33123    32896    32458    31885    31276    30670    30080 
   29538    29070    28705    28464    28356    28399    28641    29088 
   29681    30334    30973    31558    32055    32452    32807    33151 
   33461    33729    33976    34191    34339    34415    34420    34342 
   34172    33914    33598    33243    32890    32594    32355    32193 
   32144    32157    32151    32111    32078    32070    32057    32084 
   32236    32502    32786    32994    33072    33015    32853    32606 
   32321    32080    31901    31745    31560    31311    30994    30638 
   30325    30152    30175    30404    30800    31276    31737    32157 
   32556    32906    33141    33286    33421    33531    33589    33627 
   33637    33558    33350    33027    32630    32173    31698    31270 
   30910    30604    30322    30067    29872    29770    29775    29871 
   30048    30322    30670    31062    31503    32011    32579    33151 
   33650    34030    34273    34369    34346    34230    34036    33777 
   33474    33176    32876    32544    32208    31904    31630    31368 
   31164    31099    31148    31221    31306    31422    31527    31606 
   31714    31865    32027    32161    32229    32228    32185    32130 
   32125    32227    32413    32609    32730    32755    32728    32680 
   32629    32621    32665    32713    32732    32744    32803    32915 
   33021    33069    33073    33062    33072    33116    33153    33135 
   33073    33007    32969    32994    33089    33196    33243    33204 
