Origin Time       2024/04/02 04:24:00
Lat.              40.133
Long.             141.712
Depth. (km)       71
Mag.              6.0
Station Code      YMT003
Station Lat.      38.7260
Station Long.     139.8023
Station Height(m) 16
Record Time       2024/04/02 04:25:11
Sampling Freq(Hz) 100Hz
Duration Time(s)  103
Dir.              N-S
Scale Factor      7845(gal)/8223790
Max. Acc. (gal)   2.606
Last Correction   2024/04/02 04:25:11
Memo.             
[...]
   -5170    -5283    -5435    -5591    -5749    -5888    -5991    -6079 
   -6139    -6166    -6191    -6218    -6243    -6277    -6303    -6303 
   -6280    -6232    -6160    -6069    -5964    -5868    -5792    -5736 
   -5705    -5682    -5657    -5667    -5706    -5760    -5849    -5960 
   -6054    -6150    -6243    -6336    -6455    -6589    -6713    -6818 
   -6895    -6957    -7020    -7056    -7059    -7025    -6951    -6862 
   -6763    -6644    -6523    -6397    -6262    -6134    -6010    -5890 
   -5799    -5726    -5668    -5640    -5626    -5626    -5660    -5734 
   -5854    -6021    -6184    -6313    -6400    -6434    -6432    -6427 
   -6430    -6457    -6496    -6515    -6519    -6505    -6478    -6470 
   -6470    -6470    -6488    -6493    -6471    -6432    -6345    -6227 
   -6111    -5989    -5886    -5819    -5771    -5746    -5756    -5790 
   -5849    -5941    -6052    -6169    -6270    -6334    -6370    -6385 
   -6378    -6374    -6384    -6396    -6403    -6412    -6423    -6438 
   -6442    -6430    -6401    -6346    -6280    -6208    -6135    -6080 
   -6037    -6000    -5969    -5929    -5881    -5860    -5856    -5864 
   -5908    -5979    -6041    -6084    -6096    -6099    -6137    -6205 
   -6280    -6322    -6307    -6272    -6258    -6265    -6286    -6299 
   -6278    -6238    -6174    -6096    -6052    -6034    -6012    -5989 
   -5953    -5907    -5888    -5877    -5863    -5865    -5873    -5887 
   -5927    -5987    -6066    -6158    -6245    -6332    -6409    -6463 
   -6502    -6516    -6523    -6542    -6550    -6551    -6559    -6563 
   -6570    -6571    -6525    -6428    -6293    -6118    -5933    -5773 
   -5647    -5575    -5562    -5582    -5643    -5741    -5867    -6021 
   -6177    -6315    -6420    -6454    -6419    -6355    -6282    -6222 
   -6184    -6146    -6138    -6178    -6226    -6264    -6286    -6278 
   -6269    -6276    -6277    -6297    -6343    -6397    -6465    -6527 
   -6558    -6566    -6527    -6434    -6315    -6185    -6062    -5964 
   -5883    -5834    -5829    -5845    -5894    -5979    -6073    -6164 
   -6215    -6201    -6161    -6126    -6093    -6081    -6083    -6103 
   -6173    -6262    -6343    -6419    -6474    -6504    -6523    -6539 
   -6563    -6597    -6619    -6623    -6598    -6544    -6481    -6411 
   -6357    -6345    -6342    -6323    -6300    -6262    -6210    -6169 
   -6137    -6134    -6169    -6189    -6185    -6181    -6168    -6165 
   -6173    -6153    -6108    -6062    -6018    -5996    -5977    -5931 
   -5876    -5825    -5790    -5796    -5821    -5844    -5869    -5884 
   -5887    -5898    -5911    -5918    -5913    -5895    -5880    -5860 
   -5814    -5765    -5736    -5726    -5740    -5775    -5840    -5949 
   -6084    -6218    -6350    -6475    -6586    -6686    -6756    -6774 
   -6747    -6679    -6588    -6496    -6401    -6311    -6242    -6188 
   -6151    -6145    -6161    -6188    -6224    -6273    -6345    -6423 
   -6481    -6502    -6488    -6462    -6448    -6444    -6438    -6419 
   -6374    -6318    -6269    -6230    -6219    -6228    -6241    -6276 
   -6328    -6376    -6408    -6396    -6328    -6247    -6174    -6129 
   -6115    -6104    -6081    -6058    -6035    -6018    -6002    -5954 
   -5890    -5834    -5778    -5736    -5714    -5684    -5674    -5698 
   -5745    -5818    -5890    -5927    -5945    -5956    -5969    -6007 
   -6058    -6119    -6197    -6272    -6328    -6369    -6384    -6393 
   -6421    -6451    -6469    -6473    -6451    -6408    -6342    -6249 
   -6162    -6100    -6048    -6018    -6004    -5996    -6012    -6046 
   -6079    -6124    -6183    -6253    -6342    -6424    -6492    -6539 
   -6547    -6543    -6546    -6531    -6504    -6454    -6353    -6238 
   -6139    -6057    -6010    -5998    -6006    -6027    -6045    -6046 
   -6041    -6031    -6029    -6062    -6133    -6238    -6384    -6539 
   -6677    -6794    -6853    -6856    -6831    -6774    -6708    -6652 
   -6578    -6481    -6362    -6218    -6089    -6007    -5976    -5989 
   -6002    -6004    -6015    -6021    -6023    -6050    -6103    -6172 
   -6231    -6246    -6215    -6146    -6042    -5929    -5814    -5703 
   -5622    -5568    -5517    -5472    -5437    -5422    -5452    -5517 
   -5610    -5744    -5898    -6069    -6262    -6443    -6585    -6674 
   -6714    -6735    -6735    -6701    -6667    -6650    -6624    -6581 
   -6511    -6415    -6326    -6254    -6207    -6185    -6156    -6107 
   -6052    -5971    -5888    -5844    -5827    -5841    -5876    -5899 
   -5922    -5948    -5962    -5973    -5971    -5950    -5942    -5937 
   -5922    -5927    -5967    -6037    -6139    -6239    -6320    -6393 
   -6446    -6481    -6508    -6498    -6466    -6446    -6442    -6461 
   -6490    -6496    -6467    -6401    -6297    -6165    -6014    -5873 
   -5784    -5742    -5744    -5792    -5860    -5941    -6046    -6147 
   -6245    -6346    -6424    -6484    -6532    -6542    -6529    -6511 
   -6478    -6466    -6480    -6497    -6544    -6604    -6639    -6662 
   -6663    -6643    -6617    -6571    -6490    -6376    -6234    -6088 
   -5942    -5803    -5698    -5628    -5566    -5521    -5508    -5526 
   -5605    -5740    -5915    -6149    -6423    -6687    -6920    -7090 
   -7172    -7184    -7129    -7028    -6916    -6797    -6681    -6577 
   -6451    -6292    -6112    -5934    -5791    -5687    -5605    -5543 
   -5486    -5418    -5362    -5324    -5308    -5346    -5439    -5572 
   -5737    -5896    -6039    -6176    -6307    -6439    -6561    -6643 
   -6679    -6655    -6563    -6434    -6289    -6137    -6003    -5892 
   -5810    -5765    -5734    -5709    -5705    -5710    -5724    -5753 
   -5775    -5802    -5842    -5867    -5880    -5890    -5877    -5871 
   -5904    -5979    -6114    -6320    -6552    -6778    -6967    -7096 
   -7177    -7204    -7179    -7121    -7034    -6949    -6891    -6843 
   -6793    -6735    -6658    -6590    -6536    -6462    -6357    -6223 
   -6069    -5926    -5806    -5710    -5656    -5632    -5620    -5633 
   -5665    -5713    -5791    -5876    -5956    -6031    -6077    -6103 
   -6111    -6084    -6062    -6065    -6050    -6015    -5969    -5915 
   -5880    -5865    -5861    -5865    -5857    -5836    -5829    -5845 
   -5902    -6008    -6116    -6192    -6251    -6295    -6345    -6426 
   -6519    -6610    -6702    -6786    -6871    -6956    -7018    -7059 
   -7063    -7003    -6898    -6748    -6561    -6390    -6257    -6169 
   -6133    -6102    -6056    -6029    -6029    -6064    -6124    -6181 
   -6243    -6328    -6415    -6494    -6550    -6563    -6561    -6547 
   -6515    -6467    -6404    -6327    -6247    -6153    -6046    -5946 
   -5848    -5768    -5736    -5749    -5802    -5896    -6019    -6157 
   -6277    -6345    -6372    -6358    -6297    -6204    -6072    -5904 
   -5745    -5611    -5514    -5474    -5476    -5502    -5568    -5657 
   -5742    -5825    -5904    -5994    -6116    -6247    -6366    -6458 
   -6501    -6505    -6480    -6430    -6385    -6349    -6311    -6276 
   -6228    -6158    -6073    -5971    -5880    -5832    -5809    -5809 
   -5832    -5864    -5913    -5983    -6056    -6139    -6230    -6303 
   -6357    -6385    -6378    -6345    -6281    -6195    -6097    -5992 
   -5908    -5871    -5861    -5863    -5865    -5863    -5880    -5930 
   -5995    -6073    -6153    -6216    -6280    -6342    -6382    -6434 
   -6501    -6558    -6598    -6593    -6534    -6448    -6345    -6232 
   -6137    -6061    -6021    -6026    -6053    -6096    -6139    -6173 
   -6216    -6268    -6328    -6415    -6509    -6586    -6659    -6714 
   -6732    -6723    -6685    -6624    -6562    -6470    -6323    -6157 
   -5988    -5840    -5728    -5626    -5529    -5431    -5300    -5148 
   -5015    -4914    -4864    -4868    -4909    -4999    -5142    -5325 
   -5555    -5815    -6091    -6389    -6682    -6948    -7179    -7341 
   -7434    -7485    -7489    -7450    -7372    -7236    -7067    -6897 
   -6709    -6516    -6330    -6141    -5979    -5863    -5776    -5719 
   -5674    -5640    -5641    -5682    -5771    -5921    -6099    -6305 
   -6544    -6778    -7009    -7244    -7449    -7615    -7739    -7807 
   -7819    -7780    -7685    -7555    -7398    -7210    -7013    -6799 
   -6570    -6357    -6165    -5973    -5769    -5536    -5296    -5094 
   -4946    -4855    -4831    -4837    -4849    -4868    -4884    -4905 
   -4935    -4976    -5055    -5174    -5312    -5468    -5634    -5803 
   -5989    -6169    -6331    -6488    -6619    -6714    -6781    -6816 
   -6841    -6871    -6895    -6912    -6905    -6855    -6778    -6679 
   -6566    -6467    -6382    -6311    -6266    -6226    -6180    -6142 
   -6112    -6111    -6149    -6181    -6203    -6220    -6210    -6181 
   -6138    -6061    -5969    -5881    -5803    -5755    -5734    -5740 
   -5787    -5869    -5972    -6076    -6153    -6201    -6230    -6224 
   -6191    -6143    -6080    -6015    -5967    -5927    -5899    -5876 
   -5842    -5822    -5827    -5844    -5884    -5942    -5999    -6072 
   -6151    -6218    -6288    -6349    -6397    -6469    -6551    -6628 
   -6696    -6740    -6794    -6878    -6953    -7010    -7038    -7025 
   -6984    -6922    -6826    -6710    -6573    -6423    -6293    -6189 
   -6088    -5991    -5898    -5803    -5715    -5626    -5539    -5476 
   -5454    -5479    -5552    -5655    -5783    -5915    -6016    -6092 
   -6145    -6165    -6172    -6158    -6126    -6100    -6064    -6016 
   -6002    -6016    -6050    -6114    -6181    -6242    -6297    -6334 
   -6373    -6428    -6478    -6525    -6570    -6590    -6600    -6604 
   -6586    -6570    -6562    -6546    -6531    -6507    -6465    -6421 
   -6367    -6296    -6224    -6147    -6068    -5998    -5934    -5890 
   -5868    -5853    -5856    -5891    -5946    -6022    -6104    -6166 
   -6208    -6222    -6196    -6142    -6053    -5934    -5811    -5684 
   -5566    -5482    -5427    -5400    -5408    -5437    -5489    -5551 
   -5611    -5676    -5751    -5840    -5950    -6073    -6197    -6319 
   -6432    -6528    -6609    -6666    -6700    -6727    -6755    -6789 
   -6828    -6849    -6853    -6858    -6855    -6862    -6883    -6899 
   -6930    -6979    -7032    -7095    -7146    -7153    -7130    -7071 
   -6959    -6825    -6683    -6529    -6381    -6224    -6045    -5868 
   -5699    -5543    -5420    -5320    -5244    -5202    -5166    -5128 
   -5112    -5125    -5186    -5273    -5332    -5378    -5422    -5464 
   -5535    -5633    -5749    -5884    -6022    -6157    -6278    -6355 
   -6403    -6447    -6486    -6536    -6608    -6677    -6755    -6847 
   -6933    -7005    -7032    -6993    -6914    -6813    -6697    -6583 
   -6457    -6312    -6168    -6008    -5836    -5680    -5555    -5487 
   -5503    -5583    -5713    -5877    -6031    -6156    -6234    -6253 
   -6247    -6239    -6214    -6195    -6181    -6153    -6139    -6135 
   -6115    -6095    -6061    -6023    -6008    -6002    -6007    -6031 
   -6050    -6080    -6130    -6166    -6195    -6215    -6211    -6212 
   -6223    -6230    -6245    -6243    -6216    -6192    -6170    -6158 
   -6160    -6154    -6145    -6139    -6134    -6141    -6166    -6200 
   -6254    -6336    -6432    -6544    -6662    -6764    -6860    -6953 
   -7032    -7103    -7153    -7153    -7115    -7060    -6997    -6943 
   -6886    -6822    -6763    -6702    -6651    -6620    -6593    -6573 
   -6551    -6501    -6419    -6305    -6173    -6050    -5940    -5836 
   -5737    -5626    -5502    -5374    -5238    -5105    -5001    -4922 
   -4868    -4846    -4828    -4824    -4842    -4866    -4905    -4961 
   -5005    -5054    -5103    -5130    -5147    -5148    -5111    -5046 
   -4965    -4888    -4842    -4816    -4807    -4824    -4854    -4915 
   -5028    -5179    -5358    -5544    -5707    -5853    -5984    -6095 
   -6211    -6320    -6408    -6493    -6567    -6625    -6693    -6768 
   -6849    -6937    -7001    -7024    -7017    -6982    -6941    -6926 
   -6936    -6972    -7033    -7099    -7176    -7256    -7315    -7366 
   -7412    -7453    -7510    -7581    -7662    -7776    -7912    -8060 
   -8220    -8367    -8494    -8603    -8681    -8735    -8769    -8757 
   -8699    -8604    -8465    -8301    -8120    -7911    -7682    -7439 
   -7173    -6905    -6640    -6367    -6084    -5787    -5497    -5252 
   -5065    -4942    -4887    -4878    -4901    -4962    -5044    -5140 
   -5260    -5395    -5536    -5664    -5745    -5780    -5792    -5787 
   -5767    -5728    -5657    -5566    -5449    -5294    -5107    -4874 
   -4600    -4324    -4075    -3885    -3767    -3715    -3724    -3804 
   -3942    -4136    -4379    -4638    -4901    -5167    -5420    -5657 
   -5881    -6080    -6258    -6423    -6567    -6686    -6768    -6812 
   -6822    -6787    -6701    -6585    -6447    -6309    -6197    -6115 
   -6066    -6052    -6049    -6061    -6072    -6066    -6069    -6089 
   -6120    -6172    -6234    -6296    -6366    -6432    -6493    -6556 
   -6610    -6659    -6713    -6744    -6736    -6693    -6608    -6488 
   -6336    -6154    -5958    -5782    -5647    -5571    -5552    -5572 
   -5626    -5690    -5744    -5795    -5833    -5859    -5900    -5960 
   -6035    -6139    -6250    -6359    -6482    -6609    -6754    -6937 
   -7149    -7388    -7639    -7886    -8131    -8355    -8540    -8703 
   -8829    -8900    -8919    -8869    -8753    -8596    -8387    -8116 
   -7798    -7445    -7080    -6714    -6354    -6053    -5818    -5621 
   -5479    -5381    -5286    -5220    -5165    -5090    -5017    -4936 
   -4823    -4689    -4531    -4369    -4236    -4131    -4054    -4013 
   -3990    -3998    -4050    -4121    -4212    -4313    -4406    -4506 
   -4621    -4749    -4899    -5059    -5215    -5367    -5498    -5611 
   -5734    -5856    -5979    -6126    -6289    -6465    -6651    -6812 
   -6948    -7082    -7218    -7376    -7550    -7711    -7857    -7994 
   -8114    -8222    -8310    -8357    -8378    -8363    -8303    -8216 
   -8100    -7978    -7885    -7811    -7751    -7705    -7641    -7564 
   -7461    -7299    -7102    -6895    -6674    -6448    -6210    -5938 
   -5651    -5360    -5063    -4770    -4500    -4272    -4101    -3987 
   -3929    -3913    -3923    -3966    -4032    -4099    -4178    -4278 
   -4380    -4471    -4540    -4576    -4590    -4596    -4598    -4598 
   -4606    -4633    -4703    -4826    -4995    -5211    -5455    -5724 
   -6031    -6355    -6675    -6976    -7233    -7438    -7597    -7695 
   -7727    -7699    -7605    -7472    -7303    -7095    -6893    -6724 
   -6594    -6521    -6501    -6525    -6604    -6728    -6894    -7096 
   -7312    -7539    -7770    -7974    -8135    -8224    -8222    -8159 
   -8046    -7878    -7670    -7408    -7098    -6778    -6458    -6138 
   -5845    -5583    -5364    -5209    -5111    -5065    -5098    -5200 
   -5350    -5544    -5748    -5935    -6093    -6183    -6196    -6151 
   -6060    -5960    -5867    -5778    -5701    -5633    -5587    -5587 
   -5617    -5665    -5724    -5763    -5788    -5803    -5787    -5755 
   -5724    -5683    -5649    -5626    -5599    -5583    -5587    -5611 
   -5682    -5799    -5960    -6173    -6394    -6596    -6781    -6918 
   -6988    -6988    -6909    -6763    -6569    -6334    -6102    -5910 
   -5769    -5707    -5711    -5746    -5800    -5852    -5880    -5900 
   -5896    -5881    -5877    -5876    -5887    -5919    -5950    -5985 
   -6026    -6042    -6042    -6037    -6008    -5991    -6010    -6049 
   -6110    -6178    -6239    -6296    -6343    -6382    -6427    -6462 
   -6482    -6493    -6475    -6435    -6393    -6347    -6318    -6331 
   -6384    -6486    -6640    -6831    -7053    -7292    -7518    -7724 
   -7902    -8037    -8135    -8191    -8208    -8199    -8158    -8087 
   -8012    -7925    -7835    -7761    -7686    -7605    -7520    -7410 
   -7287    -7176    -7071    -6978    -6889    -6771    -6619    -6415 
   -6157    -5873    -5580    -5308    -5081    -4885    -4714    -4563 
   -4411    -4266    -4148    -4055    -4000    -3982    -3981    -3994 
   -4005    -3982    -3943    -3900    -3854    -3831    -3828    -3847 
   -3905    -3981    -4056    -4141    -4222    -4297    -4382    -4476 
   -4572    -4684    -4811    -4958    -5140    -5346    -5563    -5796 
   -6026    -6251    -6471    -6663    -6824    -6966    -7091    -7217 
   -7344    -7468    -7600    -7730    -7840    -7935    -8000    -8033 
   -8056    -8054    -8023    -7969    -7886    -7800    -7723    -7659 
   -7624    -7601    -7560    -7515    -7469    -7407    -7353    -7295 
   -7214    -7122    -7006    -6859    -6698    -6529    -6358    -6193 
   -6023    -5853    -5692    -5529    -5379    -5258    -5163    -5116 
   -5115    -5130    -5174    -5265    -5397    -5586    -5823    -6080 
   -6367    -6679    -6997    -7315    -7608    -7858    -8066    -8203 
   -8248    -8194    -8032    -7782    -7458    -7057    -6624    -6176 
   -5715    -5293    -4924    -4617    -4407    -4287    -4233    -4256 
   -4341    -4479    -4679    -4922    -5184    -5456    -5718    -5957 
   -6162    -6315    -6416    -6461    -6443    -6388    -6305    -6193 
   -6075    -5934    -5760    -5575    -5378    -5174    -4996    -4839 
   -4712    -4622    -4548    -4506    -4507    -4537    -4608    -4726 
   -4868    -5038    -5231    -5433    -5649    -5869    -6096    -6354 
   -6621    -6868    -7109    -7337    -7539    -7711    -7831    -7894 
   -7924    -7931    -7923    -7896    -7836    -7759    -7674    -7582 
   -7496    -7408    -7306    -7209    -7121    -7028    -6943    -6862 
   -6768    -6690    -6631    -6583    -6567    -6567    -6574    -6594 
   -6612    -6610    -6594    -6544    -6474    -6390    -6277    -6143 
   -6000    -5830    -5647    -5456    -5255    -5073    -4914    -4773 
   -4677    -4618    -4591    -4612    -4680    -4791    -4932    -5078 
   -5232    -5414    -5602    -5790    -5973    -6110    -6205    -6284 
   -6336    -6376    -6401    -6400    -6392    -6376    -6338    -6291 
   -6242    -6199    -6174    -6169    -6191    -6251    -6334    -6430 
   -6548    -6669    -6787    -6905    -7001    -7080    -7141    -7146 
   -7101    -7018    -6902    -6774    -6640    -6505    -6390    -6292 
   -6196    -6116    -6048    -5988    -5940    -5890    -5837    -5787 
   -5725    -5656    -5593    -5540    -5521    -5521    -5516    -5508 
   -5485    -5437    -5393    -5358    -5339    -5352    -5385    -5421 
   -5466    -5516    -5579    -5653    -5722    -5790    -5864    -5945 
   -6038    -6133    -6212    -6270    -6301    -6312    -6320    -6327 
   -6342    -6384    -6440    -6521    -6640    -6774    -6924    -7096 
   -7279    -7472    -7676    -7865    -8036    -8185    -8287    -8348 
   -8365    -8328    -8248    -8131    -7979    -7819    -7657    -7484 
   -7307    -7122    -6940    -6781    -6647    -6536    -6454    -6390 
   -6362    -6374    -6405    -6462    -6532    -6585    -6631    -6650 
   -6617    -6550    -6442    -6303    -6170    -6035    -5886    -5744 
   -5593    -5421    -5232    -5008    -4757    -4507    -4267    -4071 
   -3948    -3885    -3889    -3952    -4033    -4131    -4241    -4347 
