Origin Time       2024/04/02 04:24:00
Lat.              40.133
Long.             141.712
Depth. (km)       71
Mag.              6.0
Station Code      YMT005
Station Lat.      38.6079
Station Long.     140.1627
Station Height(m) 330
Record Time       2024/04/02 04:25:12
Sampling Freq(Hz) 100Hz
Duration Time(s)  103
Dir.              N-S
Scale Factor      7845(gal)/8223790
Max. Acc. (gal)   2.593
Last Correction   2024/04/02 04:25:12
Memo.             
[...]
     263      318      415      476      429      305      190      110 
      99      202      344      434      495      550      552      467 
     356      321      442      710      993     1150     1084      753 
     272     -137     -346     -352     -226      -60       98      243 
     368      472      530      499      356      147      -12      -47 
     -44     -102     -170     -170     -125      -87      -52       28 
     176      351      480      511      429      282      147      116 
     214      329      336      265      199      128       41      -48 
    -135     -193     -226     -263     -321     -406     -434     -330 
    -135      121      437      719      901     1005     1032      978 
     899      859      841      792      730      673      615      521 
     359      175       45      -49     -137     -189     -214     -232 
    -232     -253     -305     -309     -236     -128      -24       35 
      37       32       60      117      182      249      346      477 
     575      584      562      596      673      720      712      666 
     587      488      418      411      454      517      548      534 
     529      535      492      417      326      193       78       59 
      83       12     -209     -438     -531     -557     -557     -459 
    -310     -257     -349     -488     -525     -405     -195       28 
     221      359      498      700      926     1101     1173     1109 
     989      909      851      772      660      533      445      406 
     344      225      120      103      148      137       -5     -229 
    -411     -481     -444     -315     -141       24      180      324 
     382      328      255      278      400      561      722      832 
     843      776      703      696      760      747      544      217 
     -97     -307     -367     -278      -44      272      510      595 
     548      367       86     -162     -268     -272     -295     -317 
    -228      -74       63      195      292      299      260      270 
     357      452      459      372      249      141       94      109 
     143      183      220      211      201      275      410      537 
     584      475      256       44     -106     -147      -76       -1 
      -6      -79     -122     -116     -157     -228     -143      122 
     392      534      529      400      214       63       64      264 
     549      780      896      877      769      657      626      739 
     932     1046      993      777      488      267      151       98 
      99      132      125       40     -114     -306     -448     -486 
    -415     -257      -40      230      508      696      765      723 
     535      245       -4     -135     -184     -182     -112       -2 
     117      294      526      737      896      970      870      592 
     240      -81     -297     -392     -382     -248        8      297 
     511      598      534      364      191       86       51       62 
      85       81       62       25      -35      -71      -10      157 
     357      479      486      418      337      294      306      344 
     369      355      268      140       90      163      276      386 
     508      635      722      704      589      461      326      147 
     -37     -213     -398     -529     -523     -353      -86      122 
     174      113       20       -4      168      514      837     1016 
    1075     1024      831      546      303      144       28      -49 
     -82      -93     -120     -175     -201     -164      -94       -9 
      54       79      110      182      325      525      695      803 
     861      827      726      643      546      372      186       63 
     -22     -103     -109       40      255      367      340      256 
     180      124      116      214      418      616      693      623 
     433      155     -136     -337     -387     -279      -27      306 
     588      714      639      403      120      -79     -164     -226 
    -328     -383     -302     -132       17      152      355      599 
     781      855      827      702      499      292      135       13 
     -45       12      122      137       -5     -199     -259     -126 
      68      234      409      610      795      930      984      888 
     612      287       68        4       82      261      429      537 
     638      714      691      561      363      175       87       99 
     108       36      -78     -162     -190     -190     -210     -276 
    -364     -388     -315     -252     -248     -213     -108       17 
     143      291      429      476      403      287      178       40 
     -89      -90       43      195      278      270      211      191 
     275      471      730      967     1097     1036      754      344 
     -36     -280     -361     -299     -103      156      352      434 
     459      456      406      313      233      163       71       45 
     171      333      386      322      186       47       13      102 
     260      486      733      868      842      714      549      376 
     206       48     -101     -248     -379     -483     -545     -488 
    -290      -66      133      372      607      733      731      650 
     529      391      295      306      399      475      503      508 
     461      357      302      363      465      542      580      534 
     337       20     -252     -356     -395     -488     -552     -527 
    -510     -495     -390     -205      -29      112      299      531 
     662      626      471      267      130      186      427      726 
     973     1127     1150     1000      696      340       51     -109 
    -170     -145      -22      113      137       97      145      297 
     459      572      619      576      469      390      399      440 
     475      527      598      664      662      529      384      373 
     425      432      375      278      237      332      496      608 
     610      514      369      243      256      490      818     1019 
    1030      913      680      319      -17     -130      -24      147 
     261      263      120     -137     -400     -584     -700     -735 
    -648     -479     -325     -182        8      183      252      280 
     375      483      502      438      338      221      105       40 
      51       72       59       40      -20     -198     -418     -527 
    -538     -544     -517     -340       -5      325      504      492 
     307       41     -171     -276     -249      -76      187      442 
     607      681      754      889     1055     1173     1152      977 
     731      538      444      379      297      193       49      -83 
    -117      -82      -51       -4       64      103      121      129 
      71      -94     -317     -515     -645     -697     -627     -409 
    -102      202      448      619      737      761      653      506 
     453      508      622      776      938     1063     1085      950 
     731      511      230      -94     -290     -282     -121      163 
     518      828      989      969      814      579      310      110 
      91      209      306      311      249      168      135      190 
     287      344      303      172       31      -22       28       99 
     121      118      117       56     -125     -390     -573     -565 
    -480     -448     -423     -369     -279     -110      139      411 
     638      720      599      355      120      -22      -62      -40 
      18       87       97       36      -44     -117     -145     -145 
    -174     -203     -151        1      218      454      635      695 
     630      553      630      892     1166     1282     1263     1219 
    1154      957      592      255      156      275      430      503 
     518      527      479      361      272      236      203      156 
      94       54       64       97      193      388      548      540 
     361       41     -384     -824    -1129    -1183    -1032     -785 
    -461     -130       74      130      110       37      -67     -141 
    -144      -59      167      556     1044     1507     1811     1911 
    1800     1458      996      631      425      314      241      218 
     268      295      187       -5     -207     -457     -718     -839 
    -750     -518     -207      133      379      407      291      187 
     110       41       79      251      460      653      793      846 
     839      832      912     1105     1286     1335     1275     1159 
    1012      900      870      859      787      673      577      484 
     392      363      395      394      306      182      103       81 
      51      -75     -325     -572     -641     -503     -294     -136 
     -93     -207     -444     -643     -697     -643     -575     -480 
    -286      -33      141      171      137      191      329      390 
     315      220      180      190      205      168       63      -97 
    -221     -130      189      500      626      611      556      499 
     445      433      461      450      399      400      414      351 
     253      135      -59     -272     -400     -390     -228       16 
     234      371      445      476      453      405      388      432 
     529      612      600      550      541      503      373      164 
    -166     -638    -1158    -1574    -1779    -1773    -1584    -1233 
    -807     -410     -143      -49      -22      103      352      646 
     907     1040      997      907      961     1156     1302     1281 
    1185     1089      924      733      661      711      789      822 
     751      629      562      649      943     1370     1792     2131 
    2280     2173     1872     1436      923      452       82     -190 
    -376     -526     -614     -468      -54      406      672      673 
     444       56     -326     -553     -635     -689     -835    -1127 
   -1475    -1696    -1678    -1448    -1136     -880     -762     -718 
    -564     -238      153      500      712      722      564      349 
     190      172      315      506      591      569      575      664 
     764      777      668      503      361      216       47      -87 
    -151     -149      -56      125      317      430      454      452 
     487      564      637      654      635      635      634      583 
     461      261       -1     -311     -611     -791     -849     -854 
    -785     -621     -413     -243     -180     -210     -270     -363 
    -469     -506     -442     -292      -79      159      402      626 
     758      743      648      538      375      182      120      248 
     452      653      872     1101     1254     1266     1162      988 
     789      641      611      710      905     1170     1441     1615 
    1671     1660     1553     1302     1020      854      811      850 
     928      953      866      711      583      506      414      333 
     357      442      481      454      384      294      205      135 
      95       98      113       67      -43     -136     -205     -332 
    -507     -634     -688     -749     -866    -1024    -1216    -1387 
   -1389    -1150     -785     -472     -278     -174     -147     -184 
    -191      -91       36      128      225      332      321      122 
     -70      -17      255      552      743      765      625      396 
     198      179      371      608      693      594      445      375 
     391      437      457      418      319      179       89      135 
     298      513      703      819      849      743      496      256 
     149       86      -59     -268     -473     -630     -710     -712 
    -638     -488     -322     -193      -52      136      299      345 
     297      261      280      287      290      353      413      367 
     248      125       62      122      306      534      700      745 
     668      523      432      448      452      355      229      155 
      94      -16     -128     -144      -68       48      180      318 
     452      584      719      847      950      986      997     1101 
    1289     1428     1501     1532     1482     1350     1182      999 
     832      691      526      306       28     -259     -503     -683 
    -756     -749     -784     -911    -1035    -1062    -1012     -967 
    -882     -631     -264        5       48      -49     -130     -195 
    -272     -267     -197     -198     -292     -368     -324     -199 
     -89       31      201      365      450      440      430      533 
     716      893     1036     1120     1093      962      843      839 
     854      754      607      518      419      238       36     -120 
    -203     -210     -160     -105     -101     -118      -99      -67 
     -45      -13        8      -12      -29        4       89      225 
     450      776     1125     1368     1382     1189      984      889 
     885      962     1092     1096      872      577      372      234 
     147      166      270      326      292      290      399      541 
     635      680      639      471      259      133      166      352 
     594      765      780      591      288       52      -41      -47 
     -49     -145     -364     -653     -919    -1036     -961     -823 
    -726     -631     -521     -444     -449     -496     -481     -396 
    -318     -282     -302     -379     -500     -649     -760     -751 
    -641     -517     -441     -457     -542     -596     -537     -302 
     159      770     1347     1777     2087     2346     2602     2808 
    2920     2951     2859     2586     2216     1892     1663     1476 
    1235      892      453      -93     -650     -997    -1061     -985 
    -897     -799     -680     -576     -486     -371     -272     -276 
    -364     -410     -365     -280     -191     -108      -76      -85 
     -25      124      256      261      132      -49     -199     -284 
    -302     -282     -270     -244     -175      -89      -13       31 
      62      151      334      573      815     1007     1132     1248 
    1386     1510     1579     1582     1530     1394     1173      949 
     789      707      691      665      522      211     -224     -718 
   -1202    -1536    -1580    -1352     -973     -545     -176       29 
      47      -66     -268     -508     -675     -685     -572     -422 
    -360     -475     -692     -851     -816     -533     -110      301 
     676      972     1125     1228     1408     1584     1567     1320 
     973      611      249      -37     -163     -139      -36       74 
     143      140       24     -218     -479     -550     -352        4 
     367      638      747      704      616      595      685      846 
    1008     1158     1260     1252     1102      805      449      176 
      40       45      170      297      321      226       59      -90 
    -117       14      241      454      573      569      454      272 
     124       95      189      356      529      650      702      689 
     656      615      503      302      125      106      274      525 
     718      758      638      441      216      -66     -353     -525 
    -577     -571     -503     -399     -346     -386     -475     -562 
    -623     -654     -638     -533     -338     -108       76      191 
     302      437      531      526      473      473      581      800 
    1078     1370     1651     1881     2045     2120     2006     1663 
    1242      876      596      421      359      360      368      342 
     243       35     -228     -418     -492     -504     -513     -606 
    -851    -1165    -1410    -1584    -1722    -1776    -1717    -1588 
   -1418    -1165     -807     -378       74      502      865     1125 
    1223     1131      912      630      324       33     -201     -310 
    -228       16      363      708      923     1007      986      841 
     646      550      576      669      784      911     1088     1287 
    1425     1525     1653     1777     1842     1841     1842     1890 
    1881     1703     1387     1028      679      355       43     -252 
    -499     -683     -792     -796     -697     -541     -430     -511 
    -815    -1206    -1552    -1779    -1845    -1756    -1533    -1239 
    -963     -716     -525     -488     -577     -676     -773     -839 
    -811     -702     -598     -529     -438     -263       -5      274 
     508      691      845      919      909      903      897      824 
     704      581      490      523      754     1109     1424     1626 
    1760     1809     1722     1591     1478     1213      699      130 
    -278     -444     -330      -52      159      249      346      542 
     799     1016     1151     1213     1142      884      511      124 
    -225     -442     -440     -265      -51      122      253      340 
     311      145      -79     -302     -461     -463     -337     -199 
    -112      -59        5       63       70       62       98      191 
     340      460      432      261       71      -48     -102     -126 
     -97       51      287      514      722     1009     1410     1794 
    1995     1969     1683     1117      434     -167     -595     -758 
    -641     -375     -130        2       91      211      297      265 
     143       20      -54     -114     -228     -434     -712     -919 
    -918     -706     -369      -20      253      382      330      147 
     -97     -351     -499     -437     -221       32      236      315 
     257      182      251      529      939     1332     1584     1669 
    1656     1634     1610     1555     1518     1533     1498     1331 
    1121     1015     1020     1051     1067     1092     1050      839 
     538      244      -72     -396     -619     -718     -750     -777 
    -812     -857     -945    -1065    -1105    -1047    -1005    -1005 
    -972     -862     -664     -407     -183      -28       71      120 
     122      121      155      201      175       87        6      -66 
    -149     -186     -106       56      225      394      554      650 
     658      610      568      635      846     1069     1156     1101 
     939      679      391      225      259      382      445      418 
     295       70     -195     -456     -707     -885     -897     -712 
    -437     -238     -128       22      226      400      558      753 
     931     1073     1285     1545     1691     1686     1586     1412 
    1194      996      900      909      912      814      558      112 
    -402     -745     -823     -722     -557     -436     -406     -437 
    -467     -457     -465     -558     -672     -697     -643     -587 
    -612     -726     -807     -731     -503     -201       70      171 
      62      -79      -45      175      465      750     1031     1275 
    1390     1363     1313     1345     1458     1582     1706     1840 
    1857     1626     1233      865      607      446      294       87 
    -110     -233     -302     -278      -97      117      164       -6 
    -283     -525     -629     -538     -284        9      237      356 
     386      392      363      203      -33     -132      -22      132 
     178      108      -33     -197     -287     -228      -81       18 
      47       51       71      160      360      612      773      734 
     554      415      375      352      348      399      449      472 
     484      429      248       13     -117      -93       27      251 
