Origin Time       2024/04/02 04:24:00
Lat.              40.133
Long.             141.712
Depth. (km)       71
Mag.              6.0
Station Code      YMT002
Station Lat.      38.7686
Station Long.     140.2965
Station Height(m) 101
Record Time       2024/04/02 04:25:32
Sampling Freq(Hz) 100Hz
Duration Time(s)  75
Dir.              U-D
Scale Factor      7845(gal)/8223790
Max. Acc. (gal)   1.319
Last Correction   2024/04/02 04:25:32
Memo.             
[...]
   18110    18139    18095    17960    17833    17821    17875    17903 
   17883    17851    17876    17967    18040    18046    17992    17918 
   17906    17959    18015    18056    18018    17832    17626    17594 
   17686    17766    17806    17767    17660    17647    17756    17822 
   17821    17864    17930    17911    17813    17763    17834    17965 
   18067    18126    18165    18169    18106    18019    17928    17809 
   17740    17817    17936    17969    17990    18065    18104    18084 
   18103    18192    18269    18237    18094    17975    17894    17726 
   17521    17409    17377    17367    17338    17282    17285    17371 
   17448    17455    17410    17352    17328    17366    17433    17477 
   17504    17558    17644    17705    17691    17625    17537    17433 
   17358    17352    17365    17383    17508    17720    17883    17963 
   17972    17903    17822    17814    17834    17779    17697    17703 
   17768    17828    17926    18002    17934    17842    17874    17932 
   17899    17791    17697    17680    17705    17752    17882    18017 
   18006    17892    17810    17791    17817    17845    17786    17625 
   17494    17491    17550    17612    17699    17772    17807    17851 
   17921    18025    18129    18161    18189    18319    18446    18454 
   18384    18310    18304    18366    18391    18374    18414    18468 
   18423    18283    18085    17894    17809    17801    17748    17698 
   17720    17732    17720    17748    17757    17682    17625    17647 
   17653    17632    17674    17760    17811    17875    17996    18073 
   18011    17921    17949    18049    18100    18072    17964    17799 
   17698    17748    17818    17763    17694    17718    17729    17672 
   17572    17437    17346    17327    17277    17167    17062    16962 
   16858    16780    16750    16765    16781    16798    16880    16995 
   17045    17072    17146    17208    17242    17328    17451    17529 
   17621    17805    17996    18107    18160    18123    17956    17779 
   17716    17736    17741    17709    17699    17725    17743    17780 
   17856    17907    17867    17730    17555    17439    17450    17524 
   17510    17429    17437    17518    17577    17632    17668    17617 
   17541    17517    17512    17504    17504    17509    17545    17622 
   17679    17671    17647    17641    17635    17649    17697    17709 
   17693    17726    17755    17687    17610    17612    17652    17728 
   17882    17996    17938    17834    17828    17853    17933    18153 
   18335    18334    18324    18436    18584    18711    18813    18851 
   18828    18801    18835    18928    18987    18968    18922    18913 
   18978    19095    19155    19105    19021    18986    19020    19087 
   19097    18974    18760    18543    18351    18172    17988    17793 
   17632    17512    17358    17197    17113    17059    17014    17030 
   17023    16954    16931    16943    16916    16868    16803    16767 
   16807    16852    16902    17026    17138    17158    17186    17274 
   17388    17508    17579    17575    17570    17626    17698    17686 
   17590    17521    17521    17518    17491    17436    17320    17204 
   17159    17173    17230    17278    17216    17097    17051    17072 
   17146    17297    17432    17459    17421    17393    17417    17485 
   17547    17610    17705    17822    17953    18040    18073    18166 
   18353    18546    18684    18708    18624    18584    18638    18648 
   18571    18500    18430    18289    18123    18000    17895    17784 
   17716    17703    17717    17753    17814    17825    17770    17771 
   17851    17919    17998    18096    18157    18208    18246    18200 
   18162    18192    18206    18193    18187    18168    18122    17977 
   17737    17566    17516    17527    17556    17497    17351    17282 
   17289    17280    17294    17315    17224    17053    16918    16850 
   16831    16869    16972    17128    17321    17489    17539    17475 
   17402    17456    17644    17814    17874    17874    17859    17894 
   18041    18192    18227    18203    18199    18195    18189    18220 
   18226    18172    18183    18300    18416    18488    18532    18496 
   18362    18246    18231    18246    18188    18056    17890    17703 
   17512    17342    17250    17232    17200    17116    17046    17061 
   17162    17263    17334    17454    17618    17713    17756    17799 
   17779    17772    17919    18050    18007    17965    17983    17942 
   17925    18023    18153    18231    18258    18265    18234    18094 
   17930    17903    17942    17944    17999    18076    18040    18014 
   18102    18173    18192    18200    18171    18092    17983    17869 
   17783    17675    17568    17593    17706    17772    17838    17944 
   17984    17963    17953    17906    17815    17787    17798    17775 
   17770    17803    17776    17660    17541    17455    17383    17375 
   17431    17462    17497    17604    17689    17713    17763    17786 
   17714    17628    17509    17307    17155    17092    17018    16981 
   17043    17162    17294    17352    17339    17365    17394    17375 
   17393    17433    17446    17466    17455    17404    17362    17334 
   17354    17375    17297    17262    17386    17475    17475    17512 
   17494    17405    17440    17558    17608    17645    17691    17698 
   17749    17871    18010    18173    18310    18334    18303    18304 
   18349    18445    18531    18523    18489    18505    18481    18373 
   18279    18243    18199    18099    17967    17848    17810    17869 
   17902    17887    17980    18133    18175    18129    18040    17926 
   17886    17891    17856    17794    17660    17454    17332    17300 
   17212    17103    17089    17178    17342    17528    17633    17683 
   17776    17892    18018    18171    18219    18091    17902    17721 
   17602    17633    17720    17717    17685    17701    17710    17660 
   17574    17487    17405    17347    17366    17420    17442    17505 
   17649    17766    17805    17805    17757    17720    17747    17732 
   17658    17676    17756    17733    17671    17689    17721    17709 
   17703    17740    17798    17815    17780    17775    17875    18064 
   18245    18318    18330    18357    18339    18266    18246    18291 
   18330    18338    18300    18231    18180    18108    17975    17886 
   17911    17930    17891    17909    18004    18095    18156    18152 
   18044    17926    17929    18029    18125    18168    18158    18135 
   18144    18156    18118    18049    17969    17909    17929    17990 
   17967    17847    17709    17604    17543    17489    17443    17470 
   17504    17463    17475    17560    17556    17528    17597    17644 
   17631    17658    17724    17795    17826    17788    17761    17763 
   17710    17640    17626    17641    17678    17770    17855    17840 
   17751    17720    17802    17905    17952    17963    17936    17887 
   17906    17957    17936    17878    17867    17907    17945    17892 
   17725    17571    17544    17612    17679    17705    17675    17566 
   17437    17381    17377    17361    17302    17189    17145    17286 
   17458    17520    17582    17670    17747    17886    18014    18002 
   17975    18026    18090    18146    18164    18121    18095    18044 
   17882    17753    17739    17712    17675    17718    17770    17764 
   17744    17748    17774    17778    17752    17779    17875    17928 
   17915    17907    17915    17892    17815    17693    17589    17568 
   17597    17601    17577    17518    17440    17409    17437    17525 
   17680    17820    17910    17994    17968    17797    17667    17649 
   17614    17554    17539    17525    17498    17555    17686    17782 
   17829    17822    17726    17591    17486    17416    17358    17285 
   17228    17266    17374    17442    17466    17527    17624    17706 
   17775    17848    17887    17899    17969    18098    18173    18175 
   18191    18241    18279    18274    18233    18200    18212    18220 
   18195    18208    18292    18358    18338    18295    18274    18206 
   18084    18009    17959    17902    17907    17963    17991    17995 
   17999    17991    17963    17917    17837    17713    17644    17713 
   17784    17740    17647    17570    17540    17574    17616    17668 
   17741    17726    17651    17616    17524    17361    17315    17363 
   17328    17240    17220    17266    17328    17369    17365    17319 
   17261    17194    17115    17104    17194    17247    17211    17201 
   17258    17339    17456    17591    17694    17822    17965    18030 
   18063    18119    18146    18150    18135    18076    18077    18144 
   18096    17925    17752    17641    17633    17633    17502    17335 
   17247    17204    17226    17331    17419    17447    17462    17458 
   17450    17496    17566    17540    17408    17334    17377    17416 
   17404    17419    17475    17506    17491    17500    17570    17686 
   17851    17994    18000    17919    17901    17994    18164    18338 
   18462    18534    18577    18619    18663    18702    18740    18755 
   18719    18636    18513    18407    18400    18432    18399    18331 
   18272    18195    18088    17957    17864    17822    17730    17586 
   17501    17479    17489    17523    17510    17435    17408    17456 
   17483    17463    17435    17400    17350    17304    17285    17307 
   17320    17302    17335    17401    17459    17585    17686    17629 
   17606    17707    17744    17726    17770    17803    17842    17956 
   18045    18104    18222    18292    18273    18303    18382    18436 
   18470    18431    18304    18220    18239    18268    18262    18238 
   18193    18176    18181    18139    18114    18157    18145    18100 
   18169    18254    18212    18114    18036    17976    17934    17926 
   17992    18112    18196    18270    18368    18381    18276    18173 
   18126    18077    17998    17903    17772    17626    17578    17621 
   17614    17572    17629    17717    17683    17598    17590    17583 
   17497    17416    17396    17383    17359    17320    17261    17259 
   17378    17514    17575    17610    17626    17578    17574    17724 
   17898    17964    17956    17903    17829    17805    17807    17822 
   17922    18034    18009    17934    17929    17871    17686    17512 
   17417    17366    17367    17377    17321    17290    17374    17443 
   17410    17374    17363    17332    17315    17304    17269    17250 
   17280    17367    17506    17653    17764    17822    17834    17847 
   17910    18044    18180    18204    18160    18172    18204    18189 
   18185    18183    18125    18069    18057    18052    18068    18103 
   18088    18048    18037    17982    17844    17747    17761    17836 
   17905    17940    17941    17911    17826    17724    17675    17686 
   17725    17741    17683    17568    17459    17383    17319    17267 
   17292    17375    17397    17374    17432    17518    17521    17506 
   17536    17559    17536    17470    17373    17323    17381    17420 
   17370    17381    17464    17444    17375    17427    17528    17572 
   17614    17693    17791    17882    17923    17918    17891    17864 
   17857    17876    17880    17826    17740    17680    17635    17582 
   17571    17609    17649    17672    17656    17621    17622    17614 
   17539    17491    17575    17695    17691    17598    17528    17473 
   17405    17356    17354    17377    17363    17315    17327    17427 
   17531    17587    17633    17683    17689    17645    17624    17635 
   17622    17602    17613    17618    17591    17589    17635    17693 
   17732    17729    17709    17737    17817    17869    17859    17842 
   17886    17969    18031    18031    17968    17887    17872    17928 
   17987    18010    17983    17918    17909    17979    18030    18014 
   17965    17919    17906    17894    17832    17752    17698    17693 
   17763    17891    18034    18146    18173    18098    17988    17930 
   17928    17922    17932    17976    17976    17929    17926    17938 
   17922    17984    18142    18211    18153    18165    18268    18314 
   18334    18415    18470    18438    18346    18214    18123    18119 
   18103    18044    18013    17995    18006    18100    18171    18125 
   18092    18131    18112    18025    17984    17949    17824    17693 
   17625    17564    17491    17429    17415    17467    17482    17371 
   17243    17197    17240    17373    17520    17617    17717    17817 
   17861    17906    17976    17998    18004    18088    18172    18152 
   18079    18023    18002    18037    18080    18011    17834    17682 
   17609    17595    17594    17525    17404    17378    17447    17481 
   17451    17396    17344    17375    17497    17616    17690    17756 
   17855    17957    18010    18056    18148    18216    18233    18264 
   18323    18369    18403    18404    18324    18241    18250    18264 
   18203    18199    18291    18354    18388    18418    18389    18362 
   18389    18382    18369    18441    18547    18607    18581    18466 
   18357    18368    18438    18419    18318    18241    18202    18157 
   18104    18079    18063    17972    17837    17771    17753    17736 
   17790    17894    17942    17979    18063    18080    17941    17725 
   17533    17420    17388    17328    17189    17096    17093    17061 
   16970    16876    16784    16722    16700    16690    16687    16661 
   16560    16443    16398    16463    16602    16692    16659    16607 
   16646    16750    16879    17005    17097    17201    17379    17550 
   17636    17713    17803    17849    17869    17872    17861    17886 
   17926    17932    17932    17941    17980    18067    18069    17911 
   17786    17821    17867    17814    17729    17674    17614    17508 
   17388    17331    17336    17358    17369    17340    17296    17325 
   17416    17431    17362    17348    17408    17451    17440    17377 
   17271    17208    17235    17261    17251    17289    17371    17433 
   17487    17545    17601    17659    17664    17606    17625    17736 
   17756    17647    17548    17552    17695    17887    17911    17741 
   17620    17655    17724    17776    17845    17891    17888    17898 
   17946    18041    18152    18177    18094    18050    18125    18212 
   18247    18299    18372    18360    18269    18211    18157    18069 
   18029    18021    17955    17890    17913    17984    18025    18003 
   17996    18057    18099    18100    18119    18154    18152    18094 
   18054    18104    18176    18185    18179    18210    18250    18223 
   18150    18164    18260    18296    18261    18262    18331    18372 
   18279    18122    18081    18146    18196    18216    18183    18060 
   17919    17818    17772    17802    17806    17714    17671    17743 
   17806    17841    17882    17865    17803    17783    17829    17894 
   17902    17845    17795    17774    17757    17728    17663    17590 
   17577    17616    17667    17697    17647    17545    17539    17629 
   17691    17712    17737    17761    17763    17740    17690    17622 
   17550    17506    17529    17621    17728    17784    17803    17847 
   17890    17909    17953    17977    17860    17710    17713    17749 
   17703    17707    17749    17701    17659    17679    17644    17570 
   17539    17544    17591    17656    17675    17660    17640    17653 
   17728    17807    17861    17896    17872    17795    17732    17697 
   17655    17610    17594    17620    17675    17755    17818    17799 
   17751    17786    17879    17945    17998    18071    18144    18227 
   18345    18435    18461    18465    18438    18374    18339    18337 
   18315    18250    18183    18175    18188    18144    18046    17880 
   17648    17520    17572    17652    17655    17633    17601    17524 
   17454    17451    17469    17496    17595    17675    17636    17599 
   17639    17626    17564    17555    17556    17523    17486    17431 
   17412    17533    17695    17732    17676    17625    17585    17556 
   17547    17544    17564    17633    17671    17604    17559    17660 
   17779    17756    17686    17710    17761    17761    17814    17946 
   18007    17979    17961    17926    17865    17886    17937    17923 
   17945    18053    18111    18049    17928    17842    17841    17901 
   17964    17934    17786    17663    17659    17672    17658    17651 
   17601    17504    17425    17344    17258    17224    17243    17308 
   17433    17524    17494    17436    17440    17456    17460    17471 
   17452    17386    17294    17220    17209    17231    17219    17199 
   17226    17328    17479    17571    17556    17552    17628    17687 
   17662    17618    17591    17551    17510    17501    17494    17483 
   17528    17614    17670    17725    17822    17878    17857    17857 
   17952    18090    18204    18300    18391    18447    18451    18426 
   18395    18357    18322    18300    18223    18042    17886    17848 
   17829    17805    17845    17857    17775    17693    17671    17695 
   17743    17744    17689    17655    17664    17675    17648    17574 
   17528    17583    17645    17633    17598    17558    17513    17512 
   17560    17664    17821    17902    17832    17716    17621    17585 
   17664    17786    17847    17875    17874    17817    17768    17794 
   17901    18040    18102    18068    18036    18025    17977    17956 
   18036    18103    18067    18026    18033    17992    17913    17902 
   17971    18061    18134    18127    18022    17919    17906    17941 
   17957    17949    17963    18022    18061    18018    17944    17875 
   17829    17861    17934    17938    17930    18015    18129    18168 
   18142    18058    17909    17775    17745    17805    17876    17868 
   17776    17740    17814    17865    17845    17841    17887    17964 
   18003    17937    17842    17797    17739    17674    17622    17521 
   17435    17452    17474    17470    17494    17471    17365    17313 
   17408    17555    17617    17593    17587    17670    17821    17945 
   17955    17887    17845    17833    17791    17717    17668    17683 
   17736    17820    17914    17902    17772    17698    17701    17679 
   17737    17919    18044    18103    18207    18292    18324    18364 
   18351    18293    18297    18320    18280    18243    18234    18203 
   18199    18218    18180    18130    18119    18069    18009    18021 
   18021    17952    17919    17969    18031    18072    18068    17961 
   17803    17697    17620    17518    17454    17464    17460    17416 
   17379    17325    17244    17190    17163    17120    17073    17066 
   17108    17147    17138    17155    17265    17362    17354    17315 
   17315    17331    17347    17374    17423    17473    17473    17396 
   17290    17250    17313    17398    17401    17338    17324    17415 
   17539    17616    17633    17625    17658    17710    17695    17667 
   17714    17739    17697    17685    17706    17722    17761    17782 
   17761    17784    17845    17841    17784    17753    17771    17837 
   17902    17910    17883    17851    17825    17842    17905    17942 
   17907    17844    17847    17921    18007    18065    18041    17937 
   17860    17848    17849    17855    17838    17783    17759    17770 
