Origin Time       2025/06/03 22:18:00
Lat.              41.7
Long.             143.6
Depth. (km)       30
Mag.              5.2
Station Code      ABSH06
Station Lat.      44.2146
Station Long.     143.6202
Station Height(m) 7
Record Time       2025/06/03 22:19:48
Sampling Freq(Hz) 100Hz
Duration Time(s)  120
Dir.              5
Scale Factor      3920(gal)/6170801
Max. Acc. (gal)   0.346
Last Correction   2025/06/03 22:19:33
Memo.             
[...]
   14651    14662    14669    14678    14691    14709    14731    14751 
   14767    14779    14784    14780    14773    14768    14763    14752 
   14734    14709    14681    14657    14642    14636    14637    14640 
   14634    14618    14595    14566    14542    14530    14528    14539 
   14556    14565    14560    14537    14499    14459    14430    14426 
   14451    14502    14571    14640    14693    14723    14732    14723 
   14704    14690    14692    14711    14739    14767    14785    14788 
   14777    14751    14711    14662    14604    14546    14506    14490 
   14503    14547    14609    14668    14710    14720    14692    14641 
   14592    14560    14552    14567    14595    14620    14629    14615 
   14580    14530    14483    14452    14439    14443    14463    14489 
   14513    14535    14556    14578    14607    14649    14698    14743 
   14774    14785    14774    14747    14714    14687    14676    14684 
   14709    14748    14788    14815    14818    14793    14748    14699 
   14661    14639    14634    14645    14662    14674    14677    14674 
   14669    14662    14654    14647    14635    14624    14622    14627 
   14636    14647    14654    14651    14637    14616    14594    14573 
   14559    14554    14558    14567    14576    14585    14588    14583 
   14572    14556    14536    14517    14499    14487    14485    14492 
   14506    14525    14540    14548    14549    14547    14543    14543 
   14555    14577    14604    14633    14661    14684    14697    14699 
   14693    14683    14677    14676    14683    14702    14726    14739 
   14739    14723    14691    14654    14623    14606    14614    14644 
   14685    14726    14755    14768    14764    14746    14723    14702 
   14691    14690    14693    14693    14685    14665    14637    14601 
   14561    14529    14508    14492    14486    14493    14510    14533 
   14560    14589    14614    14629    14632    14632    14631    14629 
   14634    14647    14659    14673    14682    14678    14668    14656 
   14639    14626    14623    14633    14656    14687    14721    14753 
   14771    14775    14769    14749    14719    14689    14657    14623 
   14592    14563    14531    14504    14485    14468    14454    14441 
   14424    14406    14390    14381    14377    14383    14396    14412 
   14433    14456    14484    14520    14561    14602    14637    14662 
   14679    14697    14721    14754    14796    14843    14882    14906 
   14919    14928    14936    14945    14956    14966    14974    14977 
   14970    14953    14928    14894    14855    14812    14768    14733 
   14711    14702    14699    14689    14667    14627    14571    14514 
   14466    14435    14423    14423    14426    14431    14430    14422 
   14410    14394    14378    14366    14357    14360    14383    14425 
   14482    14546    14605    14645    14662    14658    14639    14617 
   14606    14612    14633    14661    14686    14701    14703    14696 
   14678    14654    14635    14623    14621    14632    14652    14670 
   14684    14689    14685    14676    14670    14673    14686    14710 
   14738    14762    14775    14778    14769    14751    14735    14728 
   14730    14736    14748    14761    14766    14764    14751    14725 
   14693    14663    14635    14613    14600    14595    14593    14587 
   14574    14556    14527    14493    14464    14441    14427    14425 
   14429    14435    14440    14440    14430    14412    14393    14385 
   14392    14416    14456    14504    14549    14586    14609    14621 
   14627    14632    14642    14660    14684    14708    14731    14751 
   14766    14773    14775    14774    14771    14766    14756    14739 
   14715    14688    14663    14642    14627    14617    14610    14604 
   14599    14595    14596    14604    14617    14632    14648    14664 
   14673    14671    14663    14652    14646    14646    14648    14649 
   14653    14660    14665    14671    14678    14681    14683    14688 
   14695    14711    14737    14771    14806    14834    14858    14869 
   14863    14849    14830    14810    14801    14803    14809    14814 
   14816    14808    14783    14746    14701    14652    14605    14567 
   14538    14513    14486    14459    14433    14403    14374    14349 
   14328    14311    14308    14321    14347    14381    14421    14461 
   14497    14522    14529    14525    14519    14516    14522    14542 
   14576    14617    14658    14692    14708    14706    14686    14654 
   14615    14576    14544    14521    14508    14500    14493    14485 
   14472    14452    14433    14422    14425    14443    14485    14549 
   14627    14710    14787    14853    14899    14924    14932    14934 
   14936    14941    14951    14957    14947    14919    14875    14812 
   14740    14671    14611    14564    14533    14515    14505    14502 
   14503    14504    14503    14504    14506    14512    14527    14550 
   14580    14612    14639    14654    14656    14650    14641    14633 
   14629    14633    14639    14645    14648    14643    14631    14618 
   14607    14600    14602    14609    14618    14630    14641    14655 
   14672    14690    14709    14727    14740    14746    14745    14736 
   14721    14708    14700    14695    14688    14678    14665    14645 
   14620    14596    14575    14561    14556    14562    14575    14592 
   14612    14632    14650    14663    14672    14676    14676    14676 
   14683    14700    14726    14759    14790    14814    14827    14825 
   14811    14789    14763    14737    14715    14700    14688    14678 
   14668    14651    14623    14590    14555    14524    14504    14500 
   14508    14526    14550    14572    14588    14593    14587    14578 
   14574    14580    14598    14624    14653    14676    14680    14666 
   14639    14601    14561    14526    14500    14480    14467    14462 
   14462    14466    14470    14474    14483    14493    14499    14506 
   14516    14522    14525    14530    14537    14547    14557    14567 
   14580    14593    14603    14604    14597    14587    14581    14582 
   14589    14603    14618    14632    14642    14650    14659    14669 
   14689    14712    14734    14758    14775    14782    14782    14769 
   14746    14724    14710    14703    14705    14710    14711    14699 
   14671    14634    14596    14564    14546    14544    14559    14585 
   14613    14639    14655    14657    14646    14629    14615    14609 
   14615    14634    14664    14698    14724    14737    14736    14720 
   14692    14665    14645    14633    14631    14641    14656    14665 
   14669    14670    14666    14655    14645    14641    14640    14641 
   14648    14657    14664    14671    14680    14686    14691    14699 
   14709    14717    14723    14731    14737    14743    14747    14746 
   14741    14734    14724    14717    14715    14713    14713    14715 
   14714    14707    14695    14675    14651    14623    14593    14566 
   14542    14526    14513    14496    14476    14455    14432    14415 
   14407    14407    14415    14429    14445    14465    14489    14517 
   14545    14572    14599    14621    14635    14645    14656    14668 
   14683    14700    14713    14721    14725    14724    14719    14713 
   14703    14689    14676    14665    14650    14636    14620    14597 
   14571    14548    14523    14495    14471    14449    14430    14415 
   14407    14410    14423    14444    14472    14502    14530    14555 
   14576    14593    14609    14622    14630    14641    14658    14670 
   14681    14693    14702    14705    14703    14697    14692    14689 
   14691    14700    14710    14719    14723    14720    14714    14704 
   14695    14695    14703    14717    14736    14762    14789    14815 
   14837    14846    14842    14827    14801    14766    14730    14701 
   14678    14653    14630    14605    14573    14539    14509    14484 
   14465    14450    14443    14445    14453    14470    14494    14523 
   14560    14594    14622    14648    14672    14694    14715    14735 
   14747    14754    14758    14760    14761    14760    14760    14760 
   14760    14757    14751    14741    14728    14713    14696    14676 
   14655    14642    14631    14618    14611    14607    14598    14589 
   14582    14572    14564    14559    14558    14561    14567    14581 
   14602    14630    14661    14689    14713    14730    14738    14739 
   14739    14737    14733    14729    14722    14712    14695    14672 
   14647    14625    14605    14590    14583    14583    14588    14594 
   14598    14599    14598    14597    14593    14593    14601    14611 
   14622    14633    14640    14641    14637    14630    14623    14617 
   14610    14603    14596    14590    14580    14567    14554    14542 
   14532    14531    14541    14561    14589    14623    14654    14676 
   14685    14687    14686    14682    14678    14679    14683    14686 
   14685    14679    14662    14634    14595    14550    14505    14464 
   14431    14411    14402    14400    14411    14427    14440    14451 
   14453    14442    14426    14407    14389    14379    14382    14393 
   14414    14443    14474    14507    14541    14572    14605    14641 
   14674    14707    14741    14772    14798    14820    14836    14842 
   14835    14817    14790    14754    14713    14672    14631    14592 
   14561    14534    14511    14500    14496    14499    14509    14520 
   14533    14553    14577    14605    14638    14671    14705    14738 
   14770    14801    14831    14856    14877    14890    14899    14900 
   14891    14876    14856    14834    14816    14801    14785    14767 
   14749    14728    14703    14679    14663    14655    14654    14665 
   14689    14718    14744    14765    14778    14778    14766    14751 
   14739    14728    14722    14720    14719    14716    14709    14700 
   14689    14676    14663    14654    14652    14659    14672    14692 
   14715    14741    14765    14783    14797    14805    14801    14794 
   14792    14788    14780    14769    14752    14726    14693    14655 
   14615    14579    14548    14517    14484    14452    14419    14382 
   14346    14316    14289    14266    14243    14222    14210    14202 
   14197    14196    14201    14207    14211    14213    14218    14232 
   14259    14297    14343    14393    14441    14484    14522    14557 
   14585    14606    14623    14635    14646    14657    14662    14662 
   14663    14664    14666    14668    14671    14682    14702    14726 
   14753    14783    14815    14843    14866    14885    14896    14903 
   14905    14904    14905    14900    14891    14879    14863    14841 
   14818    14796    14773    14751    14734    14720    14709    14699 
   14688    14674    14658    14638    14617    14600    14586    14574 
   14566    14558    14545    14526    14501    14473    14441    14414 
   14399    14396    14398    14407    14424    14446    14466    14484 
   14504    14531    14561    14594    14631    14675    14722    14765 
   14802    14834    14859    14872    14875    14873    14862    14842 
   14815    14785    14758    14736    14715    14700    14693    14688 
   14683    14679    14677    14675    14675    14677    14678    14677 
   14677    14679    14689    14705    14724    14744    14759    14762 
   14754    14738    14717    14695    14675    14663    14659    14655 
   14652    14650    14646    14640    14635    14626    14614    14603 
   14589    14575    14566    14560    14556    14555    14557    14559 
   14561    14563    14568    14572    14575    14577    14573    14563 
   14553    14545    14541    14543    14550    14561    14575    14587 
   14598    14604    14603    14597    14594    14595    14594    14594 
   14599    14606    14609    14606    14597    14582    14564    14545 
   14525    14508    14493    14484    14486    14498    14513    14530 
   14546    14553    14553    14552    14552    14556    14567    14587 
   14610    14631    14645    14647    14640    14631    14620    14610 
   14606    14608    14615    14629    14645    14659    14671    14680 
   14684    14681    14669    14652    14637    14626    14620    14620 
   14617    14611    14602    14593    14587    14586    14591    14602 
   14609    14614    14618    14619    14619    14626    14638    14649 
   14660    14668    14674    14680    14686    14693    14704    14716 
   14729    14745    14765    14789    14814    14836    14855    14869 
   14877    14879    14875    14871    14865    14855    14845    14832 
   14814    14795    14778    14766    14759    14755    14757    14762 
   14764    14762    14752    14729    14698    14664    14623    14585 
   14549    14511    14476    14444    14407    14369    14336    14306 
   14282    14269    14267    14273    14285    14304    14328    14354 
   14384    14416    14450    14485    14519    14554    14587    14618 
   14652    14683    14708    14729    14745    14754    14757    14754 
   14744    14726    14703    14680    14655    14629    14605    14586 
   14568    14557    14557    14564    14575    14591    14608    14622 
   14632    14644    14660    14682    14713    14751    14790    14827 
   14862    14891    14917    14945    14970    14993    15016    15036 
   15052    15063    15067    15066    15057    15038    15011    14975 
   14927    14869    14804    14736    14669    14604    14543    14490 
   14441    14391    14344    14293    14241    14193    14153    14120 
   14097    14088    14089    14101    14121    14146    14175    14203 
   14229    14256    14284    14314    14348    14383    14415    14443 
   14463    14478    14492    14508    14527    14547    14565    14580 
   14591    14599    14604    14607    14610    14618    14629    14641 
   14658    14677    14698    14719    14737    14755    14773    14790 
   14805    14822    14842    14863    14882    14899    14908    14911 
   14910    14904    14892    14875    14853    14829    14804    14781 
   14761    14745    14733    14723    14714    14712    14710    14702 
   14692    14680    14667    14655    14649    14648    14650    14658 
   14669    14677    14684    14694    14705    14719    14738    14762 
   14787    14814    14839    14857    14869    14875    14874    14867 
   14859    14851    14842    14834    14827    14815    14797    14775 
   14749    14720    14695    14675    14655    14635    14615    14587 
   14551    14512    14469    14420    14373    14336    14304    14273 
   14247    14226    14205    14187    14173    14162    14162    14177 
   14200    14233    14277    14328    14379    14433    14483    14527 
   14565    14597    14626    14652    14677    14702    14728    14748 
   14760    14766    14761    14746    14726    14710    14696    14690 
   14694    14703    14714    14727    14738    14745    14749    14750 
   14751    14753    14758    14767    14777    14784    14785    14782 
   14776    14763    14749    14737    14728    14723    14721    14721 
   14723    14721    14713    14701    14685    14666    14647    14631 
   14615    14596    14574    14557    14542    14524    14507    14489 
   14468    14447    14426    14404    14384    14369    14357    14345 
   14333    14323    14314    14307    14301    14301    14307    14319 
   14338    14366    14395    14424    14456    14491    14526    14564 
   14605    14645    14687    14726    14762    14798    14829    14851 
   14869    14881    14884    14884    14882    14881    14882    14882 
   14883    14886    14884    14881    14874    14861    14844    14824 
   14804    14789    14779    14773    14771    14771    14769    14766 
   14760    14752    14744    14739    14737    14739    14748    14763 
   14782    14801    14821    14837    14848    14858    14868    14877 
   14887    14898    14908    14913    14913    14906    14893    14876 
   14855    14829    14798    14764    14723    14680    14634    14585 
   14537    14489    14440    14397    14360    14328    14305    14288 
   14275    14265    14260    14259    14261    14267    14282    14303 
   14327    14352    14377    14400    14417    14433    14448    14459 
   14469    14477    14477    14473    14465    14452    14435    14418 
   14399    14377    14355    14333    14312    14295    14280    14268 
   14258    14251    14249    14256    14267    14284    14310    14344 
   14380    14414    14449    14485    14521    14560    14603    14649 
   14698    14750    14802    14854    14906    14952    14992    15034 
   15069    15095    15117    15135    15145    15151    15153    15150 
   15144    15132    15110    15076    15035    14985    14929    14871 
   14817    14771    14731    14697    14668    14644    14620    14595 
   14576    14562    14552    14549    14557    14572    14590    14609 
   14628    14648    14668    14688    14704    14716    14727    14736 
   14739    14738    14735    14730    14725    14721    14715    14709 
   14703    14693    14683    14673    14661    14650    14640    14633 
   14628    14621    14616    14615    14614    14614    14618    14623 
   14628    14635    14645    14655    14665    14672    14677    14681 
   14685    14692    14701    14715    14736    14760    14783    14803 
   14816    14820    14822    14822    14818    14814    14810    14804 
   14792    14772    14741    14703    14655    14599    14544    14489 
   14434    14387    14348    14313    14278    14244    14214    14187 
   14162    14143    14133    14131    14137    14151    14166    14185 
   14210    14237    14265    14296    14331    14367    14402    14432 
   14461    14485    14500    14512    14522    14525    14526    14529 
   14529    14530    14533    14537    14545    14554    14564    14580 
   14601    14624    14651    14680    14705    14728    14750    14767 
   14777    14782    14777    14765    14753    14737    14719    14707 
   14697    14685    14677    14671    14662    14653    14647    14644 
   14643    14642    14643    14645    14646    14647    14653    14660 
   14664    14670    14677    14681    14683    14688    14693    14704 
   14719    14735    14748    14760    14772    14780    14787    14795 
   14805    14814    14826    14840    14853    14868    14883    14899 
   14913    14924    14937    14945    14951    14959    14966    14975 
   14988    14996    15002    15005    15000    14989    14968    14939 
   14909    14877    14841    14804    14771    14737    14700    14666 
   14634    14600    14569    14541    14518    14501    14491    14485 
   14486    14487    14487    14488    14489    14485    14483    14487 
   14494    14504    14516    14526    14532    14532    14524    14512 
   14500    14489    14479    14472    14466    14463    14462    14460 
   14458    14454    14453    14453    14451    14451    14457    14465 
   14478    14493    14508    14521    14530    14535    14534    14527 
   14519    14514    14508    14504    14505    14504    14499    14487 
   14473    14458    14442    14426    14415    14407    14404    14405 
   14405    14408    14415    14424    14435    14452    14471    14492 
   14512    14527    14539    14550    14554    14557    14561    14561 
   14559    14561    14562    14560    14558    14554    14549    14546 
   14545    14550    14561    14575    14592    14617    14640    14665 
