Origin Time       2025/06/03 22:18:00
Lat.              41.7
Long.             143.6
Depth. (km)       30
Mag.              5.2
Station Code      ABSH11
Station Lat.      43.9144
Station Long.     144.1913
Station Height(m) -82
Record Time       2025/06/03 22:20:02
Sampling Freq(Hz) 100Hz
Duration Time(s)  120
Dir.              1
Scale Factor      2942(gal)/8224139
Max. Acc. (gal)   0.117
Last Correction   2025/06/03 22:20:03
Memo.             
  -53586   -53570   -53547   -53522   -53495   -53465   -53442   -53423 
  -53396   -53370   -53349   -53323   -53300   -53285   -53279   -53277 
  -53283   -53288   -53293   -53306   -53323   -53342   -53360   -53376 
  -53389   -53400   -53412   -53431   -53454   -53473   -53488   -53505 
  -53522   -53531   -53535   -53539   -53545   -53553   -53558   -53562 
  -53570   -53586   -53603   -53613   -53626   -53638   -53649   -53659 
  -53670   -53684   -53696   -53704   -53716   -53734   -53746   -53766 
  -53784   -53788   -53798   -53809   -53805   -53804   -53801   -53788 
  -53781   -53775   -53765   -53755   -53742   -53723   -53705   -53689 
  -53669   -53654   -53644   -53638   -53626   -53611   -53603   -53596 
  -53581   -53565   -53547   -53530   -53516   -53505   -53492   -53477 
  -53468   -53462   -53454   -53443   -53434   -53428   -53427   -53424 
  -53424   -53428   -53431   -53430   -53433   -53442   -53454   -53464 
  -53474   -53495   -53518   -53536   -53555   -53578   -53590   -53595 
  -53609   -53627   -53634   -53639   -53647   -53655   -53662   -53666 
  -53677   -53690   -53701   -53713   -53727   -53731   -53732   -53738 
  -53734   -53717   -53711   -53708   -53696   -53685   -53676   -53663 
  -53653   -53644   -53636   -53626   -53613   -53605   -53597   -53589 
  -53582   -53580   -53578   -53581   -53586   -53593   -53601   -53608 
  -53615   -53619   -53617   -53616   -53613   -53607   -53603   -53596 
  -53584   -53574   -53566   -53553   -53543   -53539   -53534   -53531 
  -53526   -53522   -53524   -53524   -53520   -53526   -53530   -53531 
  -53545   -53563   -53577   -53589   -53597   -53599   -53600   -53599 
  -53596   -53597   -53597   -53595   -53599   -53608   -53613   -53624 
  -53643   -53661   -53671   -53680   -53690   -53711   -53728   -53735 
  -53739   -53747   -53751   -53747   -53743   -53746   -53747   -53743 
  -53739   -53732   -53727   -53728   -53727   -53720   -53721   -53721 
  -53712   -53703   -53693   -53678   -53670   -53665   -53661   -53658 
  -53657   -53654   -53650   -53649   -53646   -53638   -53627   -53615 
  -53597   -53577   -53561   -53546   -53532   -53520   -53507   -53495 
  -53496   -53493   -53488   -53493   -53496   -53495   -53496   -53493 
  -53487   -53487   -53485   -53478   -53477   -53481   -53482   -53487 
  -53497   -53505   -53509   -53515   -53519   -53520   -53522   -53532 
  -53543   -53549   -53555   -53565   -53569   -53572   -53573   -53574 
  -53577   -53582   -53584   -53592   -53609   -53628   -53647   -53673 
  -53696   -53717   -53738   -53747   -53757   -53767   -53769   -53767 
  -53766   -53765   -53763   -53766   -53767   -53763   -53759   -53755 
  -53754   -53752   -53746   -53746   -53752   -53751   -53748   -53752 
  -53755   -53759   -53767   -53775   -53782   -53789   -53798   -53804 
  -53805   -53805   -53805   -53806   -53809   -53806   -53801   -53794 
  -53782   -53765   -53746   -53717   -53690   -53667   -53643   -53619 
  -53593   -53569   -53546   -53522   -53501   -53485   -53470   -53457 
  -53443   -53422   -53404   -53391   -53374   -53361   -53353   -53350 
  -53352   -53349   -53354   -53361   -53361   -53364   -53369   -53370 
  -53374   -53381   -53393   -53407   -53416   -53430   -53442   -53449 
  -53461   -53476   -53488   -53503   -53520   -53541   -53555   -53569 
  -53582   -53590   -53593   -53599   -53601   -53599   -53596   -53601 
  -53604   -53599   -53597   -53600   -53599   -53592   -53589   -53590 
  -53586   -53578   -53574   -53580   -53581   -53578   -53585   -53585 
  -53577   -53574   -53568   -53562   -53561   -53551   -53541   -53538 
  -53539   -53535   -53534   -53536   -53538   -53539   -53541   -53538 
  -53538   -53545   -53549   -53551   -53554   -53554   -53554   -53553 
  -53549   -53543   -53539   -53532   -53527   -53527   -53528   -53532 
  -53545   -53558   -53569   -53584   -53601   -53615   -53627   -53639 
  -53650   -53661   -53666   -53676   -53689   -53701   -53715   -53728 
  -53734   -53742   -53754   -53763   -53771   -53782   -53794   -53802 
  -53809   -53815   -53817   -53820   -53824   -53820   -53817   -53819 
  -53815   -53805   -53798   -53800   -53797   -53792   -53786   -53775 
  -53765   -53758   -53744   -53732   -53725   -53717   -53713   -53709 
  -53697   -53689   -53684   -53677   -53669   -53661   -53651   -53646 
  -53642   -53638   -53631   -53626   -53617   -53603   -53589   -53582 
  -53576   -53568   -53563   -53561   -53554   -53539   -53527   -53520 
  -53514   -53503   -53485   -53469   -53454   -53439   -53424   -53418 
  -53419   -53415   -53412   -53419   -53423   -53416   -53416   -53422 
  -53424   -53424   -53426   -53424   -53422   -53423   -53430   -53433 
  -53431   -53437   -53445   -53450   -53461   -53474   -53485   -53503 
  -53523   -53539   -53555   -53573   -53584   -53596   -53607   -53608 
  -53611   -53620   -53626   -53632   -53644   -53655   -53666   -53669 
  -53667   -53673   -53678   -53674   -53670   -53670   -53661   -53653 
  -53649   -53640   -53632   -53635   -53634   -53622   -53616   -53613 
  -53609   -53607   -53604   -53599   -53596   -53599   -53595   -53592 
  -53592   -53589   -53584   -53573   -53559   -53551   -53538   -53516 
  -53504   -53496   -53477   -53457   -53441   -53420   -53404   -53396 
  -53392   -53395   -53400   -53408   -53420   -53435   -53455   -53478 
  -53501   -53523   -53545   -53566   -53586   -53609   -53631   -53650 
  -53674   -53697   -53716   -53736   -53757   -53774   -53790   -53802 
  -53817   -53836   -53847   -53856   -53871   -53882   -53886   -53886 
  -53890   -53894   -53887   -53887   -53897   -53896   -53894   -53900 
  -53900   -53896   -53892   -53882   -53873   -53860   -53844   -53825 
  -53805   -53786   -53769   -53752   -53735   -53723   -53712   -53698 
  -53689   -53677   -53658   -53642   -53626   -53603   -53576   -53547 
  -53523   -53499   -53473   -53450   -53434   -53416   -53401   -53392 
  -53385   -53380   -53380   -53383   -53383   -53389   -53400   -53407 
  -53420   -53431   -53437   -53447   -53464   -53480   -53503   -53526 
  -53547   -53573   -53600   -53620   -53636   -53650   -53659   -53667 
  -53677   -53686   -53694   -53697   -53698   -53700   -53693   -53686 
  -53682   -53670   -53658   -53654   -53647   -53639   -53639   -53636 
  -53632   -53623   -53611   -53601   -53592   -53580   -53568   -53555 
  -53543   -53531   -53518   -53508   -53503   -53499   -53500   -53503 
  -53505   -53508   -53508   -53511   -53516   -53522   -53527   -53535 
  -53542   -53543   -53542   -53546   -53551   -53562   -53578   -53593 
  -53607   -53626   -53646   -53665   -53684   -53701   -53719   -53740 
  -53759   -53773   -53788   -53802   -53815   -53827   -53832   -53833 
  -53838   -53835   -53827   -53819   -53808   -53794   -53777   -53754 
  -53734   -53716   -53693   -53662   -53636   -53615   -53589   -53568 
  -53549   -53528   -53515   -53499   -53477   -53464   -53454   -53439 
  -53422   -53408   -53400   -53395   -53388   -53383   -53387   -53392 
  -53391   -53393   -53397   -53403   -53415   -53424   -53434   -53446 
  -53461   -53474   -53489   -53499   -53508   -53519   -53526   -53530 
  -53539   -53547   -53554   -53558   -53566   -53578   -53590   -53593 
  -53593   -53595   -53593   -53596   -53600   -53599   -53597   -53601 
  -53605   -53609   -53617   -53624   -53628   -53634   -53640   -53650 
  -53658   -53663   -53670   -53677   -53681   -53686   -53690   -53690 
  -53689   -53696   -53698   -53693   -53686   -53682   -53669   -53651 
  -53636   -53620   -53603   -53593   -53588   -53578   -53565   -53557 
  -53555   -53551   -53543   -53534   -53528   -53528   -53520   -53515 
  -53514   -53511   -53512   -53520   -53532   -53543   -53554   -53573 
  -53589   -53603   -53622   -53636   -53647   -53665   -53678   -53685 
  -53692   -53692   -53686   -53682   -53674   -53661   -53649   -53634 
  -53622   -53616   -53616   -53617   -53617   -53619   -53619   -53620 
  -53624   -53630   -53624   -53622   -53626   -53624   -53622   -53624 
  -53627   -53636   -53646   -53657   -53671   -53677   -53682   -53697 
  -53709   -53723   -53739   -53752   -53765   -53779   -53792   -53804 
  -53813   -53821   -53821   -53823   -53824   -53817   -53813   -53809 
  -53797   -53779   -53765   -53752   -53736   -53721   -53703   -53677 
  -53659   -53643   -53626   -53608   -53593   -53581   -53573   -53563 
  -53557   -53549   -53535   -53522   -53516   -53507   -53492   -53484 
  -53474   -53461   -53453   -53449   -53445   -53443   -53449   -53450 
  -53446   -53449   -53455   -53457   -53461   -53473   -53484   -53491 
  -53503   -53516   -53531   -53549   -53563   -53577   -53592   -53603 
  -53615   -53630   -53636   -53642   -53651   -53657   -53654   -53651 
  -53650   -53650   -53651   -53649   -53643   -53647   -53647   -53638 
  -53635   -53639   -53636   -53631   -53626   -53617   -53611   -53603 
  -53596   -53592   -53580   -53565   -53557   -53547   -53538   -53535 
  -53532   -53534   -53536   -53536   -53539   -53546   -53546   -53542 
  -53546   -53553   -53561   -53569   -53573   -53580   -53592   -53600 
  -53605   -53615   -53622   -53622   -53624   -53632   -53632   -53630 
  -53628   -53627   -53623   -53619   -53616   -53608   -53597   -53590 
  -53576   -53559   -53551   -53541   -53523   -53507   -53495   -53480 
  -53466   -53454   -53443   -53431   -53426   -53427   -53428   -53428 
  -53435   -53445   -53454   -53466   -53476   -53492   -53514   -53526 
  -53541   -53559   -53576   -53590   -53605   -53623   -53640   -53655 
  -53670   -53682   -53689   -53692   -53694   -53700   -53700   -53703 
  -53711   -53711   -53708   -53712   -53715   -53708   -53705   -53703 
  -53693   -53681   -53671   -53662   -53651   -53642   -53628   -53620 
  -53611   -53601   -53597   -53595   -53588   -53589   -53592   -53589 
  -53588   -53589   -53588   -53585   -53580   -53574   -53563   -53553 
  -53541   -53530   -53520   -53509   -53500   -53501   -53500   -53495 
  -53500   -53509   -53511   -53523   -53543   -53555   -53576   -53600 
  -53616   -53642   -53665   -53674   -53690   -53712   -53721   -53728 
  -53739   -53743   -53747   -53751   -53754   -53761   -53759   -53757 
  -53759   -53752   -53747   -53740   -53725   -53716   -53707   -53694 
  -53684   -53670   -53658   -53644   -53626   -53609   -53592   -53569 
  -53551   -53542   -53530   -53516   -53509   -53503   -53495   -53499 
  -53509   -53514   -53522   -53538   -53551   -53566   -53586   -53603 
  -53619   -53643   -53667   -53689   -53712   -53728   -53748   -53773 
  -53789   -53804   -53820   -53833   -53840   -53838   -53839   -53843 
  -53840   -53835   -53832   -53827   -53817   -53811   -53802   -53788 
  -53774   -53766   -53752   -53738   -53730   -53724   -53716   -53711 
  -53703   -53697   -53693   -53686   -53677   -53670   -53666   -53659 
  -53653   -53644   -53636   -53634   -53632   -53628   -53628   -53627 
  -53615   -53609   -53607   -53595   -53580   -53573   -53570   -53566 
  -53557   -53551   -53545   -53536   -53534   -53532   -53528   -53527 
  -53527   -53522   -53516   -53512   -53507   -53503   -53500   -53500 
  -53499   -53491   -53491   -53496   -53489   -53485   -53488   -53485 
  -53481   -53478   -53470   -53464   -53461   -53457   -53449   -53443 
  -53445   -53439   -53431   -53423   -53418   -53414   -53410   -53404 
  -53393   -53379   -53373   -53370   -53365   -53365   -53368   -53372 
  -53377   -53383   -53391   -53403   -53414   -53424   -53437   -53450 
  -53462   -53473   -53482   -53495   -53508   -53523   -53536   -53550 
  -53558   -53569   -53582   -53593   -53605   -53619   -53630   -53636 
  -53646   -53655   -53657   -53658   -53662   -53662   -53661   -53662 
  -53659   -53651   -53640   -53635   -53630   -53619   -53609   -53603 
  -53599   -53597   -53589   -53576   -53566   -53557   -53545   -53536 
  -53532   -53528   -53524   -53528   -53534   -53536   -53543   -53555 
  -53574   -53593   -53611   -53630   -53649   -53663   -53681   -53700 
  -53713   -53724   -53739   -53748   -53751   -53752   -53754   -53751 
  -53748   -53748   -53743   -53736   -53732   -53730   -53725   -53717 
  -53713   -53716   -53716   -53708   -53707   -53705   -53697   -53686 
  -53677   -53662   -53644   -53630   -53617   -53601   -53584   -53566 
  -53551   -53539   -53527   -53516   -53512   -53505   -53504   -53511 
  -53514   -53515   -53516   -53520   -53527   -53536   -53546   -53551 
  -53565   -53581   -53593   -53609   -53628   -53646   -53662   -53681 
  -53697   -53707   -53720   -53735   -53738   -53740   -53748   -53751 
  -53757   -53766   -53773   -53774   -53777   -53784   -53790   -53794 
  -53798   -53801   -53802   -53808   -53805   -53796   -53796   -53793 
  -53778   -53767   -53758   -53743   -53727   -53712   -53696   -53677 
  -53658   -53646   -53630   -53613   -53601   -53589   -53577   -53570 
  -53563   -53561   -53557   -53553   -53551   -53549   -53541   -53541 
  -53541   -53535   -53535   -53535   -53538   -53546   -53553   -53562 
  -53578   -53589   -53599   -53615   -53627   -53634   -53643   -53653 
  -53657   -53662   -53659   -53653   -53654   -53655   -53654   -53651 
  -53650   -53647   -53643   -53639   -53638   -53634   -53626   -53619 
  -53613   -53604   -53593   -53584   -53574   -53562   -53551   -53538 
  -53523   -53512   -53501   -53487   -53477   -53466   -53449   -53435 
  -53424   -53408   -53395   -53387   -53374   -53365   -53361   -53357 
  -53354   -53357   -53361   -53361   -53366   -53373   -53379   -53381 
  -53388   -53401   -53415   -53426   -53445   -53464   -53480   -53499 
  -53516   -53531   -53557   -53584   -53607   -53631   -53655   -53676 
  -53697   -53719   -53736   -53754   -53765   -53775   -53784   -53784 
  -53786   -53793   -53793   -53790   -53784   -53775   -53769   -53758 
  -53744   -53734   -53725   -53717   -53712   -53704   -53700   -53700 
  -53694   -53686   -53684   -53681   -53677   -53670   -53667   -53666 
  -53670   -53669   -53663   -53665   -53667   -53667   -53666   -53669 
  -53669   -53665   -53659   -53651   -53642   -53635   -53628   -53617 
  -53604   -53593   -53586   -53578   -53572   -53565   -53554   -53549 
  -53547   -53549   -53554   -53559   -53568   -53576   -53577   -53584 
  -53592   -53590   -53590   -53596   -53593   -53592   -53600   -53600 
  -53595   -53596   -53599   -53599   -53605   -53611   -53611   -53616 
  -53622   -53619   -53612   -53609   -53608   -53604   -53595   -53586 
  -53581   -53576   -53569   -53559   -53549   -53542   -53534   -53528 
  -53524   -53519   -53516   -53519   -53520   -53520   -53519   -53514 
  -53509   -53509   -53508   -53500   -53495   -53496   -53492   -53488 
  -53488   -53489   -53493   -53503   -53507   -53508   -53515   -53519 
  -53522   -53530   -53535   -53546   -53563   -53572   -53578   -53595 
  -53612   -53627   -53643   -53665   -53682   -53701   -53721   -53738 
  -53754   -53771   -53788   -53800   -53808   -53817   -53827   -53832 
  -53833   -53831   -53825   -53820   -53812   -53798   -53786   -53774 
  -53762   -53744   -53727   -53716   -53705   -53686   -53670   -53655 
  -53634   -53615   -53600   -53578   -53562   -53551   -53538   -53524 
  -53518   -53509   -53501   -53499   -53496   -53491   -53488   -53487 
  -53488   -53489   -53485   -53489   -53496   -53499   -53504   -53509 
  -53511   -53515   -53518   -53522   -53527   -53524   -53522   -53522 
  -53519   -53520   -53524   -53523   -53528   -53534   -53534   -53536 
  -53543   -53551   -53555   -53561   -53572   -53582   -53593   -53600 
  -53605   -53619   -53627   -53630   -53640   -53650   -53655   -53659 
  -53663   -53671   -53674   -53671   -53676   -53674   -53666   -53665 
  -53661   -53657   -53657   -53659   -53657   -53653   -53654   -53658 
  -53655   -53654   -53654   -53653   -53647   -53644   -53644   -53639 
  -53631   -53632   -53632   -53626   -53624   -53627   -53626   -53626 
  -53628   -53623   -53616   -53615   -53609   -53600   -53592   -53586 
  -53574   -53568   -53566   -53557   -53550   -53550   -53542   -53536 
  -53542   -53542   -53538   -53541   -53541   -53539   -53543   -53546 
  -53545   -53545   -53542   -53541   -53543   -53541   -53534   -53528 
  -53524   -53522   -53516   -53512   -53511   -53501   -53492   -53487 
  -53480   -53478   -53480   -53474   -53473   -53473   -53474   -53478 
  -53482   -53484   -53491   -53495   -53499   -53507   -53515   -53526 
  -53534   -53531   -53531   -53541   -53542   -53539   -53542   -53542 
  -53545   -53557   -53566   -53572   -53586   -53601   -53615   -53636 
  -53655   -53670   -53688   -53705   -53717   -53727   -53735   -53746 
  -53748   -53743   -53743   -53748   -53750   -53750   -53757   -53761 
  -53763   -53769   -53777   -53789   -53798   -53804   -53816   -53833 
  -53851   -53866   -53875   -53882   -53890   -53897   -53897   -53893 
  -53896   -53896   -53890   -53885   -53878   -53870   -53863   -53851 
  -53838   -53829   -53817   -53805   -53797   -53788   -53775   -53763 
  -53752   -53739   -53725   -53715   -53698   -53680   -53663   -53644 
  -53631   -53617   -53592   -53573   -53561   -53538   -53519   -53504 
  -53493   -53482   -53468   -53460   -53457   -53450   -53447   -53447 
  -53443   -53441   -53439   -53443   -53445   -53445   -53450   -53455 
  -53460   -53461   -53465   -53473   -53476   -53477   -53485   -53493 
  -53501   -53508   -53515   -53522   -53530   -53541   -53547   -53550 
  -53558   -53568   -53572   -53578   -53585   -53588   -53595   -53596 
  -53592   -53595   -53595   -53589   -53589   -53585   -53573   -53563 
  -53559   -53554   -53545   -53536   -53528   -53524   -53523   -53518 
  -53512   -53509   -53505   -53504   -53501   -53501   -53501   -53499 
  -53496   -53497   -53499   -53496   -53495   -53497   -53500   -53504 
  -53508   -53514   -53516   -53518   -53520   -53524   -53527   -53531 
  -53528   -53526   -53530   -53530   -53524   -53527   -53532   -53538 
  -53542   -53542   -53545   -53554   -53558   -53559   -53565   -53574 
  -53585   -53595   -53600   -53611   -53622   -53630   -53640   -53655 
  -53671   -53684   -53692   -53700   -53712   -53717   -53721   -53730 
  -53735   -53736   -53739   -53736   -53732   -53728   -53724   -53719 
  -53713   -53707   -53700   -53692   -53684   -53678   -53673   -53666 
  -53658   -53653   -53651   -53649   -53643   -53642   -53642   -53643 
  -53640   -53639   -53642   -53639   -53639   -53643   -53638   -53628 
  -53632   -53635   -53631   -53631   -53631   -53630   -53632   -53635 
  -53634   -53634   -53638   -53642   -53638   -53639   -53647   -53649 
  -53647   -53646   -53643   -53644   -53642   -53631   -53628   -53632 
  -53631   -53626   -53624   -53628   -53634   -53632   -53632   -53635 
  -53631   -53630   -53634   -53632   -53626   -53622   -53620   -53613 
  -53601   -53601   -53604   -53599   -53595   -53595   -53589   -53588 
  -53592   -53588   -53586   -53588   -53586   -53589   -53590   -53589 
  -53590   -53592   -53592   -53592   -53585   -53581   -53578   -53572 
  -53570   -53566   -53558   -53559   -53558   -53549   -53546   -53549 
  -53551   -53554   -53554   -53554   -53555   -53559   -53565   -53570 
  -53574   -53581   -53588   -53592   -53595   -53601   -53604   -53605 
  -53613   -53619   -53619   -53626   -53627   -53626   -53628   -53628 
