Origin Time       2025/06/03 22:18:00
Lat.              41.7
Long.             143.6
Depth. (km)       30
Mag.              5.2
Station Code      ABSH11
Station Lat.      43.9144
Station Long.     144.1913
Station Height(m) 40
Record Time       2025/06/03 22:20:02
Sampling Freq(Hz) 100Hz
Duration Time(s)  120
Dir.              6
Scale Factor      7845(gal)/8223790
Max. Acc. (gal)   0.131
Last Correction   2025/06/03 22:20:03
Memo.             
[...]
  -11273   -11279   -11280   -11286   -11295   -11298   -11302   -11304 
  -11307   -11314   -11317   -11321   -11325   -11326   -11329   -11327 
  -11326   -11327   -11327   -11330   -11334   -11335   -11340   -11341 
  -11342   -11346   -11344   -11342   -11342   -11338   -11340   -11342 
  -11341   -11341   -11338   -11333   -11331   -11329   -11329   -11327 
  -11321   -11318   -11315   -11307   -11303   -11299   -11292   -11291 
  -11288   -11287   -11286   -11283   -11281   -11280   -11280   -11280 
  -11280   -11283   -11288   -11290   -11294   -11296   -11299   -11304 
  -11302   -11302   -11306   -11306   -11303   -11302   -11299   -11298 
  -11294   -11295   -11299   -11295   -11295   -11295   -11294   -11298 
  -11294   -11287   -11290   -11288   -11286   -11288   -11292   -11298 
  -11298   -11298   -11302   -11303   -11303   -11306   -11303   -11300 
  -11302   -11300   -11299   -11299   -11299   -11299   -11300   -11304 
  -11311   -11313   -11319   -11325   -11325   -11327   -11330   -11327 
  -11326   -11323   -11321   -11317   -11310   -11304   -11298   -11294 
  -11292   -11286   -11283   -11286   -11287   -11288   -11290   -11291 
  -11294   -11291   -11291   -11294   -11290   -11287   -11286   -11283 
  -11286   -11286   -11286   -11283   -11279   -11281   -11284   -11284 
  -11291   -11298   -11302   -11308   -11317   -11325   -11330   -11334 
  -11341   -11345   -11349   -11354   -11356   -11358   -11364   -11368 
  -11372   -11373   -11371   -11372   -11371   -11368   -11369   -11368 
  -11362   -11358   -11352   -11348   -11340   -11331   -11330   -11326 
  -11323   -11326   -11322   -11322   -11321   -11318   -11321   -11321 
  -11315   -11311   -11311   -11314   -11313   -11310   -11313   -11313 
  -11311   -11313   -11310   -11310   -11310   -11306   -11306   -11311 
  -11313   -11314   -11317   -11323   -11327   -11327   -11333   -11334 
  -11335   -11341   -11337   -11330   -11333   -11333   -11329   -11327 
  -11325   -11326   -11323   -11319   -11319   -11318   -11315   -11314 
  -11315   -11315   -11311   -11308   -11308   -11307   -11307   -11307 
  -11304   -11307   -11308   -11307   -11311   -11310   -11306   -11308 
  -11307   -11304   -11304   -11298   -11294   -11291   -11287   -11284 
  -11284   -11286   -11287   -11280   -11277   -11275   -11269   -11268 
  -11272   -11272   -11272   -11273   -11277   -11280   -11277   -11280 
  -11281   -11279   -11281   -11284   -11286   -11290   -11292   -11290 
  -11288   -11288   -11290   -11290   -11291   -11295   -11299   -11306 
  -11310   -11310   -11314   -11319   -11323   -11330   -11334   -11342 
  -11350   -11352   -11357   -11362   -11362   -11367   -11367   -11362 
  -11361   -11356   -11352   -11346   -11338   -11333   -11326   -11318 
  -11314   -11308   -11303   -11298   -11292   -11286   -11279   -11276 
  -11272   -11264   -11261   -11261   -11256   -11256   -11257   -11256 
  -11257   -11260   -11263   -11269   -11273   -11283   -11290   -11292 
  -11298   -11306   -11310   -11315   -11318   -11321   -11326   -11330 
  -11331   -11334   -11338   -11338   -11334   -11338   -11345   -11341 
  -11341   -11340   -11330   -11325   -11323   -11318   -11313   -11308 
  -11306   -11303   -11299   -11298   -11295   -11295   -11295   -11290 
  -11288   -11290   -11287   -11288   -11290   -11287   -11287   -11284 
  -11283   -11287   -11288   -11288   -11288   -11292   -11298   -11304 
  -11313   -11322   -11327   -11333   -11341   -11346   -11354   -11358 
  -11360   -11367   -11371   -11373   -11379   -11381   -11381   -11381 
  -11379   -11376   -11372   -11368   -11365   -11360   -11356   -11354 
  -11352   -11353   -11350   -11345   -11342   -11341   -11340   -11340 
  -11335   -11331   -11329   -11322   -11315   -11310   -11302   -11292 
  -11284   -11279   -11269   -11259   -11253   -11248   -11241   -11238 
  -11234   -11233   -11237   -11233   -11230   -11230   -11227   -11226 
  -11225   -11223   -11229   -11236   -11240   -11241   -11244   -11250 
  -11253   -11252   -11254   -11257   -11263   -11268   -11273   -11281 
  -11286   -11292   -11303   -11307   -11311   -11321   -11326   -11335 
  -11345   -11349   -11353   -11354   -11358   -11364   -11362   -11365 
  -11369   -11365   -11367   -11368   -11368   -11371   -11371   -11373 
  -11379   -11380   -11384   -11387   -11383   -11383   -11383   -11383 
  -11385   -11381   -11380   -11380   -11377   -11379   -11379   -11375 
  -11372   -11361   -11354   -11352   -11345   -11341   -11340   -11333 
  -11331   -11330   -11326   -11327   -11323   -11319   -11314   -11308 
  -11308   -11306   -11299   -11292   -11284   -11279   -11269   -11259 
  -11253   -11244   -11232   -11225   -11219   -11211   -11206   -11200 
  -11200   -11198   -11194   -11198   -11200   -11199   -11203   -11209 
  -11218   -11226   -11232   -11240   -11248   -11253   -11265   -11272 
  -11279   -11291   -11302   -11311   -11321   -11329   -11340   -11349 
  -11354   -11361   -11364   -11371   -11376   -11379   -11387   -11392 
  -11396   -11403   -11406   -11407   -11411   -11412   -11411   -11411 
  -11408   -11408   -11404   -11402   -11400   -11395   -11392   -11388 
  -11383   -11381   -11377   -11371   -11369   -11367   -11361   -11357 
  -11350   -11345   -11338   -11335   -11331   -11322   -11318   -11315 
  -11306   -11300   -11292   -11283   -11276   -11269   -11263   -11259 
  -11252   -11248   -11242   -11233   -11230   -11229   -11222   -11219 
  -11218   -11218   -11221   -11221   -11222   -11225   -11225   -11226 
  -11226   -11227   -11233   -11236   -11238   -11240   -11242   -11246 
  -11250   -11257   -11263   -11263   -11269   -11276   -11279   -11286 
  -11288   -11288   -11294   -11295   -11295   -11299   -11302   -11307 
  -11310   -11311   -11310   -11307   -11307   -11310   -11310   -11314 
  -11317   -11314   -11313   -11313   -11311   -11308   -11302   -11295 
  -11292   -11290   -11292   -11294   -11295   -11299   -11300   -11304 
  -11311   -11313   -11317   -11323   -11326   -11333   -11338   -11342 
  -11345   -11346   -11352   -11357   -11361   -11368   -11375   -11377 
  -11384   -11388   -11394   -11398   -11398   -11400   -11407   -11410 
  -11411   -11414   -11415   -11418   -11414   -11408   -11404   -11399 
  -11395   -11391   -11388   -11387   -11380   -11376   -11373   -11364 
  -11360   -11353   -11345   -11342   -11337   -11329   -11322   -11315 
  -11311   -11304   -11298   -11299   -11298   -11296   -11296   -11292 
  -11287   -11283   -11280   -11277   -11271   -11265   -11264   -11260 
  -11256   -11252   -11248   -11246   -11244   -11238   -11237   -11232 
  -11232   -11233   -11229   -11229   -11230   -11227   -11229   -11232 
  -11233   -11238   -11241   -11244   -11250   -11254   -11254   -11252 
  -11252   -11259   -11263   -11267   -11273   -11279   -11283   -11283 
  -11284   -11290   -11292   -11295   -11303   -11310   -11314   -11319 
  -11321   -11326   -11330   -11334   -11340   -11340   -11344   -11352 
  -11356   -11358   -11358   -11358   -11364   -11365   -11364   -11367 
  -11365   -11365   -11362   -11358   -11358   -11354   -11349   -11346 
  -11344   -11342   -11342   -11338   -11338   -11334   -11329   -11331 
  -11330   -11326   -11327   -11327   -11325   -11325   -11322   -11318 
  -11311   -11310   -11311   -11306   -11303   -11303   -11302   -11302 
  -11299   -11294   -11295   -11294   -11292   -11294   -11290   -11288 
  -11290   -11290   -11290   -11290   -11292   -11296   -11300   -11304 
  -11304   -11307   -11317   -11322   -11323   -11330   -11331   -11331 
  -11331   -11331   -11333   -11329   -11325   -11329   -11327   -11326 
  -11329   -11326   -11325   -11323   -11318   -11314   -11307   -11302 
  -11300   -11299   -11296   -11296   -11296   -11295   -11296   -11296 
  -11295   -11291   -11291   -11291   -11286   -11287   -11290   -11290 
  -11292   -11292   -11292   -11296   -11296   -11296   -11299   -11298 
  -11295   -11292   -11294   -11294   -11288   -11290   -11288   -11279 
  -11279   -11280   -11276   -11277   -11277   -11276   -11277   -11275 
  -11275   -11271   -11267   -11269   -11267   -11265   -11271   -11276 
  -11281   -11287   -11292   -11300   -11302   -11302   -11313   -11318 
  -11321   -11327   -11333   -11340   -11348   -11353   -11361   -11367 
  -11371   -11376   -11380   -11384   -11385   -11383   -11383   -11381 
  -11380   -11381   -11380   -11379   -11379   -11375   -11373   -11368 
  -11364   -11362   -11357   -11356   -11357   -11353   -11349   -11346 
  -11340   -11340   -11338   -11331   -11322   -11314   -11310   -11303 
  -11292   -11290   -11286   -11280   -11280   -11275   -11271   -11275 
  -11273   -11272   -11276   -11276   -11276   -11280   -11283   -11286 
  -11287   -11288   -11287   -11284   -11288   -11290   -11290   -11295 
  -11296   -11294   -11296   -11294   -11291   -11291   -11292   -11294 
  -11292   -11292   -11295   -11295   -11295   -11294   -11292   -11294 
  -11292   -11291   -11291   -11290   -11286   -11283   -11280   -11279 
  -11277   -11280   -11283   -11277   -11275   -11275   -11271   -11271 
  -11271   -11265   -11263   -11261   -11260   -11261   -11260   -11257 
  -11259   -11259   -11260   -11259   -11260   -11265   -11264   -11264 
  -11269   -11273   -11276   -11281   -11286   -11291   -11296   -11300 
  -11306   -11315   -11323   -11327   -11335   -11345   -11348   -11353 
  -11362   -11364   -11365   -11369   -11373   -11379   -11379   -11381 
  -11388   -11388   -11392   -11399   -11399   -11396   -11395   -11395 
  -11400   -11400   -11399   -11404   -11407   -11404   -11402   -11400 
  -11396   -11389   -11384   -11377   -11369   -11364   -11357   -11346 
  -11341   -11335   -11325   -11319   -11311   -11303   -11296   -11288 
  -11283   -11281   -11273   -11271   -11267   -11263   -11264   -11261 
  -11260   -11257   -11252   -11249   -11246   -11244   -11245   -11240 
  -11238   -11242   -11244   -11249   -11256   -11263   -11269   -11272 
  -11275   -11280   -11284   -11294   -11304   -11310   -11321   -11326 
  -11327   -11335   -11337   -11341   -11349   -11348   -11352   -11358 
  -11356   -11357   -11358   -11356   -11354   -11350   -11346   -11342 
  -11338   -11338   -11335   -11334   -11333   -11329   -11323   -11321 
  -11315   -11311   -11306   -11300   -11299   -11295   -11292   -11291 
  -11288   -11286   -11284   -11280   -11279   -11275   -11271   -11271 
  -11267   -11264   -11263   -11257   -11257   -11259   -11256   -11256 
  -11256   -11254   -11250   -11245   -11246   -11249   -11250   -11256 
  -11257   -11260   -11268   -11268   -11271   -11277   -11280   -11287 
  -11292   -11295   -11302   -11308   -11314   -11318   -11322   -11329 
  -11331   -11333   -11338   -11341   -11341   -11342   -11344   -11346 
  -11350   -11352   -11356   -11356   -11357   -11360   -11358   -11357 
  -11356   -11354   -11356   -11352   -11352   -11352   -11348   -11346 
  -11348   -11346   -11348   -11348   -11346   -11349   -11349   -11353 
  -11358   -11357   -11358   -11358   -11356   -11361   -11362   -11360 
  -11360   -11357   -11356   -11354   -11350   -11354   -11354   -11354 
  -11357   -11354   -11350   -11350   -11346   -11341   -11335   -11330 
  -11327   -11322   -11321   -11319   -11310   -11306   -11302   -11292 
  -11288   -11281   -11275   -11272   -11264   -11256   -11249   -11242 
  -11240   -11236   -11232   -11233   -11229   -11223   -11223   -11222 
  -11222   -11221   -11218   -11222   -11226   -11226   -11230   -11234 
  -11237   -11238   -11241   -11249   -11253   -11256   -11265   -11275 
  -11286   -11295   -11296   -11302   -11307   -11310   -11317   -11321 
  -11319   -11322   -11327   -11331   -11334   -11334   -11337   -11338 
  -11340   -11342   -11340   -11338   -11341   -11341   -11340   -11337 
  -11333   -11331   -11330   -11327   -11326   -11321   -11319   -11317 
  -11313   -11313   -11310   -11308   -11308   -11304   -11302   -11302 
  -11299   -11298   -11295   -11292   -11292   -11290   -11287   -11284 
  -11277   -11276   -11275   -11271   -11272   -11273   -11276   -11281 
  -11281   -11279   -11281   -11286   -11291   -11295   -11302   -11313 
  -11319   -11329   -11340   -11345   -11356   -11368   -11376   -11385 
  -11391   -11399   -11408   -11411   -11414   -11421   -11423   -11422 
  -11422   -11423   -11422   -11416   -11415   -11411   -11404   -11402 
  -11398   -11391   -11385   -11380   -11376   -11369   -11361   -11358 
  -11354   -11346   -11335   -11327   -11322   -11317   -11307   -11303 
  -11298   -11291   -11290   -11284   -11279   -11272   -11264   -11263 
  -11260   -11253   -11253   -11252   -11246   -11248   -11241   -11238 
  -11242   -11240   -11237   -11238   -11234   -11234   -11233   -11229 
  -11227   -11223   -11225   -11226   -11226   -11227   -11223   -11226 
  -11230   -11230   -11234   -11241   -11242   -11249   -11253   -11256 
  -11261   -11267   -11271   -11275   -11283   -11294   -11300   -11306 
  -11314   -11321   -11327   -11337   -11341   -11346   -11352   -11357 
  -11365   -11369   -11373   -11380   -11383   -11384   -11387   -11388 
  -11392   -11395   -11395   -11398   -11400   -11403   -11406   -11407 
  -11411   -11412   -11414   -11415   -11414   -11412   -11412   -11407 
  -11406   -11402   -11394   -11391   -11385   -11380   -11377   -11367 
  -11358   -11352   -11340   -11333   -11323   -11311   -11300   -11291 
  -11279   -11268   -11257   -11249   -11241   -11233   -11229   -11221 
  -11210   -11206   -11200   -11195   -11190   -11183   -11180   -11176 
  -11173   -11175   -11175   -11176   -11178   -11178   -11180   -11180 
  -11182   -11188   -11194   -11199   -11207   -11211   -11218   -11223 
  -11226   -11233   -11237   -11240   -11245   -11248   -11252   -11256 
  -11259   -11264   -11269   -11272   -11276   -11281   -11290   -11298 
  -11299   -11304   -11311   -11313   -11317   -11321   -11325   -11331 
  -11335   -11338   -11345   -11352   -11357   -11361   -11365   -11373 
  -11377   -11381   -11387   -11389   -11394   -11396   -11399   -11404 
  -11403   -11404   -11411   -11415   -11419   -11422   -11421   -11422 
  -11423   -11425   -11425   -11426   -11430   -11431   -11430   -11430 
  -11425   -11419   -11418   -11411   -11408   -11408   -11402   -11399 
  -11398   -11388   -11381   -11379   -11373   -11367   -11360   -11357 
  -11350   -11340   -11333   -11323   -11315   -11311   -11300   -11292 
  -11288   -11280   -11273   -11264   -11257   -11253   -11245   -11238 
  -11234   -11225   -11222   -11225   -11222   -11219   -11217   -11215 
  -11215   -11214   -11218   -11219   -11217   -11221   -11225   -11227 
  -11230   -11230   -11232   -11236   -11240   -11245   -11248   -11250 
  -11254   -11259   -11261   -11261   -11260   -11268   -11277   -11281 
  -11286   -11288   -11291   -11295   -11300   -11308   -11313   -11315 
  -11322   -11329   -11335   -11341   -11348   -11357   -11362   -11365 
  -11372   -11377   -11380   -11385   -11387   -11389   -11396   -11396 
  -11399   -11402   -11402   -11404   -11402   -11396   -11398   -11398 
  -11399   -11398   -11389   -11387   -11383   -11376   -11376   -11373 
  -11369   -11368   -11360   -11352   -11346   -11338   -11329   -11321 
  -11317   -11313   -11303   -11295   -11291   -11280   -11271   -11263 
  -11256   -11250   -11242   -11237   -11237   -11234   -11234   -11233 
  -11226   -11225   -11223   -11221   -11222   -11218   -11218   -11219 
  -11219   -11226   -11225   -11221   -11225   -11226   -11227   -11234 
  -11238   -11245   -11249   -11252   -11259   -11261   -11269   -11279 
  -11283   -11288   -11294   -11298   -11303   -11304   -11307   -11310 
  -11311   -11317   -11318   -11317   -11321   -11319   -11321   -11326 
  -11323   -11325   -11331   -11331   -11333   -11333   -11337   -11342 
  -11344   -11346   -11352   -11350   -11352   -11356   -11353   -11354 
  -11356   -11354   -11356   -11354   -11353   -11356   -11356   -11354 
  -11352   -11350   -11350   -11349   -11346   -11346   -11344   -11344 
  -11344   -11344   -11342   -11337   -11331   -11330   -11327   -11323 
  -11319   -11314   -11313   -11308   -11302   -11298   -11296   -11296 
  -11294   -11288   -11287   -11284   -11280   -11283   -11283   -11281 
  -11284   -11286   -11286   -11288   -11290   -11291   -11292   -11294 
  -11299   -11299   -11300   -11306   -11308   -11317   -11323   -11323 
  -11329   -11335   -11341   -11344   -11344   -11346   -11348   -11349 
  -11356   -11356   -11357   -11362   -11360   -11358   -11360   -11358 
  -11360   -11358   -11354   -11357   -11357   -11354   -11350   -11350 
  -11352   -11346   -11342   -11344   -11338   -11335   -11337   -11334 
  -11331   -11329   -11325   -11323   -11319   -11314   -11313   -11308 
  -11307   -11308   -11306   -11304   -11300   -11298   -11296   -11291 
  -11290   -11290   -11283   -11281   -11279   -11275   -11276   -11273 
  -11269   -11269   -11268   -11271   -11268   -11260   -11260   -11257 
  -11254   -11253   -11248   -11249   -11249   -11245   -11246   -11244 
  -11240   -11240   -11237   -11234   -11236   -11233   -11233   -11232 
  -11230   -11233   -11233   -11233   -11238   -11238   -11240   -11242 
  -11244   -11250   -11254   -11259   -11263   -11267   -11275   -11281 
  -11284   -11292   -11299   -11304   -11313   -11321   -11326   -11329 
  -11331   -11338   -11345   -11349   -11353   -11357   -11362   -11367 
  -11371   -11376   -11380   -11383   -11387   -11387   -11388   -11391 
  -11387   -11388   -11391   -11389   -11394   -11396   -11392   -11392 
  -11391   -11391   -11391   -11389   -11389   -11391   -11391   -11391 
  -11389   -11385   -11381   -11373   -11369   -11367   -11358   -11353 
  -11349   -11342   -11335   -11327   -11322   -11315   -11304   -11300 
  -11292   -11283   -11277   -11269   -11261   -11256   -11246   -11244 
  -11241   -11238   -11238   -11237   -11236   -11237   -11233   -11233 
  -11236   -11236   -11241   -11245   -11248   -11254   -11256   -11259 
  -11263   -11264   -11271   -11276   -11279   -11284   -11284   -11284 
  -11290   -11295   -11300   -11302   -11303   -11307   -11307   -11306 
  -11307   -11304   -11307   -11313   -11313   -11314   -11318   -11319 
  -11322   -11321   -11322   -11329   -11331   -11333   -11340   -11346 
  -11353   -11357   -11361   -11367   -11369   -11375   -11380   -11383 
  -11388   -11391   -11391   -11395   -11398   -11398   -11398   -11396 
  -11398   -11398   -11392   -11389   -11384   -11380   -11376   -11368 
  -11364   -11358   -11352   -11349   -11344   -11340   -11335   -11326 
  -11321   -11315   -11307   -11300   -11294   -11288   -11288   -11284 
  -11280   -11276   -11272   -11272   -11269   -11264   -11261   -11260 
  -11260   -11257   -11253   -11253   -11253   -11252   -11254   -11256 
  -11256   -11259   -11256   -11260   -11264   -11260   -11263   -11263 
  -11260   -11263   -11263   -11261   -11265   -11265   -11267   -11268 
  -11265   -11267   -11267   -11267   -11271   -11269   -11268   -11269 
  -11271   -11275   -11277   -11279   -11283   -11283   -11283   -11286 
  -11283   -11284   -11288   -11292   -11294   -11296   -11303   -11308 
  -11308   -11310   -11314   -11317   -11322   -11321   -11319   -11323 
  -11319   -11318   -11319   -11317   -11318   -11319   -11319   -11323 
  -11322   -11319   -11318   -11313   -11308   -11308   -11308   -11310 
  -11308   -11311   -11314   -11313   -11314   -11315   -11313   -11314 
