Origin Time       2025/06/03 22:18:00
Lat.              41.7
Long.             143.6
Depth. (km)       30
Mag.              5.2
Station Code      ABSH06
Station Lat.      44.2146
Station Long.     143.6202
Station Height(m) -93
Record Time       2025/06/03 22:19:48
Sampling Freq(Hz) 100Hz
Duration Time(s)  120
Dir.              3
Scale Factor      2940(gal)/6170270
Max. Acc. (gal)   0.198
Last Correction   2025/06/03 22:19:33
Memo.             
[...]
   38566    38576    38588    38595    38601    38609    38615    38619 
   38625    38630    38632    38632    38632    38634    38635    38637 
   38643    38650    38651    38646    38639    38630    38618    38607 
   38598    38589    38583    38581    38581    38577    38571    38566 
   38562    38556    38551    38548    38543    38535    38529    38523 
   38515    38508    38497    38482    38472    38463    38453    38448 
   38447    38444    38438    38430    38421    38411    38400    38385 
   38368    38356    38347    38334    38324    38317    38312    38310 
   38309    38311    38315    38318    38321    38325    38328    38329 
   38332    38339    38348    38358    38370    38382    38395    38410 
   38427    38446    38467    38490    38513    38532    38551    38566 
   38572    38575    38579    38581    38582    38584    38585    38583 
   38583    38579    38572    38565    38560    38558    38561    38566 
   38568    38570    38572    38572    38570    38569    38570    38571 
   38576    38584    38591    38598    38602    38605    38607    38608 
   38605    38602    38600    38598    38595    38593    38591    38585 
   38581    38579    38573    38566    38560    38554    38545    38533 
   38520    38511    38502    38492    38482    38470    38461    38455 
   38450    38449    38453    38458    38463    38470    38479    38489 
   38497    38502    38506    38510    38512    38515    38520    38524 
   38528    38529    38533    38540    38545    38549    38557    38565 
   38569    38578    38591    38597    38599    38602    38602    38596 
   38590    38586    38578    38570    38561    38550    38538    38531 
   38528    38527    38524    38523    38520    38514    38513    38517 
   38518    38518    38522    38520    38512    38504    38493    38483 
   38480    38480    38476    38475    38473    38466    38458    38449 
   38437    38427    38418    38410    38404    38401    38396    38393 
   38392    38390    38388    38387    38385    38380    38378    38376 
   38374    38374    38370    38364    38359    38351    38340    38329 
   38318    38310    38309    38312    38315    38321    38332    38341 
   38346    38351    38357    38362    38365    38368    38372    38378 
   38384    38391    38404    38423    38443    38464    38488    38511 
   38533    38550    38566    38583    38603    38624    38644    38662 
   38684    38707    38725    38744    38764    38778    38789    38802 
   38813    38821    38826    38830    38831    38831    38832    38828 
   38822    38815    38805    38795    38783    38765    38747    38732 
   38714    38694    38675    38655    38638    38626    38613    38600 
   38588    38575    38563    38550    38540    38529    38515    38504 
   38494    38477    38461    38448    38435    38424    38417    38411 
   38405    38398    38391    38385    38379    38371    38363    38358 
   38354    38352    38349    38346    38344    38341    38339    38341 
   38343    38343    38346    38355    38365    38375    38383    38386 
   38389    38396    38400    38402    38408    38415    38420    38427 
   38435    38441    38447    38452    38455    38458    38461    38466 
   38473    38479    38482    38484    38485    38487    38492    38498 
   38506    38512    38519    38529    38539    38543    38548    38551 
   38549    38543    38534    38522    38515    38509    38502    38494 
   38484    38476    38468    38457    38446    38441    38442    38445 
   38453    38463    38471    38476    38478    38473    38463    38453 
   38443    38435    38433    38435    38438    38441    38445    38450 
   38455    38462    38470    38478    38490    38509    38529    38547 
   38564    38579    38590    38599    38606    38614    38622    38630 
   38637    38640    38644    38649    38655    38660    38662    38663 
   38664    38662    38659    38659    38656    38649    38646    38643 
   38639    38635    38629    38620    38608    38595    38579    38560 
   38540    38519    38499    38483    38467    38451    38437    38423 
   38408    38397    38388    38381    38378    38377    38380    38384 
   38388    38392    38395    38395    38397    38400    38407    38416 
   38424    38437    38452    38466    38484    38504    38520    38532 
   38545    38558    38570    38583    38595    38603    38610    38619 
   38634    38649    38662    38677    38689    38700    38706    38709 
   38708    38697    38683    38670    38655    38637    38619    38602 
   38583    38565    38549    38534    38519    38505    38489    38476 
   38466    38452    38436    38421    38406    38393    38382    38373 
   38364    38355    38347    38340    38333    38327    38321    38315 
   38310    38308    38305    38307    38313    38316    38321    38332 
   38343    38354    38369    38386    38402    38417    38432    38446 
   38459    38469    38481    38496    38510    38524    38540    38554 
   38565    38573    38578    38583    38587    38589    38593    38596 
   38596    38596    38595    38593    38594    38596    38595    38598 
   38608    38616    38621    38629    38637    38643    38646    38646 
   38646    38650    38654    38655    38656    38662    38665    38659 
   38650    38642    38630    38618    38604    38589    38578    38566 
   38549    38535    38526    38521    38519    38517    38515    38512 
   38509    38506    38499    38485    38464    38443    38422    38401 
   38384    38372    38362    38356    38356    38356    38356    38356 
   38358    38359    38360    38361    38362    38364    38363    38363 
   38364    38363    38365    38368    38372    38378    38384    38388 
   38396    38407    38416    38422    38431    38440    38445    38456 
   38466    38469    38473    38477    38480    38484    38492    38500 
   38511    38526    38545    38563    38584    38609    38632    38647 
   38660    38673    38682    38690    38702    38714    38721    38724 
   38728    38727    38718    38704    38687    38670    38656    38639 
   38622    38609    38595    38581    38572    38560    38544    38530 
   38516    38501    38487    38473    38459    38447    38436    38426 
   38418    38413    38411    38410    38411    38413    38412    38411 
   38410    38407    38404    38402    38397    38396    38397    38400 
   38405    38413    38422    38433    38444    38457    38466    38472 
   38478    38484    38489    38494    38500    38507    38513    38516 
   38518    38517    38515    38513    38508    38502    38498    38494 
   38491    38488    38485    38483    38481    38479    38480    38480 
   38481    38486    38493    38503    38513    38525    38536    38545 
   38551    38557    38561    38560    38558    38554    38551    38547 
   38544    38541    38537    38535    38533    38531    38532    38533 
   38535    38539    38545    38552    38556    38558    38559    38556 
   38549    38544    38542    38536    38531    38533    38535    38536 
   38539    38540    38535    38528    38521    38510    38498    38488 
   38480    38472    38463    38456    38449    38442    38437    38436 
   38434    38434    38438    38440    38443    38443    38442    38439 
   38437    38437    38440    38443    38450    38461    38473    38485 
   38498    38509    38519    38528    38533    38539    38548    38556 
   38566    38580    38594    38609    38628    38645    38660    38673 
   38683    38692    38700    38706    38708    38708    38711    38713 
   38710    38707    38702    38693    38683    38669    38652    38638 
   38624    38611    38603    38596    38590    38583    38574    38566 
   38558    38549    38538    38529    38518    38503    38489    38475 
   38461    38448    38439    38431    38426    38426    38427    38426 
   38424    38421    38414    38405    38396    38388    38381    38377 
   38373    38369    38367    38364    38364    38365    38364    38363 
   38366    38368    38368    38370    38372    38371    38367    38364 
   38366    38365    38360    38358    38358    38358    38357    38356 
   38358    38363    38368    38374    38379    38381    38384    38387 
   38390    38395    38402    38409    38413    38419    38426    38431 
   38439    38447    38452    38455    38461    38466    38467    38469 
   38472    38474    38477    38482    38486    38492    38500    38508 
   38516    38523    38529    38538    38549    38559    38569    38580 
   38593    38606    38614    38619    38624    38628    38629    38631 
   38634    38636    38639    38645    38651    38654    38658    38659 
   38656    38655    38656    38656    38654    38654    38655    38654 
   38653    38651    38646    38639    38630    38617    38601    38589 
   38578    38568    38559    38551    38548    38544    38539    38533 
   38524    38513    38504    38495    38484    38476    38467    38459 
   38456    38450    38441    38438    38437    38433    38433    38435 
   38437    38437    38437    38440    38442    38444    38447    38451 
   38459    38471    38483    38492    38503    38516    38527    38537 
   38548    38560    38572    38580    38586    38591    38594    38595 
   38595    38595    38594    38589    38586    38586    38586    38586 
   38589    38590    38589    38589    38593    38597    38599    38598 
   38590    38581    38574    38564    38553    38544    38534    38523 
   38512    38501    38486    38467    38447    38430    38414    38400 
   38387    38375    38365    38360    38359    38358    38355    38353 
   38351    38349    38349    38349    38351    38355    38361    38369 
   38375    38381    38388    38397    38406    38414    38425    38439 
   38454    38468    38480    38493    38508    38523    38538    38552 
   38569    38588    38602    38615    38629    38640    38646    38647 
   38646    38646    38645    38641    38634    38626    38616    38606 
   38595    38585    38575    38563    38552    38544    38534    38524 
   38513    38502    38495    38489    38480    38477    38480    38482 
   38485    38489    38491    38492    38492    38494    38498    38495 
   38491    38491    38492    38491    38490    38489    38486    38483 
   38480    38475    38471    38469    38465    38466    38473    38479 
   38487    38496    38504    38516    38528    38536    38539    38542 
   38545    38546    38544    38544    38540    38533    38526    38517 
   38505    38495    38484    38473    38464    38458    38453    38445 
   38437    38432    38428    38421    38416    38412    38413    38414 
   38413    38410    38409    38410    38414    38421    38428    38437 
   38447    38454    38461    38467    38469    38471    38474    38477 
   38483    38490    38494    38498    38505    38515    38523    38529 
   38537    38545    38552    38561    38566    38568    38568    38568 
   38568    38564    38557    38549    38540    38531    38520    38510 
   38500    38491    38486    38480    38474    38471    38465    38458 
   38456    38456    38453    38452    38453    38458    38466    38473 
   38483    38495    38506    38516    38527    38535    38542    38550 
   38556    38560    38563    38567    38573    38581    38590    38598 
   38604    38608    38609    38611    38615    38615    38611    38608 
   38608    38610    38611    38611    38610    38611    38614    38618 
   38621    38623    38624    38626    38629    38632    38636    38638 
   38640    38642    38642    38642    38644    38646    38645    38641 
   38637    38633    38630    38627    38621    38617    38613    38609 
   38604    38597    38590    38582    38573    38563    38552    38539 
   38527    38511    38491    38470    38448    38427    38406    38383 
   38363    38341    38319    38299    38281    38265    38252    38240 
   38231    38226    38222    38217    38217    38220    38221    38228 
   38243    38258    38273    38291    38309    38329    38348    38364 
   38381    38400    38415    38430    38445    38459    38472    38484 
   38494    38504    38515    38522    38530    38539    38543    38545 
   38548    38548    38549    38552    38554    38559    38564    38569 
   38576    38582    38586    38591    38593    38592    38594    38597 
   38597    38596    38593    38593    38594    38594    38591    38588 
   38586    38587    38589    38590    38589    38590    38593    38595 
   38597    38599    38600    38603    38605    38604    38603    38601 
   38599    38599    38597    38591    38589    38589    38588    38586 
   38583    38582    38582    38580    38578    38576    38572    38568 
   38568    38568    38569    38571    38573    38573    38572    38570 
   38569    38568    38564    38562    38558    38554    38548    38538 
   38524    38511    38495    38478    38464    38451    38439    38429 
   38419    38411    38402    38394    38386    38377    38365    38354 
   38346    38339    38331    38323    38316    38310    38307    38304 
   38304    38305    38308    38314    38320    38324    38329    38334 
   38336    38335    38334    38334    38332    38327    38325    38324 
   38321    38320    38320    38318    38318    38322    38327    38328 
   38330    38335    38339    38343    38350    38355    38364    38376 
   38390    38405    38420    38437    38458    38481    38504    38528 
   38550    38574    38598    38621    38648    38676    38701    38725 
   38746    38763    38781    38798    38811    38826    38841    38854 
   38867    38880    38890    38897    38905    38912    38918    38923 
   38924    38923    38919    38913    38903    38893    38881    38864 
   38843    38823    38801    38779    38756    38733    38708    38682 
   38655    38626    38596    38572    38548    38519    38494    38472 
   38450    38427    38403    38384    38366    38346    38332    38323 
   38313    38307    38304    38300    38300    38300    38298    38298 
   38300    38299    38298    38301    38306    38309    38312    38317 
   38324    38330    38337    38342    38346    38348    38351    38358 
   38362    38361    38361    38361    38360    38359    38358    38355 
   38353    38352    38350    38347    38347    38346    38341    38339 
   38340    38340    38342    38346    38346    38348    38354    38357 
   38361    38368    38374    38384    38393    38403    38416    38428 
   38439    38451    38465    38480    38494    38507    38522    38532 
   38540    38552    38563    38574    38586    38594    38605    38621 
   38635    38650    38667    38683    38698    38711    38724    38739 
   38753    38763    38771    38778    38786    38787    38785    38783 
   38776    38765    38754    38743    38727    38712    38697    38680 
   38662    38645    38627    38612    38597    38580    38565    38552 
   38536    38520    38504    38490    38481    38475    38470    38465 
   38465    38469    38473    38477    38482    38491    38502    38510 
   38519    38529    38539    38551    38560    38569    38577    38581 
   38584    38587    38588    38589    38590    38589    38585    38581 
   38574    38565    38557    38547    38534    38519    38502    38483 
   38467    38450    38431    38412    38395    38381    38369    38358 
   38345    38330    38315    38305    38297    38285    38272    38263 
   38257    38251    38247    38244    38245    38245    38243    38242 
   38240    38240    38244    38247    38251    38259    38265    38271 
   38280    38287    38295    38305    38311    38320    38333    38344 
   38357    38374    38393    38411    38428    38448    38466    38485 
   38502    38515    38529    38543    38555    38569    38584    38597 
   38611    38627    38640    38654    38671    38686    38699    38712 
   38725    38738    38749    38757    38763    38770    38781    38788 
   38792    38800    38807    38810    38812    38815    38816    38811 
   38807    38805    38799    38792    38784    38776    38769    38762 
   38750    38739    38729    38718    38705    38693    38678    38662 
   38650    38638    38626    38612    38599    38583    38566    38552 
   38537    38521    38507    38493    38478    38466    38453    38441 
   38432    38425    38417    38406    38395    38386    38379    38372 
   38365    38360    38352    38344    38340    38335    38329    38327 
   38323    38317    38313    38311    38309    38307    38304    38302 
   38301    38302    38306    38309    38309    38310    38313    38316 
   38318    38320    38323    38327    38331    38337    38343    38348 
   38354    38364    38373    38380    38386    38393    38403    38414 
   38424    38437    38452    38465    38478    38492    38505    38517 
   38526    38536    38551    38563    38570    38580    38592    38603 
   38615    38626    38635    38648    38661    38670    38680    38690 
   38698    38706    38712    38718    38722    38719    38716    38716 
   38711    38705    38699    38692    38686    38679    38674    38671 
   38664    38658    38651    38644    38637    38630    38621    38612 
   38604    38596    38588    38578    38567    38557    38544    38528 
   38513    38497    38483    38470    38455    38440    38425    38410 
   38396    38381    38367    38351    38336    38325    38313    38301 
   38295    38288    38279    38270    38265    38261    38256    38251 
   38250    38252    38251    38253    38257    38261    38267    38274 
   38280    38289    38298    38309    38325    38342    38358    38378 
   38400    38423    38448    38474    38501    38526    38553    38582 
   38608    38634    38662    38688    38713    38736    38757    38776 
   38792    38804    38814    38822    38828    38833    38835    38835 
   38835    38834    38830    38826    38818    38806    38795    38785 
   38772    38756    38740    38723    38705    38686    38665    38645 
   38626    38607    38588    38570    38555    38541    38527    38511 
   38496    38483    38468    38450    38432    38418    38404    38391 
   38382    38372    38363    38355    38348    38341    38335    38328 
   38322    38317    38313    38309    38304    38299    38296    38294 
   38294    38295    38297    38301    38306    38310    38317    38326 
   38335    38344    38354    38364    38375    38387    38398    38406 
   38414    38425    38436    38445    38452    38460    38466    38471 
   38478    38485    38490    38493    38498    38506    38511    38515 
   38521    38524    38527    38530    38531    38532    38531    38528 
   38528    38528    38525    38522    38521    38519    38518    38515 
   38510    38503    38500    38497    38491    38488    38487    38485 
   38480    38477    38477    38479    38480    38481    38483    38484 
   38488    38493    38495    38497    38503    38510    38517    38525 
   38532    38538    38545    38551    38557    38566    38576    38581 
   38587    38595    38602    38606    38612    38619    38623    38628 
   38636    38643    38650    38657    38663    38668    38675    38682 
   38688    38693    38697    38700    38704    38704    38700    38698 
   38694    38687    38681    38676    38667    38659    38651    38640 
   38629    38620    38607    38594    38584    38574    38564    38552 
   38539    38526    38513    38501    38490    38480    38467    38456 
   38443    38428    38415    38407    38396    38383    38374    38365 
   38353    38341    38331    38322    38312    38305    38301    38297 
