Origin Time       2025/06/03 22:18:00
Lat.              41.7
Long.             143.6
Depth. (km)       30
Mag.              5.2
Station Code      ABSH07
Station Lat.      43.8494
Station Long.     143.0861
Station Height(m) 572
Record Time       2025/06/03 22:19:46
Sampling Freq(Hz) 100Hz
Duration Time(s)  120
Dir.              1
Scale Factor      2942(gal)/8224139
Max. Acc. (gal)   0.157
Last Correction   2025/06/03 22:19:47
Memo.             
  162514   162519   162525   162538   162554   162564   162565   162556 
  162540   162525   162521   162525   162529   162531   162535   162541 
  162552   162569   162588   162608   162633   162654   162665   162665 
  162660   162657   162653   162645   162631   162621   162612   162604 
  162595   162588   162583   162579   162579   162583   162594   162604 
  162616   162623   162621   162610   162600   162591   162584   162587 
  162594   162600   162607   162606   162598   162591   162575   162554 
  162542   162538   162538   162534   162525   162513   162498   162479 
  162460   162444   162432   162418   162405   162394   162387   162391 
  162402   162413   162419   162419   162409   162394   162384   162390 
  162413   162444   162472   162494   162514   162529   162533   162525 
  162510   162499   162491   162487   162490   162496   162508   162529 
  162548   162562   162572   162581   162594   162611   162633   162658 
  162670   162672   162675   162669   162661   162662   162661   162652 
  162635   162614   162598   162588   162585   162585   162587   162595 
  162599   162595   162591   162587   162580   162579   162583   162581 
  162575   162575   162577   162576   162579   162588   162596   162602 
  162599   162589   162577   162564   162549   162538   162530   162526 
  162531   162545   162554   162549   162535   162517   162491   162463 
  162446   162446   162452   162464   162475   162480   162481   162480 
  162481   162487   162486   162477   162473   162480   162492   162506 
  162530   162561   162595   162623   162641   162653   162662   162666 
  162664   162654   162646   162648   162649   162642   162637   162639 
  162645   162645   162631   162606   162575   162544   162519   162499 
  162479   162467   162465   162468   162475   162483   162484   162484 
  162492   162503   162517   162530   162537   162530   162518   162510 
  162500   162491   162491   162496   162499   162503   162510   162515 
  162514   162503   162483   162457   162434   162426   162427   162436 
  162450   162465   162479   162491   162500   162507   162507   162500 
  162498   162503   162518   162541   162558   162565   162571   162577 
  162580   162580   162585   162588   162591   162588   162573   162560 
  162556   162550   162548   162549   162553   162554   162546   162537 
  162527   162515   162508   162511   162515   162523   162548   162577 
  162606   162634   162653   162657   162658   162658   162653   162646 
  162648   162656   162665   162683   162707   162724   162735   162738 
  162730   162716   162697   162680   162675   162669   162661   162654 
  162649   162650   162653   162649   162629   162603   162589   162589 
  162591   162592   162594   162594   162595   162589   162579   162571 
  162567   162568   162576   162591   162606   162612   162616   162616 
  162607   162588   162562   162533   162507   162487   162468   162449 
  162423   162398   162383   162373   162369   162375   162386   162396 
  162409   162419   162425   162426   162434   162448   162453   162450 
  162446   162445   162440   162427   162418   162409   162394   162387 
  162382   162376   162379   162386   162387   162394   162400   162400 
  162398   162395   162396   162410   162426   162438   162454   162471 
  162473   162469   162471   162475   162479   162488   162503   162517 
  162531   162554   162577   162594   162614   162633   162639   162642 
  162654   162665   162670   162668   162657   162638   162615   162588 
  162562   162550   162553   162562   162572   162581   162580   162576 
  162583   162595   162607   162622   162639   162660   162679   162685 
  162688   162696   162708   162727   162756   162783   162801   162815 
  162826   162830   162823   162807   162783   162757   162734   162710 
  162687   162669   162653   162641   162631   162619   162603   162579 
  162548   162510   162465   162419   162384   162359   162336   162317 
  162305   162298   162290   162282   162280   162286   162292   162310 
  162341   162371   162402   162445   162481   162495   162498   162498 
  162488   162477   162471   162461   162453   162450   162446   162446 
  162453   162461   162479   162511   162546   162580   162611   162631 
  162643   162649   162648   162645   162650   162666   162687   162703 
  162719   162734   162742   162742   162729   162702   162670   162642 
  162626   162622   162625   162631   162646   162656   162648   162633 
  162619   162599   162573   162560   162558   162556   162546   162526 
  162500   162477   162459   162432   162396   162357   162319   162286 
  162260   162245   162249   162274   162303   162334   162376   162418 
  162449   162469   162477   162469   162453   162446   162445   162453 
  162471   162488   162511   162538   162556   162562   162568   162571 
  162575   162581   162591   162600   162612   162622   162629   162633 
  162631   162625   162616   162608   162602   162596   162602   162618 
  162642   162672   162700   162733   162766   162789   162800   162800 
  162793   162789   162784   162772   162758   162746   162735   162724 
  162714   162703   162693   162681   162673   162673   162668   162650 
  162627   162598   162564   162533   162510   162492   162483   162479 
  162477   162481   162475   162456   162440   162423   162405   162402 
  162414   162436   162469   162496   162502   162491   162475   162461 
  162456   162460   162472   162488   162503   162514   162515   162502 
  162472   162430   162383   162338   162309   162303   162319   162340 
  162351   162357   162364   162365   162361   162359   162360   162368 
  162386   162409   162430   162446   162460   162472   162476   162471 
  162464   162463   162472   162491   162514   162538   162554   162565 
  162571   162576   162583   162584   162583   162585   162596   162614 
  162623   162621   162610   162585   162548   162515   162490   162471 
  162468   162475   162480   162494   162508   162517   162525   162526 
  162525   162534   162544   162554   162575   162594   162611   162639 
  162672   162702   162726   162737   162735   162737   162737   162731 
  162724   162718   162712   162710   162699   162683   162670   162662 
  162653   162646   162639   162630   162622   162615   162603   162589 
  162581   162579   162580   162583   162583   162588   162602   162611 
  162610   162603   162588   162577   162567   162550   162533   162519 
  162507   162498   162488   162476   162467   162463   162463   162469 
  162483   162499   162519   162541   162558   162572   162585   162604 
  162622   162634   162643   162646   162639   162625   162614   162606 
  162599   162594   162589   162581   162569   162557   162541   162519 
  162492   162468   162450   162436   162427   162426   162437   162452 
  162465   162479   162499   162527   162558   162580   162587   162581 
  162569   162558   162545   162533   162533   162548   162576   162608 
  162639   162670   162699   162720   162727   162726   162722   162712 
  162697   162683   162666   162642   162615   162581   162534   162484 
  162434   162379   162336   162317   162311   162318   162334   162349 
  162361   162372   162378   162382   162384   162380   162373   162372 
  162380   162390   162396   162405   162415   162429   162442   162448 
  162446   162442   162442   162452   162465   162477   162490   162502 
  162513   162519   162525   162533   162537   162537   162533   162527 
  162526   162522   162508   162495   162477   162456   162444   162438 
  162436   162440   162442   162441   162442   162440   162442   162452 
  162461   162476   162492   162506   162523   162542   162556   162561 
  162564   162565   162571   162581   162599   162626   162658   162693 
  162733   162772   162808   162842   162869   162896   162927   162955 
  162976   162985   162981   162972   162961   162940   162919   162895 
  162868   162838   162818   162800   162776   162746   162714   162677 
  162645   162615   162596   162581   162561   162540   162525   162515 
  162506   162490   162467   162446   162434   162433   162441   162449 
  162453   162453   162456   162456   162449   162441   162437   162440 
  162442   162436   162429   162423   162418   162419   162429   162444 
  162465   162486   162500   162510   162513   162506   162487   162465 
  162461   162471   162477   162487   162503   162517   162519   162511 
  162496   162476   162453   162434   162421   162410   162400   162391 
  162386   162378   162365   162361   162363   162367   162378   162403 
  162434   162459   162477   162494   162508   162523   162534   162545 
  162554   162558   162564   162569   162573   162579   162595   162616 
  162639   162656   162669   162672   162661   162639   162610   162580 
  162557   162533   162508   162484   162452   162423   162407   162395 
  162380   162372   162376   162380   162376   162375   162375   162378 
  162379   162378   162388   162414   162450   162499   162552   162600 
  162641   162676   162702   162715   162712   162696   162679   162666 
  162654   162646   162649   162657   162668   162673   162670   162665 
  162657   162650   162646   162646   162648   162646   162637   162621 
  162606   162602   162600   162592   162588   162581   162567   162552 
  162534   162513   162498   162491   162481   162477   162476   162479 
  162487   162498   162513   162533   162548   162557   162568   162579 
  162580   162572   162562   162550   162538   162531   162533   162540 
  162544   162549   162558   162576   162598   162622   162649   162673 
  162691   162702   162714   162727   162738   162742   162745   162750 
  162757   162769   162784   162795   162804   162804   162785   162758 
  162724   162679   162635   162599   162568   162545   162526   162511 
  162504   162496   162480   162461   162438   162409   162376   162344 
  162315   162291   162272   162259   162248   162244   162248   162256 
  162272   162301   162329   162352   162376   162403   162436   162471 
  162504   162533   162552   162560   162565   162569   162569   162561 
  162557   162553   162546   162538   162533   162521   162502   162486 
  162476   162471   162477   162494   162510   162526   162542   162553 
  162562   162576   162594   162608   162621   162634   162641   162637 
  162631   162625   162625   162631   162642   162652   162666   162680 
  162691   162700   162706   162708   162714   162714   162714   162719 
  162720   162712   162700   162684   162666   162654   162643   162634 
  162625   162612   162595   162572   162542   162508   162477   162449 
  162425   162407   162398   162392   162388   162390   162387   162378 
  162368   162351   162329   162313   162298   162288   162295   162311 
  162334   162360   162391   162419   162442   162471   162506   162537 
  162571   162604   162633   162657   162672   162679   162683   162680 
  162672   162670   162664   162654   162649   162650   162662   162676 
  162687   162700   162708   162712   162723   162735   162734   162723 
  162708   162689   162666   162643   162629   162612   162591   162572 
  162558   162546   162529   162508   162491   162472   162449   162423 
  162395   162367   162340   162315   162302   162299   162299   162305 
  162314   162322   162336   162348   162356   162360   162357   162361 
  162372   162379   162387   162396   162403   162410   162415   162415 
  162409   162407   162407   162403   162403   162409   162415   162427 
  162442   162460   162481   162504   162527   162541   162544   162541 
  162538   162531   162527   162529   162534   162545   162557   162569 
  162587   162604   162618   162626   162629   162623   162612   162602 
  162592   162583   162575   162576   162576   162572   162575   162581 
  162584   162592   162603   162615   162633   162649   162662   162677 
  162692   162706   162723   162735   162743   162758   162777   162795 
  162812   162826   162837   162847   162862   162877   162888   162892 
  162893   162891   162882   162874   162866   162857   162847   162838 
  162819   162801   162787   162776   162772   162770   162766   162770 
  162774   162765   162746   162719   162684   162643   162606   162568 
  162530   162496   162467   162437   162410   162384   162360   162341 
  162326   162310   162295   162288   162290   162290   162290   162288 
  162284   162283   162288   162299   162309   162321   162334   162348 
  162365   162386   162406   162426   162438   162446   162456   162459 
  162460   162461   162464   162465   162471   162477   162483   162484 
  162483   162479   162475   162461   162448   162437   162429   162423 
  162426   162432   162445   162465   162484   162503   162521   162533 
  162545   162553   162554   162561   162573   162580   162583   162587 
  162588   162585   162579   162565   162548   162531   162515   162503 
  162495   162488   162486   162490   162490   162492   162507   162527 
  162549   162575   162596   162614   162633   162643   162641   162633 
  162622   162607   162594   162579   162565   162557   162549   162542 
  162548   162558   162561   162564   162573   162584   162591   162599 
  162606   162607   162604   162607   162612   162608   162602   162598 
  162595   162589   162581   162568   162548   162525   162506   162490 
  162475   162463   162453   162442   162433   162422   162406   162391 
  162383   162376   162369   162369   162368   162364   162365   162369 
  162376   162390   162411   162433   162450   162469   162486   162494 
  162503   162514   162518   162523   162525   162521   162517   162511 
  162502   162492   162477   162465   162464   162467   162464   162467 
  162475   162480   162480   162483   162488   162499   162514   162531 
  162553   162583   162611   162635   162658   162680   162704   162722 
  162734   162751   162766   162778   162792   162805   162823   162845 
  162862   162876   162885   162884   162873   162862   162849   162828 
  162805   162787   162768   162735   162702   162670   162634   162599 
  162568   162540   162523   162507   162487   162472   162463   162456 
  162454   162454   162457   162468   162484   162496   162508   162525 
  162537   162546   162556   162568   162576   162580   162583   162581 
  162575   162568   162558   162552   162546   162538   162529   162519 
  162507   162494   162486   162484   162486   162490   162496   162500 
  162499   162502   162500   162491   162486   162484   162477   162471 
  162469   162472   162472   162469   162468   162471   162481   162502 
  162522   162540   162553   162569   162591   162607   162618   162627 
  162637   162641   162639   162642   162642   162638   162635   162634 
  162635   162646   162656   162658   162660   162657   162648   162634 
  162618   162600   162583   162562   162545   162527   162500   162468 
  162438   162398   162351   162314   162280   162249   162228   162216 
  162210   162206   162206   162213   162216   162218   162229   162238 
  162248   162261   162271   162272   162275   162284   162302   162324 
  162351   162379   162403   162429   162449   162464   162486   162503 
  162511   162519   162533   162546   162560   162576   162587   162594 
  162603   162618   162631   162643   162660   162676   162695   162712 
  162727   162747   162769   162787   162799   162811   162823   162834 
  162843   162850   162853   162854   162854   162851   162846   162837 
  162828   162819   162811   162803   162797   162787   162770   162757 
  162746   162730   162711   162692   162668   162643   162622   162592 
  162568   162557   162546   162535   162526   162517   162514   162507 
  162494   162488   162491   162491   162490   162494   162502   162510 
  162511   162506   162504   162500   162490   162476   162468   162461 
  162454   162450   162449   162446   162445   162449   162446   162438 
  162436   162436   162433   162434   162433   162432   162438   162449 
  162463   162477   162490   162502   162513   162522   162531   162540 
  162546   162554   162568   162587   162602   162614   162623   162623 
  162621   162619   162618   162619   162621   162616   162616   162623 
  162621   162610   162595   162581   162565   162546   162525   162510 
  162495   162476   162465   162464   162463   162468   162477   162486 
  162496   162503   162508   162515   162517   162519   162523   162519 
  162518   162522   162521   162522   162522   162517   162515   162513 
  162507   162500   162491   162488   162488   162483   162484   162494 
  162503   162517   162529   162534   162542   162553   162554   162554 
  162556   162557   162564   162573   162580   162587   162596   162602 
  162602   162599   162598   162595   162587   162573   162558   162542 
  162526   162513   162495   162473   162456   162442   162426   162417 
  162414   162413   162417   162421   162423   162432   162440   162449 
  162461   162475   162494   162513   162527   162540   162548   162554 
  162558   162560   162558   162556   162556   162553   162549   162548 
  162546   162546   162548   162552   162556   162560   162565   162569 
  162573   162579   162579   162576   162571   162564   162552   162538 
  162523   162507   162492   162481   162472   162463   162463   162461 
  162453   162450   162453   162453   162457   162463   162468   162473 
  162481   162481   162486   162494   162498   162504   162518   162526 
  162531   162533   162530   162533   162542   162550   162557   162569 
  162584   162606   162630   162657   162687   162715   162745   162777 
  162804   162824   162846   162865   162876   162884   162892   162893 
  162889   162881   162869   162850   162823   162793   162770   162747 
  162727   162707   162688   162668   162646   162626   162610   162594 
  162579   162565   162553   162545   162538   162530   162522   162518 
  162518   162515   162511   162502   162491   162486   162475   162457 
  162441   162426   162406   162384   162364   162342   162324   162306 
  162287   162272   162259   162245   162233   162224   162221   162224 
  162226   162233   162245   162256   162271   162291   162311   162333 
  162359   162383   162409   162429   162446   162468   162491   162503 
  162510   162523   162533   162540   162548   162558   162565   162565 
  162565   162569   162573   162575   162575   162575   162577   162580 
  162584   162594   162608   162623   162641   162664   162689   162714 
  162739   162766   162788   162804   162826   162847   162859   162874 
  162892   162901   162911   162918   162915   162908   162900   162884 
  162865   162845   162818   162787   162757   162724   162692   162658 
  162623   162591   162561   162529   162492   162459   162432   162406 
  162386   162368   162348   162329   162315   162306   162297   162287 
  162282   162287   162288   162291   162298   162301   162302   162307 
  162314   162324   162338   162353   162368   162382   162396   162417 
  162433   162448   162467   162484   162496   162511   162531   162549 
  162561   162571   162576   162580   162579   162576   162576   162573 
  162569   162569   162573   162572   162572   162575   162576   162573 
  162569   162569   162567   162565   162565   162564   162562   162562 
  162561   162556   162552   162550   162544   162531   162533   162542 
  162544   162542   162549   162558   162561   162562   162567   162569 
  162572   162573   162575   162575   162573   162575   162581   162588 
  162588   162587   162587   162581   162569   162562   162561   162561 
