Origin Time       2025/06/03 22:18:00
Lat.              41.7
Long.             143.6
Depth. (km)       30
Mag.              5.2
Station Code      ABSH06
Station Lat.      44.2146
Station Long.     143.6202
Station Height(m) 7
Record Time       2025/06/03 22:19:48
Sampling Freq(Hz) 100Hz
Duration Time(s)  120
Dir.              4
Scale Factor      3920(gal)/6170801
Max. Acc. (gal)   0.297
Last Correction   2025/06/03 22:19:33
Memo.             
[...]
  -37995   -37998   -37997   -37989   -37970   -37939   -37899   -37854 
  -37811   -37773   -37743   -37722   -37707   -37694   -37685   -37674 
  -37652   -37624   -37593   -37561   -37530   -37505   -37486   -37473 
  -37464   -37457   -37455   -37459   -37467   -37478   -37495   -37515 
  -37533   -37548   -37560   -37566   -37569   -37577   -37595   -37633 
  -37687   -37746   -37800   -37836   -37846   -37836   -37816   -37795 
  -37786   -37797   -37821   -37851   -37879   -37892   -37889   -37872 
  -37852   -37837   -37829   -37828   -37831   -37833   -37828   -37812 
  -37791   -37767   -37741   -37714   -37695   -37683   -37678   -37685 
  -37698   -37708   -37709   -37699   -37677   -37646   -37618   -37608 
  -37617   -37642   -37677   -37709   -37724   -37717   -37692   -37657 
  -37628   -37612   -37612   -37625   -37644   -37662   -37669   -37662 
  -37640   -37611   -37584   -37565   -37554   -37554   -37566   -37583 
  -37601   -37619   -37636   -37647   -37657   -37668   -37681   -37696 
  -37715   -37735   -37749   -37754   -37751   -37742   -37737   -37741 
  -37751   -37768   -37786   -37797   -37795   -37778   -37755   -37738 
  -37734   -37747   -37776   -37811   -37840   -37855   -37850   -37827 
  -37798   -37769   -37748   -37739   -37744   -37757   -37769   -37773 
  -37768   -37754   -37734   -37717   -37712   -37719   -37735   -37757 
  -37775   -37781   -37773   -37753   -37724   -37697   -37680   -37674 
  -37679   -37691   -37703   -37702   -37693   -37678   -37655   -37632 
  -37620   -37623   -37644   -37677   -37713   -37746   -37768   -37777 
  -37775   -37772   -37772   -37776   -37785   -37795   -37795   -37779 
  -37751   -37709   -37656   -37609   -37571   -37544   -37533   -37533 
  -37533   -37528   -37516   -37496   -37472   -37454   -37447   -37453 
  -37472   -37503   -37537   -37564   -37583   -37591   -37589   -37583 
  -37579   -37584   -37603   -37632   -37667   -37706   -37740   -37766 
  -37785   -37798   -37810   -37821   -37833   -37846   -37859   -37869 
  -37877   -37888   -37904   -37921   -37935   -37945   -37945   -37931 
  -37906   -37875   -37839   -37802   -37770   -37741   -37711   -37681 
  -37651   -37620   -37585   -37556   -37533   -37514   -37508   -37515 
  -37526   -37536   -37546   -37556   -37565   -37574   -37591   -37622 
  -37660   -37701   -37740   -37770   -37791   -37800   -37802   -37807 
  -37819   -37835   -37856   -37881   -37905   -37921   -37924   -37911 
  -37888   -37861   -37838   -37827   -37828   -37836   -37849   -37863 
  -37876   -37878   -37870   -37854   -37830   -37805   -37783   -37764 
  -37746   -37731   -37715   -37694   -37666   -37634   -37603   -37575 
  -37556   -37546   -37546   -37548   -37548   -37546   -37541   -37534 
  -37530   -37531   -37536   -37545   -37554   -37559   -37562   -37559 
  -37549   -37539   -37535   -37535   -37540   -37556   -37576   -37593 
  -37607   -37616   -37619   -37618   -37617   -37621   -37632   -37648 
  -37669   -37686   -37697   -37704   -37705   -37703   -37709   -37718 
  -37731   -37754   -37780   -37807   -37842   -37878   -37904   -37925 
  -37937   -37936   -37926   -37915   -37905   -37898   -37896   -37897 
  -37893   -37882   -37866   -37844   -37820   -37796   -37775   -37755 
  -37736   -37719   -37706   -37700   -37694   -37688   -37684   -37678 
  -37667   -37656   -37651   -37650   -37651   -37654   -37658   -37660 
  -37662   -37664   -37667   -37675   -37692   -37717   -37747   -37778 
  -37798   -37805   -37801   -37787   -37769   -37755   -37744   -37739 
  -37736   -37732   -37724   -37711   -37694   -37682   -37675   -37672 
  -37672   -37676   -37675   -37666   -37652   -37638   -37628   -37622 
  -37617   -37616   -37612   -37602   -37593   -37583   -37574   -37568 
  -37568   -37574   -37580   -37584   -37586   -37582   -37576   -37569 
  -37558   -37549   -37543   -37545   -37557   -37579   -37604   -37626 
  -37642   -37648   -37641   -37625   -37609   -37593   -37584   -37585 
  -37591   -37598   -37603   -37602   -37590   -37574   -37562   -37555 
  -37558   -37572   -37592   -37616   -37639   -37661   -37686   -37713 
  -37747   -37795   -37851   -37910   -37967   -38018   -38058   -38090 
  -38111   -38126   -38135   -38145   -38155   -38159   -38155   -38143 
  -38116   -38078   -38036   -37994   -37959   -37929   -37903   -37883 
  -37866   -37843   -37817   -37792   -37768   -37747   -37734   -37723 
  -37709   -37693   -37672   -37647   -37620   -37593   -37564   -37537 
  -37516   -37503   -37498   -37494   -37492   -37490   -37490   -37494 
  -37501   -37509   -37523   -37541   -37556   -37565   -37565   -37556 
  -37542   -37526   -37515   -37510   -37506   -37505   -37503   -37498 
  -37488   -37474   -37457   -37441   -37429   -37420   -37419   -37427 
  -37445   -37476   -37519   -37564   -37610   -37658   -37706   -37748 
  -37793   -37842   -37888   -37929   -37962   -37988   -38007   -38018 
  -38020   -38017   -38009   -37993   -37973   -37950   -37925   -37901 
  -37880   -37863   -37852   -37842   -37827   -37808   -37786   -37762 
  -37739   -37721   -37710   -37703   -37696   -37686   -37669   -37648 
  -37624   -37603   -37596   -37598   -37607   -37624   -37642   -37654 
  -37656   -37648   -37633   -37617   -37604   -37597   -37599   -37613 
  -37634   -37656   -37675   -37685   -37687   -37682   -37678   -37679 
  -37689   -37712   -37741   -37767   -37790   -37804   -37803   -37795 
  -37783   -37763   -37736   -37709   -37684   -37664   -37649   -37640 
  -37634   -37628   -37618   -37601   -37583   -37566   -37555   -37554 
  -37565   -37585   -37609   -37634   -37657   -37677   -37692   -37705 
  -37715   -37731   -37752   -37775   -37801   -37833   -37865   -37896 
  -37921   -37937   -37941   -37937   -37928   -37915   -37906   -37900 
  -37898   -37896   -37891   -37882   -37867   -37847   -37825   -37805 
  -37795   -37796   -37806   -37826   -37854   -37882   -37906   -37923 
  -37924   -37914   -37898   -37874   -37846   -37819   -37795   -37775 
  -37758   -37740   -37717   -37690   -37660   -37626   -37591   -37553 
  -37515   -37481   -37453   -37429   -37414   -37407   -37406   -37407 
  -37402   -37386   -37363   -37339   -37318   -37307   -37310   -37323 
  -37340   -37359   -37377   -37393   -37407   -37418   -37429   -37447 
  -37468   -37486   -37509   -37537   -37566   -37592   -37618   -37642 
  -37666   -37689   -37710   -37729   -37745   -37753   -37752   -37747 
  -37739   -37733   -37731   -37736   -37746   -37760   -37770   -37770 
  -37763   -37754   -37748   -37749   -37761   -37782   -37811   -37844 
  -37877   -37910   -37944   -37975   -38002   -38025   -38045   -38054 
  -38053   -38044   -38021   -37988   -37948   -37902   -37852   -37802 
  -37755   -37717   -37688   -37664   -37639   -37614   -37589   -37564 
  -37541   -37523   -37512   -37513   -37521   -37536   -37559   -37583 
  -37609   -37637   -37663   -37692   -37722   -37755   -37795   -37839 
  -37881   -37916   -37940   -37950   -37943   -37927   -37906   -37880 
  -37852   -37829   -37807   -37777   -37741   -37702   -37663   -37626 
  -37598   -37581   -37576   -37580   -37596   -37609   -37616   -37626 
  -37637   -37644   -37652   -37667   -37690   -37718   -37749   -37777 
  -37798   -37811   -37815   -37815   -37811   -37805   -37796   -37787 
  -37774   -37757   -37738   -37712   -37686   -37664   -37643   -37622 
  -37604   -37586   -37569   -37556   -37548   -37544   -37546   -37551 
  -37558   -37569   -37584   -37604   -37628   -37655   -37683   -37705 
  -37723   -37739   -37753   -37769   -37786   -37802   -37818   -37833 
  -37845   -37858   -37872   -37885   -37899   -37908   -37914   -37917 
  -37913   -37904   -37892   -37878   -37864   -37854   -37845   -37835 
  -37824   -37813   -37799   -37778   -37747   -37711   -37676   -37642 
  -37612   -37592   -37584   -37579   -37576   -37572   -37558   -37538 
  -37515   -37492   -37476   -37469   -37472   -37485   -37499   -37511 
  -37522   -37527   -37526   -37522   -37518   -37522   -37534   -37551 
  -37572   -37591   -37601   -37604   -37605   -37603   -37602   -37606 
  -37615   -37625   -37639   -37655   -37668   -37678   -37687   -37695 
  -37700   -37705   -37714   -37725   -37738   -37753   -37766   -37776 
  -37786   -37790   -37790   -37791   -37791   -37786   -37777   -37763 
  -37749   -37735   -37724   -37718   -37713   -37710   -37709   -37709 
  -37709   -37706   -37700   -37695   -37694   -37693   -37693   -37700 
  -37712   -37721   -37735   -37753   -37769   -37783   -37797   -37808 
  -37813   -37814   -37814   -37812   -37811   -37813   -37816   -37820 
  -37829   -37841   -37852   -37857   -37858   -37854   -37843   -37829 
  -37812   -37799   -37793   -37796   -37804   -37814   -37822   -37822 
  -37809   -37783   -37749   -37716   -37686   -37662   -37647   -37636 
  -37631   -37626   -37617   -37607   -37593   -37578   -37570   -37567 
  -37567   -37575   -37587   -37597   -37604   -37608   -37608   -37609 
  -37610   -37610   -37613   -37614   -37612   -37609   -37605   -37603 
  -37601   -37603   -37611   -37620   -37630   -37641   -37649   -37653 
  -37655   -37656   -37655   -37653   -37648   -37649   -37654   -37663 
  -37679   -37695   -37707   -37717   -37723   -37722   -37723   -37729 
  -37740   -37752   -37769   -37790   -37809   -37824   -37836   -37845 
  -37848   -37845   -37842   -37842   -37844   -37843   -37838   -37833 
  -37823   -37805   -37785   -37768   -37756   -37752   -37750   -37751 
  -37754   -37749   -37733   -37708   -37677   -37643   -37614   -37592 
  -37575   -37562   -37552   -37541   -37528   -37513   -37500   -37489 
  -37486   -37490   -37502   -37520   -37542   -37568   -37598   -37625 
  -37649   -37672   -37691   -37707   -37721   -37733   -37747   -37761 
  -37770   -37777   -37784   -37787   -37787   -37787   -37785   -37783 
  -37781   -37779   -37778   -37777   -37778   -37785   -37791   -37794 
  -37794   -37790   -37785   -37779   -37773   -37770   -37774   -37784 
  -37795   -37806   -37820   -37831   -37835   -37835   -37837   -37839 
  -37843   -37852   -37860   -37864   -37866   -37861   -37850   -37837 
  -37820   -37801   -37785   -37771   -37759   -37749   -37737   -37723 
  -37705   -37683   -37657   -37627   -37597   -37568   -37545   -37528 
  -37514   -37506   -37502   -37500   -37495   -37487   -37476   -37464 
  -37455   -37452   -37461   -37480   -37505   -37534   -37561   -37582 
  -37596   -37603   -37607   -37613   -37627   -37651   -37683   -37719 
  -37755   -37786   -37811   -37827   -37834   -37842   -37850   -37860 
  -37875   -37894   -37915   -37937   -37951   -37959   -37961   -37956 
  -37949   -37945   -37943   -37944   -37947   -37950   -37947   -37939 
  -37924   -37903   -37879   -37855   -37831   -37810   -37792   -37774 
  -37753   -37733   -37714   -37693   -37674   -37657   -37639   -37622 
  -37606   -37587   -37568   -37551   -37532   -37514   -37501   -37491 
  -37482   -37474   -37466   -37456   -37441   -37428   -37416   -37406 
  -37401   -37401   -37407   -37420   -37436   -37449   -37464   -37484 
  -37500   -37514   -37528   -37539   -37549   -37559   -37569   -37581 
  -37599   -37616   -37634   -37655   -37673   -37688   -37702   -37714 
  -37722   -37731   -37740   -37746   -37748   -37749   -37751   -37753 
  -37752   -37752   -37750   -37747   -37746   -37747   -37748   -37753 
  -37757   -37758   -37754   -37750   -37749   -37747   -37744   -37744 
  -37744   -37745   -37746   -37750   -37758   -37769   -37779   -37791 
  -37803   -37810   -37815   -37817   -37821   -37828   -37837   -37846 
  -37852   -37852   -37845   -37830   -37807   -37782   -37757   -37728 
  -37702   -37681   -37661   -37641   -37626   -37614   -37601   -37591 
  -37585   -37584   -37588   -37599   -37619   -37646   -37675   -37704 
  -37730   -37748   -37759   -37764   -37762   -37755   -37748   -37739 
  -37728   -37719   -37707   -37694   -37678   -37662   -37645   -37629 
  -37617   -37607   -37602   -37608   -37619   -37632   -37653   -37678 
  -37705   -37733   -37761   -37787   -37810   -37832   -37855   -37880 
  -37906   -37930   -37954   -37974   -37991   -38005   -38016   -38023 
  -38030   -38037   -38042   -38043   -38043   -38044   -38043   -38040 
  -38036   -38028   -38015   -37996   -37975   -37956   -37939   -37925 
  -37914   -37904   -37891   -37878   -37865   -37846   -37824   -37803 
  -37786   -37770   -37757   -37745   -37727   -37708   -37686   -37659 
  -37630   -37601   -37573   -37548   -37526   -37506   -37486   -37462 
  -37434   -37403   -37369   -37336   -37309   -37287   -37273   -37268 
  -37266   -37266   -37267   -37264   -37258   -37252   -37245   -37238 
  -37239   -37248   -37264   -37284   -37304   -37325   -37348   -37368 
  -37386   -37408   -37431   -37454   -37479   -37507   -37538   -37571 
  -37602   -37637   -37671   -37702   -37732   -37764   -37794   -37824 
  -37857   -37890   -37918   -37941   -37956   -37965   -37969   -37970 
  -37971   -37972   -37975   -37975   -37971   -37964   -37953   -37937 
  -37920   -37900   -37882   -37868   -37855   -37843   -37830   -37811 
  -37786   -37754   -37721   -37686   -37646   -37606   -37571   -37541 
  -37516   -37495   -37476   -37461   -37449   -37442   -37436   -37436 
  -37442   -37451   -37468   -37493   -37517   -37537   -37556   -37575 
  -37592   -37609   -37629   -37652   -37680   -37715   -37750   -37782 
  -37814   -37844   -37874   -37907   -37945   -37988   -38032   -38073 
  -38110   -38140   -38160   -38169   -38171   -38171   -38171   -38168 
  -38167   -38165   -38156   -38137   -38106   -38062   -38009   -37949 
  -37883   -37818   -37758   -37702   -37646   -37592   -37543   -37494 
  -37447   -37405   -37369   -37342   -37329   -37329   -37340   -37359 
  -37382   -37407   -37436   -37466   -37500   -37541   -37586   -37631 
  -37678   -37723   -37760   -37791   -37815   -37832   -37846   -37857 
  -37864   -37868   -37871   -37868   -37859   -37850   -37833   -37808 
  -37780   -37748   -37711   -37675   -37642   -37612   -37586   -37564 
  -37541   -37517   -37498   -37482   -37467   -37459   -37457   -37462 
  -37474   -37489   -37505   -37525   -37547   -37569   -37594   -37620 
  -37646   -37666   -37682   -37694   -37702   -37704   -37707   -37715 
  -37722   -37729   -37737   -37742   -37742   -37743   -37742   -37743 
  -37744   -37745   -37752   -37762   -37770   -37778   -37785   -37789 
  -37794   -37798   -37801   -37803   -37803   -37802   -37805   -37809 
  -37812   -37817   -37820   -37820   -37823   -37828   -37833   -37840 
  -37848   -37855   -37862   -37868   -37867   -37864   -37862   -37855 
  -37845   -37839   -37835   -37825   -37811   -37796   -37778   -37762 
  -37747   -37733   -37723   -37717   -37712   -37710   -37707   -37700 
  -37696   -37692   -37685   -37678   -37674   -37669   -37663   -37659 
  -37653   -37643   -37633   -37625   -37615   -37603   -37594   -37588 
  -37583   -37579   -37578   -37579   -37587   -37599   -37612   -37627 
  -37646   -37666   -37683   -37699   -37714   -37723   -37730   -37736 
  -37741   -37746   -37751   -37759   -37769   -37777   -37780   -37781 
  -37779   -37771   -37760   -37751   -37740   -37729   -37719   -37706 
  -37691   -37674   -37651   -37625   -37602   -37580   -37561   -37545 
  -37532   -37520   -37508   -37496   -37489   -37482   -37475   -37470 
  -37470   -37473   -37478   -37486   -37495   -37506   -37516   -37525 
  -37538   -37552   -37568   -37587   -37609   -37631   -37652   -37673 
  -37689   -37705   -37721   -37734   -37746   -37759   -37768   -37772 
  -37777   -37781   -37783   -37785   -37788   -37791   -37792   -37794 
  -37796   -37799   -37801   -37805   -37811   -37815   -37818   -37819 
  -37816   -37811   -37805   -37796   -37782   -37767   -37754   -37737 
  -37716   -37696   -37679   -37662   -37652   -37648   -37650   -37657 
  -37666   -37676   -37684   -37688   -37693   -37703   -37717   -37736 
  -37754   -37773   -37792   -37806   -37815   -37817   -37816   -37816 
  -37816   -37820   -37831   -37843   -37852   -37857   -37863   -37867 
  -37865   -37864   -37869   -37874   -37878   -37886   -37892   -37893 
  -37887   -37873   -37854   -37831   -37804   -37777   -37753   -37734 
  -37719   -37707   -37695   -37679   -37663   -37647   -37634   -37624 
  -37618   -37617   -37624   -37634   -37643   -37652   -37657   -37655 
  -37652   -37649   -37643   -37638   -37637   -37641   -37645   -37647 
  -37644   -37641   -37635   -37627   -37618   -37613   -37611   -37609 
  -37610   -37616   -37622   -37626   -37631   -37637   -37641   -37647 
  -37656   -37667   -37679   -37690   -37704   -37718   -37729   -37739 
  -37746   -37752   -37756   -37756   -37755   -37753   -37748   -37742 
  -37736   -37725   -37710   -37696   -37680   -37665   -37655   -37645 
  -37635   -37628   -37624   -37621   -37616   -37611   -37607   -37603 
  -37598   -37597   -37600   -37606   -37614   -37618   -37622   -37626 
  -37627   -37626   -37623   -37618   -37614   -37610   -37607   -37606 
  -37608   -37611   -37614   -37620   -37627   -37635   -37645   -37656 
  -37664   -37671   -37685   -37701   -37716   -37731   -37750   -37770 
  -37788   -37804   -37820   -37837   -37854   -37870   -37890   -37912 
  -37934   -37952   -37966   -37973   -37974   -37971   -37963   -37951 
  -37938   -37921   -37899   -37875   -37848   -37814   -37774   -37736 
  -37698   -37659   -37624   -37595   -37569   -37550   -37534   -37520 
  -37513   -37508   -37502   -37501   -37509   -37519   -37529   -37546 
  -37568   -37588   -37605   -37623   -37642   -37663   -37684   -37707 
  -37736   -37766   -37790   -37812   -37831   -37845   -37857   -37868 
  -37878   -37890   -37901   -37907   -37911   -37911   -37905   -37896 
  -37888   -37877   -37863   -37848   -37834   -37819   -37804   -37786 
  -37768   -37748   -37728   -37710   -37692   -37678   -37670   -37662 
  -37654   -37643   -37631   -37620   -37611   -37602   -37596   -37594 
  -37593   -37593   -37594   -37595   -37595   -37598   -37605   -37613 
  -37624   -37636   -37647   -37655   -37661   -37665   -37669   -37672 
  -37676   -37681   -37688   -37698   -37706   -37712   -37718   -37720 
  -37723   -37723   -37717   -37716   -37718   -37715   -37714   -37715 
  -37715   -37714   -37710   -37703   -37695   -37686   -37676   -37666 
  -37658   -37651   -37642   -37631   -37618   -37608   -37597   -37584 
  -37571   -37559   -37546   -37530   -37512   -37499   -37487   -37478 
  -37474   -37477   -37481   -37489   -37503   -37516   -37527   -37542 
  -37557   -37571   -37588   -37606   -37625   -37649   -37676   -37698 
  -37723   -37752   -37777   -37798   -37818   -37837   -37857   -37875 
  -37892   -37908   -37923   -37933   -37937   -37940   -37940   -37933 
  -37920   -37903   -37885   -37864   -37837   -37806   -37776   -37746 
  -37714   -37685   -37664   -37644   -37625   -37612   -37603   -37598 
  -37597   -37601   -37610   -37624   -37642   -37662   -37686   -37711 
  -37736   -37761   -37788   -37813   -37833   -37851   -37868   -37880 
  -37888   -37894   -37896   -37895   -37888   -37876   -37864   -37850 
  -37832   -37817   -37803   -37791   -37780   -37769   -37758   -37751 
  -37745   -37739   -37738   -37740   -37741   -37744   -37747   -37746 
  -37744   -37740   -37733   -37728   -37721   -37714   -37709   -37702 
