Origin Time       2025/06/03 22:18:00
Lat.              41.7
Long.             143.6
Depth. (km)       30
Mag.              5.2
Station Code      ABSH13
Station Lat.      43.7419
Station Long.     143.4514
Station Height(m) 216
Record Time       2025/06/03 22:19:17
Sampling Freq(Hz) 100Hz
Duration Time(s)  120
Dir.              1
Scale Factor      3923(gal)/8224838
Max. Acc. (gal)   0.334
Last Correction   2025/06/03 22:19:18
Memo.             
[...]
     295      287      282      270      255      248      245      243 
     244      248      253      256      252      244      241      244 
     248      249      252      267      280      280      280      290 
     291      278      271      278      275      265      275      295 
     310      310      301      286      265      243      222      203 
     194      191      194      203      217      232      248      268 
     286      291      280      261      248      234      216      203 
     206      214      214      205      191      171      147      136 
     136      139      145      160      182      203      216      221 
     220      218      225      244      259      263      257      251 
     244      232      222      232      255      272      274      264 
     249      237      236      251      270      284      303      330 
     361      390      395      388      384      375      353      328 
     307      295      297      309      324      337      349      355 
     352      348      345      344      341      337      333      330 
     329      322      310      290      265      248      233      216 
     201      187      179      178      180      183      186      189 
     190      190      189      180      166      160      162      163 
     172      184      190      191      198      202      195      183 
     168      151      139      133      121      114      126      148 
     167      179      180      184      194      201      210      217 
     216      209      203      198      195      199      205      213 
     218      214      209      216      234      261      292      319 
     342      357      364      371      387      402      414      426 
     436      433      422      400      380      368      357      346 
     340      340      341      342      338      326      313      306 
     309      309      303      291      276      264      251      240 
     238      244      248      251      253      251      248      249 
     256      259      265      282      299      311      321      328 
     334      337      337      333      329      315      291      263 
     237      210      183      162      140      113       83       55 
      36       21       13       16       20       18       24       35 
      35       32       29       22       14       17       27       39 
      55       71       89      116      153      191      222      252 
     279      307      334      349      349      346      340      328 
     321      329      340      342      337      329      321      317 
     314      317      325      334      341      348      352      345 
     328      314      303      287      276      274      264      257 
     253      236      213      201      194      190      194      207 
     222      236      252      263      260      256      249      238 
     243      265      291      307      322      337      345      342 
     338      334      326      324      329      332      330      326 
     321      317      313      302      286      276      268      263 
     267      284      311      340      361      373      378      371 
     364      361      352      332      314      302      295      301 
     313      330      355      376      384      379      359      328 
     297      263      225      187      152      126      108       94 
      90       90       83       68       52       40       37       48 
      76      113      139      159      180      180      162      151 
     151      149      148      153      166      183      207      241 
     278      298      299      283      251      216      186      157 
     129      112      113      129      149      175      202      222 
     233      236      229      217      199      179      170      186 
     225      272      318      363      399      417      411      387 
     349      310      288      292      311      342      380      405 
     406      394      369      330      283      240      205      182 
     182      202      218      229      238      243      244      255 
     260      256      249      251      259      265      259      240 
     214      178      151      152      183      228      265      286 
     283      244      178      110       60       43       66      118 
     174      210      232      241      243      233      216      203 
     209      229      265      321      390      452      488      492 
     471      429      371      329      322      341      360      367 
     357      337      314      302      299      306      328      365 
     414      459      491      500      480      432      364      288 
     220      172      156      166      190      216      229      225 
     202      164      118       59       -5      -64     -105     -112 
     -85      -33       37      113      178      228      257      260 
     247      225      194      166      156      176      229      310 
     398      467      496      500      484      444      399      360 
     310      252      210      203      220      233      236      234 
     228      203      174      143      114       97      102      125 
     163      210      260      309      356      391      414      425 
     415      382      329      270      211      166      140      140 
     159      190      234      274      297      310      315      315 
     319      325      336      359      390      421      444      448 
     436      409      365      309      247      197      160      135 
     129      152      186      216      245      263      249      197 
     118       51       10       -5        4       39       99      167 
     216      251      279      288      283      275      271      267 
     264      272      303      348      392      414      403      372 
     337      315      309      306      297      270      225      166 
      98       35       -4        1       51      130      224      309 
     361      378      368      355      341      315      287      268 
     252      233      213      184      153      140      148      166 
     184      193      194      199      202      194      176      156 
     149      166      190      214      243      280      318      338 
     341      326      290      247      221      224      251      283 
     307      321      322      307      283      265      263      261 
     253      252      252      247      234      211      183      164 
     157      166      182      210      255      309      363      410 
     449      490      517      519      504      483      449      391 
     306      225      171      141      133      153      197      247 
     299      355      403      436      448      440      410      371 
     337      324      325      328      334      334      315      276 
     221      160      109       71       43       22       20       35 
      67      112      152      176      189      198      201      193 
     180      170      160      147      118       75       22      -14 
      -5       43      101      174      260      329      369      378 
     355      324      303      301      317      344      359      346 
     319      275      213      157      135      143      174      220 
     247      226      178      135      103       74       59       78 
     124      184      255      313      338      334      305      256 
     207      178      167      167      171      187      213      230 
     226      211      198      184      186      211      249      278 
     282      261      228      198      191      205      228      249 
     261      268      280      305      338      367      387      396 
     396      396      391      369      337      305      280      271 
     270      275      278      270      264      275      295      314 
     330      351      372      390      391      376      351      336 
     332      325      306      280      251      221      193      170 
     156      157      176      194      193      170      145      139 
     133      113       97      101      113      114      106       98 
      89       93      124      170      213      253      294      334 
     372      398      405      392      368      345      338      344 
     356      376      388      379      352      314      271      232 
     209      205      207      210      222      237      233      203 
     160      118      101      110      129      139      137      139 
     159      194      236      278      305      318      329      340 
     345      348      353      357      351      337      332      330 
     332      332      326      319      326      345      363      364 
     360      360      365      363      337      288      238      202 
     183      198      241      291      340      384      413      402 
     346      265      171       79       16       -8       -2       16 
      39       60       79      103      141      189      243      295 
     340      376      402      418      426      418      398      388 
     398      409      409      402      387      369      348      314 
     268      216      174      151      140      140      145      145 
     133      117      113      124      145      183      228      251 
     243      225      217      210      194      156      101       51 
      24       20       35       62      102      147      184      210 
     225      226      226      245      270      286      297      309 
     314      317      333      363      392      415      418      398 
     359      301      228      151       98       87      108      137 
     159      167      160      144      113       63        2      -56 
    -108     -143     -144     -103      -24       81      205      342 
     467      550      584      577      549      515      495      495 
     499      504      517      523      515      495      464      432 
     402      378      368      378      398      419      432      430 
     418      400      382      357      309      240      172      113 
      62       29       21       27       39       71      122      175 
     218      263      315      360      379      371      342      310 
     280      256      238      232      238      252      267      280 
     291      302      319      337      351      349      322      280 
     236      198      171      144      102       60       27        8 
      10       29       49       58       47       22        5        4 
      18       47       85      121      152      195      259      332 
     415      510      591      630      630      612      587      544 
     488      433      369      295      221      153       90       27 
     -21      -47      -49      -33        1       44       93      155 
     229      295      345      382      396      386      364      336 
     298      243      176      124      109      133      186      253 
     313      357      387      395      391      378      359      336 
     305      265      232      218      241      292      355      417 
     476      523      557      575      576      567      558      553 
     537      506      454      379      272      147       32      -58 
    -126     -157     -149     -117      -71      -28        0        8 
       8       13       28       56      105      164      213      248 
     264      263      259      263      263      249      229      209 
     190      183      190      193      182      163      141      122 
     118      130      153      178      195      194      175      145 
     110       81       66       70       91      128      164      203 
     249      292      329      353      365      372      373      357 
     330      297      253      217      218      257      310      367 
     426      480      527      565      599      621      619      608 
     598      584      569      560      557      575      603      619 
     619      603      571      526      464      376      265      143 
      18      -85     -149     -180     -184     -156     -116      -85 
     -63      -45      -29      -13       -5       -9      -14       -9 
       8       41       87      147      221      299      372      442 
     492      517      522      513      502      507      529      561 
     602      641      665      672      657      619      546      425 
     270      108      -25     -118     -171     -170     -117      -39 
      62      179      272      315      317      287      234      183 
     149      121       99       98      120      143      164      187 
     211      232      241      240      232      220      216      230 
     256      282      305      322      325      319      303      278 
     253      226      197      164      136      120      106       93 
      87       89      102      133      172      203      216      202 
     172      135       87       54       63      106      153      205 
     256      297      313      306      295      283      261      247 
     253      264      278      298      329      369      410      434 
     442      430      398      349      282      206      136       74 
      17      -32      -59      -60      -51      -36      -16        2 
      20       40       58       74       95      117      136      156 
     179      201      224      259      310      372      438      506 
     576      657      751      842      913      949      942      901 
     839      762      670      568      468      387      324      272 
     229      184      135       90       56       39       35       35 
      28       10      -10      -20      -10       12       35       51 
      54       47       40       51       74       85       91      103 
     118      133      160      209      264      306      336      352 
     351      338      322      303      291      298      318      342 
     359      363      360      345      326      318      317      315 
     317      322      313      272      220      184      167      163 
     163      171      186      197      202      198      182      159 
     129       99       78       62       48       45       54       72 
     103      143      186      220      247      278      310      341 
     367      388      405      413      413      411      415      423 
     440      463      479      496      527      562      588      610 
     621      616      611      611      610      599      575      546 
     513      459      387      310      234      172      129      110 
     117      140      167      183      179      167      155      136 
     120      109       89       59       28        8       -1       -8 
     -13       -5       13       29       41       51       58       51 
      28        2      -17      -36      -47      -41      -29      -17 
       5       37       72      110      151      198      237      253 
     251      238      214      183      149      118       94       86 
      93      109      126      152      187      218      244      267 
     291      324      369      421      461      487      503      518 
     527      526      515      495      468      441      413      386 
     357      319      284      263      248      238      236      224 
     205      197      198      202      209      210      201      190 
     182      174      168      171      182      193      209      238 
     283      326      365      409      457      508      560      598 
     614      611      594      564      523      480      440      400 
     367      338      309      276      252      240      232      218 
     195      163      128       90       47        4      -28      -48 
     -60      -58      -44      -29       -2       32       62       86 
     114      144      167      191      211      221      230      252 
     275      292      315      334      341      344      345      345 
     351      361      369      364      353      346      336      321 
     313      309      303      306      306      288      259      230 
     210      206      217      233      248      259      274      292 
     309      326      348      360      365      372      372      360 
     345      334      325      317      313      317      322      326 
     324      315      302      288      280      274      267      265 
     260      247      224      195      178      180      195      217 
     241      256      256      241      214      175      118       51 
     -10      -47      -51      -35       -2       40       74       89 
     101      116      129      139      151      159      153      143 
     132      122      117      121      132      149      170      183 
     180      170      164      162      157      149      143      141 
     141      148      167      195      230      270      302      325 
     346      361      365      368      365      353      345      349 
     364      380      395      399      396      395      399      402 
     406      413      422      432      434      433      427      418 
     402      379      355      341      324      299      283      279 
     283      291      302      317      333      340      338      332 
     324      322      321      307      280      252      228      211 
     198      172      139      110       95       94       95       98 
     110      125      143      163      183      203      225      244 
     257      265      278      295      310      328      344      361 
     380      391      388      365      325      274      221      179 
     155      141      136      137      139      135      126      121 
     114      101       86       70       56       48       41       35 
      37       47       60       74       87      110      137      159 
     178      194      207      221      232      245      271      302 
     341      384      419      440      449      442      422      396 
     378      369      373      390      413      440      464      481 
     495      502      499      499      502      500      499      494 
     479      454      423      387      351      321      298      275 
     245      209      179      157      144      144      156      176 
     201      222      240      251      251      238      224      211 
     206      206      206      205      209      218      234      259 
     279      286      282      274      270      265      255      248 
     243      218      180      144      110       67       21      -18 
     -51      -70      -71      -70      -71      -72      -71      -68 
     -66      -51      -27      -12       -4       10       31       52 
      78       99      116      125      129      144      166      186 
     206      221      234      251      264      275      291      313 
     338      365      390      413      432      446      457      456 
     442      430      422      414      405      395      386      375 
     368      364      363      365      371      383      406      438 
     471      494      513      529      535      531      526      513 
     494      484      494      510      526      540      549      549 
     545      534      515      495      473      440      391      329 
