Origin Time       2025/06/03 22:18:00
Lat.              41.7
Long.             143.6
Depth. (km)       30
Mag.              5.2
Station Code      ABSH11
Station Lat.      43.9144
Station Long.     144.1913
Station Height(m) -82
Record Time       2025/06/03 22:20:02
Sampling Freq(Hz) 100Hz
Duration Time(s)  120
Dir.              2
Scale Factor      2942(gal)/8224139
Max. Acc. (gal)   0.110
Last Correction   2025/06/03 22:20:03
Memo.             
[...]
   94702    94713    94730    94749    94770    94792    94817    94840 
   94857    94872    94884    94892    94898    94905    94909    94911 
   94906    94898    94896    94892    94887    94887    94884    94878 
   94873    94869    94865    94867    94871    94878    94886    94895 
   94906    94918    94929    94941    94953    94963    94975    94986 
   94992    94999    95008    95014    95013    95010    95006    94999 
   94992    94984    94975    94969    94964    94960    94964    94971 
   94977    94987    94999    95011    95022    95026    95027    95026 
   95022    95015    95010    95007    95000    94991    94979    94964 
   94953    94944    94933    94921    94909    94895    94880    94865 
   94857    94853    94849    94848    94851    94855    94859    94867 
   94875    94883    94896    94911    94922    94933    94946    94957 
   94968    94980    94991    94995    94996    94998    95000    95002 
   95002    95006    95008    95007    95013    95017    95017    95013 
   95006    94991    94979    94973    94969    94963    94957    94952 
   94953    94959    94960    94960    94964    94968    94967    94961 
   94954    94948    94938    94927    94918    94906    94895    94887 
   94878    94867    94860    94857    94855    94849    94849    94856 
   94863    94865    94873    94886    94894    94902    94907    94911 
   94917    94917    94915    94914    94910    94905    94902    94899 
   94895    94892    94895    94892    94884    94883    94883    94879 
   94879    94883    94886    94894    94909    94926    94948    94975 
   94995    95011    95025    95035    95041    95048    95052    95048 
   95042    95034    95021    95007    94990    94969    94950    94927 
   94906    94884    94865    94851    94833    94814    94798    94784 
   94772    94764    94757    94755    94753    94753    94759    94764 
   94774    94784    94792    94801    94807    94813    94819    94824 
   94828    94836    94845    94857    94871    94880    94892    94907 
   94918    94926    94932    94937    94938    94940    94942    94945 
   94945    94945    94946    94949    94954    94956    94959    94961 
   94964    94967    94973    94980    94984    94991    94999    95003 
   95004    95003    95004    95006    95004    94999    94987    94971 
   94952    94929    94905    94884    94860    94833    94809    94787 
   94763    94738    94714    94693    94675    94662    94649    94643 
   94641    94643    94647    94649    94657    94668    94679    94695 
   94713    94728    94741    94755    94770    94784    94798    94809 
   94821    94837    94851    94860    94876    94895    94907    94922 
   94941    94954    94965    94976    94981    94986    94988    94988 
   94988    94994    94996    94995    94995    94999    94999    94998 
   94998    94999    94999    95006    95014    95018    95022    95029 
   95031    95029    95022    95014    95007    94998    94991    94988 
   94990    94995    94999    95003    95006    95007    95004    95000 
   94994    94990    94987    94986    94984    94980    94976    94975 
   94971    94961    94954    94949    94944    94940    94941    94944 
   94948    94960    94971    94975    94980    94987    94990    94994 
   94998    94996    94995    94991    94981    94972    94963    94953 
   94944    94933    94919    94903    94888    94875    94863    94853 
   94846    94842    94838    94830    94821    94813    94805    94795 
   94792    94790    94786    94788    94795    94801    94809    94821 
   94832    94841    94855    94867    94876    94880    94884    94887 
   94886    94879    94875    94872    94867    94864    94864    94861 
   94855    94851    94851    94852    94853    94855    94859    94857 
   94855    94855    94853    94853    94855    94856    94856    94855 
   94852    94849    94848    94846    94846    94848    94851    94856 
   94863    94869    94878    94884    94890    94896    94900    94900 
   94900    94899    94894    94891    94890    94886    94883    94883 
   94883    94882    94880    94884    94887    94894    94906    94915 
   94927    94942    94950    94956    94964    94972    94984    94998 
   95007    95022    95041    95058    95073    95091    95104    95110 
   95111    95111    95112    95111    95108    95104    95100    95099 
   95098    95095    95094    95094    95098    95098    95095    95089 
   95083    95072    95062    95052    95038    95022    95008    94998 
   94986    94975    94971    94968    94964    94965    94972    94979 
   94983    94983    94980    94979    94972    94959    94948    94936 
   94917    94903    94894    94883    94878    94875    94871    94871 
   94875    94875    94872    94872    94867    94857    94849    94838 
   94826    94814    94802    94792    94783    94776    94770    94765 
   94761    94756    94749    94741    94733    94724    94716    94705 
   94697    94690    94678    94666    94662    94659    94653    94653 
   94659    94664    94671    94684    94699    94713    94728    94741 
   94753    94768    94784    94801    94817    94829    94838    94851 
   94860    94868    94878    94888    94895    94902    94913    94921 
   94926    94933    94938    94941    94945    94949    94954    94959 
   94959    94957    94959    94961    94965    94968    94971    94975 
   94977    94979    94977    94975    94971    94967    94963    94959 
   94957    94956    94953    94952    94948    94946    94945    94945 
   94946    94950    94957    94965    94971    94972    94971    94968 
   94961    94950    94941    94933    94922    94910    94902    94895 
   94888    94887    94892    94899    94909    94917    94927    94940 
   94946    94949    94956    94959    94953    94948    94940    94932 
   94921    94906    94894    94886    94876    94867    94856    94848 
   94844    94836    94825    94821    94815    94814    94817    94821 
   94830    94845    94859    94872    94890    94903    94918    94937 
   94956    94971    94987    95000    95010    95023    95034    95041 
   95048    95057    95062    95069    95079    95087    95096    95108 
   95119    95125    95131    95131    95127    95125    95119    95112 
   95106    95099    95089    95080    95068    95053    95041    95030 
   95018    95004    94994    94986    94973    94965    94961    94956 
   94950    94946    94942    94945    94948    94949    94957    94964 
   94965    94973    94983    94988    94994    95003    95011    95018 
   95026    95034    95041    95050    95060    95072    95084    95095 
   95106    95115    95119    95119    95118    95112    95104    95098 
   95088    95075    95060    95046    95027    95003    94981    94960 
   94933    94910    94892    94873    94849    94826    94802    94778 
   94751    94729    94713    94699    94684    94675    94671    94662 
   94651    94643    94636    94633    94629    94628    94629    94625 
   94624    94628    94629    94630    94635    94641    94649    94656 
   94659    94663    94671    94679    94686    94693    94703    94717 
   94734    94752    94768    94788    94807    94824    94838    94851 
   94864    94882    94894    94900    94910    94917    94915    94913 
   94914    94915    94917    94911    94903    94895    94886    94871 
   94859    94855    94849    94842    94841    94842    94848    94853 
   94859    94867    94871    94871    94873    94878    94879    94879 
   94883    94884    94888    94896    94903    94911    94919    94929 
   94937    94944    94949    94952    94954    94957    94957    94956 
   94956    94956    94948    94940    94934    94929    94923    94918 
   94917    94910    94903    94902    94902    94898    94899    94903 
   94902    94902    94903    94905    94910    94918    94927    94944 
   94954    94965    94980    94995    95007    95022    95037    95052 
   95065    95080    95096    95108    95118    95129    95134    95134 
   95135    95135    95130    95122    95110    95100    95092    95081 
   95072    95065    95057    95045    95035    95027    95017    95004 
   94994    94980    94968    94956    94942    94930    94918    94905 
   94890    94875    94861    94852    94844    94833    94819    94807 
   94794    94782    94776    94771    94764    94761    94763    94768 
   94776    94787    94798    94815    94834    94849    94863    94878 
   94891    94902    94911    94919    94926    94933    94938    94944 
   94946    94950    94956    94960    94964    94965    94963    94956 
   94948    94938    94927    94917    94906    94892    94880    94868 
   94860    94856    94853    94848    94842    94841    94841    94840 
   94838    94836    94830    94826    94822    94819    94819    94817 
   94814    94817    94819    94818    94822    94829    94834    94840 
   94846    94856    94863    94867    94873    94880    94886    94896 
   94906    94914    94927    94940    94950    94963    94975    94987 
   94994    94996    94998    95000    94998    94994    94991    94987 
   94977    94967    94957    94949    94937    94923    94911    94902 
   94892    94884    94876    94868    94860    94853    94851    94848 
   94845    94841    94838    94834    94829    94825    94822    94819 
   94817    94814    94810    94803    94801    94798    94795    94795 
   94795    94795    94805    94813    94822    94834    94846    94857 
   94868    94880    94891    94900    94913    94925    94938    94954 
   94973    94988    95006    95027    95045    95061    95079    95095 
   95108    95115    95118    95121    95119    95111    95100    95089 
   95076    95060    95040    95018    95002    94990    94975    94960 
   94948    94940    94930    94923    94921    94917    94907    94903 
   94902    94899    94895    94892    94891    94891    94888    94888 
   94887    94886    94886    94886    94883    94884    94884    94886 
   94887    94888    94888    94888    94886    94886    94888    94891 
   94892    94898    94905    94907    94915    94926    94930    94932 
   94940    94945    94945    94948    94952    94953    94959    94963 
   94965    94968    94967    94968    94969    94968    94965    94967 
   94967    94965    94964    94965    94968    94964    94956    94950 
   94950    94948    94945    94945    94950    94953    94949    94950 
   94957    94959    94960    94965    94967    94964    94961    94963 
   94964    94965    94964    94960    94956    94946    94936    94923 
   94910    94896    94884    94869    94856    94848    94837    94822 
   94811    94802    94792    94779    94767    94759    94748    94736 
   94728    94721    94707    94694    94689    94689    94686    94684 
   94691    94702    94711    94722    94737    94753    94765    94779 
   94797    94807    94819    94836    94849    94859    94869    94880 
   94890    94899    94907    94914    94922    94932    94942    94953 
   94968    94986    95000    95018    95037    95049    95062    95080 
   95091    95100    95112    95119    95123    95129    95134    95131 
   95127    95125    95121    95111    95104    95098    95087    95073 
   95062    95049    95033    95018    95002    94983    94963    94944 
   94927    94913    94896    94880    94864    94848    94833    94821 
   94811    94802    94795    94788    94780    94771    94763    94756 
   94755    94756    94759    94765    94778    94787    94797    94813 
   94826    94837    94853    94867    94875    94880    94887    94887 
   94886    94880    94871    94864    94856    94844    94834    94826 
   94814    94805    94795    94787    94784    94782    94779    94782 
   94784    94788    94797    94803    94811    94825    94838    94849 
   94868    94890    94907    94926    94949    94975    94995    95014 
   95031    95046    95062    95077    95087    95095    95104    95111 
   95112    95115    95119    95118    95118    95118    95118    95118 
   95115    95112    95110    95110    95108    95099    95091    95084 
   95072    95054    95041    95027    95011    94995    94984    94975 
   94961    94946    94934    94922    94909    94895    94880    94865 
   94849    94837    94824    94802    94786    94772    94753    94736 
   94720    94703    94693    94684    94676    94672    94672    94671 
   94672    94679    94684    94687    94698    94716    94730    94748 
   94765    94783    94801    94819    94834    94851    94868    94880 
   94890    94899    94905    94909    94917    94922    94922    94926 
   94933    94930    94923    94921    94919    94915    94913    94911 
   94909    94907    94907    94909    94911    94915    94919    94923 
   94929    94934    94937    94941    94942    94942    94942    94946 
   94949    94948    94948    94945    94944    94941    94937    94933 
   94930    94926    94925    94922    94918    94915    94915    94914 
   94917    94918    94922    94933    94948    94960    94976    94995 
   95011    95031    95050    95065    95080    95091    95099    95104 
   95110    95114    95119    95121    95118    95119    95118    95114 
   95112    95111    95104    95096    95091    95083    95073    95065 
   95054    95044    95030    95015    95002    94987    94972    94954 
   94937    94922    94910    94895    94880    94869    94856    94840 
   94825    94807    94790    94768    94744    94724    94705    94684 
   94670    94655    94637    94628    94624    94617    94613    94610 
   94606    94605    94605    94608    94609    94609    94614    94622 
   94629    94641    94652    94664    94679    94694    94709    94729 
   94748    94768    94791    94817    94838    94863    94887    94910 
   94930    94950    94971    94990    95010    95027    95045    95065 
   95081    95098    95118    95134    95149    95164    95175    95185 
   95192    95197    95204    95210    95210    95208    95208    95207 
   95199    95188    95173    95158    95143    95127    95111    95098 
   95079    95057    95041    95029    95015    95000    94988    94977 
   94965    94954    94942    94932    94919    94907    94898    94887 
   94876    94864    94851    94841    94832    94821    94810    94802 
   94797    94788    94784    94783    94780    94779    94784    94787 
   94790    94797    94801    94803    94809    94815    94821    94825 
   94833    94841    94848    94856    94867    94875    94882    94884 
   94888    94896    94903    94905    94907    94909    94907    94906 
   94902    94899    94898    94894    94892    94892    94888    94888 
   94888    94887    94890    94892    94895    94894    94896    94900 
   94900    94903    94911    94918    94925    94933    94940    94948 
   94957    94968    94975    94980    94986    94987    94990    94994 
   94999    94998    94994    94994    94996    94994    94988    94986 
   94987    94983    94976    94976    94973    94965    94959    94956 
   94949    94938    94929    94921    94909    94898    94888    94878 
   94868    94863    94855    94851    94853    94853    94852    94853 
   94856    94860    94867    94875    94882    94890    94892    94894 
   94900    94903    94900    94902    94900    94899    94902    94903 
   94907    94914    94917    94917    94918    94919    94921    94919 
   94917    94918    94918    94911    94902    94896    94891    94883 
   94875    94869    94860    94846    94834    94825    94815    94805 
   94794    94788    94784    94778    94771    94768    94770    94768 
   94765    94767    94772    94775    94778    94782    94784    94790 
   94797    94801    94807    94813    94818    94828    94837    94848 
   94864    94876    94887    94900    94915    94929    94942    94954 
   94967    94983    94995    95004    95013    95021    95027    95030 
   95029    95029    95027    95026    95021    95013    95004    94996 
   94987    94980    94973    94964    94954    94948    94940    94927 
   94914    94902    94891    94883    94875    94867    94861    94855 
   94845    94840    94841    94842    94842    94845    94846    94848 
   94855    94860    94867    94875    94884    94895    94905    94913 
   94925    94940    94949    94957    94972    94987    94996    95004 
   95013    95023    95034    95040    95044    95049    95050    95054 
   95058    95061    95068    95073    95076    95083    95087    95091 
   95092    95092    95091    95087    95079    95073    95064    95054 
   95045    95038    95027    95014    95002    94988    94971    94954 
   94940    94921    94899    94882    94865    94848    94832    94817 
   94802    94788    94779    94768    94761    94755    94747    94744 
   94740    94734    94736    94736    94734    94737    94740    94741 
   94747    94748    94748    94752    94760    94764    94768    94771 
   94774    94779    94783    94786    94790    94795    94803    94811 
   94818    94824    94829    94836    94842    94851    94861    94871 
   94879    94888    94899    94909    94918    94926    94932    94937 
   94944    94948    94948    94948    94946    94941    94934    94929 
   94923    94917    94907    94900    94894    94887    94879    94872 
   94868    94863    94857    94853    94849    94846    94848    94849 
   94849    94852    94856    94860    94864    94869    94878    94886 
   94890    94898    94910    94918    94925    94934    94941    94946 
   94954    94959    94967    94973    94979    94990    95003    95014 
   95027    95040    95052    95065    95079    95088    95102    95115 
   95125    95130    95133    95137    95141    95138    95139    95141 
   95138    95134    95131    95125    95114    95102    95088    95073 
   95060    95044    95027    95008    94990    94971    94953    94937 
   94919    94902    94888    94875    94863    94851    94840    94828 
   94817    94809    94797    94786    94780    94775    94767    94760 
   94755    94751    94747    94743    94741    94741    94743    94747 
   94751    94753    94759    94768    94775    94776    94783    94792 
   94799    94806    94817    94825    94830    94836    94840    94844 
   94845    94848    94851    94856    94860    94863    94872    94886 
   94895    94905    94914    94921    94929    94940    94949    94957 
   94967    94975    94981    94990    94996    95000    95004    95008 
   95011    95008    95008    95007    95002    94998    94996    94991 
   94988    94987    94983    94983    94987    94987    94987    94990 
   94995    94999    95000    95006    95015    95022    95023    95027 
   95034    95035    95037    95041    95046    95050    95054    95060 
   95064    95062    95062    95064    95068    95069    95067    95065 
   95061    95053    95046    95044    95034    95022    95010    94996 
   94980    94965    94953    94940    94925    94914    94903    94892 
   94884    94875    94864    94856    94851    94845    94838    94829 
   94825    94821    94814    94810    94803    94791    94783    94776 
   94765    94755    94745    94734    94725    94716    94707    94702 
   94702    94701    94695    94695    94698    94699    94705    94713 
   94718    94728    94741    94751    94763    94775    94786    94799 
   94811    94821    94829    94837    94852    94863    94868    94879 
   94892    94902    94913    94923    94932    94938    94942    94948 
