Origin Time       2025/06/03 22:18:00
Lat.              41.7
Long.             143.6
Depth. (km)       30
Mag.              5.2
Station Code      ABSH06
Station Lat.      44.2146
Station Long.     143.6202
Station Height(m) -93
Record Time       2025/06/03 22:19:48
Sampling Freq(Hz) 100Hz
Duration Time(s)  120
Dir.              1
Scale Factor      2940(gal)/6170270
Max. Acc. (gal)   0.120
Last Correction   2025/06/03 22:19:33
Memo.             
[...]
  232476   232491   232500   232504   232496   232482   232479   232482 
  232485   232494   232508   232522   232530   232532   232533   232530 
  232524   232520   232523   232531   232535   232536   232530   232508 
  232478   232450   232422   232405   232407   232417   232423   232430 
  232439   232443   232442   232431   232410   232388   232364   232339 
  232329   232325   232322   232328   232341   232355   232367   232368 
  232361   232351   232334   232314   232295   232284   232290   232301 
  232315   232332   232348   232354   232354   232349   232334   232315 
  232304   232304   232318   232343   232367   232387   232398   232393 
  232380   232364   232347   232337   232339   232350   232366   232377 
  232382   232384   232384   232383   232386   232391   232395   232396 
  232396   232398   232400   232401   232405   232408   232418   232438 
  232455   232467   232486   232504   232506   232503   232499   232492 
  232489   232492   232504   232516   232523   232524   232523   232517 
  232508   232497   232490   232478   232464   232454   232440   232428 
  232428   232436   232446   232456   232464   232465   232455   232440 
  232423   232409   232405   232406   232405   232403   232403   232398 
  232387   232380   232372   232362   232355   232353   232352   232355 
  232368   232389   232405   232418   232422   232413   232406   232397 
  232382   232372   232365   232353   232339   232323   232306   232291 
  232279   232275   232278   232282   232293   232313   232334   232348 
  232363   232383   232392   232396   232399   232400   232405   232417 
  232433   232449   232463   232479   232487   232487   232491   232495 
  232500   232506   232513   232522   232532   232533   232525   232513 
  232501   232486   232470   232462   232464   232470   232471   232462 
  232452   232443   232431   232423   232423   232426   232423   232417 
  232412   232404   232400   232403   232409   232418   232430   232439 
  232443   232440   232434   232437   232444   232453   232470   232492 
  232505   232508   232510   232499   232474   232451   232435   232425 
  232416   232405   232397   232393   232389   232386   232380   232374 
  232374   232379   232385   232394   232397   232395   232389   232374 
  232358   232348   232338   232331   232334   232340   232339   232333 
  232329   232323   232317   232318   232323   232325   232328   232329 
  232323   232312   232299   232288   232288   232296   232303   232313 
  232321   232323   232317   232300   232290   232294   232302   232324 
  232359   232390   232421   232450   232465   232469   232468   232456 
  232445   232446   232456   232478   232507   232531   232546   232550 
  232543   232523   232491   232458   232429   232409   232408   232419 
  232436   232453   232468   232479   232487   232489   232485   232475 
  232458   232434   232411   232392   232371   232354   232345   232343 
  232348   232360   232374   232387   232394   232398   232400   232397 
  232392   232390   232391   232394   232403   232415   232429   232437 
  232430   232416   232413   232418   232427   232444   232461   232468 
  232464   232446   232418   232390   232366   232346   232335   232333 
  232333   232332   232330   232331   232333   232335   232341   232353 
  232367   232380   232391   232399   232403   232403   232397   232392 
  232393   232393   232387   232380   232371   232365   232366   232373 
  232379   232389   232411   232441   232471   232498   232511   232513 
  232508   232489   232461   232439   232426   232422   232426   232436 
  232444   232450   232452   232449   232446   232444   232442   232442 
  232445   232451   232458   232461   232454   232439   232420   232396 
  232375   232359   232351   232352   232358   232362   232363   232361 
  232361   232373   232384   232387   232394   232402   232397   232387 
  232377   232366   232360   232360   232365   232374   232392   232418 
  232441   232461   232480   232493   232499   232499   232492   232476 
  232448   232420   232399   232385   232375   232376   232387   232401 
  232410   232412   232409   232408   232407   232404   232407   232416 
  232428   232441   232448   232448   232451   232452   232443   232433 
  232430   232420   232409   232413   232419   232428   232439   232438 
  232438   232442   232439   232430   232425   232415   232400   232393 
  232388   232384   232388   232390   232398   232412   232420   232423 
  232424   232419   232410   232407   232407   232408   232414   232428 
  232443   232457   232464   232466   232468   232459   232445   232435 
  232412   232379   232354   232339   232331   232333   232348   232371 
  232394   232412   232428   232441   232446   232450   232453   232453 
  232455   232459   232460   232465   232473   232472   232462   232446 
  232422   232393   232372   232361   232356   232362   232378   232393 
  232406   232415   232415   232406   232402   232405   232410   232420 
  232437   232451   232459   232464   232467   232464   232458   232457 
  232457   232450   232441   232431   232409   232387   232378   232376 
  232379   232386   232398   232413   232416   232407   232395   232376 
  232360   232355   232356   232358   232368   232381   232393   232403 
  232413   232425   232436   232439   232441   232444   232441   232434 
  232425   232420   232422   232428   232432   232440   232451   232457 
  232457   232454   232446   232435   232418   232400   232382   232365 
  232355   232355   232365   232383   232403   232419   232428   232430 
  232429   232430   232431   232434   232441   232447   232450   232452 
  232454   232456   232458   232455   232450   232444   232435   232419 
  232400   232385   232372   232363   232358   232356   232360   232368 
  232377   232384   232387   232389   232393   232394   232390   232385 
  232379   232374   232369   232362   232354   232352   232353   232356 
  232360   232365   232376   232393   232412   232427   232438   232443 
  232441   232426   232408   232395   232385   232380   232378   232380 
  232388   232402   232421   232438   232451   232463   232467   232464 
  232467   232469   232461   232453   232443   232434   232433   232431 
  232430   232441   232457   232468   232475   232473   232465   232459 
  232460   232464   232469   232480   232494   232506   232515   232525 
  232529   232521   232508   232488   232464   232438   232408   232382 
  232363   232349   232337   232327   232319   232308   232293   232282 
  232277   232270   232258   232248   232237   232226   232222   232223 
  232224   232233   232253   232277   232306   232339   232371   232392 
  232402   232408   232406   232399   232393   232388   232386   232390 
  232397   232410   232429   232454   232484   232511   232533   232552 
  232562   232564   232562   232557   232548   232540   232539   232536 
  232529   232524   232519   232515   232514   232515   232518   232525 
  232537   232546   232554   232565   232570   232567   232554   232535 
  232519   232500   232475   232455   232436   232419   232405   232395 
  232387   232382   232382   232387   232391   232393   232393   232390 
  232390   232388   232382   232372   232362   232355   232347   232340 
  232340   232337   232332   232332   232329   232319   232317   232322 
  232327   232337   232347   232349   232352   232354   232349   232343 
  232342   232343   232348   232359   232368   232367   232364   232365 
  232366   232367   232374   232387   232397   232409   232428   232444 
  232455   232463   232463   232457   232450   232442   232437   232433 
  232432   232434   232432   232430   232427   232420   232419   232426 
  232433   232441   232451   232457   232462   232471   232477   232478 
  232478   232483   232483   232475   232468   232463   232456   232444 
  232428   232413   232404   232397   232393   232397   232399   232399 
  232399   232399   232398   232405   232421   232439   232459   232478 
  232493   232505   232507   232501   232496   232483   232460   232441 
  232425   232407   232393   232387   232384   232381   232376   232371 
  232367   232361   232353   232349   232349   232347   232349   232354 
  232360   232370   232381   232393   232408   232425   232442   232453 
  232452   232447   232443   232433   232416   232402   232393   232383 
  232374   232366   232355   232345   232338   232330   232326   232329 
  232339   232351   232362   232367   232365   232352   232332   232312 
  232298   232293   232301   232312   232323   232333   232338   232339 
  232341   232338   232338   232345   232357   232378   232404   232426 
  232447   232463   232469   232468   232465   232464   232460   232454 
  232450   232446   232436   232424   232410   232397   232389   232391 
  232400   232412   232429   232448   232467   232487   232505   232520 
  232533   232540   232544   232548   232549   232543   232537   232526 
  232515   232511   232506   232504   232505   232504   232503   232505 
  232505   232508   232512   232508   232498   232489   232473   232450 
  232432   232421   232410   232397   232385   232375   232369   232363 
  232357   232350   232343   232341   232336   232332   232329   232327 
  232333   232338   232339   232348   232361   232365   232366   232374 
  232388   232406   232426   232445   232463   232480   232484   232477 
  232469   232458   232443   232438   232435   232427   232427   232436 
  232435   232431   232431   232437   232441   232436   232439   232453 
  232455   232454   232454   232443   232427   232407   232383   232366 
  232353   232338   232324   232312   232299   232287   232277   232274 
  232273   232275   232279   232284   232296   232309   232319   232332 
  232348   232364   232376   232386   232399   232411   232421   232428 
  232425   232417   232411   232405   232404   232403   232397   232389 
  232381   232375   232371   232364   232353   232345   232342   232340 
  232343   232348   232357   232371   232384   232395   232409   232421 
  232429   232437   232445   232448   232450   232456   232465   232470 
  232473   232477   232479   232477   232477   232478   232473   232469 
  232467   232466   232469   232472   232476   232476   232472   232472 
  232476   232474   232470   232465   232454   232438   232425   232420 
  232414   232408   232403   232400   232397   232394   232395   232403 
  232407   232409   232415   232418   232418   232417   232412   232405 
  232400   232396   232394   232401   232414   232426   232435   232444 
  232450   232451   232449   232445   232435   232422   232410   232390 
  232373   232365   232356   232346   232345   232344   232342   232348 
  232357   232362   232371   232379   232378   232371   232360   232348 
  232334   232324   232328   232336   232344   232359   232374   232384 
  232397   232404   232407   232416   232426   232438   232455   232472 
  232494   232513   232515   232508   232498   232478   232454   232435 
  232413   232392   232381   232374   232366   232362   232364   232373 
  232387   232406   232424   232442   232460   232476   232491   232499 
  232502   232512   232525   232535   232549   232564   232574   232582 
  232589   232592   232595   232593   232585   232577   232565   232546 
  232528   232509   232486   232458   232429   232407   232386   232365 
  232352   232340   232325   232316   232309   232305   232305   232300 
  232293   232292   232289   232285   232287   232287   232283   232283 
  232287   232292   232296   232299   232299   232298   232299   232299 
  232295   232288   232280   232275   232272   232264   232253   232246 
  232241   232235   232236   232243   232246   232251   232258   232256 
  232252   232252   232246   232244   232250   232259   232276   232298 
  232318   232334   232349   232369   232394   232413   232431   232455 
  232480   232505   232528   232543   232556   232574   232591   232606 
  232619   232629   232637   232639   232633   232624   232614   232607 
  232601   232595   232593   232590   232585   232581   232577   232571 
  232567   232567   232566   232556   232550   232550   232544   232536 
  232533   232529   232526   232528   232530   232535   232540   232538 
  232535   232533   232523   232513   232508   232506   232508   232509 
  232508   232508   232499   232479   232455   232425   232392   232362 
  232339   232325   232321   232318   232315   232316   232313   232303 
  232292   232282   232272   232259   232247   232239   232226   232211 
  232203   232199   232198   232202   232206   232214   232228   232243 
  232254   232260   232267   232278   232290   232296   232298   232301 
  232305   232311   232321   232334   232348   232363   232378   232387 
  232395   232404   232409   232409   232412   232418   232420   232415 
  232412   232411   232408   232409   232416   232423   232428   232434 
  232443   232451   232461   232476   232488   232491   232493   232498 
  232502   232504   232506   232505   232507   232517   232524   232522 
  232516   232513   232507   232495   232479   232466   232455   232439 
  232425   232415   232403   232388   232370   232350   232331   232317 
  232302   232289   232280   232272   232262   232257   232257   232252 
  232244   232238   232228   232221   232225   232229   232237   232260 
  232279   232298   232327   232352   232373   232391   232398   232404 
  232417   232426   232435   232453   232469   232486   232502   232513 
  232522   232528   232523   232517   232517   232517   232517   232521 
  232527   232531   232537   232545   232555   232563   232571   232585 
  232600   232613   232626   232633   232639   232649   232659   232662 
  232660   232655   232652   232645   232631   232617   232609   232598 
  232589   232584   232576   232563   232552   232545   232535   232520 
  232503   232490   232477   232460   232442   232428   232410   232384 
  232364   232346   232329   232323   232319   232314   232316   232319 
  232316   232315   232314   232311   232311   232304   232289   232279 
  232274   232267   232258   232256   232256   232256   232259   232262 
  232264   232264   232261   232258   232260   232265   232272   232280 
  232289   232297   232305   232313   232320   232326   232332   232330 
  232325   232320   232313   232307   232304   232299   232296   232298 
  232306   232316   232326   232335   232340   232343   232348   232353 
  232354   232354   232352   232357   232367   232370   232374   232383 
  232385   232386   232393   232396   232391   232385   232383   232387 
  232393   232396   232400   232410   232422   232429   232437   232442 
  232443   232446   232450   232456   232470   232487   232505   232527 
  232547   232564   232573   232572   232573   232572   232565   232560 
  232551   232536   232520   232501   232484   232468   232447   232424 
  232403   232380   232358   232343   232326   232309   232300   232296 
  232291   232292   232302   232308   232311   232317   232319   232316 
  232320   232325   232325   232325   232328   232333   232343   232356 
  232364   232370   232378   232384   232384   232385   232392   232398 
  232404   232416   232428   232439   232452   232463   232472   232481 
  232489   232495   232501   232508   232509   232504   232501   232500 
  232493   232483   232475   232466   232459   232457   232455   232454 
  232458   232460   232461   232461   232455   232447   232439   232430 
  232424   232423   232429   232436   232444   232459   232477   232493 
  232510   232522   232531   232539   232539   232535   232530   232523 
  232515   232505   232494   232482   232473   232469   232464   232457 
  232455   232453   232449   232446   232444   232440   232433   232428 
  232419   232406   232399   232394   232389   232380   232374   232372 
  232365   232356   232349   232341   232335   232336   232341   232346 
  232349   232355   232362   232361   232355   232347   232337   232326 
  232318   232312   232307   232309   232317   232325   232332   232339 
  232343   232347   232346   232343   232341   232339   232334   232327 
  232319   232311   232302   232293   232284   232276   232277   232283 
  232287   232301   232318   232329   232339   232349   232354   232357 
  232359   232360   232363   232365   232362   232364   232368   232371 
  232376   232386   232396   232409   232419   232426   232431   232438 
  232450   232457   232463   232479   232492   232498   232505   232512 
  232518   232524   232530   232538   232538   232534   232536   232536 
  232529   232523   232520   232516   232508   232502   232499   232495 
  232490   232491   232494   232496   232502   232504   232502   232502 
  232501   232494   232490   232485   232479   232475   232470   232463 
  232458   232457   232453   232444   232438   232431   232427   232428 
  232425   232416   232413   232410   232402   232404   232407   232399 
  232399   232406   232400   232394   232395   232392   232384   232381 
  232383   232390   232401   232412   232421   232434   232446   232450 
  232451   232452   232452   232447   232440   232432   232423   232419 
  232418   232415   232415   232413   232406   232403   232399   232386 
  232374   232369   232361   232352   232347   232344   232337   232329 
  232321   232312   232298   232287   232281   232273   232264   232253 
  232241   232233   232224   232215   232209   232208   232207   232205 
  232202   232202   232207   232212   232218   232230   232238   232240 
  232253   232272   232288   232309   232336   232362   232387   232411 
  232433   232453   232465   232476   232489   232499   232507   232518 
  232527   232534   232543   232550   232554   232557   232556   232551 
  232544   232538   232530   232520   232513   232507   232502   232499 
  232490   232482   232481   232476   232467   232458   232450   232442 
  232434   232421   232407   232396   232387   232378   232369   232361 
  232358   232356   232353   232353   232355   232358   232362   232366 
  232370   232375   232385   232394   232403   232414   232427   232441 
  232450   232455   232464   232472   232473   232472   232470   232463 
  232456   232454   232452   232447   232439   232431   232426   232418 
  232408   232405   232405   232402   232403   232410   232412   232413 
  232416   232419   232420   232421   232423   232430   232443   232460 
  232477   232492   232505   232519   232525   232526   232532   232533 
  232527   232527   232527   232528   232531   232535   232547   232559 
  232570   232583   232590   232596   232605   232604   232596   232589 
  232574   232557   232546   232532   232516   232503   232481   232456 
  232441   232426   232408   232391   232370   232347   232325   232304 
  232282   232258   232240   232226   232215   232209   232206   232206 
  232209   232215   232222   232232   232244   232253   232262   232278 
  232293   232296   232298   232308   232319   232322   232326   232336 
  232346   232352   232356   232356   232353   232349   232341   232333 
  232335   232344   232351   232358   232373   232389   232398   232406 
  232419   232429   232434   232441   232450   232454   232455   232459 
  232465   232472   232481   232492   232500   232504   232507   232508 
  232508   232501   232494   232489   232485   232481   232474   232469 
  232472   232475   232475   232478   232483   232489   232492   232492 
  232492   232495   232492   232483   232474   232460   232439   232420 
  232403   232386   232378   232368   232351   232336   232322   232306 
