Origin Time       2025/06/03 22:18:00
Lat.              41.7
Long.             143.6
Depth. (km)       30
Mag.              5.2
Station Code      ABSH07
Station Lat.      43.8494
Station Long.     143.0861
Station Height(m) 699
Record Time       2025/06/03 22:19:46
Sampling Freq(Hz) 100Hz
Duration Time(s)  120
Dir.              5
Scale Factor      7845(gal)/8223790
Max. Acc. (gal)   0.620
Last Correction   2025/06/03 22:19:47
Memo.             
  -15030   -15013   -15012   -15029   -15078   -15144   -15198   -15229 
  -15230   -15202   -15152   -15106   -15084   -15083   -15106   -15151 
  -15201   -15245   -15269   -15263   -15230   -15183   -15133   -15090 
  -15066   -15068   -15095   -15137   -15176   -15206   -15222   -15226 
  -15223   -15222   -15219   -15206   -15175   -15136   -15111   -15113 
  -15140   -15184   -15225   -15246   -15246   -15210   -15134   -15039 
  -14936   -14843   -14763   -14701   -14659   -14638   -14629   -14634 
  -14651   -14692   -14759   -14855   -14964   -15059   -15118   -15132 
  -15110   -15078   -15052   -15043   -15057   -15099   -15155   -15210 
  -15250   -15275   -15272   -15234   -15163   -15061   -14949   -14852 
  -14798   -14809   -14877   -14980   -15095   -15187   -15230   -15229 
  -15203   -15172   -15157   -15168   -15206   -15259   -15307   -15323 
  -15299   -15234   -15149   -15075   -15032   -15017   -15030   -15071 
  -15118   -15157   -15179   -15178   -15168   -15155   -15134   -15120 
  -15114   -15113   -15113   -15122   -15145   -15179   -15207   -15215 
  -15192   -15144   -15079   -15017   -14983   -14987   -15017   -15063 
  -15109   -15129   -15114   -15067   -14991   -14913   -14870   -14875 
  -14932   -15032   -15151   -15250   -15296   -15276   -15194   -15071 
  -14945   -14858   -14837   -14886   -14985   -15097   -15179   -15211 
  -15195   -15142   -15075   -15016   -14985   -14990   -15021   -15059 
  -15083   -15084   -15061   -15021   -14976   -14941   -14922   -14931 
  -14974   -15049   -15138   -15223   -15286   -15314   -15314   -15295 
  -15253   -15201   -15152   -15118   -15115   -15144   -15183   -15214 
  -15230   -15228   -15211   -15178   -15132   -15082   -15039   -14999 
  -14966   -14940   -14928   -14928   -14945   -14979   -15029   -15093 
  -15160   -15222   -15269   -15294   -15299   -15291   -15277   -15259 
  -15234   -15209   -15180   -15155   -15144   -15148   -15156   -15155 
  -15133   -15083   -15006   -14905   -14805   -14733   -14704   -14725 
  -14790   -14874   -14952   -15014   -15049   -15063   -15071   -15074 
  -15072   -15064   -15049   -15029   -15005   -14979   -14958   -14940 
  -14940   -14964   -15009   -15067   -15130   -15180   -15194   -15168 
  -15107   -15034   -14990   -14995   -15040   -15107   -15174   -15221 
  -15257   -15284   -15310   -15348   -15396   -15442   -15471   -15475 
  -15448   -15390   -15322   -15275   -15272   -15314   -15375   -15426 
  -15434   -15373   -15250   -15099   -14959   -14864   -14821   -14814 
  -14824   -14825   -14802   -14756   -14698   -14656   -14654   -14700 
  -14801   -14931   -15049   -15129   -15164   -15161   -15134   -15101 
  -15086   -15093   -15110   -15121   -15114   -15082   -15029   -14979 
  -14945   -14931   -14924   -14916   -14906   -14899   -14897   -14899 
  -14912   -14932   -14953   -14963   -14955   -14940   -14931   -14928 
  -14943   -14978   -15029   -15087   -15129   -15144   -15147   -15149 
  -15161   -15191   -15232   -15261   -15257   -15210   -15129   -15026 
  -14925   -14854   -14829   -14866   -14951   -15061   -15169   -15253 
  -15318   -15368   -15402   -15431   -15454   -15462   -15454   -15427 
  -15384   -15329   -15267   -15211   -15169   -15147   -15141   -15151 
  -15165   -15178   -15194   -15213   -15232   -15250   -15268   -15279 
  -15283   -15268   -15233   -15182   -15120   -15060   -15024   -15017 
  -15043   -15101   -15164   -15207   -15217   -15178   -15088   -14983 
  -14889   -14828   -14809   -14821   -14840   -14844   -14814   -14760 
  -14702   -14658   -14640   -14658   -14704   -14762   -14821   -14872 
  -14906   -14925   -14932   -14933   -14936   -14945   -14974   -15022 
  -15078   -15132   -15179   -15206   -15205   -15183   -15155   -15133 
  -15121   -15122   -15144   -15178   -15207   -15228   -15237   -15234 
  -15226   -15233   -15264   -15307   -15348   -15371   -15365   -15333 
  -15291   -15259   -15244   -15250   -15277   -15309   -15322   -15303 
  -15240   -15136   -15017   -14904   -14809   -14762   -14766   -14804 
  -14859   -14917   -14963   -14995   -15022   -15048   -15075   -15120 
  -15188   -15268   -15336   -15377   -15380   -15341   -15276   -15202 
  -15134   -15098   -15105   -15145   -15215   -15306   -15387   -15434 
  -15435   -15379   -15263   -15103   -14926   -14778   -14690   -14674 
  -14721   -14805   -14904   -15001   -15082   -15134   -15159   -15156 
  -15132   -15103   -15088   -15084   -15082   -15074   -15061   -15051 
  -15048   -15068   -15110   -15163   -15207   -15237   -15244   -15225 
  -15178   -15113   -15037   -14962   -14901   -14858   -14833   -14831 
  -14843   -14864   -14890   -14917   -14937   -14940   -14910   -14856 
  -14791   -14723   -14670   -14656   -14696   -14791   -14931   -15084 
  -15229   -15338   -15394   -15395   -15346   -15263   -15178   -15128 
  -15126   -15169   -15241   -15304   -15325   -15294   -15225   -15138 
  -15066   -15032   -15045   -15101   -15182   -15246   -15269   -15244 
  -15165   -15043   -14902   -14771   -14682   -14663   -14713   -14809 
  -14928   -15052   -15167   -15250   -15295   -15299   -15271   -15225 
  -15169   -15121   -15091   -15078   -15083   -15107   -15147   -15194 
  -15246   -15288   -15314   -15329   -15329   -15318   -15309   -15294 
  -15275   -15259   -15248   -15241   -15238   -15236   -15228   -15215 
  -15199   -15180   -15160   -15142   -15128   -15103   -15056   -14987 
  -14905   -14823   -14759   -14729   -14747   -14805   -14882   -14958 
  -15013   -15024   -14999   -14963   -14933   -14932   -14970   -15037 
  -15109   -15171   -15209   -15217   -15210   -15210   -15222   -15241 
  -15260   -15263   -15236   -15180   -15099   -15006   -14921   -14860 
  -14831   -14841   -14878   -14924   -14976   -15022   -15056   -15082 
  -15101   -15110   -15106   -15086   -15053   -15010   -14966   -14939 
  -14935   -14951   -14994   -15060   -15133   -15199   -15248   -15273 
  -15275   -15263   -15241   -15221   -15209   -15199   -15194   -15196 
  -15207   -15228   -15246   -15256   -15259   -15256   -15248   -15246 
  -15253   -15268   -15290   -15310   -15319   -15307   -15277   -15248 
  -15234   -15244   -15268   -15294   -15290   -15234   -15133   -15006 
  -14881   -14790   -14759   -14791   -14866   -14951   -15017   -15041 
  -15007   -14920   -14806   -14694   -14613   -14585   -14608   -14662 
  -14731   -14794   -14840   -14874   -14898   -14914   -14940   -14975 
  -15013   -15056   -15101   -15134   -15156   -15169   -15171   -15155 
  -15118   -15064   -15010   -14978   -14979   -15026   -15115   -15226 
  -15341   -15441   -15499   -15511   -15481   -15408   -15302   -15178 
  -15060   -14971   -14922   -14914   -14932   -14962   -15002   -15039 
  -15059   -15071   -15086   -15102   -15118   -15134   -15155   -15180 
  -15213   -15244   -15280   -15310   -15321   -15318   -15311   -15303 
  -15304   -15322   -15349   -15379   -15399   -15402   -15384   -15338 
  -15263   -15168   -15059   -14936   -14809   -14700   -14631   -14620 
  -14677   -14787   -14928   -15074   -15191   -15250   -15240   -15167 
  -15044   -14894   -14769   -14705   -14709   -14779   -14891   -14997 
  -15063   -15086   -15072   -15045   -15037   -15064   -15122   -15201 
  -15271   -15306   -15295   -15236   -15141   -15037   -14955   -14916 
  -14913   -14937   -14976   -15021   -15063   -15099   -15125   -15147 
  -15169   -15187   -15196   -15191   -15161   -15102   -15020   -14922 
  -14823   -14736   -14683   -14675   -14700   -14744   -14806   -14870 
  -14917   -14956   -15001   -15063   -15153   -15268   -15383   -15468 
  -15488   -15441   -15344   -15215   -15098   -15032   -15033   -15106 
  -15237   -15390   -15541   -15662   -15731   -15738   -15682   -15580 
  -15456   -15323   -15198   -15090   -14994   -14906   -14829   -14760 
  -14702   -14662   -14643   -14655   -14690   -14740   -14802   -14874 
  -14944   -15007   -15057   -15084   -15087   -15067   -15028   -14987 
  -14955   -14939   -14951   -14979   -15013   -15052   -15093   -15132 
  -15174   -15217   -15253   -15279   -15284   -15264   -15218   -15152 
  -15084   -15037   -15013   -15016   -15039   -15064   -15079   -15083 
  -15076   -15063   -15055   -15059   -15079   -15110   -15141   -15165 
  -15183   -15198   -15210   -15217   -15215   -15198   -15164   -15122 
  -15088   -15064   -15052   -15063   -15091   -15132   -15172   -15202 
  -15209   -15186   -15142   -15095   -15055   -15033   -15034   -15059 
  -15099   -15147   -15192   -15236   -15275   -15311   -15348   -15385 
  -15411   -15412   -15385   -15336   -15267   -15186   -15109   -15044 
  -14990   -14948   -14921   -14910   -14910   -14921   -14944   -14963 
  -14970   -14966   -14949   -14920   -14890   -14871   -14860   -14868 
  -14893   -14926   -14970   -15013   -15051   -15088   -15125   -15151 
  -15159   -15133   -15071   -14987   -14901   -14839   -14829   -14881 
  -14979   -15099   -15210   -15282   -15306   -15294   -15267   -15242 
  -15233   -15248   -15282   -15318   -15334   -15317   -15264   -15180 
  -15086   -15001   -14945   -14925   -14928   -14945   -14975   -15003 
  -15025   -15037   -15036   -15018   -14982   -14935   -14894   -14875 
  -14882   -14913   -14970   -15041   -15115   -15182   -15230   -15261 
  -15276   -15276   -15272   -15275   -15294   -15325   -15357   -15376 
  -15372   -15341   -15287   -15222   -15156   -15097   -15049   -15002 
  -14941   -14870   -14787   -14692   -14594   -14517   -14465   -14443 
  -14467   -14526   -14600   -14686   -14775   -14856   -14925   -14974 
  -15007   -15041   -15080   -15138   -15218   -15315   -15417   -15508 
  -15579   -15614   -15608   -15569   -15516   -15462   -15419   -15394 
  -15379   -15367   -15346   -15298   -15214   -15106   -14995   -14906 
  -14859   -14863   -14916   -14999   -15082   -15142   -15174   -15169 
  -15140   -15109   -15097   -15107   -15134   -15167   -15196   -15219 
  -15225   -15210   -15180   -15149   -15126   -15113   -15109   -15111 
  -15114   -15109   -15097   -15076   -15044   -14990   -14920   -14841 
  -14771   -14725   -14709   -14717   -14746   -14781   -14809   -14823 
  -14821   -14805   -14785   -14771   -14777   -14808   -14866   -14943 
  -15022   -15090   -15137   -15161   -15171   -15171   -15175   -15192 
  -15223   -15268   -15329   -15394   -15456   -15518   -15570   -15607 
  -15626   -15620   -15596   -15558   -15512   -15468   -15427   -15387 
  -15338   -15277   -15205   -15122   -15037   -14970   -14925   -14901 
  -14889   -14878   -14866   -14845   -14809   -14766   -14735   -14724 
  -14737   -14778   -14843   -14916   -14983   -15034   -15076   -15117 
  -15159   -15213   -15284   -15358   -15414   -15430   -15399   -15325 
  -15221   -15101   -14979   -14875   -14789   -14721   -14679   -14665 
  -14678   -14716   -14773   -14841   -14914   -14990   -15064   -15137 
  -15207   -15268   -15303   -15311   -15288   -15237   -15168   -15098 
  -15043   -15005   -14986   -14980   -14979   -14974   -14956   -14928 
  -14901   -14891   -14905   -14945   -15009   -15080   -15148   -15210 
  -15257   -15279   -15283   -15273   -15253   -15229   -15205   -15183 
  -15172   -15167   -15159   -15149   -15140   -15137   -15149   -15183 
  -15233   -15292   -15337   -15353   -15338   -15294   -15226   -15151 
  -15067   -14985   -14909   -14852   -14820   -14808   -14825   -14870 
  -14936   -15013   -15082   -15134   -15169   -15188   -15198   -15211 
  -15229   -15252   -15277   -15296   -15295   -15275   -15238   -15199 
  -15172   -15164   -15178   -15205   -15234   -15257   -15261   -15256 
  -15252   -15256   -15264   -15275   -15283   -15276   -15238   -15175 
  -15087   -14980   -14871   -14773   -14696   -14652   -14646   -14662 
  -14692   -14727   -14754   -14770   -14775   -14769   -14758   -14750 
  -14756   -14779   -14806   -14831   -14859   -14893   -14928   -14966 
  -15016   -15078   -15137   -15190   -15241   -15286   -15322   -15360 
  -15390   -15396   -15375   -15331   -15272   -15201   -15133   -15086 
  -15059   -15047   -15047   -15057   -15079   -15105   -15125   -15138 
  -15145   -15145   -15148   -15156   -15169   -15182   -15184   -15176 
  -15164   -15155   -15155   -15168   -15196   -15228   -15250   -15259 
  -15248   -15205   -15130   -15041   -14945   -14859   -14800   -14781 
  -14804   -14860   -14943   -15036   -15114   -15161   -15171   -15148 
  -15107   -15064   -15043   -15052   -15091   -15155   -15226   -15291 
  -15336   -15354   -15356   -15349   -15341   -15331   -15318   -15294 
  -15255   -15188   -15091   -14971   -14845   -14733   -14650   -14613 
  -14627   -14683   -14773   -14868   -14951   -15016   -15056   -15075 
  -15084   -15095   -15111   -15132   -15145   -15151   -15152   -15148 
  -15144   -15151   -15171   -15206   -15253   -15302   -15344   -15363 
  -15354   -15315   -15249   -15163   -15076   -15009   -14978   -14982 
  -15009   -15044   -15071   -15074   -15053   -15020   -14979   -14943 
  -14916   -14899   -14895   -14908   -14931   -14958   -14985   -15003 
  -15001   -14971   -14924   -14875   -14836   -14812   -14808   -14832 
  -14872   -14920   -14972   -15024   -15064   -15110   -15157   -15201 
  -15249   -15302   -15346   -15379   -15398   -15408   -15418   -15427 
  -15438   -15446   -15446   -15430   -15403   -15372   -15341   -15317 
  -15303   -15292   -15279   -15263   -15241   -15214   -15182   -15140 
  -15095   -15052   -15006   -14964   -14940   -14939   -14962   -15010 
  -15071   -15129   -15179   -15206   -15199   -15164   -15111   -15056 
  -15021   -15018   -15047   -15091   -15128   -15140   -15120   -15071 
  -15006   -14945   -14904   -14890   -14902   -14926   -14944   -14939 
  -14904   -14847   -14778   -14710   -14666   -14651   -14665   -14698 
  -14737   -14770   -14793   -14809   -14825   -14845   -14878   -14929 
  -14999   -15079   -15157   -15225   -15265   -15272   -15252   -15214 
  -15174   -15144   -15134   -15144   -15169   -15195   -15206   -15198 
  -15176   -15149   -15138   -15164   -15232   -15326   -15431   -15522 
  -15580   -15596   -15574   -15530   -15475   -15417   -15367   -15326 
  -15288   -15253   -15217   -15165   -15109   -15049   -14991   -14939 
  -14898   -14872   -14855   -14847   -14841   -14840   -14848   -14862 
  -14875   -14891   -14916   -14939   -14958   -14976   -14990   -15005 
  -15029   -15061   -15094   -15122   -15145   -15152   -15140   -15117 
  -15090   -15066   -15053   -15055   -15060   -15059   -15043   -15016 
  -14985   -14951   -14928   -14924   -14935   -14956   -14989   -15026 
  -15074   -15124   -15160   -15187   -15207   -15219   -15228   -15244 
  -15269   -15304   -15345   -15385   -15417   -15435   -15441   -15423 
  -15387   -15337   -15275   -15211   -15148   -15084   -15022   -14966 
  -14909   -14863   -14832   -14814   -14816   -14835   -14870   -14918 
  -14976   -15033   -15080   -15114   -15132   -15133   -15126   -15118 
  -15113   -15118   -15126   -15130   -15128   -15115   -15090   -15060 
  -15040   -15030   -15028   -15039   -15059   -15087   -15118   -15155 
  -15195   -15236   -15265   -15279   -15273   -15250   -15215   -15175 
  -15125   -15071   -15014   -14945   -14868   -14794   -14723   -14661 
  -14617   -14592   -14582   -14590   -14609   -14632   -14659   -14686 
  -14713   -14743   -14775   -14818   -14878   -14951   -15032   -15115 
  -15192   -15260   -15317   -15360   -15390   -15410   -15423   -15434 
  -15429   -15408   -15383   -15350   -15306   -15261   -15223   -15183 
  -15151   -15134   -15117   -15097   -15076   -15055   -15039   -15036 
  -15048   -15082   -15133   -15191   -15244   -15288   -15318   -15329 
  -15329   -15323   -15314   -15306   -15298   -15286   -15275   -15261 
  -15244   -15229   -15211   -15187   -15157   -15120   -15076   -15036 
  -14999   -14972   -14966   -14975   -14999   -15032   -15071   -15107 
  -15132   -15147   -15151   -15140   -15125   -15110   -15086   -15063 
  -15044   -15021   -15010   -15005   -14994   -14982   -14964   -14940 
  -14910   -14878   -14841   -14806   -14783   -14775   -14786   -14810 
  -14839   -14858   -14866   -14862   -14848   -14844   -14858   -14889 
  -14933   -14986   -15043   -15097   -15137   -15167   -15184   -15191 
  -15187   -15179   -15171   -15167   -15176   -15201   -15238   -15280 
  -15321   -15352   -15358   -15341   -15306   -15260   -15218   -15191 
  -15180   -15184   -15203   -15221   -15232   -15237   -15240   -15245 
  -15259   -15279   -15300   -15315   -15321   -15318   -15307   -15284 
  -15252   -15211   -15164   -15103   -15036   -14968   -14904   -14847 
  -14804   -14771   -14747   -14729   -14719   -14713   -14720   -14743 
  -14774   -14816   -14864   -14905   -14933   -14956   -14975   -14999 
  -15040   -15097   -15163   -15225   -15271   -15302   -15314   -15302 
  -15272   -15233   -15190   -15149   -15117   -15095   -15084   -15079 
  -15076   -15071   -15055   -15034   -15016   -14999   -14987   -14986 
  -14999   -15029   -15071   -15118   -15171   -15222   -15267   -15303 
  -15333   -15356   -15368   -15367   -15361   -15348   -15325   -15290 
  -15240   -15178   -15110   -15043   -14982   -14935   -14901   -14879 
  -14879   -14891   -14909   -14941   -14983   -15024   -15068   -15113 
  -15147   -15165   -15178   -15183   -15176   -15171   -15168   -15157 
  -15137   -15113   -15078   -15032   -14982   -14932   -14895   -14879 
  -14874   -14881   -14894   -14902   -14905   -14904   -14898   -14895 
  -14901   -14918   -14948   -14979   -15010   -15044   -15079   -15109 
  -15137   -15167   -15191   -15206   -15214   -15214   -15210   -15210 
  -15205   -15190   -15172   -15153   -15124   -15093   -15071   -15056 
  -15040   -15030   -15032   -15040   -15059   -15084   -15118   -15163 
  -15214   -15265   -15313   -15354   -15388   -15403   -15404   -15396 
  -15372   -15341   -15307   -15275   -15249   -15229   -15209   -15184 
  -15156   -15120   -15070   -15014   -14964   -14914   -14867   -14827 
  -14785   -14747   -14724   -14716   -14725   -14754   -14801   -14862 
  -14931   -14995   -15053   -15098   -15122   -15132   -15128   -15114 
  -15102   -15094   -15091   -15098   -15113   -15132   -15149   -15165 
  -15179   -15187   -15192   -15194   -15188   -15179   -15164   -15141 
  -15113   -15083   -15052   -15025   -15005   -14995   -14993   -14994 
  -14997   -14995   -14987   -14976   -14958   -14932   -14912   -14904 
  -14898   -14901   -14916   -14929   -14939   -14951   -14964   -14983 
  -15012   -15043   -15071   -15098   -15120   -15137   -15157   -15176 
  -15195   -15219   -15249   -15279   -15303   -15318   -15317   -15302 
  -15276   -15246   -15217   -15191   -15168   -15149   -15132   -15110 
  -15082   -15051   -15022   -15003   -14995   -14998   -15013   -15039 
  -15070   -15107   -15151   -15195   -15245   -15307   -15372   -15431 
  -15479   -15506   -15504   -15479   -15438   -15388   -15331   -15273 
  -15218   -15165   -15114   -15056   -14989   -14916   -14836   -14755 
  -14688   -14634   -14596   -14589   -14609   -14648   -14709   -14781 
  -14860   -14941   -15021   -15102   -15188   -15269   -15346   -15414 
  -15464   -15502   -15527   -15538   -15533   -15515   -15488   -15456 
  -15417   -15375   -15331   -15279   -15219   -15159   -15102   -15059 
  -15028   -15010   -15005   -15002   -14999   -14997   -14991   -14979 
