Origin Time       2025/06/03 22:18:00
Lat.              41.7
Long.             143.6
Depth. (km)       30
Mag.              5.2
Station Code      ABSH11
Station Lat.      43.9144
Station Long.     144.1913
Station Height(m) 40
Record Time       2025/06/03 22:20:02
Sampling Freq(Hz) 100Hz
Duration Time(s)  120
Dir.              4
Scale Factor      7845(gal)/8223790
Max. Acc. (gal)   0.261
Last Correction   2025/06/03 22:20:03
Memo.             
    4575     4542     4506     4475     4452     4437     4438     4452 
    4472     4498     4522     4538     4549     4552     4548     4542 
    4542     4548     4553     4565     4577     4588     4598     4604 
    4608     4608     4610     4611     4612     4615     4615     4614 
    4617     4619     4617     4614     4610     4607     4608     4615 
    4629     4648     4664     4676     4684     4680     4661     4635 
    4608     4587     4568     4556     4557     4564     4573     4581 
    4588     4594     4595     4598     4607     4619     4637     4664 
    4692     4719     4752     4774     4787     4796     4795     4783 
    4765     4743     4712     4676     4646     4615     4581     4553 
    4526     4502     4488     4482     4480     4490     4504     4521 
    4538     4554     4564     4567     4567     4564     4558     4549 
    4544     4538     4530     4526     4526     4522     4521     4529 
    4536     4545     4561     4580     4599     4621     4641     4657 
    4671     4677     4679     4676     4672     4671     4675     4681 
    4687     4695     4706     4710     4706     4699     4692     4679 
    4665     4657     4649     4644     4637     4627     4618     4608 
    4599     4591     4584     4583     4590     4603     4621     4644 
    4673     4703     4726     4742     4747     4741     4723     4703 
    4677     4652     4629     4607     4591     4577     4565     4553 
    4545     4538     4536     4538     4546     4557     4567     4581 
    4592     4590     4577     4558     4533     4509     4490     4473 
    4467     4471     4480     4491     4503     4517     4526     4531 
    4530     4525     4513     4495     4480     4469     4464     4465 
    4475     4492     4514     4541     4571     4591     4606     4615 
    4617     4618     4619     4619     4626     4637     4646     4660 
    4676     4689     4700     4710     4719     4723     4720     4708 
    4691     4671     4642     4610     4585     4567     4554     4556 
    4572     4592     4611     4633     4652     4665     4675     4679 
    4680     4680     4680     4684     4687     4691     4699     4707 
    4710     4707     4704     4702     4695     4684     4676     4662 
    4641     4615     4587     4554     4522     4494     4473     4465 
    4465     4476     4495     4511     4529     4544     4552     4558 
    4568     4576     4587     4598     4604     4607     4611     4612 
    4612     4611     4607     4607     4612     4615     4617     4619 
    4623     4626     4629     4630     4630     4635     4641     4639 
    4641     4638     4627     4615     4600     4584     4567     4552 
    4540     4529     4519     4510     4506     4504     4500     4498 
    4492     4490     4491     4488     4488     4491     4488     4486 
    4490     4495     4504     4517     4533     4556     4579     4598 
    4618     4633     4639     4642     4639     4629     4611     4591 
    4577     4565     4554     4548     4548     4549     4552     4554 
    4557     4561     4568     4573     4581     4594     4602     4608 
    4619     4629     4635     4645     4652     4656     4661     4661 
    4657     4656     4653     4652     4656     4666     4679     4699 
    4723     4738     4746     4750     4743     4733     4729     4729 
    4743     4770     4796     4819     4838     4843     4828     4806 
    4781     4765     4758     4765     4780     4799     4816     4827 
    4828     4816     4797     4781     4769     4756     4745     4737 
    4727     4714     4703     4693     4680     4671     4664     4658 
    4660     4665     4669     4672     4672     4666     4653     4633 
    4606     4573     4537     4506     4476     4448     4426     4411 
    4395     4382     4372     4364     4357     4352     4351     4352 
    4355     4355     4357     4364     4372     4379     4386     4396 
    4409     4421     4433     4445     4461     4482     4499     4514 
    4531     4549     4563     4573     4581     4588     4590     4590 
    4595     4600     4607     4621     4638     4660     4683     4704 
    4722     4734     4734     4729     4720     4706     4688     4677 
    4664     4649     4638     4626     4617     4615     4617     4621 
    4630     4644     4658     4666     4669     4662     4645     4621 
    4595     4567     4541     4523     4514     4507     4500     4500 
    4506     4509     4515     4525     4542     4565     4588     4611 
    4630     4639     4641     4634     4618     4598     4573     4553 
    4537     4521     4507     4495     4483     4476     4475     4475 
    4480     4496     4521     4550     4587     4625     4661     4695 
    4720     4739     4757     4768     4770     4773     4773     4768 
    4760     4749     4735     4722     4710     4702     4698     4700 
    4708     4720     4737     4754     4770     4788     4804     4815 
    4824     4828     4826     4820     4814     4801     4788     4780 
    4773     4765     4764     4762     4760     4760     4757     4746 
    4731     4714     4693     4669     4646     4629     4611     4596 
    4587     4576     4563     4556     4548     4536     4529     4523 
    4513     4502     4486     4468     4453     4442     4433     4429 
    4429     4433     4440     4450     4463     4469     4471     4465 
    4455     4440     4417     4394     4375     4357     4345     4338 
    4336     4334     4333     4333     4334     4334     4337     4345 
    4351     4361     4380     4396     4418     4448     4479     4511 
    4550     4594     4631     4666     4702     4734     4764     4795 
    4818     4831     4845     4850     4842     4827     4806     4774 
    4742     4714     4688     4668     4653     4646     4648     4657 
    4669     4680     4696     4714     4723     4729     4735     4737 
    4729     4716     4703     4685     4666     4645     4627     4610 
    4594     4580     4568     4558     4552     4545     4540     4541 
    4544     4549     4560     4575     4588     4599     4607     4611 
    4612     4612     4612     4615     4618     4626     4639     4660 
    4679     4698     4716     4733     4747     4758     4760     4762 
    4760     4746     4729     4708     4684     4660     4637     4614 
    4594     4581     4572     4565     4557     4550     4542     4530 
    4518     4504     4492     4484     4477     4476     4476     4476 
    4476     4477     4479     4480     4480     4487     4498     4506 
    4515     4529     4538     4544     4545     4546     4549     4556 
    4558     4565     4575     4584     4594     4604     4615     4627 
    4644     4664     4683     4699     4711     4716     4715     4706 
    4691     4676     4664     4656     4653     4654     4657     4657 
    4656     4654     4648     4639     4634     4629     4625     4625 
    4621     4612     4603     4591     4577     4568     4564     4563 
    4571     4583     4595     4603     4612     4617     4615     4614 
    4615     4615     4619     4627     4637     4645     4654     4661 
    4658     4652     4642     4627     4611     4596     4583     4575 
    4564     4554     4546     4540     4530     4525     4525     4527 
    4536     4549     4568     4590     4612     4635     4660     4688 
    4707     4715     4725     4729     4727     4723     4718     4708 
    4698     4687     4676     4662     4648     4631     4611     4590 
    4568     4549     4533     4521     4518     4522     4529     4542 
    4560     4580     4599     4611     4619     4626     4629     4625 
    4621     4618     4617     4618     4617     4619     4626     4630 
    4631     4631     4627     4621     4614     4603     4594     4585 
    4573     4568     4565     4560     4554     4554     4553     4557 
    4563     4572     4587     4599     4611     4625     4635     4642 
    4648     4648     4644     4635     4619     4603     4588     4571 
    4554     4548     4544     4538     4540     4546     4549     4553 
    4564     4572     4579     4588     4600     4615     4627     4635 
    4644     4650     4658     4665     4668     4666     4666     4664 
    4658     4653     4650     4649     4645     4646     4650     4650 
    4649     4642     4627     4612     4594     4572     4554     4542 
    4536     4534     4538     4546     4554     4564     4576     4584 
    4591     4600     4602     4598     4596     4590     4573     4560 
    4549     4537     4529     4527     4527     4529     4533     4533 
    4531     4531     4526     4521     4515     4511     4510     4510 
    4510     4514     4521     4527     4536     4549     4565     4581 
    4599     4622     4644     4665     4693     4722     4749     4774 
    4797     4816     4826     4827     4820     4807     4789     4773 
    4761     4756     4754     4756     4758     4762     4764     4756 
    4745     4734     4719     4704     4692     4679     4664     4648 
    4626     4603     4579     4552     4526     4507     4496     4492 
    4496     4509     4525     4544     4568     4590     4608     4626 
    4641     4650     4658     4661     4658     4653     4641     4623 
    4599     4572     4544     4513     4483     4460     4445     4437 
    4432     4429     4432     4433     4437     4441     4445     4452 
    4463     4469     4475     4483     4491     4502     4517     4531 
    4550     4571     4592     4610     4617     4617     4612     4604 
    4595     4588     4583     4581     4585     4592     4599     4608 
    4622     4635     4652     4669     4691     4712     4733     4752 
    4769     4784     4793     4801     4810     4816     4823     4830 
    4839     4846     4850     4850     4842     4833     4819     4800 
    4781     4765     4743     4725     4706     4684     4664     4641 
    4617     4591     4571     4550     4534     4527     4526     4523 
    4527     4534     4534     4536     4540     4545     4554     4567 
    4577     4590     4602     4612     4625     4635     4645     4656 
    4665     4676     4685     4689     4695     4698     4692     4683 
    4672     4656     4634     4611     4587     4563     4548     4537 
    4526     4514     4504     4499     4491     4480     4469     4463 
    4459     4457     4459     4465     4475     4482     4484     4486 
    4487     4486     4483     4484     4487     4488     4495     4502 
    4503     4509     4511     4513     4518     4525     4529     4533 
    4533     4529     4519     4509     4494     4475     4463     4457 
    4453     4455     4465     4480     4499     4518     4534     4554 
    4580     4603     4622     4639     4657     4671     4679     4685 
    4688     4691     4691     4689     4691     4689     4684     4677 
    4671     4662     4649     4638     4630     4622     4614     4607 
    4602     4599     4594     4588     4581     4579     4579     4575 
    4575     4581     4587     4583     4576     4571     4563     4557 
    4550     4541     4538     4544     4549     4554     4563     4573 
    4585     4600     4615     4631     4649     4660     4669     4683 
    4691     4698     4707     4719     4733     4746     4760     4774 
    4785     4792     4793     4792     4789     4784     4773     4764 
    4756     4745     4730     4716     4702     4687     4671     4656 
    4644     4631     4618     4607     4599     4588     4577     4568 
    4561     4554     4548     4546     4552     4558     4568     4579 
    4591     4606     4623     4638     4652     4666     4680     4692 
    4707     4716     4719     4722     4720     4711     4703     4692 
    4681     4676     4672     4672     4675     4677     4677     4672 
    4662     4650     4634     4614     4592     4576     4564     4552 
    4545     4544     4546     4548     4553     4561     4572     4583 
    4592     4603     4608     4610     4608     4606     4602     4592 
    4581     4573     4567     4560     4556     4560     4565     4569 
    4572     4577     4581     4585     4585     4584     4584     4584 
    4581     4581     4581     4584     4592     4602     4617     4633 
    4646     4661     4675     4684     4692     4696     4698     4693 
    4687     4680     4672     4661     4649     4638     4622     4604 
    4588     4572     4554     4534     4515     4496     4479     4464 
    4453     4445     4444     4445     4449     4456     4464     4471 
    4476     4480     4486     4491     4496     4502     4507     4517 
    4529     4540     4548     4556     4560     4563     4568     4575 
    4581     4591     4603     4615     4626     4635     4645     4653 
    4654     4654     4654     4650     4642     4637     4631     4623 
    4617     4614     4612     4610     4610     4611     4607     4602 
    4596     4587     4579     4573     4563     4552     4548     4544 
    4544     4542     4544     4545     4542     4537     4536     4538 
    4542     4545     4549     4556     4561     4565     4564     4561 
    4557     4552     4550     4554     4561     4571     4583     4594 
    4604     4612     4622     4631     4638     4648     4661     4675 
    4692     4712     4730     4745     4761     4773     4779     4784 
    4785     4784     4781     4779     4774     4772     4766     4758 
    4752     4747     4738     4727     4714     4698     4683     4669 
    4658     4648     4639     4637     4635     4630     4623     4621 
    4617     4615     4617     4618     4618     4618     4617     4611 
    4603     4590     4575     4563     4553     4546     4544     4546 
    4553     4561     4573     4584     4592     4599     4603     4607 
    4612     4615     4621     4623     4619     4612     4603     4588 
    4569     4549     4529     4511     4502     4495     4495     4495 
    4499     4506     4510     4510     4511     4513     4510     4511 
    4515     4519     4527     4537     4549     4563     4579     4595 
    4612     4626     4634     4642     4646     4644     4638     4631 
    4625     4619     4617     4615     4619     4626     4629     4630 
    4630     4626     4618     4611     4606     4604     4607     4617 
    4629     4639     4649     4654     4657     4660     4660     4652 
    4648     4645     4639     4633     4629     4622     4614     4606 
    4595     4584     4575     4567     4561     4556     4550     4552 
    4552     4552     4556     4564     4569     4576     4584     4596 
    4611     4625     4634     4646     4654     4656     4656     4653 
    4646     4642     4641     4638     4639     4644     4646     4648 
    4648     4641     4635     4627     4614     4603     4596     4588 
    4590     4595     4595     4599     4608     4614     4617     4622 
    4629     4633     4633     4633     4631     4625     4614     4608 
    4604     4600     4602     4611     4622     4635     4654     4672 
    4685     4703     4715     4718     4720     4722     4718     4711 
    4704     4699     4693     4684     4677     4671     4657     4641 
    4630     4617     4602     4591     4583     4575     4568     4558 
    4544     4527     4511     4498     4484     4469     4461     4457 
    4456     4459     4460     4460     4464     4467     4463     4457 
    4459     4465     4475     4488     4507     4522     4537     4550 
    4558     4563     4569     4575     4580     4587     4594     4600 
    4608     4610     4607     4599     4588     4577     4571     4568 
    4567     4573     4587     4596     4607     4619     4629     4635 
    4638     4645     4654     4662     4673     4684     4693     4707 
    4719     4725     4730     4737     4742     4745     4746     4749 
    4747     4741     4733     4726     4716     4704     4695     4689 
    4679     4668     4658     4649     4641     4629     4611     4598 
    4581     4567     4556     4549     4546     4545     4548     4549 
    4554     4563     4567     4569     4577     4587     4595     4604 
    4617     4626     4633     4639     4645     4642     4641     4645 
    4645     4644     4645     4648     4652     4657     4661     4665 
    4671     4675     4677     4677     4675     4673     4668     4660 
    4657     4650     4642     4639     4634     4630     4633     4631 
    4631     4634     4635     4635     4637     4635     4629     4623 
    4617     4606     4594     4584     4573     4565     4560     4556 
    4553     4554     4554     4553     4549     4546     4545     4542 
    4540     4540     4542     4545     4548     4554     4561     4568 
    4579     4591     4602     4610     4618     4622     4623     4622 
    4617     4608     4598     4590     4577     4563     4552     4542 
    4537     4533     4531     4536     4544     4552     4561     4572 
    4584     4592     4600     4607     4614     4618     4623     4627 
    4630     4633     4635     4637     4634     4631     4629     4621 
    4612     4604     4595     4585     4573     4560     4549     4534 
    4515     4502     4490     4477     4469     4465     4463     4465 
    4472     4479     4487     4496     4507     4519     4527     4536 
    4544     4549     4553     4556     4558     4560     4557     4554 
    4558     4563     4560     4561     4567     4571     4576     4585 
    4594     4604     4617     4625     4633     4641     4641     4638 
    4639     4638     4637     4637     4639     4642     4644     4646 
    4646     4645     4649     4657     4664     4668     4679     4688 
    4687     4685     4685     4683     4683     4684     4685     4688 
    4692     4693     4695     4696     4693     4691     4689     4689 
    4691     4693     4696     4699     4702     4700     4698     4696 
    4692     4689     4687     4683     4684     4684     4677     4679 
    4683     4684     4687     4695     4699     4700     4706     4710 
    4710     4711     4712     4712     4715     4722     4727     4729 
    4733     4737     4738     4738     4733     4722     4712     4702 
    4687     4671     4656     4642     4629     4614     4599     4581 
    4565     4548     4530     4514     4495     4479     4468     4460 
    4450     4445     4448     4449     4444     4445     4452     4455 
    4460     4467     4471     4473     4477     4477     4477     4479 
    4480     4482     4486     4490     4495     4500     4506     4509 
    4509     4506     4502     4499     4499     4499     4502     4509 
    4518     4530     4546     4564     4581     4600     4619     4635 
    4650     4661     4671     4680     4685     4688     4689     4691 
    4687     4680     4672     4658     4642     4629     4615     4603 
    4591     4581     4569     4558     4553     4548     4545     4548 
    4552     4557     4569     4579     4587     4598     4608     4614 
    4614     4617     4622     4622     4619     4619     4622     4626 
    4630     4635     4644     4649     4652     4654     4654     4650 
    4648     4642     4639     4638     4635     4637     4642     4648 
    4653     4658     4662     4666     4673     4677     4679     4683 
    4687     4692     4693     4693     4696     4698     4692     4689 
    4683     4672     4662     4653     4641     4629     4615     4603 
    4595     4587     4581     4577     4573     4573     4575     4573 
