Origin Time       2025/06/03 22:18:00
Lat.              41.7
Long.             143.6
Depth. (km)       30
Mag.              5.2
Station Code      ABSH13
Station Lat.      43.7419
Station Long.     143.4514
Station Height(m) 216
Record Time       2025/06/03 22:19:17
Sampling Freq(Hz) 100Hz
Duration Time(s)  120
Dir.              3
Scale Factor      3923(gal)/8224838
Max. Acc. (gal)   0.181
Last Correction   2025/06/03 22:19:18
Memo.             
[...]
  -16560   -16530   -16499   -16463   -16425   -16398   -16387   -16391 
  -16417   -16457   -16491   -16503   -16480   -16428   -16363   -16298 
  -16236   -16193   -16185   -16205   -16241   -16286   -16324   -16341 
  -16341   -16321   -16290   -16268   -16268   -16302   -16352   -16393 
  -16420   -16434   -16432   -16424   -16422   -16429   -16441   -16456 
  -16470   -16490   -16510   -16519   -16524   -16529   -16538   -16551 
  -16553   -16545   -16533   -16528   -16532   -16538   -16533   -16509 
  -16474   -16445   -16429   -16426   -16432   -16440   -16444   -16429 
  -16409   -16394   -16384   -16374   -16370   -16368   -16367   -16372 
  -16380   -16378   -16368   -16371   -16382   -16395   -16409   -16413 
  -16402   -16383   -16366   -16355   -16351   -16349   -16348   -16353 
  -16366   -16364   -16337   -16301   -16270   -16249   -16244   -16263 
  -16306   -16367   -16432   -16487   -16515   -16515   -16503   -16488 
  -16482   -16487   -16501   -16509   -16513   -16515   -16519   -16528 
  -16529   -16526   -16522   -16513   -16501   -16479   -16452   -16434 
  -16428   -16422   -16418   -16420   -16422   -16416   -16397   -16375 
  -16355   -16335   -16308   -16282   -16267   -16256   -16256   -16275 
  -16302   -16324   -16348   -16371   -16384   -16393   -16403   -16418 
  -16424   -16413   -16393   -16362   -16328   -16317   -16336   -16368 
  -16409   -16441   -16455   -16463   -16467   -16463   -16463   -16468 
  -16476   -16491   -16517   -16548   -16578   -16599   -16611   -16610 
  -16603   -16596   -16586   -16576   -16567   -16557   -16551   -16546 
  -16542   -16533   -16517   -16499   -16482   -16460   -16438   -16418 
  -16401   -16397   -16411   -16433   -16459   -16475   -16471   -16452 
  -16428   -16399   -16376   -16359   -16337   -16310   -16283   -16258 
  -16239   -16229   -16217   -16212   -16222   -16240   -16259   -16279 
  -16301   -16324   -16356   -16395   -16428   -16447   -16451   -16447 
  -16434   -16416   -16395   -16379   -16368   -16364   -16366   -16362 
  -16356   -16363   -16380   -16397   -16409   -16418   -16424   -16428 
  -16424   -16405   -16378   -16364   -16360   -16362   -16364   -16364 
  -16366   -16374   -16382   -16384   -16378   -16371   -16370   -16374 
  -16378   -16384   -16393   -16403   -16424   -16443   -16457   -16483 
  -16514   -16540   -16552   -16545   -16529   -16517   -16510   -16511 
  -16517   -16510   -16492   -16472   -16445   -16417   -16389   -16362 
  -16349   -16364   -16403   -16451   -16482   -16492   -16492   -16480 
  -16456   -16421   -16380   -16339   -16309   -16299   -16301   -16305 
  -16316   -16339   -16367   -16386   -16393   -16397   -16395   -16383 
  -16366   -16349   -16339   -16343   -16362   -16390   -16422   -16452 
  -16468   -16461   -16436   -16411   -16397   -16386   -16391   -16407 
  -16421   -16440   -16465   -16484   -16492   -16497   -16503   -16518 
  -16536   -16546   -16542   -16536   -16540   -16555   -16571   -16587 
  -16607   -16629   -16645   -16649   -16644   -16630   -16610   -16588 
  -16575   -16569   -16565   -16555   -16532   -16498   -16459   -16425 
  -16391   -16364   -16347   -16335   -16335   -16340   -16326   -16299 
  -16267   -16229   -16194   -16170   -16147   -16135   -16137   -16147 
  -16160   -16186   -16213   -16232   -16243   -16240   -16222   -16197 
  -16185   -16191   -16210   -16233   -16263   -16305   -16359   -16421 
  -16484   -16538   -16580   -16614   -16645   -16671   -16703   -16729 
  -16735   -16733   -16727   -16717   -16700   -16665   -16614   -16555 
  -16490   -16433   -16390   -16357   -16326   -16295   -16272   -16260 
  -16258   -16260   -16264   -16270   -16279   -16297   -16320   -16347 
  -16371   -16386   -16386   -16368   -16337   -16299   -16259   -16225 
  -16208   -16213   -16229   -16249   -16272   -16303   -16340   -16371 
  -16401   -16422   -16432   -16437   -16445   -16456   -16461   -16455 
  -16443   -16428   -16421   -16428   -16441   -16459   -16475   -16476 
  -16467   -16456   -16441   -16425   -16420   -16433   -16467   -16507 
  -16544   -16576   -16595   -16591   -16582   -16578   -16580   -16592 
  -16609   -16623   -16636   -16649   -16661   -16676   -16683   -16672 
  -16653   -16632   -16603   -16580   -16568   -16564   -16557   -16540 
  -16517   -16492   -16467   -16438   -16407   -16379   -16351   -16321 
  -16289   -16252   -16213   -16173   -16131   -16097   -16075   -16054 
  -16040   -16039   -16048   -16067   -16079   -16079   -16074   -16067 
  -16067   -16089   -16125   -16171   -16231   -16295   -16353   -16393 
  -16413   -16432   -16455   -16483   -16518   -16560   -16605   -16644 
  -16671   -16683   -16681   -16665   -16630   -16583   -16533   -16492 
  -16475   -16474   -16468   -16453   -16438   -16424   -16405   -16383 
  -16360   -16330   -16302   -16278   -16255   -16239   -16237   -16248 
  -16264   -16291   -16328   -16374   -16426   -16475   -16514   -16541 
  -16565   -16590   -16610   -16622   -16626   -16632   -16640   -16634 
  -16621   -16605   -16588   -16576   -16575   -16586   -16602   -16606 
  -16600   -16583   -16556   -16532   -16511   -16492   -16476   -16471 
  -16470   -16468   -16459   -16434   -16391   -16336   -16279   -16229 
  -16197   -16175   -16166   -16171   -16186   -16201   -16213   -16231 
  -16247   -16262   -16281   -16303   -16324   -16349   -16386   -16418 
  -16432   -16436   -16434   -16436   -16445   -16464   -16480   -16499 
  -16524   -16548   -16565   -16576   -16580   -16586   -16591   -16576 
  -16546   -16524   -16510   -16505   -16511   -16513   -16510   -16510 
  -16497   -16471   -16453   -16438   -16420   -16401   -16384   -16367 
  -16351   -16340   -16335   -16335   -16341   -16349   -16357   -16371 
  -16386   -16390   -16384   -16375   -16363   -16352   -16339   -16321 
  -16309   -16297   -16286   -16286   -16286   -16286   -16298   -16318 
  -16337   -16352   -16363   -16371   -16383   -16399   -16413   -16418 
  -16421   -16429   -16437   -16436   -16425   -16409   -16393   -16382 
  -16378   -16375   -16374   -16378   -16389   -16405   -16422   -16434 
  -16449   -16467   -16472   -16465   -16459   -16456   -16456   -16459 
  -16463   -16467   -16471   -16475   -16480   -16490   -16484   -16460 
  -16437   -16418   -16405   -16409   -16430   -16459   -16479   -16492 
  -16502   -16503   -16494   -16478   -16455   -16420   -16383   -16357 
  -16341   -16333   -16332   -16336   -16347   -16364   -16379   -16389 
  -16395   -16410   -16440   -16476   -16510   -16536   -16552   -16556 
  -16551   -16544   -16533   -16518   -16502   -16483   -16460   -16429 
  -16394   -16367   -16352   -16355   -16375   -16402   -16433   -16464 
  -16486   -16505   -16518   -16513   -16494   -16470   -16445   -16426 
  -16401   -16370   -16341   -16310   -16279   -16256   -16239   -16228 
  -16227   -16231   -16243   -16263   -16289   -16312   -16320   -16316 
  -16313   -16314   -16321   -16336   -16355   -16368   -16378   -16387 
  -16398   -16403   -16407   -16417   -16424   -16429   -16437   -16441 
  -16443   -16440   -16432   -16418   -16395   -16375   -16363   -16356 
  -16364   -16387   -16417   -16440   -16451   -16461   -16474   -16487 
  -16505   -16524   -16544   -16569   -16594   -16606   -16606   -16598 
  -16594   -16600   -16602   -16590   -16571   -16549   -16534   -16533 
  -16541   -16546   -16548   -16542   -16532   -16517   -16492   -16464 
  -16437   -16410   -16379   -16348   -16313   -16274   -16239   -16214 
  -16201   -16189   -16183   -16195   -16220   -16241   -16254   -16260 
  -16271   -16291   -16317   -16340   -16353   -16360   -16362   -16355 
  -16351   -16351   -16351   -16356   -16364   -16375   -16390   -16410 
  -16424   -16426   -16422   -16414   -16405   -16394   -16389   -16395 
  -16407   -16417   -16430   -16444   -16457   -16478   -16499   -16514 
  -16524   -16532   -16542   -16557   -16568   -16573   -16579   -16584 
  -16588   -16584   -16575   -16559   -16537   -16511   -16479   -16445 
  -16424   -16411   -16403   -16401   -16406   -16416   -16425   -16438 
  -16449   -16455   -16449   -16437   -16424   -16422   -16424   -16425 
  -16432   -16433   -16420   -16399   -16378   -16362   -16359   -16359 
  -16362   -16363   -16357   -16351   -16349   -16352   -16364   -16382 
  -16398   -16410   -16424   -16438   -16441   -16432   -16420   -16414 
  -16413   -16414   -16417   -16411   -16402   -16393   -16386   -16393 
  -16405   -16418   -16443   -16472   -16503   -16537   -16565   -16578 
  -16576   -16557   -16519   -16479   -16444   -16416   -16399   -16390 
  -16375   -16368   -16367   -16360   -16352   -16348   -16339   -16325 
  -16309   -16297   -16293   -16294   -16305   -16322   -16339   -16349 
  -16356   -16357   -16351   -16333   -16309   -16287   -16268   -16249 
  -16240   -16243   -16252   -16267   -16285   -16303   -16324   -16345 
  -16356   -16356   -16355   -16355   -16348   -16339   -16339   -16349 
  -16366   -16384   -16409   -16436   -16456   -16472   -16486   -16498 
  -16511   -16519   -16518   -16517   -16515   -16507   -16495   -16483 
  -16468   -16453   -16445   -16448   -16451   -16455   -16464   -16472 
  -16472   -16468   -16460   -16448   -16430   -16413   -16402   -16397 
  -16401   -16410   -16424   -16447   -16468   -16486   -16502   -16519 
  -16533   -16540   -16548   -16561   -16576   -16584   -16590   -16590 
  -16586   -16587   -16586   -16578   -16571   -16563   -16555   -16551 
  -16549   -16536   -16510   -16484   -16463   -16445   -16428   -16409 
  -16395   -16391   -16393   -16393   -16391   -16390   -16387   -16384 
  -16386   -16386   -16380   -16375   -16372   -16366   -16355   -16341 
  -16332   -16329   -16324   -16318   -16324   -16330   -16337   -16351 
  -16366   -16387   -16411   -16430   -16443   -16445   -16434   -16422 
  -16416   -16411   -16402   -16390   -16379   -16367   -16351   -16336 
  -16328   -16326   -16328   -16330   -16335   -16340   -16344   -16348 
  -16353   -16357   -16363   -16372   -16386   -16395   -16407   -16421 
  -16434   -16449   -16467   -16484   -16499   -16515   -16529   -16537 
  -16541   -16544   -16537   -16530   -16521   -16506   -16494   -16486 
  -16478   -16467   -16455   -16438   -16426   -16414   -16399   -16384 
  -16364   -16337   -16305   -16276   -16263   -16262   -16264   -16268 
  -16270   -16267   -16275   -16285   -16290   -16298   -16308   -16308 
  -16309   -16320   -16335   -16355   -16376   -16387   -16387   -16375 
  -16356   -16341   -16339   -16352   -16376   -16399   -16422   -16445 
  -16460   -16472   -16486   -16498   -16507   -16517   -16522   -16522 
  -16514   -16497   -16471   -16443   -16406   -16364   -16330   -16306 
  -16289   -16287   -16295   -16305   -16320   -16340   -16362   -16387 
  -16416   -16436   -16445   -16455   -16459   -16451   -16444   -16444 
  -16447   -16452   -16461   -16465   -16468   -16478   -16486   -16486 
  -16483   -16480   -16475   -16465   -16452   -16434   -16424   -16421 
  -16424   -16430   -16437   -16444   -16455   -16472   -16487   -16494 
  -16497   -16507   -16517   -16514   -16510   -16510   -16505   -16492 
  -16482   -16470   -16459   -16447   -16436   -16432   -16434   -16440 
  -16452   -16461   -16461   -16464   -16471   -16478   -16482   -16488 
  -16488   -16483   -16476   -16467   -16451   -16432   -16410   -16393 
  -16386   -16384   -16383   -16380   -16383   -16390   -16391   -16391 
  -16390   -16384   -16379   -16379   -16386   -16384   -16374   -16357 
  -16329   -16293   -16263   -16237   -16210   -16194   -16191   -16198 
  -16210   -16224   -16231   -16236   -16249   -16270   -16293   -16316 
  -16335   -16349   -16367   -16387   -16414   -16440   -16463   -16488 
  -16515   -16540   -16556   -16567   -16580   -16591   -16594   -16590 
  -16587   -16591   -16599   -16605   -16610   -16614   -16610   -16602 
  -16599   -16599   -16596   -16591   -16586   -16579   -16567   -16555 
  -16542   -16529   -16505   -16472   -16444   -16420   -16398   -16378 
  -16357   -16336   -16316   -16303   -16303   -16308   -16309   -16308 
  -16309   -16312   -16317   -16321   -16320   -16316   -16309   -16295 
  -16283   -16278   -16271   -16270   -16270   -16270   -16275   -16285 
  -16295   -16303   -16312   -16322   -16339   -16355   -16370   -16389 
  -16411   -16434   -16453   -16467   -16478   -16486   -16491   -16497 
  -16497   -16487   -16479   -16470   -16457   -16451   -16445   -16438 
  -16436   -16434   -16436   -16441   -16453   -16472   -16494   -16510 
  -16521   -16524   -16522   -16518   -16502   -16480   -16460   -16441 
  -16422   -16403   -16394   -16390   -16386   -16391   -16402   -16413 
  -16430   -16447   -16457   -16464   -16471   -16475   -16479   -16479 
  -16474   -16464   -16453   -16447   -16448   -16452   -16452   -16453 
  -16457   -16457   -16464   -16479   -16488   -16491   -16494   -16494 
  -16494   -16492   -16487   -16484   -16486   -16487   -16491   -16494 
  -16495   -16494   -16486   -16471   -16453   -16428   -16398   -16370 
  -16347   -16326   -16310   -16299   -16287   -16279   -16279   -16286 
  -16299   -16316   -16326   -16336   -16343   -16340   -16324   -16309 
  -16295   -16272   -16254   -16245   -16240   -16243   -16248   -16252 
  -16258   -16262   -16262   -16260   -16260   -16262   -16272   -16294 
  -16322   -16351   -16379   -16402   -16416   -16421   -16422   -16422 
  -16421   -16425   -16434   -16445   -16457   -16472   -16498   -16532 
  -16568   -16609   -16646   -16683   -16725   -16761   -16784   -16795 
  -16795   -16788   -16772   -16748   -16721   -16690   -16653   -16621 
  -16591   -16561   -16540   -16521   -16501   -16483   -16463   -16438 
  -16416   -16387   -16360   -16339   -16317   -16291   -16263   -16232 
  -16201   -16175   -16154   -16133   -16112   -16092   -16073   -16054 
  -16046   -16044   -16043   -16044   -16059   -16085   -16109   -16128 
  -16152   -16178   -16205   -16237   -16264   -16291   -16318   -16347 
  -16375   -16405   -16434   -16467   -16492   -16511   -16524   -16525 
  -16521   -16515   -16503   -16490   -16471   -16448   -16428   -16411 
  -16390   -16372   -16364   -16360   -16359   -16364   -16371   -16378 
  -16389   -16403   -16413   -16420   -16428   -16434   -16436   -16444 
  -16461   -16478   -16494   -16518   -16542   -16559   -16569   -16575 
  -16578   -16586   -16595   -16600   -16611   -16625   -16637   -16646 
  -16650   -16652   -16650   -16644   -16633   -16621   -16610   -16603 
  -16596   -16586   -16571   -16557   -16545   -16532   -16514   -16499 
  -16483   -16465   -16453   -16448   -16440   -16434   -16426   -16417 
  -16413   -16410   -16409   -16416   -16425   -16436   -16445   -16447 
  -16441   -16438   -16436   -16426   -16417   -16406   -16387   -16366 
  -16353   -16341   -16326   -16309   -16290   -16267   -16251   -16240 
  -16232   -16229   -16232   -16236   -16244   -16254   -16259   -16266 
  -16274   -16281   -16290   -16305   -16318   -16336   -16363   -16386 
  -16402   -16414   -16422   -16425   -16430   -16430   -16426   -16425 
  -16426   -16430   -16437   -16447   -16456   -16468   -16480   -16488 
  -16492   -16494   -16492   -16486   -16479   -16474   -16468   -16457 
  -16440   -16426   -16414   -16407   -16409   -16414   -16425   -16432 
  -16434   -16441   -16452   -16461   -16467   -16472   -16480   -16490 
  -16501   -16514   -16526   -16534   -16537   -16538   -16534   -16526 
  -16518   -16514   -16509   -16498   -16483   -16463   -16443   -16422 
  -16401   -16376   -16351   -16328   -16306   -16290   -16278   -16263 
  -16247   -16233   -16225   -16225   -16225   -16220   -16209   -16197 
  -16191   -16191   -16191   -16191   -16195   -16208   -16224   -16247 
  -16274   -16295   -16318   -16343   -16359   -16379   -16401   -16411 
  -16421   -16433   -16443   -16449   -16449   -16444   -16437   -16428 
  -16421   -16418   -16413   -16406   -16401   -16397   -16394   -16391 
  -16390   -16390   -16389   -16391   -16397   -16401   -16410   -16421 
  -16428   -16441   -16461   -16487   -16517   -16546   -16578   -16609 
  -16633   -16657   -16683   -16704   -16721   -16733   -16738   -16737 
  -16730   -16713   -16686   -16654   -16625   -16602   -16580   -16556 
  -16540   -16526   -16507   -16498   -16497   -16494   -16491   -16488 
  -16487   -16480   -16467   -16455   -16440   -16422   -16407   -16390 
  -16371   -16355   -16332   -16314   -16309   -16298   -16287   -16285 
  -16278   -16268   -16260   -16254   -16248   -16248   -16249   -16258 
  -16267   -16275   -16286   -16301   -16314   -16329   -16345   -16360 
  -16375   -16387   -16397   -16409   -16421   -16429   -16438   -16452 
  -16464   -16471   -16475   -16476   -16475   -16470   -16464   -16460 
  -16459   -16464   -16471   -16475   -16483   -16490   -16487   -16484 
  -16480   -16474   -16470   -16465   -16451   -16432   -16416   -16398 
  -16382   -16370   -16363   -16359   -16357   -16357   -16359   -16359 
  -16359   -16360   -16359   -16359   -16356   -16349   -16340   -16332 
  -16326   -16317   -16310   -16313   -16314   -16314   -16317   -16316 
  -16318   -16324   -16326   -16329   -16335   -16341   -16347   -16352 
  -16364   -16376   -16386   -16403   -16420   -16433   -16453   -16478 
  -16498   -16517   -16533   -16551   -16569   -16586   -16598   -16607 
  -16611   -16611   -16611   -16606   -16603   -16605   -16599   -16592 
  -16587   -16575   -16559   -16536   -16507   -16479   -16449   -16420 
  -16395   -16371   -16347   -16324   -16297   -16272   -16252   -16232 
  -16216   -16200   -16183   -16174   -16167   -16162   -16167   -16178 
  -16187   -16198   -16212   -16231   -16254   -16278   -16305   -16333 
  -16360   -16387   -16417   -16445   -16470   -16491   -16510   -16530 
  -16546   -16559   -16571   -16582   -16592   -16600   -16606   -16611 
  -16615   -16614   -16611   -16607   -16592   -16572   -16556   -16541 
  -16526   -16513   -16503   -16492   -16478   -16463   -16448   -16434 
  -16421   -16410   -16402   -16395   -16387   -16380   -16371   -16363 
  -16355   -16345   -16339   -16335   -16328   -16326   -16326   -16322 
  -16317   -16310   -16309   -16313   -16316   -16316   -16313   -16309 
  -16308   -16312   -16314   -16316   -16318   -16321   -16328   -16330 
  -16332   -16337   -16347   -16357   -16363   -16368   -16380   -16394 
  -16407   -16417   -16425   -16438   -16457   -16475   -16494   -16513 
  -16529   -16540   -16546   -16553   -16557   -16559   -16565   -16563 
  -16549   -16542   -16538   -16530   -16525   -16519   -16511   -16505 
  -16503   -16501   -16487   -16472   -16460   -16451   -16444   -16437 
  -16425   -16411   -16399   -16390   -16383   -16378   -16371   -16360 
  -16348   -16341   -16335   -16329   -16325   -16324   -16326   -16332 
  -16339   -16345   -16352   -16359   -16371   -16382   -16394   -16409 
  -16424   -16438   -16460   -16484   -16507   -16530   -16551   -16567 
  -16580   -16591   -16599   -16610   -16618   -16622   -16623   -16626 
  -16621   -16613   -16605   -16592   -16579   -16565   -16545   -16519 
  -16497   -16475   -16448   -16420   -16390   -16356   -16317   -16278 
  -16239   -16201   -16168   -16144   -16120   -16098   -16087   -16078 
  -16073   -16074   -16075   -16090   -16113   -16136   -16162   -16187 
  -16209   -16235   -16263   -16291   -16324   -16345   -16362   -16382 
  -16401   -16416   -16428   -16444   -16461   -16476   -16494   -16509 
