Origin Time       2025/06/03 22:18:00
Lat.              41.7
Long.             143.6
Depth. (km)       30
Mag.              5.2
Station Code      ABSH13
Station Lat.      43.7419
Station Long.     143.4514
Station Height(m) 321
Record Time       2025/06/03 22:19:17
Sampling Freq(Hz) 100Hz
Duration Time(s)  120
Dir.              6
Scale Factor      7845(gal)/8223790
Max. Acc. (gal)   0.381
Last Correction   2025/06/03 22:19:18
Memo.             
[...]
    7867     7902     7931     7943     7947     7951     7962     7967 
    7963     7965     7954     7938     7928     7909     7885     7852 
    7821     7811     7812     7825     7840     7835     7824     7812 
    7803     7804     7808     7816     7825     7831     7844     7851 
    7850     7847     7839     7842     7859     7877     7894     7908 
    7915     7919     7913     7898     7881     7858     7836     7807 
    7782     7771     7757     7749     7746     7738     7731     7723 
    7708     7692     7681     7684     7704     7732     7762     7782 
    7796     7816     7832     7846     7858     7865     7870     7865 
    7854     7844     7830     7823     7821     7815     7819     7828 
    7832     7834     7832     7838     7850     7863     7873     7863 
    7840     7835     7842     7850     7855     7863     7884     7901 
    7912     7924     7921     7908     7897     7890     7889     7884 
    7879     7878     7867     7858     7850     7836     7832     7832 
    7834     7836     7835     7834     7834     7831     7832     7817 
    7797     7786     7767     7749     7744     7744     7747     7751 
    7759     7773     7781     7792     7800     7801     7808     7813 
    7811     7809     7804     7801     7809     7815     7820     7828 
    7843     7865     7885     7906     7925     7932     7933     7929 
    7925     7924     7923     7929     7933     7925     7916     7904 
    7884     7870     7858     7850     7842     7827     7828     7842 
    7857     7875     7885     7884     7881     7884     7898     7911 
    7921     7932     7928     7917     7904     7888     7881     7871 
    7855     7846     7832     7817     7809     7803     7805     7808 
    7805     7800     7789     7780     7765     7736     7709     7682 
    7661     7658     7659     7674     7700     7719     7743     7770 
    7796     7825     7846     7854     7859     7854     7848     7844 
    7839     7832     7823     7820     7817     7816     7830     7847 
    7862     7878     7882     7885     7894     7897     7901     7902 
    7894     7882     7862     7842     7824     7801     7790     7789 
    7794     7808     7813     7817     7827     7831     7838     7843 
    7851     7861     7855     7851     7855     7851     7843     7830 
    7813     7813     7817     7809     7790     7776     7777     7786 
    7801     7820     7825     7827     7828     7831     7840     7842 
    7835     7838     7842     7850     7874     7905     7931     7940 
    7935     7928     7913     7894     7878     7865     7862     7863 
    7866     7875     7879     7878     7881     7884     7882     7870 
    7859     7866     7874     7879     7881     7869     7855     7843 
    7830     7824     7815     7807     7797     7777     7762     7757 
    7755     7766     7776     7782     7792     7800     7803     7796 
    7788     7792     7794     7796     7808     7825     7844     7851 
    7842     7828     7809     7794     7786     7782     7792     7796 
    7792     7800     7809     7813     7821     7836     7854     7865 
    7866     7873     7879     7884     7889     7884     7877     7866 
    7852     7847     7846     7848     7865     7885     7904     7912 
    7911     7913     7916     7919     7919     7909     7904     7901 
    7892     7886     7873     7851     7827     7804     7788     7770 
    7759     7770     7777     7780     7789     7796     7809     7819 
    7815     7819     7823     7811     7794     7788     7796     7805 
    7812     7819     7817     7816     7819     7812     7807     7801 
    7796     7807     7812     7804     7801     7796     7794     7797 
    7798     7815     7834     7848     7858     7855     7850     7840 
    7821     7807     7801     7803     7808     7811     7813     7811 
    7811     7823     7830     7831     7834     7830     7832     7839 
    7847     7866     7888     7916     7946     7962     7971     7974 
    7966     7960     7946     7928     7913     7892     7873     7863 
    7857     7855     7851     7847     7840     7828     7831     7842 
    7855     7870     7869     7855     7844     7831     7824     7821 
    7813     7800     7778     7763     7762     7765     7774     7786 
    7794     7803     7808     7816     7827     7825     7824     7823 
    7812     7805     7801     7804     7815     7811     7803     7796 
    7786     7788     7797     7816     7843     7854     7861     7869 
    7867     7861     7851     7840     7832     7823     7828     7836 
    7840     7852     7862     7866     7877     7879     7879     7878 
    7874     7873     7870     7871     7874     7863     7850     7840 
    7824     7807     7788     7776     7781     7801     7832     7861 
    7874     7878     7870     7862     7859     7852     7844     7836 
    7830     7835     7839     7839     7839     7835     7836     7834 
    7824     7821     7821     7832     7847     7843     7831     7820 
    7809     7809     7811     7813     7821     7820     7812     7801 
    7794     7796     7797     7798     7803     7801     7798     7797 
    7798     7813     7830     7846     7867     7884     7897     7897 
    7878     7863     7861     7862     7861     7850     7838     7823 
    7811     7811     7801     7788     7800     7820     7840     7854 
    7855     7859     7865     7867     7879     7893     7909     7925 
    7942     7956     7950     7933     7929     7920     7904     7889 
    7879     7879     7886     7898     7913     7912     7900     7881 
    7862     7854     7842     7831     7824     7809     7800     7796 
    7793     7800     7805     7796     7777     7754     7739     7728 
    7722     7727     7738     7751     7769     7784     7801     7823 
    7835     7838     7823     7797     7778     7757     7740     7743 
    7763     7788     7792     7785     7778     7770     7777     7797 
    7817     7838     7850     7847     7835     7813     7801     7807 
    7816     7830     7834     7840     7861     7877     7881     7884 
    7879     7871     7857     7840     7830     7824     7828     7835 
    7844     7874     7909     7936     7962     7983     7998     8000 
    7986     7965     7928     7894     7879     7865     7852     7848 
    7850     7867     7885     7894     7902     7901     7896     7889 
    7875     7867     7857     7846     7839     7825     7812     7813 
    7819     7830     7830     7809     7780     7749     7732     7723 
    7713     7717     7720     7712     7705     7697     7700     7713 
    7722     7728     7728     7717     7692     7657     7643     7658 
    7689     7734     7774     7809     7844     7863     7870     7875 
    7869     7858     7861     7877     7898     7915     7933     7948 
    7955     7965     7970     7963     7955     7943     7936     7936 
    7939     7954     7967     7962     7947     7929     7915     7902 
    7888     7889     7898     7915     7942     7966     7987     8004 
    7997     7978     7950     7913     7875     7830     7781     7736 
    7699     7673     7657     7661     7688     7724     7763     7803 
    7830     7846     7851     7847     7834     7808     7790     7780 
    7766     7757     7746     7732     7723     7713     7711     7716 
    7720     7731     7738     7742     7754     7770     7790     7805 
    7812     7830     7844     7854     7859     7854     7844     7831 
    7819     7830     7846     7847     7844     7835     7824     7821 
    7827     7842     7847     7840     7840     7854     7874     7888 
    7890     7888     7874     7858     7855     7852     7847     7840 
    7839     7857     7889     7925     7950     7954     7954     7946 
    7924     7904     7875     7834     7805     7790     7782     7789 
    7812     7848     7871     7869     7850     7819     7788     7763 
    7746     7750     7765     7784     7811     7835     7858     7874 
    7878     7888     7893     7894     7897     7890     7884     7882 
    7871     7857     7843     7835     7836     7832     7831     7842 
    7861     7882     7898     7909     7919     7920     7915     7908 
    7904     7908     7893     7862     7828     7782     7728     7677 
    7631     7616     7626     7653     7697     7734     7761     7788 
    7807     7825     7843     7865     7889     7902     7915     7928 
    7931     7931     7921     7904     7878     7844     7825     7817 
    7805     7801     7789     7765     7743     7727     7730     7758 
    7797     7835     7873     7906     7928     7933     7929     7916 
    7889     7871     7862     7855     7861     7877     7901     7917 
    7917     7916     7906     7892     7879     7869     7871     7882 
    7885     7879     7859     7830     7801     7771     7747     7728 
    7707     7696     7697     7711     7732     7743     7750     7751 
    7746     7746     7749     7759     7781     7801     7824     7847 
    7848     7842     7831     7813     7804     7803     7805     7808 
    7804     7803     7804     7821     7854     7879     7908     7940 
    7965     7985     8002     8009     8008     7990     7969     7950 
    7935     7925     7905     7877     7857     7840     7838     7842 
    7842     7847     7848     7847     7851     7852     7857     7862 
    7857     7844     7820     7788     7765     7758     7769     7788 
    7808     7830     7839     7839     7842     7828     7809     7794 
    7771     7747     7723     7697     7684     7689     7709     7738 
    7769     7812     7852     7884     7912     7923     7920     7923 
    7931     7940     7947     7944     7932     7904     7877     7858 
    7838     7823     7815     7815     7820     7819     7821     7830 
    7827     7815     7788     7758     7751     7757     7776     7808 
    7835     7857     7875     7889     7893     7885     7874     7862 
    7847     7843     7842     7843     7858     7870     7875     7873 
    7851     7827     7803     7778     7762     7744     7732     7722 
    7701     7688     7677     7663     7661     7669     7688     7720 
    7759     7797     7830     7852     7867     7877     7893     7909 
    7911     7921     7936     7943     7954     7963     7966     7963 
    7944     7924     7912     7893     7869     7842     7813     7784 
    7766     7777     7796     7817     7847     7870     7884     7890 
    7878     7869     7869     7873     7882     7882     7884     7893 
    7902     7913     7919     7915     7909     7896     7885     7878 
    7862     7851     7842     7836     7839     7840     7848     7866 
    7881     7893     7894     7885     7877     7854     7821     7789 
    7755     7734     7724     7723     7727     7734     7747     7770 
    7786     7796     7801     7809     7825     7839     7857     7879 
    7893     7908     7919     7916     7906     7884     7855     7831 
    7803     7784     7782     7797     7815     7820     7813     7793 
    7767     7761     7769     7771     7770     7763     7770     7792 
    7820     7857     7889     7908     7928     7939     7942     7935 
    7916     7894     7873     7847     7828     7815     7815     7821 
    7831     7852     7881     7906     7927     7931     7921     7888 
    7835     7793     7765     7758     7774     7790     7801     7809 
    7808     7817     7838     7855     7867     7862     7846     7821 
    7786     7747     7699     7655     7632     7611     7593     7589 
    7587     7584     7584     7585     7597     7616     7645     7688 
    7743     7808     7867     7912     7951     7979     8012     8051 
    8086     8128     8160     8168     8166     8151     8131     8118 
    8109     8098     8074     8039     8005     7965     7924     7889 
    7857     7828     7800     7774     7755     7730     7704     7681 
    7651     7635     7627     7624     7638     7654     7668     7682 
    7692     7703     7713     7730     7761     7796     7838     7892 
    7944     7992     8024     8043     8058     8063     8052     8031 
    7997     7965     7929     7902     7882     7854     7827     7812 
    7796     7784     7773     7763     7751     7734     7730     7736 
    7740     7754     7767     7770     7777     7784     7794     7816 
    7834     7844     7848     7847     7847     7851     7866     7890 
    7911     7929     7944     7955     7967     7967     7958     7939 
    7902     7873     7848     7820     7796     7769     7739     7717 
    7709     7712     7717     7728     7750     7766     7776     7781 
    7778     7782     7782     7766     7757     7753     7750     7742 
    7724     7713     7711     7712     7722     7738     7759     7789 
    7819     7840     7850     7857     7865     7869     7882     7901 
    7911     7925     7944     7960     7975     7990     8017     8044 
    8056     8064     8056     8032     8002     7973     7948     7916 
    7874     7836     7798     7769     7755     7747     7750     7766 
    7781     7798     7812     7819     7828     7834     7832     7819 
    7803     7796     7793     7790     7796     7803     7809     7816 
    7817     7828     7850     7874     7900     7920     7932     7943 
    7944     7944     7944     7947     7958     7963     7966     7977 
    7982     7986     7985     7970     7955     7939     7916     7882 
    7842     7793     7735     7677     7623     7564     7514     7479 
    7456     7446     7439     7437     7447     7458     7474     7506 
    7543     7600     7669     7728     7786     7842     7897     7955 
    8002     8032     8039     8029     8021     8010     7997     7990 
    7982     7978     7977     7973     7974     7975     7983     7998 
    8012     8024     8024     8012     8001     7982     7950     7913 
    7877     7851     7828     7808     7794     7781     7770     7759 
    7746     7735     7720     7700     7684     7670     7668     7672 
    7669     7668     7674     7685     7703     7719     7736     7757 
    7770     7786     7805     7824     7850     7871     7890     7896 
    7873     7839     7808     7782     7785     7812     7850     7894 
    7929     7951     7955     7947     7940     7927     7919     7929 
    7943     7959     7975     7983     7987     7985     7975     7965 
    7948     7935     7919     7902     7894     7882     7874     7867 
    7850     7834     7817     7797     7786     7778     7771     7769 
    7767     7776     7789     7800     7809     7808     7804     7801 
    7796     7798     7805     7811     7817     7816     7811     7812 
    7813     7820     7824     7820     7823     7827     7825     7816 
    7804     7796     7778     7758     7753     7750     7753     7766 
    7784     7805     7821     7834     7852     7871     7881     7888 
    7894     7912     7925     7931     7935     7924     7894     7858 
    7823     7793     7761     7730     7720     7727     7740     7762 
    7785     7804     7809     7804     7798     7790     7785     7778 
    7765     7769     7782     7790     7805     7819     7831     7844 
    7852     7859     7869     7882     7902     7916     7924     7933 
    7932     7928     7919     7904     7893     7877     7862     7858 
    7859     7877     7901     7927     7951     7966     7973     7973 
    7963     7955     7947     7935     7919     7897     7877     7858 
    7838     7821     7801     7785     7781     7781     7785     7789 
    7788     7790     7794     7794     7794     7782     7767     7753 
    7734     7723     7713     7700     7697     7693     7693     7700 
    7717     7753     7790     7820     7847     7858     7855     7846 
    7828     7819     7815     7811     7815     7816     7817     7825 
    7838     7861     7886     7906     7929     7946     7959     7967 
    7962     7950     7923     7881     7842     7809     7792     7789 
    7792     7807     7824     7840     7862     7884     7906     7931 
    7940     7940     7932     7920     7912     7897     7885     7878 
    7867     7867     7863     7851     7843     7830     7811     7790 
    7767     7759     7758     7757     7759     7766     7781     7796 
    7807     7828     7852     7866     7873     7858     7830     7800 
    7765     7732     7704     7680     7674     7680     7697     7727 
    7759     7793     7815     7824     7839     7852     7862     7873 
    7881     7893     7905     7916     7925     7928     7925     7909 
    7877     7847     7813     7782     7771     7769     7774     7786 
    7797     7813     7831     7838     7847     7848     7844     7844 
    7840     7839     7839     7839     7843     7844     7850     7865 
    7881     7894     7893     7878     7873     7867     7859     7855 
    7851     7852     7854     7848     7843     7834     7825     7823 
    7821     7824     7824     7824     7836     7844     7842     7835 
    7815     7793     7769     7744     7731     7723     7731     7754 
    7771     7796     7820     7838     7861     7882     7900     7917 
    7920     7920     7920     7915     7913     7913     7917     7927 
    7929     7928     7916     7901     7894     7890     7892     7904 
    7917     7924     7915     7897     7879     7859     7851     7847 
    7835     7827     7823     7817     7813     7804     7804     7811 
    7815     7824     7834     7834     7831     7819     7801     7782 
    7759     7754     7767     7789     7823     7851     7873     7894 
    7908     7916     7924     7928     7933     7932     7928     7932 
    7935     7931     7913     7893     7879     7857     7835     7821 
    7803     7788     7778     7767     7759     7743     7722     7700 
    7669     7642     7627     7620     7618     7623     7639     7663 
    7685     7715     7751     7786     7825     7857     7871     7870 
    7851     7830     7808     7792     7789     7785     7785     7793 
    7801     7819     7834     7846     7863     7875     7879     7881 
    7875     7866     7850     7830     7812     7796     7789     7797 
    7809     7830     7851     7866     7885     7897     7901     7905 
    7905     7908     7904     7889     7882     7881     7878     7879 
    7885     7897     7911     7921     7935     7939     7940     7939 
    7931     7924     7913     7896     7888     7877     7861     7847 
    7828     7811     7797     7788     7790     7793     7797     7803 
    7800     7800     7803     7803     7808     7811     7811     7807 
    7798     7796     7790     7786     7794     7801     7805     7811 
    7812     7816     7819     7815     7812     7807     7805     7809 
    7812     7820     7832     7848     7870     7888     7908     7929 
    7943     7958     7962     7947     7929     7906     7886     7863 
    7832     7812     7796     7781     7781     7781     7790     7811 
    7828     7848     7863     7870     7879     7881     7879     7884 
    7886     7884     7877     7871     7870     7866     7871     7885 
    7893     7901     7904     7901     7901     7892     7879     7873 
    7862     7859     7858     7852     7848     7838     7825     7819 
    7811     7808     7800     7786     7777     7766     7759     7762 
    7759     7765     7773     7777     7782     7771     7757     7754 
