Origin Time       2025/06/03 22:18:00
Lat.              41.7
Long.             143.6
Depth. (km)       30
Mag.              5.2
Station Code      ABSH07
Station Lat.      43.8494
Station Long.     143.0861
Station Height(m) 699
Record Time       2025/06/03 22:19:46
Sampling Freq(Hz) 100Hz
Duration Time(s)  120
Dir.              4
Scale Factor      7845(gal)/8223790
Max. Acc. (gal)   0.640
Last Correction   2025/06/03 22:19:47
Memo.             
    -745     -784     -791     -741     -633     -490     -338     -221 
    -174     -213     -333     -498     -652     -751     -768     -704 
    -600     -498     -419     -387     -409     -467     -545     -634 
    -716     -776     -796     -776     -722     -643     -571     -529 
    -530     -567     -625     -679     -703     -691     -657     -616 
    -587     -576     -581     -592     -598     -602     -598     -584 
    -577     -583     -594     -607     -623     -642     -654     -642 
    -611     -584     -576     -589     -622     -664     -707     -743 
    -765     -766     -751     -722     -688     -653     -619     -580 
    -549     -542     -560     -584     -600     -600     -580     -554 
    -537     -538     -572     -634     -708     -783     -835     -858 
    -847     -800     -731     -666     -622     -602     -610     -634 
    -654     -653     -623     -567     -500     -448     -422     -429 
    -465     -527     -599     -669     -723     -746     -727     -666 
    -580     -495     -442     -437     -480     -553     -627     -683 
    -707     -706     -699     -693     -689     -691     -692     -691 
    -685     -673     -652     -638     -627     -606     -575     -531 
    -467     -399     -349     -325     -325     -352     -403     -477 
    -560     -645     -720     -764     -760     -708     -627     -550 
    -511     -527     -608     -735     -870     -978    -1030    -1007 
    -915     -784     -653     -554     -503     -506     -548     -603 
    -654     -683     -670     -615     -538     -460     -402     -375 
    -379     -410     -464     -526     -581     -627     -660     -679 
    -681     -669     -648     -630     -625     -630     -642     -654 
    -654     -633     -595     -544     -490     -457     -450     -467 
    -498     -525     -540     -550     -560     -577     -606     -645 
    -687     -719     -731     -730     -734     -754     -796     -854 
    -908     -939     -934     -903     -861     -820     -778     -735 
    -693     -658     -629     -599     -576     -564     -569     -589 
    -612     -630     -635     -625     -595     -560     -537     -529 
    -535     -553     -571     -587     -595     -592     -577     -556 
    -534     -515     -508     -523     -550     -575     -591     -585 
    -546     -484     -415     -361     -346     -383     -461     -565 
    -672     -757     -797     -792     -751     -706     -675     -661 
    -665     -683     -699     -695     -672     -646     -629     -619 
    -626     -635     -630     -612     -589     -556     -514     -479 
    -448     -415     -392     -382     -387     -410     -452     -500 
    -552     -596     -623     -618     -585     -542     -507     -491 
    -495     -523     -568     -610     -637     -646     -639     -634 
    -648     -689     -751     -818     -866     -880     -861     -826 
    -781     -731     -693     -679     -675     -673     -673     -669 
    -660     -642     -625     -610     -591     -572     -560     -554 
    -568     -603     -654     -708     -743     -764     -780     -783 
    -768     -751     -742     -739     -741     -743     -747     -757 
    -770     -785     -791     -783     -754     -695     -606     -510 
    -419     -344     -305     -315     -376     -472     -581     -679 
    -747     -787     -795     -778     -753     -724     -695     -660 
    -625     -584     -544     -518     -514     -529     -565     -627 
    -696     -750     -772     -754     -691     -588     -464     -348 
    -268     -245     -279     -346     -418     -472     -502     -510 
    -508     -503     -503     -511     -523     -534     -545     -562 
    -584     -612     -638     -650     -648     -629     -598     -565 
    -546     -549     -572     -611     -656     -695     -711     -689 
    -641     -587     -538     -513     -521     -550     -589     -635 
    -680     -712     -734     -750     -758     -774     -801     -834 
    -869     -909     -943     -947     -913     -842     -742     -633 
    -541     -492     -510     -595     -729     -868     -963     -992 
    -940     -822     -665     -514     -400     -329     -310     -338 
    -384     -418     -417     -376     -313     -241     -184     -157 
    -162     -203     -287     -400     -525     -641     -731     -785 
    -800     -788     -761     -738     -735     -766     -822     -878 
    -915     -930     -924     -904     -872     -828     -770     -700 
    -615     -522     -437     -382     -363     -382     -430     -490 
    -535     -565     -577     -575     -565     -552     -540     -535 
    -544     -560     -583     -607     -637     -672     -703     -716 
    -719     -724     -746     -791     -851     -908     -957     -993 
   -1007     -996     -959     -900     -819     -731     -646     -571 
    -513     -472     -442     -425     -423     -430     -442     -454 
    -452     -432     -398     -361     -344     -364     -430     -530 
    -648     -756     -827     -853     -835     -785     -710     -625 
    -545     -483     -441     -422     -425     -437     -449     -459 
    -459     -450     -438     -426     -422     -433     -464     -510 
    -552     -571     -562     -527     -477     -423     -382     -357 
    -357     -396     -468     -558     -660     -751     -819     -850 
    -831     -773     -699     -638     -615     -641     -716     -834 
    -965    -1077    -1148    -1174    -1154    -1096    -1015     -928 
    -838     -754     -684     -621     -572     -541     -523     -506 
    -480     -448     -421     -426     -471     -544     -634     -730 
    -812     -872     -896     -885     -857     -828     -808     -799 
    -803     -815     -822     -816     -795     -756     -702     -646 
    -598     -554     -506     -442     -368     -294     -230     -190 
    -178     -187     -210     -241     -267     -287     -306     -329 
    -365     -409     -456     -507     -561     -614     -660     -707 
    -764     -830     -904     -977    -1028    -1043    -1016     -959 
    -888     -816     -757     -711     -681     -658     -633     -589 
    -525     -445     -359     -278     -225     -214     -238     -290 
    -361     -440     -510     -556     -577     -579     -561     -535 
    -515     -515     -538     -579     -637     -695     -733     -741 
    -718     -658     -585     -534     -526     -568     -646     -726 
    -787     -820     -823     -800     -765     -727     -700     -702 
    -735     -796     -877     -967    -1054    -1109    -1108    -1039 
    -913     -753     -594     -465     -392     -392     -450     -531 
    -603     -642     -631     -569     -464     -341     -233     -166 
    -156     -205     -297     -405     -491     -527     -503     -430 
    -348     -291     -284     -334     -430     -546     -648     -708 
    -718     -680     -614     -531     -459     -415     -415     -463 
    -552     -657     -756     -831     -884     -916     -935     -947 
    -954     -939     -899     -850     -804     -768     -747     -733 
    -718     -707     -699     -707     -735     -777     -820     -850 
    -846     -793     -695     -576     -476     -421     -427     -498 
    -606     -714     -793     -830     -808     -742     -657     -579 
    -526     -503     -503     -530     -579     -634     -681     -711 
    -722     -710     -681     -652     -637     -643     -670     -710 
    -746     -754     -716     -645     -562     -494     -460     -467 
    -496     -537     -572     -591     -599     -606     -611     -612 
    -610     -598     -572     -540     -504     -472     -450     -440 
    -437     -445     -469     -510     -571     -641     -696     -724 
    -720     -689     -652     -616     -596     -600     -616     -627 
    -626     -610     -579     -540     -498     -456     -430     -421 
    -421     -426     -434     -430     -411     -387     -365     -363 
    -388     -446     -523     -600     -658     -683     -669     -627 
    -576     -541     -531     -548     -588     -645     -712     -789 
    -862     -932     -994    -1036    -1046    -1016     -946     -847 
    -743     -650     -587     -554     -545     -550     -564     -580 
    -600     -626     -645     -646     -641     -626     -596     -560 
    -530     -511     -510     -527     -562     -600     -626     -638 
    -634     -610     -575     -542     -531     -552     -603     -664 
    -712     -727     -700     -638     -562     -502     -476     -491 
    -554     -657     -777     -886     -963     -999     -999     -965 
    -899     -815     -738     -681     -649     -638     -649     -680 
    -710     -719     -706     -668     -614     -558     -518     -496 
    -491     -494     -490     -464     -413     -345     -275     -221 
    -199     -214     -256     -329     -426     -525     -618     -708 
    -783     -831     -853     -849     -832     -830     -847     -877 
    -915     -953     -970     -965     -932     -869     -793     -722 
    -658     -607     -562     -517     -469     -409     -338     -287 
    -268     -282     -332     -403     -461     -500     -523     -522 
    -507     -498     -500     -523     -569     -626     -691     -757 
    -807     -832     -828     -804     -776     -761     -764     -788 
    -826     -859     -873     -853     -808     -751     -692     -641 
    -596     -548     -496     -449     -410     -396     -414     -445 
    -480     -506     -507     -481     -437     -384     -337     -306 
    -290     -284     -282     -284     -297     -318     -348     -394 
    -453     -522     -606     -688     -753     -792     -801     -789 
    -769     -751     -746     -757     -780     -810     -828     -834 
    -822     -805     -793     -791     -796     -811     -826     -831 
    -818     -781     -726     -657     -594     -541     -503     -486 
    -490     -519     -576     -645     -706     -758     -795     -810 
    -797     -769     -733     -699     -676     -665     -668     -681 
    -699     -711     -710     -700     -687     -668     -648     -622 
    -594     -562     -529     -488     -437     -371     -297     -221 
    -156     -117     -116     -164     -268     -418     -592     -762 
    -899     -980    -1001     -963     -885     -799     -729     -693 
    -688     -700     -720     -733     -730     -710     -669     -606 
    -527     -446     -375     -314     -278     -270     -288     -332 
    -398     -475     -556     -634     -699     -739     -758     -758 
    -747     -733     -726     -737     -765     -808     -858     -892 
    -901     -889     -850     -789     -716     -646     -600     -588 
    -603     -633     -657     -654     -619     -553     -469     -400 
    -369     -376     -421     -487     -557     -604     -615     -595 
    -558     -517     -486     -477     -487     -506     -533     -564 
    -584     -600     -618     -641     -673     -718     -773     -832 
    -882     -908     -891     -820     -719     -614     -529     -483 
    -494     -558     -650     -742     -807     -832     -826     -797 
    -757     -715     -683     -668     -664     -668     -677     -683 
    -687     -679     -653     -611     -557     -500     -463     -453 
    -477     -529     -588     -638     -664     -661     -635     -598 
    -550     -502     -465     -441     -432     -444     -471     -508 
    -556     -606     -648     -680     -692     -684     -665     -649 
    -641     -649     -677     -722     -772     -822     -864     -893 
    -918     -938     -955     -965     -955     -923     -874     -816 
    -758     -706     -662     -625     -583     -538     -488     -437 
    -387     -348     -326     -329     -353     -390     -427     -456 
    -463     -448     -414     -371     -328     -301     -299     -322 
    -363     -407     -445     -461     -448     -414     -373     -344 
    -329     -336     -372     -426     -486     -546     -599     -642 
    -677     -706     -726     -739     -746     -747     -734     -712 
    -685     -666     -665     -676     -692     -707     -708     -688 
    -642     -573     -500     -444     -405     -379     -371     -373 
    -388     -423     -480     -561     -677     -819     -969    -1107 
   -1213    -1274    -1289    -1259    -1197    -1123    -1050     -982 
    -919     -861     -801     -737     -670     -611     -558     -514 
    -473     -433     -392     -351     -310     -287     -286     -305 
    -353     -425     -511     -600     -673     -718     -730     -710 
    -665     -627     -598     -575     -565     -560     -557     -557 
    -558     -565     -580     -599     -625     -653     -685     -722 
    -753     -765     -753     -718     -670     -621     -588     -589 
    -619     -666     -716     -753     -772     -770     -753     -727 
    -695     -664     -639     -623     -610     -599     -589     -581 
    -575     -569     -560     -546     -542     -550     -572     -607 
    -646     -672     -683     -675     -642     -591     -533     -472 
    -430     -419     -438     -486     -550     -614     -669     -706 
    -718     -710     -685     -642     -588     -537     -488     -448 
    -426     -421     -432     -461     -502     -544     -591     -637 
    -680     -719     -753     -778     -797     -814     -828     -845 
    -854     -859     -861     -853     -830     -789     -735     -676 
    -614     -560     -526     -517     -526     -548     -575     -599 
    -614     -612     -592     -558     -523     -496     -480     -476 
    -491     -529     -581     -639     -693     -737     -766     -788 
    -797     -796     -784     -758     -719     -668     -608     -549 
    -502     -473     -472     -504     -560     -618     -653     -650 
    -610     -545     -477     -429     -402     -396     -413     -440 
    -463     -481     -500     -517     -538     -567     -604     -643 
    -680     -712     -735     -749     -751     -734     -702     -661 
    -618     -583     -567     -564     -571     -583     -587     -575 
    -548     -511     -472     -445     -438     -445     -461     -488 
    -515     -521     -513     -498     -480     -468     -471     -488 
    -521     -567     -621     -670     -714     -757     -800     -842 
    -886     -931     -970     -994    -1004     -992     -955     -897 
    -831     -765     -700     -642     -583     -522     -463     -409 
    -365     -349     -357     -384     -419     -459     -490     -504 
    -504     -495     -486     -480     -475     -479     -490     -498 
    -500     -503     -504     -506     -513     -526     -552     -596 
    -653     -715     -774     -830     -873     -903     -922     -928 
    -930     -927     -926     -931     -940     -947     -953     -959 
    -958     -938     -907     -865     -816     -770     -738     -724 
    -729     -746     -764     -765     -749     -708     -639     -561 
    -494     -444     -417     -415     -436     -469     -513     -564 
    -610     -638     -639     -610     -552     -477     -403     -342 
    -307     -306     -334     -382     -441     -504     -560     -603 
    -631     -642     -642     -633     -616     -595     -576     -554 
    -530     -503     -475     -449     -436     -429     -429     -430 
    -432     -432     -430     -429     -426     -427     -433     -448 
    -475     -510     -549     -591     -630     -665     -696     -722 
    -737     -749     -757     -757     -753     -750     -739     -724 
    -708     -693     -688     -693     -706     -729     -762     -800 
    -831     -847     -847     -820     -776     -727     -677     -639 
    -627     -634     -653     -675     -683     -668     -619     -545 
    -472     -411     -373     -372     -399     -441     -487     -523 
    -548     -561     -565     -571     -589     -619     -664     -718 
    -761     -780     -776     -749     -708     -662     -616     -579 
    -553     -535     -527     -530     -540     -552     -569     -588 
    -600     -606     -602     -584     -571     -572     -589     -625 
    -677     -730     -769     -791     -791     -776     -768     -769 
    -778     -796     -810     -805     -781     -731     -664     -596 
    -535     -481     -442     -419     -402     -383     -369     -361 
    -357     -359     -364     -379     -402     -426     -461     -515 
    -572     -629     -688     -737     -772     -803     -830     -849 
    -864     -878     -888     -889     -880     -864     -843     -820 
    -791     -754     -722     -691     -652     -614     -589     -577 
    -583     -602     -616     -622     -618     -598     -568     -541 
    -525     -525     -542     -565     -587     -607     -619     -625 
    -626     -627     -627     -630     -641     -650     -658     -665 
    -666     -656     -634     -595     -548     -502     -457     -419 
    -398     -394     -405     -432     -473     -525     -577     -627 
    -670     -699     -714     -716     -707     -696     -689     -680 
    -673     -672     -675     -683     -706     -739     -780     -822 
    -851     -866     -868     -851     -822     -785     -749     -720 
    -695     -666     -634     -600     -554     -503     -456     -415 
    -391     -387     -398     -418     -449     -479     -498     -510 
    -514     -518     -529     -544     -561     -577     -588     -594 
    -589     -575     -552     -527     -507     -498     -504     -521 
    -545     -571     -587     -589     -584     -575     -562     -549 
    -533     -513     -484     -452     -415     -379     -353     -342 
    -346     -363     -390     -423     -465     -513     -560     -607 
    -654     -697     -737     -773     -805     -834     -862     -884 
    -895     -896     -885     -869     -854     -843     -845     -859 
    -878     -900     -922     -934     -931     -912     -882     -851 
    -819     -791     -772     -765     -764     -762     -754     -739 
    -718     -693     -670     -653     -643     -642     -643     -641 
    -637     -635     -633     -625     -607     -584     -557     -529 
    -495     -456     -421     -392     -368     -349     -338     -336 
    -344     -361     -383     -407     -430     -446     -453     -450 
    -448     -453     -465     -486     -514     -542     -564     -579 
    -580     -564     -537     -506     -475     -448     -430     -429 
    -436     -448     -463     -480     -502     -529     -562     -603 
    -641     -673     -706     -730     -746     -761     -778     -795 
    -811     -827     -837     -835     -828     -815     -787     -758 
    -742     -730     -730     -747     -781     -826     -872     -913 
    -945     -953     -940     -911     -859     -800     -741     -683 
    -631     -592     -558     -531     -513     -496     -481     -465 
    -442     -415     -396     -387     -390     -409     -440     -477 
    -518     -550     -568     -575     -573     -565     -550     -541 
    -541     -550     -565     -581     -595     -606     -606     -592 
    -576     -560     -542     -533     -538     -553     -569     -592 
    -619     -639     -656     -668     -670     -670     -672     -676 
    -683     -697     -718     -737     -750     -762     -766     -758 
