Origin Time       2025/06/03 22:18:00
Lat.              41.7
Long.             143.6
Depth. (km)       30
Mag.              5.2
Station Code      ABSH13
Station Lat.      43.7419
Station Long.     143.4514
Station Height(m) 216
Record Time       2025/06/03 22:19:17
Sampling Freq(Hz) 100Hz
Duration Time(s)  120
Dir.              2
Scale Factor      3923(gal)/8224838
Max. Acc. (gal)   0.214
Last Correction   2025/06/03 22:19:18
Memo.             
[...]
    -880     -886     -895     -893     -893     -896     -899     -905 
    -919     -932     -940     -953     -972     -997    -1030    -1063 
   -1089    -1109    -1124    -1134    -1138    -1139    -1144    -1146 
   -1127    -1107    -1096    -1088    -1077    -1066    -1061    -1061 
   -1054    -1048    -1044    -1040    -1032    -1015     -990     -963 
    -942     -931     -936     -950     -957     -950     -939     -928 
    -913     -895     -880     -872     -870     -884     -912     -943 
    -967     -981     -978     -970     -963     -957     -953     -954 
    -954     -966     -989    -1004    -1008    -1012    -1011    -1007 
   -1009    -1016    -1026    -1042    -1048    -1047    -1042    -1032 
   -1021    -1007     -993     -986     -978     -966     -957     -954 
    -958     -962     -969     -982     -997    -1013    -1028    -1034 
   -1031    -1032    -1040    -1047    -1042    -1024    -1000     -980 
    -967     -962     -953     -943     -945     -961     -982     -999 
    -996     -985     -977     -974     -981     -996    -1017    -1043 
   -1061    -1071    -1077    -1069    -1050    -1032    -1016    -1003 
    -992     -982     -981     -986     -988     -990    -1003    -1011 
   -1004     -994     -990     -985     -977     -966     -953     -939 
    -924     -913     -911     -908     -896     -888     -885     -884 
    -897     -928     -967    -1000    -1020    -1034    -1047    -1053 
   -1051    -1055    -1067    -1074    -1074    -1075    -1074    -1059 
   -1043    -1028    -1012     -997     -985     -976     -970     -965 
    -958     -953     -950     -950     -946     -939     -931     -927 
    -936     -950     -962     -972     -982     -997    -1009    -1019 
   -1023    -1027    -1032    -1035    -1042    -1058    -1077    -1085 
   -1080    -1075    -1069    -1048    -1020    -1000     -992     -984 
    -970     -954     -947     -943     -938     -928     -922     -908 
    -885     -864     -846     -834     -828     -822     -815     -816 
    -831     -855     -874     -886     -897     -904     -897     -888 
    -888     -899     -911     -924     -939     -955     -962     -957 
    -954     -963     -978     -997    -1013    -1027    -1040    -1053 
   -1065    -1080    -1102    -1127    -1144    -1156    -1161    -1150 
   -1131    -1105    -1075    -1053    -1032    -1017    -1016    -1020 
   -1021    -1016    -1011    -1009    -1009    -1009    -1008    -1011 
   -1009    -1007    -1009    -1013    -1008    -1007    -1015    -1023 
   -1035    -1055    -1070    -1075    -1085    -1097    -1105    -1109 
   -1100    -1085    -1075    -1067    -1059    -1057    -1054    -1051 
   -1047    -1043    -1048    -1051    -1044    -1028    -1009     -992 
    -978     -967     -957     -943     -930     -913     -896     -881 
    -864     -849     -846     -847     -854     -866     -876     -881 
    -885     -885     -874     -859     -850     -851     -862     -876 
    -880     -876     -870     -857     -843     -850     -874     -901 
    -927     -955     -988    -1020    -1050    -1071    -1093    -1115 
   -1123    -1125    -1128    -1125    -1115    -1101    -1082    -1067 
   -1055    -1043    -1031    -1021    -1009     -997    -1000    -1017 
   -1036    -1043    -1031    -1003     -980     -970     -970     -978 
    -992    -1009    -1027    -1030    -1020    -1011    -1008    -1011 
   -1016    -1026    -1039    -1047    -1046    -1046    -1047    -1051 
   -1062    -1075    -1094    -1116    -1136    -1150    -1158    -1155 
   -1147    -1135    -1116    -1101    -1092    -1085    -1074    -1055 
   -1026     -993     -965     -945     -931     -920     -909     -891 
    -873     -861     -850     -842     -841     -837     -822     -804 
    -793     -785     -777     -780     -796     -822     -851     -874 
    -893     -913     -936     -959     -972     -963     -949     -942 
    -934     -924     -915     -907     -901     -901     -912     -927 
    -931     -926     -915     -897     -886     -891     -907     -931 
    -961     -984     -999    -1008    -1016    -1030    -1047    -1061 
   -1066    -1065    -1066    -1071    -1081    -1082    -1073    -1062 
   -1047    -1031    -1020    -1009     -993     -982     -980     -989 
   -1001    -1004    -1000    -1003    -1013    -1026    -1028    -1019 
    -996     -959     -918     -884     -866     -866     -884     -922 
    -974    -1023    -1051    -1062    -1048    -1011     -967     -935 
    -911     -900     -903     -916     -943     -982    -1019    -1047 
   -1063    -1061    -1038     -996     -950     -909     -882     -876 
    -891     -923     -965     -997    -1011    -1009    -1000     -997 
   -1012    -1043    -1089    -1128    -1140    -1127    -1104    -1080 
   -1054    -1028    -1012    -1013    -1038    -1081    -1138    -1181 
   -1192    -1179    -1159    -1123    -1078    -1040    -1017    -1007 
   -1001     -985     -969     -959     -958     -961     -955     -939 
    -927     -918     -911     -915     -923     -934     -949     -961 
    -965     -954     -923     -885     -861     -851     -857     -870 
    -881     -889     -900     -918     -939     -966     -994    -1021 
   -1053    -1078    -1085    -1086    -1094    -1105    -1115    -1129 
   -1134    -1109    -1066    -1034    -1016    -1000     -982     -961 
    -939     -931     -940     -959     -986    -1011    -1026    -1044 
   -1070    -1084    -1082    -1070    -1050    -1023     -994     -958 
    -911     -869     -854     -872     -907     -936     -945     -939 
    -928     -918     -911     -911     -920     -940     -962     -981 
    -997    -1012    -1021    -1023    -1020    -1015    -1012    -1016 
   -1011     -984     -957     -945     -949     -959     -967     -969 
    -963     -959     -962     -981    -1019    -1055    -1069    -1053 
   -1012     -953     -884     -831     -803     -785     -781     -811 
    -870     -938    -1009    -1081    -1144    -1189    -1205    -1189 
   -1155    -1111    -1065    -1027    -1004    -1000    -1023    -1065 
   -1100    -1111    -1098    -1078    -1053    -1011     -950     -889 
    -846     -827     -847     -909     -982    -1034    -1066    -1098 
   -1120    -1117    -1089    -1050    -1009     -974     -950     -939 
    -935     -938     -950     -966     -980     -986     -981     -965 
    -946     -930     -912     -895     -881     -877     -880     -882 
    -881     -866     -843     -826     -827     -851     -901     -959 
   -1011    -1055    -1097    -1128    -1139    -1136    -1120    -1089 
   -1044     -996     -954     -927     -922     -932     -942     -949 
    -961     -978     -997    -1009    -1004     -988     -978     -990 
   -1013    -1024    -1019    -1011    -1007    -1015    -1043    -1082 
   -1116    -1146    -1177    -1209    -1225    -1200    -1135    -1058 
    -988     -928     -889     -861     -828     -789     -758     -760 
    -793     -842     -893     -951    -1021    -1086    -1134    -1170 
   -1196    -1212    -1223    -1221    -1201    -1167    -1128    -1080 
   -1026     -973     -931     -896     -864     -828     -795     -773 
    -770     -774     -780     -800     -841     -893     -945     -980 
    -990     -985     -976     -973     -986    -1011    -1035    -1059 
   -1090    -1117    -1142    -1154    -1150    -1138    -1123    -1107 
   -1093    -1082    -1061    -1017     -959     -903     -862     -837 
    -814     -797     -795     -808     -837     -872     -913     -965 
   -1017    -1066    -1107    -1124    -1120    -1102    -1080    -1050 
   -1005     -951     -915     -911     -923     -926     -923     -922 
    -920     -916     -911     -909     -912     -911     -905     -904 
    -908     -927     -967    -1026    -1092    -1151    -1194    -1224 
   -1239    -1227    -1179    -1117    -1075    -1059    -1047    -1019 
    -974     -932     -904     -870     -839     -835     -854     -878 
    -900     -915     -926     -935     -950     -976    -1003    -1019 
   -1027    -1031    -1017     -984     -946     -915     -896     -889 
    -903     -939     -985    -1032    -1073    -1093    -1090    -1088 
   -1093    -1090    -1067    -1042    -1031    -1020     -999     -977 
    -972     -982    -1007    -1027    -1028    -1021    -1023    -1031 
   -1038    -1048    -1073    -1098    -1108    -1094    -1065    -1024 
    -981     -940     -905     -874     -847     -824     -799     -774 
    -750     -726     -708     -695     -695     -724     -784     -855 
    -924     -977    -1008    -1024    -1039    -1048    -1051    -1055 
   -1063    -1074    -1077    -1071    -1063    -1046    -1004     -945 
    -889     -853     -843     -861     -886     -908     -915     -895 
    -851     -814     -815     -859     -920     -982    -1042    -1094 
   -1142    -1190    -1251    -1310    -1341    -1354    -1354    -1341 
   -1331    -1329    -1336    -1352    -1364    -1354    -1314    -1255 
   -1174    -1084    -1011     -970     -943     -912     -886     -873 
    -865     -861     -858     -858     -866     -889     -920     -940 
    -946     -947     -950     -951     -951     -961     -977     -993 
   -1012    -1039    -1061    -1067    -1054    -1034    -1015     -985 
    -928     -857     -800     -773     -764     -770     -801     -851 
    -907     -950     -981    -1005    -1020    -1012     -981     -938 
    -891     -858     -855     -870     -885     -891     -885     -884 
    -903     -936     -959     -962     -955     -951     -947     -936 
    -927     -926     -920     -903     -882     -865     -855     -859 
    -865     -854     -834     -822     -827     -849     -878     -905 
    -916     -907     -880     -851     -834     -837     -859     -900 
    -958    -1021    -1084    -1139    -1179    -1206    -1213    -1205 
   -1194    -1181    -1158    -1135    -1140    -1175    -1223    -1264 
   -1285    -1274    -1232    -1174    -1108    -1043     -982     -930 
    -901     -905     -928     -953     -970     -966     -928     -873 
    -834     -822     -826     -837     -855     -882     -912     -943 
    -977    -1007    -1028    -1043    -1046    -1034    -1013     -996 
    -986     -986    -1000    -1031    -1063    -1085    -1107    -1132 
   -1166    -1209    -1244    -1256    -1250    -1232    -1206    -1183 
   -1166    -1152    -1146    -1140    -1132    -1129    -1136    -1136 
   -1127    -1125    -1124    -1100    -1062    -1019     -973     -934 
    -905     -891     -885     -870     -841     -799     -751     -715 
    -707     -720     -743     -773     -805     -830     -851     -885 
    -923     -947     -953     -947     -943     -942     -936     -926 
    -913     -899     -895     -908     -942     -973     -984     -982 
    -980     -972     -963     -958     -955     -961     -985    -1024 
   -1061    -1078    -1078    -1065    -1043    -1012     -977     -958 
    -963     -980     -997    -1013    -1028    -1028    -1000     -946 
    -888     -845     -823     -826     -841     -862     -884     -893 
    -889     -888     -896     -912     -935     -955     -972     -993 
   -1020    -1047    -1074    -1094    -1102    -1092    -1070    -1048 
   -1032    -1027    -1039    -1065    -1090    -1107    -1111    -1119 
   -1136    -1152    -1166    -1179    -1188    -1171    -1129    -1080 
   -1042    -1019    -1013    -1024    -1028    -1012     -993     -977 
    -961     -955     -965     -977     -981     -970     -953     -934 
    -926     -926     -924     -919     -919     -923     -924     -931 
    -953     -985    -1019    -1050    -1074    -1088    -1097    -1104 
   -1104    -1096    -1080    -1070    -1067    -1042     -980     -908 
    -847     -791     -729     -673     -634     -619     -633     -672 
    -724     -778     -828     -874     -908     -907     -873     -823 
    -780     -765     -773     -803     -859     -939    -1028    -1111 
   -1166    -1181    -1159    -1112    -1062    -1026    -1011    -1004 
    -996     -993    -1009    -1036    -1062    -1067    -1040     -982 
    -918     -872     -855     -866     -900     -940     -980    -1019 
   -1048    -1061    -1063    -1070    -1090    -1134    -1196    -1258 
   -1314    -1359    -1371    -1331    -1252    -1166    -1089    -1026 
    -981     -961     -953     -953     -959     -963     -961     -955 
    -954     -955     -957     -962     -967     -966     -966     -976 
    -996    -1019    -1036    -1057    -1078    -1096    -1115    -1143 
   -1165    -1171    -1182    -1186    -1161    -1108    -1047     -997 
    -959     -924     -895     -874     -855     -837     -828     -835 
    -862     -913     -972    -1024    -1069    -1104    -1134    -1161 
   -1177    -1177    -1162    -1143    -1113    -1073    -1043    -1036 
   -1032    -1030    -1027    -1008     -965     -911     -854     -803 
    -760     -726     -712     -727     -773     -853     -954    -1044 
   -1112    -1156    -1178    -1177    -1151    -1105    -1054     -999 
    -934     -855     -780     -722     -688     -673     -676     -700 
    -742     -780     -795     -795     -788     -774     -747     -720 
    -707     -715     -737     -766     -799     -824     -835     -841 
    -849     -864     -891     -927     -959     -978     -992    -1004 
   -1019    -1036    -1044    -1035    -1019    -1005    -1007    -1021 
   -1031    -1032    -1036    -1059    -1101    -1150    -1193    -1235 
   -1273    -1298    -1320    -1351    -1393    -1428    -1437    -1409 
   -1355    -1294    -1235    -1181    -1135    -1102    -1092    -1097 
   -1107    -1116    -1115    -1085    -1024     -957     -901     -862 
    -847     -855     -878     -912     -958    -1008    -1050    -1073 
   -1080    -1067    -1040    -1003     -955     -912     -886     -872 
    -865     -862     -858     -849     -832     -803     -764     -739 
    -741     -758     -784     -810     -832     -843     -851     -865 
    -882     -901     -918     -932     -951     -970     -982     -989 
    -996     -994     -985     -967     -949     -938     -931     -923 
    -915     -908     -893     -872     -845     -814     -781     -756 
    -746     -753     -780     -823     -877     -931     -976    -1004 
   -1023    -1040    -1055    -1070    -1084    -1100    -1117    -1129 
   -1142    -1158    -1162    -1147    -1127    -1109    -1090    -1069 
   -1055    -1063    -1086    -1112    -1129    -1129    -1112    -1085 
   -1059    -1042    -1044    -1075    -1136    -1206    -1264    -1306 
   -1321    -1297    -1243    -1181    -1125    -1080    -1047    -1034 
   -1038    -1047    -1055    -1065    -1077    -1085    -1085    -1078 
   -1078    -1085    -1093    -1102    -1116    -1127    -1129    -1125 
   -1116    -1102    -1088    -1059    -1005     -946     -900     -874 
    -868     -882     -918     -958     -989    -1003     -993     -967 
    -932     -892     -865     -868     -892     -927     -969    -1004 
   -1028    -1027    -1004     -984     -978     -978     -978     -974 
    -963     -950     -940     -932     -916     -891     -851     -800 
    -745     -691     -642     -608     -596     -592     -585     -581 
    -583     -595     -622     -658     -691     -714     -743     -796 
    -868     -940    -1003    -1053    -1093    -1125    -1156    -1185 
   -1205    -1217    -1220    -1216    -1200    -1173    -1140    -1104 
   -1066    -1036    -1013     -999     -986     -966     -932     -895 
    -861     -834     -823     -839     -877     -926     -990    -1071 
   -1139    -1183    -1209    -1215    -1213    -1212    -1210    -1210 
   -1200    -1169    -1135    -1105    -1080    -1058    -1038    -1015 
   -1001     -999    -1001    -1001     -997     -992     -992     -999 
    -996     -977     -953     -927     -908     -899     -901     -912 
    -926     -939     -963    -1003    -1043    -1071    -1086    -1092 
   -1089    -1073    -1043    -1011     -982     -951     -918     -892 
    -882     -882     -886     -884     -868     -849     -838     -831 
    -827     -823     -822     -826     -832     -841     -861     -895 
    -930     -963     -997    -1020    -1020    -1011    -1004    -1005 
   -1011    -1016    -1024    -1042    -1062    -1080    -1086    -1085 
   -1093    -1111    -1131    -1150    -1161    -1156    -1143    -1120 
   -1089    -1062    -1044    -1035    -1031    -1023    -1008     -996 
    -980     -953     -920     -881     -841     -814     -797     -789 
    -800     -820     -846     -877     -915     -961    -1015    -1075 
   -1131    -1173    -1204    -1221    -1224    -1220    -1210    -1193 
   -1170    -1147    -1136    -1135    -1128    -1111    -1092    -1080 
   -1069    -1055    -1042    -1016     -978     -935     -891     -850 
    -812     -780     -760     -753     -750     -754     -769     -793 
    -818     -839     -868     -903     -935     -963     -982     -986 
    -985     -990    -1003    -1013    -1013    -1007    -1005    -1009 
   -1008    -1004    -1003     -999     -989     -976     -965     -959 
    -955     -951     -949     -947     -947     -943     -932     -915 
    -901     -904     -919     -939     -958     -976     -985     -988 
    -982     -965     -943     -934     -934     -939     -953     -972 
    -999    -1031    -1061    -1086    -1108    -1132    -1155    -1165 
   -1158    -1155    -1158    -1161    -1165    -1179    -1202    -1219 
   -1225    -1225    -1221    -1213    -1200    -1186    -1186    -1196 
   -1193    -1185    -1185    -1193    -1201    -1208    -1215    -1219 
   -1216    -1202    -1179    -1144    -1090    -1031     -974     -913 
    -859     -824     -801     -788     -778     -766     -756     -749 
    -735     -724     -720     -720     -727     -745     -768     -781 
    -785     -783     -772     -757     -743     -737     -729     -718 
    -722     -737     -747     -750     -753     -754     -753     -749 
    -741     -731     -719     -711     -714     -726     -750     -789 
    -831     -878     -939     -999    -1048    -1090    -1124    -1152 
   -1178    -1197    -1216    -1239    -1260    -1283    -1300    -1308 
   -1310    -1305    -1286    -1266    -1256    -1258    -1258    -1260 
   -1266    -1264    -1247    -1223    -1201    -1175    -1143    -1104 
   -1055    -1013     -980     -945     -919     -913     -918     -924 
    -927     -927     -926     -916     -903     -889     -877     -874 
    -878     -880     -878     -882     -892     -909     -932     -959 
    -985    -1000     -999     -982     -950     -905     -858     -819 
    -791     -769     -761     -764     -772     -783     -797     -819 
    -847     -872     -888     -903     -912     -919     -924     -930 
    -947     -977    -1011    -1046    -1075    -1088    -1094    -1107 
   -1117    -1123    -1115    -1092    -1066    -1038    -1009     -990 
    -981     -976     -976     -981     -990    -1004    -1007     -997 
    -988     -980     -969     -961     -969     -981     -989    -1004 
   -1020    -1034    -1047    -1062    -1074    -1078    -1080    -1078 
   -1075    -1078    -1088    -1100    -1115    -1128    -1143    -1151 
   -1154    -1161    -1177    -1196    -1213    -1229    -1243    -1247 
   -1240    -1228    -1216    -1202    -1193    -1197    -1197    -1188 
