Origin Time       2025/06/03 22:18:00
Lat.              41.7
Long.             143.6
Depth. (km)       30
Mag.              5.2
Station Code      ABSH07
Station Lat.      43.8494
Station Long.     143.0861
Station Height(m) 572
Record Time       2025/06/03 22:19:46
Sampling Freq(Hz) 100Hz
Duration Time(s)  120
Dir.              2
Scale Factor      2942(gal)/8224139
Max. Acc. (gal)   0.139
Last Correction   2025/06/03 22:19:47
Memo.             
[...]
  127013   126985   126954   126921   126883   126855   126829   126808 
  126802   126814   126832   126846   126844   126827   126794   126754 
  126719   126693   126670   126651   126640   126639   126642   126647 
  126655   126674   126694   126705   126715   126721   126720   126720 
  126725   126721   126712   126706   126706   126713   126735   126767 
  126794   126817   126832   126829   126808   126771   126729   126701 
  126690   126689   126698   126721   126748   126766   126775   126777 
  126781   126796   126825   126867   126908   126940   126963   126975 
  126975   126971   126971   126974   126982   126997   127026   127063 
  127103   127137   127156   127156   127132   127089   127051   127029 
  127018   127022   127037   127048   127051   127055   127057   127048 
  127033   127022   127014   127008   127005   127008   127017   127022 
  127017   127008   126991   126968   126940   126912   126885   126867 
  126854   126832   126808   126789   126778   126771   126767   126765 
  126765   126767   126771   126771   126769   126754   126727   126704 
  126690   126681   126685   126700   126717   126731   126740   126744 
  126742   126739   126744   126756   126769   126785   126804   126819 
  126829   126833   126832   126821   126806   126794   126787   126792 
  126800   126801   126802   126800   126796   126796   126796   126805 
  126824   126836   126852   126874   126886   126893   126901   126906 
  126908   126917   126931   126937   126948   126956   126954   126945 
  126932   126900   126859   126824   126796   126779   126778   126790 
  126810   126831   126847   126856   126860   126863   126862   126860 
  126864   126868   126874   126874   126871   126868   126866   126863 
  126863   126852   126829   126806   126785   126769   126762   126762 
  126765   126770   126777   126782   126786   126786   126781   126769 
  126758   126746   126727   126711   126697   126685   126681   126684 
  126694   126709   126721   126731   126744   126760   126782   126797 
  126808   126823   126836   126843   126848   126847   126840   126839 
  126841   126843   126844   126847   126851   126851   126851   126846 
  126831   126825   126825   126828   126843   126867   126889   126914 
  126945   126959   126958   126964   126972   126971   126967   126964 
  126958   126945   126931   126916   126895   126871   126854   126854 
  126860   126871   126900   126936   126960   126986   127018   127041 
  127062   127082   127084   127071   127053   127024   126981   126932 
  126881   126828   126786   126765   126754   126758   126782   126814 
  126839   126862   126881   126879   126863   126847   126839   126837 
  126844   126864   126887   126902   126912   126918   126922   126927 
  126925   126916   126905   126894   126886   126886   126889   126894 
  126895   126890   126883   126877   126868   126868   126868   126864 
  126858   126839   126817   126800   126782   126774   126785   126806 
  126825   126841   126860   126882   126909   126933   126941   126941 
  126937   126932   126924   126910   126897   126893   126891   126893 
  126891   126877   126852   126833   126814   126794   126777   126760 
  126742   126720   126696   126675   126658   126647   126646   126652 
  126666   126682   126701   126729   126756   126777   126805   126833 
  126856   126885   126914   126943   126975   127006   127036   127059 
  127075   127084   127079   127063   127045   127026   127009   126997 
  126982   126962   126951   126945   126937   126933   126931   126924 
  126916   126909   126895   126877   126860   126851   126846   126847 
  126848   126843   126832   126824   126816   126809   126810   126814 
  126813   126800   126785   126773   126763   126754   126750   126748 
  126744   126735   126729   126732   126735   126732   126729   126729 
  126728   126729   126743   126762   126779   126800   126814   126824 
  126829   126824   126814   126813   126810   126800   126785   126777 
  126773   126760   126746   126740   126742   126746   126755   126769 
  126787   126808   126831   126856   126877   126886   126894   126898 
  126900   126902   126909   126927   126954   126981   127005   127032 
  127047   127053   127056   127057   127053   127051   127052   127053 
  127049   127041   127030   127022   127014   127012   127008   126999 
  126994   126982   126970   126971   126979   126986   126991   126994 
  126991   126985   126970   126952   126933   126913   126894   126881 
  126864   126844   126829   126816   126794   126769   126746   126725 
  126706   126694   126688   126682   126677   126677   126674   126670 
  126671   126675   126681   126690   126711   126739   126763   126789 
  126816   126835   126850   126859   126851   126837   126833   126827 
  126820   126825   126831   126831   126833   126835   126829   126821 
  126809   126790   126778   126769   126751   126725   126711   126704 
  126701   126705   126720   126735   126748   126762   126782   126812 
  126851   126886   126913   126933   126948   126960   126967   126967 
  126959   126947   126939   126937   126940   126935   126937   126948 
  126954   126959   126960   126963   126967   126964   126954   126945 
  126932   126908   126882   126856   126833   126820   126813   126809 
  126809   126819   126828   126832   126831   126836   126847   126855 
  126863   126877   126889   126895   126910   126928   126943   126962 
  126976   126981   126989   126991   126985   126974   126964   126958 
  126949   126940   126936   126927   126910   126897   126882   126867 
  126855   126843   126824   126801   126783   126774   126769   126769 
  126773   126773   126775   126771   126758   126747   126742   126736 
  126736   126744   126759   126774   126785   126796   126804   126812 
  126821   126832   126850   126868   126881   126883   126879   126871 
  126863   126858   126851   126841   126833   126833   126832   126824 
  126819   126820   126820   126824   126831   126833   126837   126839 
  126832   126825   126817   126809   126806   126806   126809   126813 
  126820   126825   126833   126844   126848   126847   126846   126844 
  126847   126856   126868   126878   126887   126897   126905   126914 
  126925   126936   126941   126943   126939   126936   126936   126936 
  126937   126948   126959   126966   126979   126991   126995   126999 
  126997   126985   126978   126972   126964   126954   126944   126937 
  126933   126929   126924   126913   126904   126894   126886   126879 
  126871   126858   126848   126844   126837   126824   126813   126798 
  126778   126758   126740   126723   126702   126690   126681   126659 
  126635   126619   126603   126594   126596   126590   126584   126581 
  126580   126582   126589   126594   126615   126644   126669   126701 
  126742   126773   126798   126821   126839   126851   126858   126860 
  126859   126852   126843   126827   126809   126796   126786   126787 
  126794   126794   126793   126797   126800   126810   126828   126846 
  126859   126878   126902   126933   126967   126991   127010   127028 
  127039   127047   127055   127057   127062   127070   127071   127074 
  127078   127075   127068   127072   127075   127075   127076   127075 
  127075   127071   127059   127043   127022   126994   126976   126967 
  126956   126949   126948   126951   126951   126940   126922   126912 
  126897   126879   126867   126859   126852   126839   126824   126810 
  126793   126769   126746   126720   126696   126678   126662   126650 
  126640   126628   126624   126635   126639   126642   126646   126643 
  126642   126639   126632   126628   126631   126638   126646   126650 
  126658   126673   126686   126700   126715   126735   126755   126773 
  126792   126812   126835   126852   126864   126878   126891   126901 
  126912   126925   126937   126948   126959   126966   126971   126976 
  126976   126975   126975   126962   126944   126927   126905   126886 
  126871   126856   126846   126836   126824   126813   126808   126801 
  126801   126808   126819   126837   126850   126854   126860   126862 
  126858   126858   126858   126858   126858   126855   126848   126840 
  126836   126832   126824   126825   126829   126827   126828   126837 
  126841   126850   126864   126873   126883   126895   126904   126912 
  126924   126935   126941   126948   126956   126963   126963   126963 
  126964   126963   126958   126954   126956   126960   126963   126966 
  126964   126956   126947   126940   126939   126939   126945   126952 
  126958   126960   126960   126960   126960   126958   126955   126952 
  126945   126939   126937   126937   126937   126940   126939   126935 
  126936   126941   126941   126935   126933   126932   126922   126918 
  126918   126921   126925   126928   126927   126925   126921   126912 
  126901   126889   126875   126867   126867   126868   126868   126867 
  126864   126860   126852   126846   126828   126804   126790   126778 
  126759   126744   126735   126724   126709   126692   126674   126658 
  126643   126627   126608   126597   126592   126586   126582   126577 
  126567   126567   126577   126588   126603   126625   126647   126673 
  126702   126729   126756   126786   126813   126839   126863   126889 
  126913   126936   126960   126981   126987   126986   126983   126976 
  126962   126943   126931   126920   126901   126887   126886   126885 
  126883   126883   126886   126894   126905   126910   126917   126927 
  126928   126932   126943   126948   126952   126963   126967   126970 
  126975   126974   126970   126972   126975   126975   126976   126975 
  126968   126966   126963   126955   126947   126937   126929   126925 
  126918   126906   126894   126886   126871   126856   126850   126839 
  126820   126805   126790   126770   126754   126744   126735   126729 
  126727   126723   126724   126729   126735   126738   126740   126746 
  126752   126756   126756   126760   126763   126759   126763   126769 
  126771   126775   126779   126779   126782   126783   126789   126804 
  126819   126833   126858   126881   126895   126912   126928   126940 
  126947   126955   126968   126981   126990   127003   127016   127025 
  127033   127039   127039   127029   127018   127010   126993   126970 
  126955   126943   126921   126897   126878   126864   126851   126835 
  126821   126808   126796   126775   126752   126738   126720   126698 
  126684   126677   126673   126671   126673   126681   126692   126700 
  126712   126728   126739   126751   126763   126769   126778   126786 
  126790   126800   126808   126812   126819   126820   126819   126825 
  126837   126851   126863   126882   126902   126917   126932   126949 
  126963   126975   126990   126997   126997   126997   126995   126990 
  126979   126968   126960   126951   126944   126943   126939   126936 
  126936   126939   126939   126936   126933   126929   126920   126908 
  126897   126882   126866   126855   126844   126831   126821   126810 
  126800   126793   126782   126766   126751   126733   126723   126717 
  126713   126709   126711   126717   126725   126732   126738   126748 
  126766   126771   126771   126782   126790   126790   126792   126797 
  126804   126813   126819   126820   126825   126835   126840   126836 
  126835   126835   126833   126837   126848   126852   126855   126866 
  126875   126881   126891   126897   126901   126912   126917   126916 
  126916   126918   126917   126917   126924   126931   126936   126945 
  126954   126962   126968   126970   126968   126966   126964   126960 
  126952   126954   126952   126944   126940   126943   126943   126943 
  126945   126943   126935   126931   126928   126927   126925   126921 
  126922   126924   126925   126924   126922   126921   126917   126912 
  126909   126908   126904   126898   126898   126905   126912   126917 
  126927   126933   126936   126935   126929   126921   126912   126900 
  126891   126887   126877   126858   126843   126825   126801   126781 
  126762   126736   126709   126685   126659   126631   126601   126576 
  126550   126538   126534   126528   126531   126546   126558   126571 
  126590   126611   126634   126657   126679   126708   126736   126762 
  126789   126810   126829   126856   126875   126886   126902   126920 
  126931   126939   126948   126952   126949   126945   126935   126921 
  126909   126890   126867   126847   126820   126786   126759   126736 
  126706   126684   126671   126659   126651   126650   126650   126650 
  126648   126648   126659   126679   126697   126711   126735   126760 
  126777   126794   126814   126831   126846   126859   126871   126891 
  126913   126924   126928   126941   126951   126955   126958   126960 
  126964   126972   126978   126983   126991   126998   127006   127016 
  127024   127039   127056   127067   127079   127094   127106   127113 
  127114   127109   127098   127093   127083   127067   127056   127047 
  127036   127028   127024   127018   127014   127013   127013   127012 
  127010   127012   127012   127009   127003   127001   127005   127002 
  126998   126999   126995   126987   126978   126967   126955   126941 
  126929   126920   126913   126909   126904   126900   126901   126895 
  126889   126886   126882   126878   126873   126860   126844   126828 
  126813   126794   126773   126754   126738   126717   126693   126669 
  126642   126609   126581   126557   126539   126523   126509   126500 
  126492   126488   126480   126470   126468   126468   126469   126478 
  126485   126493   126508   126522   126530   126542   126554   126563 
  126570   126581   126594   126609   126623   126640   126657   126673 
  126690   126708   126729   126751   126774   126800   126821   126844 
  126871   126895   126917   126939   126964   126986   127005   127025 
  127043   127059   127079   127094   127103   127120   127130   127136 
  127138   127132   127122   127113   127103   127097   127090   127075 
  127060   127047   127035   127022   127009   127002   127002   126999 
  126998   126993   126989   126987   126982   126971   126954   126941 
  126935   126921   126905   126901   126898   126889   126883   126885 
  126882   126879   126881   126879   126875   126874   126873   126870 
  126868   126871   126873   126875   126879   126875   126868   126868 
  126867   126864   126863   126866   126871   126873   126877   126881 
  126886   126893   126893   126891   126901   126906   126904   126904 
  126910   126917   126916   126914   126918   126917   126918   126921 
  126920   126920   126929   126935   126936   126941   126945   126948 
  126951   126951   126952   126949   126940   126935   126933   126925 
  126912   126900   126894   126886   126878   126873   126866   126856 
  126848   126839   126827   126817   126805   126787   126775   126766 
  126751   126738   126728   126717   126706   126697   126681   126670 
  126661   126647   126640   126640   126634   126630   126628   126627 
  126628   126627   126624   126625   126630   126631   126632   126636 
  126642   126647   126657   126673   126689   126705   126723   126742 
  126762   126779   126794   126810   126820   126827   126836   126843 
  126848   126856   126858   126860   126867   126871   126875   126883 
  126883   126881   126886   126889   126889   126889   126887   126889 
  126889   126890   126890   126887   126890   126894   126890   126889 
  126886   126881   126875   126868   126863   126866   126867   126864 
  126864   126871   126878   126881   126886   126894   126902   126910 
  126917   126925   126937   126954   126964   126971   126981   126987 
  126989   126993   126998   126997   126994   126995   126989   126976 
  126967   126956   126943   126931   126917   126904   126893   126877 
  126862   126858   126852   126843   126836   126835   126837   126841 
  126844   126851   126863   126868   126878   126895   126904   126909 
  126922   126933   126940   126952   126963   126971   126978   126985 
  126993   126995   126993   126993   126991   126985   126974   126963 
  126949   126937   126929   126917   126901   126895   126893   126887 
  126887   126889   126885   126885   126883   126875   126868   126863 
  126854   126841   126833   126827   126820   126809   126801   126798 
  126787   126771   126759   126744   126728   126716   126704   126692 
  126684   126678   126673   126669   126667   126674   126682   126693 
  126706   126716   126732   126752   126767   126782   126801   126812 
  126817   126829   126847   126859   126868   126881   126893   126905 
  126912   126917   126922   126925   126924   126922   126925   126927 
  126925   126927   126931   126928   126918   126912   126910   126902 
  126890   126878   126867   126858   126847   126833   126820   126812 
  126806   126794   126783   126777   126765   126748   126739   126733 
  126724   126716   126711   126702   126694   126685   126673   126662 
  126654   126647   126644   126644   126643   126639   126640   126647 
  126655   126665   126674   126689   126704   126715   126725   126736 
  126744   126755   126769   126778   126792   126801   126808   126813 
  126820   126827   126831   126829   126831   126835   126833   126831 
  126828   126825   126820   126817   126816   126812   126812   126813 
  126813   126816   126821   126827   126836   126848   126859   126873 
  126886   126900   126908   126916   126929   126943   126949   126955 
  126967   126975   126986   126997   127002   127008   127014   127020 
  127024   127024   127022   127022   127025   127025   127018   127010 
  127006   127002   126994   126987   126983   126982   126976   126974 
  126971   126966   126960   126952   126937   126927   126921   126914 
  126904   126894   126887   126879   126868   126862   126856   126847 
  126843   126841   126837   126833   126831   126827   126829   126829 
  126825   126827   126828   126824   126827   126835   126843   126851 
  126862   126873   126883   126897   126913   126927   126939   126949 
  126959   126966   126972   126979   126982   126983   126986   126989 
  126993   126994   126994   127003   127010   127006   127005   127009 
  127010   127003   126999   126999   126995   126987   126985   126981 
  126974   126968   126963   126955   126945   126941   126935   126924 
  126914   126905   126898   126893   126882   126866   126852   126841 
  126828   126808   126793   126782   126766   126752   126746   126740 
  126733   126727   126728   126729   126727   126731   126739   126740 
  126743   126751   126756   126760   126767   126775   126785   126792 
  126796   126800   126801   126805   126809   126804   126804   126806 
  126800   126796   126794   126789   126782   126773   126765   126756 
  126750   126746   126739   126729   126723   126721   126721   126717 
  126717   126717   126711   126708   126712   126716   126717   126720 
  126720   126724   126725   126717   126711   126709   126702   126690 
  126681   126677   126673   126665   126658   126651   126647   126646 
  126646   126650   126657   126659   126669   126682   126693   126704 
  126721   126743   126758   126774   126797   126821   126844   126870 
  126891   126906   126927   126952   126974   126991   127006   127024 
  127045   127057   127064   127076   127086   127093   127101   127107 
