Origin Time       2025/06/03 22:18:00
Lat.              41.7
Long.             143.6
Depth. (km)       30
Mag.              5.2
Station Code      ABSH06
Station Lat.      44.2146
Station Long.     143.6202
Station Height(m) 7
Record Time       2025/06/03 22:19:48
Sampling Freq(Hz) 100Hz
Duration Time(s)  120
Dir.              6
Scale Factor      3920(gal)/6170801
Max. Acc. (gal)   0.202
Last Correction   2025/06/03 22:19:33
Memo.             
[...]
   26416    26405    26391    26378    26369    26359    26346    26336 
   26330    26324    26322    26319    26316    26315    26311    26305 
   26301    26297    26291    26286    26281    26274    26267    26257 
   26245    26238    26232    26226    26219    26210    26201    26188 
   26174    26163    26156    26151    26151    26151    26149    26148 
   26147    26148    26152    26157    26158    26156    26156    26162 
   26168    26171    26177    26183    26187    26192    26195    26199 
   26206    26214    26223    26236    26249    26261    26274    26289 
   26304    26319    26336    26352    26372    26392    26413    26433 
   26454    26474    26491    26504    26513    26520    26525    26531 
   26540    26547    26553    26560    26562    26564    26571    26579 
   26584    26590    26600    26612    26622    26629    26632    26633 
   26633    26632    26630    26623    26613    26602    26592    26576 
   26556    26534    26509    26483    26456    26430    26406    26386 
   26365    26344    26324    26304    26284    26266    26250    26235 
   26223    26216    26210    26205    26201    26196    26189    26183 
   26175    26162    26147    26131    26114    26099    26090    26085 
   26082    26083    26087    26094    26101    26108    26117    26125 
   26135    26150    26168    26185    26201    26219    26238    26258 
   26277    26295    26310    26324    26338    26353    26369    26385 
   26399    26411    26423    26433    26439    26443    26447    26450 
   26452    26451    26446    26440    26434    26424    26414    26408 
   26401    26393    26386    26376    26365    26356    26349    26346 
   26347    26346    26346    26345    26344    26343    26342    26340 
   26335    26327    26317    26306    26296    26290    26284    26278 
   26272    26265    26257    26250    26243    26235    26227    26222 
   26223    26228    26236    26245    26256    26269    26282    26292 
   26303    26313    26323    26333    26346    26359    26372    26383 
   26392    26402    26412    26421    26431    26440    26443    26444 
   26447    26448    26445    26441    26437    26434    26431    26427 
   26424    26421    26414    26408    26404    26395    26383    26376 
   26365    26354    26344    26335    26323    26310    26295    26283 
   26275    26268    26261    26256    26251    26246    26241    26239 
   26241    26244    26247    26249    26251    26256    26266    26281 
   26299    26320    26342    26363    26385    26407    26425    26441 
   26457    26471    26487    26503    26515    26527    26535    26537 
   26536    26531    26522    26515    26509    26505    26501    26496 
   26486    26477    26470    26461    26448    26436    26422    26406 
   26392    26375    26359    26346    26331    26310    26290    26269 
   26246    26223    26205    26191    26174    26161    26152    26141 
   26132    26126    26122    26120    26124    26132    26143    26155 
   26166    26179    26194    26205    26216    26231    26247    26260 
   26275    26291    26305    26317    26328    26338    26347    26354 
   26361    26365    26366    26364    26362    26362    26360    26351 
   26343    26341    26341    26344    26348    26348    26348    26351 
   26355    26356    26362    26372    26382    26388    26390    26390 
   26387    26382    26377    26375    26375    26376    26383    26395 
   26406    26414    26422    26428    26435    26443    26448    26453 
   26455    26455    26453    26451    26448    26445    26440    26438 
   26442    26445    26444    26445    26444    26439    26434    26427 
   26418    26407    26397    26387    26372    26359    26348    26336 
   26326    26314    26299    26285    26271    26258    26245    26234 
   26222    26210    26200    26191    26183    26178    26174    26169 
   26167    26168    26173    26179    26183    26190    26194    26199 
   26206    26211    26215    26220    26223    26227    26232    26237 
   26241    26245    26248    26255    26267    26279    26291    26309 
   26328    26343    26361    26378    26391    26404    26414    26423 
   26430    26434    26438    26444    26448    26450    26452    26457 
   26462    26466    26474    26482    26488    26492    26495    26497 
   26496    26489    26483    26475    26458    26440    26423    26401 
   26378    26357    26337    26317    26300    26287    26277    26271 
   26268    26265    26262    26260    26258    26259    26261    26266 
   26274    26286    26297    26310    26325    26336    26343    26352 
   26363    26369    26372    26376    26376    26375    26375    26377 
   26381    26383    26380    26379    26376    26368    26358    26353 
   26349    26343    26337    26337    26337    26332    26327    26324 
   26320    26315    26309    26302    26294    26288    26284    26278 
   26275    26273    26269    26265    26262    26259    26261    26264 
   26268    26271    26271    26267    26267    26267    26265    26263 
   26268    26275    26280    26284    26292    26299    26301    26306 
   26313    26320    26328    26338    26345    26353    26361    26366 
   26371    26376    26381    26387    26391    26396    26404    26410 
   26411    26413    26417    26420    26422    26422    26419    26414 
   26408    26399    26390    26380    26370    26360    26355    26350 
   26342    26337    26331    26323    26315    26311    26307    26303 
   26304    26306    26303    26300    26303    26302    26298    26299 
   26303    26309    26315    26322    26328    26338    26348    26358 
   26370    26383    26397    26411    26426    26440    26455    26470 
   26481    26490    26498    26502    26503    26502    26501    26496 
   26488    26480    26470    26458    26446    26435    26423    26410 
   26395    26378    26366    26358    26350    26340    26331    26324 
   26317    26309    26301    26294    26290    26287    26287    26290 
   26294    26296    26299    26302    26304    26302    26299    26299 
   26300    26299    26297    26299    26301    26301    26304    26305 
   26301    26300    26301    26299    26297    26298    26299    26293 
   26286    26279    26269    26259    26252    26245    26240    26238 
   26234    26231    26232    26233    26234    26238    26245    26252 
   26258    26267    26278    26287    26293    26297    26302    26307 
   26310    26311    26312    26311    26308    26304    26302    26297 
   26290    26282    26274    26264    26255    26247    26241    26238 
   26234    26232    26231    26230    26231    26231    26233    26238 
   26243    26246    26252    26261    26270    26278    26284    26290 
   26296    26302    26309    26316    26321    26329    26343    26356 
   26363    26371    26382    26393    26405    26417    26429    26441 
   26451    26460    26467    26473    26479    26482    26486    26492 
   26496    26496    26499    26502    26500    26499    26495    26488 
   26483    26474    26462    26452    26441    26429    26423    26417 
   26405    26395    26387    26378    26372    26366    26355    26343 
   26334    26328    26324    26323    26325    26326    26323    26323 
   26325    26325    26326    26330    26338    26346    26352    26356 
   26363    26368    26367    26365    26362    26358    26354    26350 
   26346    26346    26346    26344    26347    26351    26352    26356 
   26363    26366    26366    26367    26367    26364    26359    26356 
   26352    26347    26343    26338    26334    26330    26327    26319 
   26311    26310    26310    26308    26310    26312    26308    26303 
   26302    26302    26297    26291    26289    26285    26281    26275 
   26270    26266    26259    26250    26245    26240    26234    26228 
   26227    26228    26228    26229    26232    26232    26235    26242 
   26253    26269    26285    26301    26319    26336    26350    26364 
   26381    26393    26400    26407    26415    26421    26427    26433 
   26436    26436    26433    26429    26425    26424    26421    26419 
   26422    26423    26419    26416    26414    26411    26411    26410 
   26407    26406    26404    26395    26387    26378    26367    26357 
   26348    26339    26336    26331    26323    26317    26311    26304 
   26299    26294    26288    26282    26277    26275    26272    26264 
   26257    26252    26251    26255    26254    26256    26260    26261 
   26264    26277    26288    26297    26309    26321    26331    26339 
   26343    26348    26356    26362    26366    26371    26374    26377 
   26377    26375    26374    26371    26364    26359    26354    26344 
   26336    26329    26322    26314    26303    26292    26282    26273 
   26263    26256    26255    26255    26254    26257    26263    26268 
   26271    26273    26279    26286    26290    26297    26305    26311 
   26318    26328    26339    26349    26358    26370    26380    26386 
   26390    26394    26397    26396    26394    26392    26387    26382 
   26377    26370    26363    26357    26352    26347    26340    26337 
   26337    26338    26338    26344    26350    26353    26357    26363 
   26364    26362    26360    26353    26345    26342    26337    26326 
   26314    26305    26295    26283    26272    26264    26260    26259 
   26257    26255    26255    26257    26259    26264    26273    26284 
   26295    26307    26320    26333    26347    26358    26371    26385 
   26398    26407    26415    26422    26427    26429    26432    26437 
   26440    26440    26440    26438    26436    26433    26429    26428 
   26431    26434    26436    26440    26443    26447    26450    26454 
   26460    26465    26468    26471    26473    26472    26472    26473 
   26475    26479    26481    26480    26478    26475    26471    26464 
   26454    26445    26436    26422    26409    26398    26382    26365 
   26350    26334    26319    26305    26289    26273    26257    26243 
   26229    26215    26202    26191    26177    26165    26155    26149 
   26143    26140    26140    26141    26141    26143    26146    26148 
   26151    26154    26160    26167    26171    26175    26180    26180 
   26180    26187    26192    26197    26207    26219    26229    26242 
   26259    26272    26284    26296    26308    26319    26329    26336 
   26344    26352    26358    26364    26369    26374    26379    26382 
   26385    26388    26391    26396    26401    26404    26408    26414 
   26420    26423    26424    26426    26432    26437    26435    26433 
   26431    26429    26428    26427    26426    26426    26425    26423 
   26424    26423    26420    26419    26421    26422    26422    26423 
   26423    26423    26421    26419    26418    26416    26413    26413 
   26413    26414    26416    26417    26417    26421    26423    26425 
   26427    26430    26432    26434    26433    26429    26425    26421 
   26414    26406    26398    26388    26376    26365    26355    26343 
   26331    26321    26313    26305    26298    26290    26282    26272 
   26261    26248    26235    26223    26210    26197    26186    26176 
   26168    26161    26150    26142    26141    26138    26135    26133 
   26133    26135    26136    26134    26137    26144    26150    26155 
   26157    26160    26163    26164    26166    26169    26171    26175 
   26178    26177    26177    26175    26173    26172    26175    26177 
   26179    26186    26198    26207    26217    26233    26251    26267 
   26288    26310    26331    26351    26371    26392    26412    26429 
   26445    26460    26474    26489    26502    26514    26527    26539 
   26548    26557    26567    26577    26585    26593    26601    26609 
   26617    26622    26625    26629    26631    26631    26630    26629 
   26625    26620    26616    26610    26601    26593    26586    26578 
   26569    26561    26553    26545    26535    26525    26513    26501 
   26488    26470    26451    26436    26417    26398    26381    26361 
   26339    26318    26300    26284    26268    26254    26242    26230 
   26221    26215    26209    26204    26200    26194    26189    26186 
   26182    26179    26179    26179    26180    26181    26180    26182 
   26185    26184    26187    26190    26190    26192    26196    26197 
   26198    26202    26206    26209    26211    26215    26219    26220 
   26220    26220    26220    26220    26220    26222    26221    26218 
   26216    26215    26209    26206    26205    26200    26194    26189 
   26185    26185    26186    26183    26182    26185    26191    26197 
   26205    26215    26226    26237    26249    26262    26276    26290 
   26304    26320    26337    26353    26370    26385    26400    26418 
   26435    26450    26464    26478    26490    26500    26509    26518 
   26526    26532    26535    26539    26540    26537    26531    26528 
   26525    26519    26512    26506    26499    26491    26481    26470 
   26462    26452    26441    26431    26418    26405    26396    26389 
   26384    26380    26376    26372    26370    26372    26377    26382 
   26392    26406    26418    26431    26448    26462    26474    26487 
   26498    26505    26510    26513    26515    26512    26505    26497 
   26487    26474    26462    26448    26431    26415    26400    26385 
   26370    26356    26343    26328    26314    26299    26284    26272 
   26262    26250    26238    26226    26209    26193    26180    26166 
   26151    26137    26123    26106    26092    26080    26067    26055 
   26046    26039    26032    26026    26022    26021    26023    26025 
   26033    26045    26056    26066    26079    26093    26107    26124 
   26141    26156    26169    26187    26205    26218    26232    26247 
   26262    26277    26291    26304    26318    26334    26350    26365 
   26380    26395    26410    26423    26437    26452    26464    26474 
   26486    26499    26506    26512    26520    26526    26531    26533 
   26535    26537    26540    26539    26536    26534    26534    26534 
   26531    26528    26528    26526    26523    26521    26519    26519 
   26521    26520    26517    26517    26513    26507    26501    26491 
   26480    26471    26462    26450    26440    26429    26419    26409 
   26399    26390    26383    26376    26370    26366    26362    26358 
   26357    26358    26355    26349    26343    26340    26338    26335 
   26333    26330    26322    26317    26313    26308    26299    26287 
   26277    26266    26256    26250    26240    26232    26224    26216 
   26211    26207    26203    26200    26198    26198    26201    26204 
   26206    26209    26215    26219    26220    26225    26229    26235 
   26243    26250    26253    26256    26259    26261    26263    26264 
   26260    26257    26256    26254    26253    26253    26256    26257 
   26258    26262    26265    26266    26270    26280    26289    26295 
   26301    26309    26322    26335    26343    26352    26361    26369 
   26377    26384    26391    26399    26407    26413    26419    26426 
   26430    26430    26431    26437    26442    26444    26447    26452 
   26454    26458    26461    26464    26469    26473    26479    26486 
   26490    26493    26498    26498    26497    26495    26492    26488 
   26482    26472    26463    26453    26439    26426    26415    26402 
   26386    26368    26352    26334    26317    26301    26285    26268 
   26252    26236    26222    26208    26191    26177    26167    26155 
   26139    26128    26117    26106    26099    26094    26083    26074 
   26074    26073    26071    26072    26078    26086    26095    26106 
   26119    26134    26147    26161    26177    26196    26215    26236 
   26259    26283    26310    26335    26357    26381    26406    26432 
   26460    26484    26503    26522    26542    26561    26575    26586 
   26597    26608    26617    26623    26627    26629    26629    26624 
   26619    26615    26607    26594    26584    26573    26557    26542 
   26527    26507    26489    26473    26454    26437    26423    26409 
   26395    26381    26369    26357    26344    26333    26324    26312 
   26300    26291    26283    26273    26264    26256    26246    26235 
   26229    26224    26216    26211    26206    26201    26198    26195 
   26192    26190    26190    26190    26192    26194    26195    26198 
   26201    26205    26211    26215    26218    26225    26231    26237 
   26245    26252    26258    26267    26275    26282    26290    26296 
   26303    26314    26323    26329    26335    26342    26346    26349 
   26353    26357    26360    26361    26360    26359    26358    26357 
   26356    26353    26349    26349    26348    26345    26342    26340 
   26336    26332    26326    26322    26320    26318    26316    26313 
   26310    26310    26310    26311    26311    26312    26314    26313 
   26312    26313    26313    26311    26309    26309    26309    26309 
   26310    26312    26312    26314    26317    26318    26319    26323 
   26326    26328    26334    26341    26343    26348    26358    26364 
   26365    26367    26376    26382    26385    26393    26400    26404 
   26410    26417    26423    26428    26433    26437    26443    26451 
   26455    26457    26460    26464    26469    26475    26481    26485 
   26489    26494    26498    26500    26502    26503    26501    26500 
   26498    26492    26488    26479    26468    26460    26449    26434 
   26420    26406    26391    26377    26361    26346    26332    26319 
   26305    26290    26277    26265    26252    26240    26230    26220 
   26211    26202    26191    26183    26174    26165    26160    26158 
   26152    26147    26142    26138    26133    26132    26134    26135 
   26136    26140    26142    26147    26152    26155    26163    26173 
   26178    26187    26198    26207    26216    26226    26236    26245 
   26255    26268    26281    26292    26301    26309    26318    26327 
   26338    26348    26358    26368    26378    26385    26393    26403 
   26414    26424    26434    26443    26451    26458    26464    26471 
   26480    26487    26489    26492    26494    26493    26492    26490 
   26486    26485    26483    26477    26473    26469    26461    26454 
   26444    26432    26425    26420    26412    26405    26397    26387 
   26381    26374    26366    26362    26359    26355    26353    26351 
   26347    26345    26347    26348    26349    26350    26350    26351 
   26351    26350    26350    26351    26349    26346    26346    26346 
   26345    26344    26342    26343    26346    26345    26345    26347 
   26348    26350    26353    26355    26358    26360    26361    26363 
   26364    26362    26360    26361    26360    26357    26354    26350 
   26345    26341    26337    26331    26326    26322    26317    26313 
   26309    26303    26299    26294    26287    26281    26278    26272 
   26269    26267    26263    26263    26263    26260    26260    26264 
   26269    26273    26274    26279    26286    26293    26299    26305 
   26313    26319    26325    26333    26341    26346    26350    26354 
   26359    26360    26361    26362    26363    26363    26363    26361 
   26359    26359    26359    26357    26354    26353    26355    26356 
   26356    26356    26354    26352    26353    26352    26351    26350 
   26348    26348    26346    26341    26337    26335    26329    26322 
