Origin Time       2025/06/03 22:18:00
Lat.              41.7
Long.             143.6
Depth. (km)       30
Mag.              5.2
Station Code      ABSH11
Station Lat.      43.9144
Station Long.     144.1913
Station Height(m) -82
Record Time       2025/06/03 22:20:02
Sampling Freq(Hz) 100Hz
Duration Time(s)  120
Dir.              3
Scale Factor      2942(gal)/8224139
Max. Acc. (gal)   0.087
Last Correction   2025/06/03 22:20:03
Memo.             
[...]
  -49408   -49408   -49408   -49410   -49414   -49412   -49410   -49411 
  -49408   -49404   -49405   -49405   -49407   -49410   -49411   -49412 
  -49415   -49418   -49422   -49426   -49428   -49434   -49439   -49443 
  -49450   -49457   -49455   -49455   -49459   -49461   -49459   -49458 
  -49458   -49458   -49454   -49449   -49446   -49445   -49441   -49438 
  -49435   -49432   -49434   -49432   -49432   -49434   -49435   -49439 
  -49442   -49439   -49443   -49447   -49450   -49455   -49464   -49469 
  -49474   -49481   -49488   -49496   -49500   -49504   -49509   -49513 
  -49516   -49520   -49520   -49520   -49524   -49526   -49520   -49519 
  -49516   -49513   -49511   -49507   -49501   -49496   -49488   -49481 
  -49476   -49469   -49464   -49457   -49450   -49443   -49438   -49434 
  -49430   -49422   -49418   -49415   -49412   -49408   -49404   -49403 
  -49403   -49396   -49391   -49391   -49391   -49389   -49389   -49387 
  -49387   -49391   -49395   -49396   -49397   -49400   -49405   -49408 
  -49410   -49410   -49411   -49412   -49410   -49414   -49416   -49415 
  -49416   -49420   -49426   -49434   -49443   -49454   -49464   -49472 
  -49484   -49495   -49503   -49512   -49522   -49528   -49532   -49538 
  -49545   -49549   -49551   -49557   -49562   -49563   -49565   -49567 
  -49572   -49574   -49580   -49584   -49585   -49584   -49584   -49589 
  -49590   -49584   -49580   -49577   -49570   -49561   -49554   -49551 
  -49547   -49540   -49538   -49535   -49531   -49527   -49523   -49516 
  -49511   -49505   -49500   -49491   -49481   -49473   -49465   -49454 
  -49445   -49442   -49435   -49426   -49423   -49420   -49416   -49414 
  -49411   -49411   -49411   -49408   -49415   -49423   -49424   -49428 
  -49437   -49441   -49445   -49451   -49455   -49455   -49462   -49470 
  -49477   -49480   -49481   -49484   -49484   -49482   -49477   -49473 
  -49474   -49473   -49464   -49459   -49458   -49457   -49454   -49451 
  -49453   -49457   -49459   -49461   -49464   -49466   -49468   -49469 
  -49472   -49473   -49473   -49473   -49473   -49481   -49488   -49486 
  -49491   -49499   -49501   -49500   -49501   -49504   -49507   -49507 
  -49503   -49503   -49503   -49499   -49493   -49489   -49485   -49480 
  -49478   -49474   -49470   -49465   -49461   -49454   -49449   -49445 
  -49438   -49430   -49428   -49424   -49419   -49419   -49418   -49415 
  -49420   -49424   -49426   -49434   -49442   -49446   -49453   -49462 
  -49468   -49472   -49477   -49481   -49484   -49486   -49486   -49485 
  -49486   -49486   -49482   -49482   -49484   -49484   -49481   -49482 
  -49482   -49481   -49484   -49482   -49476   -49474   -49473   -49469 
  -49464   -49459   -49455   -49449   -49443   -49438   -49435   -49432 
  -49427   -49423   -49420   -49416   -49414   -49415   -49414   -49414 
  -49415   -49418   -49418   -49419   -49420   -49420   -49420   -49420 
  -49420   -49419   -49419   -49426   -49431   -49431   -49434   -49439 
  -49439   -49442   -49449   -49450   -49450   -49454   -49451   -49447 
  -49450   -49453   -49451   -49451   -49454   -49457   -49454   -49451 
  -49453   -49453   -49455   -49459   -49458   -49454   -49457   -49458 
  -49454   -49453   -49454   -49451   -49451   -49454   -49457   -49461 
  -49461   -49464   -49473   -49474   -49476   -49482   -49488   -49489 
  -49496   -49501   -49505   -49513   -49522   -49523   -49531   -49542 
  -49546   -49549   -49554   -49558   -49557   -49557   -49561   -49562 
  -49562   -49562   -49561   -49559   -49554   -49550   -49549   -49545 
  -49542   -49542   -49539   -49536   -49535   -49536   -49534   -49531 
  -49528   -49524   -49519   -49518   -49513   -49505   -49503   -49499 
  -49489   -49484   -49476   -49465   -49455   -49446   -49432   -49420 
  -49414   -49405   -49395   -49384   -49377   -49372   -49365   -49356 
  -49347   -49343   -49338   -49333   -49329   -49324   -49323   -49320 
  -49315   -49315   -49320   -49322   -49322   -49329   -49337   -49343 
  -49351   -49365   -49377   -49385   -49400   -49415   -49423   -49435 
  -49450   -49461   -49473   -49486   -49500   -49513   -49524   -49535 
  -49550   -49559   -49569   -49581   -49588   -49594   -49607   -49616 
  -49620   -49626   -49630   -49635   -49644   -49648   -49646   -49644 
  -49644   -49642   -49638   -49630   -49620   -49609   -49600   -49588 
  -49578   -49569   -49557   -49543   -49530   -49516   -49503   -49492 
  -49484   -49473   -49459   -49451   -49446   -49439   -49428   -49423 
  -49419   -49411   -49403   -49400   -49395   -49389   -49385   -49383 
  -49381   -49381   -49381   -49380   -49377   -49374   -49372   -49369 
  -49365   -49362   -49357   -49351   -49354   -49357   -49357   -49357 
  -49360   -49364   -49368   -49370   -49378   -49387   -49393   -49401 
  -49411   -49423   -49431   -49443   -49459   -49470   -49478   -49495 
  -49508   -49518   -49526   -49534   -49539   -49543   -49549   -49551 
  -49550   -49554   -49559   -49561   -49563   -49567   -49569   -49570 
  -49572   -49570   -49570   -49569   -49569   -49567   -49562   -49559 
  -49557   -49550   -49549   -49547   -49542   -49532   -49527   -49524 
  -49516   -49504   -49497   -49492   -49484   -49476   -49472   -49466 
  -49461   -49454   -49447   -49442   -49438   -49432   -49427   -49423 
  -49424   -49426   -49426   -49428   -49428   -49424   -49422   -49424 
  -49422   -49416   -49414   -49411   -49405   -49401   -49397   -49392 
  -49391   -49389   -49385   -49384   -49385   -49388   -49389   -49391 
  -49391   -49396   -49403   -49407   -49411   -49416   -49419   -49423 
  -49432   -49439   -49445   -49451   -49457   -49459   -49468   -49472 
  -49472   -49476   -49478   -49476   -49473   -49472   -49469   -49461 
  -49454   -49450   -49443   -49434   -49427   -49422   -49416   -49412 
  -49411   -49410   -49410   -49408   -49411   -49416   -49420   -49424 
  -49430   -49432   -49438   -49445   -49454   -49464   -49470   -49481 
  -49492   -49504   -49515   -49522   -49532   -49546   -49555   -49565 
  -49572   -49577   -49586   -49592   -49593   -49597   -49601   -49603 
  -49608   -49611   -49611   -49611   -49612   -49613   -49615   -49615 
  -49611   -49603   -49599   -49594   -49588   -49580   -49573   -49565 
  -49553   -49542   -49532   -49523   -49513   -49505   -49495   -49485 
  -49476   -49465   -49454   -49443   -49435   -49428   -49419   -49411 
  -49405   -49399   -49395   -49393   -49392   -49389   -49389   -49392 
  -49393   -49395   -49397   -49397   -49397   -49399   -49401   -49407 
  -49412   -49415   -49418   -49419   -49422   -49423   -49423   -49419 
  -49416   -49414   -49410   -49404   -49399   -49395   -49391   -49385 
  -49383   -49380   -49376   -49377   -49380   -49380   -49383   -49389 
  -49393   -49400   -49407   -49414   -49422   -49428   -49434   -49439 
  -49449   -49458   -49462   -49468   -49473   -49478   -49488   -49491 
  -49489   -49493   -49495   -49495   -49495   -49495   -49496   -49495 
  -49493   -49493   -49493   -49491   -49489   -49488   -49486   -49486 
  -49486   -49489   -49496   -49496   -49496   -49499   -49504   -49507 
  -49507   -49511   -49518   -49522   -49522   -49523   -49528   -49531 
  -49532   -49535   -49538   -49538   -49538   -49538   -49539   -49535 
  -49532   -49532   -49532   -49528   -49526   -49522   -49520   -49519 
  -49515   -49512   -49515   -49518   -49515   -49512   -49513   -49511 
  -49508   -49505   -49504   -49503   -49497   -49492   -49489   -49485 
  -49480   -49476   -49464   -49455   -49451   -49443   -49434   -49428 
  -49423   -49416   -49408   -49401   -49401   -49400   -49395   -49396 
  -49401   -49403   -49404   -49411   -49414   -49415   -49420   -49424 
  -49424   -49430   -49434   -49437   -49441   -49439   -49435   -49437 
  -49437   -49437   -49435   -49428   -49420   -49414   -49410   -49404 
  -49396   -49387   -49381   -49374   -49364   -49356   -49347   -49342 
  -49341   -49335   -49331   -49331   -49334   -49341   -49349   -49351 
  -49358   -49369   -49380   -49392   -49400   -49414   -49431   -49443 
  -49455   -49472   -49485   -49497   -49512   -49526   -49538   -49550 
  -49563   -49572   -49578   -49590   -49600   -49604   -49609   -49616 
  -49617   -49617   -49619   -49620   -49620   -49617   -49616   -49616 
  -49615   -49613   -49611   -49607   -49604   -49599   -49592   -49586 
  -49585   -49580   -49574   -49572   -49565   -49555   -49549   -49545 
  -49540   -49538   -49531   -49522   -49519   -49513   -49503   -49495 
  -49489   -49482   -49473   -49466   -49459   -49449   -49442   -49437 
  -49427   -49418   -49415   -49412   -49408   -49404   -49403   -49403 
  -49399   -49396   -49393   -49392   -49392   -49392   -49392   -49392 
  -49392   -49392   -49393   -49393   -49392   -49392   -49391   -49391 
  -49391   -49389   -49388   -49384   -49381   -49384   -49380   -49374 
  -49373   -49372   -49368   -49366   -49368   -49365   -49364   -49364 
  -49362   -49364   -49369   -49369   -49372   -49376   -49377   -49380 
  -49385   -49393   -49393   -49395   -49400   -49404   -49405   -49412 
  -49418   -49420   -49426   -49428   -49434   -49439   -49443   -49450 
  -49458   -49464   -49470   -49478   -49485   -49491   -49497   -49505 
  -49513   -49518   -49524   -49535   -49542   -49545   -49553   -49563 
  -49567   -49572   -49578   -49585   -49592   -49597   -49599   -49604 
  -49611   -49615   -49613   -49615   -49617   -49617   -49615   -49612 
  -49607   -49601   -49597   -49593   -49585   -49576   -49566   -49555 
  -49546   -49532   -49519   -49509   -49500   -49484   -49472   -49465 
  -49453   -49442   -49435   -49428   -49418   -49411   -49407   -49404 
  -49401   -49401   -49403   -49403   -49403   -49403   -49404   -49405 
  -49407   -49411   -49416   -49415   -49418   -49427   -49428   -49427 
  -49434   -49442   -49450   -49454   -49459   -49466   -49474   -49481 
  -49486   -49489   -49492   -49495   -49499   -49504   -49505   -49507 
  -49508   -49512   -49512   -49511   -49511   -49513   -49511   -49505 
  -49505   -49504   -49500   -49499   -49497   -49493   -49489   -49485 
  -49482   -49480   -49476   -49469   -49465   -49461   -49455   -49451 
  -49446   -49439   -49435   -49431   -49424   -49419   -49414   -49408 
  -49403   -49397   -49393   -49389   -49383   -49374   -49366   -49357 
  -49353   -49349   -49346   -49345   -49339   -49339   -49342   -49342 
  -49347   -49354   -49358   -49364   -49374   -49384   -49391   -49400 
  -49414   -49423   -49434   -49446   -49458   -49469   -49481   -49493 
  -49501   -49509   -49520   -49527   -49531   -49538   -49545   -49549 
  -49551   -49553   -49554   -49553   -49551   -49555   -49555   -49551 
  -49550   -49546   -49542   -49542   -49538   -49534   -49532   -49530 
  -49527   -49527   -49527   -49526   -49527   -49530   -49531   -49530 
  -49531   -49534   -49536   -49538   -49538   -49538   -49535   -49534 
  -49535   -49534   -49530   -49527   -49526   -49524   -49520   -49516 
  -49512   -49508   -49503   -49499   -49492   -49485   -49480   -49472 
  -49464   -49457   -49449   -49441   -49434   -49428   -49424   -49418 
  -49410   -49403   -49399   -49396   -49391   -49383   -49378   -49378 
  -49378   -49378   -49376   -49374   -49374   -49376   -49377   -49377 
  -49373   -49374   -49377   -49378   -49381   -49383   -49387   -49389 
  -49393   -49396   -49400   -49407   -49411   -49416   -49424   -49428 
  -49432   -49442   -49446   -49447   -49451   -49458   -49464   -49466 
  -49470   -49473   -49477   -49480   -49482   -49489   -49495   -49497 
  -49500   -49504   -49509   -49512   -49515   -49520   -49523   -49526 
  -49531   -49534   -49536   -49540   -49543   -49545   -49543   -49542 
  -49540   -49538   -49535   -49528   -49523   -49518   -49508   -49496 
  -49489   -49481   -49470   -49462   -49453   -49439   -49427   -49419 
  -49408   -49396   -49388   -49380   -49374   -49368   -49362   -49360 
  -49354   -49349   -49347   -49349   -49356   -49361   -49364   -49368 
  -49374   -49384   -49392   -49403   -49414   -49422   -49431   -49446 
  -49459   -49472   -49484   -49496   -49509   -49523   -49536   -49553 
  -49569   -49580   -49592   -49604   -49615   -49626   -49639   -49648 
  -49654   -49659   -49666   -49670   -49671   -49673   -49673   -49673 
  -49669   -49661   -49651   -49644   -49635   -49623   -49615   -49605 
  -49593   -49581   -49569   -49559   -49549   -49535   -49523   -49511 
  -49496   -49484   -49476   -49464   -49451   -49443   -49430   -49415 
  -49404   -49393   -49383   -49370   -49361   -49353   -49342   -49331 
  -49323   -49314   -49307   -49303   -49295   -49288   -49288   -49287 
  -49285   -49287   -49289   -49288   -49289   -49295   -49297   -49297 
  -49300   -49304   -49308   -49318   -49324   -49324   -49329   -49335 
  -49342   -49347   -49357   -49368   -49372   -49378   -49392   -49404 
  -49412   -49423   -49435   -49447   -49461   -49474   -49488   -49503 
  -49518   -49531   -49546   -49561   -49576   -49590   -49605   -49617 
  -49631   -49643   -49654   -49663   -49671   -49677   -49682   -49686 
  -49689   -49692   -49694   -49693   -49689   -49688   -49682   -49673 
  -49665   -49657   -49647   -49636   -49621   -49607   -49592   -49578 
  -49561   -49543   -49528   -49512   -49495   -49477   -49461   -49445 
  -49431   -49419   -49404   -49391   -49380   -49370   -49358   -49345 
  -49335   -49329   -49319   -49308   -49303   -49296   -49288   -49281 
  -49275   -49266   -49262   -49257   -49250   -49246   -49243   -49238 
  -49231   -49229   -49229   -49227   -49226   -49231   -49237   -49239 
  -49241   -49249   -49260   -49270   -49279   -49291   -49304   -49316 
  -49331   -49345   -49358   -49377   -49397   -49412   -49431   -49454 
  -49469   -49485   -49509   -49528   -49545   -49563   -49577   -49590 
  -49605   -49612   -49620   -49634   -49639   -49642   -49647   -49651 
  -49653   -49655   -49654   -49653   -49651   -49647   -49642   -49640 
  -49640   -49636   -49634   -49631   -49627   -49620   -49616   -49613 
  -49613   -49611   -49608   -49603   -49601   -49603   -49603   -49600 
  -49596   -49593   -49590   -49588   -49584   -49577   -49570   -49567 
  -49563   -49561   -49555   -49546   -49536   -49531   -49524   -49518 
  -49511   -49503   -49495   -49485   -49477   -49469   -49461   -49451 
  -49441   -49430   -49419   -49410   -49401   -49392   -49381   -49373 
  -49365   -49358   -49354   -49349   -49341   -49338   -49337   -49330 
  -49326   -49329   -49326   -49320   -49319   -49320   -49322   -49320 
  -49320   -49322   -49327   -49333   -49337   -49342   -49350   -49358 
  -49366   -49376   -49381   -49388   -49396   -49403   -49407   -49414 
  -49423   -49426   -49434   -49446   -49453   -49458   -49469   -49477 
  -49484   -49496   -49503   -49508   -49520   -49531   -49539   -49549 
  -49557   -49567   -49573   -49577   -49588   -49596   -49599   -49604 
  -49611   -49617   -49620   -49621   -49627   -49628   -49627   -49628 
  -49630   -49627   -49626   -49624   -49619   -49613   -49609   -49603 
  -49596   -49590   -49580   -49567   -49561   -49551   -49538   -49530 
  -49520   -49508   -49496   -49485   -49473   -49461   -49447   -49435 
  -49423   -49410   -49400   -49392   -49380   -49369   -49360   -49351 
  -49343   -49335   -49327   -49320   -49316   -49311   -49308   -49307 
  -49303   -49300   -49302   -49304   -49306   -49307   -49308   -49315 
  -49320   -49322   -49323   -49331   -49341   -49346   -49350   -49358 
  -49366   -49374   -49383   -49391   -49399   -49405   -49416   -49424 
  -49432   -49441   -49450   -49458   -49469   -49477   -49484   -49491 
  -49497   -49503   -49507   -49515   -49524   -49530   -49532   -49536 
  -49543   -49550   -49555   -49559   -49563   -49569   -49573   -49574 
  -49578   -49582   -49585   -49585   -49584   -49580   -49577   -49577 
  -49576   -49572   -49565   -49559   -49553   -49546   -49540   -49534 
  -49526   -49519   -49512   -49505   -49500   -49496   -49491   -49485 
  -49480   -49474   -49469   -49462   -49457   -49454   -49450   -49447 
  -49446   -49443   -49441   -49439   -49435   -49432   -49428   -49426 
  -49426   -49423   -49420   -49420   -49419   -49418   -49415   -49415 
  -49414   -49410   -49411   -49416   -49418   -49418   -49422   -49430 
  -49434   -49438   -49446   -49454   -49462   -49469   -49480   -49488 
  -49496   -49505   -49513   -49519   -49527   -49534   -49536   -49540 
  -49550   -49554   -49554   -49559   -49563   -49563   -49566   -49567 
  -49566   -49567   -49565   -49562   -49559   -49557   -49554   -49550 
  -49543   -49539   -49530   -49519   -49513   -49512   -49505   -49499 
  -49492   -49485   -49478   -49473   -49469   -49464   -49455   -49450 
  -49449   -49442   -49434   -49428   -49420   -49415   -49410   -49403 
  -49400   -49399   -49392   -49387   -49383   -49378   -49376   -49374 
  -49370   -49366   -49362   -49360   -49354   -49350   -49347   -49343 
  -49341   -49339   -49341   -49338   -49334   -49337   -49338   -49337 
  -49338   -49342   -49347   -49350   -49353   -49358   -49366   -49373 
  -49377   -49387   -49397   -49404   -49414   -49426   -49435   -49445 
  -49454   -49465   -49478   -49486   -49493   -49505   -49518   -49526 
  -49536   -49547   -49554   -49558   -49563   -49570   -49577   -49580 
  -49582   -49588   -49590   -49593   -49594   -49597   -49603   -49603 
  -49604   -49607   -49605   -49607   -49608   -49605   -49601   -49599 
  -49594   -49592   -49586   -49580   -49574   -49566   -49558   -49550 
  -49539   -49531   -49523   -49512   -49505   -49496   -49482   -49473 
  -49464   -49453   -49446   -49437   -49424   -49415   -49408   -49401 
  -49392   -49388   -49385   -49384   -49380   -49374   -49370   -49373 
  -49374   -49373   -49374   -49374   -49376   -49374   -49376   -49378 
  -49378   -49381   -49384   -49384   -49388   -49395   -49401   -49404 
  -49408   -49416   -49424   -49427   -49431   -49441   -49450   -49454 
  -49458   -49468   -49474   -49478   -49486   -49496   -49499   -49501 
  -49505   -49508   -49512   -49513   -49520   -49527   -49526   -49526 
  -49532   -49534   -49532   -49536   -49539   -49539   -49539   -49540 
  -49542   -49540   -49540   -49542   -49539   -49536   -49538   -49540 
  -49540   -49536   -49534   -49535   -49531   -49527   -49528   -49531 
  -49530   -49527   -49526   -49526   -49523   -49520   -49516   -49515 
  -49513   -49509   -49504   -49499   -49496   -49492   -49489   -49486 
  -49480   -49476   -49473   -49469   -49464   -49459   -49451   -49446 
  -49442   -49437   -49430   -49423   -49416   -49411   -49405   -49399 
  -49396   -49393   -49388   -49384   -49381   -49376   -49372   -49373 
  -49372   -49368   -49369   -49369   -49368   -49372   -49374   -49377 
  -49381   -49384   -49385   -49389   -49393   -49396   -49400   -49411 
  -49415   -49416   -49424   -49428   -49432   -49437   -49439   -49445 
  -49449   -49451   -49457   -49461   -49461   -49461   -49464   -49466 
  -49466   -49465   -49468   -49468   -49465   -49464   -49466   -49469 
  -49468   -49468   -49470   -49472   -49470   -49473   -49477   -49478 
  -49478   -49480   -49482   -49482   -49484   -49492   -49495   -49495 
  -49497   -49503   -49503   -49500   -49500   -49503   -49503   -49500 
  -49497   -49497   -49496   -49495   -49492   -49489   -49486   -49485 
  -49481   -49480   -49480   -49477   -49473   -49470   -49469   -49468 
