Origin Time       2025/06/03 22:18:00
Lat.              41.7
Long.             143.6
Depth. (km)       30
Mag.              5.2
Station Code      ABSH06
Station Lat.      44.2146
Station Long.     143.6202
Station Height(m) -93
Record Time       2025/06/03 22:19:48
Sampling Freq(Hz) 100Hz
Duration Time(s)  120
Dir.              2
Scale Factor      2940(gal)/6170270
Max. Acc. (gal)   0.182
Last Correction   2025/06/03 22:19:33
Memo.             
[...]
   63977    63976    63981    63992    64005    64019    64027    64026 
   64021    64010    63993    63970    63944    63919    63892    63866 
   63842    63824    63813    63806    63802    63803    63806    63809 
   63812    63806    63796    63791    63785    63785    63795    63811 
   63829    63847    63858    63861    63855    63843    63827    63806 
   63783    63765    63756    63756    63761    63772    63789    63802 
   63808    63810    63807    63802    63797    63787    63780    63783 
   63787    63792    63805    63821    63837    63850    63861    63872 
   63883    63888    63889    63885    63875    63861    63847    63836 
   63831    63834    63849    63870    63891    63907    63917    63923 
   63921    63917    63918    63924    63929    63934    63946    63958 
   63959    63955    63944    63928    63913    63896    63870    63837 
   63804    63768    63733    63708    63691    63681    63679    63688 
   63698    63706    63718    63732    63744    63761    63781    63800 
   63817    63832    63843    63851    63859    63866    63878    63898 
   63918    63936    63959    63980    63991    63997    63997    63993 
   63991    63987    63985    63986    63987    63987    63990    63995 
   63999    64003    64006    64001    63991    63979    63965    63949 
   63931    63909    63884    63864    63852    63840    63831    63829 
   63826    63824    63818    63808    63804    63810    63818    63825 
   63835    63841    63839    63831    63822    63817    63814    63810 
   63814    63821    63828    63840    63855    63870    63886    63903 
   63914    63919    63923    63926    63925    63919    63911    63900 
   63881    63855    63828    63799    63769    63746    63728    63712 
   63701    63701    63705    63716    63734    63753    63769    63783 
   63793    63799    63803    63802    63797    63786    63774    63768 
   63768    63767    63768    63779    63788    63791    63802    63812 
   63812    63815    63815    63810    63810    63814    63820    63826 
   63831    63839    63843    63844    63844    63840    63831    63825 
   63823    63825    63831    63840    63851    63861    63875    63892 
   63903    63911    63924    63929    63927    63927    63919    63908 
   63903    63896    63895    63902    63910    63923    63941    63957 
   63976    63989    63994    63999    63998    63989    63976    63960 
   63944    63930    63916    63906    63899    63893    63883    63871 
   63865    63854    63836    63819    63806    63796    63794    63802 
   63814    63830    63849    63864    63871    63874    63870    63859 
   63846    63838    63834    63834    63840    63853    63863    63864 
   63871    63881    63886    63895    63907    63920    63932    63933 
   63925    63915    63898    63883    63875    63873    63877    63888 
   63903    63925    63949    63967    63980    63988    63984    63972 
   63959    63943    63925    63911    63903    63894    63882    63871 
   63863    63852    63841    63835    63828    63815    63808    63808 
   63806    63806    63812    63817    63821    63829    63834    63834 
   63839    63852    63860    63862    63864    63860    63850    63839 
   63825    63813    63802    63789    63780    63773    63763    63755 
   63753    63748    63740    63736    63736    63741    63746    63749 
   63755    63762    63764    63770    63781    63788    63797    63802 
   63801    63798    63789    63780    63777    63780    63788    63799 
   63809    63819    63823    63821    63817    63819    63825    63835 
   63854    63876    63893    63909    63920    63923    63925    63925 
   63922    63924    63934    63942    63945    63946    63945    63942 
   63936    63930    63925    63922    63919    63919    63916    63910 
   63903    63895    63886    63876    63868    63865    63866    63867 
   63865    63861    63858    63856    63852    63847    63851    63861 
   63870    63886    63904    63919    63935    63948    63951    63949 
   63941    63925    63907    63896    63892    63895    63906    63927 
   63948    63963    63974    63980    63976    63964    63945    63919 
   63892    63869    63849    63835    63824    63809    63797    63793 
   63791    63787    63787    63789    63786    63785    63791    63798 
   63801    63802    63802    63792    63778    63768    63764    63765 
   63774    63787    63805    63827    63845    63858    63872    63885 
   63893    63896    63896    63892    63880    63863    63844    63830 
   63819    63808    63801    63802    63806    63810    63815    63821 
   63821    63817    63814    63811    63802    63797    63798    63799 
   63797    63801    63809    63816    63822    63830    63842    63857 
   63871    63883    63899    63914    63922    63925    63931    63942 
   63950    63951    63951    63950    63945    63940    63930    63917 
   63909    63900    63885    63874    63866    63856    63852    63850 
   63844    63836    63825    63809    63794    63778    63759    63745 
   63731    63715    63705    63700    63694    63691    63692    63700 
   63715    63729    63740    63751    63762    63776    63790    63808 
   63833    63859    63882    63903    63925    63945    63958    63966 
   63969    63969    63970    63974    63979    63984    63991    63999 
   64004    64009    64013    64007    64000    63991    63980    63971 
   63962    63953    63948    63943    63939    63934    63927    63918 
   63916    63917    63915    63910    63905    63901    63899    63902 
   63908    63912    63914    63914    63915    63915    63916    63917 
   63917    63916    63917    63917    63916    63919    63919    63914 
   63909    63903    63893    63884    63876    63872    63869    63863 
   63859    63853    63840    63825    63812    63799    63791    63784 
   63776    63770    63766    63762    63760    63761    63761    63760 
   63764    63770    63775    63783    63795    63806    63816    63831 
   63839    63843    63851    63862    63877    63896    63908    63916 
   63920    63912    63898    63883    63865    63848    63833    63822 
   63814    63800    63788    63781    63773    63773    63782    63793 
   63801    63816    63835    63848    63855    63862    63860    63851 
   63841    63829    63812    63797    63788    63781    63779    63782 
   63787    63798    63813    63824    63838    63852    63858    63858 
   63853    63849    63845    63836    63826    63819    63815    63816 
   63814    63807    63804    63799    63792    63791    63788    63782 
   63778    63770    63759    63749    63738    63727    63718    63711 
   63706    63707    63711    63717    63723    63731    63743    63755 
   63765    63782    63802    63819    63837    63858    63877    63896 
   63910    63922    63934    63941    63945    63947    63942    63935 
   63931    63932    63927    63920    63925    63932    63935    63948 
   63963    63968    63977    63985    63985    63986    63985    63978 
   63971    63968    63968    63969    63970    63972    63975    63979 
   63981    63982    63988    63995    64002    64012    64027    64043 
   64056    64066    64078    64087    64088    64083    64076    64061 
   64043    64027    64018    64011    64007    64004    63997    63989 
   63983    63971    63953    63936    63920    63901    63882    63869 
   63860    63852    63839    63820    63801    63780    63758    63744 
   63731    63714    63699    63687    63673    63660    63651    63643 
   63644    63652    63658    63663    63673    63678    63679    63680 
   63676    63665    63655    63650    63645    63635    63627    63621 
   63617    63617    63620    63622    63624    63630    63640    63652 
   63674    63703    63735    63774    63814    63845    63867    63882 
   63896    63906    63910    63915    63920    63924    63935    63947 
   63955    63964    63970    63971    63970    63966    63961    63953 
   63942    63928    63918    63914    63913    63912    63911    63914 
   63922    63930    63933    63929    63922    63923    63928    63932 
   63934    63935    63936    63935    63927    63918    63914    63908 
   63905    63906    63907    63909    63914    63919    63925    63930 
   63930    63929    63925    63917    63908    63898    63889    63883 
   63874    63866    63862    63861    63858    63859    63865    63865 
   63858    63856    63860    63858    63858    63861    63858    63852 
   63848    63841    63835    63827    63819    63815    63809    63800 
   63792    63788    63787    63786    63785    63784    63786    63789 
   63790    63791    63789    63787    63793    63799    63800    63801 
   63806    63810    63811    63816    63830    63846    63861    63880 
   63896    63907    63921    63929    63929    63929    63924    63912 
   63899    63888    63881    63872    63865    63869    63878    63882 
   63893    63916    63932    63945    63964    63982    63993    64001 
   64008    64016    64016    64009    63998    63983    63966    63949 
   63932    63916    63906    63898    63889    63883    63882    63882 
   63874    63863    63855    63841    63820    63807    63797    63779 
   63766    63763    63756    63748    63745    63740    63731    63720 
   63706    63694    63686    63680    63676    63678    63683    63684 
   63685    63687    63683    63676    63671    63667    63663    63667 
   63679    63692    63707    63724    63743    63765    63784    63801 
   63825    63851    63871    63890    63912    63931    63947    63960 
   63968    63973    63971    63971    63969    63965    63961    63957 
   63954    63954    63956    63958    63962    63967    63970    63973 
   63977    63981    63981    63981    63985    63989    63993    63998 
   64003    64007    64006    64006    64005    63997    63991    63985 
   63973    63963    63953    63936    63921    63906    63886    63870 
   63853    63834    63818    63805    63795    63791    63790    63794 
   63802    63807    63811    63819    63824    63824    63828    63832 
   63835    63842    63854    63868    63885    63899    63906    63909 
   63907    63897    63883    63866    63849    63832    63818    63804 
   63793    63784    63774    63765    63758    63752    63752    63754 
   63759    63765    63768    63769    63770    63771    63770    63769 
   63767    63761    63757    63759    63764    63771    63784    63799 
   63814    63831    63845    63858    63875    63887    63897    63914 
   63931    63947    63961    63974    63988    63997    63999    63999 
   63998    63991    63984    63982    63982    63981    63981    63984 
   63988    63988    63981    63968    63953    63936    63911    63889 
   63871    63855    63841    63834    63831    63830    63831    63835 
   63838    63844    63849    63854    63864    63872    63871    63869 
   63861    63843    63820    63801    63784    63774    63771    63766 
   63761    63766    63769    63765    63760    63752    63737    63719 
   63704    63689    63672    63660    63656    63652    63648    63649 
   63654    63662    63673    63684    63694    63709    63728    63746 
   63767    63792    63818    63844    63868    63885    63900    63915 
   63925    63926    63925    63921    63915    63909    63901    63895 
   63892    63887    63884    63885    63886    63886    63884    63881 
   63882    63880    63877    63879    63884    63887    63895    63908 
   63922    63941    63961    63979    63995    64007    64014    64019 
   64024    64026    64027    64029    64028    64027    64026    64024 
   64018    64005    63997    63995    63986    63978    63977    63976 
   63971    63965    63961    63958    63952    63947    63947    63947 
   63946    63945    63945    63941    63934    63929    63920    63907 
   63896    63885    63873    63864    63856    63849    63842    63836 
   63830    63822    63812    63803    63796    63787    63778    63766 
   63750    63738    63729    63716    63697    63681    63670    63661 
   63655    63655    63661    63663    63664    63668    63675    63681 
   63690    63704    63720    63733    63748    63766    63781    63792 
   63807    63823    63838    63855    63878    63906    63930    63955 
   63983    64000    64007    64017    64020    64012    64003    63998 
   63986    63968    63954    63941    63925    63909    63895    63882 
   63868    63854    63841    63829    63820    63809    63796    63786 
   63777    63770    63766    63761    63758    63757    63753    63752 
   63756    63756    63757    63760    63763    63769    63773    63774 
   63781    63786    63783    63781    63781    63775    63770    63770 
   63770    63773    63777    63785    63797    63809    63818    63830 
   63839    63844    63848    63852    63854    63851    63844    63842 
   63841    63837    63836    63839    63846    63857    63865    63878 
   63894    63909    63928    63948    63965    63982    64001    64017 
   64030    64042    64053    64067    64082    64092    64101    64113 
   64122    64127    64138    64144    64143    64141    64136    64131 
   64123    64112    64101    64090    64076    64059    64041    64024 
   64006    63992    63975    63955    63940    63926    63909    63897 
   63891    63884    63877    63873    63874    63876    63874    63869 
   63864    63850    63831    63812    63794    63775    63756    63741 
   63730    63714    63695    63678    63662    63642    63620    63599 
   63583    63565    63545    63525    63509    63495    63485    63479 
   63476    63476    63481    63489    63504    63521    63535    63552 
   63572    63591    63609    63628    63647    63668    63686    63707 
   63727    63743    63763    63785    63802    63821    63843    63861 
   63875    63894    63915    63933    63950    63968    63984    63996 
   64005    64015    64019    64009    63995    63980    63960    63938 
   63914    63893    63878    63866    63855    63850    63848    63842 
   63841    63844    63846    63848    63854    63863    63874    63876 
   63878    63885    63891    63894    63906    63921    63930    63941 
   63960    63977    63993    64006    64016    64026    64036    64038 
   64040    64046    64050    64052    64056    64059    64063    64066 
   64068    64071    64073    64076    64077    64080    64086    64090 
   64086    64082    64081    64074    64063    64057    64049    64037 
   64025    64021    64022    64021    64024    64033    64041    64051 
   64058    64057    64055    64052    64047    64038    64027    64018 
   64007    63990    63975    63961    63943    63926    63910    63891 
   63874    63859    63840    63821    63802    63782    63762    63742 
   63722    63711    63704    63695    63688    63686    63689    63690 
   63690    63693    63696    63697    63702    63703    63698    63695 
   63689    63683    63676    63663    63647    63639    63635    63630 
   63626    63625    63631    63640    63645    63646    63651    63656 
   63654    63647    63640    63629    63612    63599    63584    63563 
   63551    63540    63526    63519    63518    63514    63517    63527 
   63538    63554    63578    63603    63626    63651    63675    63693 
   63712    63733    63747    63759    63777    63791    63805    63821 
   63837    63851    63868    63886    63900    63911    63920    63933 
   63945    63955    63969    63981    63990    63999    64007    64015 
   64029    64042    64050    64056    64065    64072    64079    64089 
   64095    64093    64093    64092    64089    64085    64079    64070 
   64058    64045    64031    64015    63999    63985    63970    63956 
   63948    63941    63939    63940    63943    63945    63948    63951 
   63951    63952    63955    63958    63964    63973    63984    63995 
   64007    64019    64029    64038    64046    64050    64053    64056 
   64058    64058    64054    64050    64048    64041    64036    64038 
   64039    64038    64040    64048    64053    64059    64068    64071 
   64068    64067    64066    64062    64051    64031    64010    63988 
   63961    63934    63905    63871    63837    63805    63770    63736 
   63710    63684    63658    63639    63626    63614    63599    63584 
   63571    63562    63550    63537    63531    63529    63526    63520 
   63518    63516    63509    63504    63506    63507    63515    63526 
   63536    63549    63562    63576    63590    63600    63610    63623 
   63634    63642    63648    63654    63665    63678    63685    63690 
   63701    63715    63724    63730    63741    63752    63758    63766 
   63781    63796    63810    63828    63850    63872    63893    63911 
   63928    63946    63962    63972    63984    63993    63997    64003 
   64011    64016    64019    64019    64018    64020    64020    64018 
   64016    64017    64019    64021    64021    64025    64032    64036 
   64043    64057    64067    64073    64082    64090    64088    64088 
   64092    64087    64080    64080    64077    64069    64064    64060 
   64053    64047    64044    64041    64037    64033    64027    64016 
   64005    63995    63976    63954    63939    63920    63897    63881 
   63869    63855    63846    63841    63836    63834    63836    63838 
   63839    63845    63849    63849    63855    63862    63860    63857 
   63854    63845    63836    63835    63832    63828    63828    63826 
   63827    63829    63829    63828    63823    63817    63813    63806 
   63798    63792    63787    63782    63777    63769    63766    63762 
   63752    63744    63739    63730    63719    63709    63703    63697 
   63686    63674    63665    63653    63639    63627    63620    63612 
   63606    63607    63613    63620    63629    63644    63661    63675 
   63691    63705    63713    63723    63734    63741    63749    63760 
   63772    63786    63803    63823    63845    63862    63883    63908 
   63927    63944    63961    63972    63986    63998    64002    64011 
   64022    64023    64028    64038    64046    64050    64055    64057 
   64056    64052    64047    64042    64029    64011    63996    63978 
   63958    63943    63923    63904    63893    63883    63873    63868 
   63863    63860    63861    63858    63854    63855    63854    63851 
   63852    63857    63862    63862    63864    63867    63865    63864 
   63866    63867    63865    63861    63863    63866    63867    63870 
   63876    63881    63888    63896    63899    63899    63896    63893 
   63890    63886    63883    63874    63866    63864    63858    63853 
   63852    63849    63846    63844    63843    63844    63843    63846 
   63852    63854    63855    63861    63866    63870    63876    63881 
   63883    63887    63891    63895    63898    63898    63897    63895 
   63889    63883    63875    63861    63850    63842    63832    63820 
   63806    63792    63778    63762    63751    63742    63729    63721 
   63721    63724    63728    63731    63736    63745    63751    63753 
   63757    63762    63768    63776    63785    63794    63805    63815 
   63824    63837    63856    63873    63888    63904    63920    63933 
   63942    63953    63961    63967    63976    63985    63988    63987 
   63985    63983    63976    63963    63951    63937    63921    63911 
   63902    63890    63881    63873    63866    63862    63856    63857 
   63863    63864    63861    63862    63863    63860    63855    63853 
