Origin Time       2025/06/03 22:18:00
Lat.              41.7
Long.             143.6
Depth. (km)       30
Mag.              5.2
Station Code      ABSH13
Station Lat.      43.7419
Station Long.     143.4514
Station Height(m) 321
Record Time       2025/06/03 22:19:17
Sampling Freq(Hz) 100Hz
Duration Time(s)  120
Dir.              4
Scale Factor      7845(gal)/8223790
Max. Acc. (gal)   0.560
Last Correction   2025/06/03 22:19:18
Memo.             
[...]
    7349     7403     7485     7584     7681     7769     7838     7879 
    7905     7916     7921     7925     7920     7897     7855     7809 
    7782     7789     7812     7824     7830     7846     7870     7908 
    7965     8033     8095     8137     8143     8102     8029     7946 
    7874     7834     7817     7813     7830     7858     7870     7857 
    7816     7757     7695     7641     7601     7577     7565     7566 
    7581     7612     7643     7658     7669     7684     7700     7732 
    7781     7836     7884     7916     7935     7938     7916     7878 
    7839     7813     7797     7782     7765     7740     7703     7666 
    7639     7624     7619     7614     7608     7608     7620     7649 
    7686     7724     7757     7773     7778     7780     7762     7719 
    7669     7622     7574     7539     7537     7558     7596     7645 
    7692     7734     7777     7830     7886     7933     7960     7971 
    7966     7955     7952     7955     7960     7962     7948     7921 
    7882     7842     7815     7808     7828     7874     7920     7936 
    7905     7835     7739     7636     7558     7526     7550     7620 
    7700     7771     7825     7852     7851     7828     7788     7730 
    7662     7603     7565     7555     7577     7622     7680     7747 
    7809     7854     7888     7909     7911     7894     7870     7851 
    7843     7844     7843     7828     7803     7786     7786     7796 
    7803     7805     7801     7793     7786     7785     7784     7769 
    7738     7700     7661     7619     7593     7592     7605     7628 
    7659     7690     7712     7724     7730     7738     7747     7759 
    7773     7786     7800     7808     7820     7840     7866     7893 
    7921     7935     7927     7894     7850     7805     7761     7723 
    7703     7699     7709     7731     7766     7809     7848     7874 
    7885     7874     7840     7789     7739     7700     7665     7642 
    7639     7657     7678     7700     7712     7700     7665     7614 
    7542     7461     7399     7373     7381     7418     7466     7519 
    7570     7622     7674     7727     7778     7830     7882     7940 
    7993     8036     8064     8067     8059     8048     8036     8028 
    8017     7990     7948     7901     7862     7840     7839     7846 
    7846     7836     7813     7769     7708     7641     7570     7514 
    7484     7480     7492     7512     7543     7569     7580     7596 
    7628     7676     7726     7769     7798     7820     7836     7844 
    7848     7861     7879     7898     7920     7936     7942     7943 
    7938     7925     7912     7902     7916     7952     8002     8056 
    8091     8098     8079     8028     7951     7869     7800     7753 
    7726     7708     7685     7650     7601     7545     7491     7458 
    7443     7443     7457     7483     7520     7558     7582     7597 
    7600     7593     7592     7609     7646     7700     7767     7843 
    7921     7989     8041     8078     8090     8070     8023     7956 
    7877     7797     7730     7682     7653     7627     7599     7566 
    7533     7523     7539     7572     7623     7680     7726     7759 
    7782     7798     7815     7827     7840     7857     7869     7884 
    7905     7933     7959     7973     7974     7959     7923     7867 
    7804     7740     7673     7609     7565     7534     7511     7499 
    7501     7520     7555     7599     7650     7699     7736     7763 
    7788     7811     7836     7866     7894     7919     7933     7927 
    7892     7846     7808     7781     7759     7739     7728     7735 
    7751     7773     7801     7819     7821     7809     7789     7778 
    7786     7819     7870     7924     7971     8012     8050     8087 
    8121     8141     8135     8101     8052     7992     7920     7848 
    7785     7738     7711     7697     7688     7672     7632     7570 
    7491     7403     7327     7280     7260     7264     7284     7308 
    7322     7321     7311     7299     7300     7326     7384     7466 
    7551     7624     7686     7722     7734     7749     7771     7803 
    7835     7866     7900     7943     8000     8055     8086     8087 
    8070     8048     8036     8040     8070     8106     8129     8135 
    8116     8081     8041     8004     7967     7942     7917     7889 
    7865     7843     7816     7781     7746     7709     7669     7642 
    7632     7634     7642     7638     7611     7566     7520     7495 
    7492     7515     7562     7616     7674     7738     7801     7859 
    7902     7916     7897     7848     7790     7744     7720     7738 
    7801     7888     7973     8040     8093     8129     8141     8125 
    8077     7996     7896     7786     7686     7607     7546     7504 
    7479     7474     7493     7524     7564     7597     7619     7632 
    7628     7620     7628     7649     7670     7693     7722     7749 
    7763     7766     7761     7744     7734     7744     7774     7815 
    7859     7897     7920     7942     7971     8009     8046     8073 
    8090     8091     8068     8025     7970     7911     7861     7827 
    7801     7780     7753     7712     7668     7626     7588     7554 
    7512     7465     7429     7406     7392     7396     7415     7434 
    7442     7452     7479     7514     7555     7600     7634     7658 
    7676     7684     7695     7724     7776     7842     7919     8002 
    8075     8136     8185     8216     8225     8205     8156     8090 
    8009     7921     7842     7778     7735     7713     7703     7696 
    7689     7678     7654     7615     7573     7531     7489     7458 
    7441     7437     7447     7462     7465     7452     7425     7395 
    7379     7383     7406     7446     7500     7558     7628     7719 
    7824     7943     8062     8162     8245     8301     8320     8313 
    8287     8251     8213     8168     8117     8066     8017     7970 
    7920     7867     7819     7773     7732     7701     7677     7663 
    7658     7666     7684     7695     7699     7708     7720     7736 
    7753     7763     7770     7774     7777     7784     7797     7807 
    7793     7753     7705     7662     7635     7623     7624     7645 
    7678     7711     7735     7740     7722     7682     7624     7562 
    7523     7515     7527     7553     7589     7634     7681     7735 
    7786     7830     7866     7893     7904     7912     7929     7952 
    7969     7987     8001     7989     7951     7901     7848     7805 
    7776     7762     7761     7757     7755     7761     7763     7765 
    7767     7767     7765     7762     7755     7736     7704     7668 
    7626     7585     7557     7539     7533     7527     7516     7506 
    7497     7492     7500     7524     7558     7600     7658     7726 
    7789     7843     7884     7905     7905     7898     7893     7888 
    7892     7908     7929     7959     8000     8039     8064     8071 
    8062     8048     8043     8052     8074     8094     8105     8105 
    8090     8060     8021     7974     7925     7877     7832     7804 
    7778     7753     7724     7692     7665     7653     7658     7677 
    7695     7699     7690     7663     7627     7587     7550     7526 
    7516     7528     7557     7576     7576     7566     7550     7537 
    7528     7522     7519     7515     7514     7527     7557     7595 
    7622     7638     7642     7636     7636     7649     7663     7681 
    7699     7722     7750     7771     7788     7797     7796     7785 
    7767     7757     7754     7758     7771     7792     7800     7798 
    7794     7788     7773     7751     7731     7720     7722     7732 
    7744     7742     7720     7689     7665     7658     7669     7705 
    7766     7835     7897     7955     8013     8062     8093     8104 
    8090     8067     8047     8032     8029     8032     8024     8005 
    7974     7933     7894     7859     7821     7786     7758     7739 
    7738     7753     7773     7790     7804     7804     7786     7759 
    7727     7689     7657     7628     7603     7581     7560     7542 
    7531     7523     7510     7484     7456     7434     7430     7453 
    7503     7569     7642     7704     7753     7804     7858     7913 
    7970     8021     8067     8105     8132     8143     8131     8097 
    8043     7974     7908     7857     7817     7796     7785     7771 
    7747     7712     7674     7641     7622     7614     7614     7623 
    7638     7654     7674     7688     7688     7674     7654     7634 
    7627     7635     7651     7670     7693     7712     7720     7723 
    7722     7717     7715     7715     7717     7716     7715     7716 
    7722     7734     7753     7778     7812     7850     7892     7933 
    7967     7998     8025     8048     8063     8066     8054     8032 
    7998     7958     7925     7906     7890     7870     7846     7819 
    7788     7759     7738     7717     7701     7685     7666     7651 
    7646     7645     7646     7655     7666     7672     7685     7705 
    7715     7726     7743     7754     7757     7753     7734     7699 
    7655     7604     7551     7503     7461     7431     7410     7396 
    7396     7402     7404     7414     7445     7489     7546     7614 
    7681     7747     7809     7858     7896     7925     7942     7948 
    7951     7948     7936     7917     7900     7888     7879     7871 
    7857     7839     7823     7797     7765     7736     7716     7703 
    7692     7688     7695     7709     7738     7770     7804     7842 
    7875     7909     7940     7963     7978     7989     7994     7997 
    7996     7987     7973     7950     7927     7905     7882     7857 
    7825     7794     7773     7758     7749     7740     7727     7711 
    7689     7659     7624     7588     7555     7522     7497     7493 
    7506     7535     7580     7630     7686     7743     7794     7851 
    7911     7962     8009     8044     8064     8074     8070     8052 
    8021     7974     7919     7871     7838     7811     7789     7773 
    7755     7732     7711     7695     7686     7680     7674     7670 
    7658     7638     7618     7593     7565     7534     7500     7472 
    7454     7447     7452     7469     7497     7527     7557     7589 
    7612     7623     7630     7636     7647     7666     7690     7719 
    7754     7784     7803     7812     7817     7825     7832     7843 
    7867     7906     7950     7989     8032     8071     8094     8109 
    8114     8106     8090     8059     8006     7939     7869     7811 
    7771     7750     7740     7736     7731     7722     7716     7717 
    7723     7732     7740     7743     7740     7740     7746     7758 
    7770     7778     7785     7790     7803     7825     7852     7888 
    7927     7962     7994     8020     8035     8043     8039     8021 
    7994     7956     7913     7869     7820     7773     7727     7680 
    7632     7588     7541     7484     7423     7366     7314     7273 
    7244     7226     7227     7245     7279     7325     7381     7445 
    7511     7578     7642     7695     7743     7785     7816     7844 
    7863     7870     7869     7862     7851     7834     7815     7803 
    7793     7785     7784     7788     7796     7800     7804     7813 
    7819     7816     7811     7805     7797     7785     7770     7757 
    7743     7731     7722     7719     7731     7754     7780     7807 
    7825     7834     7838     7840     7840     7844     7851     7861 
    7867     7882     7908     7935     7967     8002     8025     8029 
    8014     7982     7942     7900     7861     7825     7798     7782 
    7766     7751     7742     7730     7720     7716     7719     7727 
    7730     7720     7707     7695     7690     7700     7723     7759 
    7801     7840     7874     7900     7916     7928     7935     7936 
    7935     7939     7947     7951     7954     7954     7947     7936 
    7924     7913     7897     7875     7854     7832     7807     7786 
    7776     7762     7742     7720     7697     7670     7642     7619 
    7595     7573     7565     7561     7560     7562     7562     7557 
    7551     7545     7535     7526     7516     7506     7484     7457 
    7434     7419     7408     7406     7412     7426     7447     7477 
    7508     7537     7564     7582     7592     7592     7588     7587 
    7588     7596     7620     7659     7708     7754     7801     7848 
    7892     7929     7970     8008     8033     8044     8048     8048 
    8037     8024     8004     7977     7956     7947     7940     7936 
    7936     7940     7944     7951     7965     7979     7993     8009 
    8027     8046     8073     8097     8114     8129     8136     8132 
    8117     8090     8050     7998     7942     7877     7801     7724 
    7651     7582     7528     7483     7431     7380     7333     7288 
    7256     7246     7256     7279     7317     7361     7406     7450 
    7491     7530     7566     7599     7634     7666     7686     7697 
    7705     7711     7719     7730     7744     7762     7784     7812 
    7840     7862     7879     7898     7916     7935     7951     7962 
    7965     7962     7963     7973     7993     8021     8056     8091 
    8112     8112     8100     8082     8066     8050     8033     8024 
    8012     8000     7994     7981     7952     7909     7850     7784 
    7713     7643     7577     7511     7442     7379     7319     7264 
    7221     7192     7179     7176     7190     7223     7269     7326 
    7398     7479     7558     7631     7697     7751     7800     7843 
    7873     7886     7889     7879     7866     7854     7843     7840 
    7842     7844     7855     7873     7886     7898     7906     7913 
    7924     7940     7956     7971     7981     7981     7973     7962 
    7946     7933     7924     7913     7905     7900     7897     7897 
    7898     7901     7900     7886     7869     7857     7846     7836 
    7828     7821     7815     7811     7809     7812     7816     7823 
    7824     7815     7797     7777     7749     7713     7678     7651 
    7632     7611     7593     7581     7568     7547     7527     7510 
    7495     7485     7487     7496     7512     7535     7561     7588 
    7607     7620     7630     7635     7642     7650     7655     7663 
    7674     7682     7689     7693     7696     7700     7704     7716 
    7731     7740     7747     7751     7751     7755     7762     7769 
    7776     7786     7805     7834     7865     7897     7925     7954 
    7978     7992     7996     7996     7998     8000     7996     7989 
    7979     7966     7947     7927     7902     7874     7843     7813 
    7782     7754     7727     7695     7663     7639     7611     7588 
    7581     7580     7588     7612     7647     7692     7744     7793 
    7840     7889     7935     7971     8002     8029     8044     8055 
    8063     8071     8078     8067     8048     8028     7994     7956 
    7919     7877     7834     7796     7765     7738     7716     7701 
    7689     7673     7655     7641     7628     7614     7592     7565 
    7535     7501     7472     7452     7439     7431     7426     7427 
    7433     7437     7447     7470     7503     7538     7577     7623 
    7676     7730     7788     7839     7878     7915     7946     7967 
    7986     8009     8029     8040     8046     8046     8033     8014 
    7989     7954     7911     7867     7832     7808     7790     7777 
    7765     7751     7739     7726     7713     7704     7695     7689 
    7682     7676     7670     7662     7650     7635     7614     7593 
    7578     7572     7573     7574     7569     7562     7553     7549 
    7549     7547     7549     7550     7558     7584     7622     7668 
    7727     7792     7850     7901     7950     7990     8014     8027 
    8024     8005     7977     7938     7886     7831     7774     7716 
    7661     7615     7581     7553     7535     7535     7547     7561 
    7577     7597     7612     7624     7638     7653     7665     7681 
    7696     7715     7740     7771     7807     7851     7900     7943 
    7982     8016     8044     8066     8086     8100     8108     8117 
    8125     8129     8133     8132     8127     8112     8086     8062 
    8039     8019     8008     7997     7983     7967     7944     7919 
    7892     7861     7827     7789     7751     7713     7682     7662 
    7653     7645     7641     7641     7638     7631     7627     7628 
    7630     7626     7620     7612     7592     7560     7520     7485 
    7458     7438     7425     7416     7412     7411     7410     7416 
    7426     7434     7450     7472     7495     7519     7542     7569 
    7596     7615     7630     7643     7654     7669     7685     7696 
    7704     7717     7743     7781     7821     7862     7900     7938 
    7970     7998     8024     8041     8056     8073     8083     8093 
    8097     8094     8083     8063     8039     8012     7983     7956 
    7932     7908     7888     7871     7857     7843     7836     7831 
    7820     7807     7790     7771     7754     7743     7736     7736 
    7740     7736     7720     7695     7672     7649     7628     7616 
    7609     7607     7611     7618     7623     7631     7638     7649 
    7663     7684     7709     7735     7758     7780     7797     7809 
    7824     7838     7846     7851     7851     7839     7817     7792 
    7755     7717     7688     7663     7643     7632     7627     7624 
    7623     7624     7631     7641     7653     7666     7676     7681 
    7686     7689     7690     7692     7697     7707     7722     7744 
    7771     7800     7834     7859     7874     7893     7916     7938 
    7952     7966     7979     7986     7990     7998     7998     7992 
    7982     7962     7936     7915     7889     7862     7842     7819 
    7797     7782     7770     7759     7750     7744     7740     7735 
    7730     7728     7730     7728     7724     7720     7708     7692 
    7678     7665     7653     7641     7634     7631     7632     7638 
    7646     7657     7670     7678     7692     7711     7723     7734 
    7743     7750     7759     7777     7796     7816     7836     7858 
    7875     7889     7908     7928     7942     7955     7965     7963 
    7952     7938     7927     7911     7888     7867     7846     7821 
    7801     7784     7769     7755     7740     7723     7697     7673 
    7650     7626     7607     7593     7582     7581     7581     7576 
    7573     7574     7570     7561     7561     7569     7577     7595 
    7620     7641     7654     7666     7677     7688     7696     7701 
    7709     7712     7709     7711     7719     7722     7715     7709 
    7707     7701     7705     7717     7728     7742     7754     7766 
    7781     7794     7809     7828     7850     7873     7893     7908 
    7924     7940     7951     7960     7969     7973     7970     7967 
    7960     7947     7927     7900     7869     7839     7809     7784 
    7763     7747     7734     7717     7705     7695     7685     7680 
    7674     7672     7670     7663     7651     7638     7623     7603 
    7580     7564     7549     7528     7514     7504     7497     7499 
    7504     7516     7539     7569     7604     7646     7690     7735 
