Origin Time       2025/06/03 22:18:00
Lat.              41.7
Long.             143.6
Depth. (km)       30
Mag.              5.2
Station Code      ABSH07
Station Lat.      43.8494
Station Long.     143.0861
Station Height(m) 572
Record Time       2025/06/03 22:19:46
Sampling Freq(Hz) 100Hz
Duration Time(s)  120
Dir.              3
Scale Factor      2942(gal)/8224139
Max. Acc. (gal)   0.130
Last Correction   2025/06/03 22:19:47
Memo.             
  -32475   -32479   -32485   -32491   -32497   -32501   -32499   -32487 
  -32471   -32458   -32440   -32422   -32408   -32393   -32374   -32356 
  -32333   -32310   -32308   -32319   -32331   -32347   -32362   -32367 
  -32363   -32351   -32332   -32306   -32279   -32259   -32246   -32236 
  -32239   -32250   -32259   -32269   -32278   -32271   -32256   -32238 
  -32208   -32181   -32167   -32159   -32173   -32208   -32239   -32273 
  -32312   -32340   -32354   -32356   -32354   -32351   -32351   -32358 
  -32374   -32391   -32410   -32428   -32429   -32413   -32395   -32382 
  -32368   -32362   -32364   -32374   -32397   -32425   -32447   -32460 
  -32468   -32481   -32497   -32503   -32510   -32520   -32524   -32533 
  -32547   -32559   -32572   -32579   -32580   -32578   -32563   -32533 
  -32499   -32464   -32432   -32397   -32356   -32321   -32294   -32274 
  -32265   -32262   -32265   -32273   -32275   -32279   -32279   -32273 
  -32265   -32254   -32243   -32238   -32236   -32242   -32250   -32266 
  -32279   -32282   -32287   -32304   -32317   -32323   -32328   -32343 
  -32363   -32382   -32408   -32439   -32460   -32476   -32495   -32503 
  -32502   -32501   -32494   -32476   -32468   -32472   -32475   -32479 
  -32479   -32474   -32472   -32464   -32447   -32440   -32445   -32449 
  -32449   -32452   -32449   -32433   -32424   -32418   -32410   -32402 
  -32386   -32360   -32329   -32296   -32263   -32244   -32240   -32246 
  -32256   -32269   -32277   -32281   -32281   -32271   -32255   -32243 
  -32242   -32247   -32252   -32263   -32278   -32282   -32286   -32297 
  -32301   -32297   -32297   -32300   -32298   -32298   -32300   -32302 
  -32316   -32335   -32344   -32343   -32339   -32336   -32332   -32328 
  -32329   -32333   -32336   -32347   -32352   -32346   -32333   -32313 
  -32290   -32274   -32263   -32259   -32258   -32256   -32263   -32277 
  -32287   -32301   -32320   -32339   -32350   -32363   -32375   -32378 
  -32370   -32360   -32351   -32351   -32360   -32370   -32383   -32402 
  -32418   -32436   -32452   -32458   -32458   -32460   -32462   -32460 
  -32455   -32452   -32456   -32467   -32470   -32462   -32459   -32463 
  -32456   -32444   -32432   -32414   -32394   -32379   -32358   -32331 
  -32312   -32304   -32302   -32312   -32333   -32358   -32374   -32387 
  -32402   -32410   -32410   -32412   -32410   -32413   -32422   -32428 
  -32432   -32435   -32431   -32425   -32428   -32428   -32421   -32420 
  -32421   -32414   -32410   -32414   -32414   -32410   -32410   -32409 
  -32401   -32389   -32371   -32348   -32333   -32331   -32335   -32340 
  -32346   -32347   -32343   -32332   -32320   -32313   -32310   -32312 
  -32310   -32309   -32314   -32320   -32320   -32320   -32314   -32300 
  -32286   -32279   -32275   -32278   -32283   -32281   -32282   -32290 
  -32289   -32285   -32286   -32290   -32294   -32294   -32301   -32310 
  -32317   -32324   -32344   -32370   -32394   -32420   -32445   -32464 
  -32468   -32468   -32468   -32463   -32458   -32454   -32448   -32447 
  -32448   -32443   -32432   -32428   -32431   -32429   -32429   -32432 
  -32428   -32420   -32413   -32401   -32389   -32385   -32386   -32385 
  -32383   -32389   -32394   -32401   -32408   -32405   -32394   -32383 
  -32374   -32359   -32344   -32339   -32339   -32339   -32339   -32337 
  -32336   -32331   -32317   -32306   -32294   -32279   -32271   -32265 
  -32258   -32256   -32259   -32259   -32255   -32242   -32225   -32219 
  -32215   -32208   -32212   -32227   -32240   -32254   -32262   -32271 
  -32294   -32314   -32329   -32352   -32385   -32405   -32418   -32437 
  -32458   -32471   -32483   -32501   -32520   -32532   -32525   -32508 
  -32490   -32472   -32451   -32417   -32381   -32358   -32348   -32350 
  -32355   -32367   -32381   -32393   -32404   -32412   -32416   -32428 
  -32440   -32448   -32460   -32466   -32466   -32474   -32489   -32497 
  -32490   -32482   -32472   -32462   -32451   -32431   -32413   -32406 
  -32401   -32395   -32389   -32374   -32362   -32352   -32346   -32341 
  -32340   -32341   -32350   -32367   -32375   -32375   -32383   -32387 
  -32377   -32366   -32362   -32358   -32351   -32343   -32336   -32332 
  -32320   -32297   -32277   -32265   -32255   -32243   -32236   -32232 
  -32229   -32236   -32248   -32258   -32271   -32289   -32309   -32331 
  -32347   -32358   -32363   -32358   -32350   -32344   -32339   -32335 
  -32331   -32321   -32308   -32297   -32285   -32278   -32281   -32292 
  -32304   -32320   -32340   -32351   -32350   -32336   -32316   -32294 
  -32273   -32256   -32259   -32274   -32289   -32308   -32332   -32356 
  -32374   -32379   -32375   -32378   -32383   -32387   -32390   -32391 
  -32389   -32390   -32397   -32409   -32418   -32429   -32441   -32456 
  -32467   -32470   -32463   -32454   -32447   -32436   -32424   -32413 
  -32408   -32410   -32410   -32406   -32406   -32420   -32431   -32437 
  -32447   -32451   -32449   -32451   -32463   -32474   -32482   -32495 
  -32513   -32530   -32553   -32580   -32609   -32632   -32643   -32638 
  -32617   -32579   -32544   -32508   -32466   -32425   -32383   -32343 
  -32297   -32247   -32209   -32181   -32166   -32162   -32161   -32167 
  -32173   -32166   -32162   -32167   -32170   -32177   -32194   -32217 
  -32236   -32255   -32281   -32304   -32313   -32312   -32305   -32300 
  -32290   -32277   -32265   -32252   -32238   -32224   -32208   -32182 
  -32159   -32143   -32132   -32132   -32147   -32171   -32196   -32227 
  -32265   -32301   -32332   -32358   -32382   -32409   -32431   -32448 
  -32463   -32481   -32501   -32512   -32526   -32548   -32566   -32583 
  -32601   -32609   -32617   -32622   -32614   -32606   -32605   -32599 
  -32598   -32597   -32582   -32557   -32528   -32498   -32470   -32439 
  -32409   -32370   -32325   -32296   -32277   -32256   -32246   -32251 
  -32265   -32283   -32301   -32317   -32328   -32337   -32344   -32350 
  -32359   -32366   -32362   -32351   -32343   -32336   -32332   -32327 
  -32328   -32341   -32347   -32343   -32343   -32333   -32317   -32309 
  -32304   -32301   -32308   -32323   -32340   -32352   -32366   -32381 
  -32389   -32393   -32395   -32393   -32387   -32386   -32381   -32374 
  -32370   -32367   -32363   -32359   -32355   -32356   -32355   -32352 
  -32362   -32378   -32391   -32404   -32412   -32410   -32400   -32389 
  -32378   -32358   -32336   -32323   -32313   -32306   -32305   -32314 
  -32327   -32331   -32340   -32356   -32368   -32378   -32387   -32393 
  -32393   -32390   -32385   -32375   -32367   -32360   -32346   -32327 
  -32314   -32300   -32279   -32265   -32255   -32242   -32228   -32216 
  -32209   -32209   -32212   -32223   -32235   -32247   -32266   -32289 
  -32320   -32354   -32389   -32422   -32452   -32471   -32479   -32476 
  -32475   -32470   -32445   -32408   -32368   -32337   -32313   -32292 
  -32279   -32282   -32296   -32317   -32341   -32366   -32393   -32406 
  -32414   -32425   -32432   -32436   -32439   -32437   -32439   -32440 
  -32435   -32435   -32445   -32455   -32463   -32475   -32478   -32472 
  -32474   -32472   -32470   -32476   -32487   -32495   -32506   -32517 
  -32524   -32524   -32517   -32508   -32499   -32491   -32481   -32474 
  -32467   -32451   -32429   -32404   -32370   -32336   -32306   -32278 
  -32265   -32270   -32282   -32293   -32305   -32314   -32312   -32301 
  -32290   -32277   -32255   -32220   -32188   -32173   -32157   -32140 
  -32132   -32127   -32125   -32128   -32135   -32144   -32152   -32162 
  -32175   -32192   -32215   -32243   -32270   -32293   -32310   -32324 
  -32332   -32337   -32343   -32344   -32346   -32350   -32355   -32350 
  -32343   -32352   -32356   -32352   -32359   -32367   -32358   -32350 
  -32355   -32364   -32377   -32393   -32412   -32435   -32462   -32482 
  -32498   -32520   -32541   -32564   -32586   -32603   -32622   -32636 
  -32638   -32644   -32653   -32664   -32680   -32701   -32715   -32722 
  -32726   -32725   -32709   -32680   -32652   -32626   -32594   -32552 
  -32516   -32481   -32441   -32410   -32383   -32358   -32336   -32314 
  -32289   -32263   -32235   -32209   -32190   -32177   -32173   -32174 
  -32177   -32186   -32208   -32232   -32244   -32250   -32260   -32266 
  -32265   -32265   -32259   -32258   -32256   -32248   -32240   -32225 
  -32205   -32189   -32178   -32175   -32179   -32182   -32189   -32205 
  -32221   -32233   -32239   -32244   -32251   -32248   -32242   -32235 
  -32221   -32205   -32198   -32202   -32215   -32236   -32262   -32283 
  -32310   -32343   -32368   -32390   -32412   -32425   -32437   -32458 
  -32479   -32490   -32498   -32509   -32516   -32518   -32521   -32525 
  -32535   -32551   -32562   -32564   -32566   -32566   -32557   -32552 
  -32540   -32512   -32481   -32454   -32420   -32381   -32341   -32305 
  -32271   -32248   -32233   -32223   -32225   -32229   -32231   -32235 
  -32243   -32256   -32265   -32266   -32262   -32258   -32255   -32250 
  -32247   -32248   -32248   -32250   -32255   -32263   -32282   -32302 
  -32325   -32355   -32383   -32410   -32427   -32435   -32441   -32447 
  -32449   -32456   -32464   -32467   -32464   -32455   -32444   -32436 
  -32429   -32418   -32414   -32406   -32393   -32387   -32382   -32371 
  -32363   -32356   -32347   -32344   -32341   -32341   -32352   -32360 
  -32363   -32374   -32382   -32389   -32400   -32410   -32417   -32425 
  -32429   -32435   -32447   -32455   -32464   -32481   -32495   -32506 
  -32514   -32517   -32516   -32518   -32520   -32510   -32493   -32467 
  -32437   -32410   -32382   -32358   -32340   -32328   -32324   -32327 
  -32327   -32329   -32333   -32333   -32329   -32320   -32313   -32305 
  -32292   -32283   -32282   -32274   -32273   -32283   -32297   -32310 
  -32324   -32323   -32312   -32304   -32294   -32290   -32298   -32309 
  -32329   -32360   -32393   -32414   -32427   -32440   -32451   -32447 
  -32439   -32428   -32412   -32397   -32389   -32387   -32387   -32387 
  -32385   -32371   -32351   -32325   -32290   -32252   -32219   -32193 
  -32170   -32159   -32158   -32163   -32185   -32212   -32238   -32269 
  -32294   -32312   -32329   -32336   -32332   -32331   -32331   -32324 
  -32313   -32304   -32294   -32290   -32290   -32290   -32297   -32310 
  -32321   -32324   -32325   -32328   -32329   -32331   -32336   -32340 
  -32341   -32352   -32364   -32371   -32381   -32393   -32401   -32410 
  -32414   -32409   -32409   -32409   -32406   -32410   -32414   -32412 
  -32413   -32413   -32406   -32404   -32404   -32404   -32410   -32425 
  -32447   -32466   -32478   -32491   -32505   -32506   -32505   -32509 
  -32512   -32513   -32520   -32530   -32540   -32544   -32545   -32547 
  -32544   -32537   -32526   -32508   -32493   -32482   -32463   -32439 
  -32414   -32389   -32358   -32331   -32313   -32301   -32286   -32277 
  -32271   -32266   -32267   -32270   -32274   -32283   -32289   -32292 
  -32298   -32305   -32305   -32302   -32296   -32289   -32281   -32277 
  -32277   -32275   -32271   -32273   -32281   -32282   -32282   -32283 
  -32282   -32287   -32302   -32320   -32346   -32371   -32389   -32409 
  -32432   -32440   -32440   -32445   -32451   -32452   -32451   -32447 
  -32440   -32428   -32412   -32390   -32368   -32356   -32347   -32333 
  -32324   -32320   -32314   -32309   -32302   -32294   -32292   -32294 
  -32298   -32298   -32298   -32302   -32304   -32297   -32294   -32297 
  -32294   -32290   -32293   -32290   -32287   -32293   -32297   -32297 
  -32298   -32300   -32305   -32312   -32320   -32331   -32341   -32354 
  -32374   -32398   -32420   -32441   -32468   -32489   -32501   -32520 
  -32541   -32551   -32555   -32559   -32555   -32544   -32537   -32525 
  -32508   -32493   -32472   -32452   -32432   -32418   -32408   -32395 
  -32381   -32362   -32336   -32314   -32293   -32273   -32252   -32232 
  -32219   -32206   -32196   -32190   -32192   -32198   -32212   -32225 
  -32239   -32255   -32273   -32293   -32312   -32324   -32336   -32348 
  -32352   -32348   -32348   -32347   -32344   -32344   -32346   -32355 
  -32371   -32387   -32405   -32417   -32418   -32422   -32425   -32417 
  -32408   -32397   -32382   -32368   -32359   -32352   -32350   -32346 
  -32343   -32344   -32344   -32347   -32350   -32348   -32344   -32339 
  -32331   -32329   -32331   -32332   -32341   -32352   -32355   -32355 
  -32364   -32381   -32395   -32405   -32413   -32414   -32414   -32413 
  -32405   -32401   -32398   -32391   -32383   -32371   -32354   -32331 
  -32308   -32287   -32273   -32258   -32244   -32239   -32242   -32250 
  -32262   -32278   -32297   -32312   -32321   -32328   -32335   -32339 
  -32343   -32348   -32360   -32367   -32363   -32364   -32371   -32371 
  -32370   -32377   -32385   -32390   -32389   -32382   -32386   -32390 
  -32390   -32398   -32412   -32424   -32435   -32443   -32447   -32448 
  -32444   -32429   -32408   -32391   -32381   -32375   -32375   -32375 
  -32383   -32398   -32413   -32420   -32424   -32425   -32417   -32408 
  -32401   -32387   -32373   -32370   -32366   -32360   -32366   -32368 
  -32366   -32366   -32366   -32363   -32359   -32355   -32359   -32366 
  -32373   -32381   -32393   -32404   -32409   -32417   -32421   -32414 
  -32417   -32420   -32416   -32414   -32418   -32422   -32432   -32433 
  -32439   -32448   -32445   -32443   -32448   -32443   -32433   -32428 
  -32421   -32417   -32410   -32400   -32393   -32387   -32379   -32373 
  -32364   -32352   -32341   -32339   -32336   -32331   -32329   -32327 
  -32321   -32314   -32305   -32296   -32292   -32292   -32287   -32283 
  -32285   -32289   -32296   -32302   -32302   -32304   -32302   -32297 
  -32293   -32289   -32290   -32296   -32294   -32292   -32296   -32300 
  -32301   -32306   -32309   -32310   -32312   -32309   -32308   -32320 
  -32335   -32348   -32360   -32367   -32367   -32367   -32360   -32350 
  -32332   -32313   -32304   -32298   -32294   -32300   -32313   -32325 
  -32343   -32367   -32391   -32409   -32427   -32451   -32471   -32486 
  -32497   -32505   -32514   -32524   -32530   -32539   -32549   -32553 
  -32552   -32551   -32543   -32532   -32522   -32509   -32493   -32483 
  -32472   -32456   -32443   -32427   -32400   -32371   -32348   -32324 
  -32297   -32274   -32255   -32240   -32238   -32242   -32246   -32251 
  -32259   -32269   -32278   -32287   -32301   -32323   -32346   -32364 
  -32377   -32383   -32390   -32395   -32397   -32394   -32394   -32397 
  -32395   -32394   -32394   -32394   -32397   -32398   -32394   -32394 
  -32395   -32383   -32367   -32363   -32348   -32325   -32305   -32283 
  -32260   -32242   -32227   -32212   -32201   -32198   -32193   -32185 
  -32184   -32184   -32177   -32177   -32184   -32186   -32189   -32196 
  -32204   -32212   -32223   -32238   -32248   -32256   -32267   -32278 
  -32283   -32286   -32292   -32294   -32293   -32297   -32304   -32302 
  -32309   -32323   -32335   -32351   -32366   -32379   -32391   -32405 
  -32422   -32439   -32454   -32471   -32483   -32490   -32497   -32502 
  -32502   -32503   -32508   -32512   -32516   -32521   -32524   -32521 
  -32521   -32525   -32524   -32514   -32510   -32512   -32503   -32498 
  -32499   -32495   -32495   -32503   -32509   -32510   -32510   -32510 
  -32512   -32512   -32503   -32493   -32483   -32472   -32459   -32448 
  -32437   -32427   -32412   -32397   -32390   -32382   -32363   -32347 
  -32335   -32317   -32302   -32287   -32269   -32248   -32233   -32224 
  -32212   -32201   -32198   -32196   -32193   -32194   -32193   -32189 
  -32185   -32185   -32185   -32192   -32196   -32196   -32201   -32213 
  -32221   -32229   -32242   -32248   -32258   -32270   -32281   -32290 
  -32310   -32333   -32352   -32373   -32394   -32412   -32428   -32448 
  -32468   -32491   -32514   -32528   -32540   -32557   -32571   -32576 
  -32584   -32599   -32611   -32614   -32617   -32621   -32616   -32602 
  -32589   -32574   -32560   -32543   -32528   -32516   -32502   -32491 
  -32483   -32474   -32467   -32459   -32448   -32437   -32424   -32413 
  -32405   -32387   -32367   -32352   -32335   -32313   -32296   -32286 
  -32274   -32262   -32252   -32248   -32242   -32232   -32221   -32217 
  -32221   -32225   -32225   -32225   -32224   -32216   -32206   -32198 
  -32188   -32173   -32159   -32150   -32144   -32147   -32155   -32161 
  -32167   -32179   -32189   -32198   -32209   -32221   -32238   -32258 
  -32269   -32277   -32283   -32292   -32302   -32308   -32309   -32319 
  -32332   -32340   -32350   -32362   -32373   -32383   -32393   -32402 
  -32408   -32410   -32416   -32418   -32422   -32428   -32431   -32433 
  -32440   -32448   -32454   -32459   -32464   -32470   -32478   -32486 
  -32489   -32501   -32514   -32521   -32526   -32530   -32526   -32517 
  -32512   -32503   -32491   -32476   -32462   -32449   -32432   -32414 
  -32402   -32390   -32378   -32364   -32352   -32347   -32339   -32331 
  -32327   -32321   -32317   -32317   -32316   -32310   -32306   -32308 
  -32309   -32308   -32310   -32313   -32314   -32309   -32310   -32323 
  -32333   -32340   -32358   -32374   -32387   -32405   -32420   -32429 
  -32440   -32447   -32447   -32440   -32432   -32422   -32401   -32382 
  -32373   -32358   -32346   -32340   -32336   -32331   -32331   -32327 
  -32319   -32320   -32329   -32332   -32332   -32343   -32352   -32356 
  -32363   -32368   -32360   -32354   -32354   -32352   -32351   -32350 
  -32354   -32356   -32356   -32358   -32362   -32366   -32373   -32374 
  -32374   -32382   -32386   -32378   -32379   -32383   -32385   -32387 
  -32395   -32402   -32408   -32412   -32416   -32418   -32417   -32416 
  -32414   -32413   -32414   -32418   -32422   -32420   -32417   -32417 
  -32410   -32402   -32397   -32390   -32382   -32370   -32356   -32344 
  -32329   -32320   -32316   -32306   -32296   -32286   -32277   -32274 
  -32271   -32265   -32258   -32258   -32259   -32255   -32252   -32255 
  -32255   -32250   -32246   -32239   -32236   -32242   -32240   -32235 
  -32242   -32252   -32258   -32266   -32282   -32305   -32328   -32347 
  -32368   -32395   -32420   -32440   -32460   -32478   -32494   -32509 
  -32522   -32529   -32535   -32535   -32529   -32530   -32535   -32528 
  -32516   -32506   -32493   -32474   -32458   -32443   -32425   -32408 
  -32391   -32375   -32360   -32341   -32327   -32319   -32309   -32300 
  -32297   -32294   -32289   -32285   -32282   -32282   -32282   -32278 
  -32275   -32277   -32282   -32286   -32294   -32305   -32319   -32333 
  -32346   -32360   -32378   -32393   -32406   -32422   -32439   -32449 
  -32456   -32462   -32468   -32475   -32482   -32489   -32499   -32512 
  -32512   -32510   -32509   -32499   -32483   -32470   -32459   -32448 
  -32436   -32424   -32412   -32401   -32389   -32377   -32362   -32347 
  -32341   -32333   -32314   -32301   -32293   -32281   -32273   -32273 
  -32269   -32262   -32259   -32254   -32243   -32238   -32235   -32229 
  -32225   -32224   -32228   -32240   -32251   -32256   -32270   -32286 
  -32297   -32310   -32325   -32332   -32343   -32352   -32355   -32354 
  -32351   -32344   -32331   -32316   -32305   -32294   -32285   -32282 
  -32278   -32267   -32256   -32254   -32256   -32255   -32256   -32262 
  -32267   -32273   -32283   -32297   -32309   -32319   -32331   -32347 
