Origin Time       2025/06/03 22:18:00
Lat.              41.7
Long.             143.6
Depth. (km)       30
Mag.              5.2
Station Code      ABSH11
Station Lat.      43.9144
Station Long.     144.1913
Station Height(m) 40
Record Time       2025/06/03 22:20:02
Sampling Freq(Hz) 100Hz
Duration Time(s)  120
Dir.              5
Scale Factor      7845(gal)/8223790
Max. Acc. (gal)   0.238
Last Correction   2025/06/03 22:20:03
Memo.             
    -954     -949     -943     -935     -927     -923     -920     -920 
    -919     -915     -918     -915     -909     -909     -909     -905 
    -900     -897     -892     -882     -873     -864     -857     -857 
    -862     -873     -885     -900     -913     -920     -919     -913 
    -912     -909     -904     -907     -913     -916     -915     -915 
    -913     -907     -896     -885     -870     -855     -842     -831 
    -823     -819     -820     -822     -823     -828     -834     -841 
    -854     -874     -897     -922     -947     -969     -982     -989 
    -992     -985     -977     -980     -978     -976     -984     -992 
    -992     -989     -985     -976     -959     -945     -930     -913 
    -900     -892     -888     -892     -903     -915     -927     -935 
    -934     -934     -930     -922     -920     -922     -923     -926 
    -926     -918     -909     -901     -889     -881     -881     -886 
    -896     -905     -915     -927     -934     -935     -938     -942 
    -950     -958     -965     -970     -974     -976     -973     -972 
    -966     -955     -945     -938     -932     -927     -924     -919 
    -916     -916     -913     -909     -908     -904     -900     -903 
    -903     -899     -899     -899     -899     -899     -899     -900 
    -899     -893     -882     -869     -853     -841     -834     -835 
    -846     -866     -889     -911     -932     -954     -974     -993 
   -1008    -1019    -1024    -1024    -1013     -994     -966     -934 
    -903     -870     -842     -819     -800     -787     -778     -772 
    -770     -774     -781     -789     -801     -815     -826     -832 
    -834     -830     -826     -822     -818     -823     -834     -842 
    -857     -869     -873     -877     -874     -870     -874     -878 
    -884     -893     -907     -919     -927     -932     -936     -942 
    -943     -940     -942     -943     -942     -940     -940     -938 
    -934     -924     -912     -904     -896     -885     -877     -869 
    -866     -870     -876     -886     -904     -927     -953     -978 
    -996    -1005    -1009    -1004     -990     -977     -967     -957 
    -949     -950     -953     -959     -966     -969     -972     -973 
    -970     -963     -955     -946     -934     -926     -923     -918 
    -916     -916     -907     -895     -886     -874     -862     -861 
    -866     -872     -881     -896     -907     -905     -899     -888 
    -874     -865     -861     -862     -866     -876     -891     -908 
    -927     -947     -967     -988    -1005    -1016    -1017    -1008 
    -988     -965     -942     -918     -897     -885     -878     -873 
    -869     -866     -862     -858     -854     -850     -846     -847 
    -849     -846     -838     -823     -807     -789     -773     -764 
    -758     -764     -781     -801     -823     -850     -878     -907 
    -932     -957     -982     -997    -1004    -1007     -997     -982 
    -972     -966     -966     -973     -989    -1007    -1021    -1035 
   -1044    -1048    -1053    -1057    -1062    -1070    -1082    -1100 
   -1112    -1119    -1124    -1119    -1100    -1078    -1057    -1035 
   -1016     -999     -986     -978     -966     -953     -936     -920 
    -901     -885     -873     -865     -858     -855     -851     -846 
    -841     -834     -830     -827     -823     -823     -820     -819 
    -823     -830     -838     -846     -853     -851     -846     -839 
    -832     -828     -827     -834     -845     -858     -869     -878 
    -886     -893     -899     -905     -907     -905     -901     -893 
    -886     -876     -870     -874     -882     -897     -913     -923 
    -932     -939     -939     -940     -945     -949     -955     -962 
    -970     -980     -985     -988     -994     -996     -990     -982 
    -969     -950     -927     -905     -886     -870     -861     -858 
    -859     -865     -872     -880     -886     -891     -896     -896 
    -888     -878     -865     -851     -839     -827     -818     -811 
    -805     -804     -805     -812     -819     -823     -827     -828 
    -827     -823     -811     -800     -788     -781     -783     -785 
    -792     -812     -838     -862     -892     -926     -955     -981 
   -1003    -1011    -1009     -999     -985     -970     -958     -950 
    -947     -950     -957     -966     -978     -996    -1019    -1046 
   -1075    -1104    -1128    -1140    -1144    -1138    -1121    -1100 
   -1071    -1046    -1024    -1007     -997     -994     -996    -1000 
   -1001    -1001    -1003     -999     -992     -985     -980     -978 
    -978     -978     -981     -986     -990     -993     -997     -997 
    -990     -984     -976     -961     -940     -922     -900     -876 
    -853     -831     -818     -808     -801     -799     -799     -797 
    -788     -777     -770     -760     -751     -746     -741     -742 
    -746     -742     -739     -738     -734     -735     -743     -754 
    -768     -784     -799     -807     -808     -805     -799     -791 
    -784     -778     -778     -780     -783     -788     -793     -799 
    -804     -805     -811     -820     -831     -843     -859     -873 
    -884     -889     -888     -888     -888     -888     -895     -905 
    -919     -938     -961     -981    -1003    -1027    -1050    -1074 
   -1097    -1116    -1131    -1148    -1156    -1155    -1150    -1139 
   -1123    -1101    -1077    -1054    -1027     -997     -969     -943 
    -919     -897     -882     -872     -865     -859     -857     -851 
    -847     -846     -847     -849     -850     -855     -866     -873 
    -877     -881     -878     -869     -858     -845     -832     -827 
    -831     -841     -853     -876     -907     -935     -962     -989 
   -1012    -1027    -1034    -1035    -1032    -1026    -1019    -1007 
    -994     -982     -970     -957     -947     -942     -940     -945 
    -955     -967     -982     -997    -1011    -1021    -1027    -1028 
   -1032    -1038    -1038    -1035    -1030    -1021    -1012    -1000 
    -986     -972     -958     -945     -931     -918     -905     -895 
    -884     -877     -877     -876     -872     -868     -864     -858 
    -853     -849     -846     -846     -849     -853     -858     -866 
    -868     -868     -862     -851     -846     -846     -843     -841 
    -841     -838     -835     -834     -830     -828     -831     -839 
    -850     -866     -889     -908     -926     -945     -958     -963 
    -965     -962     -957     -946     -934     -924     -913     -904 
    -900     -899     -897     -896     -896     -897     -903     -911 
    -920     -926     -931     -942     -949     -951     -958     -969 
    -976     -981     -989    -1000    -1011    -1024    -1038    -1047 
   -1055    -1062    -1058    -1046    -1032    -1015     -994     -977 
    -958     -939     -920     -904     -886     -873     -864     -855 
    -847     -842     -839     -837     -832     -831     -834     -837 
    -842     -846     -851     -857     -854     -845     -834     -824 
    -811     -799     -791     -783     -774     -770     -769     -768 
    -768     -770     -770     -772     -772     -769     -762     -749 
    -733     -716     -697     -683     -673     -666     -662     -665 
    -668     -670     -675     -683     -693     -710     -734     -765 
    -792     -820     -845     -859     -876     -892     -908     -927 
    -950     -972     -994    -1019    -1035    -1047    -1055    -1058 
   -1058    -1061    -1059    -1053    -1047    -1039    -1031    -1027 
   -1016    -1000     -986     -972     -957     -943     -934     -930 
    -931     -936     -943     -953     -966     -976     -981     -989 
    -993     -996     -997     -992     -985     -978     -965     -951 
    -939     -928     -922     -916     -915     -915     -916     -922 
    -930     -934     -942     -950     -954     -957     -961     -967 
    -973     -978     -986     -990     -993    -1000    -1004    -1005 
   -1008    -1015    -1028    -1043    -1053    -1065    -1078    -1086 
   -1088    -1090    -1094    -1094    -1097    -1105    -1111    -1112 
   -1112    -1108    -1096    -1082    -1066    -1044    -1021    -1001 
    -981     -959     -940     -924     -908     -897     -889     -884 
    -877     -872     -872     -868     -858     -851     -842     -828 
    -818     -811     -808     -805     -804     -807     -810     -814 
    -820     -830     -838     -847     -855     -862     -869     -874 
    -873     -869     -868     -865     -857     -857     -861     -859 
    -862     -868     -866     -864     -862     -857     -849     -843 
    -838     -831     -826     -822     -816     -810     -805     -800 
    -796     -796     -800     -805     -815     -828     -843     -859 
    -874     -886     -895     -900     -900     -901     -901     -901 
    -907     -913     -916     -920     -920     -916     -911     -904 
    -899     -897     -896     -893     -895     -892     -884     -873 
    -865     -854     -842     -837     -835     -834     -834     -837 
    -839     -841     -838     -838     -843     -850     -862     -880 
    -893     -911     -935     -953     -970     -988    -1001    -1009 
   -1015    -1017    -1015    -1008    -1003    -1001     -997     -993 
    -993     -994     -993     -996     -997     -997    -1003    -1008 
   -1009    -1012    -1015    -1019    -1021    -1021    -1017    -1007 
    -990     -970     -950     -927     -903     -881     -862     -847 
    -835     -828     -826     -823     -824     -831     -835     -841 
    -853     -868     -881     -892     -900     -905     -905     -901 
    -895     -885     -876     -869     -862     -861     -864     -870 
    -878     -886     -891     -896     -899     -896     -895     -895 
    -899     -907     -918     -926     -934     -940     -943     -939 
    -936     -935     -936     -938     -940     -947     -955     -961 
    -966     -966     -965     -962     -951     -938     -926     -913 
    -904     -896     -891     -889     -889     -889     -888     -882 
    -877     -870     -864     -858     -857     -857     -862     -868 
    -876     -888     -905     -923     -938     -950     -957     -967 
    -976     -977     -977     -981     -986     -992    -1003    -1015 
   -1027    -1040    -1053    -1061    -1069    -1075    -1080    -1080 
   -1081    -1081    -1075    -1065    -1051    -1035    -1016     -993 
    -970     -954     -938     -920     -901     -885     -872     -857 
    -843     -832     -823     -818     -814     -808     -801     -796 
    -791     -787     -785     -787     -789     -793     -797     -801 
    -804     -808     -814     -823     -831     -835     -845     -857 
    -865     -870     -873     -873     -874     -873     -869     -864 
    -861     -862     -862     -865     -865     -859     -857     -854 
    -843     -832     -828     -820     -815     -818     -822     -828 
    -837     -847     -859     -870     -882     -896     -911     -924 
    -936     -947     -957     -969     -981     -996    -1013    -1028 
   -1043    -1062    -1075    -1077    -1075    -1067    -1050    -1034 
   -1019    -1003     -989     -978     -973     -972     -972     -967 
    -959     -950     -940     -927     -909     -895     -882     -872 
    -859     -855     -857     -862     -869     -880     -891     -900 
    -909     -916     -919     -915     -904     -891     -873     -855 
    -838     -822     -810     -805     -801     -796     -796     -795 
    -787     -781     -780     -776     -772     -770     -769     -776 
    -787     -796     -811     -828     -841     -854     -868     -876 
    -882     -889     -899     -912     -927     -945     -963     -981 
    -997    -1011    -1020    -1027    -1032    -1035    -1035    -1032 
   -1030    -1031    -1035    -1040    -1042    -1046    -1054    -1059 
   -1063    -1063    -1061    -1059    -1054    -1046    -1043    -1039 
   -1031    -1021    -1008     -993     -978     -962     -946     -932 
    -918     -901     -882     -864     -847     -831     -818     -807 
    -799     -791     -781     -772     -766     -765     -768     -769 
    -776     -787     -797     -812     -827     -838     -851     -862 
    -873     -881     -884     -889     -899     -908     -916     -927 
    -940     -947     -954     -958     -955     -954     -953     -947 
    -942     -940     -935     -934     -936     -935     -935     -939 
    -940     -940     -940     -938     -938     -936     -936     -936 
    -936     -939     -946     -946     -942     -938     -930     -920 
    -915     -912     -908     -905     -907     -908     -908     -909 
    -908     -905     -903     -897     -892     -886     -881     -876 
    -873     -876     -885     -893     -904     -920     -939     -957 
    -974     -990    -1000    -1000    -1003    -1003     -996     -989 
    -984     -969     -954     -940     -922     -905     -893     -880 
    -870     -868     -864     -857     -851     -847     -839     -828 
    -823     -820     -819     -823     -831     -842     -854     -869 
    -881     -892     -908     -924     -936     -951     -965     -977 
    -986     -993    -1000    -1003    -1003    -1009    -1013    -1015 
   -1023    -1030    -1031    -1032    -1031    -1031    -1035    -1036 
   -1036    -1038    -1042    -1043    -1040    -1032    -1021    -1004 
    -988     -969     -947     -928     -909     -891     -876     -864 
    -850     -842     -832     -828     -828     -822     -814     -807 
    -793     -781     -774     -766     -758     -751     -743     -731 
    -720     -710     -696     -687     -683     -681     -687     -699 
    -715     -734     -754     -773     -789     -804     -816     -828 
    -842     -855     -868     -880     -891     -903     -913     -920 
    -927     -935     -939     -943     -949     -957     -962     -966 
    -970     -973     -974     -973     -973     -969     -961     -954 
    -949     -946     -943     -949     -959     -972     -985    -1004 
   -1020    -1038    -1053    -1065    -1077    -1084    -1089    -1094 
   -1093    -1089    -1085    -1078    -1070    -1065    -1057    -1050 
   -1042    -1034    -1026    -1016    -1004     -992     -982     -976 
    -972     -966     -958     -946     -935     -920     -900     -881 
    -865     -850     -842     -834     -823     -814     -807     -803 
    -801     -805     -812     -820     -830     -842     -850     -857 
    -861     -864     -868     -869     -866     -866     -864     -859 
    -858     -859     -855     -851     -847     -846     -843     -838 
    -834     -834     -835     -837     -843     -851     -864     -880 
    -893     -905     -919     -931     -936     -940     -940     -939 
    -936     -932     -926     -920     -915     -907     -896     -888 
    -880     -873     -868     -866     -866     -869     -873     -876 
    -881     -891     -892     -892     -891     -885     -880     -873 
    -868     -868     -869     -872     -876     -877     -877     -880 
    -881     -880     -878     -880     -882     -886     -889     -888 
    -888     -891     -891     -893     -900     -909     -923     -938 
    -951     -965     -981     -997    -1012    -1027    -1042    -1054 
   -1067    -1081    -1085    -1086    -1086    -1078    -1066    -1054 
   -1040    -1027    -1013    -1001     -989     -976     -966     -961 
    -957     -954     -958     -965     -967     -972     -974     -970 
    -965     -959     -950     -936     -922     -907     -891     -870 
    -854     -842     -830     -816     -808     -803     -799     -795 
    -793     -789     -785     -785     -791     -791     -789     -789 
    -789     -788     -792     -791     -787     -788     -791     -793 
    -800     -811     -819     -828     -842     -851     -858     -868 
    -874     -874     -877     -878     -880     -878     -874     -874 
    -874     -872     -872     -872     -874     -877     -877     -880 
    -885     -886     -888     -892     -896     -899     -904     -909 
    -913     -916     -922     -927     -932     -938     -942     -951 
    -958     -967     -982     -994    -1000    -1008    -1013    -1017 
   -1020    -1017    -1016    -1015    -1013    -1016    -1017    -1023 
   -1032    -1040    -1047    -1054    -1061    -1062    -1065    -1070 
   -1070    -1066    -1066    -1065    -1059    -1054    -1050    -1044 
   -1038    -1034    -1027    -1020    -1012    -1001     -988     -977 
    -966     -953     -943     -938     -928     -920     -913     -908 
    -904     -903     -901     -900     -900     -903     -908     -907 
    -907     -907     -899     -889     -881     -873     -862     -849 
    -838     -823     -807     -797     -788     -776     -765     -758 
    -754     -753     -751     -754     -760     -762     -765     -769 
    -777     -784     -788     -792     -795     -792     -791     -795 
    -796     -797     -804     -816     -827     -838     -853     -866 
    -876     -888     -899     -908     -920     -934     -947     -959 
    -966     -974     -976     -970     -963     -958     -950     -938 
    -930     -926     -920     -918     -919     -920     -926     -934 
    -936     -942     -949     -953     -959     -963     -965     -969 
    -972     -974     -980     -981     -984     -985     -988     -988 
    -980     -969     -962     -953     -940     -931     -923     -918 
    -913     -911     -912     -912     -911     -909     -907     -908 
    -907     -905     -907     -909     -909     -913     -916     -920 
    -926     -930     -935     -939     -946     -953     -958     -965 
    -970     -977     -985     -989     -992     -996     -997     -994 
    -990     -985     -981     -976     -969     -963     -961     -959 
    -957     -949     -945     -940     -934     -926     -920     -918 
    -912     -907     -903     -899     -893     -888     -882     -877 
    -870     -857     -846     -838     -828     -818     -808     -800 
    -793     -789     -785     -780     -776     -774     -769     -768 
    -773     -776     -783     -792     -800     -811     -822     -828 
    -837     -849     -858     -868     -882     -893     -900     -909 
    -918     -922     -927     -934     -934     -935     -936     -938 
    -940     -946     -950     -959     -966     -973     -980     -981 
    -980     -981     -977     -972     -973     -973     -970     -970 
    -973     -974     -973     -970     -963     -955     -950     -939 
    -928     -922     -916     -918     -922     -923     -927     -931 
    -932     -932     -931     -932     -935     -936     -938     -939 
    -942     -942     -940     -940     -939     -935     -931     -927 
    -920     -913     -907     -901     -899     -895     -892     -895 
    -899     -901     -907     -912     -918     -922     -927     -931 
    -934     -936     -934     -930     -927     -922     -916     -916 
    -916     -912     -912     -913     -912     -907     -908     -912 
    -909     -905     -903     -897     -892     -886     -880     -874 
    -868     -861     -859     -855     -850     -849     -850     -850 
    -849     -850     -855     -858     -859     -861     -864     -866 
