Origin Time       2025/06/03 22:18:00
Lat.              41.7
Long.             143.6
Depth. (km)       30
Mag.              5.2
Station Code      ABSH07
Station Lat.      43.8494
Station Long.     143.0861
Station Height(m) 699
Record Time       2025/06/03 22:19:46
Sampling Freq(Hz) 100Hz
Duration Time(s)  120
Dir.              6
Scale Factor      7845(gal)/8223790
Max. Acc. (gal)   0.324
Last Correction   2025/06/03 22:19:47
Memo.             
   -1630    -1638    -1625    -1591    -1548    -1512    -1497    -1517 
   -1564    -1611    -1638    -1645    -1632    -1617    -1607    -1598 
   -1584    -1568    -1549    -1537    -1537    -1543    -1541    -1525 
   -1503    -1493    -1499    -1516    -1522    -1516    -1521    -1553 
   -1594    -1615    -1602    -1566    -1526    -1498    -1486    -1475 
   -1453    -1429    -1421    -1432    -1456    -1490    -1522    -1539 
   -1530    -1501    -1470    -1458    -1478    -1528    -1584    -1640 
   -1682    -1695    -1679    -1640    -1586    -1539    -1512    -1510 
   -1548    -1613    -1669    -1699    -1699    -1675    -1636    -1593 
   -1553    -1522    -1505    -1507    -1528    -1560    -1605    -1651 
   -1696    -1737    -1750    -1728    -1688    -1648    -1620    -1602 
   -1590    -1572    -1545    -1522    -1516    -1518    -1528    -1539 
   -1537    -1517    -1482    -1445    -1428    -1439    -1468    -1506 
   -1544    -1579    -1607    -1626    -1633    -1625    -1602    -1576 
   -1555    -1543    -1544    -1548    -1536    -1502    -1455    -1413 
   -1399    -1428    -1480    -1534    -1568    -1575    -1557    -1530 
   -1509    -1507    -1529    -1571    -1629    -1680    -1714    -1726 
   -1714    -1682    -1638    -1595    -1568    -1567    -1586    -1617 
   -1657    -1691    -1703    -1688    -1647    -1594    -1544    -1505 
   -1479    -1467    -1474    -1491    -1516    -1547    -1571    -1583 
   -1588    -1582    -1559    -1529    -1506    -1499    -1513    -1540 
   -1564    -1574    -1561    -1521    -1471    -1441    -1443    -1472 
   -1522    -1563    -1586    -1598    -1605    -1605    -1588    -1555 
   -1509    -1464    -1432    -1424    -1445    -1491    -1544    -1586 
   -1607    -1606    -1598    -1597    -1602    -1615    -1629    -1625 
   -1595    -1540    -1471    -1416    -1391    -1405    -1448    -1505 
   -1563    -1607    -1625    -1615    -1590    -1559    -1528    -1499 
   -1476    -1468    -1480    -1503    -1536    -1575    -1609    -1628 
   -1624    -1598    -1570    -1556    -1559    -1566    -1560    -1541 
   -1522    -1521    -1543    -1579    -1615    -1647    -1663    -1661 
   -1644    -1613    -1578    -1547    -1522    -1499    -1478    -1475 
   -1502    -1552    -1611    -1660    -1683    -1686    -1682    -1669 
   -1642    -1602    -1563    -1545    -1555    -1579    -1598    -1601 
   -1582    -1555    -1532    -1522    -1528    -1544    -1571    -1609 
   -1640    -1644    -1611    -1552    -1490    -1453    -1449    -1474 
   -1517    -1574    -1633    -1678    -1694    -1676    -1633    -1590 
   -1551    -1516    -1487    -1478    -1486    -1503    -1524    -1536 
   -1540    -1539    -1526    -1502    -1480    -1471    -1483    -1518 
   -1568    -1617    -1641    -1634    -1606    -1564    -1525    -1507 
   -1509    -1525    -1552    -1582    -1603    -1607    -1590    -1547 
   -1491    -1447    -1424    -1424    -1449    -1490    -1532    -1579 
   -1626    -1656    -1653    -1621    -1570    -1528    -1514    -1541 
   -1594    -1661    -1730    -1779    -1795    -1769    -1710    -1641 
   -1586    -1559    -1561    -1576    -1588    -1593    -1591    -1579 
   -1561    -1553    -1557    -1568    -1578    -1575    -1559    -1526 
   -1489    -1459    -1449    -1463    -1493    -1521    -1534    -1529 
   -1507    -1476    -1447    -1431    -1433    -1444    -1451    -1455 
   -1456    -1460    -1460    -1453    -1444    -1449    -1472    -1512 
   -1556    -1591    -1605    -1597    -1576    -1555    -1540    -1541 
   -1557    -1568    -1568    -1564    -1566    -1579    -1602    -1632 
   -1661    -1690    -1707    -1707    -1688    -1655    -1615    -1588 
   -1582    -1580    -1576    -1567    -1552    -1541    -1545    -1559 
   -1574    -1587    -1603    -1628    -1657    -1687    -1702    -1692 
   -1664    -1625    -1587    -1564    -1548    -1532    -1516    -1498 
   -1491    -1503    -1525    -1545    -1564    -1578    -1590    -1607 
   -1625    -1634    -1634    -1629    -1621    -1605    -1576    -1543 
   -1510    -1491    -1490    -1498    -1512    -1529    -1551    -1576 
   -1597    -1602    -1593    -1576    -1563    -1549    -1534    -1525 
   -1522    -1522    -1529    -1540    -1544    -1541    -1529    -1503 
   -1471    -1444    -1428    -1431    -1460    -1502    -1544    -1575 
   -1593    -1594    -1575    -1541    -1498    -1462    -1451    -1467 
   -1505    -1548    -1583    -1599    -1598    -1582    -1556    -1532 
   -1518    -1518    -1526    -1539    -1553    -1556    -1548    -1541 
   -1537    -1539    -1552    -1574    -1597    -1610    -1602    -1580 
   -1557    -1548    -1561    -1588    -1609    -1621    -1633    -1636 
   -1625    -1599    -1551    -1498    -1464    -1459    -1487    -1536 
   -1583    -1626    -1653    -1660    -1655    -1633    -1595    -1549 
   -1503    -1467    -1453    -1462    -1479    -1495    -1512    -1540 
   -1579    -1622    -1663    -1705    -1748    -1779    -1784    -1764 
   -1722    -1675    -1641    -1630    -1637    -1657    -1675    -1674 
   -1648    -1609    -1570    -1545    -1534    -1530    -1537    -1552 
   -1571    -1586    -1594    -1594    -1595    -1598    -1601    -1594 
   -1570    -1526    -1478    -1433    -1390    -1341    -1296    -1263 
   -1256    -1279    -1329    -1391    -1452    -1506    -1549    -1580 
   -1586    -1567    -1536    -1506    -1493    -1494    -1489    -1474 
   -1456    -1443    -1456    -1506    -1575    -1633    -1660    -1648 
   -1613    -1572    -1534    -1509    -1505    -1517    -1541    -1572 
   -1601    -1620    -1637    -1652    -1665    -1684    -1714    -1746 
   -1769    -1772    -1746    -1698    -1637    -1580    -1540    -1521 
   -1520    -1529    -1543    -1549    -1557    -1568    -1580    -1584 
   -1582    -1578    -1579    -1588    -1602    -1621    -1644    -1664 
   -1683    -1696    -1703    -1696    -1667    -1621    -1570    -1528 
   -1507    -1509    -1518    -1525    -1516    -1490    -1464    -1447 
   -1437    -1432    -1429    -1429    -1432    -1440    -1448    -1459 
   -1472    -1487    -1503    -1509    -1501    -1491    -1490    -1487 
   -1478    -1472    -1475    -1485    -1505    -1540    -1583    -1625 
   -1652    -1648    -1624    -1595    -1574    -1571    -1586    -1615 
   -1659    -1707    -1744    -1760    -1752    -1719    -1672    -1621 
   -1572    -1540    -1529    -1536    -1553    -1570    -1582    -1586 
   -1574    -1544    -1503    -1456    -1418    -1394    -1386    -1398 
   -1429    -1476    -1534    -1583    -1611    -1609    -1571    -1518 
   -1470    -1443    -1453    -1497    -1553    -1607    -1642    -1657 
   -1661    -1655    -1644    -1633    -1621    -1606    -1597    -1588 
   -1583    -1584    -1593    -1602    -1606    -1595    -1566    -1533 
   -1513    -1513    -1520    -1517    -1516    -1525    -1537    -1552 
   -1561    -1553    -1525    -1482    -1440    -1409    -1391    -1385 
   -1393    -1420    -1463    -1521    -1582    -1629    -1651    -1645 
   -1621    -1594    -1580    -1591    -1624    -1663    -1698    -1717 
   -1717    -1705    -1687    -1665    -1649    -1649    -1659    -1672 
   -1675    -1660    -1625    -1572    -1507    -1448    -1405    -1390 
   -1420    -1483    -1574    -1669    -1730    -1733    -1686    -1606 
   -1516    -1437    -1393    -1383    -1397    -1429    -1472    -1506 
   -1529    -1548    -1557    -1561    -1571    -1582    -1588    -1599 
   -1617    -1628    -1630    -1618    -1591    -1568    -1549    -1526 
   -1499    -1471    -1444    -1433    -1443    -1460    -1479    -1495 
   -1503    -1502    -1498    -1498    -1493    -1467    -1432    -1399 
   -1377    -1375    -1402    -1441    -1485    -1522    -1547    -1559 
   -1564    -1561    -1551    -1544    -1549    -1572    -1613    -1655 
   -1687    -1714    -1737    -1750    -1752    -1744    -1740    -1738 
   -1740    -1744    -1748    -1755    -1755    -1742    -1721    -1701 
   -1683    -1674    -1667    -1661    -1659    -1659    -1661    -1667 
   -1664    -1647    -1624    -1598    -1575    -1561    -1561    -1574 
   -1594    -1613    -1629    -1629    -1603    -1545    -1467    -1385 
   -1314    -1263    -1229    -1220    -1244    -1310    -1409    -1520 
   -1615    -1672    -1688    -1675    -1645    -1615    -1598    -1584 
   -1559    -1528    -1497    -1475    -1468    -1466    -1453    -1444 
   -1448    -1463    -1487    -1518    -1549    -1580    -1597    -1587 
   -1560    -1530    -1499    -1467    -1435    -1406    -1394    -1395 
   -1404    -1414    -1418    -1431    -1463    -1509    -1552    -1587 
   -1611    -1629    -1649    -1665    -1674    -1674    -1664    -1652 
   -1652    -1668    -1687    -1695    -1696    -1687    -1663    -1638 
   -1622    -1607    -1593    -1579    -1574    -1574    -1578    -1575 
   -1566    -1553    -1548    -1548    -1561    -1576    -1574    -1549 
   -1510    -1463    -1424    -1402    -1402    -1418    -1447    -1483 
   -1521    -1552    -1574    -1578    -1566    -1547    -1529    -1526 
   -1537    -1556    -1575    -1580    -1576    -1568    -1570    -1582 
   -1591    -1595    -1607    -1628    -1649    -1664    -1664    -1652 
   -1636    -1625    -1622    -1618    -1601    -1575    -1548    -1520 
   -1494    -1476    -1467    -1463    -1467    -1485    -1512    -1536 
   -1557    -1572    -1586    -1603    -1625    -1642    -1647    -1634 
   -1618    -1603    -1594    -1593    -1597    -1605    -1617    -1636 
   -1660    -1692    -1721    -1737    -1738    -1725    -1696    -1663 
   -1618    -1561    -1507    -1463    -1429    -1409    -1399    -1401 
   -1410    -1435    -1471    -1506    -1526    -1532    -1525    -1516 
   -1509    -1509    -1512    -1517    -1522    -1526    -1521    -1501 
   -1471    -1443    -1424    -1420    -1431    -1453    -1486    -1526 
   -1571    -1614    -1653    -1679    -1692    -1699    -1706    -1713 
   -1719    -1713    -1682    -1638    -1598    -1564    -1537    -1517 
   -1499    -1494    -1505    -1529    -1556    -1580    -1598    -1602 
   -1591    -1567    -1541    -1518    -1506    -1512    -1540    -1582 
   -1629    -1664    -1671    -1649    -1615    -1578    -1534    -1497 
   -1464    -1441    -1431    -1422    -1414    -1417    -1435    -1463 
   -1498    -1530    -1552    -1564    -1567    -1556    -1539    -1524 
   -1516    -1506    -1495    -1478    -1458    -1444    -1437    -1437 
   -1449    -1475    -1516    -1568    -1622    -1672    -1715    -1745 
   -1752    -1742    -1732    -1730    -1730    -1723    -1705    -1676 
   -1645    -1615    -1586    -1548    -1513    -1497    -1501    -1520 
   -1548    -1572    -1593    -1610    -1622    -1626    -1626    -1626 
   -1622    -1611    -1594    -1576    -1566    -1557    -1548    -1528 
   -1501    -1485    -1486    -1502    -1534    -1583    -1628    -1656 
   -1667    -1657    -1634    -1603    -1570    -1537    -1510    -1485 
   -1460    -1445    -1445    -1459    -1489    -1530    -1574    -1610 
   -1634    -1636    -1621    -1594    -1555    -1516    -1487    -1470 
   -1466    -1475    -1497    -1517    -1532    -1544    -1553    -1561 
   -1570    -1572    -1571    -1572    -1575    -1575    -1587    -1607 
   -1618    -1614    -1602    -1586    -1567    -1555    -1551    -1559 
   -1578    -1606    -1634    -1649    -1649    -1647    -1637    -1625 
   -1613    -1595    -1576    -1560    -1539    -1516    -1495    -1476 
   -1462    -1449    -1440    -1447    -1466    -1485    -1498    -1499 
   -1483    -1456    -1428    -1406    -1399    -1413    -1443    -1472 
   -1495    -1510    -1518    -1517    -1510    -1505    -1513    -1539 
   -1582    -1636    -1687    -1728    -1757    -1772    -1777    -1780 
   -1780    -1772    -1750    -1721    -1688    -1661    -1642    -1626 
   -1614    -1601    -1586    -1574    -1572    -1579    -1588    -1593 
   -1586    -1571    -1551    -1524    -1494    -1467    -1447    -1432 
   -1421    -1424    -1433    -1437    -1437    -1437    -1440    -1448 
   -1462    -1478    -1497    -1517    -1533    -1539    -1533    -1530 
   -1532    -1539    -1555    -1582    -1607    -1624    -1630    -1636 
   -1644    -1651    -1649    -1637    -1610    -1580    -1557    -1537 
   -1518    -1509    -1512    -1530    -1563    -1601    -1636    -1664 
   -1682    -1684    -1671    -1644    -1611    -1574    -1543    -1524 
   -1513    -1506    -1497    -1486    -1476    -1478    -1487    -1495 
   -1497    -1493    -1485    -1482    -1486    -1491    -1495    -1501 
   -1512    -1533    -1563    -1586    -1594    -1595    -1597    -1603 
   -1621    -1645    -1664    -1672    -1668    -1659    -1645    -1626 
   -1602    -1571    -1537    -1510    -1495    -1490    -1495    -1503 
   -1505    -1502    -1497    -1493    -1486    -1474    -1466    -1471 
   -1490    -1524    -1568    -1609    -1638    -1661    -1668    -1657 
   -1638    -1611    -1579    -1552    -1529    -1516    -1517    -1528 
   -1540    -1551    -1557    -1571    -1586    -1593    -1594    -1593 
   -1587    -1584    -1587    -1584    -1579    -1556    -1517    -1489 
   -1482    -1493    -1518    -1553    -1588    -1626    -1659    -1674 
   -1674    -1660    -1634    -1601    -1568    -1539    -1517    -1509 
   -1520    -1544    -1568    -1590    -1603    -1611    -1621    -1629 
   -1634    -1637    -1636    -1626    -1601    -1576    -1566    -1568 
   -1584    -1607    -1624    -1632    -1636    -1629    -1613    -1591 
   -1570    -1553    -1547    -1548    -1549    -1545    -1539    -1526 
   -1506    -1478    -1455    -1437    -1420    -1409    -1406    -1410 
   -1417    -1424    -1429    -1439    -1459    -1493    -1528    -1564 
   -1606    -1649    -1679    -1684    -1663    -1620    -1571    -1529 
   -1505    -1501    -1514    -1541    -1575    -1605    -1625    -1632 
   -1621    -1594    -1563    -1540    -1528    -1525    -1524    -1521 
   -1522    -1525    -1533    -1540    -1544    -1553    -1566    -1583 
   -1610    -1636    -1648    -1647    -1629    -1603    -1579    -1567 
   -1566    -1570    -1576    -1583    -1584    -1591    -1610    -1628 
   -1637    -1645    -1645    -1634    -1620    -1605    -1594    -1590 
   -1586    -1580    -1578    -1574    -1566    -1556    -1541    -1518 
   -1494    -1478    -1472    -1483    -1506    -1524    -1543    -1561 
   -1571    -1572    -1574    -1571    -1560    -1552    -1545    -1544 
   -1548    -1556    -1561    -1567    -1572    -1575    -1576    -1584 
   -1597    -1610    -1624    -1634    -1636    -1633    -1628    -1620 
   -1611    -1601    -1590    -1582    -1576    -1568    -1556    -1541 
   -1522    -1503    -1493    -1482    -1472    -1463    -1452    -1440 
   -1432    -1428    -1429    -1437    -1448    -1462    -1476    -1486 
   -1486    -1476    -1460    -1448    -1443    -1441    -1447    -1451 
   -1455    -1464    -1480    -1502    -1524    -1541    -1560    -1574 
   -1583    -1591    -1601    -1613    -1625    -1629    -1630    -1634 
   -1634    -1632    -1634    -1637    -1633    -1626    -1624    -1624 
   -1618    -1607    -1591    -1570    -1551    -1543    -1541    -1541 
   -1547    -1555    -1559    -1561    -1570    -1580    -1597    -1620 
   -1645    -1661    -1667    -1668    -1672    -1687    -1705    -1714 
   -1718    -1715    -1699    -1674    -1647    -1624    -1609    -1602 
   -1588    -1576    -1572    -1567    -1564    -1572    -1580    -1586 
   -1584    -1575    -1560    -1540    -1520    -1502    -1485    -1471 
   -1466    -1467    -1479    -1495    -1506    -1512    -1517    -1518 
   -1510    -1493    -1470    -1445    -1426    -1410    -1398    -1391 
   -1390    -1393    -1401    -1410    -1418    -1425    -1433    -1443 
   -1466    -1501    -1544    -1593    -1634    -1665    -1692    -1713 
   -1721    -1722    -1719    -1707    -1692    -1679    -1664    -1647 
   -1628    -1613    -1605    -1598    -1595    -1597    -1597    -1601 
   -1605    -1606    -1609    -1611    -1607    -1605    -1609    -1611 
   -1611    -1613    -1611    -1614    -1628    -1640    -1657    -1679 
   -1696    -1707    -1709    -1701    -1683    -1657    -1634    -1621 
   -1607    -1597    -1584    -1567    -1544    -1524    -1506    -1491 
   -1482    -1479    -1472    -1463    -1453    -1443    -1433    -1428 
   -1425    -1422    -1426    -1439    -1453    -1464    -1468    -1460 
   -1445    -1431    -1418    -1413    -1421    -1436    -1449    -1462 
   -1471    -1475    -1486    -1498    -1512    -1533    -1556    -1575 
   -1587    -1591    -1590    -1582    -1567    -1548    -1528    -1510 
   -1499    -1494    -1498    -1510    -1529    -1545    -1556    -1566 
   -1574    -1584    -1598    -1611    -1620    -1621    -1620    -1620 
   -1615    -1610    -1602    -1595    -1597    -1602    -1609    -1617 
   -1628    -1641    -1655    -1667    -1678    -1680    -1680    -1687 
   -1694    -1699    -1706    -1709    -1699    -1678    -1651    -1621 
   -1593    -1564    -1533    -1510    -1499    -1487    -1479    -1480 
   -1489    -1497    -1503    -1510    -1514    -1517    -1520    -1520 
   -1516    -1513    -1516    -1518    -1521    -1529    -1544    -1561 
   -1572    -1574    -1570    -1561    -1552    -1543    -1536    -1530 
   -1529    -1533    -1537    -1539    -1534    -1518    -1495    -1475 
   -1459    -1453    -1462    -1476    -1495    -1517    -1532    -1547 
   -1568    -1590    -1606    -1624    -1641    -1657    -1676    -1690 
   -1690    -1679    -1671    -1663    -1656    -1659    -1667    -1679 
   -1687    -1691    -1686    -1669    -1651    -1636    -1625    -1613 
   -1598    -1586    -1579    -1575    -1563    -1540    -1507    -1475 
   -1451    -1439    -1436    -1445    -1462    -1478    -1491    -1506 
   -1525    -1536    -1541    -1548    -1552    -1552    -1549    -1540 
   -1521    -1499    -1478    -1462    -1459    -1468    -1478    -1489 
   -1503    -1514    -1521    -1528    -1536    -1540    -1541    -1541 
   -1536    -1532    -1530    -1530    -1528    -1522    -1521    -1524 
   -1526    -1530    -1537    -1547    -1559    -1574    -1587    -1599 
   -1615    -1632    -1641    -1645    -1647    -1641    -1629    -1614 
   -1602    -1591    -1580    -1570    -1560    -1556    -1556    -1557 
   -1563    -1574    -1580    -1582    -1586    -1584    -1580    -1576 
   -1570    -1560    -1553    -1549    -1556    -1570    -1584    -1594 
   -1601    -1609    -1615    -1618    -1621    -1618    -1610    -1605 
   -1601    -1586    -1572    -1563    -1557    -1560    -1570    -1583 
   -1597    -1609    -1614    -1611    -1598    -1582    -1570    -1556 
   -1540    -1525    -1514    -1507    -1505    -1503    -1510    -1521 
   -1533    -1545    -1549    -1552    -1559    -1568    -1578    -1583 
   -1584    -1587    -1593    -1591    -1584    -1574    -1555    -1532 
   -1506    -1482    -1468    -1471    -1483    -1497    -1507    -1517 
   -1526    -1537    -1549    -1561    -1576    -1591    -1601    -1606 
   -1605    -1594    -1580    -1568    -1553    -1543    -1539    -1537 
   -1541    -1548    -1552    -1559    -1568    -1576    -1580    -1578 
   -1572    -1567    -1561    -1559    -1556    -1551    -1545    -1541 
   -1534    -1529    -1528    -1526    -1524    -1524    -1520    -1507 
   -1499    -1493    -1485    -1478    -1476    -1479    -1487    -1498 
