Origin Time       2025/06/03 22:18:00
Lat.              41.7
Long.             143.6
Depth. (km)       30
Mag.              5.2
Station Code      ABSH13
Station Lat.      43.7419
Station Long.     143.4514
Station Height(m) 321
Record Time       2025/06/03 22:19:17
Sampling Freq(Hz) 100Hz
Duration Time(s)  120
Dir.              5
Scale Factor      7845(gal)/8223790
Max. Acc. (gal)   0.564
Last Correction   2025/06/03 22:19:18
Memo.             
[...]
   32726    32717    32701    32690    32679    32675    32678    32682 
   32687    32688    32695    32706    32713    32722    32734    32744 
   32759    32771    32783    32796    32806    32818    32834    32848 
   32868    32887    32908    32923    32913    32898    32881    32863 
   32850    32836    32818    32806    32794    32794    32805    32814 
   32822    32827    32825    32819    32809    32799    32792    32796 
   32815    32833    32842    32844    32834    32826    32818    32806 
   32796    32790    32786    32780    32765    32759    32761    32763 
   32772    32783    32791    32802    32809    32817    32817    32805 
   32796    32791    32791    32798    32800    32805    32803    32796 
   32795    32788    32775    32761    32749    32751    32752    32748 
   32748    32741    32732    32721    32701    32676    32656    32648 
   32657    32664    32672    32692    32710    32722    32734    32738 
   32741    32744    32745    32745    32745    32742    32736    32730 
   32726    32724    32733    32749    32759    32775    32788    32791 
   32784    32771    32759    32753    32752    32759    32776    32802 
   32837    32867    32891    32908    32908    32900    32884    32859 
   32842    32832    32825    32838    32852    32864    32879    32887 
   32888    32883    32875    32865    32848    32833    32819    32802 
   32787    32776    32773    32783    32791    32803    32813    32813 
   32819    32823    32827    32834    32837    32841    32844    32836 
   32826    32810    32788    32768    32745    32726    32714    32711 
   32721    32730    32734    32733    32729    32734    32741    32740 
   32741    32737    32726    32717    32709    32714    32722    32730 
   32746    32759    32763    32765    32761    32759    32751    32730 
   32707    32686    32671    32670    32671    32676    32692    32714 
   32732    32738    32737    32734    32736    32752    32771    32790 
   32803    32805    32805    32811    32810    32810    32815    32821 
   32832    32834    32825    32811    32790    32771    32756    32742 
   32740    32732    32724    32733    32746    32764    32790    32821 
   32849    32872    32884    32888    32883    32883    32883    32884 
   32902    32922    32944    32968    32984    32995    32999    32992 
   32983    32962    32938    32910    32867    32825    32791    32764 
   32752    32749    32748    32752    32759    32776    32800    32819 
   32840    32852    32857    32857    32834    32798    32756    32710 
   32672    32634    32602    32590    32593    32616    32648    32675 
   32697    32706    32709    32710    32701    32690    32682    32671 
   32670    32683    32707    32740    32763    32784    32803    32815 
   32840    32865    32876    32880    32876    32868    32863    32864 
   32883    32902    32922    32946    32960    32968    32967    32950 
   32929    32903    32880    32863    32844    32829    32814    32784 
   32753    32719    32682    32656    32641    32643    32670    32703 
   32738    32763    32772    32761    32725    32686    32661    32651 
   32657    32679    32703    32728    32751    32779    32807    32833 
   32853    32853    32836    32806    32767    32736    32715    32703 
   32706    32705    32692    32672    32641    32622    32633    32667 
   32729    32796    32849    32895    32927    32934    32915    32875 
   32829    32787    32759    32749    32765    32807    32849    32879 
   32908    32915    32900    32881    32850    32810    32779    32756 
   32740    32730    32738    32763    32791    32825    32853    32863 
   32856    32822    32765    32706    32659    32640    32647    32668 
   32706    32741    32769    32803    32834    32856    32869    32872 
   32868    32850    32836    32834    32822    32806    32786    32742 
   32702    32670    32647    32647    32667    32697    32726    32755 
   32792    32829    32854    32875    32877    32871    32850    32811 
   32768    32722    32688    32697    32729    32768    32795    32796 
   32784    32763    32737    32715    32691    32680    32694    32725 
   32772    32836    32913    32989    33042    33064    33050    33007 
   32953    32891    32829    32780    32741    32725    32728    32737 
   32753    32778    32813    32863    32892    32896    32876    32832 
   32786    32746    32715    32695    32680    32676    32686    32697 
   32718    32737    32751    32768    32775    32775    32773    32760 
   32744    32719    32691    32667    32636    32617    32625    32649 
   32686    32728    32769    32811    32837    32850    32854    32846 
   32837    32826    32814    32809    32811    32826    32848    32877 
   32925    32972    32995    32984    32929    32850    32768    32701 
   32665    32645    32630    32632    32647    32670    32698    32717 
   32730    32733    32733    32748    32771    32805    32845    32873 
   32888    32888    32884    32884    32887    32903    32931    32956 
   32979    32991    32980    32957    32923    32888    32841    32768 
   32686    32613    32570    32562    32568    32586    32611    32634 
   32675    32732    32794    32857    32903    32933    32950    32944 
   32915    32863    32791    32721    32663    32633    32636    32645 
   32655    32655    32649    32656    32675    32702    32729    32738 
   32733    32719    32711    32721    32744    32776    32806    32817 
   32825    32840    32857    32881    32910    32940    32957    32952 
   32931    32890    32832    32779    32744    32737    32751    32759 
   32757    32738    32710    32687    32668    32664    32665    32660 
   32661    32674    32702    32755    32814    32871    32915    32940 
   32954    32958    32950    32937    32913    32876    32832    32784 
   32749    32728    32719    32729    32744    32764    32787    32805 
   32822    32827    32809    32773    32732    32706    32711    32738 
   32780    32821    32857    32894    32930    32958    32965    32952 
   32945    32937    32917    32879    32810    32725    32648    32591 
   32564    32552    32547    32551    32560    32578    32607    32640 
   32672    32699    32724    32748    32763    32779    32811    32852 
   32896    32930    32938    32921    32873    32815    32768    32732 
   32721    32738    32772    32822    32875    32921    32953    32965 
   32958    32931    32900    32873    32838    32802    32772    32749 
   32751    32757    32755    32748    32734    32726    32737    32755 
   32771    32775    32773    32779    32787    32809    32841    32857 
   32848    32810    32759    32717    32687    32678    32686    32686 
   32682    32687    32695    32699    32692    32679    32674    32687 
   32736    32806    32868    32911    32926    32922    32907    32869 
   32817    32760    32713    32688    32684    32692    32701    32701 
   32706    32717    32736    32763    32787    32811    32838    32859 
   32880    32900    32914    32935    32965    33003    33043    33080 
   33110    33126    33124    33118    33110    33096    33062    33000 
   32922    32836    32763    32717    32684    32667    32655    32621 
   32579    32533    32491    32467    32452    32454    32476    32509 
   32548    32586    32621    32645    32667    32709    32764    32814 
   32859    32872    32848    32810    32761    32713    32664    32613 
   32578    32567    32570    32580    32589    32589    32593    32606 
   32634    32670    32703    32732    32742    32746    32760    32788 
   32846    32930    33021    33093    33127    33124    33095    33042 
   32979    32917    32869    32849    32844    32840    32834    32830 
   32836    32849    32869    32887    32881    32860    32827    32783 
   32740    32694    32652    32632    32620    32622    32641    32665 
   32701    32748    32799    32861    32917    32949    32957    32933 
   32891    32844    32807    32791    32788    32795    32814    32842 
   32890    32945    32992    33014    33004    32985    32980    32983 
   32985    32971    32934    32886    32836    32807    32806    32807 
   32807    32800    32775    32737    32695    32655    32616    32572 
   32541    32535    32551    32584    32617    32641    32655    32660 
   32665    32674    32683    32698    32711    32733    32759    32776 
   32790    32795    32791    32791    32795    32809    32821    32821 
   32819    32819    32818    32826    32842    32865    32886    32883 
   32860    32821    32772    32725    32684    32671    32692    32733 
   32790    32844    32879    32899    32899    32883    32869    32856 
   32842    32832    32825    32823    32825    32829    32822    32790 
   32751    32713    32683    32675    32671    32655    32626    32593 
   32575    32572    32580    32607    32636    32661    32686    32703 
   32714    32713    32703    32691    32671    32661    32680    32706 
   32721    32718    32702    32694    32705    32736    32779    32817 
   32852    32883    32907    32923    32926    32926    32940    32967 
   33007    33048    33079    33097    33091    33070    33043    33000 
   32956    32919    32894    32875    32852    32825    32799    32773 
   32753    32730    32695    32668    32648    32643    32648    32649 
   32655    32670    32690    32718    32744    32763    32783    32796 
   32809    32815    32814    32811    32806    32809    32821    32829 
   32829    32819    32800    32778    32752    32737    32738    32741 
   32740    32740    32741    32751    32763    32780    32800    32815 
   32838    32864    32879    32891    32899    32906    32913    32906 
   32887    32859    32822    32788    32761    32749    32738    32718 
   32710    32711    32710    32719    32746    32776    32796    32792 
   32759    32697    32626    32572    32543    32540    32556    32584 
   32620    32649    32674    32692    32691    32682    32672    32655 
   32640    32632    32634    32663    32703    32748    32795    32840 
   32892    32950    33006    33061    33095    33103    33104    33102 
   33096    33087    33076    33066    33039    32999    32954    32904 
   32861    32822    32788    32768    32749    32729    32705    32670 
   32638    32618    32611    32621    32643    32678    32726    32768 
   32802    32815    32799    32761    32722    32706    32726    32771 
   32832    32891    32935    32962    32972    32979    32996    33021 
   33043    33053    33041    33002    32926    32829    32728    32634 
   32564    32508    32462    32436    32429    32456    32520    32587 
   32652    32710    32763    32809    32837    32853    32867    32873 
   32886    32903    32918    32934    32934    32914    32879    32827 
   32769    32711    32660    32620    32586    32564    32552    32548 
   32568    32601    32637    32694    32756    32815    32875    32911 
   32918    32900    32876    32867    32861    32849    32829    32803 
   32784    32744    32675    32597    32517    32458    32444    32462 
   32513    32584    32656    32729    32786    32815    32822    32807 
   32795    32799    32815    32848    32887    32938    33002    33075 
   33145    33189    33199    33174    33112    33035    32957    32877 
   32810    32745    32678    32622    32576    32537    32509    32489 
   32476    32467    32463    32468    32476    32489    32506    32529 
   32576    32633    32690    32759    32821    32876    32934    32976 
   32999    33012    33015    33016    33018    33015    33011    33006 
   33004    33004    33006    33018    33033    33052    33075    33099 
   33124    33138    33137    33137    33126    33108    33104    33097 
   33089    33076    33043    32989    32917    32830    32737    32638 
   32543    32454    32374    32317    32278    32267    32283    32314 
   32356    32402    32445    32490    32524    32556    32605    32652 
   32697    32732    32755    32773    32773    32752    32726    32707 
   32714    32748    32796    32845    32871    32884    32900    32913 
   32926    32933    32930    32921    32891    32837    32771    32695 
   32626    32571    32535    32541    32580    32634    32697    32751 
   32788    32802    32800    32799    32792    32778    32764    32755 
   32767    32792    32817    32840    32849    32853    32863    32875 
   32899    32923    32941    32969    32991    33006    33015    33010 
   33000    32984    32953    32931    32923    32929    32952    32968 
   32969    32950    32915    32875    32818    32746    32674    32599 
   32535    32483    32449    32445    32462    32505    32578    32653 
   32722    32782    32829    32881    32944    33026    33122    33195 
   33228    33224    33192    33151    33102    33056    33006    32937 
   32867    32800    32729    32659    32584    32518    32475    32449 
   32448    32463    32476    32497    32520    32541    32570    32597 
   32632    32668    32697    32724    32741    32752    32761    32756 
   32736    32703    32663    32629    32599    32586    32595    32602 
   32611    32630    32652    32682    32718    32753    32787    32809 
   32826    32841    32856    32888    32927    32967    32998    33004 
   32996    32969    32919    32861    32800    32738    32680    32625 
   32583    32556    32541    32544    32552    32556    32553    32540 
   32525    32513    32506    32516    32533    32567    32616    32661 
   32714    32775    32833    32894    32944    32985    33023    33057 
   33100    33160    33226    33297    33353    33376    33367    33335 
   33299    33253    33189    33118    33038    32960    32903    32865 
   32838    32815    32798    32788    32787    32791    32790    32768 
   32748    32738    32729    32718    32705    32692    32690    32691 
   32701    32709    32709    32715    32724    32734    32746    32744 
   32737    32733    32730    32724    32699    32667    32641    32618 
   32607    32601    32593    32587    32587    32594    32601    32607 
   32626    32643    32652    32668    32687    32711    32744    32773 
   32811    32844    32856    32856    32838    32807    32779    32753 
   32745    32756    32780    32809    32825    32833    32836    32827 
   32823    32822    32818    32829    32853    32886    32929    32972 
   33006    33023    33021    33000    32969    32934    32895    32848 
   32805    32773    32759    32764    32773    32791    32818    32837 
   32850    32852    32840    32823    32811    32805    32799    32787 
   32782    32776    32767    32753    32728    32688    32649    32606 
   32567    32530    32497    32478    32475    32495    32535    32575 
   32618    32645    32655    32670    32682    32691    32706    32718 
   32734    32756    32779    32817    32867    32923    32983    33033 
   33073    33108    33141    33168    33173    33161    33133    33084 
   33029    32961    32884    32811    32744    32688    32655    32626 
   32602    32576    32552    32545    32555    32571    32591    32609 
   32636    32668    32703    32748    32796    32845    32888    32922 
   32954    32980    32992    33000    32991    32964    32925    32869 
   32815    32759    32698    32648    32598    32560    32545    32545 
   32563    32586    32607    32638    32665    32692    32722    32738 
   32746    32760    32776    32799    32821    32838    32849    32850 
   32850    32849    32841    32823    32795    32764    32738    32715 
   32702    32690    32671    32668    32690    32740    32810    32883 
   32961    33039    33100    33139    33158    33165    33160    33143 
   33130    33115    33085    33048    33004    32964    32934    32910 
   32880    32826    32755    32686    32618    32564    32535    32518 
   32521    32537    32557    32579    32590    32595    32598    32591 
   32593    32603    32614    32624    32613    32586    32563    32544 
   32535    32537    32544    32551    32555    32570    32603    32634 
   32667    32699    32725    32753    32779    32802    32819    32822 
   32822    32815    32799    32783    32756    32728    32710    32698 
   32709    32740    32773    32811    32842    32861    32869    32869 
   32867    32863    32857    32861    32872    32895    32940    32994 
   33053    33108    33143    33162    33161    33149    33141    33130 
   33129    33134    33133    33123    33096    33056    33008    32952 
   32892    32833    32783    32756    32738    32734    32745    32751 
   32749    32745    32741    32737    32724    32709    32694    32672 
   32659    32659    32659    32657    32647    32625    32601    32572 
   32553    32547    32548    32560    32568    32572    32574    32570 
   32567    32564    32557    32555    32557    32570    32593    32609 
   32625    32640    32660    32691    32726    32765    32809    32841 
   32873    32914    32949    32980    33002    33018    33031    33043 
   33058    33077    33095    33111    33114    33103    33088    33058 
   33025    32991    32949    32904    32853    32809    32772    32733 
   32699    32663    32622    32594    32579    32579    32598    32616 
   32628    32644    32664    32692    32722    32756    32790    32809 
   32815    32815    32810    32805    32795    32787    32780    32772 
   32773    32786    32802    32823    32838    32852    32865    32868 
   32873    32877    32873    32872    32872    32873    32880    32884 
   32886    32881    32871    32868    32868    32877    32895    32891 
   32861    32814    32753    32692    32634    32578    32533    32498 
   32485    32491    32514    32551    32579    32599    32620    32633 
   32648    32664    32675    32688    32697    32707    32726    32744 
   32761    32776    32784    32790    32787    32780    32778    32768 
   32756    32745    32734    32734    32734    32733    32733    32721 
   32699    32672    32640    32613    32584    32567    32563    32567 
   32589    32626    32664    32703    32733    32761    32794    32815 
   32833    32846    32845    32844    32849    32865    32898    32925 
   32952    32977    33000    33025    33037    33042    33052    33064 
   33083    33103    33118    33131    33130    33120    33107    33076 
   33039    33006    32972    32944    32919    32899    32891    32884 
   32886    32891    32890    32883    32859    32818    32771    32715 
   32663    32617    32576    32556    32548    32553    32576    32606 
   32644    32683    32714    32748    32773    32786    32790    32784 
   32778    32768    32752    32741    32722    32705    32698    32686 
   32676    32668    32653    32637    32624    32611    32609    32611 
   32624    32636    32651    32674    32697    32721    32753    32782 
   32811    32841    32860    32876    32894    32914    32937    32961 
   32985    33002    32999    32987    32960    32926    32894    32860 
   32829    32796    32761    32733    32709    32692    32686    32679 
   32683    32698    32714    32737    32755    32765    32782    32795 
   32813    32834    32848    32860    32871    32875    32876    32869 
   32853    32827    32798    32778    32760    32745    32734    32724 
   32725    32729    32724    32715    32707    32702    32703    32707 
   32718    32729    32730    32732    32733    32728    32719    32706 
   32694    32687    32694    32717    32744    32782    32823    32852 
