Origin Time       2025/06/03 22:18:00
Lat.              41.7
Long.             143.6
Depth. (km)       30
Mag.              5.2
Station Code      AOMH05
Station Lat.      40.8564
Station Long.     141.1033
Station Height(m) -267
Record Time       2025/06/03 22:19:32
Sampling Freq(Hz) 100Hz
Duration Time(s)  120
Dir.              2
Scale Factor      2940(gal)/6170270
Max. Acc. (gal)   0.139
Last Correction   2025/06/03 22:19:17
Memo.             
[...]
   91849    91855    91863    91870    91860    91851    91852    91840 
   91821    91807    91787    91769    91772    91790    91800    91799 
   91802    91807    91793    91767    91760    91769    91777    91784 
   91796    91820    91848    91859    91852    91846    91855    91874 
   91884    91876    91874    91894    91913    91906    91895    91894 
   91889    91884    91886    91891    91895    91888    91869    91845 
   91820    91799    91791    91796    91805    91796    91786    91790 
   91796    91800    91798    91791    91786    91781    91784    91805 
   91831    91843    91849    91852    91836    91813    91800    91791 
   91784    91782    91782    91797    91817    91819    91824    91840 
   91851    91858    91851    91834    91844    91885    91919    91915 
   91889    91868    91851    91845    91866    91886    91884    91879 
   91870    91858    91854    91851    91836    91813    91796    91795 
   91809    91826    91833    91827    91819    91806    91786    91777 
   91783    91800    91826    91850    91851    91842    91849    91871 
   91878    91849    91808    91795    91798    91795    91804    91823 
   91822    91802    91786    91785    91805    91830    91829    91805 
   91796    91805    91811    91809    91811    91821    91827    91823 
   91821    91824    91834    91856    91879    91887    91882    91871 
   91861    91857    91853    91849    91838    91815    91802    91816 
   91826    91814    91810    91823    91844    91874    91900    91901 
   91876    91852    91849    91850    91843    91836    91829    91817 
   91814    91826    91839    91841    91831    91825    91829    91825 
   91802    91785    91796    91814    91823    91824    91825    91830 
   91830    91813    91789    91783    91787    91780    91777    91788 
   91792    91784    91777    91769    91771    91789    91789    91777 
   91791    91821    91845    91858    91860    91864    91873    91866 
   91839    91824    91834    91854    91863    91847    91833    91841 
   91845    91838    91839    91843    91833    91813    91810    91816 
   91810    91810    91830    91840    91834    91833    91837    91837 
   91832    91831    91834    91837    91842    91855    91871    91887 
   91899    91893    91870    91851    91845    91838    91836    91848 
   91856    91854    91851    91849    91846    91837    91823    91811 
   91815    91825    91818    91815    91832    91846    91840    91823 
   91816    91814    91800    91795    91805    91799    91777    91773 
   91794    91812    91805    91793    91787    91791    91804    91809 
   91802    91803    91807    91803    91806    91820    91823    91818 
   91825    91839    91850    91859    91860    91853    91851    91858 
   91867    91877    91878    91866    91849    91841    91839    91836 
   91820    91797    91783    91783    91783    91775    91774    91789 
   91808    91818    91829    91840    91841    91834    91834    91848 
   91862    91872    91889    91904    91903    91890    91866    91837 
   91819    91822    91844    91871    91886    91880    91859    91837 
   91823    91814    91801    91782    91774    91787    91803    91808 
   91806    91805    91799    91790    91794    91809    91811    91807 
   91814    91822    91826    91819    91797    91785    91787    91787 
   91789    91811    91852    91892    91910    91906    91901    91898 
   91885    91859    91830    91812    91803    91800    91803    91815 
   91824    91820    91818    91829    91841    91852    91875    91897 
   91905    91911    91909    91897    91888    91886    91878    91863 
   91849    91839    91831    91825    91825    91833    91834    91821 
   91816    91824    91833    91836    91827    91823    91835    91837 
   91816    91792    91785    91791    91797    91803    91803    91788 
   91782    91791    91799    91804    91810    91819    91821    91816 
   91823    91828    91813    91794    91783    91779    91792    91818 
   91840    91842    91822    91811    91823    91844    91860    91861 
   91855    91855    91851    91843    91835    91833    91832    91822 
   91825    91844    91846    91841    91850    91850    91836    91826 
   91823    91815    91806    91813    91833    91836    91811    91784 
   91774    91772    91778    91804    91830    91830    91813    91803 
   91799    91797    91802    91807    91807    91819    91843    91866 
   91882    91880    91863    91849    91851    91859    91855    91850 
   91861    91870    91864    91857    91855    91852    91843    91834 
   91836    91844    91849    91841    91823    91816    91826    91834 
   91832    91822    91811    91810    91820    91825    91823    91823 
   91829    91831    91828    91826    91831    91839    91835    91810 
   91788    91786    91780    91768    91771    91787    91808    91826 
   91827    91820    91824    91830    91823    91817    91822    91828 
   91828    91830    91847    91881    91905    91895    91874    91871 
   91872    91872    91877    91877    91880    91879    91862    91849 
   91849    91838    91824    91819    91810    91795    91780    91759 
   91739    91737    91743    91738    91726    91719    91720    91732 
   91744    91749    91759    91775    91784    91794    91811    91835 
   91861    91872    91867    91868    91877    91872    91858    91852 
   91854    91854    91853    91852    91846    91828    91814    91811 
   91809    91796    91767    91745    91767    91807    91817    91814 
   91836    91868    91886    91886    91867    91841    91832    91843 
   91851    91842    91842    91862    91881    91888    91886    91883 
   91874    91861    91857    91873    91903    91925    91927    91919 
   91910    91903    91894    91877    91860    91847    91838    91845 
   91851    91845    91837    91822    91799    91784    91769    91754 
   91750    91744    91729    91723    91730    91739    91755    91786 
   91818    91836    91842    91837    91829    91835    91858    91878 
   91892    91904    91907    91900    91899    91905    91900    91887 
   91889    91895    91888    91873    91854    91834    91822    91815 
   91814    91817    91802    91786    91805    91835    91845    91852 
   91860    91852    91832    91813    91792    91780    91785    91795 
   91802    91813    91830    91852    91874    91886    91887    91886 
   91892    91901    91913    91929    91941    91927    91891    91856 
   91817    91775    91740    91715    91708    91723    91731    91720 
   91710    91710    91717    91730    91738    91743    91755    91765 
   91770    91782    91806    91830    91849    91874    91904    91912 
   91902    91904    91911    91901    91882    91875    91875    91877 
   91888    91904    91909    91905    91897    91879    91847    91816 
   91789    91770    91780    91813    91826    91811    91796    91787 
   91774    91766    91762    91758    91776    91811    91840    91871 
   91900    91907    91906    91906    91887    91850    91811    91791 
   91801    91817    91821    91824    91835    91843    91836    91825 
   91836    91858    91865    91855    91847    91862    91899    91936 
   91936    91896    91857    91860    91899    91931    91928    91907 
   91889    91872    91857    91835    91801    91780    91783    91798 
   91821    91837    91823    91779    91735    91703    91667    91637 
   91625    91613    91617    91668    91736    91763    91755    91754 
   91784    91855    91939    91974    91949    91915    91898    91876 
   91868    91900    91938    91956    91969    91990    92010    92008 
   91971    91910    91847    91803    91784    91770    91749    91728 
   91709    91689    91666    91636    91620    91633    91658    91682 
   91702    91719    91740    91753    91749    91756    91772    91769 
   91762    91772    91786    91804    91840    91881    91917    91947 
   91970    91986    91979    91943    91906    91880    91847    91811 
   91803    91816    91824    91818    91793    91753    91731    91748 
   91794    91843    91876    91883    91883    91890    91910    91947 
   91990    92005    91985    91958    91942    91928    91919    91914 
   91906    91885    91851    91827    91821    91804    91766    91725 
   91687    91656    91657    91697    91749    91789    91824    91846 
   91830    91785    91753    91767    91816    91860    91880    91887 
   91893    91909    91929    91927    91896    91864    91844    91826 
   91808    91788    91762    91748    91761    91773    91755    91733 
   91755    91825    91879    91872    91827    91775    91731    91715 
   91720    91727    91738    91752    91765    91794    91837    91873 
   91908    91950    91985    92007    92008    91980    91948    91923 
   91894    91862    91824    91767    91710    91674    91654    91657 
   91679    91699    91734    91801    91874    91930    91975    91999 
   91981    91934    91892    91876    91885    91889    91868    91840 
   91828    91835    91856    91879    91883    91870    91851    91823 
   91790    91758    91739    91763    91811    91841    91854    91877 
   91915    91954    91983    92011    92041    92049    92021    91970 
   91912    91847    91760    91663    91597    91583    91602    91623 
   91639    91665    91696    91724    91773    91845    91902    91924 
   91928    91907    91861    91825    91823    91841    91851    91837 
   91813    91812    91838    91862    91851    91809    91778    91786 
   91812    91822    91815    91795    91765    91737    91714    91700 
   91689    91667    91647    91658    91698    91737    91750    91751 
   91767    91796    91827    91870    91920    91942    91912    91849 
   91800    91798    91823    91829    91813    91802    91808    91829 
   91863    91901    91916    91891    91846    91819    91816    91818 
   91821    91828    91832    91827    91818    91817    91830    91861 
   91909    91938    91918    91891    91894    91911    91917    91914 
   91894    91853    91823    91819    91822    91815    91810    91830 
   91864    91881    91867    91831    91821    91844    91863    91880 
   91893    91870    91818    91767    91730    91713    91721    91748 
   91771    91783    91800    91819    91828    91827    91815    91800 
   91794    91799    91808    91809    91794    91777    91786    91816 
   91836    91826    91806    91796    91798    91809    91833    91850 
   91852    91853    91854    91854    91865    91898    91941    91969 
   91989    92011    92021    92007    91985    91957    91916    91889 
   91905    91930    91918    91871    91819    91771    91726    91686 
   91666    91673    91688    91707    91726    91744    91781    91841 
   91898    91944    91984    91996    91976    91963    91980    92004 
   92008    91981    91924    91844    91762    91713    91706    91718 
   91725    91723    91717    91716    91733    91777    91821    91841 
   91849    91860    91879    91907    91917    91894    91868    91860 
   91852    91838    91811    91780    91772    91786    91802    91804 
   91776    91722    91671    91642    91630    91623    91612    91601 
   91594    91591    91601    91632    91680    91742    91794    91814 
   91828    91856    91873    91868    91867    91890    91940    91988 
   91999    91970    91924    91875    91839    91830    91828    91804 
   91762    91733    91734    91773    91831    91868    91875    91879 
   91894    91925    91954    91947    91913    91898    91920    91963 
   92001    91987    91923    91877    91868    91836    91786    91762 
   91763    91779    91824    91881    91909    91888    91829    91779 
   91781    91816    91847    91869    91874    91865    91867    91891 
   91919    91927    91902    91880    91893    91923    91928    91899 
   91864    91859    91885    91908    91918    91921    91916    91890 
   91852    91829    91815    91780    91725    91680    91666    91696 
   91754    91797    91806    91806    91808    91804    91799    91815 
   91856    91879    91865    91844    91836    91831    91806    91751 
   91711    91720    91748    91756    91752    91761    91778    91785 
   91769    91742    91736    91759    91787    91797    91800    91814 
   91840    91863    91881    91904    91936    91968    91990    91990 
   91978    91973    91968    91952    91930    91895    91845    91809 
   91810    91818    91814    91805    91792    91779    91779    91775 
   91756    91731    91720    91729    91748    91761    91763    91746 
   91719    91693    91670    91670    91717    91783    91816    91821 
   91827    91822    91794    91774    91791    91820    91827    91811 
   91792    91793    91810    91823    91843    91885    91911    91911 
   91921    91934    91923    91903    91889    91877    91875    91887 
   91912    91941    91961    91956    91935    91926    91934    91934 
   91927    91919    91909    91921    91948    91938    91891    91846 
   91817    91798    91781    91753    91716    91683    91650    91626 
   91638    91664    91667    91654    91658    91687    91724    91741 
   91730    91717    91723    91732    91742    91775    91814    91837 
   91864    91889    91898    91912    91927    91912    91887    91877 
   91884    91915    91963    92012    92058    92085    92084    92059 
   92015    91972    91951    91953    91959    91944    91903    91854 
   91823    91809    91793    91769    91738    91697    91666    91669 
   91677    91663    91642    91619    91582    91545    91541    91569 
   91606    91640    91671    91705    91735    91752    91765    91784 
   91805    91826    91856    91881    91886    91881    91891    91913 
   91917    91903    91890    91903    91947    91998    92019    92012 
   92003    92001    92020    92062    92084    92047    91979    91928 
   91906    91895    91879    91851    91821    91800    91783    91763 
   91749    91749    91756    91753    91741    91734    91739    91758 
   91782    91790    91778    91762    91761    91772    91773    91769 
   91776    91783    91780    91783    91795    91810    91827    91844 
   91855    91880    91923    91950    91963    91987    92004    92010 
   92024    92025    91997    91969    91954    91946    91938    91923 
   91901    91863    91804    91750    91729    91729    91722    91711 
   91714    91726    91740    91773    91816    91830    91819    91807 
   91792    91773    91763    91769    91776    91771    91757    91735 
   91714    91702    91706    91723    91731    91729    91731    91738 
   91747    91769    91796    91821    91865    91929    91977    91988 
   91981    91990    92014    92017    91976    91916    91887    91892 
   91884    91849    91813    91781    91747    91727    91739    91763 
   91770    91778    91814    91855    91870    91861    91854    91846 
   91816    91777    91744    91702    91650    91611    91591    91589 
   91598    91612    91632    91662    91699    91733    91757    91763 
   91764    91774    91781    91779    91778    91783    91805    91843 
   91879    91891    91890    91892    91893    91892    91894    91888 
   91871    91857    91849    91853    91867    91876    91878    91877 
   91876    91883    91899    91907    91898    91879    91864    91861 
   91858    91843    91830    91830    91831    91833    91854    91895 
   91935    91960    91979    92006    92032    92047    92056    92056 
   92051    92050    92040    92009    91966    91911    91853    91813 
   91795    91784    91784    91809    91837    91849    91854    91847 
   91829    91809    91786    91763    91752    91766    91789    91786 
   91754    91728    91725    91730    91714    91678    91662    91672 
   91684    91696    91705    91710    91738    91795    91852    91890 
   91906    91903    91894    91902    91924    91932    91936    91966 
   92000    92005    91999    91995    91974    91942    91922    91916 
   91916    91926    91950    91974    91989    92005    92013    91994 
   91959    91932    91916    91901    91880    91853    91813    91766 
   91722    91672    91622    91590    91571    91563    91570    91576 
   91580    91598    91624    91636    91639    91659    91692    91721 
   91748    91776    91797    91811    91812    91804    91812    91840 
   91873    91901    91910    91914    91938    91975    92006    92021 
   92013    91996    91995    91998    91984    91957    91929    91897 
   91865    91847    91841    91827    91805    91787    91782    91791 
   91794    91775    91738    91710    91707    91706    91681    91651 
   91643    91651    91662    91676    91684    91681    91677    91671 
   91661    91663    91677    91695    91727    91763    91773    91762 
   91769    91799    91823    91830    91833    91842    91856    91872 
   91871    91844    91820    91834    91864    91876    91884    91904 
   91926    91949    91961    91954    91940    91930    91919    91901 
   91881    91871    91867    91864    91864    91863    91867    91886 
   91902    91902    91902    91906    91905    91887    91860    91846 
   91850    91868    91897    91921    91926    91914    91911    91919 
   91921    91920    91916    91907    91911    91927    91927    91895 
   91849    91814    91787    91759    91741    91741    91755    91771 
   91783    91791    91796    91795    91802    91825    91848    91847 
   91826    91818    91837    91857    91863    91864    91859    91841 
   91822    91828    91855    91882    91890    91865    91829    91813 
   91803    91787    91768    91741    91717    91712    91705    91682 
   91664    91664    91676    91691    91701    91700    91686    91674 
   91680    91702    91733    91765    91780    91776    91774    91778 
   91778    91772    91758    91748    91759    91770    91777    91791 
   91803    91814    91835    91855    91867    91874    91872    91866 
   91863    91875    91910    91937    91938    91942    91949    91944 
   91940    91943    91950    91970    91983    91977    91963    91934 
   91890    91867    91875    91884    91876    91856    91844    91856 
   91887    91917    91940    91956    91964    91963    91955    91932 
   91894    91852    91813    91782    91755    91728    91700    91690 
   91705    91732    91761    91792    91822    91837    91837    91839 
   91848    91865    91891    91910    91919    91933    91950    91958 
   91957    91951    91938    91919    91898    91878    91853    91819 
   91790    91777    91766    91758    91766    91790    91815    91815 
   91793    91773    91765    91779    91805    91808    91790    91781 
   91785    91789    91781    91767    91754    91733    91700    91666 
   91641    91625    91617    91622    91634    91638    91639    91655 
   91689    91740    91793    91830    91851    91859    91868    91884 
   91892    91882    91866    91867    91889    91913    91925    91941 
   91974    92006    92020    92017    92013    92015    92015    92003 
   91965    91906    91849    91801    91763    91733    91699    91666 
   91655    91675    91714    91745    91760    91772    91798    91834 
   91860    91865    91862    91866    91869    91863    91837    91793 
   91762    91753    91748    91741    91727    91703    91690    91697 
   91703    91697    91703    91728    91752    91774    91801    91839 
