Origin Time       2025/06/03 22:18:00
Lat.              41.7
Long.             143.6
Depth. (km)       30
Mag.              5.2
Station Code      AOMH12
Station Lat.      40.5846
Station Long.     141.1547
Station Height(m) 85
Record Time       2025/06/03 22:19:42
Sampling Freq(Hz) 100Hz
Duration Time(s)  120
Dir.              6
Scale Factor      7845(gal)/8223790
Max. Acc. (gal)   0.293
Last Correction   2025/06/03 22:19:43
Memo.             
   14758    14782    14770    14728    14677    14634    14623    14655 
   14706    14755    14786    14786    14755    14702    14656    14646 
   14669    14710    14756    14794    14809    14794    14754    14701 
   14663    14661    14690    14736    14775    14785    14755    14700 
   14648    14624    14648    14717    14793    14836    14813    14743 
   14681    14658    14675    14723    14770    14793    14786    14756 
   14731    14735    14764    14796    14806    14791    14763    14731 
   14701    14706    14752    14805    14843    14863    14864    14837 
   14785    14728    14694    14706    14759    14821    14862    14856 
   14802    14724    14666    14652    14677    14716    14743    14737 
   14704    14658    14617    14609    14646    14701    14740    14746 
   14724    14693    14663    14647    14666    14716    14767    14785 
   14764    14729    14698    14688    14709    14758    14809    14828 
   14810    14767    14717    14690    14701    14739    14781    14797 
   14787    14764    14739    14732    14731    14716    14713    14728 
   14743    14752    14744    14717    14692    14681    14685    14716 
   14767    14817    14840    14818    14759    14709    14694    14708 
   14739    14783    14841    14891    14895    14843    14766    14701 
   14673    14690    14744    14812    14856    14855    14809    14746 
   14694    14674    14677    14700    14739    14770    14771    14746 
   14709    14673    14646    14635    14644    14665    14693    14721 
   14740    14742    14719    14675    14647    14659    14696    14733 
   14758    14774    14777    14750    14709    14690    14700    14736 
   14782    14814    14833    14845    14832    14786    14724    14675 
   14669    14702    14747    14790    14813    14804    14769    14712 
   14651    14629    14655    14702    14744    14767    14782    14791 
   14785    14752    14694    14643    14629    14655    14702    14755 
   14793    14798    14760    14692    14640    14640    14682    14744 
   14800    14825    14817    14775    14712    14658    14636    14663 
   14735    14820    14877    14895    14878    14824    14748    14688 
   14673    14708    14770    14824    14852    14854    14832    14790 
   14737    14700    14702    14743    14791    14816    14812    14786 
   14731    14650    14596    14609    14675    14751    14793    14802 
   14786    14723    14644    14611    14639    14706    14770    14796 
   14801    14794    14763    14721    14698    14705    14739    14777 
   14789    14783    14789    14808    14810    14775    14724    14679 
   14643    14636    14675    14747    14814    14840    14812    14754 
   14683    14615    14580    14602    14671    14751    14806    14809 
   14770    14708    14643    14619    14650    14715    14778    14812 
   14813    14782    14728    14689    14693    14719    14743    14759 
   14777    14797    14813    14820    14817    14806    14777    14728 
   14693    14704    14752    14801    14821    14808    14767    14720 
   14692    14701    14742    14808    14871    14891    14848    14763 
   14686    14658    14678    14727    14783    14823    14823    14778 
   14705    14648    14638    14665    14693    14704    14705    14719 
   14729    14712    14678    14669    14690    14705    14700    14689 
   14694    14710    14725    14739    14754    14759    14751    14725 
   14688    14654    14636    14638    14651    14678    14724    14774 
   14794    14773    14715    14647    14615    14654    14731    14778 
   14778    14773    14777    14781    14777    14752    14724    14708 
   14700    14693    14702    14737    14773    14786    14796    14817 
   14835    14818    14785    14770    14782    14790    14771    14758 
   14794    14864    14909    14898    14855    14805    14755    14705 
   14670    14669    14698    14732    14758    14771    14760    14719 
   14662    14619    14617    14662    14752    14855    14887    14820 
   14704    14597    14540    14557    14635    14752    14875    14941 
   14913    14814    14694    14605    14598    14669    14781    14890 
   14944    14917    14843    14763    14698    14658    14648    14669 
   14708    14756    14802    14797    14716    14593    14505    14513 
   14620    14763    14862    14874    14813    14724    14647    14621 
   14652    14716    14770    14802    14812    14793    14754    14708 
   14682    14692    14719    14747    14781    14814    14824    14787 
   14723    14677    14678    14698    14700    14693    14720    14764 
   14778    14758    14731    14716    14715    14715    14727    14764 
   14821    14855    14832    14771    14736    14743    14758    14766 
   14770    14770    14752    14713    14688    14709    14760    14794 
   14790    14755    14733    14740    14742    14719    14697    14709 
   14747    14771    14773    14770    14759    14725    14670    14616 
   14602    14648    14724    14783    14802    14794    14775    14744 
   14696    14659    14663    14702    14740    14752    14751    14759 
   14769    14751    14715    14698    14727    14779    14817    14816 
   14783    14748    14728    14712    14708    14743    14805    14859 
   14866    14813    14733    14669    14642    14665    14731    14809 
   14859    14851    14790    14702    14636    14629    14669    14715 
   14746    14760    14754    14737    14729    14725    14728    14751 
   14781    14793    14781    14754    14725    14701    14685    14685 
   14681    14650    14623    14632    14670    14709    14736    14752 
   14760    14752    14724    14706    14729    14783    14814    14787 
   14746    14739    14758    14771    14766    14752    14736    14698 
   14651    14642    14683    14758    14817    14818    14778    14742 
   14719    14702    14700    14725    14773    14809    14794    14742 
   14697    14674    14661    14667    14717    14812    14899    14932 
   14882    14786    14709    14686    14716    14796    14895    14959 
   14948    14863    14746    14643    14589    14602    14670    14767 
   14850    14870    14823    14736    14654    14620    14642    14685 
   14729    14779    14835    14862    14832    14755    14673    14617 
   14605    14639    14713    14793    14847    14844    14767    14648 
   14543    14501    14546    14665    14813    14925    14945    14862 
   14705    14536    14432    14450    14588    14786    14956    15016 
   14928    14736    14551    14469    14512    14648    14814    14929 
   14928    14802    14636    14546    14563    14631    14689    14731 
   14779    14821    14835    14832    14833    14844    14848    14829 
   14806    14813    14840    14859    14859    14836    14802    14770 
   14742    14732    14747    14766    14766    14758    14747    14725 
   14682    14647    14643    14665    14704    14743    14764    14762 
   14743    14715    14692    14690    14701    14697    14667    14625 
   14601    14616    14666    14729    14790    14820    14798    14736 
   14666    14624    14635    14688    14750    14804    14832    14812 
   14744    14658    14607    14623    14694    14793    14879    14894 
   14824    14713    14611    14562    14609    14743    14891    14986 
   14993    14904    14760    14631    14567    14589    14674    14771 
   14824    14810    14756    14710    14700    14723    14754    14777 
   14812    14864    14901    14904    14872    14813    14756    14739 
   14767    14828    14882    14879    14810    14715    14642    14624 
   14662    14731    14796    14823    14793    14742    14720    14746 
   14786    14801    14775    14723    14662    14605    14574    14581 
   14617    14662    14689    14683    14661    14643    14644    14675 
   14735    14794    14802    14752    14692    14662    14667    14697 
   14723    14717    14671    14602    14551    14551    14604    14682 
   14754    14801    14821    14817    14796    14766    14742    14737 
   14758    14793    14825    14839    14825    14785    14724    14665 
   14636    14648    14679    14715    14736    14736    14708    14662 
   14632    14644    14697    14778    14855    14871    14817    14740 
   14702    14727    14785    14835    14856    14856    14847    14820 
   14779    14752    14746    14740    14712    14690    14721    14786 
   14823    14816    14787    14767    14770    14789    14817    14852 
   14858    14801    14716    14650    14629    14655    14708    14769 
   14833    14887    14905    14862    14769    14671    14609    14623 
   14727    14856    14917    14878    14781    14683    14627    14632 
   14709    14821    14908    14920    14851    14736    14623    14535 
   14493    14530    14652    14796    14864    14814    14675    14532 
   14447    14438    14505    14636    14773    14836    14800    14698 
   14613    14616    14701    14806    14891    14925    14886    14787 
   14674    14609    14629    14700    14755    14763    14742    14727 
   14731    14733    14728    14720    14723    14735    14747    14755 
   14750    14740    14736    14751    14787    14824    14827    14785 
   14713    14648    14620    14643    14712    14785    14817    14798 
   14744    14683    14652    14669    14727    14809    14882    14901 
   14847    14746    14639    14581    14602    14700    14831    14935 
   14971    14939    14859    14759    14693    14697    14755    14836 
   14899    14913    14885    14828    14750    14688    14673    14713 
   14802    14905    14974    14964    14860    14713    14609    14590 
   14647    14724    14777    14791    14766    14702    14615    14548 
   14544    14588    14636    14662    14666    14654    14625    14589 
   14562    14559    14585    14613    14627    14635    14652    14694 
   14736    14766    14796    14829    14862    14863    14820    14764 
   14737    14760    14806    14839    14847    14844    14835    14825 
   14827    14841    14843    14800    14723    14655    14642    14696 
   14790    14872    14890    14835    14752    14692    14677    14715 
   14786    14844    14855    14804    14708    14616    14570    14585 
   14659    14764    14844    14859    14818    14746    14674    14638 
   14640    14667    14701    14716    14702    14683    14683    14715 
   14754    14759    14731    14697    14670    14647    14644    14690 
   14775    14840    14837    14783    14728    14694    14671    14666 
   14706    14802    14906    14932    14851    14727    14627    14586 
   14617    14708    14809    14878    14897    14858    14777    14692 
   14624    14600    14628    14681    14727    14758    14766    14759 
   14748    14735    14739    14774    14821    14850    14859    14875 
   14891    14875    14813    14737    14690    14674    14667    14670 
   14701    14737    14746    14720    14683    14669    14682    14713 
   14743    14767    14785    14775    14740    14715    14723    14752 
   14770    14755    14719    14685    14669    14677    14706    14746 
   14764    14740    14682    14623    14608    14652    14732    14809 
   14843    14816    14759    14700    14647    14629    14661    14719 
   14769    14771    14727    14666    14616    14592    14596    14636 
   14710    14793    14843    14850    14831    14804    14779    14760 
   14747    14740    14733    14725    14721    14725    14740    14758 
   14752    14720    14682    14659    14648    14643    14644    14659 
   14692    14737    14790    14831    14840    14829    14806    14779 
   14756    14733    14724    14750    14789    14813    14806    14771 
   14731    14717    14742    14793    14848    14902    14933    14916 
   14844    14751    14685    14675    14712    14758    14785    14783 
   14759    14720    14686    14674    14682    14705    14739    14763 
   14774    14777    14762    14736    14713    14697    14689    14696 
   14725    14786    14855    14889    14875    14836    14800    14775 
   14769    14790    14833    14863    14860    14832    14791    14758 
   14733    14709    14688    14683    14693    14694    14678    14646 
   14601    14563    14557    14597    14673    14740    14755    14712 
   14648    14604    14594    14627    14694    14759    14793    14790 
   14756    14716    14694    14696    14708    14720    14712    14677 
   14634    14608    14616    14669    14755    14836    14874    14868 
   14841    14821    14816    14810    14805    14798    14800    14806 
   14804    14797    14798    14808    14813    14802    14777    14742 
   14709    14689    14681    14688    14712    14733    14740    14735 
   14731    14740    14760    14773    14769    14755    14727    14678 
   14625    14578    14555    14574    14628    14702    14773    14813 
   14816    14796    14770    14750    14742    14754    14778    14790 
   14770    14724    14682    14671    14685    14702    14713    14720 
   14725    14721    14701    14670    14656    14673    14697    14713 
   14724    14742    14764    14781    14783    14770    14747    14732 
   14731    14747    14771    14773    14746    14709    14689    14700 
   14728    14748    14752    14739    14708    14670    14648    14654 
   14682    14710    14728    14748    14777    14794    14787    14770 
   14748    14721    14700    14698    14727    14785    14845    14885 
   14894    14864    14794    14709    14650    14647    14716    14827 
   14932    14994    14985    14899    14778    14669    14612    14629 
   14708    14812    14901    14929    14875    14763    14643    14567 
   14569    14640    14742    14823    14851    14827    14754    14659 
   14581    14548    14585    14675    14770    14827    14828    14767 
   14671    14581    14528    14539    14608    14700    14774    14814 
   14835    14844    14833    14798    14755    14728    14732    14752 
   14771    14787    14801    14809    14806    14796    14779    14769 
   14770    14782    14808    14832    14833    14808    14762    14712 
   14678    14677    14694    14700    14669    14612    14553    14512 
   14503    14526    14567    14607    14638    14661    14688    14721 
   14756    14783    14797    14790    14769    14758    14774    14805 
   14831    14844    14854    14855    14850    14825    14771    14721 
   14708    14721    14754    14798    14835    14839    14806    14758 
   14727    14727    14735    14732    14724    14701    14666    14631 
   14612    14620    14659    14720    14781    14817    14820    14787 
   14732    14688    14677    14706    14764    14831    14879    14887 
   14852    14781    14694    14628    14597    14609    14669    14748 
   14809    14827    14806    14771    14740    14720    14721    14754 
   14812    14877    14910    14901    14866    14833    14814    14813 
   14825    14847    14872    14870    14832    14781    14731    14701 
   14701    14709    14719    14739    14770    14791    14804    14808 
   14787    14743    14696    14667    14666    14675    14681    14683 
   14682    14685    14688    14675    14658    14648    14644    14636 
   14632    14644    14665    14678    14673    14646    14621    14617 
   14623    14624    14632    14666    14713    14747    14754    14737 
   14712    14683    14666    14682    14735    14794    14824    14818 
   14793    14767    14752    14746    14759    14789    14810    14810 
   14794    14775    14769    14777    14800    14836    14864    14872 
   14854    14812    14781    14775    14797    14841    14894    14920 
   14894    14828    14752    14697    14671    14677    14709    14751 
   14781    14785    14760    14724    14704    14712    14739    14766 
   14785    14783    14751    14698    14644    14601    14578    14585 
   14612    14634    14648    14656    14655    14651    14644    14636 
   14634    14647    14669    14693    14709    14706    14688    14667 
   14665    14688    14728    14770    14801    14814    14816    14821 
   14847    14887    14925    14944    14931    14893    14858    14841 
   14840    14845    14837    14798    14744    14697    14670    14678 
   14713    14751    14781    14790    14777    14742    14698    14662 
   14647    14661    14692    14728    14755    14752    14719    14677 
   14652    14648    14661    14693    14731    14755    14758    14743 
   14725    14710    14700    14698    14704    14721    14751    14775 
   14785    14782    14769    14755    14754    14762    14779    14798 
   14804    14787    14751    14713    14698    14704    14708    14696 
   14673    14655    14639    14613    14592    14598    14636    14696 
   14755    14786    14783    14759    14715    14663    14643    14682 
   14759    14829    14856    14845    14823    14796    14762    14728 
   14704    14696    14690    14683    14688    14708    14729    14735 
   14716    14686    14667    14675    14706    14740    14758    14754 
   14742    14736    14736    14732    14725    14732    14754    14777 
   14791    14808    14818    14808    14769    14710    14670    14667 
   14690    14709    14708    14696    14682    14648    14598    14566 
   14573    14628    14716    14796    14841    14841    14802    14752 
   14713    14696    14713    14756    14796    14806    14789    14754 
   14717    14686    14677    14704    14771    14859    14926    14939 
   14894    14835    14798    14798    14839    14899    14940    14933 
   14870    14778    14706    14678    14704    14767    14845    14899 
   14895    14823    14715    14627    14589    14602    14669    14762 
   14832    14843    14787    14693    14600    14544    14547    14612 
   14715    14806    14841    14818    14762    14709    14697    14732 
   14800    14881    14943    14963    14944    14899    14850    14810 
   14786    14774    14771    14774    14767    14743    14706    14670 
   14643    14635    14659    14704    14737    14735    14700    14646 
   14594    14565    14566    14600    14652    14696    14706    14682 
   14632    14577    14532    14515    14535    14578    14628    14663 
   14673    14659    14629    14601    14590    14601    14638    14686 
   14729    14758    14756    14727    14685    14658    14662    14696 
   14748    14809    14856    14881    14883    14866    14833    14809 
   14805    14813    14829    14851    14867    14860    14832    14790 
   14742    14702    14688    14689    14708    14750    14790    14800 
   14774    14721    14669    14644    14655    14685    14716    14735 
   14731    14704    14678    14673    14688    14708    14733    14760 
   14789    14816    14832    14840    14852    14866    14863    14850 
   14845    14859    14879    14894    14894    14878    14844    14796 
   14748    14721    14717    14731    14744    14747    14746    14747 
   14748    14748    14756    14777    14796    14806    14810    14802 
   14783    14769    14763    14766    14778    14796    14806    14802 
   14782    14748    14706    14673    14663    14671    14685    14709 
   14732    14740    14731    14710    14698    14700    14698    14696 
   14697    14704    14713    14717    14709    14694    14681    14678 
   14697    14733    14769    14774    14737    14681    14628    14592 
   14578    14589    14616    14639    14643    14629    14609    14594 
   14597    14624    14673    14737    14809    14859    14866    14837 
