Origin Time       2025/06/03 22:18:00
Lat.              41.7
Long.             143.6
Depth. (km)       30
Mag.              5.2
Station Code      AOMH05
Station Lat.      40.8564
Station Long.     141.1033
Station Height(m) -267
Record Time       2025/06/03 22:19:32
Sampling Freq(Hz) 100Hz
Duration Time(s)  120
Dir.              3
Scale Factor      2940(gal)/6170270
Max. Acc. (gal)   0.129
Last Correction   2025/06/03 22:19:17
Memo.             
[...]
  -86506   -86492   -86477   -86481   -86477   -86446   -86409   -86389 
  -86391   -86406   -86427   -86448   -86450   -86428   -86410   -86404 
  -86400   -86404   -86421   -86433   -86426   -86407   -86394   -86393 
  -86404   -86417   -86419   -86416   -86414   -86402   -86389   -86395 
  -86412   -86426   -86433   -86434   -86432   -86424   -86423   -86427 
  -86422   -86410   -86392   -86367   -86351   -86345   -86346   -86356 
  -86370   -86381   -86391   -86402   -86421   -86444   -86457   -86458 
  -86469   -86496   -86510   -86505   -86493   -86483   -86480   -86478 
  -86472   -86469   -86457   -86436   -86437   -86456   -86472   -86469 
  -86457   -86461   -86471   -86468   -86471   -86484   -86479   -86463 
  -86457   -86453   -86441   -86415   -86397   -86407   -86428   -86442 
  -86450   -86447   -86430   -86411   -86397   -86377   -86360   -86362 
  -86370   -86381   -86410   -86434   -86437   -86426   -86412   -86405 
  -86412   -86425   -86438   -86454   -86472   -86476   -86464   -86458 
  -86457   -86453   -86444   -86429   -86410   -86401   -86412   -86431 
  -86440   -86435   -86429   -86428   -86435   -86439   -86422   -86403 
  -86406   -86412   -86401   -86380   -86373   -86391   -86420   -86440 
  -86455   -86468   -86470   -86458   -86441   -86426   -86423   -86440 
  -86463   -86472   -86474   -86470   -86445   -86420   -86416   -86422 
  -86432   -86445   -86452   -86445   -86434   -86433   -86438   -86431 
  -86412   -86396   -86406   -86430   -86444   -86447   -86446   -86433 
  -86413   -86406   -86407   -86401   -86399   -86407   -86413   -86406 
  -86391   -86390   -86414   -86443   -86446   -86421   -86404   -86422 
  -86444   -86436   -86423   -86429   -86435   -86430   -86427   -86432 
  -86435   -86420   -86393   -86382   -86391   -86391   -86377   -86381 
  -86409   -86434   -86443   -86439   -86425   -86410   -86402   -86394 
  -86387   -86396   -86421   -86447   -86460   -86466   -86470   -86460 
  -86431   -86406   -86396   -86398   -86401   -86403   -86412   -86419 
  -86415   -86421   -86441   -86446   -86434   -86437   -86453   -86453 
  -86446   -86453   -86451   -86443   -86457   -86474   -86470   -86462 
  -86479   -86501   -86495   -86471   -86456   -86445   -86431   -86419 
  -86416   -86416   -86401   -86379   -86389   -86426   -86444   -86440 
  -86444   -86456   -86460   -86445   -86423   -86416   -86422   -86432 
  -86449   -86466   -86466   -86454   -86458   -86463   -86461   -86471 
  -86477   -86460   -86447   -86444   -86437   -86431   -86427   -86417 
  -86413   -86418   -86417   -86411   -86420   -86445   -86460   -86450 
  -86448   -86468   -86484   -86489   -86493   -86489   -86485   -86496 
  -86495   -86462   -86429   -86411   -86392   -86383   -86404   -86437 
  -86453   -86451   -86458   -86470   -86458   -86436   -86421   -86408 
  -86406   -86420   -86429   -86423   -86406   -86381   -86351   -86324 
  -86309   -86311   -86317   -86326   -86341   -86359   -86373   -86382 
  -86393   -86403   -86408   -86412   -86415   -86414   -86412   -86415 
  -86422   -86429   -86424   -86405   -86383   -86365   -86354   -86356 
  -86372   -86395   -86423   -86447   -86458   -86452   -86428   -86408 
  -86415   -86434   -86450   -86462   -86457   -86433   -86411   -86392 
  -86376   -86378   -86399   -86416   -86420   -86418   -86414   -86409 
  -86415   -86434   -86456   -86466   -86445   -86406   -86381   -86378 
  -86397   -86437   -86471   -86467   -86442   -86415   -86388   -86369 
  -86363   -86367   -86378   -86384   -86373   -86344   -86320   -86319 
  -86331   -86341   -86360   -86401   -86443   -86458   -86451   -86438 
  -86428   -86419   -86411   -86418   -86439   -86458   -86472   -86488 
  -86504   -86509   -86498   -86493   -86504   -86501   -86487   -86496 
  -86519   -86527   -86527   -86528   -86524   -86523   -86532   -86535 
  -86532   -86536   -86543   -86536   -86513   -86484   -86467   -86462 
  -86453   -86443   -86449   -86453   -86444   -86441   -86447   -86442 
  -86418   -86386   -86365   -86359   -86360   -86367   -86386   -86418 
  -86445   -86453   -86446   -86432   -86412   -86396   -86396   -86403 
  -86405   -86411   -86419   -86416   -86404   -86396   -86391   -86383 
  -86369   -86356   -86344   -86338   -86347   -86370   -86398   -86425 
  -86446   -86458   -86466   -86468   -86456   -86444   -86452   -86467 
  -86472   -86470   -86468   -86461   -86451   -86434   -86407   -86387 
  -86392   -86406   -86398   -86367   -86342   -86339   -86340   -86334 
  -86335   -86355   -86375   -86381   -86390   -86419   -86454   -86476 
  -86479   -86477   -86489   -86507   -86515   -86514   -86509   -86495 
  -86491   -86513   -86535   -86521   -86475   -86427   -86394   -86385 
  -86381   -86365   -86360   -86377   -86400   -86412   -86403   -86379 
  -86369   -86374   -86380   -86391   -86396   -86383   -86368   -86364 
  -86372   -86407   -86443   -86437   -86406   -86378   -86353   -86344 
  -86353   -86364   -86373   -86394   -86437   -86494   -86536   -86549 
  -86549   -86533   -86489   -86459   -86465   -86476   -86481   -86489 
  -86491   -86488   -86482   -86464   -86439   -86433   -86450   -86463 
  -86452   -86421   -86398   -86396   -86392   -86380   -86373   -86378 
  -86391   -86416   -86453   -86489   -86512   -86519   -86504   -86461 
  -86428   -86430   -86438   -86431   -86426   -86430   -86439   -86437 
  -86421   -86403   -86396   -86395   -86388   -86374   -86354   -86330 
  -86319   -86340   -86373   -86388   -86395   -86406   -86410   -86419 
  -86443   -86464   -86468   -86465   -86450   -86426   -86421   -86444 
  -86473   -86494   -86519   -86548   -86546   -86514   -86488   -86470 
  -86457   -86447   -86430   -86415   -86409   -86401   -86376   -86340 
  -86316   -86313   -86339   -86395   -86447   -86465   -86455   -86427 
  -86403   -86406   -86427   -86446   -86455   -86443   -86407   -86382 
  -86386   -86385   -86370   -86372   -86395   -86418   -86437   -86448 
  -86434   -86406   -86387   -86380   -86381   -86390   -86404   -86438 
  -86476   -86482   -86459   -86420   -86374   -86351   -86364   -86394 
  -86419   -86433   -86455   -86495   -86518   -86497   -86473   -86476 
  -86485   -86491   -86504   -86512   -86508   -86506   -86514   -86529 
  -86548   -86566   -86574   -86560   -86519   -86478   -86463   -86461 
  -86467   -86473   -86451   -86418   -86420   -86450   -86468   -86457 
  -86437   -86427   -86423   -86414   -86408   -86406   -86401   -86401 
  -86406   -86415   -86436   -86477   -86529   -86550   -86514   -86454 
  -86417   -86412   -86412   -86404   -86399   -86382   -86342   -86321 
  -86332   -86335   -86321   -86307   -86301   -86322   -86373   -86405 
  -86405   -86402   -86399   -86400   -86399   -86368   -86326   -86324 
  -86358   -86384   -86391   -86408   -86441   -86459   -86447   -86419 
  -86387   -86367   -86383   -86426   -86463   -86483   -86496   -86498 
  -86495   -86501   -86506   -86512   -86533   -86562   -86584   -86595 
  -86584   -86555   -86527   -86509   -86506   -86510   -86501   -86471 
  -86423   -86362   -86305   -86267   -86255   -86260   -86273   -86289 
  -86299   -86301   -86306   -86321   -86347   -86370   -86390   -86419 
  -86441   -86442   -86451   -86497   -86553   -86566   -86532   -86490 
  -86464   -86449   -86432   -86408   -86390   -86385   -86376   -86344 
  -86318   -86314   -86308   -86304   -86325   -86351   -86364   -86384 
  -86417   -86448   -86471   -86476   -86466   -86460   -86454   -86437 
  -86420   -86414   -86411   -86418   -86440   -86455   -86447   -86443 
  -86460   -86470   -86459   -86452   -86458   -86468   -86476   -86483 
  -86495   -86508   -86511   -86513   -86513   -86508   -86507   -86508 
  -86490   -86459   -86439   -86437   -86444   -86450   -86451   -86448 
  -86438   -86424   -86424   -86432   -86425   -86418   -86422   -86404 
  -86364   -86334   -86323   -86331   -86365   -86418   -86475   -86502 
  -86484   -86459   -86452   -86465   -86498   -86535   -86556   -86565 
  -86571   -86578   -86572   -86546   -86521   -86495   -86449   -86412 
  -86408   -86403   -86382   -86370   -86382   -86425   -86474   -86496 
  -86496   -86466   -86405   -86354   -86342   -86356   -86369   -86353 
  -86317   -86286   -86266   -86259   -86264   -86268   -86278   -86303 
  -86333   -86361   -86385   -86397   -86399   -86400   -86400   -86408 
  -86424   -86425   -86404   -86372   -86354   -86363   -86376   -86379 
  -86397   -86420   -86424   -86419   -86412   -86405   -86400   -86391 
  -86407   -86457   -86491   -86491   -86488   -86487   -86481   -86475 
  -86465   -86448   -86431   -86423   -86431   -86452   -86468   -86465 
  -86444   -86433   -86449   -86463   -86452   -86427   -86416   -86438 
  -86470   -86473   -86455   -86435   -86403   -86375   -86386   -86419 
  -86449   -86471   -86477   -86477   -86487   -86498   -86506   -86523 
  -86553   -86575   -86570   -86551   -86535   -86513   -86479   -86432 
  -86397   -86414   -86449   -86457   -86463   -86483   -86491   -86482 
  -86452   -86409   -86380   -86375   -86385   -86392   -86383   -86367 
  -86349   -86324   -86299   -86291   -86306   -86331   -86355   -86366 
  -86363   -86347   -86326   -86296   -86269   -86260   -86262   -86278 
  -86321   -86377   -86421   -86441   -86446   -86444   -86420   -86375 
  -86343   -86350   -86389   -86443   -86492   -86526   -86543   -86537 
  -86524   -86536   -86556   -86555   -86552   -86555   -86545   -86523 
  -86510   -86513   -86516   -86515   -86530   -86537   -86503   -86448 
  -86406   -86383   -86378   -86377   -86385   -86425   -86475   -86494 
  -86494   -86498   -86500   -86496   -86482   -86446   -86392   -86340 
  -86323   -86344   -86365   -86362   -86355   -86347   -86320   -86276 
  -86237   -86229   -86258   -86305   -86354   -86389   -86404   -86409 
  -86402   -86386   -86381   -86390   -86397   -86400   -86404   -86405 
  -86410   -86430   -86456   -86478   -86502   -86527   -86526   -86506 
  -86492   -86479   -86455   -86438   -86434   -86439   -86452   -86456 
  -86440   -86422   -86415   -86416   -86427   -86449   -86462   -86454 
  -86443   -86455   -86474   -86471   -86438   -86399   -86379   -86386 
  -86394   -86386   -86383   -86389   -86390   -86393   -86412   -86436 
  -86443   -86436   -86432   -86428   -86434   -86460   -86497   -86543 
  -86594   -86629   -86634   -86600   -86530   -86470   -86460   -86488 
  -86514   -86530   -86549   -86571   -86588   -86596   -86597   -86582 
  -86549   -86522   -86514   -86507   -86480   -86440   -86410   -86385 
  -86358   -86342   -86328   -86311   -86303   -86300   -86290   -86273 
  -86266   -86281   -86314   -86347   -86369   -86379   -86386   -86391 
  -86390   -86387   -86386   -86384   -86378   -86371   -86362   -86356 
  -86354   -86349   -86344   -86341   -86330   -86311   -86307   -86322 
  -86341   -86363   -86388   -86415   -86444   -86475   -86498   -86509 
  -86507   -86485   -86444   -86406   -86392   -86390   -86388   -86387 
  -86397   -86435   -86479   -86494   -86480   -86463   -86459   -86466 
  -86460   -86425   -86400   -86416   -86446   -86471   -86490   -86489 
  -86476   -86470   -86455   -86420   -86393   -86389   -86386   -86379 
  -86395   -86434   -86476   -86509   -86534   -86552   -86563   -86571 
  -86576   -86575   -86573   -86576   -86585   -86599   -86617   -86635 
  -86646   -86637   -86598   -86536   -86468   -86404   -86354   -86320 
  -86299   -86285   -86275   -86268   -86270   -86272   -86257   -86238 
  -86234   -86243   -86267   -86306   -86355   -86413   -86471   -86506 
  -86504   -86474   -86449   -86443   -86429   -86391   -86356   -86337 
  -86309   -86268   -86233   -86213   -86217   -86248   -86287   -86320 
  -86344   -86360   -86374   -86399   -86434   -86470   -86496   -86503 
  -86490   -86474   -86474   -86478   -86466   -86449   -86438   -86433 
  -86436   -86436   -86423   -86405   -86386   -86371   -86382   -86426 
  -86470   -86493   -86509   -86524   -86525   -86513   -86510   -86514 
  -86513   -86527   -86562   -86590   -86592   -86575   -86559   -86559 
  -86567   -86562   -86551   -86539   -86506   -86459   -86432   -86421 
  -86406   -86384   -86362   -86345   -86328   -86313   -86307   -86311 
  -86319   -86333   -86358   -86387   -86402   -86391   -86374   -86374 
  -86379   -86370   -86343   -86316   -86305   -86315   -86334   -86346 
  -86366   -86407   -86442   -86461   -86480   -86480   -86461   -86460 
  -86471   -86464   -86439   -86410   -86386   -86377   -86376   -86371 
  -86371   -86381   -86386   -86378   -86368   -86364   -86377   -86401 
  -86416   -86413   -86419   -86452   -86491   -86507   -86512   -86519 
  -86518   -86515   -86512   -86507   -86505   -86502   -86492   -86475 
  -86460   -86462   -86464   -86444   -86422   -86403   -86378   -86367 
  -86381   -86397   -86410   -86427   -86450   -86473   -86498   -86513 
  -86505   -86491   -86475   -86442   -86415   -86422   -86431   -86428 
  -86439   -86453   -86460   -86466   -86458   -86429   -86405   -86396 
  -86390   -86383   -86386   -86400   -86416   -86429   -86442   -86453 
  -86462   -86459   -86436   -86400   -86369   -86361   -86365   -86363 
  -86352   -86339   -86311   -86267   -86242   -86250   -86256   -86242 
  -86229   -86225   -86235   -86254   -86264   -86273   -86293   -86321 
  -86359   -86391   -86404   -86409   -86409   -86408   -86424   -86454 
  -86488   -86520   -86542   -86566   -86601   -86627   -86646   -86675 
  -86695   -86692   -86685   -86677   -86654   -86639   -86640   -86646 
  -86661   -86686   -86698   -86689   -86663   -86629   -86604   -86596 
  -86602   -86601   -86587   -86565   -86535   -86496   -86460   -86426 
  -86395   -86372   -86353   -86337   -86330   -86328   -86328   -86330 
  -86325   -86306   -86283   -86276   -86286   -86290   -86283   -86291 
  -86311   -86331   -86358   -86386   -86390   -86376   -86368   -86376 
  -86389   -86406   -86424   -86432   -86427   -86413   -86397   -86381 
  -86367   -86374   -86407   -86428   -86420   -86404   -86377   -86341 
  -86318   -86309   -86311   -86330   -86358   -86388   -86418   -86442 
  -86452   -86444   -86429   -86428   -86446   -86467   -86468   -86445 
  -86418   -86404   -86401   -86407   -86412   -86403   -86387   -86378 
  -86377   -86380   -86395   -86431   -86477   -86512   -86529   -86533 
  -86527   -86528   -86543   -86561   -86573   -86568   -86534   -86484 
  -86449   -86431   -86424   -86423   -86424   -86433   -86445   -86453 
  -86457   -86462   -86472   -86489   -86506   -86510   -86500   -86484 
  -86477   -86485   -86499   -86505   -86495   -86475   -86454   -86442 
  -86442   -86442   -86441   -86439   -86425   -86399   -86375   -86364 
  -86356   -86343   -86322   -86296   -86266   -86250   -86262   -86292 
  -86323   -86344   -86350   -86351   -86348   -86338   -86328   -86317 
  -86307   -86300   -86298   -86310   -86334   -86356   -86367   -86371 
  -86358   -86331   -86306   -86281   -86245   -86212   -86213   -86255 
  -86306   -86339   -86360   -86382   -86401   -86405   -86387   -86369 
  -86373   -86388   -86403   -86429   -86462   -86493   -86525   -86545 
  -86542   -86538   -86542   -86543   -86543   -86548   -86553   -86548 
  -86535   -86524   -86523   -86524   -86540   -86581   -86615   -86619 
  -86606   -86594   -86589   -86583   -86578   -86594   -86618   -86628 
  -86622   -86593   -86540   -86480   -86438   -86419   -86406   -86392 
  -86382   -86369   -86351   -86334   -86326   -86339   -86360   -86376 
  -86390   -86402   -86410   -86409   -86399   -86391   -86400   -86421 
  -86433   -86431   -86436   -86449   -86443   -86423   -86414   -86414 
  -86412   -86403   -86381   -86362   -86355   -86349   -86349   -86356 
  -86364   -86368   -86367   -86363   -86363   -86364   -86359   -86334 
  -86306   -86301   -86309   -86320   -86350   -86397   -86438   -86460 
  -86466   -86463   -86449   -86432   -86427   -86429   -86430   -86430 
  -86428   -86423   -86422   -86421   -86418   -86415   -86416   -86426 
  -86441   -86449   -86452   -86468   -86495   -86519   -86530   -86529 
  -86519   -86514   -86528   -86540   -86528   -86504   -86492   -86496 
  -86513   -86528   -86529   -86527   -86533   -86540   -86545   -86557 
  -86577   -86585   -86565   -86534   -86507   -86494   -86503   -86512 
  -86502   -86490   -86482   -86466   -86444   -86426   -86414   -86418 
  -86425   -86408   -86378   -86363   -86352   -86334   -86317   -86305 
  -86301   -86308   -86316   -86321   -86319   -86305   -86278   -86243 
  -86215   -86194   -86177   -86180   -86200   -86211   -86209   -86210 
  -86218   -86223   -86232   -86254   -86278   -86292   -86295   -86292 
  -86309   -86348   -86383   -86409   -86430   -86440   -86442   -86438 
  -86436   -86443   -86449   -86447   -86451   -86469   -86490   -86512 
  -86539   -86561   -86562   -86551   -86548   -86553   -86559   -86565 
  -86570   -86571   -86578   -86588   -86593   -86590   -86579   -86563 
  -86559   -86566   -86565   -86552   -86534   -86519   -86518   -86527 
  -86533   -86533   -86527   -86520   -86518   -86522   -86520   -86505 
  -86482   -86464   -86461   -86474   -86484   -86470   -86439   -86409 
  -86374   -86339   -86314   -86305   -86309   -86315   -86314   -86310 
  -86317   -86330   -86336   -86341   -86348   -86355   -86367   -86383 
  -86393   -86398   -86405   -86404   -86382   -86356   -86344   -86335 
  -86325   -86335   -86364   -86385   -86392   -86391   -86386   -86382 
  -86381   -86383   -86387   -86390   -86388   -86395   -86415   -86441 
  -86461   -86464   -86456   -86459   -86470   -86475   -86478   -86487 
  -86501   -86517   -86531   -86546   -86562   -86568   -86562   -86551 
  -86535   -86518   -86499   -86472   -86449   -86447   -86458   -86467 
  -86466   -86460   -86456   -86457   -86458   -86452   -86441   -86437 
  -86446   -86452   -86453   -86454   -86446   -86436   -86439   -86453 
  -86467   -86476   -86483   -86483   -86472   -86457   -86443   -86426 
  -86402   -86369   -86341   -86337   -86346   -86346   -86332   -86317 
  -86311   -86299   -86277   -86261   -86258   -86271   -86298   -86327 
  -86355   -86382   -86407   -86425   -86435   -86439   -86445   -86453 
  -86453   -86451   -86452   -86455   -86461   -86474   -86486   -86490 
  -86484   -86474   -86463   -86448   -86434   -86424   -86420   -86425 
  -86430   -86428   -86425   -86424   -86425   -86438   -86456   -86464 
  -86466   -86474   -86484   -86484   -86474   -86466   -86465   -86470 
  -86472   -86467   -86458   -86450   -86443   -86436   -86417   -86385 
  -86368   -86370   -86375   -86376   -86373   -86365   -86357   -86353 
  -86347   -86341   -86347   -86360   -86365   -86366   -86369   -86372 
  -86378   -86378   -86372   -86374   -86388   -86406   -86420   -86420 
  -86408   -86392   -86377   -86369   -86371   -86383   -86401   -86416 
  -86426   -86438   -86452   -86467   -86479   -86483   -86480   -86481 
  -86483   -86476   -86468   -86462   -86455   -86451   -86448   -86438 
  -86421   -86406   -86397   -86393   -86388   -86380   -86375   -86370 
  -86363   -86360   -86358   -86355   -86353   -86344   -86332   -86326 
  -86322   -86325   -86333   -86346   -86362   -86382   -86410   -86444 
  -86485   -86530   -86563   -86576   -86584   -86588   -86580   -86573 
  -86571   -86563   -86553   -86551   -86548   -86540   -86533   -86527 
  -86524   -86516   -86496   -86471   -86458   -86453   -86449   -86446 
