Origin Time       2025/06/03 22:18:00
Lat.              41.7
Long.             143.6
Depth. (km)       30
Mag.              5.2
Station Code      AOMH16
Station Lat.      40.4624
Station Long.     141.0923
Station Height(m) 165
Record Time       2025/06/03 22:19:38
Sampling Freq(Hz) 100Hz
Duration Time(s)  120
Dir.              3
Scale Factor      2942(gal)/8224139
Max. Acc. (gal)   0.135
Last Correction   2025/06/03 22:19:39
Memo.             
[...]
    8298     8307     8311     8333     8368     8402     8411     8387 
    8351     8338     8345     8338     8320     8330     8361     8379 
    8384     8376     8371     8379     8387     8392     8410     8413 
    8380     8345     8344     8372     8417     8456     8471     8473 
    8476     8464     8432     8411     8410     8410     8399     8386 
    8380     8372     8353     8336     8329     8334     8344     8338 
    8313     8291     8306     8344     8364     8357     8345     8333 
    8307     8272     8248     8245     8253     8264     8272     8271 
    8264     8260     8255     8252     8260     8275     8279     8276 
    8283     8301     8320     8334     8349     8367     8383     8392 
    8394     8374     8337     8325     8336     8343     8353     8376 
    8388     8380     8365     8352     8341     8340     8352     8365 
    8371     8378     8388     8386     8371     8356     8352     8349 
    8344     8347     8365     8388     8392     8383     8375     8382 
    8387     8384     8379     8371     8355     8345     8347     8341 
    8332     8336     8345     8349     8349     8360     8374     8368 
    8353     8347     8349     8359     8364     8356     8347     8343 
    8337     8333     8330     8325     8326     8353     8395     8418 
    8417     8411     8418     8441     8465     8469     8457     8445 
    8436     8424     8407     8391     8395     8421     8433     8422 
    8411     8406     8392     8367     8340     8341     8368     8384 
    8378     8359     8337     8321     8310     8316     8337     8360 
    8379     8386     8368     8351     8353     8365     8378     8387 
    8394     8386     8361     8336     8314     8301     8297     8306 
    8337     8365     8370     8376     8391     8395     8386     8375 
    8367     8363     8357     8352     8348     8347     8363     8398 
    8414     8405     8399     8403     8409     8414     8401     8380 
    8379     8382     8365     8353     8353     8351     8351     8352 
    8352     8353     8355     8343     8316     8302     8324     8353 
    8359     8359     8359     8356     8351     8340     8336     8348 
    8363     8360     8345     8337     8330     8313     8287     8262 
    8237     8226     8233     8244     8253     8271     8293     8305 
    8309     8313     8324     8337     8337     8332     8337     8344 
    8336     8334     8363     8403     8426     8440     8453     8453 
    8438     8421     8417     8428     8446     8459     8455     8438 
    8430     8433     8421     8395     8382     8380     8372     8344 
    8305     8267     8236     8221     8222     8235     8255     8276 
    8291     8294     8291     8287     8284     8290     8301     8301 
    8299     8305     8298     8291     8309     8330     8332     8336 
    8360     8376     8379     8374     8357     8344     8340     8344 
    8351     8370     8398     8409     8390     8374     8382     8411 
    8445     8459     8451     8451     8468     8478     8467     8453 
    8448     8456     8471     8457     8413     8370     8351     8353 
    8359     8371     8386     8384     8368     8347     8328     8325 
    8341     8355     8349     8333     8320     8307     8305     8311 
    8306     8297     8303     8314     8305     8284     8282     8305 
    8338     8370     8394     8402     8410     8421     8409     8370 
    8329     8316     8334     8352     8345     8334     8332     8340 
    8359     8370     8367     8356     8340     8337     8364     8409 
    8440     8448     8436     8409     8374     8337     8309     8298 
    8314     8336     8343     8357     8376     8375     8375     8403 
    8422     8409     8382     8347     8313     8303     8311     8322 
    8340     8357     8364     8351     8329     8318     8314     8326 
    8355     8379     8397     8414     8407     8395     8411     8434 
    8434     8414     8391     8387     8399     8405     8390     8372 
    8375     8397     8413     8407     8402     8411     8428     8428 
    8411     8406     8409     8405     8398     8398     8386     8357 
    8341     8332     8333     8374     8418     8419     8395     8365 
    8353     8387     8430     8424     8378     8353     8355     8364 
    8380     8392     8387     8376     8374     8376     8376     8382 
    8390     8384     8371     8379     8387     8372     8352     8333 
    8314     8317     8330     8328     8305     8272     8247     8247 
    8264     8275     8264     8244     8241     8264     8287     8301 
    8306     8313     8325     8336     8328     8301     8276     8256 
    8243     8241     8248     8267     8286     8291     8297     8317 
    8340     8359     8372     8374     8367     8355     8352     8370 
    8387     8387     8390     8402     8399     8371     8340     8329 
    8338     8359     8368     8357     8340     8325     8309     8307 
    8336     8360     8370     8386     8410     8428     8421     8387 
    8365     8387     8422     8441     8438     8409     8371     8351 
    8359     8399     8444     8456     8429     8390     8365     8364 
    8370     8363     8357     8355     8348     8352     8372     8395 
    8415     8422     8409     8387     8379     8402     8432     8442 
    8441     8430     8409     8382     8353     8351     8379     8405 
    8419     8436     8446     8442     8429     8402     8368     8352 
    8356     8356     8341     8320     8301     8295     8314     8351 
    8376     8380     8380     8374     8360     8360     8384     8414 
    8437     8451     8441     8395     8343     8314     8309     8328 
    8364     8387     8376     8340     8310     8313     8334     8349 
    8359     8378     8406     8419     8395     8357     8341     8345 
    8349     8352     8349     8330     8302     8275     8253     8230 
    8216     8225     8255     8294     8329     8345     8347     8343 
    8338     8336     8334     8330     8320     8303     8298     8305 
    8311     8301     8275     8271     8290     8310     8334     8361 
    8370     8367     8363     8363     8367     8379     8410     8464 
    8513     8518     8496     8472     8440     8402     8371     8351 
    8353     8386     8419     8419     8406     8415     8438     8429 
    8372     8317     8305     8333     8361     8368     8375     8402 
    8419     8398     8361     8330     8298     8282     8289     8305 
    8309     8305     8298     8280     8264     8286     8336     8363 
    8355     8352     8360     8365     8353     8303     8248     8229 
    8226     8230     8255     8282     8290     8280     8264     8256 
    8264     8286     8302     8284     8243     8232     8248     8263 
    8278     8307     8356     8401     8398     8363     8338     8332 
    8333     8337     8347     8372     8411     8445     8465     8483 
    8491     8469     8430     8422     8441     8448     8444     8432 
    8411     8402     8417     8446     8473     8484     8486     8484 
    8483     8496     8521     8525     8490     8433     8380     8325 
    8279     8270     8284     8287     8268     8252     8278     8340 
    8392     8414     8425     8429     8411     8376     8343     8325 
    8333     8360     8401     8436     8441     8434     8445     8461 
    8460     8457     8457     8446     8438     8445     8448     8422 
    8376     8330     8290     8267     8279     8303     8306     8294 
    8297     8316     8343     8371     8395     8411     8421     8422 
    8413     8401     8395     8392     8401     8421     8428     8414 
    8405     8401     8405     8410     8390     8351     8330     8324 
    8313     8317     8336     8351     8356     8356     8352     8344 
    8326     8295     8259     8236     8235     8239     8233     8229 
    8229     8226     8228     8247     8257     8245     8241     8268 
    8301     8311     8305     8279     8237     8209     8213     8224 
    8210     8193     8209     8260     8313     8332     8326     8324 
    8332     8347     8357     8361     8364     8367     8359     8345 
    8352     8380     8401     8395     8378     8370     8368     8349 
    8318     8293     8276     8283     8311     8330     8341     8371 
    8418     8460     8484     8495     8505     8511     8510     8513 
    8529     8541     8525     8483     8436     8406     8391     8383 
    8390     8413     8442     8463     8467     8473     8503     8533 
    8529     8494     8472     8488     8500     8483     8457     8440 
    8440     8438     8405     8348     8316     8326     8357     8380 
    8395     8406     8405     8383     8355     8338     8328     8310 
    8303     8330     8387     8429     8409     8336     8262     8221 
    8226     8257     8286     8314     8328     8305     8271     8256 
    8255     8267     8291     8325     8371     8424     8455     8448 
    8426     8413     8410     8421     8445     8469     8478     8455 
    8403     8353     8341     8355     8355     8324     8278     8225 
    8172     8144     8144     8168     8221     8266     8267     8248 
    8248     8267     8298     8332     8357     8371     8372     8360 
    8341     8329     8330     8336     8334     8330     8325     8321 
    8318     8311     8298     8293     8306     8324     8338     8351 
    8351     8329     8311     8324     8360     8382     8367     8351 
    8359     8375     8399     8434     8455     8452     8441     8421 
    8395     8380     8367     8352     8359     8382     8384     8374 
    8367     8365     8363     8348     8326     8317     8329     8349 
    8364     8368     8374     8392     8414     8429     8434     8429 
    8405     8357     8301     8264     8253     8252     8252     8259 
    8274     8283     8283     8276     8272     8286     8318     8355 
    8364     8349     8344     8357     8361     8351     8340     8337 
    8349     8375     8394     8401     8398     8383     8363     8336 
    8317     8328     8352     8347     8320     8320     8357     8398 
    8407     8392     8376     8368     8349     8328     8321     8322 
    8330     8363     8402     8424     8434     8428     8406     8402 
    8417     8426     8440     8467     8495     8503     8488     8484 
    8518     8548     8533     8482     8434     8417     8419     8414 
    8414     8428     8417     8365     8306     8270     8249     8241 
    8244     8263     8306     8356     8383     8376     8360     8353 
    8355     8351     8351     8378     8428     8464     8475     8488 
    8515     8545     8569     8583     8576     8542     8479     8425 
    8409     8401     8387     8387     8394     8399     8409     8411 
    8409     8413     8402     8370     8334     8307     8301     8313 
    8306     8283     8271     8264     8240     8199     8163     8163 
    8197     8228     8252     8275     8284     8266     8235     8208 
    8193     8201     8222     8228     8216     8220     8240     8256 
    8271     8291     8310     8337     8371     8388     8398     8436 
    8487     8509     8498     8459     8395     8344     8322     8318 
    8321     8322     8320     8317     8317     8318     8306     8259 
    8197     8154     8139     8147     8172     8224     8293     8355 
    8401     8413     8387     8355     8338     8340     8355     8363 
    8348     8329     8320     8303     8294     8307     8320     8321 
    8336     8357     8379     8406     8428     8436     8446     8461 
    8475     8484     8484     8475     8464     8465     8459     8441 
    8436     8438     8432     8426     8425     8437     8469     8492 
    8473     8424     8379     8360     8361     8375     8395     8417 
    8425     8414     8397     8375     8349     8336     8336     8351 
    8384     8409     8409     8406     8414     8432     8455     8461 
    8448     8445     8459     8453     8418     8392     8392     8391 
    8370     8336     8310     8307     8333     8376     8425     8471 
    8503     8518     8511     8487     8467     8459     8449     8430 
    8401     8368     8336     8303     8278     8275     8302     8328 
    8340     8347     8349     8349     8340     8322     8309     8302 
    8294     8282     8259     8232     8212     8197     8195     8203 
    8214     8226     8233     8229     8218     8210     8216     8213 
    8199     8202     8221     8241     8267     8305     8347     8387 
    8415     8422     8415     8410     8409     8405     8392     8374 
    8363     8368     8378     8378     8382     8395     8410     8424 
    8441     8455     8446     8426     8411     8403     8395     8386 
    8374     8367     8371     8376     8356     8309     8275     8271 
    8286     8303     8311     8320     8334     8341     8325     8299 
    8291     8295     8295     8291     8293     8302     8316     8324 
    8324     8333     8364     8388     8391     8383     8372     8363 
    8363     8355     8341     8343     8352     8347     8334     8348 
    8376     8394     8403     8407     8407     8413     8419     8419 
    8415     8414     8410     8409     8407     8390     8372     8361 
    8340     8316     8316     8332     8336     8320     8299     8298 
    8311     8306     8268     8214     8170     8145     8141     8149 
    8167     8185     8195     8205     8230     8286     8351     8390 
    8392     8392     8410     8430     8446     8464     8484     8513 
    8552     8595     8633     8668     8700     8729     8738     8725 
    8704     8692     8685     8680     8675     8675     8673     8656 
    8637     8627     8618     8604     8586     8554     8519     8494 
    8457     8411     8375     8345     8311     8268     8222     8185 
    8158     8151     8166     8179     8176     8167     8149     8124 
    8102     8097     8102     8116     8133     8152     8167     8174 
    8185     8213     8243     8257     8263     8275     8297     8321 
    8336     8349     8359     8360     8359     8353     8347     8348 
    8359     8372     8379     8379     8387     8398     8395     8388 
    8394     8417     8440     8444     8441     8448     8441     8399 
    8343     8306     8299     8290     8259     8224     8208     8203 
    8201     8206     8214     8218     8218     8212     8187     8167 
    8163     8163     8175     8194     8206     8220     8239     8256 
    8276     8297     8299     8294     8284     8282     8297     8316 
    8321     8332     8351     8365     8382     8402     8419     8433 
    8441     8448     8455     8469     8498     8515     8521     8530 
    8544     8560     8571     8567     8550     8526     8491     8441 
    8386     8340     8317     8313     8322     8338     8363     8388 
    8407     8415     8422     8437     8449     8446     8445     8448 
    8446     8446     8456     8467     8487     8509     8500     8480 
    8482     8495     8499     8491     8476     8457     8433     8417 
    8419     8433     8440     8436     8422     8398     8380     8380 
    8386     8382     8364     8351     8343     8328     8305     8283 
    8270     8272     8289     8309     8328     8340     8349     8364 
    8387     8415     8441     8451     8440     8424     8403     8376 
    8351     8328     8295     8248     8208     8191     8191     8178 
    8152     8137     8140     8156     8170     8160     8137     8129 
    8136     8144     8144     8133     8124     8136     8162     8185 
    8209     8235     8256     8270     8270     8267     8267     8275 
    8295     8329     8367     8407     8453     8500     8537     8564 
    8584     8592     8588     8580     8569     8559     8556     8553 
    8532     8494     8456     8432     8424     8411     8390     8372 
    8356     8336     8322     8309     8294     8294     8303     8309 
    8322     8344     8359     8374     8391     8403     8410     8409 
    8398     8391     8392     8397     8401     8403     8399     8390 
    8364     8320     8278     8266     8272     8274     8268     8263 
    8252     8236     8220     8203     8193     8199     8226     8264 
    8301     8336     8368     8387     8382     8353     8321     8297 
    8286     8291     8313     8344     8376     8407     8437     8463 
    8484     8509     8527     8534     8541     8544     8534     8509 
    8480     8459     8449     8446     8444     8442     8449     8457 
    8455     8441     8432     8434     8448     8456     8452     8446 
    8457     8483     8503     8515     8523     8527     8518     8498 
    8486     8494     8506     8498     8469     8441     8424     8401 
    8367     8334     8324     8330     8326     8305     8283     8260 
    8236     8220     8214     8217     8232     8253     8266     8274 
    8291     8310     8320     8324     8332     8340     8344     8344 
    8340     8341     8353     8361     8344     8311     8294     8294 
    8299     8310     8328     8340     8332     8307     8293     8293 
    8299     8310     8322     8329     8337     8344     8340     8329 
    8322     8329     8347     8357     8357     8359     8368     8375 
    8364     8343     8330     8320     8313     8310     8306     8301 
    8301     8299     8282     8253     8235     8224     8213     8201 
    8198     8202     8202     8198     8202     8212     8228     8252 
    8276     8295     8314     8325     8322     8314     8320     8336 
    8347     8357     8379     8401     8410     8428     8456     8486 
    8505     8506     8500     8496     8480     8453     8441     8438 
    8433     8421     8410     8403     8398     8392     8394     8409 
    8432     8451     8452     8441     8437     8436     8430     8426 
    8425     8429     8430     8418     8398     8384     8383     8386 
    8387     8392     8402     8413     8417     8415     8410     8405 
    8403     8403     8405     8413     8414     8402     8391     8391 
    8394     8398     8399     8399     8405     8405     8397     8390 
    8390     8406     8434     8456     8478     8507     8532     8542 
    8544     8541     8549     8569     8583     8573     8545     8511 
    8486     8473     8468     8460     8449     8430     8403     8371 
    8338     8316     8303     8295     8286     8259     8212     8159 
    8113     8078     8063     8067     8070     8067     8059     8046 
    8036     8036     8044     8058     8075     8095     8118     8132 
    8133     8145     8166     8176     8183     8193     8203     8222 
    8259     8307     8351     8384     8406     8410     8401     8391 
    8387     8395     8405     8410     8419     8437     8448     8451 
    8441     8421     8399     8384     8375     8380     8394     8403 
    8409     8407     8398     8397     8410     8413     8403     8394 
    8388     8386     8382     8374     8365     8364     8363     8375 
    8399     8418     8432     8442     8448     8453     8461     8465 
    8463     8459     8455     8448     8437     8426     8421     8414 
    8399     8376     8352     8329     8309     8294     8286     8299 
    8332     8356     8359     8352     8353     8361     8374     8386 
    8387     8375     8367     8370     8375     8378     8375     8370 
    8371     8370     8359     8341     8329     8332     8351     8368 
