Origin Time       2025/06/03 22:18:00
Lat.              41.7
Long.             143.6
Depth. (km)       30
Mag.              5.2
Station Code      AOMH16
Station Lat.      40.4624
Station Long.     141.0923
Station Height(m) 315
Record Time       2025/06/03 22:19:38
Sampling Freq(Hz) 100Hz
Duration Time(s)  120
Dir.              5
Scale Factor      7845(gal)/8223790
Max. Acc. (gal)   1.176
Last Correction   2025/06/03 22:19:39
Memo.             
[...]
   17636    17671    17639    17551    17425    17288    17162    17061 
   16991    16946    16938    16991    17088    17192    17270    17308 
   17311    17292    17259    17235    17247    17286    17329    17373 
   17424    17496    17599    17724    17848    17976    18102    18202 
   18246    18189    18009    17759    17505    17271    17081    16968 
   16956    17047    17216    17421    17601    17689    17672    17568 
   17394    17181    16962    16768    16656    16665    16760    16897 
   17062    17243    17428    17594    17701    17725    17662    17532 
   17392    17280    17217    17217    17280    17386    17496    17560 
   17560    17502    17409    17301    17201    17139    17132    17199 
   17334    17501    17664    17786    17817    17756    17632    17473 
   17285    17081    16883    16715    16605    16571    16614    16722 
   16873    17034    17176    17278    17340    17361    17328    17262 
   17189    17134    17124    17172    17267    17398    17544    17678 
   17779    17840    17859    17826    17764    17706    17653    17616 
   17614    17659    17726    17794    17852    17888    17896    17874 
   17814    17736    17670    17620    17566    17501    17428    17366 
   17320    17277    17231    17189    17165    17176    17232    17328 
   17444    17559    17662    17747    17815    17865    17880    17849 
   17771    17648    17501    17351    17212    17097    17024    17003 
   17024    17059    17078    17073    17039    16976    16907    16858 
   16853    16911    17030    17169    17289    17366    17390    17365 
   17315    17254    17192    17142    17116    17123    17181    17284 
   17401    17500    17548    17532    17474    17397    17308    17230 
   17188    17194    17253    17362    17501    17626    17709    17745 
   17743    17714    17652    17562    17459    17346    17220    17095 
   16980    16895    16860    16862    16891    16949    17054    17219 
   17427    17639    17810    17919    17972    17968    17906    17797 
   17659    17524    17416    17331    17255    17181    17101    17032 
   17001    17020    17088    17194    17332    17481    17625    17753 
   17855    17909    17910    17860    17788    17740    17740    17787 
   17859    17917    17934    17911    17867    17824    17795    17779 
   17764    17724    17653    17581    17520    17456    17378    17269 
   17145    17045    16976    16924    16884    16868    16891    16956 
   17045    17146    17254    17355    17421    17427    17362    17243 
   17111    16989    16885    16810    16788    16834    16935    17058 
   17180    17277    17338    17378    17401    17397    17361    17275 
   17145    16987    16823    16681    16588    16567    16636    16784 
   16981    17189    17367    17502    17601    17683    17764    17842 
   17930    18041    18158    18247    18277    18223    18092    17906 
   17682    17447    17243    17101    17034    17049    17136    17275 
   17432    17582    17713    17799    17803    17710    17541    17332 
   17127    16961    16839    16762    16742    16779    16856    16953 
   17058    17154    17236    17320    17404    17467    17510    17543 
   17563    17567    17560    17554    17554    17563    17586    17614 
   17648    17705    17787    17882    17960    17984    17946    17874 
   17791    17712    17644    17597    17582    17594    17620    17652 
   17682    17676    17605    17473    17304    17130    16983    16883 
   16823    16799    16808    16842    16888    16926    16930    16906 
   16877    16866    16881    16927    16999    17085    17184    17301 
   17428    17548    17651    17728    17780    17815    17830    17813 
   17766    17705    17643    17581    17525    17483    17454    17448 
   17469    17490    17491    17475    17458    17443    17427    17405 
   17381    17338    17265    17173    17073    16995    16973    17020 
   17120    17247    17371    17470    17517    17505    17456    17400 
   17355    17343    17375    17444    17537    17633    17709    17736 
   17714    17649    17547    17419    17294    17199    17157    17165 
   17201    17242    17270    17280    17289    17311    17348    17393 
   17420    17420    17396    17340    17265    17189    17124    17077 
   17053    17055    17080    17134    17213    17300    17389    17496 
   17621    17772    17941    18096    18206    18247    18218    18135 
   18021    17892    17772    17671    17587    17532    17504    17485 
   17458    17419    17359    17292    17243    17244    17302    17393 
   17475    17524    17529    17493    17432    17352    17244    17104 
   16958    16830    16734    16673    16649    16656    16684    16721 
   16749    16749    16726    16711    16737    16795    16864    16941 
   17028    17130    17248    17363    17454    17520    17563    17585 
   17598    17612    17636    17682    17747    17825    17923    18038 
   18138    18179    18137    18007    17799    17550    17301    17077 
   16900    16803    16803    16893    17054    17250    17446    17617 
   17741    17810    17829    17793    17710    17616    17532    17477 
   17455    17471    17510    17552    17570    17545    17473    17362 
   17239    17122    17042    17043    17131    17274    17436    17590 
   17717    17801    17824    17782    17686    17556    17412    17280 
   17188    17145    17135    17135    17131    17119    17091    17046 
   16997    16962    16958    17001    17095    17213    17317    17382 
   17413    17417    17390    17324    17230    17135    17065    17043 
   17076    17157    17284    17433    17581    17702    17768    17764 
   17706    17616    17518    17443    17394    17371    17379    17413 
   17460    17514    17559    17581    17587    17597    17605    17604 
   17589    17566    17541    17523    17514    17516    17517    17502 
   17470    17424    17366    17286    17181    17055    16926    16823 
   16779    16814    16924    17078    17248    17420    17579    17722 
   17851    17948    17995    17998    17950    17847    17699    17533 
   17367    17223    17113    17037    17000    17011    17061    17131 
   17208    17278    17329    17354    17352    17343    17344    17354 
   17362    17374    17393    17415    17427    17419    17386    17340 
   17298    17280    17288    17323    17383    17454    17523    17583 
   17620    17620    17570    17474    17355    17239    17146    17108 
   17142    17239    17386    17555    17717    17845    17919    17928 
   17860    17720    17532    17339    17165    17031    16954    16935 
   16961    17008    17058    17107    17159    17217    17275    17332 
   17388    17437    17489    17536    17558    17548    17512    17456 
   17405    17378    17365    17355    17340    17305    17261    17226 
   17199    17166    17130    17100    17100    17146    17234    17350 
   17483    17621    17744    17842    17914    17955    17967    17956 
   17928    17891    17856    17822    17791    17761    17732    17686 
   17614    17521    17409    17290    17184    17100    17042    17010 
   16997    17003    17024    17066    17116    17150    17158    17146 
   17135    17134    17128    17115    17093    17069    17061    17085 
   17132    17193    17262    17324    17374    17416    17439    17440 
   17427    17409    17388    17358    17324    17293    17267    17240 
   17213    17201    17203    17220    17250    17298    17361    17425 
   17485    17540    17582    17597    17581    17533    17462    17367 
   17258    17151    17061    16996    16969    16978    17011    17061 
   17127    17197    17270    17336    17375    17394    17412    17435 
   17477    17531    17579    17626    17675    17726    17787    17852 
   17917    17977    18046    18130    18212    18283    18334    18358 
   18357    18346    18327    18288    18218    18111    17976    17829 
   17676    17517    17359    17219    17097    16999    16931    16897 
   16880    16869    16860    16841    16806    16756    16676    16571 
   16464    16362    16271    16216    16225    16303    16434    16599 
   16768    16914    17023    17091    17123    17128    17126    17138 
   17178    17247    17347    17460    17571    17668    17757    17836 
   17884    17896    17879    17856    17855    17875    17899    17917 
   17930    17938    17941    17929    17886    17809    17691    17547 
   17408    17296    17230    17224    17275    17366    17471    17571 
   17652    17699    17706    17686    17652    17602    17544    17486 
   17424    17371    17336    17317    17309    17313    17320    17321 
   17315    17293    17244    17173    17081    16978    16877    16799 
   16761    16768    16807    16875    16977    17108    17242    17352 
   17431    17474    17485    17463    17424    17392    17365    17340 
   17331    17332    17331    17317    17288    17257    17224    17182 
   17145    17122    17118    17142    17181    17213    17223    17201 
   17163    17135    17132    17162    17221    17307    17424    17578 
   17743    17884    17987    18040    18036    17988    17917    17829 
   17740    17671    17618    17589    17597    17631    17670    17701 
   17703    17672    17628    17577    17523    17489    17482    17497 
   17548    17633    17707    17747    17744    17693    17597    17477 
   17348    17226    17112    17018    16951    16916    16920    16956 
   16999    17046    17103    17157    17190    17201    17199    17186 
   17172    17158    17146    17142    17161    17209    17288    17386 
   17489    17579    17658    17717    17747    17753    17728    17666 
   17579    17493    17421    17366    17331    17323    17343    17394 
   17464    17525    17556    17556    17517    17442    17351    17262 
   17182    17128    17095    17072    17055    17041    17024    17008 
   17001    17011    17035    17086    17174    17297    17456    17637 
   17813    17965    18073    18117    18096    18026    17925    17818 
   17728    17663    17625    17628    17667    17725    17788    17838 
   17848    17818    17756    17659    17537    17409    17289    17181 
   17095    17047    17034    17026    17012    17004    16987    16954 
   16919    16880    16838    16806    16792    16794    16795    16777 
   16740    16692    16649    16609    16575    16568    16592    16650 
   16753    16881    17012    17145    17273    17390    17493    17585 
   17658    17716    17768    17817    17857    17896    17930    17956 
   17968    17977    17995    18011    18013    18009    18009    18007 
   17987    17948    17891    17811    17709    17601    17502    17410 
   17331    17278    17255    17266    17305    17362    17425    17482 
   17521    17543    17550    17529    17473    17401    17340    17293 
   17254    17217    17185    17165    17157    17153    17147    17146 
   17139    17123    17101    17082    17069    17066    17082    17113 
   17154    17200    17240    17270    17286    17296    17313    17348 
   17398    17455    17510    17570    17628    17670    17689    17685 
   17659    17625    17589    17548    17506    17464    17419    17373 
   17325    17285    17262    17270    17311    17371    17435    17489 
   17524    17523    17486    17415    17307    17184    17084    17028 
   17023    17066    17143    17248    17363    17455    17516    17548 
   17554    17545    17540    17539    17554    17590    17629    17655 
   17668    17662    17629    17578    17520    17464    17415    17373 
   17334    17286    17227    17166    17118    17072    17031    17010 
   17007    17016    17045    17089    17131    17166    17192    17199 
   17190    17173    17150    17136    17136    17131    17124    17127 
   17142    17159    17176    17194    17221    17259    17320    17401 
   17498    17612    17732    17848    17956    18045    18094    18096 
   18046    17945    17814    17683    17560    17466    17419    17406 
   17413    17432    17455    17467    17460    17439    17408    17381 
   17370    17374    17394    17420    17440    17450    17454    17446 
   17416    17378    17331    17265    17193    17130    17065    17011 
   16997    17022    17080    17172    17273    17366    17452    17535 
   17601    17648    17682    17710    17755    17820    17891    17952 
   17987    17987    17957    17901    17806    17678    17535    17402 
   17297    17212    17145    17100    17066    17034    17001    16970 
   16938    16918    16922    16947    16976    16991    16981    16939 
   16875    16810    16772    16775    16830    16924    17031    17135 
   17238    17323    17379    17409    17412    17389    17358    17334 
   17321    17319    17321    17328    17339    17363    17409    17481 
   17564    17651    17725    17764    17763    17717    17635    17545 
   17477    17432    17417    17429    17455    17497    17552    17599 
   17625    17637    17633    17610    17582    17556    17532    17514 
   17513    17524    17536    17541    17547    17531    17483    17421 
   17347    17258    17158    17055    16968    16914    16893    16912 
   16966    17046    17150    17275    17412    17541    17660    17776 
   17888    17991    18092    18180    18229    18243    18242    18222 
   18181    18131    18075    18014    17961    17928    17906    17874 
   17818    17743    17647    17545    17454    17371    17302    17263 
   17246    17232    17213    17177    17104    16997    16869    16727 
   16576    16430    16301    16202    16155    16151    16166    16193 
   16228    16263    16306    16363    16425    16483    16544    16621 
   16714    16821    16942    17064    17178    17282    17374    17451 
   17516    17572    17621    17664    17714    17779    17849    17922 
   17983    18023    18034    18006    17946    17879    17806    17730 
   17668    17632    17609    17590    17578    17567    17541    17510 
   17493    17491    17512    17559    17622    17686    17739    17786 
   17822    17845    17868    17895    17905    17891    17871    17844 
   17799    17751    17703    17653    17604    17564    17537    17524 
   17527    17539    17550    17560    17566    17567    17570    17563 
   17532    17487    17442    17385    17331    17289    17246    17209 
   17181    17151    17126    17108    17082    17047    17011    16969 
   16929    16897    16869    16838    16816    16804    16796    16796 
   16806    16812    16825    16846    16865    16888    16916    16946 
   16977    17020    17074    17130    17201    17298    17410    17529 
   17653    17763    17841    17882    17872    17822    17749    17667 
   17589    17528    17493    17474    17464    17463    17463    17458 
   17448    17446    17443    17433    17442    17477    17531    17597 
   17660    17697    17707    17701    17672    17639    17614    17595 
   17587    17597    17614    17626    17629    17612    17567    17496 
   17404    17305    17219    17158    17131    17151    17211    17288 
   17366    17437    17479    17483    17448    17374    17281    17194 
   17135    17105    17100    17120    17165    17227    17297    17362 
   17417    17460    17493    17517    17543    17575    17598    17604 
   17593    17572    17535    17478    17415    17348    17284    17231 
   17204    17196    17192    17197    17205    17207    17211    17215 
   17205    17188    17165    17139    17118    17105    17096    17103 
   17134    17184    17246    17319    17397    17464    17520    17564 
   17597    17617    17622    17616    17614    17621    17636    17649 
   17647    17626    17593    17554    17517    17478    17429    17386 
   17358    17338    17329    17343    17371    17406    17440    17454 
   17458    17458    17442    17397    17334    17258    17189    17145 
   17116    17095    17082    17070    17055    17046    17039    17039 
   17065    17128    17215    17317    17442    17566    17664    17732 
   17763    17759    17734    17695    17656    17620    17581    17550 
   17540    17547    17555    17555    17550    17537    17508    17460 
   17402    17344    17296    17259    17234    17213    17194    17189 
   17192    17194    17207    17234    17267    17313    17370    17428 
   17485    17539    17577    17598    17604    17593    17572    17547 
   17521    17516    17535    17566    17604    17632    17633    17599 
   17536    17454    17358    17254    17161    17108    17100    17123 
   17158    17192    17217    17228    17215    17173    17104    17014 
   16926    16861    16822    16811    16842    16908    16981    17058 
   17142    17217    17277    17324    17369    17416    17482    17570 
   17675    17776    17848    17882    17869    17815    17733    17628 
   17501    17389    17324    17308    17325    17367    17412    17447 
   17470    17467    17436    17389    17332    17273    17224    17193 
   17181    17189    17205    17220    17243    17270    17290    17316 
   17358    17404    17455    17509    17547    17563    17560    17541 
   17502    17448    17396    17348    17317    17317    17351    17408 
   17474    17541    17602    17649    17679    17693    17687    17667 
   17641    17613    17590    17581    17583    17587    17591    17586 
   17551    17486    17401    17309    17227    17170    17151    17159 
   17182    17219    17263    17297    17320    17343    17362    17373 
   17393    17432    17473    17501    17513    17508    17486    17447 
   17386    17321    17270    17236    17215    17215    17227    17231 
   17232    17234    17235    17246    17262    17275    17298    17335 
   17367    17388    17404    17420    17432    17440    17443    17436 
   17427    17424    17427    17425    17409    17392    17378    17359 
   17335    17312    17285    17250    17203    17154    17123    17118 
   17142    17189    17250    17321    17397    17463    17513    17547 
   17566    17564    17556    17554    17555    17559    17568    17572 
   17574    17562    17529    17486    17439    17390    17358    17344 
   17343    17359    17383    17400    17416    17432    17436    17439 
   17446    17446    17440    17437    17427    17397    17366    17336 
   17293    17251    17216    17182    17165    17172    17181    17189 
   17200    17221    17265    17328    17400    17469    17527    17567 
   17593    17606    17599    17564    17510    17452    17400    17351 
   17305    17263    17223    17184    17159    17159    17173    17193 
   17216    17240    17261    17277    17296    17305    17300    17298 
   17315    17340    17377    17428    17482    17535    17591    17640 
   17663    17659    17633    17594    17550    17506    17458    17402 
   17350    17307    17267    17234    17201    17173    17165    17170 
   17176    17192    17227    17275    17334    17402    17471    17529 
   17586    17636    17671    17701    17722    17720    17697    17663 
   17618    17566    17509    17446    17379    17325    17289    17265 
   17243    17228    17216    17215    17235    17275    17327    17385 
   17443    17494    17523    17520    17483    17424    17363    17317 
   17282    17257    17246    17248    17257    17271    17294    17319 
   17343    17367    17386    17397    17401    17397    17389    17388 
   17394    17409    17435    17462    17486    17510    17536    17568 
