Origin Time       2025/06/03 22:18:00
Lat.              41.7
Long.             143.6
Depth. (km)       30
Mag.              5.2
Station Code      AOMH12
Station Lat.      40.5846
Station Long.     141.1547
Station Height(m) 85
Record Time       2025/06/03 22:19:42
Sampling Freq(Hz) 100Hz
Duration Time(s)  120
Dir.              4
Scale Factor      7845(gal)/8223790
Max. Acc. (gal)   0.595
Last Correction   2025/06/03 22:19:43
Memo.             
   -3141    -3165    -3156    -3119    -3067    -3005    -2947    -2905 
   -2891    -2909    -2957    -3024    -3088    -3137    -3165    -3172 
   -3156    -3113    -3051    -2983    -2943    -2948    -2992    -3063 
   -3140    -3195    -3213    -3195    -3159    -3126    -3113    -3121 
   -3133    -3140    -3140    -3127    -3106    -3080    -3051    -3017 
   -2990    -2978    -2980    -2994    -3010    -3024    -3037    -3038 
   -3017    -2983    -2945    -2916    -2916    -2943    -2979    -3024 
   -3076    -3137    -3188    -3210    -3198    -3169    -3129    -3082 
   -3048    -3040    -3059    -3094    -3122    -3134    -3137    -3118 
   -3086    -3051    -3015    -2979    -2949    -2929    -2922    -2938 
   -2979    -3034    -3090    -3127    -3141    -3129    -3091    -3036 
   -2983    -2948    -2940    -2957    -2999    -3060    -3118    -3152 
   -3156    -3137    -3105    -3067    -3033    -3009    -2998    -3006 
   -3034    -3072    -3114    -3153    -3175    -3175    -3156    -3121 
   -3076    -3037    -3017    -3019    -3038    -3068    -3095    -3103 
   -3091    -3068    -3038    -3010    -2991    -2978    -2970    -2983 
   -3021    -3067    -3111    -3148    -3160    -3138    -3092    -3034 
   -2982    -2944    -2928    -2930    -2963    -3019    -3083    -3130 
   -3154    -3164    -3152    -3115    -3061    -3006    -2972    -2968 
   -2995    -3042    -3087    -3107    -3109    -3100    -3098    -3111 
   -3136    -3156    -3167    -3163    -3144    -3118    -3099    -3095 
   -3105    -3123    -3140    -3152    -3160    -3160    -3149    -3126 
   -3092    -3055    -3019    -2994    -2975    -2968    -2979    -3007 
   -3034    -3045    -3042    -3036    -3038    -3056    -3079    -3099 
   -3111    -3121    -3127    -3137    -3142    -3138    -3123    -3102 
   -3078    -3061    -3055    -3048    -3042    -3044    -3046    -3044 
   -3038    -3036    -3042    -3055    -3059    -3055    -3041    -3015 
   -2991    -2979    -2984    -3002    -3040    -3090    -3125    -3136 
   -3126    -3110    -3094    -3071    -3033    -2991    -2960    -2944 
   -2940    -2947    -2967    -3003    -3055    -3106    -3142    -3156 
   -3149    -3123    -3086    -3042    -3006    -2976    -2956    -2945 
   -2952    -2972    -2999    -3025    -3049    -3065    -3072    -3078 
   -3086    -3087    -3080    -3072    -3055    -3024    -2984    -2949 
   -2930    -2928    -2941    -2971    -3009    -3056    -3113    -3156 
   -3177    -3188    -3196    -3198    -3188    -3168    -3140    -3114 
   -3100    -3103    -3115    -3129    -3137    -3141    -3145    -3141 
   -3123    -3096    -3075    -3069    -3075    -3083    -3092    -3102 
   -3109    -3110    -3105    -3091    -3064    -3033    -3009    -3005 
   -3026    -3071    -3115    -3145    -3150    -3126    -3084    -3041 
   -3006    -2992    -2999    -3022    -3057    -3091    -3109    -3103 
   -3072    -3032    -2995    -2961    -2928    -2910    -2920    -2961 
   -3024    -3084    -3121    -3132    -3127    -3115    -3088    -3049 
   -3009    -2976    -2963    -2965    -2979    -3006    -3046    -3094 
   -3140    -3173    -3192    -3190    -3164    -3132    -3106    -3091 
   -3080    -3079    -3087    -3103    -3114    -3106    -3084    -3067 
   -3057    -3051    -3056    -3069    -3084    -3099    -3110    -3114 
   -3115    -3110    -3091    -3068    -3041    -3010    -2979    -2959 
   -2959    -2980    -3011    -3032    -3034    -3018    -3001    -2991 
   -2995    -3010    -3022    -3026    -3034    -3048    -3064    -3079 
   -3088    -3094    -3095    -3092    -3099    -3121    -3145    -3150 
   -3126    -3083    -3044    -3018    -3009    -3014    -3030    -3037 
   -3024    -3003    -2995    -3006    -3026    -3036    -3022    -2992 
   -2957    -2938    -2945    -2982    -3041    -3114    -3183    -3223 
   -3237    -3227    -3198    -3149    -3087    -3026    -2984    -2963 
   -2964    -2982    -3002    -3025    -3046    -3049    -3025    -2992 
   -2982    -2997    -3018    -3034    -3033    -3011    -2979    -2949 
   -2928    -2917    -2914    -2918    -2932    -2960    -3010    -3073 
   -3134    -3184    -3215    -3223    -3206    -3160    -3102    -3064 
   -3059    -3080    -3123    -3183    -3252    -3323    -3369    -3356 
   -3284    -3180    -3055    -2929    -2844    -2826    -2874    -2961 
   -3068    -3157    -3200    -3207    -3184    -3137    -3076    -3001 
   -2914    -2835    -2776    -2749    -2770    -2845    -2951    -3059 
   -3152    -3207    -3217    -3192    -3152    -3100    -3048    -3001 
   -2964    -2960    -2995    -3063    -3141    -3207    -3254    -3277 
   -3267    -3227    -3169    -3109    -3063    -3049    -3073    -3122 
   -3160    -3173    -3181    -3188    -3186    -3163    -3117    -3056 
   -2994    -2944    -2920    -2926    -2963    -3028    -3102    -3154 
   -3169    -3154    -3126    -3099    -3087    -3083    -3069    -3042 
   -3017    -3005    -3017    -3042    -3063    -3072    -3069    -3063 
   -3068    -3092    -3132    -3177    -3218    -3222    -3175    -3099 
   -3021    -2957    -2920    -2891    -2868    -2859    -2859    -2859 
   -2866    -2891    -2937    -2990    -3024    -3025    -2999    -2976 
   -2979    -3014    -3064    -3106    -3121    -3099    -3049    -2987 
   -2934    -2903    -2902    -2949    -3045    -3159    -3241    -3269 
   -3254    -3222    -3175    -3107    -3040    -2998    -2999    -3048 
   -3114    -3171    -3219    -3257    -3271    -3250    -3196    -3114 
   -3025    -2952    -2907    -2891    -2886    -2882    -2897    -2937 
   -2994    -3056    -3102    -3127    -3148    -3154    -3130    -3078 
   -3019    -2978    -2960    -2971    -3005    -3053    -3107    -3150 
   -3173    -3171    -3146    -3109    -3067    -3030    -3006    -2994 
   -2982    -2974    -2982    -2998    -2998    -2975    -2945    -2937 
   -2971    -3021    -3057    -3072    -3073    -3072    -3069    -3056 
   -3041    -3046    -3082    -3144    -3210    -3250    -3248    -3207 
   -3146    -3086    -3028    -2979    -2965    -3011    -3106    -3214 
   -3299    -3338    -3331    -3298    -3262    -3219    -3157    -3098 
   -3060    -3034    -3006    -2982    -2974    -2994    -3036    -3069 
   -3079    -3073    -3069    -3069    -3073    -3078    -3086    -3100 
   -3109    -3094    -3060    -3007    -2940    -2878    -2840    -2830 
   -2849    -2893    -2952    -3024    -3094    -3140    -3152    -3142 
   -3129    -3118    -3106    -3103    -3117    -3134    -3140    -3137 
   -3121    -3086    -3044    -3007    -2984    -2988    -3007    -3015 
   -3010    -3014    -3044    -3090    -3134    -3159    -3152    -3109 
   -3029    -2952    -2907    -2902    -2929    -2967    -3009    -3055 
   -3087    -3087    -3059    -3019    -2982    -2961    -2976    -3025 
   -3087    -3144    -3171    -3165    -3140    -3105    -3061    -3015 
   -2965    -2918    -2889    -2890    -2925    -2987    -3061    -3129 
   -3171    -3177    -3167    -3149    -3127    -3100    -3073    -3060 
   -3064    -3067    -3060    -3051    -3049    -3057    -3076    -3094 
   -3096    -3087    -3067    -3034    -3013    -3005    -3001    -2987 
   -2951    -2902    -2855    -2822    -2825    -2868    -2934    -3005 
   -3072    -3136    -3196    -3244    -3258    -3229    -3153    -3037 
   -2916    -2832    -2822    -2889    -2990    -3086    -3157    -3200 
   -3219    -3221    -3214    -3207    -3214    -3233    -3257    -3273 
   -3280    -3287    -3304    -3330    -3353    -3360    -3348    -3318 
   -3268    -3188    -3067    -2911    -2758    -2648    -2620    -2670 
   -2775    -2914    -3063    -3192    -3273    -3303    -3281    -3198 
   -3057    -2899    -2782    -2749    -2814    -2948    -3111    -3264 
   -3373    -3400    -3334    -3204    -3057    -2914    -2787    -2701 
   -2674    -2721    -2836    -2986    -3137    -3268    -3342    -3337 
   -3254    -3130    -3009    -2921    -2880    -2887    -2943    -3046 
   -3180    -3308    -3407    -3457    -3439    -3346    -3191    -3001 
   -2814    -2681    -2623    -2650    -2752    -2901    -3048    -3160 
   -3229    -3257    -3245    -3194    -3114    -3036    -2978    -2937 
   -2921    -2947    -3007    -3072    -3118    -3142    -3146    -3127 
   -3100    -3096    -3117    -3136    -3126    -3087    -3036    -3001 
   -3003    -3040    -3100    -3172    -3248    -3321    -3370    -3370 
   -3312    -3200    -3041    -2878    -2767    -2724    -2736    -2793 
   -2866    -2940    -3007    -3056    -3080    -3080    -3044    -2978 
   -2913    -2884    -2901    -2960    -3057    -3180    -3299    -3383 
   -3399    -3330    -3207    -3087    -3019    -3025    -3088    -3177 
   -3256    -3296    -3292    -3242    -3150    -3049    -2983    -2967 
   -2995    -3056    -3114    -3136    -3114    -3060    -2990    -2918 
   -2867    -2849    -2857    -2882    -2921    -2980    -3057    -3148 
   -3230    -3276    -3258    -3187    -3091    -3002    -2947    -2926 
   -2932    -2961    -3006    -3038    -3038    -3001    -2947    -2913 
   -2928    -2982    -3041    -3084    -3103    -3105    -3094    -3072 
   -3052    -3055    -3090    -3141    -3184    -3196    -3177    -3145 
   -3117    -3094    -3065    -3018    -2963    -2916    -2878    -2839 
   -2799    -2775    -2770    -2786    -2808    -2812    -2797    -2775 
   -2774    -2810    -2880    -2976    -3096    -3219    -3314    -3366 
   -3366    -3310    -3219    -3132    -3064    -3015    -2978    -2947 
   -2944    -2988    -3079    -3199    -3329    -3447    -3527    -3546 
   -3504    -3423    -3323    -3217    -3113    -3025    -2968    -2952 
   -2964    -2990    -3025    -3063    -3083    -3088    -3086    -3065 
   -3025    -2974    -2917    -2874    -2874    -2911    -2971    -3034 
   -3082    -3103    -3087    -3030    -2955    -2887    -2859    -2883 
   -2944    -3010    -3084    -3181    -3283    -3348    -3350    -3294 
   -3198    -3098    -3018    -2957    -2916    -2891    -2899    -2945 
   -3007    -3053    -3064    -3038    -2988    -2941    -2911    -2913 
   -2956    -3029    -3110    -3181    -3215    -3207    -3177    -3126 
   -3060    -2997    -2941    -2903    -2894    -2922    -2983    -3063 
   -3140    -3196    -3227    -3223    -3181    -3109    -3018    -2918 
   -2821    -2744    -2698    -2689    -2724    -2808    -2928    -3057 
   -3173    -3253    -3277    -3246    -3179    -3098    -3026    -2987 
   -2980    -2997    -3037    -3103    -3179    -3246    -3284    -3271 
   -3213    -3136    -3063    -3011    -2999    -3026    -3084    -3168 
   -3246    -3294    -3312    -3307    -3273    -3211    -3136    -3072 
   -3040    -3037    -3048    -3052    -3030    -2972    -2901    -2856 
   -2860    -2911    -2997    -3098    -3190    -3252    -3277    -3268 
   -3235    -3199    -3167    -3149    -3153    -3165    -3169    -3154 
   -3118    -3079    -3044    -3011    -2995    -3018    -3090    -3200 
   -3311    -3395    -3437    -3419    -3342    -3227    -3110    -3024 
   -2994    -3018    -3064    -3091    -3076    -3013    -2902    -2764 
   -2623    -2502    -2438    -2451    -2551    -2717    -2911    -3100 
   -3240    -3315    -3325    -3258    -3134    -2998    -2897    -2857 
   -2891    -2976    -3087    -3203    -3299    -3348    -3331    -3254 
   -3137    -3015    -2928    -2902    -2936    -3007    -3091    -3156 
   -3175    -3145    -3072    -2968    -2855    -2760    -2712    -2710 
   -2749    -2817    -2897    -2964    -3007    -3015    -2987    -2938 
   -2890    -2860    -2862    -2886    -2924    -2965    -3002    -3028 
   -3052    -3069    -3082    -3091    -3099    -3115    -3146    -3196 
   -3265    -3334    -3379    -3385    -3350    -3275    -3177    -3090 
   -3045    -3048    -3068    -3080    -3082    -3090    -3114    -3149 
   -3181    -3204    -3207    -3183    -3138    -3088    -3044    -3011 
   -2995    -2990    -2991    -3009    -3038    -3071    -3109    -3146 
   -3171    -3188    -3215    -3258    -3319    -3384    -3435    -3449 
   -3412    -3329    -3210    -3084    -2984    -2926    -2910    -2932 
   -2978    -3033    -3091    -3149    -3208    -3265    -3295    -3280 
   -3233    -3177    -3137    -3114    -3090    -3056    -3017    -2972 
   -2926    -2882    -2843    -2817    -2816    -2847    -2901    -2965 
   -3030    -3083    -3115    -3126    -3118    -3106    -3099    -3094 
   -3086    -3082    -3090    -3110    -3132    -3138    -3121    -3095 
   -3065    -3018    -2951    -2872    -2802    -2764    -2775    -2835 
   -2926    -3037    -3149    -3241    -3279    -3268    -3221    -3145 
   -3071    -3015    -2979    -2970    -2987    -3015    -3048    -3080 
   -3086    -3045    -2975    -2901    -2847    -2833    -2862    -2932 
   -3044    -3176    -3295    -3373    -3392    -3352    -3271    -3161 
   -3036    -2922    -2844    -2803    -2802    -2829    -2859    -2874 
   -2876    -2875    -2874    -2870    -2857    -2841    -2826    -2818 
   -2829    -2863    -2921    -3003    -3106    -3210    -3289    -3341 
   -3370    -3379    -3366    -3335    -3292    -3241    -3186    -3127 
   -3068    -3017    -2978    -2952    -2944    -2947    -2955    -2974 
   -2999    -3022    -3032    -3010    -2948    -2862    -2775    -2714 
   -2690    -2710    -2776    -2867    -2955    -3018    -3045    -3034 
   -2997    -2944    -2895    -2870    -2876    -2921    -2992    -3073 
   -3148    -3207    -3244    -3268    -3299    -3329    -3339    -3321 
   -3279    -3213    -3142    -3092    -3072    -3078    -3098    -3123 
   -3138    -3138    -3138    -3153    -3183    -3219    -3257    -3295 
   -3326    -3341    -3322    -3267    -3198    -3132    -3075    -3024 
   -2991    -2982    -3002    -3052    -3122    -3190    -3241    -3269 
   -3275    -3254    -3207    -3153    -3110    -3087    -3091    -3115 
   -3140    -3163    -3188    -3200    -3183    -3140    -3076    -3002 
   -2929    -2870    -2839    -2837    -2860    -2895    -2929    -2948 
   -2956    -2964    -2967    -2978    -3007    -3060    -3140    -3241 
   -3346    -3435    -3478    -3460    -3388    -3288    -3191    -3110 
   -3051    -3013    -2992    -2987    -2998    -3021    -3045    -3061 
   -3063    -3038    -2986    -2910    -2829    -2759    -2717    -2713 
   -2744    -2795    -2859    -2925    -2991    -3056    -3114    -3154 
   -3176    -3171    -3133    -3068    -2999    -2948    -2925    -2930 
   -2960    -3003    -3049    -3079    -3087    -3080    -3064    -3040 
   -3010    -2986    -2971    -2955    -2930    -2897    -2864    -2841 
   -2832    -2837    -2852    -2867    -2887    -2914    -2948    -2987 
   -3029    -3068    -3107    -3146    -3177    -3183    -3156    -3109 
   -3057    -3019    -3007    -3029    -3078    -3141    -3204    -3257 
   -3291    -3300    -3284    -3244    -3191    -3133    -3080    -3042 
   -3018    -3005    -3010    -3029    -3049    -3064    -3073    -3080 
   -3078    -3067    -3055    -3049    -3048    -3048    -3040    -3024 
   -3013    -3003    -2987    -2972    -2971    -2979    -2979    -2963 
   -2937    -2916    -2909    -2920    -2949    -2988    -3029    -3063 
   -3079    -3076    -3059    -3030    -3010    -3007    -3022    -3056 
   -3110    -3176    -3244    -3292    -3315    -3312    -3279    -3229 
   -3173    -3118    -3079    -3069    -3086    -3118    -3160    -3203 
   -3240    -3260    -3254    -3223    -3165    -3088    -3013    -2955 
   -2920    -2909    -2920    -2945    -2972    -2998    -3032    -3065 
   -3094    -3113    -3115    -3107    -3100    -3092    -3069    -3032 
   -2995    -2978    -2974    -2964    -2948    -2938    -2938    -2953 
   -2991    -3041    -3091    -3140    -3186    -3217    -3230    -3225 
   -3204    -3175    -3149    -3138    -3145    -3159    -3168    -3159 
   -3125    -3064    -2986    -2901    -2824    -2768    -2749    -2778 
   -2843    -2930    -3033    -3141    -3233    -3296    -3326    -3322 
   -3287    -3234    -3184    -3148    -3138    -3167    -3223    -3288 
   -3356    -3407    -3419    -3396    -3342    -3252    -3136    -3014 
   -2899    -2803    -2736    -2704    -2716    -2774    -2867    -2971 
   -3065    -3134    -3164    -3154    -3113    -3049    -2979    -2917 
   -2867    -2833    -2822    -2836    -2876    -2938    -3006    -3071 
   -3129    -3175    -3202    -3196    -3163    -3119    -3080    -3053 
   -3041    -3041    -3052    -3073    -3095    -3100    -3092    -3068 
   -3022    -2960    -2905    -2870    -2863    -2894    -2963    -3051 
   -3141    -3210    -3244    -3250    -3234    -3191    -3134    -3082 
   -3041    -3022    -3038    -3088    -3159    -3225    -3262    -3264 
   -3231    -3179    -3129    -3092    -3080    -3094    -3123    -3163 
   -3203    -3227    -3226    -3196    -3137    -3057    -2956    -2845 
   -2745    -2673    -2633    -2637    -2671    -2724    -2793    -2864 
   -2916    -2941    -2948    -2943    -2929    -2922    -2928    -2943 
   -2975    -3025    -3075    -3110    -3125    -3119    -3106    -3090 
   -3079    -3082    -3102    -3144    -3204    -3269    -3325    -3358 
   -3358    -3331    -3287    -3231    -3180    -3149    -3145    -3169 
   -3204    -3237    -3246    -3219    -3157    -3084    -3013    -2951 
   -2910    -2894    -2897    -2918    -2952    -2992    -3030    -3053 
   -3063    -3063    -3044    -3014    -2988    -2976    -2980    -2991 
   -3007    -3032    -3061    -3083    -3082    -3051    -3001    -2948 
   -2902    -2876    -2890    -2944    -3025    -3110    -3172    -3198 
   -3188    -3145    -3080    -3014    -2955    -2917    -2906    -2920 
   -2952    -3002    -3064    -3137    -3217    -3281    -3315    -3323 
   -3311    -3283    -3250    -3227    -3211    -3198    -3183    -3168 
   -3148    -3111    -3061    -3018    -2997    -2992    -3003    -3026 
   -3048    -3059    -3057    -3037    -2997    -2947    -2902    -2870 
   -2855    -2853    -2863    -2883    -2911    -2945    -2982    -3015 
   -3042    -3060    -3075    -3088    -3100    -3111    -3130    -3165 
   -3210    -3246    -3260    -3248    -3211    -3150    -3076    -3003 
   -2947    -2928    -2952    -3010    -3084    -3149    -3192    -3214 
   -3213    -3186    -3132    -3064    -3006    -2967    -2938    -2920 
   -2917    -2926    -2948    -2986    -3028    -3067    -3099    -3122 
   -3123    -3103    -3061    -3006    -2951    -2905    -2874    -2859 
   -2872    -2916    -2971    -3024    -3065    -3095    -3111    -3110 
   -3094    -3069    -3044    -3030    -3032    -3049    -3082    -3113 
   -3133    -3142    -3138    -3119    -3091    -3059    -3028    -2997 
   -2967    -2947    -2941    -2952    -2982    -3017    -3055    -3092 
   -3126    -3148    -3142    -3117    -3082    -3033    -2978    -2928 
   -2890    -2875    -2891    -2937    -3001    -3068    -3130    -3177 
   -3207    -3215    -3198    -3156    -3110    -3080    -3079    -3115 
   -3184    -3272    -3362    -3437    -3477    -3470    -3416    -3330 
   -3222    -3099    -2982    -2897    -2864    -2882    -2932    -3001 
   -3072    -3125    -3150    -3148    -3119    -3079    -3040    -3005 
   -2978    -2960    -2952    -2951    -2957    -2968    -2984    -3003 
   -3018    -3024    -3030    -3042    -3057    -3082    -3118    -3156 
   -3190    -3215    -3230    -3226    -3199    -3168    -3146    -3136 
