Origin Time       2025/06/03 22:18:00
Lat.              41.7
Long.             143.6
Depth. (km)       30
Mag.              5.2
Station Code      AOMH12
Station Lat.      40.5846
Station Long.     141.1547
Station Height(m) -15
Record Time       2025/06/03 22:19:42
Sampling Freq(Hz) 100Hz
Duration Time(s)  120
Dir.              1
Scale Factor      2942(gal)/8224139
Max. Acc. (gal)   0.142
Last Correction   2025/06/03 22:19:43
Memo.             
[...]
  132382   132374   132372   132385   132401   132420   132440   132452 
  132448   132433   132416   132398   132381   132368   132352   132320 
  132273   132216   132159   132104   132047   131993   131961   131953 
  131957   131962   131967   131978   131989   131997   132003   132004 
  132001   131997   131989   131985   131994   132008   132021   132036 
  132050   132059   132062   132070   132098   132144   132185   132219 
  132250   132267   132268   132256   132228   132204   132200   132198 
  132190   132192   132202   132214   132233   132266   132305   132351 
  132393   132417   132421   132413   132395   132366   132324   132274 
  132227   132190   132169   132158   132144   132117   132082   132048 
  132019   131997   131984   131977   131980   131982   131976   131962 
  131950   131950   131961   131974   131982   131981   131970   131953 
  131934   131926   131926   131919   131912   131907   131908   131917 
  131935   131958   131980   131997   132015   132044   132089   132138 
  132185   132232   132277   132321   132366   132399   132420   132436 
  132441   132428   132403   132381   132351   132316   132279   132243 
  132201   132155   132108   132063   132036   132024   132012   131996 
  131981   131966   131951   131950   131962   131973   131986   132009 
  132034   132054   132065   132066   132075   132101   132123   132135 
  132142   132144   132144   132147   132150   132147   132144   132148 
  132165   132181   132179   132160   132142   132132   132125   132120 
  132117   132120   132125   132131   132133   132128   132120   132128 
  132158   132201   132237   132262   132275   132270   132256   132250 
  132247   132231   132208   132193   132185   132183   132187   132187 
  132181   132169   132160   132159   132152   132148   132154   132159 
  132170   132185   132194   132197   132198   132202   132202   132204 
  132204   132192   132167   132147   132148   132162   132174   132178 
  132173   132167   132171   132186   132221   132268   132313   132351 
  132372   132367   132343   132316   132295   132282   132267   132247 
  132223   132197   132167   132128   132086   132039   131986   131943 
  131909   131876   131853   131847   131855   131881   131926   131984 
  132052   132125   132186   132232   132270   132304   132335   132362 
  132381   132386   132382   132372   132356   132333   132309   132291 
  132278   132263   132246   132235   132224   132213   132205   132200 
  132201   132208   132202   132183   132156   132132   132115   132101 
  132098   132104   132106   132100   132090   132089   132088   132077 
  132061   132048   132036   132025   132017   132021   132028   132027 
  132023   132023   132024   132031   132048   132075   132108   132143 
  132166   132166   132150   132133   132127   132127   132133   132152 
  132175   132196   132224   132263   132294   132305   132314   132327 
  132337   132341   132335   132318   132305   132293   132279   132283 
  132302   132317   132331   132347   132358   132362   132364   132359 
  132344   132324   132302   132271   132241   132213   132182   132148 
  132121   132106   132090   132065   132042   132015   131976   131935 
  131897   131865   131850   131854   131873   131903   131935   131966 
  131993   132015   132032   132048   132069   132094   132127   132162 
  132197   132225   132247   132271   132301   132321   132322   132317 
  132313   132305   132286   132262   132239   132221   132213   132206 
  132194   132178   132160   132147   132147   132160   132169   132167 
  132166   132166   132165   132155   132144   132143   132148   132158 
  132169   132177   132181   132171   132152   132132   132111   132081 
  132058   132059   132069   132069   132071   132085   132101   132116 
  132131   132154   132193   132237   132274   132302   132331   132358 
  132375   132386   132390   132382   132364   132344   132312   132273 
  132235   132204   132178   132166   132170   132192   132228   132273 
  132317   132356   132385   132391   132385   132370   132344   132306 
  132264   132219   132173   132127   132075   132019   131974   131947 
  131926   131911   131916   131927   131928   131930   131931   131932 
  131947   131981   132024   132063   132088   132094   132092   132088 
  132089   132090   132089   132089   132093   132100   132105   132113 
  132121   132129   132140   132159   132175   132187   132190   132183 
  132178   132177   132181   132185   132187   132192   132189   132181 
  132173   132162   132154   132154   132162   132178   132189   132190 
  132190   132186   132182   132182   132179   132171   132162   132148 
  132119   132065   132004   131955   131916   131886   131873   131865 
  131851   131842   131836   131834   131842   131858   131874   131895 
  131926   131958   131980   131992   132007   132028   132059   132094 
  132123   132150   132183   132210   132223   132228   132235   132243 
  132254   132267   132282   132300   132327   132358   132387   132416 
  132443   132470   132501   132528   132533   132525   132510   132486 
  132449   132409   132362   132314   132282   132270   132274   132285 
  132290   132287   132279   132277   132270   132256   132250   132250 
  132251   132247   132233   132216   132200   132183   132167   132160 
  132159   132158   132155   132152   132152   132158   132169   132186 
  132204   132223   132246   132263   132266   132259   132252   132243 
  132236   132236   132236   132236   132239   132243   132243   132239 
  132229   132217   132213   132216   132214   132213   132212   132204 
  132189   132173   132156   132133   132101   132071   132054   132044 
  132042   132042   132040   132043   132058   132075   132089   132098 
  132106   132115   132121   132129   132136   132136   132128   132117 
  132097   132070   132051   132036   132024   132012   131996   131982 
  131984   131986   131988   131990   131993   131998   132009   132021 
  132034   132042   132046   132043   132039   132039   132044   132059 
  132081   132098   132112   132128   132150   132173   132192   132201 
  132205   132209   132208   132200   132181   132159   132138   132119 
  132098   132079   132058   132046   132044   132038   132025   132028 
  132044   132066   132092   132120   132152   132189   132221   132244 
  132256   132262   132267   132268   132268   132273   132282   132297 
  132308   132316   132324   132329   132333   132341   132354   132360 
  132363   132366   132364   132360   132360   132364   132368   132372 
  132370   132360   132347   132329   132310   132286   132251   132214 
  132179   132144   132112   132088   132071   132059   132044   132034 
  132025   132020   132012   132004   131992   131978   131969   131969 
  131977   131993   132017   132042   132065   132090   132115   132136 
  132160   132186   132212   132236   132258   132267   132266   132264 
  132275   132290   132298   132295   132293   132291   132286   132274 
  132262   132252   132241   132233   132224   132219   132210   132192 
  132166   132142   132111   132073   132038   132011   131990   131967 
  131938   131909   131889   131876   131872   131888   131922   131965 
  132015   132062   132104   132138   132158   132165   132163   132158 
  132155   132158   132156   132148   132142   132139   132143   132154 
  132173   132198   132227   132258   132295   132335   132364   132381 
  132391   132403   132413   132417   132413   132402   132390   132386 
  132385   132375   132360   132344   132320   132287   132255   132220 
  132182   132146   132113   132090   132071   132058   132058   132065 
  132074   132085   132086   132082   132074   132059   132043   132027 
  132015   132011   132012   132019   132021   132019   132025   132042 
  132063   132082   132096   132108   132120   132127   132128   132125 
  132115   132106   132105   132106   132108   132115   132119   132123 
  132127   132125   132116   132102   132088   132073   132063   132058 
  132057   132059   132065   132071   132082   132098   132117   132132 
  132135   132133   132125   132109   132100   132097   132102   132120 
  132150   132186   132219   132244   132262   132277   132293   132316 
  132339   132354   132356   132348   132341   132328   132306   132290 
  132277   132263   132259   132267   132271   132271   132274   132279 
  132283   132287   132290   132285   132273   132255   132240   132227 
  132214   132204   132193   132185   132185   132185   132179   132171 
  132162   132152   132138   132117   132093   132070   132054   132047 
  132046   132048   132059   132078   132105   132133   132156   132174 
  132193   132210   132224   132233   132244   132254   132254   132248 
  132247   132248   132248   132252   132254   132251   132254   132259 
  132263   132260   132246   132223   132190   132154   132127   132098 
  132065   132035   132007   131984   131965   131949   131939   131935 
  131926   131913   131905   131900   131897   131893   131890   131893 
  131903   131916   131936   131959   131982   132001   132015   132021 
  132031   132047   132067   132086   132105   132125   132142   132148 
  132152   132158   132159   132152   132142   132142   132144   132139 
  132138   132147   132160   132181   132200   132209   132217   132223 
  132224   132231   132241   132247   132255   132268   132283   132301 
  132322   132341   132358   132371   132376   132370   132354   132335 
  132318   132305   132291   132282   132273   132264   132260   132266 
  132270   132267   132256   132239   132217   132194   132179   132174 
  132174   132177   132187   132202   132216   132231   132248   132262 
  132268   132274   132278   132275   132267   132256   132246   132237 
  132229   132220   132210   132206   132202   132200   132205   132212 
  132219   132223   132219   132205   132185   132160   132135   132111 
  132093   132085   132081   132081   132082   132085   132089   132102 
  132127   132154   132181   132205   132229   132251   132260   132259 
  132250   132236   132224   132210   132187   132163   132140   132112 
  132088   132065   132042   132025   132013   131997   131981   131967 
  131953   131940   131931   131927   131935   131944   131953   131970 
  131992   132008   132023   132035   132047   132057   132063   132070 
  132077   132088   132104   132128   132158   132189   132209   132223 
  132232   132232   132224   132214   132209   132202   132193   132183 
  132171   132160   132158   132160   132160   132160   132159   132165 
  132179   132194   132209   132227   132240   132251   132255   132252 
  132254   132259   132266   132281   132294   132309   132328   132343 
  132351   132358   132356   132349   132345   132339   132328   132322 
  132321   132321   132328   132339   132343   132345   132348   132349 
  132348   132343   132332   132316   132297   132270   132233   132193 
  132148   132104   132063   132025   131996   131965   131926   131892 
  131868   131853   131843   131838   131835   131842   131861   131884 
  131904   131927   131954   131980   132003   132025   132047   132066 
  132081   132101   132129   132160   132192   132213   132223   132229 
  132227   132209   132183   132151   132120   132094   132073   132052 
  132036   132025   132019   132023   132031   132035   132034   132028 
  132027   132027   132034   132043   132048   132051   132054   132051 
  132044   132036   132024   132013   132013   132024   132035   132046 
  132065   132089   132112   132135   132165   132198   132229   132263 
  132295   132329   132368   132409   132448   132482   132509   132528 
  132541   132547   132548   132544   132528   132503   132479   132456 
  132433   132410   132387   132359   132324   132291   132264   132235 
  132205   132174   132140   132113   132098   132089   132082   132070 
  132050   132031   132016   132004   131996   131992   131986   131988 
  131990   131998   132019   132046   132077   132121   132175   132233 
  132290   132336   132375   132412   132439   132455   132457   132443 
  132422   132402   132376   132344   132314   132285   132254   132224 
  132194   132171   132151   132131   132116   132101   132088   132078 
  132070   132061   132050   132038   132030   132031   132034   132036 
  132038   132039   132038   132036   132027   132015   132007   132000 
  132001   132012   132027   132042   132061   132084   132109   132131 
  132147   132166   132187   132210   132228   132243   132256   132262 
  132262   132256   132246   132239   132236   132237   132246   132252 
  132250   132243   132223   132198   132175   132146   132111   132086 
  132066   132044   132035   132031   132030   132030   132032   132038 
  132042   132038   132025   132011   131993   131978   131963   131949 
  131932   131920   131917   131927   131947   131980   132015   132043 
  132066   132088   132102   132109   132120   132131   132142   132154 
  132169   132183   132200   132214   132225   132232   132235   132243 
  132250   132250   132239   132225   132213   132202   132194   132192 
  132194   132201   132209   132212   132217   132228   132231   132232 
  132235   132235   132232   132225   132209   132186   132159   132131 
  132105   132096   132093   132086   132077   132065   132051   132040 
  132031   132023   132011   131998   131993   131988   131982   131986 
  131996   132003   132012   132032   132061   132089   132125   132167 
  132208   132252   132298   132341   132386   132435   132479   132511 
  132534   132552   132560   132560   132553   132530   132497   132460 
  132428   132402   132375   132348   132325   132306   132297   132294 
  132283   132263   132240   132213   132185   132159   132135   132112 
  132098   132090   132085   132085   132088   132089   132096   132111 
  132131   132152   132177   132200   132219   132237   132262   132286 
  132306   132325   132340   132347   132349   132344   132328   132306 
  132283   132255   132229   132205   132178   132154   132132   132111 
  132094   132090   132092   132101   132116   132123   132125   132127 
  132120   132108   132089   132066   132048   132032   132021   132015 
  132007   132005   132016   132035   132055   132075   132096   132120 
  132140   132154   132167   132183   132193   132202   132220   132237 
  132255   132275   132287   132282   132270   132251   132228   132205 
  132182   132162   132142   132127   132116   132106   132105   132115 
  132135   132159   132185   132208   132223   132227   132221   132209 
  132192   132174   132155   132133   132102   132066   132028   131990 
  131955   131924   131893   131862   131841   131824   131807   131792 
  131782   131778   131778   131785   131797   131808   131814   131826 
  131846   131865   131882   131905   131930   131958   131994   132027 
  132054   132084   132120   132155   132185   132214   132240   132270 
  132308   132341   132368   132391   132409   132424   132444   132460 
  132471   132479   132487   132487   132480   132478   132479   132474 
  132467   132466   132463   132457   132457   132462   132460   132453 
  132444   132429   132408   132383   132360   132340   132316   132287 
  132263   132239   132210   132185   132160   132135   132115   132093 
  132069   132047   132028   132013   132008   132004   131997   131997 
  132003   132009   132024   132044   132062   132082   132101   132112 
  132116   132119   132119   132115   132108   132106   132109   132108 
  132109   132116   132120   132123   132132   132143   132147   132150 
  132152   132159   132169   132177   132185   132193   132193   132193 
  132193   132190   132182   132170   132160   132151   132135   132119 
  132101   132082   132065   132050   132040   132034   132025   132020 
  132020   132021   132027   132030   132028   132028   132031   132032 
  132032   132030   132024   132021   132024   132030   132038   132051 
  132066   132082   132098   132112   132124   132133   132138   132139 
  132139   132136   132128   132120   132116   132112   132111   132115 
  132115   132109   132106   132105   132100   132096   132093   132096 
  132108   132121   132135   132152   132171   132194   132223   132248 
  132274   132300   132320   132336   132351   132363   132371   132372 
  132366   132359   132355   132349   132339   132322   132306   132290 
  132277   132270   132267   132263   132256   132246   132236   132223 
  132204   132186   132170   132150   132129   132102   132073   132051 
  132032   132017   132009   132004   131996   131990   131985   131980 
  131981   131984   131986   131989   131994   132000   132000   132001 
  132004   132008   132019   132034   132046   132059   132073   132085 
  132092   132097   132105   132111   132119   132128   132135   132144 
  132154   132160   132167   132178   132196   132216   132232   132247 
  132263   132274   132287   132300   132309   132325   132341   132356 
  132371   132381   132382   132378   132370   132354   132333   132314 
  132294   132274   132266   132264   132260   132260   132258   132247 
  132239   132237   132233   132232   132239   132250   132254   132254 
  132252   132243   132228   132210   132196   132190   132196   132208 
  132220   132231   132239   132240   132241   132241   132237   132233 
  132229   132225   132219   132209   132200   132187   132177   132170 
  132166   132162   132158   132155   132151   132148   132150   132150 
  132147   132140   132133   132131   132131   132129   132133   132135 
  132136   132138   132142   132147   132152   132163   132179   132200 
  132217   132228   132235   132244   132255   132270   132283   132291 
  132297   132298   132300   132297   132282   132262   132244   132225 
  132202   132185   132170   132151   132136   132128   132121   132117 
  132117   132115   132108   132102   132097   132093   132090   132085 
  132077   132067   132063   132061   132057   132054   132052   132057 
  132062   132063   132062   132063   132066   132073   132084   132090 
  132093   132101   132113   132120   132128   132138   132142   132142 
  132140   132139   132139   132144   132152   132158   132163   132171 
  132181   132189   132193   132194   132193   132194   132194   132190 
  132187   132187   132183   132185   132192   132200   132209   132219 
  132228   132239   132250   132258   132264   132267   132267   132266 
  132262   132259   132259   132259   132260   132263   132262   132266 
  132271   132274   132277   132274   132264   132250   132229   132210 
  132190   132165   132138   132109   132075   132040   132011   131980 
  131953   131938   131928   131919   131912   131912   131913   131923 
  131942   131966   131989   132009   132028   132044   132057   132071 
  132090   132109   132129   132148   132166   132187   132212   132232 
  132244   132248   132252   132259   132264   132268   132273   132273 
  132273   132275   132278   132283   132287   132287   132281   132273 
  132264   132252   132235   132214   132200   132187   132174   132163 
  132154   132140   132129   132120   132111   132102   132096   132084 
  132069   132051   132031   132008   131988   131973   131961   131950 
  131943   131940   131938   131936   131939   131944   131954   131966 
  131976   131988   132001   132009   132015   132024   132032   132034 
  132036   132039   132044   132052   132059   132066   132077   132089 
