Origin Time       2025/06/03 22:18:00
Lat.              41.7
Long.             143.6
Depth. (km)       30
Mag.              5.2
Station Code      AOMH13
Station Lat.      40.5794
Station Long.     141.4451
Station Height(m) 10
Record Time       2025/06/03 22:19:25
Sampling Freq(Hz) 100Hz
Duration Time(s)  120
Dir.              4
Scale Factor      7845(gal)/8223790
Max. Acc. (gal)   0.506
Last Correction   2025/06/03 22:19:26
Memo.             
[...]
   -2393    -2424    -2443    -2443    -2431    -2416    -2396    -2374 
   -2361    -2354    -2354    -2359    -2362    -2358    -2344    -2311 
   -2269    -2238    -2214    -2203    -2216    -2245    -2281    -2316 
   -2331    -2324    -2309    -2285    -2262    -2259    -2282    -2320 
   -2361    -2404    -2443    -2461    -2457    -2440    -2421    -2407 
   -2409    -2435    -2475    -2513    -2539    -2542    -2516    -2478 
   -2443    -2411    -2390    -2396    -2407    -2417    -2427    -2421 
   -2400    -2374    -2363    -2378    -2412    -2443    -2463    -2474 
   -2471    -2446    -2413    -2394    -2389    -2392    -2403    -2405 
   -2397    -2386    -2367    -2342    -2313    -2290    -2277    -2272 
   -2274    -2289    -2317    -2351    -2370    -2378    -2376    -2354 
   -2315    -2273    -2241    -2215    -2193    -2182    -2192    -2214 
   -2236    -2273    -2319    -2351    -2366    -2371    -2367    -2357 
   -2349    -2353    -2370    -2398    -2432    -2465    -2488    -2500 
   -2502    -2496    -2479    -2454    -2416    -2376    -2339    -2309 
   -2288    -2286    -2297    -2303    -2309    -2317    -2312    -2304 
   -2300    -2293    -2286    -2293    -2316    -2358    -2407    -2454 
   -2489    -2496    -2478    -2451    -2428    -2419    -2428    -2450 
   -2471    -2486    -2488    -2469    -2434    -2389    -2346    -2316 
   -2296    -2286    -2293    -2303    -2308    -2312    -2315    -2317 
   -2317    -2316    -2323    -2339    -2355    -2374    -2393    -2398 
   -2393    -2393    -2393    -2380    -2358    -2330    -2297    -2261 
   -2234    -2228    -2241    -2261    -2288    -2326    -2363    -2390 
   -2405    -2404    -2386    -2361    -2350    -2344    -2332    -2331 
   -2351    -2376    -2388    -2392    -2394    -2392    -2373    -2340 
   -2305    -2268    -2228    -2204    -2207    -2232    -2268    -2305 
   -2340    -2371    -2396    -2416    -2435    -2451    -2458    -2457 
   -2455    -2452    -2443    -2431    -2425    -2435    -2461    -2482 
   -2482    -2465    -2444    -2412    -2370    -2344    -2338    -2342 
   -2369    -2423    -2475    -2523    -2565    -2587    -2578    -2535 
   -2475    -2417    -2378    -2363    -2366    -2367    -2369    -2377 
   -2382    -2374    -2367    -2361    -2342    -2316    -2292    -2265 
   -2234    -2205    -2192    -2193    -2196    -2201    -2215    -2227 
   -2234    -2243    -2265    -2289    -2309    -2322    -2331    -2343 
   -2346    -2338    -2340    -2363    -2401    -2444    -2474    -2478 
   -2469    -2443    -2398    -2354    -2328    -2317    -2312    -2312 
   -2322    -2335    -2351    -2366    -2377    -2388    -2396    -2398 
   -2389    -2370    -2349    -2330    -2317    -2323    -2335    -2349 
   -2362    -2362    -2351    -2354    -2371    -2388    -2398    -2408 
   -2416    -2423    -2423    -2409    -2392    -2382    -2376    -2366 
   -2358    -2353    -2349    -2349    -2354    -2366    -2377    -2390 
   -2417    -2448    -2470    -2485    -2484    -2459    -2420    -2382 
   -2355    -2351    -2371    -2411    -2452    -2473    -2474    -2461 
   -2435    -2408    -2385    -2358    -2338    -2332    -2344    -2370 
   -2412    -2459    -2500    -2519    -2508    -2471    -2419    -2370 
   -2339    -2319    -2311    -2319    -2340    -2357    -2347    -2316 
   -2277    -2234    -2201    -2185    -2178    -2172    -2158    -2146 
   -2139    -2127    -2116    -2120    -2127    -2127    -2126    -2122 
   -2111    -2100    -2101    -2123    -2172    -2231    -2277    -2305 
   -2323    -2331    -2336    -2346    -2366    -2396    -2431    -2473 
   -2519    -2556    -2586    -2613    -2633    -2641    -2632    -2608 
   -2587    -2570    -2542    -2508    -2475    -2454    -2444    -2443 
   -2451    -2471    -2489    -2500    -2504    -2502    -2504    -2509 
   -2523    -2551    -2585    -2616    -2636    -2633    -2598    -2525 
   -2436    -2350    -2280    -2242    -2239    -2255    -2286    -2328 
   -2354    -2351    -2338    -2328    -2320    -2316    -2312    -2304 
   -2286    -2262    -2224    -2177    -2126    -2068    -2012    -1988 
   -2007    -2060    -2127    -2192    -2245    -2280    -2311    -2351 
   -2396    -2454    -2529    -2616    -2695    -2743    -2739    -2691 
   -2623    -2550    -2489    -2451    -2435    -2427    -2416    -2408 
   -2401    -2393    -2390    -2389    -2380    -2363    -2351    -2347 
   -2346    -2344    -2354    -2366    -2359    -2328    -2282    -2234 
   -2187    -2143    -2116    -2110    -2110    -2122    -2150    -2182 
   -2215    -2262    -2328    -2397    -2462    -2527    -2583    -2617 
   -2633    -2637    -2617    -2575    -2531    -2498    -2469    -2440 
   -2424    -2413    -2403    -2388    -2363    -2335    -2303    -2273 
   -2268    -2300    -2355    -2417    -2471    -2502    -2494    -2447 
   -2373    -2290    -2224    -2182    -2155    -2137    -2118    -2100 
   -2087    -2066    -2042    -2026    -2042    -2091    -2157    -2224 
   -2292    -2357    -2403    -2431    -2463    -2502    -2524    -2515 
   -2477    -2409    -2322    -2234    -2166    -2138    -2149    -2192 
   -2265    -2338    -2376    -2377    -2369    -2369    -2374    -2393 
   -2448    -2533    -2612    -2670    -2710    -2728    -2718    -2685 
   -2641    -2589    -2546    -2536    -2562    -2600    -2621    -2616 
   -2590    -2533    -2454    -2377    -2328    -2305    -2309    -2338 
   -2381    -2420    -2443    -2444    -2420    -2367    -2292    -2208 
   -2131    -2073    -2039    -2042    -2074    -2119    -2149    -2151 
   -2119    -2064    -2020    -2023    -2072    -2147    -2245    -2367 
   -2481    -2548    -2579    -2594    -2585    -2543    -2484    -2421 
   -2342    -2245    -2157    -2103    -2080    -2089    -2128    -2180 
   -2218    -2234    -2235    -2231    -2241    -2280    -2351    -2451 
   -2551    -2619    -2663    -2685    -2666    -2605    -2515    -2409 
   -2319    -2266    -2268    -2324    -2417    -2523    -2612    -2659 
   -2652    -2605    -2540    -2475    -2421    -2403    -2425    -2465 
   -2498    -2520    -2536    -2546    -2540    -2524    -2500    -2462 
   -2428    -2411    -2415    -2434    -2461    -2490    -2515    -2519 
   -2497    -2446    -2370    -2277    -2180    -2103    -2058    -2049 
   -2066    -2085    -2083    -2053    -2014    -1983    -1973    -2012 
   -2116    -2255    -2388    -2481    -2511    -2482    -2419    -2357 
   -2315    -2300    -2309    -2344    -2392    -2444    -2497    -2540 
   -2567    -2585    -2597    -2606    -2608    -2583    -2546    -2504 
   -2463    -2432    -2416    -2409    -2403    -2384    -2344    -2296 
   -2253    -2216    -2187    -2176    -2176    -2173    -2169    -2166 
   -2169    -2181    -2195    -2204    -2220    -2247    -2274    -2281 
   -2280    -2272    -2251    -2238    -2245    -2257    -2273    -2299 
   -2326    -2351    -2390    -2454    -2529    -2593    -2633    -2641 
   -2620    -2575    -2508    -2434    -2380    -2354    -2339    -2342 
   -2370    -2404    -2420    -2432    -2448    -2450    -2416    -2365 
   -2311    -2265    -2239    -2243    -2284    -2361    -2442    -2490 
   -2494    -2465    -2412    -2354    -2315    -2297    -2286    -2282 
   -2293    -2326    -2378    -2438    -2492    -2536    -2562    -2563 
   -2550    -2527    -2488    -2435    -2377    -2324    -2285    -2263 
   -2262    -2274    -2286    -2297    -2312    -2326    -2332    -2339 
   -2343    -2346    -2354    -2374    -2401    -2423    -2428    -2420 
   -2417    -2430    -2447    -2458    -2446    -2405    -2340    -2259 
   -2184    -2149    -2165    -2219    -2280    -2334    -2371    -2382 
   -2370    -2350    -2327    -2312    -2317    -2338    -2350    -2336 
   -2299    -2246    -2182    -2128    -2120    -2164    -2227    -2292 
   -2351    -2408    -2457    -2493    -2521    -2544    -2562    -2573 
   -2571    -2555    -2528    -2488    -2438    -2390    -2351    -2324 
   -2313    -2311    -2308    -2300    -2285    -2262    -2226    -2195 
   -2182    -2187    -2214    -2272    -2354    -2446    -2525    -2585 
   -2627    -2641    -2624    -2579    -2513    -2440    -2377    -2342 
   -2344    -2367    -2388    -2388    -2357    -2300    -2226    -2165 
   -2146    -2166    -2211    -2266    -2307    -2317    -2307    -2295 
   -2296    -2319    -2369    -2430    -2470    -2469    -2430    -2362 
   -2284    -2212    -2181    -2218    -2315    -2439    -2559    -2648 
   -2697    -2704    -2659    -2574    -2489    -2432    -2417    -2455 
   -2535    -2633    -2710    -2731    -2700    -2627    -2527    -2450 
   -2421    -2425    -2447    -2481    -2508    -2494    -2434    -2354 
   -2292    -2258    -2246    -2253    -2270    -2288    -2292    -2285 
   -2285    -2305    -2336    -2366    -2393    -2407    -2389    -2340 
   -2270    -2181    -2089    -2016    -1958    -1918    -1902    -1894 
   -1881    -1891    -1948    -2053    -2178    -2305    -2419    -2486 
   -2497    -2469    -2435    -2416    -2427    -2467    -2525    -2586 
   -2620    -2598    -2525    -2420    -2304    -2201    -2146    -2141 
   -2170    -2224    -2278    -2304    -2303    -2292    -2288    -2299 
   -2322    -2342    -2349    -2332    -2299    -2263    -2245    -2253 
   -2286    -2347    -2421    -2479    -2516    -2544    -2563    -2565 
   -2563    -2562    -2544    -2506    -2466    -2431    -2412    -2409 
   -2409    -2404    -2385    -2343    -2285    -2238    -2228    -2270 
   -2351    -2450    -2536    -2571    -2544    -2486    -2421    -2370 
   -2363    -2405    -2470    -2536    -2575    -2570    -2513    -2411 
   -2292    -2205    -2178    -2207    -2285    -2405    -2529    -2625 
   -2690    -2718    -2694    -2624    -2531    -2435    -2350    -2282 
   -2250    -2257    -2280    -2296    -2301    -2299    -2277    -2238 
   -2201    -2181    -2173    -2184    -2222    -2280    -2343    -2397 
   -2427    -2427    -2393    -2339    -2285    -2239    -2208    -2191 
   -2189    -2215    -2251    -2284    -2324    -2369    -2413    -2452 
   -2490    -2538    -2589    -2631    -2656    -2664    -2668    -2663 
   -2629    -2566    -2490    -2408    -2339    -2305    -2297    -2300 
   -2308    -2320    -2327    -2324    -2315    -2299    -2270    -2231 
   -2177    -2120    -2073    -2037    -2014    -2026    -2084    -2178 
   -2285    -2381    -2448    -2474    -2458    -2430    -2415    -2423 
   -2461    -2515    -2556    -2571    -2560    -2520    -2465    -2416 
   -2386    -2370    -2357    -2344    -2320    -2273    -2216    -2181 
   -2191    -2241    -2316    -2403    -2482    -2524    -2506    -2439 
   -2363    -2308    -2286    -2309    -2359    -2411    -2454    -2488 
   -2493    -2462    -2398    -2320    -2243    -2161    -2081    -2025 
   -1992    -1979    -1992    -2037    -2089    -2142    -2191    -2220 
   -2230    -2234    -2239    -2245    -2251    -2269    -2313    -2382 
   -2447    -2493    -2521    -2528    -2513    -2494    -2482    -2471 
   -2465    -2470    -2489    -2515    -2531    -2535    -2531    -2524 
   -2511    -2493    -2471    -2434    -2393    -2376    -2382    -2405 
   -2444    -2497    -2558    -2606    -2632    -2654    -2681    -2698 
   -2701    -2698    -2687    -2664    -2625    -2577    -2516    -2442 
   -2363    -2288    -2227    -2191    -2180    -2196    -2232    -2273 
   -2312    -2346    -2361    -2344    -2297    -2231    -2157    -2085 
   -2029    -2007    -2030    -2085    -2158    -2235    -2297    -2326 
   -2317    -2282    -2234    -2192    -2184    -2208    -2254    -2311 
   -2363    -2408    -2435    -2431    -2394    -2339    -2290    -2254 
   -2232    -2231    -2241    -2238    -2226    -2220    -2231    -2254 
   -2301    -2385    -2490    -2587    -2671    -2737    -2763    -2748 
   -2708    -2655    -2596    -2533    -2478    -2421    -2346    -2265 
   -2180    -2084    -1996    -1946    -1945    -1993    -2074    -2164 
   -2236    -2268    -2246    -2191    -2135    -2108    -2141    -2241 
   -2373    -2478    -2525    -2524    -2477    -2393    -2307    -2255 
   -2255    -2309    -2412    -2544    -2660    -2721    -2725    -2690 
   -2633    -2581    -2550    -2547    -2562    -2583    -2598    -2596 
   -2578    -2547    -2508    -2474    -2448    -2427    -2411    -2404 
   -2401    -2394    -2371    -2342    -2316    -2292    -2278    -2284 
   -2293    -2304    -2323    -2350    -2388    -2436    -2479    -2506 
   -2521    -2538    -2540    -2519    -2489    -2466    -2431    -2378 
   -2331    -2286    -2227    -2160    -2099    -2043    -2000    -1981 
   -1983    -2006    -2069    -2168    -2277    -2378    -2450    -2490 
   -2515    -2523    -2513    -2498    -2504    -2533    -2573    -2606 
   -2627    -2624    -2579    -2490    -2377    -2265    -2166    -2106 
   -2100    -2138    -2184    -2224    -2263    -2307    -2347    -2388 
   -2434    -2481    -2516    -2535    -2550    -2560    -2558    -2535 
   -2506    -2481    -2454    -2423    -2392    -2371    -2361    -2355 
   -2351    -2338    -2322    -2309    -2296    -2278    -2262    -2251 
   -2255    -2289    -2338    -2380    -2405    -2405    -2373    -2332 
   -2303    -2299    -2323    -2361    -2389    -2398    -2377    -2327 
   -2262    -2203    -2162    -2142    -2135    -2137    -2141    -2127 
   -2095    -2054    -2018    -1991    -1987    -2015    -2066    -2122 
   -2161    -2172    -2173    -2185    -2219    -2286    -2381    -2497 
   -2623    -2739    -2824    -2876    -2895    -2891    -2864    -2816 
   -2756    -2697    -2636    -2578    -2520    -2469    -2432    -2404 
   -2388    -2386    -2389    -2384    -2369    -2339    -2295    -2257 
   -2253    -2280    -2324    -2370    -2401    -2404    -2385    -2353 
   -2309    -2266    -2241    -2234    -2235    -2241    -2262    -2300 
   -2350    -2412    -2478    -2539    -2593    -2636    -2659    -2663 
   -2643    -2605    -2562    -2520    -2474    -2425    -2382    -2358 
   -2349    -2351    -2365    -2388    -2420    -2455    -2477    -2484 
   -2475    -2450    -2408    -2359    -2316    -2286    -2265    -2241 
   -2219    -2200    -2177    -2147    -2122    -2115    -2124    -2142 
   -2157    -2158    -2153    -2151    -2158    -2185    -2231    -2281 
   -2319    -2331    -2311    -2273    -2238    -2215    -2218    -2245 
   -2282    -2324    -2350    -2354    -2351    -2354    -2367    -2388 
   -2408    -2416    -2400    -2378    -2371    -2386    -2416    -2458 
   -2505    -2542    -2554    -2546    -2529    -2505    -2486    -2493 
   -2525    -2579    -2641    -2689    -2710    -2709    -2674    -2602 
   -2519    -2440    -2380    -2347    -2340    -2336    -2315    -2281 
   -2255    -2238    -2222    -2209    -2209    -2224    -2246    -2266 
   -2281    -2292    -2292    -2286    -2280    -2272    -2262    -2263 
   -2285    -2322    -2357    -2380    -2384    -2363    -2332    -2311 
   -2309    -2331    -2365    -2397    -2417    -2431    -2439    -2431 
   -2403    -2363    -2315    -2272    -2254    -2277    -2328    -2380 
   -2420    -2444    -2446    -2424    -2385    -2347    -2317    -2296 
   -2280    -2278    -2277    -2265    -2243    -2214    -2182    -2161 
   -2155    -2170    -2216    -2289    -2371    -2444    -2490    -2489 
   -2448    -2394    -2338    -2289    -2270    -2285    -2319    -2349 
   -2363    -2373    -2371    -2357    -2336    -2316    -2301    -2296 
   -2296    -2309    -2338    -2365    -2386    -2397    -2396    -2396 
   -2398    -2400    -2403    -2401    -2396    -2389    -2381    -2371 
   -2367    -2366    -2366    -2365    -2361    -2361    -2369    -2385 
   -2400    -2403    -2400    -2400    -2405    -2435    -2501    -2589 
   -2681    -2760    -2817    -2832    -2794    -2714    -2623    -2543 
   -2486    -2458    -2455    -2459    -2443    -2394    -2319    -2230 
   -2145    -2081    -2047    -2052    -2087    -2141    -2189    -2220 
   -2231    -2220    -2189    -2154    -2127    -2114    -2116    -2135 
   -2164    -2189    -2207    -2218    -2214    -2193    -2166    -2149 
   -2143    -2154    -2187    -2235    -2292    -2339    -2377    -2421 
   -2469    -2515    -2569    -2629    -2685    -2722    -2743    -2751 
   -2741    -2722    -2705    -2698    -2702    -2704    -2693    -2662 
   -2597    -2505    -2412    -2331    -2269    -2235    -2231    -2239 
   -2247    -2249    -2231    -2193    -2149    -2107    -2066    -2042 
   -2037    -2045    -2064    -2088    -2108    -2124    -2143    -2168 
   -2211    -2277    -2365    -2474    -2596    -2710    -2797    -2840 
   -2839    -2797    -2727    -2654    -2594    -2540    -2484    -2421 
   -2339    -2228    -2108    -2006    -1933    -1902    -1926    -1991 
   -2076    -2160    -2220    -2255    -2284    -2303    -2322    -2357 
   -2411    -2475    -2536    -2574    -2583    -2581    -2566    -2540 
   -2521    -2520    -2527    -2540    -2569    -2606    -2647    -2686 
   -2714    -2725    -2706    -2658    -2598    -2547    -2505    -2477 
   -2458    -2440    -2416    -2377    -2322    -2269    -2236    -2242 
   -2284    -2353    -2440    -2515    -2551    -2544    -2493    -2398 
   -2281    -2158    -2052    -1981    -1948    -1945    -1968    -2008 
   -2047    -2073    -2099    -2131    -2164    -2181    -2184    -2176 
   -2165    -2164    -2184    -2222    -2272    -2322    -2358    -2389 
   -2409    -2405    -2382    -2346    -2307    -2274    -2255    -2247 
   -2254    -2272    -2282    -2286    -2289    -2285    -2276    -2270 
   -2277    -2299    -2322    -2343    -2366    -2388    -2409    -2440 
   -2470    -2494    -2523    -2544    -2551    -2544    -2525    -2504 
   -2489    -2484    -2482    -2473    -2455    -2442    -2434    -2434 
   -2451    -2482    -2508    -2517    -2501    -2458    -2394    -2330 
   -2282    -2272    -2304    -2366    -2439    -2498    -2528    -2525 
   -2501    -2474    -2463    -2471    -2486    -2511    -2539    -2546 
   -2525    -2494    -2454    -2416    -2385    -2358    -2343    -2342 
   -2344    -2353    -2369    -2388    -2409    -2434    -2443    -2427 
   -2394    -2353    -2308    -2268    -2247    -2249    -2261    -2282 
   -2303    -2313    -2311    -2297    -2277    -2265    -2270    -2290 
   -2324    -2369    -2413    -2451    -2475    -2484    -2477    -2459 
   -2425    -2388    -2362    -2357    -2378    -2416    -2458    -2493 
   -2506    -2488    -2440    -2371    -2297    -2232    -2196    -2204 
   -2247    -2300    -2349    -2380    -2393    -2393    -2381    -2365 
   -2358    -2363    -2373    -2380    -2384    -2381    -2366    -2353 
   -2350    -2361    -2392    -2435    -2471    -2489    -2489    -2475 
   -2457    -2436    -2419    -2401    -2385    -2374    -2370    -2371 
   -2369    -2355    -2334    -2299    -2250    -2205    -2168    -2147 
   -2161    -2205    -2262    -2319    -2359    -2370    -2339    -2272 
   -2195    -2135    -2103    -2103    -2134    -2181    -2232    -2258 
   -2249    -2220    -2184    -2145    -2116    -2107    -2115    -2134 
   -2155    -2174    -2185    -2185    -2182    -2184    -2200    -2235 
   -2277    -2317    -2353    -2378    -2403    -2425    -2448    -2479 
   -2524    -2575    -2629    -2671    -2687    -2681    -2662    -2641 
   -2624    -2612    -2619    -2640    -2675    -2725    -2781    -2826 
