Origin Time       2025/06/03 22:18:00
Lat.              41.7
Long.             143.6
Depth. (km)       30
Mag.              5.2
Station Code      AOMH16
Station Lat.      40.4624
Station Long.     141.0923
Station Height(m) 165
Record Time       2025/06/03 22:19:38
Sampling Freq(Hz) 100Hz
Duration Time(s)  120
Dir.              2
Scale Factor      2942(gal)/8224139
Max. Acc. (gal)   0.149
Last Correction   2025/06/03 22:19:39
Memo.             
[...]
   59270    59285    59298    59333    59374    59395    59394    59374 
   59337    59302    59278    59263    59259    59269    59286    59308 
   59327    59343    59354    59354    59350    59352    59354    59346 
   59341    59340    59325    59317    59331    59337    59341    59355 
   59350    59316    59286    59259    59235    59229    59232    59227 
   59228    59229    59217    59198    59193    59216    59259    59285 
   59287    59296    59302    59287    59271    59269    59259    59254 
   59260    59263    59260    59256    59244    59250    59277    59275 
   59246    59231    59232    59240    59251    59255    59262    59286 
   59313    59339    59366    59389    59406    59416    59416    59414 
   59413    59402    59373    59329    59300    59296    59300    59305 
   59314    59324    59323    59314    59309    59310    59317    59324 
   59329    59329    59316    59300    59286    59270    59258    59256 
   59252    59251    59271    59297    59312    59321    59321    59304 
   59285    59278    59289    59310    59321    59310    59293    59270 
   59233    59213    59219    59205    59165    59138    59132    59135 
   59152    59181    59197    59216    59251    59270    59262    59259 
   59263    59252    59251    59282    59317    59331    59333    59339 
   59347    59347    59344    59346    59341    59333    59333    59329 
   59308    59275    59256    59258    59266    59274    59281    59273 
   59256    59252    59250    59246    59258    59274    59283    59282 
   59273    59255    59225    59194    59188    59208    59227    59236 
   59254    59262    59242    59215    59204    59204    59206    59206 
   59212    59232    59266    59294    59302    59304    59320    59340 
   59346    59354    59377    59391    59401    59412    59413    59398 
   59387    59393    59410    59425    59420    59412    59409    59390 
   59358    59339    59333    59331    59332    59325    59302    59283 
   59274    59258    59246    59255    59263    59271    59289    59298 
   59297    59309    59340    59373    59390    59385    59373    59364 
   59350    59327    59312    59306    59312    59320    59323    59313 
   59287    59258    59231    59213    59209    59213    59221    59243 
   59255    59248    59255    59290    59323    59336    59350    59362 
   59364    59386    59410    59391    59352    59333    59309    59274 
   59265    59266    59254    59250    59246    59220    59188    59163 
   59143    59127    59115    59107    59115    59124    59119    59113 
   59124    59148    59184    59220    59250    59259    59254    59250 
   59263    59287    59301    59300    59301    59327    59366    59382 
   59371    59370    59383    59383    59366    59356    59359    59358 
   59333    59286    59238    59213    59231    59292    59364    59402 
   59387    59348    59323    59317    59324    59331    59336    59348 
   59360    59368    59379    59390    59387    59383    59390    59394 
   59394    59389    59359    59304    59256    59239    59252    59274 
   59285    59292    59300    59305    59306    59297    59265    59240 
   59258    59289    59301    59306    59300    59273    59265    59292 
   59329    59356    59356    59324    59292    59281    59262    59236 
   59229    59240    59259    59273    59262    59240    59248    59283 
   59324    59366    59381    59358    59347    59352    59327    59287 
   59277    59289    59289    59262    59225    59223    59258    59292 
   59306    59306    59278    59243    59240    59258    59283    59316 
   59323    59304    59305    59321    59332    59352    59373    59367 
   59358    59370    59385    59383    59374    59373    59368    59335 
   59287    59282    59313    59350    59386    59395    59350    59314 
   59343    59360    59327    59282    59242    59204    59201    59231 
   59252    59271    59300    59308    59302    59308    59305    59283 
   59258    59227    59204    59219    59248    59265    59278    59270 
   59229    59202    59217    59265    59314    59304    59232    59198 
   59250    59312    59324    59290    59240    59240    59296    59314 
   59289    59293    59324    59356    59385    59377    59332    59313 
   59305    59240    59165    59169    59236    59293    59306    59289 
   59281    59306    59323    59297    59248    59194    59140    59107 
   59104    59136    59198    59255    59265    59239    59235    59278 
   59332    59341    59290    59216    59165    59147    59165    59216 
   59287    59359    59406    59391    59320    59228    59158    59130 
   59155    59217    59286    59355    59397    59367    59294    59251 
   59242    59235    59244    59273    59312    59360    59386    59379 
   59368    59374    59368    59332    59297    59290    59297    59308 
   59309    59290    59270    59271    59274    59271    59269    59262 
   59265    59287    59302    59300    59314    59337    59327    59294 
   59286    59316    59350    59337    59277    59225    59231    59277 
   59319    59336    59332    59335    59367    59409    59428    59431 
   59428    59405    59364    59347    59378    59439    59487    59490 
   59431    59327    59229    59177    59167    59194    59244    59298 
   59363    59448    59522    59530    59458    59346    59252    59225 
   59259    59289    59275    59256    59258    59255    59260    59279 
   59262    59196    59142    59124    59116    59121    59152    59189 
   59201    59188    59175    59205    59267    59312    59309    59297 
   59328    59391    59424    59404    59367    59340    59329    59355 
   59379    59339    59263    59229    59220    59208    59216    59263 
   59317    59333    59297    59252    59246    59263    59271    59258 
   59223    59167    59131    59150    59211    59277    59352    59433 
   59472    59431    59351    59308    59305    59294    59277    59310 
   59397    59472    59491    59466    59408    59324    59244    59196 
   59184    59173    59135    59105    59119    59152    59175    59189 
   59190    59188    59201    59236    59292    59354    59383    59387 
   59432    59505    59537    59540    59548    59549    59525    59463 
   59356    59252    59211    59219    59240    59259    59251    59212 
   59192    59190    59175    59167    59186    59208    59247    59312 
   59356    59364    59364    59370    59379    59400    59371    59255 
   59128    59080    59124    59236    59367    59433    59413    59344 
   59267    59232    59239    59229    59205    59223    59267    59308 
   59343    59335    59259    59169    59115    59113    59155    59196 
   59229    59296    59366    59375    59343    59328    59346    59385 
   59414    59401    59364    59319    59250    59200    59200    59205 
   59197    59219    59263    59286    59282    59260    59220    59179 
   59167    59193    59251    59327    59381    59408    59429    59435 
   59371    59247    59162    59167    59217    59270    59321    59354 
   59366    59377    59394    59398    59354    59256    59181    59179 
   59243    59351    59459    59485    59435    59385    59356    59335 
   59335    59346    59344    59355    59412    59482    59501    59467 
   59413    59355    59292    59236    59205    59190    59198    59242 
   59279    59274    59252    59233    59186    59131    59124    59144 
   59157    59175    59184    59161    59158    59200    59251    59279 
   59281    59269    59265    59258    59242    59254    59290    59310 
   59324    59344    59331    59306    59312    59297    59220    59123 
   59017    58934    58946    59034    59115    59165    59190    59206 
   59240    59273    59269    59265    59308    59379    59436    59467 
   59479    59490    59498    59481    59435    59381    59320    59273 
   59270    59305    59347    59364    59351    59327    59298    59260 
   59229    59225    59236    59250    59271    59293    59324    59381 
   59424    59412    59368    59323    59292    59298    59327    59339 
   59351    59391    59435    59440    59390    59317    59271    59262 
   59273    59297    59319    59314    59296    59287    59269    59235 
   59208    59192    59189    59202    59208    59205    59227    59274 
   59332    59394    59431    59437    59462    59505    59517    59509 
   59503    59475    59435    59422    59424    59406    59381    59358 
   59332    59300    59250    59175    59104    59081    59120    59181 
   59223    59247    59260    59267    59277    59282    59258    59224 
   59215    59228    59247    59271    59296    59329    59386    59435 
   59440    59422    59408    59397    59387    59375    59355    59340 
   59335    59329    59304    59242    59159    59103    59082    59084 
   59105    59132    59152    59189    59246    59289    59312    59339 
   59367    59408    59471    59524    59547    59562    59571    59555 
   59512    59460    59413    59366    59320    59293    59275    59260 
   59259    59274    59273    59265    59278    59293    59282    59255 
   59225    59198    59204    59255    59310    59329    59325    59312 
   59289    59275    59260    59224    59198    59198    59192    59181 
   59181    59165    59128    59107    59108    59117    59135    59182 
   59259    59339    59382    59377    59343    59310    59281    59244 
   59213    59209    59223    59231    59229    59201    59138    59080 
   59067    59094    59130    59161    59192    59229    59274    59308 
   59328    59332    59317    59309    59323    59320    59282    59247 
   59235    59251    59304    59362    59381    59374    59362    59347 
   59355    59400    59449    59470    59466    59454    59427    59389 
   59336    59273    59227    59228    59273    59328    59355    59354 
   59339    59320    59304    59304    59298    59266    59233    59220 
   59224    59270    59354    59421    59448    59466    59483    59481 
   59451    59385    59283    59198    59174    59173    59162    59162 
   59167    59154    59148    59169    59197    59242    59302    59344 
   59371    59416    59460    59495    59541    59578    59579    59560 
   59528    59482    59451    59462    59493    59489    59454    59448 
   59494    59547    59562    59529    59447    59358    59305    59271 
   59246    59229    59181    59089    59001    58942    58897    58882 
   58905    58934    58958    59013    59093    59151    59188    59231 
   59269    59282    59274    59240    59196    59179    59202    59223 
   59208    59181    59158    59113    59051    59008    58985    58970 
   58993    59073    59173    59254    59306    59332    59343    59355 
   59358    59355    59381    59429    59454    59449    59468    59506 
   59513    59487    59464    59463    59478    59497    59489    59455 
   59417    59383    59340    59289    59229    59173    59157    59182 
   59211    59215    59194    59155    59107    59062    59022    58996 
   59004    59032    59062    59108    59182    59246    59292    59352 
   59410    59420    59410    59409    59401    59395    59428    59481 
   59497    59459    59394    59331    59289    59283    59306    59347 
   59400    59437    59460    59497    59514    59478    59445    59464 
   59490    59487    59478    59452    59401    59344    59296    59265 
   59238    59185    59113    59066    59051    59042    59024    59008 
   59007    59017    59017    59012    59036    59096    59144    59163 
   59175    59200    59240    59298    59362    59417    59458    59470 
   59458    59427    59377    59319    59283    59281    59279    59275 
   59283    59296    59302    59314    59328    59313    59275    59251 
   59250    59255    59273    59304    59331    59362    59390    59404 
   59412    59409    59378    59346    59341    59356    59377    59404 
   59437    59475    59505    59497    59456    59400    59319    59238 
   59211    59213    59198    59185    59202    59236    59271    59283 
   59266    59263    59286    59293    59296    59314    59319    59302 
   59308    59319    59306    59278    59242    59208    59192    59167 
   59132    59132    59167    59196    59206    59227    59260    59281 
   59275    59254    59235    59233    59250    59278    59324    59363 
   59373    59375    59402    59425    59431    59440    59444    59413 
   59381    59395    59440    59475    59494    59491    59449    59374 
   59309    59286    59290    59290    59289    59281    59270    59265 
   59248    59217    59200    59190    59174    59174    59200    59204 
   59165    59127    59140    59189    59238    59279    59306    59320 
   59337    59358    59356    59321    59282    59278    59298    59289 
   59247    59219    59213    59217    59240    59275    59308    59331 
   59348    59362    59378    59391    59391    59400    59418    59425 
   59417    59433    59489    59537    59545    59533    59537    59545 
   59540    59518    59483    59427    59358    59294    59252    59224 
   59202    59186    59170    59154    59150    59152    59143    59142 
   59155    59167    59178    59194    59198    59185    59170    59171 
   59196    59225    59235    59229    59238    59251    59256    59267 
   59294    59333    59390    59447    59464    59440    59402    59373 
   59351    59336    59319    59305    59305    59306    59290    59252 
   59206    59174    59157    59138    59120    59119    59121    59127 
   59148    59185    59208    59204    59178    59151    59154    59201 
   59271    59335    59374    59390    59405    59410    59385    59354 
   59355    59381    59416    59471    59545    59622    59687    59709 
   59679    59634    59593    59535    59467    59416    59370    59323 
   59292    59281    59263    59224    59179    59143    59093    59032 
   58993    58981    58984    59009    59053    59101    59154    59204 
   59238    59251    59254    59243    59227    59231    59250    59256 
   59256    59256    59265    59290    59325    59346    59355    59373 
   59412    59462    59491    59486    59449    59402    59364    59350 
   59348    59346    59332    59310    59298    59304    59304    59300 
   59302    59294    59259    59213    59175    59147    59135    59136 
   59143    59138    59121    59120    59142    59151    59128    59086 
   59039    59013    59024    59030    59019    59028    59053    59063 
   59085    59131    59167    59178    59188    59205    59231    59271 
   59324    59378    59410    59412    59408    59425    59459    59487 
   59497    59490    59474    59458    59447    59458    59501    59539 
   59543    59535    59529    59508    59452    59379    59329    59323 
   59328    59328    59323    59297    59247    59204    59189    59208 
   59260    59325    59377    59413    59428    59404    59360    59337 
   59335    59332    59335    59329    59300    59266    59251    59267 
   59306    59337    59343    59341    59339    59329    59320    59314 
   59313    59328    59356    59385    59416    59447    59464    59451 
   59404    59351    59324    59324    59323    59305    59271    59236 
   59223    59212    59189    59169    59144    59096    59059    59061 
   59057    59036    59028    59043    59082    59139    59188    59205 
   59197    59185    59175    59173    59188    59213    59233    59243 
   59240    59220    59184    59148    59135    59147    59170    59204 
   59236    59256    59274    59296    59312    59327    59348    59371 
   59378    59373    59371    59364    59362    59387    59444    59518 
   59578    59606    59620    59625    59609    59576    59539    59501 
   59464    59418    59364    59321    59305    59313    59324    59306 
   59258    59213    59198    59206    59225    59256    59293    59332 
   59363    59382    59382    59360    59337    59333    59350    59383 
   59437    59486    59505    59509    59508    59490    59464    59436 
   59391    59324    59252    59201    59167    59136    59115    59092 
   59061    59042    59055    59092    59138    59182    59213    59238 
   59279    59337    59389    59424    59435    59412    59381    59364 
   59352    59325    59289    59250    59213    59178    59144    59121 
   59112    59098    59089    59098    59117    59124    59132    59148 
   59155    59157    59171    59181    59157    59116    59090    59081 
   59077    59071    59069    59073    59086    59111    59144    59174 
   59198    59201    59175    59152    59143    59131    59130    59161 
   59204    59233    59250    59258    59262    59277    59308    59344 
   59364    59359    59335    59310    59309    59332    59364    59405 
   59455    59494    59502    59487    59462    59427    59400    59402 
   59418    59412    59379    59340    59292    59239    59206    59198 
   59193    59177    59154    59138    59148    59194    59255    59310 
   59358    59394    59414    59432    59463    59499    59522    59530 
   59525    59505    59483    59482    59501    59510    59502    59497 
   59498    59498    59494    59475    59440    59416    59418    59432 
   59447    59447    59428    59413    59412    59391    59347    59304 
   59282    59279    59292    59305    59316    59323    59323    59305 
   59262    59208    59167    59143    59135    59142    59148    59138 
   59116    59097    59080    59066    59063    59062    59059    59071 
   59094    59116    59134    59154    59181    59223    59278    59321 
   59341    59368    59406    59433    59459    59483    59482    59471 
   59474    59468    59451    59445    59444    59421    59391    59363 
   59329    59302    59294    59285    59269    59258    59247    59231 
   59212    59177    59131    59105    59107    59117    59150    59201 
   59243    59275    59323    59373    59418    59462    59495    59513 
   59524    59526    59530    59545    59559    59563    59562    59549 
   59524    59501    59494    59493    59487    59486    59482    59476 
   59471    59448    59394    59340    59302    59269    59247    59233 
   59204    59173    59157    59138    59111    59096    59090    59067 
   59027    58993    58968    58943    58914    58888    58889    58924 
   58973    59027    59086    59132    59159    59189    59231    59259 
   59277    59297    59316    59325    59336    59347    59352    59373 
   59418    59459    59497    59535    59552    59544    59536    59525 
   59503    59486    59483    59485    59481    59468    59448    59418 
   59378    59329    59273    59231    59211    59190    59154    59109 
   59066    59026    58995    58985    58996    59011    59026    59035 
   59027    59013    59016    59023    59028    59042    59066    59090 
   59128    59179    59225    59267    59317    59362    59385    59389 
   59394    59420    59454    59468    59468    59466    59462    59458 
   59460    59459    59443    59414    59385    59350    59319    59302 
   59302    59314    59332    59344    59351    59359    59375    59397 
   59421    59447    59460    59445    59406    59358    59319    59290 
   59252    59206    59166    59138    59113    59088    59061    59043 
   59036    59043    59065    59094    59130    59175    59221    59259 
   59294    59323    59340    59358    59375    59385    59397    59421 
   59433    59428    59422    59422    59418    59410    59402    59387 
   59366    59341    59325    59306    59287    59279    59285    59287 
   59285    59287    59298    59294    59273    59252    59244    59251 
