Origin Time       2025/06/03 22:18:00
Lat.              41.7
Long.             143.6
Depth. (km)       30
Mag.              5.2
Station Code      AOMH17
Station Lat.      40.4492
Station Long.     141.3374
Station Height(m) 65
Record Time       2025/06/03 22:19:33
Sampling Freq(Hz) 100Hz
Duration Time(s)  120
Dir.              6
Scale Factor      7845(gal)/8223790
Max. Acc. (gal)   0.331
Last Correction   2025/06/03 22:19:34
Memo.             
[...]
  -37192   -37241   -37287   -37301   -37318   -37351   -37349   -37301 
  -37254   -37224   -37210   -37216   -37250   -37300   -37332   -37326 
  -37295   -37261   -37238   -37226   -37224   -37245   -37266   -37242 
  -37166   -37087   -37054   -37095   -37191   -37288   -37338   -37308 
  -37220   -37141   -37115   -37135   -37188   -37266   -37328   -37324 
  -37273   -37222   -37168   -37126   -37149   -37226   -37303   -37349 
  -37357   -37327   -37277   -37234   -37208   -37196   -37189   -37193 
  -37211   -37239   -37254   -37224   -37161   -37112   -37104   -37123 
  -37164   -37222   -37258   -37254   -37234   -37207   -37179   -37183 
  -37212   -37239   -37255   -37268   -37269   -37241   -37195   -37169 
  -37177   -37206   -37237   -37264   -37291   -37307   -37289   -37264 
  -37268   -37287   -37295   -37284   -37247   -37177   -37100   -37079 
  -37120   -37183   -37242   -37292   -37307   -37280   -37228   -37185 
  -37181   -37206   -37231   -37245   -37260   -37270   -37245   -37204 
  -37187   -37179   -37177   -37193   -37222   -37249   -37270   -37287 
  -37289   -37260   -37207   -37164   -37153   -37183   -37241   -37299 
  -37328   -37318   -37278   -37237   -37203   -37176   -37153   -37150 
  -37188   -37258   -37318   -37330   -37280   -37210   -37173   -37187 
  -37230   -37281   -37304   -37287   -37241   -37191   -37162   -37161 
  -37174   -37187   -37188   -37192   -37203   -37215   -37242   -37280 
  -37297   -37291   -37268   -37215   -37161   -37150   -37173   -37196 
  -37223   -37246   -37239   -37219   -37215   -37233   -37264   -37281 
  -37274   -37261   -37235   -37200   -37193   -37218   -37246   -37266 
  -37282   -37292   -37281   -37260   -37250   -37249   -37231   -37179 
  -37126   -37142   -37203   -37227   -37224   -37251   -37289   -37291 
  -37265   -37247   -37238   -37219   -37180   -37137   -37130   -37172 
  -37227   -37287   -37335   -37316   -37231   -37146   -37099   -37083 
  -37104   -37196   -37327   -37396   -37362   -37266   -37169   -37115 
  -37102   -37118   -37177   -37237   -37272   -37308   -37324   -37273 
  -37193   -37156   -37145   -37137   -37184   -37296   -37372   -37365 
  -37322   -37249   -37154   -37119   -37176   -37254   -37309   -37342 
  -37327   -37274   -37228   -37189   -37170   -37227   -37327   -37385 
  -37399   -37377   -37284   -37158   -37103   -37129   -37181   -37255 
  -37326   -37309   -37208   -37103   -37044   -37039   -37087   -37168 
  -37246   -37280   -37269   -37251   -37247   -37245   -37226   -37196 
  -37195   -37227   -37270   -37311   -37307   -37238   -37157   -37118 
  -37095   -37080   -37131   -37237   -37315   -37334   -37305   -37228 
  -37147   -37133   -37201   -37303   -37382   -37397   -37343   -37250 
  -37143   -37062   -37060   -37133   -37212   -37264   -37301   -37296 
  -37227   -37161   -37164   -37220   -37289   -37324   -37295   -37233 
  -37199   -37199   -37204   -37208   -37212   -37219   -37235   -37251 
  -37249   -37246   -37243   -37210   -37157   -37137   -37170   -37231 
  -37272   -37260   -37195   -37139   -37141   -37173   -37223   -37284 
  -37297   -37261   -37239   -37230   -37207   -37219   -37266   -37276 
  -37245   -37234   -37251   -37260   -37253   -37255   -37270   -37273 
  -37265   -37282   -37331   -37359   -37351   -37324   -37265   -37181 
  -37131   -37141   -37187   -37246   -37293   -37276   -37192   -37134 
  -37143   -37179   -37212   -37245   -37257   -37241   -37216   -37195 
  -37180   -37174   -37177   -37200   -37238   -37262   -37265   -37264 
  -37266   -37265   -37266   -37285   -37303   -37293   -37247   -37177 
  -37112   -37083   -37091   -37127   -37183   -37254   -37314   -37330 
  -37305   -37265   -37226   -37191   -37154   -37114   -37103   -37146 
  -37218   -37284   -37328   -37335   -37280   -37195   -37149   -37147 
  -37161   -37184   -37220   -37258   -37266   -37245   -37224   -37210 
  -37196   -37201   -37239   -37285   -37296   -37278   -37266   -37268 
  -37278   -37282   -37262   -37247   -37254   -37262   -37269   -37268 
  -37249   -37223   -37204   -37179   -37153   -37137   -37141   -37177 
  -37247   -37322   -37358   -37363   -37334   -37257   -37181   -37165 
  -37195   -37230   -37255   -37261   -37258   -37269   -37285   -37281 
  -37262   -37237   -37195   -37158   -37153   -37154   -37143   -37142 
  -37141   -37133   -37134   -37160   -37210   -37273   -37320   -37331 
  -37323   -37311   -37278   -37238   -37220   -37220   -37218   -37238 
  -37285   -37301   -37255   -37187   -37145   -37149   -37185   -37241 
  -37284   -37291   -37266   -37233   -37207   -37201   -37206   -37211 
  -37216   -37200   -37162   -37130   -37129   -37156   -37188   -37214 
  -37230   -37223   -37185   -37147   -37139   -37161   -37193   -37238 
  -37285   -37323   -37351   -37353   -37300   -37239   -37222   -37231 
  -37246   -37278   -37315   -37318   -37278   -37220   -37157   -37107 
  -37085   -37106   -37165   -37245   -37312   -37351   -37366   -37362 
  -37355   -37351   -37335   -37292   -37233   -37170   -37123   -37135 
  -37223   -37307   -37331   -37334   -37324   -37282   -37226   -37172 
  -37119   -37099   -37134   -37187   -37219   -37230   -37226   -37207 
  -37184   -37174   -37174   -37174   -37196   -37250   -37297   -37303 
  -37289   -37280   -37254   -37212   -37184   -37170   -37172   -37210 
  -37269   -37299   -37296   -37281   -37234   -37177   -37193   -37276 
  -37349   -37361   -37309   -37223   -37145   -37115   -37152   -37241 
  -37328   -37354   -37311   -37241   -37157   -37064   -37022   -37065 
  -37143   -37211   -37254   -37251   -37228   -37227   -37237   -37227 
  -37204   -37183   -37162   -37164   -37212   -37281   -37331   -37347 
  -37323   -37268   -37222   -37185   -37142   -37116   -37118   -37137 
  -37161   -37168   -37161   -37176   -37208   -37218   -37204   -37193 
  -37174   -37152   -37158   -37201   -37269   -37366   -37454   -37462 
  -37374   -37247   -37129   -37053   -37068   -37170   -37296   -37389 
  -37426   -37389   -37293   -37192   -37157   -37197   -37251   -37284 
  -37309   -37331   -37341   -37326   -37282   -37226   -37183   -37165 
  -37160   -37149   -37145   -37172   -37215   -37242   -37234   -37193 
  -37147   -37129   -37156   -37215   -37264   -37272   -37245   -37208 
  -37188   -37192   -37192   -37168   -37145   -37154   -37179   -37185 
  -37206   -37258   -37293   -37296   -37288   -37257   -37192   -37130 
  -37107   -37138   -37218   -37299   -37322   -37292   -37264   -37249 
  -37234   -37228   -37231   -37238   -37262   -37293   -37304   -37287 
  -37255   -37214   -37179   -37157   -37131   -37122   -37164   -37206 
  -37214   -37216   -37206   -37179   -37201   -37284   -37342   -37339 
  -37305   -37258   -37207   -37191   -37222   -37255   -37251   -37207 
  -37164   -37158   -37166   -37168   -37184   -37223   -37276   -37324 
  -37347   -37335   -37297   -37262   -37265   -37293   -37299   -37284 
  -37291   -37307   -37281   -37224   -37180   -37141   -37133   -37218 
  -37339   -37385   -37349   -37303   -37280   -37258   -37238   -37228 
  -37208   -37180   -37177   -37183   -37166   -37150   -37168   -37201 
  -37215   -37207   -37201   -37187   -37150   -37129   -37158   -37220 
  -37253   -37242   -37206   -37130   -37052   -37058   -37135   -37196 
  -37223   -37241   -37253   -37249   -37249   -37274   -37305   -37311 
  -37284   -37238   -37200   -37193   -37214   -37266   -37335   -37369 
  -37361   -37326   -37266   -37185   -37116   -37108   -37160   -37234 
  -37312   -37386   -37432   -37422   -37346   -37242   -37143   -37061 
  -37038   -37100   -37192   -37251   -37261   -37231   -37179   -37135 
  -37133   -37185   -37292   -37415   -37477   -37447   -37350   -37203 
  -37033   -36913   -36899   -36976   -37096   -37216   -37297   -37303 
  -37261   -37245   -37282   -37330   -37332   -37281   -37206   -37129 
  -37064   -37031   -37050   -37112   -37197   -37278   -37322   -37314 
  -37288   -37273   -37268   -37251   -37226   -37227   -37281   -37373 
  -37443   -37442   -37355   -37226   -37126   -37091   -37112   -37187 
  -37296   -37384   -37399   -37335   -37237   -37160   -37122   -37114 
  -37127   -37156   -37180   -37188   -37197   -37203   -37176   -37138 
  -37135   -37160   -37183   -37199   -37218   -37228   -37220   -37192 
  -37160   -37153   -37200   -37273   -37297   -37255   -37214   -37216 
  -37245   -37268   -37289   -37314   -37336   -37335   -37291   -37246 
  -37255   -37299   -37316   -37295   -37261   -37258   -37295   -37342 
  -37378   -37389   -37361   -37293   -37215   -37161   -37147   -37185 
  -37243   -37262   -37219   -37147   -37102   -37115   -37180   -37247 
  -37289   -37304   -37273   -37180   -37065   -36999   -37007   -37062 
  -37135   -37191   -37185   -37126   -37077   -37102   -37170   -37212 
  -37237   -37292   -37359   -37380   -37343   -37281   -37210   -37160 
  -37187   -37270   -37319   -37297   -37235   -37177   -37168   -37224 
  -37314   -37384   -37411   -37400   -37354   -37281   -37210   -37165 
  -37173   -37230   -37276   -37278   -37265   -37260   -37258   -37262 
  -37287   -37324   -37326   -37272   -37212   -37180   -37152   -37114 
  -37092   -37104   -37134   -37170   -37230   -37308   -37353   -37320 
  -37224   -37115   -37018   -36967   -37008   -37154   -37335   -37454 
  -37459   -37376   -37247   -37123   -37045   -37029   -37072   -37161 
  -37266   -37347   -37374   -37342   -37270   -37188   -37133   -37146 
  -37222   -37301   -37350   -37351   -37304   -37233   -37164   -37108 
  -37065   -37057   -37135   -37309   -37485   -37555   -37515   -37417 
  -37284   -37135   -37039   -37027   -37068   -37156   -37296   -37435 
  -37474   -37372   -37184   -37004   -36919   -36960   -37092   -37262 
  -37401   -37440   -37384   -37284   -37180   -37108   -37069   -37048 
  -37044   -37076   -37154   -37250   -37319   -37345   -37335   -37300 
  -37233   -37141   -37093   -37134   -37207   -37255   -37288   -37303 
  -37295   -37288   -37293   -37287   -37255   -37237   -37241   -37242 
  -37238   -37247   -37255   -37245   -37224   -37212   -37210   -37211 
  -37200   -37172   -37177   -37253   -37349   -37395   -37350   -37237 
  -37111   -37022   -37014   -37116   -37269   -37374   -37396   -37334 
  -37216   -37107   -37057   -37089   -37185   -37285   -37372   -37442 
  -37440   -37322   -37154   -37049   -37027   -37066   -37166   -37305 
  -37405   -37432   -37401   -37339   -37281   -37242   -37206   -37184 
  -37210   -37239   -37222   -37184   -37130   -37048   -37011   -37079 
  -37206   -37328   -37422   -37466   -37434   -37320   -37199   -37120 
  -37085   -37095   -37147   -37215   -37276   -37308   -37299   -37247 
  -37160   -37089   -37104   -37184   -37265   -37316   -37318   -37266 
  -37201   -37165   -37152   -37154   -37191   -37226   -37212   -37177 
  -37174   -37200   -37224   -37249   -37280   -37301   -37295   -37268 
  -37253   -37265   -37288   -37296   -37301   -37322   -37328   -37301 
  -37258   -37197   -37125   -37084   -37089   -37111   -37126   -37152 
  -37200   -37255   -37299   -37318   -37312   -37292   -37254   -37192 
  -37145   -37138   -37161   -37208   -37268   -37316   -37349   -37376 
  -37388   -37350   -37273   -37210   -37191   -37206   -37216   -37193 
  -37160   -37165   -37230   -37322   -37382   -37374   -37319   -37262 
  -37204   -37143   -37120   -37135   -37154   -37179   -37201   -37183 
  -37129   -37103   -37115   -37138   -37165   -37199   -37230   -37250 
  -37273   -37319   -37357   -37350   -37297   -37212   -37141   -37153 
  -37257   -37363   -37380   -37301   -37180   -37061   -36968   -36944 
  -37034   -37206   -37347   -37401   -37378   -37301   -37199   -37135 
  -37149   -37185   -37188   -37177   -37179   -37174   -37185   -37237 
  -37260   -37191   -37089   -37049   -37081   -37166   -37293   -37419 
  -37488   -37474   -37399   -37295   -37200   -37141   -37143   -37200 
  -37262   -37284   -37258   -37222   -37218   -37255   -37297   -37293 
  -37255   -37250   -37312   -37399   -37446   -37415   -37315   -37199 
  -37123   -37125   -37187   -37250   -37282   -37289   -37268   -37237 
  -37223   -37228   -37228   -37206   -37162   -37130   -37129   -37161 
  -37216   -37284   -37326   -37291   -37203   -37129   -37091   -37084 
  -37131   -37203   -37230   -37207   -37184   -37184   -37191   -37206 
  -37245   -37297   -37323   -37295   -37227   -37152   -37107   -37123 
  -37197   -37277   -37336   -37368   -37334   -37264   -37246   -37270 
  -37261   -37220   -37187   -37170   -37185   -37238   -37289   -37307 
  -37300   -37270   -37219   -37192   -37207   -37223   -37238   -37269 
  -37269   -37214   -37165   -37153   -37147   -37143   -37156   -37162 
  -37157   -37169   -37187   -37179   -37164   -37153   -37120   -37092 
  -37123   -37197   -37261   -37296   -37281   -37212   -37146   -37119 
  -37126   -37176   -37224   -37223   -37204   -37233   -37295   -37331 
  -37334   -37331   -37299   -37216   -37157   -37168   -37237   -37342 
  -37431   -37471   -37481   -37466   -37393   -37260   -37123   -37060 
  -37088   -37166   -37250   -37315   -37342   -37308   -37224   -37143 
  -37106   -37125   -37204   -37332   -37442   -37461   -37404   -37336 
  -37273   -37203   -37122   -37041   -36991   -37004   -37071   -37153 
  -37216   -37246   -37239   -37212   -37195   -37212   -37274   -37349 
  -37374   -37341   -37285   -37200   -37100   -37042   -37054   -37133 
  -37278   -37458   -37575   -37557   -37442   -37316   -37193   -37084 
  -37034   -37050   -37100   -37177   -37281   -37370   -37385   -37319 
  -37223   -37141   -37095   -37092   -37131   -37193   -37235   -37228 
  -37207   -37215   -37243   -37265   -37278   -37274   -37246   -37196 
  -37143   -37100   -37102   -37158   -37210   -37219   -37228   -37254 
  -37277   -37291   -37301   -37311   -37288   -37218   -37152   -37139 
  -37184   -37242   -37264   -37249   -37203   -37131   -37076   -37080 
  -37135   -37207   -37273   -37312   -37300   -37247   -37195   -37160 
  -37154   -37177   -37203   -37233   -37270   -37300   -37308   -37312 
  -37315   -37289   -37224   -37162   -37122   -37106   -37154   -37274 
  -37396   -37473   -37497   -37459   -37380   -37318   -37305   -37319 
  -37318   -37282   -37227   -37170   -37129   -37126   -37157   -37185 
  -37191   -37173   -37152   -37165   -37215   -37262   -37280   -37254 
  -37184   -37111   -37069   -37061   -37107   -37193   -37251   -37262 
  -37245   -37210   -37176   -37177   -37207   -37206   -37165   -37138 
  -37134   -37115   -37083   -37057   -37046   -37054   -37085   -37146 
  -37210   -37247   -37270   -37274   -37270   -37308   -37396   -37473 
  -37498   -37489   -37463   -37417   -37374   -37365   -37378   -37396 
  -37411   -37399   -37347   -37293   -37272   -37272   -37257   -37199 
  -37120   -37088   -37137   -37207   -37242   -37266   -37299   -37324 
  -37315   -37273   -37223   -37184   -37164   -37158   -37147   -37130 
  -37126   -37130   -37135   -37135   -37111   -37073   -37064   -37107 
  -37187   -37289   -37399   -37451   -37401   -37301   -37208   -37126 
  -37075   -37073   -37120   -37197   -37266   -37284   -37265   -37219 
  -37135   -37058   -37057   -37098   -37126   -37179   -37262   -37304 
  -37291   -37282   -37297   -37316   -37338   -37342   -37312   -37282 
  -37273   -37261   -37241   -37220   -37193   -37177   -37196   -37216 
  -37208   -37187   -37158   -37123   -37091   -37092   -37146   -37226 
  -37274   -37292   -37297   -37296   -37291   -37285   -37262   -37196 
  -37108   -37042   -37000   -36983   -37031   -37149   -37278   -37374 
  -37412   -37392   -37345   -37312   -37288   -37255   -37255   -37308 
  -37346   -37326   -37277   -37219   -37174   -37173   -37211   -37254 
  -37300   -37335   -37320   -37255   -37192   -37145   -37114   -37107 
  -37114   -37116   -37103   -37072   -37064   -37088   -37110   -37138 
  -37196   -37266   -37311   -37322   -37320   -37311   -37269   -37218 
  -37193   -37191   -37203   -37234   -37242   -37210   -37174   -37166 
  -37169   -37176   -37197   -37226   -37254   -37293   -37345   -37389 
  -37419   -37436   -37449   -37463   -37467   -37435   -37374   -37316 
  -37269   -37219   -37166   -37154   -37211   -37305   -37376   -37386 
  -37336   -37261   -37214   -37206   -37203   -37185   -37161   -37149 
  -37168   -37210   -37247   -37251   -37208   -37145   -37108   -37127 
  -37191   -37251   -37273   -37258   -37211   -37166   -37162   -37191 
  -37216   -37222   -37204   -37174   -37129   -37075   -37053   -37071 
  -37096   -37100   -37076   -37033   -37002   -37000   -37039   -37114 
  -37189   -37233   -37245   -37243   -37258   -37305   -37350   -37355 
  -37330   -37296   -37264   -37235   -37215   -37224   -37269   -37334 
  -37400   -37440   -37440   -37412   -37362   -37305   -37277   -37282 
  -37300   -37316   -37307   -37266   -37233   -37228   -37260   -37304 
  -37322   -37304   -37266   -37218   -37179   -37150   -37145   -37166 
  -37189   -37207   -37219   -37223   -37220   -37223   -37233   -37246 
  -37254   -37258   -37281   -37335   -37373   -37358   -37318   -37266 
  -37200   -37143   -37110   -37102   -37131   -37179   -37203   -37204 
  -37187   -37141   -37073   -37019   -37037   -37125   -37226   -37299 
  -37326   -37304   -37265   -37226   -37184   -37149   -37156   -37211 
  -37276   -37309   -37308   -37278   -37243   -37239   -37250   -37251 
  -37255   -37266   -37260   -37242   -37234   -37234   -37226   -37188 
  -37120   -37050   -37019   -37039   -37093   -37152   -37189   -37193 
  -37166   -37116   -37088   -37114   -37165   -37210   -37260   -37309 
  -37332   -37336   -37338   -37320   -37282   -37251   -37265   -37323 
  -37389   -37412   -37366   -37287   -37222   -37184   -37172   -37169 
  -37164   -37162   -37164   -37150   -37125   -37119   -37138   -37160 
  -37189   -37241   -37288   -37316   -37338   -37350   -37346   -37341 
  -37346   -37361   -37380   -37390   -37385   -37376   -37351   -37285 
  -37208   -37165   -37161   -37189   -37253   -37323   -37362   -37357 
  -37308   -37241   -37189   -37174   -37197   -37228   -37255   -37274 
  -37281   -37284   -37288   -37296   -37308   -37305   -37272   -37212 
  -37143   -37091   -37065   -37062   -37079   -37104   -37141   -37184 
  -37208   -37223   -37262   -37301   -37300   -37261   -37208   -37153 
  -37118   -37126   -37143   -37133   -37118   -37108   -37092   -37099 
  -37161   -37242   -37289   -37277   -37211   -37122   -37054   -37038 
  -37062   -37104   -37153   -37187   -37184   -37164   -37142   -37125 
  -37119   -37142   -37200   -37261   -37292   -37303   -37318   -37332 
  -37332   -37332   -37332   -37292   -37212   -37157   -37145   -37156 
  -37206   -37285   -37332   -37316   -37273   -37233   -37200   -37188 
  -37195   -37212   -37235   -37250   -37254   -37266   -37285   -37291 
  -37282   -37274   -37272   -37282   -37308   -37342   -37368   -37370 
  -37346   -37295   -37254   -37269   -37316   -37362   -37408   -37443 
  -37439   -37405   -37368   -37330   -37301   -37289   -37277   -37254 
  -37226   -37199   -37187   -37201   -37212   -37210   -37227   -37258 
  -37274   -37287   -37303   -37300   -37266   -37224   -37181   -37127 
  -37083   -37072   -37075   -37081   -37087   -37076   -37056   -37050 
