Origin Time       2025/06/03 22:18:00
Lat.              41.7
Long.             143.6
Depth. (km)       30
Mag.              5.2
Station Code      AOMH16
Station Lat.      40.4624
Station Long.     141.0923
Station Height(m) 315
Record Time       2025/06/03 22:19:38
Sampling Freq(Hz) 100Hz
Duration Time(s)  120
Dir.              4
Scale Factor      7845(gal)/8223790
Max. Acc. (gal)   1.248
Last Correction   2025/06/03 22:19:39
Memo.             
[...]
   10400    10430    10427    10409    10385    10374    10397    10442 
   10488    10528    10543    10534    10523    10520    10520    10535 
   10566    10574    10540    10469    10372    10276    10199    10146 
   10134    10166    10223    10272    10288    10260    10177    10050 
    9938     9875     9864     9923    10057    10207    10301    10322 
   10282    10210    10138    10099    10095    10123    10189    10288 
   10378    10401    10323    10185    10079    10062    10139    10266 
   10392    10476    10508    10498    10454    10373    10269    10185 
   10145    10131    10149    10199    10238    10242    10220    10189 
   10177    10196    10237    10287    10323    10323    10282    10207 
   10119    10061    10058    10110    10196    10293    10381    10440 
   10450    10409    10331    10233    10154    10142    10201    10307 
   10413    10488    10515    10494    10417    10295    10162    10053 
    9987     9969     9988    10021    10060    10103    10149    10210 
   10296    10396    10486    10552    10588    10592    10573    10532 
   10465    10386    10322    10276    10245    10245    10255    10249 
   10237    10242    10257    10270    10273    10264    10258    10268 
   10270    10245    10185    10115    10071    10069    10110    10164 
   10207    10231    10224    10189    10142    10085    10044    10056 
   10126    10208    10262    10282    10277    10243    10192    10152 
   10147    10177    10238    10334    10444    10539    10592    10592 
   10534    10435    10327    10234    10183    10183    10214    10250 
   10270    10260    10223    10179    10143    10135    10154    10223 
   10349    10500    10644    10746    10771    10723    10612    10461 
   10335    10262    10220    10192    10180    10180    10187    10195 
   10193    10170    10147    10147    10165    10197    10233    10249 
   10237    10201    10149    10096    10084    10133    10214    10288 
   10338    10357    10330    10261    10170    10087    10035    10019 
   10021    10035    10069    10120    10172    10203    10212    10235 
   10307    10430    10558    10629    10625    10561    10462    10361 
   10270    10199    10161    10180    10231    10276    10304    10319 
   10299    10239    10166    10108    10072    10054    10069    10123 
   10206    10304    10407    10501    10571    10598    10570    10492 
   10386    10287    10215    10165    10119    10084    10068    10073 
   10096    10123    10164    10242    10350    10457    10538    10569 
   10551    10515    10457    10365    10257    10150    10058     9991 
    9946     9918     9911     9911     9899     9892     9915     9975 
   10073    10196    10323    10444    10544    10612    10654    10652 
   10615    10570    10508    10422    10338    10282    10250    10224 
   10199    10187    10200    10228    10249    10249    10238    10228 
   10228    10245    10274    10314    10362    10416    10455    10454 
   10408    10339    10255    10177    10134    10137    10177    10254 
   10354    10447    10508    10513    10449    10330    10200    10084 
    9996     9964     9987    10046    10129    10211    10270    10303 
   10305    10285    10250    10206    10146    10069    10007     9995 
   10041    10114    10174    10216    10250    10278    10296    10287 
   10246    10181    10122    10091    10091    10119    10181    10260 
   10335    10396    10434    10467    10511    10542    10546    10535 
   10503    10444    10386    10332    10287    10265    10274    10307 
   10361    10427    10485    10515    10501    10442    10351    10255 
   10192    10170    10179    10211    10264    10300    10300    10272 
   10210    10118    10034     9995    10006    10054    10118    10173 
   10219    10264    10292    10312    10349    10401    10442    10449 
   10420    10361    10288    10231    10207    10207    10204    10181 
   10145    10104    10049     9994     9973    10006    10071    10131 
   10196    10273    10338    10377    10395    10390    10380    10378 
   10388    10405    10435    10453    10424    10359    10282    10216 
   10177    10162    10149    10139    10166    10230    10293    10316 
   10280    10189    10083    10011    10007    10071    10177    10296 
   10403    10480    10513    10493    10434    10359    10289    10249 
   10255    10293    10331    10343    10315    10265    10233    10245 
   10287    10327    10345    10351    10347    10319    10249    10150 
   10066    10048    10108    10224    10316    10318    10243    10153 
   10089    10044    10010    10006    10038    10092    10145    10177 
   10192    10208    10237    10293    10380    10459    10503    10505 
   10469    10399    10334    10309    10327    10389    10474    10524 
   10509    10438    10323    10210    10147    10142    10174    10228 
   10282    10303    10273    10207    10123    10062    10062    10135 
   10253    10359    10405    10386    10332    10276    10226    10189 
   10170    10168    10192    10231    10249    10227    10188    10164 
   10161    10154    10126    10077    10033    10031    10088    10173 
   10261    10328    10353    10339    10304    10276    10278    10324 
   10401    10489    10567    10617    10632    10601    10528    10447 
   10381    10351    10377    10436    10471    10450    10363    10239 
   10135    10083    10085    10131    10188    10234    10285    10323 
   10300    10215    10103    10026    10029    10104    10193    10251 
   10266    10255    10250    10270    10287    10274    10262    10280 
   10334    10404    10458    10482    10490    10477    10427    10339 
   10222    10119    10099    10146    10201    10233    10245    10266 
   10309    10336    10304    10233    10177    10165    10183    10204 
   10197    10149    10081    10025    10004    10035    10098    10157 
   10199    10215    10199    10166    10147    10142    10146    10189 
   10292    10426    10523    10501    10341    10110     9918     9830 
    9846     9952    10134    10359    10559    10662    10633    10496 
   10314    10161    10102    10160    10309    10486    10616    10643 
   10557    10415    10300    10231    10181    10138    10119    10139 
   10195    10261    10326    10384    10428    10444    10413    10345 
   10277    10250    10276    10332    10357    10324    10296    10303 
   10312    10303    10282    10270    10282    10314    10347    10354 
   10312    10230    10134    10030     9925     9848     9848     9948 
   10098    10243    10363    10438    10453    10407    10308    10188 
   10081    10018    10029    10125    10282    10449    10561    10582 
   10517    10376    10195    10049     9972     9923     9876     9859 
    9911    10039    10239    10482    10716    10925    11107    11183 
   11074    10782    10392    10035     9809     9730     9801    10000 
   10253    10470    10590    10577    10442    10254    10111    10083 
   10143    10218    10261    10278    10277    10247    10214    10218 
   10270    10343    10393    10393    10322    10184    10011     9861 
    9792     9852    10046    10330    10615    10822    10905    10848 
   10662    10381    10091     9890     9814     9840     9930    10054 
   10177    10262    10284    10253    10215    10211    10262    10378 
   10517    10606    10597    10501    10378    10282    10242    10260 
   10314    10366    10384    10354    10276    10150    10010     9904 
    9849     9836     9873     9988    10166    10362    10525    10636 
   10706    10756    10775    10743    10650    10485    10291    10153 
   10093    10071    10066    10104    10189    10292    10363    10362 
   10266    10085     9873     9691     9587     9603     9749     9971 
   10211    10417    10547    10574    10473    10238     9963     9753 
    9648     9630     9686     9817    10027    10287    10521    10686 
   10777    10790    10727    10597    10411    10187     9990     9892 
    9906     9996    10123    10255    10378    10496    10596    10658 
   10652    10571    10450    10335    10257    10199    10129    10065 
   10052    10100    10174    10239    10288    10318    10319    10297 
   10265    10260    10346    10552    10827    11083    11237    11233 
   11068    10789    10454    10114     9818     9630     9591     9672 
    9807     9934    10015    10046    10058    10081    10130    10201 
   10276    10338    10401    10480    10555    10598    10598    10575 
   10527    10438    10318    10199    10108    10065    10045    10010 
    9952     9900     9880     9903     9965    10054    10170    10318 
   10466    10555    10552    10486    10404    10339    10308    10268 
   10160     9991     9801     9641     9589     9682     9917    10250 
   10597    10843    10905    10798    10597    10366    10147     9977 
    9907     9956    10075    10199    10274    10270    10199    10096 
   10000     9950     9998    10165    10408    10642    10782    10798 
   10714    10589    10463    10372    10331    10346    10416    10536 
   10642    10656    10565    10399    10228    10123    10118    10207 
   10362    10539    10673    10731    10725    10669    10563    10420 
   10274    10158    10085    10062    10083    10123    10157    10170 
   10158    10129    10075     9987     9880     9805     9801     9882 
   10033    10223    10399    10489    10440    10264    10031     9822 
    9706     9732     9895    10139    10392    10597    10706    10702 
   10612    10482    10362    10291    10262    10242    10197    10099 
    9953     9821     9752     9761     9842     9973    10112    10204 
   10218    10172    10120    10116    10199    10368    10598    10835 
   10997    11045    10993    10879    10759    10679    10652    10647 
   10615    10527    10370    10165     9958     9790     9697     9715 
    9860    10111    10423    10693    10813    10767    10598    10368 
   10158    10039    10015    10050    10103    10146    10176    10189 
   10173    10137    10120    10157    10242    10346    10439    10490 
   10480    10423    10341    10245    10156    10100    10084    10103 
   10142    10183    10228    10288    10339    10346    10307    10246 
   10172    10081     9968     9838     9722     9659     9675     9772 
    9945    10169    10388    10530    10562    10503    10390    10281 
   10219    10218    10281    10405    10551    10666    10709    10666 
   10544    10372    10185    10049    10019    10096    10226    10345 
   10408    10404    10320    10169    10004     9879     9823     9864 
   10000    10203    10431    10636    10766    10771    10628    10363 
   10066     9841     9745     9779     9919    10134    10351    10489 
   10524    10474    10374    10278    10223    10222    10274    10345 
   10377    10335    10222    10058     9892     9818     9898    10106 
   10355    10566    10706    10783    10810    10800    10768    10744 
   10739    10723    10656    10512    10276     9987     9734     9585 
    9547     9589     9668     9763     9845     9873     9836     9783 
    9775     9842     9976    10141    10300    10442    10571    10674 
   10732    10752    10741    10696    10617    10511    10397    10308 
   10266    10269    10299    10339    10373    10392    10392    10378 
   10373    10392    10439    10511    10570    10578    10536    10447 
   10311    10168    10049     9969     9954    10010    10108    10224 
   10341    10415    10399    10291    10125     9958     9865     9877 
    9991    10166    10346    10488    10566    10569    10492    10341 
   10142     9961     9853     9819     9823     9846     9886     9954 
   10088    10277    10458    10582    10639    10629    10552    10399 
   10185     9968     9799     9693     9649     9674     9741     9828 
    9948    10118    10336    10574    10808    11022    11180    11256 
   11254    11194    11097    10999    10936    10906    10867    10781 
   10654    10500    10318    10108     9910     9765     9697     9684 
    9710     9767     9846     9950    10095    10273    10444    10571 
   10633    10621    10543    10408    10220     9991     9767     9613 
    9576     9649     9790     9961    10134    10285    10407    10478 
   10490    10465    10428    10411    10423    10459    10503    10528 
   10524    10497    10451    10415    10423    10466    10503    10523 
   10516    10466    10381    10276    10150    10012     9888     9798 
    9732     9676     9633     9613     9645     9747     9895    10066 
   10238    10393    10523    10600    10597    10515    10393    10278 
   10179    10089    10008     9941     9906     9903     9910     9930 
    9984    10068    10180    10327    10486    10620    10719    10808 
   10895    10966    10991    10963    10886    10782    10666    10535 
   10380    10219    10088    10012     9995    10031    10107    10179 
   10215    10218    10216    10238    10284    10330    10355    10347 
   10300    10235    10184    10161    10179    10257    10393    10542 
   10659    10725    10736    10692    10600    10489    10393    10315 
   10211    10058     9880     9713     9593     9551     9603     9742 
    9938    10154    10361    10524    10612    10609    10523    10389 
   10245    10088     9918     9769     9674     9644     9676     9760 
    9869     9987    10107    10231    10349    10423    10423    10345 
   10196    10012     9833     9690     9593     9551     9580     9683 
    9856    10095    10390    10721    11040    11304    11492    11572 
   11511    11310    11021    10710    10413    10177    10062    10071 
   10158    10270    10350    10368    10324    10246    10181    10164 
   10189    10243    10315    10381    10395    10336    10237    10129 
   10054    10034    10034    10011     9950     9860     9753     9659 
    9599     9597     9701     9934    10238    10517    10683    10702 
   10608    10466    10332    10234    10179    10169    10192    10215 
   10196    10115     9990     9883     9856     9917    10033    10172 
   10324    10481    10623    10724    10748    10708    10655    10612 
   10569    10512    10435    10354    10300    10284    10319    10411 
   10543    10669    10741    10744    10694    10629    10571    10512 
   10428    10318    10201    10099     9999     9877     9732     9603 
    9536     9552     9640     9749     9852     9967    10103    10269 
   10459    10658    10828    10943    11007    11036    11021    10957 
   10839    10662    10440    10210     9999     9836     9729     9680 
    9687     9753     9872    10019    10161    10296    10436    10584 
   10721    10828    10898    10933    10922    10863    10759    10615 
   10443    10250    10052     9876     9751     9688     9682     9686 
    9661     9613     9571     9568     9613     9711     9869    10052 
   10207    10314    10354    10316    10204    10048     9892     9772 
    9705     9710     9798     9945    10125    10323    10532    10733 
   10899    11003    11038    11009    10905    10728    10508    10303 
   10150    10072    10079    10160    10299    10473    10633    10747 
   10813    10825    10779    10709    10642    10579    10516    10457 
   10399    10351    10341    10361    10355    10291    10177    10029 
    9867     9726     9628     9564     9547     9587     9672     9760 
    9815     9840     9857     9886     9929     9994    10095    10230 
   10377    10507    10592    10616    10594    10543    10462    10363 
   10266    10196    10160    10145    10131    10110    10099    10139 
   10257    10431    10628    10821    10982    11060    11032    10897 
   10677    10431    10235    10139    10137    10196    10303    10447 
   10608    10759    10860    10897    10891    10867    10809    10696 
   10528    10308    10039     9759     9513     9325     9193     9113 
    9077     9088     9161     9305     9506     9749    10019    10288 
   10520    10673    10700    10602    10420    10223    10080    10026 
   10061    10169    10331    10517    10678    10768    10774    10704 
   10598    10504    10439    10397    10369    10354    10363    10405 
   10446    10439    10373    10276    10188    10137    10131    10174 
   10268    10397    10543    10656    10701    10671    10588    10473 
   10336    10187    10053     9946     9853     9757     9656     9556 
    9482     9451     9475     9562     9701     9886    10116    10376 
   10620    10809    10932    10987    10979    10920    10828    10723 
   10621    10546    10509    10504    10516    10555    10640    10768 
   10918    11049    11114    11079    10939    10723    10485    10269 
   10095     9985     9965    10000    10026     9998     9909     9775 
    9617     9455     9316     9227     9202     9246     9342     9468 
    9599     9691     9722     9695     9639     9597     9597     9644 
    9749     9914    10120    10339    10511    10589    10585    10538 
   10490    10488    10557    10690    10874    11080    11279    11441 
   11535    11537    11454    11306    11110    10898    10701    10540 
   10428    10346    10264    10158    10031     9904     9790     9701 
    9649     9639     9671     9751     9879    10010    10093    10107 
   10058     9975     9898     9859     9879     9957    10076    10218 
   10365    10496    10597    10667    10714    10754    10802    10860 
   10901    10895    10831    10705    10538    10378    10266    10189 
   10126    10072    10025     9994     9991    10017    10071    10162 
   10285    10419    10542    10631    10665    10625    10508    10334 
   10134     9954     9830     9764     9732     9705     9670     9640 
    9622     9626     9647     9684     9744     9822     9911    10000 
   10085    10169    10261    10350    10416    10450    10446    10403 
   10322    10211    10088    10006    10021    10150    10373    10648 
   10917    11129    11248    11263    11186    11052    10914    10800 
   10710    10647    10605    10590    10600    10617    10636    10665 
   10693    10712    10697    10617    10462    10245     9994     9747 
    9532     9370     9275     9252     9293     9378     9483     9590 
    9699     9817     9930    10027    10096    10120    10106    10069 
   10022     9988     9988    10030    10122    10234    10316    10331 
   10278    10192    10120    10102    10166    10319    10524    10748 
   10963    11136    11241    11272    11215    11091    10949    10820 
   10705    10612    10540    10473    10399    10326    10266    10222 
   10204    10226    10293    10393    10485    10528    10509    10435 
   10318    10183    10033     9882     9751     9633     9522     9421 
    9329     9251     9223     9270     9379     9518     9648     9745 
    9805     9826     9815     9798     9795     9828     9900    10006 
   10137    10289    10449    10605    10750    10862    10935    10974 
   10976    10944    10883    10814    10763    10746    10763    10812 
   10867    10914    10953    10979    10983    10963    10920    10855 
   10767    10665    10550    10416    10282    10179    10125    10125 
   10162    10210    10247    10268    10266    10231    10153    10038 
    9918     9830     9784     9768     9788     9833     9872     9888 
    9877     9846     9823     9833     9883     9980    10114    10253 
