Origin Time       2025/06/03 22:18:00
Lat.              41.7
Long.             143.6
Depth. (km)       30
Mag.              5.2
Station Code      AOMH05
Station Lat.      40.8564
Station Long.     141.1033
Station Height(m) 45
Record Time       2025/06/03 22:19:32
Sampling Freq(Hz) 100Hz
Duration Time(s)  120
Dir.              5
Scale Factor      3920(gal)/6170801
Max. Acc. (gal)   1.258
Last Correction   2025/06/03 22:19:17
Memo.             
[...]
  -21956   -22022   -22076   -22145   -22257   -22385   -22470   -22488 
  -22483   -22494   -22490   -22435   -22345   -22249   -22142   -21995 
  -21807   -21615   -21490   -21474   -21527   -21590   -21659   -21754 
  -21871   -21976   -22045   -22096   -22157   -22228   -22280   -22297 
  -22264   -22180   -22094   -22064   -22091   -22136   -22178   -22214 
  -22232   -22218   -22170   -22076   -21974   -21922   -21913   -21909 
  -21902   -21912   -21950   -22003   -22041   -22053   -22059   -22087 
  -22123   -22135   -22148   -22201   -22274   -22333   -22374   -22390 
  -22374   -22324   -22236   -22146   -22116   -22128   -22108   -22062 
  -22030   -21993   -21943   -21920   -21939   -21971   -21986   -21965 
  -21900   -21833   -21827   -21878   -21933   -21985   -22044   -22093 
  -22112   -22127   -22163   -22211   -22246   -22246   -22225   -22201 
  -22151   -22073   -22002   -21962   -21958   -21981   -22022   -22104 
  -22236   -22364   -22437   -22456   -22442   -22395   -22300   -22153 
  -21972   -21799   -21685   -21647   -21659   -21699   -21770   -21856 
  -21936   -22024   -22128   -22215   -22252   -22247   -22221   -22164 
  -22065   -21944   -21843   -21813   -21879   -22008   -22127   -22184 
  -22183   -22143   -22096   -22082   -22113   -22155   -22174   -22156 
  -22086   -21971   -21884   -21882   -21936   -22014   -22133   -22267 
  -22335   -22327   -22291   -22239   -22156   -22053   -21965   -21924 
  -21930   -21941   -21917   -21883   -21895   -21959   -22032   -22089 
  -22142   -22191   -22219   -22224   -22206   -22152   -22074   -21985 
  -21880   -21775   -21701   -21683   -21730   -21818   -21898   -21964 
  -22038   -22116   -22198   -22294   -22361   -22377   -22389   -22420 
  -22423   -22364   -22281   -22220   -22166   -22112   -22093   -22115 
  -22166   -22239   -22305   -22332   -22329   -22302   -22228   -22096 
  -21928   -21762   -21647   -21611   -21631   -21677   -21765   -21918 
  -22092   -22207   -22253   -22281   -22294   -22254   -22163   -22072 
  -22020   -21989   -21964   -21976   -22059   -22183   -22280   -22317 
  -22305   -22271   -22223   -22160   -22087   -22016   -21958   -21936 
  -21955   -21981   -21979   -21957   -21936   -21923   -21919   -21924 
  -21944   -21982   -22025   -22058   -22070   -22064   -22070   -22130 
  -22249   -22355   -22373   -22311   -22206   -22061   -21874   -21689 
  -21579   -21595   -21701   -21812   -21904   -22003   -22115   -22228 
  -22326   -22390   -22412   -22393   -22342   -22266   -22166   -22050 
  -21922   -21786   -21666   -21593   -21593   -21677   -21821   -22000 
  -22226   -22461   -22608   -22635   -22591   -22516   -22417   -22310 
  -22227   -22158   -22070   -21962   -21872   -21838   -21841   -21839 
  -21845   -21907   -22037   -22186   -22289   -22327   -22323   -22291 
  -22206   -22056   -21899   -21818   -21825   -21878   -21958   -22067 
  -22188   -22290   -22350   -22356   -22333   -22302   -22255   -22176 
  -22063   -21930   -21805   -21713   -21668   -21668   -21708   -21769 
  -21819   -21864   -21934   -22024   -22113   -22191   -22249   -22283 
  -22282   -22250   -22233   -22256   -22298   -22346   -22395   -22426 
  -22425   -22399   -22359   -22340   -22359   -22368   -22301   -22153 
  -21971   -21803   -21679   -21595   -21534   -21526   -21624   -21791 
  -21926   -21996   -22045   -22089   -22093   -22034   -21953   -21919 
  -21952   -22028   -22142   -22303   -22482   -22626   -22707   -22710 
  -22632   -22490   -22308   -22104   -21914   -21768   -21662   -21601 
  -21596   -21619   -21654   -21738   -21885   -22028   -22110   -22141 
  -22136   -22082   -21972   -21845   -21756   -21732   -21764   -21823 
  -21886   -21951   -22007   -22022   -21989   -21936   -21883   -21849 
  -21837   -21836   -21863   -21951   -22111   -22312   -22501   -22641 
  -22739   -22795   -22790   -22720   -22597   -22455   -22341   -22262 
  -22187   -22095   -21995   -21914   -21871   -21858   -21877   -21933 
  -21998   -22047   -22096   -22148   -22173   -22134   -22020   -21864 
  -21726   -21648   -21635   -21660   -21708   -21799   -21942   -22113 
  -22291   -22465   -22608   -22702   -22755   -22755   -22660   -22461 
  -22206   -21958   -21769   -21672   -21664   -21708   -21763   -21795 
  -21784   -21756   -21755   -21790   -21834   -21877   -21933   -22012 
  -22115   -22209   -22262   -22308   -22373   -22403   -22340   -22200 
  -22035   -21879   -21745   -21642   -21580   -21559   -21570   -21624 
  -21736   -21914   -22157   -22422   -22623   -22699   -22658   -22575 
  -22506   -22440   -22376   -22367   -22428   -22498   -22522   -22501 
  -22469   -22470   -22480   -22424   -22292   -22129   -21934   -21682 
  -21409   -21191   -21075   -21062   -21128   -21262   -21468   -21716 
  -21922   -22032   -22063   -22050   -22008   -21936   -21843   -21780 
  -21821   -21996   -22250   -22485   -22634   -22712   -22758   -22774 
  -22738   -22671   -22632   -22649   -22674   -22642   -22546   -22402 
  -22211   -21986   -21765   -21572   -21425   -21340   -21343   -21417 
  -21503   -21575   -21632   -21654   -21642   -21645   -21703   -21827 
  -21984   -22111   -22169   -22155   -22071   -21948   -21838   -21789 
  -21852   -22057   -22362   -22654   -22846   -22913   -22852   -22682 
  -22470   -22306   -22224   -22166   -22066   -21925   -21806   -21757 
  -21745   -21729   -21744   -21850   -22032   -22234   -22417   -22532 
  -22549   -22517   -22483   -22426   -22330   -22238   -22208   -22246 
  -22304   -22341   -22346   -22319   -22245   -22121   -21996   -21912 
  -21846   -21757   -21649   -21570   -21553   -21566   -21545   -21476 
  -21396   -21352   -21365   -21454   -21650   -21949   -22264   -22502 
  -22646   -22718   -22733   -22712   -22713   -22814   -23041   -23331 
  -23547   -23539   -23255   -22763   -22176   -21632   -21268   -21126 
  -21156   -21272   -21385   -21453   -21494   -21526   -21545   -21590 
  -21731   -21931   -22061   -21997   -21706   -21287   -20897   -20655 
  -20622   -20803   -21137   -21575   -22117   -22713   -23217   -23528 
  -23685   -23789   -23869   -23867   -23704   -23366   -22903   -22366 
  -21775   -21205   -20802   -20650   -20699   -20860   -21072   -21288 
  -21457   -21540   -21562   -21617   -21771   -21994   -22214   -22356 
  -22397   -22416   -22494   -22612   -22720   -22780   -22766   -22679 
  -22527   -22318   -22098   -21925   -21832   -21847   -21998   -22297 
  -22681   -23002   -23147   -23119   -22975   -22761   -22473   -22107 
  -21728   -21409   -21144   -20931   -20822   -20855   -21005   -21247 
  -21574   -21928   -22229   -22444   -22553   -22557   -22510   -22453 
  -22382   -22284   -22181   -22151   -22235   -22361   -22448   -22483 
  -22471   -22428   -22375   -22312   -22244   -22175   -22070   -21898 
  -21662   -21369   -21041   -20729   -20513   -20494   -20736   -21199 
  -21770   -22296   -22654   -22834   -22890   -22861   -22751   -22532 
  -22200   -21811   -21415   -21069   -20863   -20865   -21071   -21432 
  -21894   -22412   -22913   -23286   -23451   -23403   -23209   -22961 
  -22730   -22541   -22404   -22342   -22378   -22465   -22501   -22423 
  -22244   -22001   -21719   -21420   -21153   -20982   -20938   -21007 
  -21193   -21514   -21975   -22543   -23117   -23536   -23693   -23622 
  -23452   -23282   -23137   -23016   -22946   -22924   -22853   -22598 
  -22124   -21543   -21023   -20660   -20450   -20381   -20466   -20670 
  -20895   -21077   -21232   -21366   -21456   -21506   -21545   -21608 
  -21728   -21896   -22091   -22308   -22517   -22669   -22780   -22910 
  -23083   -23284   -23478   -23617   -23663   -23584   -23356   -23021 
  -22661   -22325   -22018   -21751   -21535   -21334   -21128   -20943 
  -20784   -20610   -20411   -20266   -20281   -20460   -20729   -21042 
  -21403   -21802   -22187   -22501   -22763   -23011   -23221   -23354 
  -23415   -23382   -23220   -22953   -22651   -22364   -22119   -21942 
  -21866   -21905   -22017   -22122   -22178   -22208   -22245   -22294 
  -22336   -22349   -22302   -22184   -22020   -21835   -21652   -21511 
  -21446   -21445   -21456   -21431   -21363   -21340   -21466   -21718 
  -21962   -22121   -22215   -22269   -22301   -22332   -22373   -22431 
  -22534   -22681   -22821   -22902   -22906   -22835   -22704   -22561 
  -22457   -22387   -22333   -22323   -22351   -22345   -22260   -22125 
  -21987   -21864   -21739   -21606   -21498   -21412   -21285   -21113 
  -20987   -20997   -21166   -21435   -21707   -21900   -21949   -21824 
  -21576   -21309   -21115   -21045   -21124   -21340   -21638   -21991 
  -22390   -22781   -23083   -23280   -23384   -23371   -23243   -23058 
  -22862   -22672   -22506   -22394   -22362   -22377   -22338   -22185 
  -21964   -21739   -21532   -21323   -21105   -20935   -20903   -21053 
  -21370   -21786   -22220   -22642   -23037   -23315   -23388   -23266 
  -23008   -22658   -22287   -22005   -21893   -21923   -21990   -22032 
  -22058   -22088   -22115   -22107   -22037   -21923   -21796   -21641 
  -21459   -21335   -21372   -21607   -21995   -22422   -22771   -22982 
  -23044   -22969   -22801   -22606   -22452   -22417   -22511   -22629 
  -22657   -22560   -22372   -22155   -21958   -21782   -21641   -21561 
  -21509   -21419   -21270   -21093   -20939   -20839   -20820   -20924 
  -21153   -21451   -21770   -22071   -22304   -22432   -22456   -22415 
  -22357   -22294   -22213   -22105   -21980   -21863   -21772   -21709 
  -21679   -21695   -21778   -21953   -22207   -22450   -22570   -22527 
  -22369   -22166   -21958   -21769   -21653   -21691   -21921   -22287 
  -22681   -23035   -23329   -23528   -23568   -23407   -23087   -22720 
  -22374   -22030   -21697   -21449   -21342   -21321   -21268   -21123 
  -20941   -20824   -20828   -20939   -21132   -21416   -21783   -22176 
  -22531   -22809   -23019   -23197   -23339   -23379   -23264   -23015 
  -22680   -22290   -21897   -21591   -21450   -21489   -21694   -22025 
  -22385   -22685   -22891   -22979   -22917   -22709   -22391   -22005 
  -21597   -21214   -20908   -20748   -20767   -20927   -21166   -21428 
  -21676   -21919   -22184   -22439   -22617   -22699   -22703   -22615 
  -22430   -22196   -21991   -21862   -21811   -21847   -21983   -22170 
  -22315   -22358   -22315   -22242   -22166   -22067   -21924   -21738 
  -21547   -21403   -21325   -21296   -21304   -21359   -21474   -21644 
  -21833   -22014   -22228   -22547   -22965   -23367   -23641   -23755 
  -23714   -23528   -23242   -22925   -22594   -22219   -21819   -21480 
  -21272   -21204   -21248   -21392   -21656   -22040   -22463   -22791 
  -22927   -22846   -22578   -22208   -21828   -21494   -21262   -21194 
  -21286   -21448   -21594   -21713   -21811   -21845   -21790   -21725 
  -21744   -21846   -21998   -22164   -22267   -22246   -22142   -22026 
  -21915   -21794   -21654   -21518   -21413   -21351   -21339   -21386 
  -21484   -21619   -21797   -22027   -22286   -22511   -22667   -22777 
  -22864   -22905   -22848   -22678   -22446   -22226   -22072   -22035 
  -22128   -22284   -22415   -22512   -22608   -22687   -22717   -22700 
  -22661   -22612   -22537   -22429   -22301   -22163   -22026   -21892 
  -21746   -21586   -21450   -21398   -21457   -21587   -21728   -21847 
  -21951   -22071   -22193   -22246   -22196   -22057   -21848   -21613 
  -21415   -21287   -21241   -21288   -21447   -21708   -22023   -22350 
  -22644   -22846   -22943   -22981   -22990   -22968   -22910   -22792 
  -22628   -22490   -22408   -22337   -22245   -22164   -22130   -22110 
  -22047   -21930   -21769   -21559   -21304   -21037   -20848   -20819 
  -20945   -21163   -21402   -21607   -21778   -21966   -22179   -22376 
  -22567   -22800   -23076   -23316   -23418   -23333   -23072   -22680 
  -22231   -21813   -21517   -21395   -21393   -21416   -21420   -21405 
  -21374   -21342   -21325   -21330   -21374   -21480   -21641   -21806 
  -21946   -22085   -22244   -22426   -22630   -22823   -22951   -22990 
  -22932   -22765   -22517   -22258   -22044   -21892   -21808   -21815 
  -21919   -22067   -22191   -22276   -22344   -22391   -22384   -22319 
  -22225   -22137   -22075   -22046   -22020   -21979   -21913   -21796 
  -21631   -21480   -21423   -21498   -21650   -21801   -21961   -22162 
  -22370   -22530   -22623   -22648   -22616   -22547   -22462   -22375 
  -22296   -22235   -22195   -22163   -22125   -22096   -22102   -22121 
  -22108   -22031   -21923   -21833   -21753   -21668   -21618   -21644 
  -21706   -21762   -21845   -22001   -22201   -22360   -22413   -22355 
  -22214   -22014   -21774   -21535   -21352   -21243   -21198   -21223 
  -21320   -21491   -21756   -22121   -22536   -22960   -23377   -23726 
  -23934   -23981   -23865   -23575   -23136   -22627   -22144   -21749 
  -21438   -21210   -21095   -21074   -21087   -21120   -21187   -21288 
  -21415   -21564   -21746   -21959   -22158   -22294   -22354   -22352 
  -22337   -22382   -22508   -22661   -22787   -22876   -22923   -22904 
  -22781   -22570   -22344   -22175   -22092   -22083   -22109   -22145 
  -22179   -22179   -22120   -22016   -21884   -21727   -21571   -21445 
  -21361   -21354   -21453   -21641   -21845   -21973   -21985   -21888 
  -21684   -21393   -21103   -20901   -20793   -20760   -20821   -21002 
  -21305   -21717   -22184   -22630   -23003   -23300   -23517   -23606 
  -23514   -23252   -22872   -22392   -21824   -21222   -20673   -20275 
  -20094   -20141   -20395   -20798   -21264   -21740   -22180   -22550 
  -22871   -23159   -23350   -23386   -23270   -23041   -22745   -22429 
  -22146   -21954   -21914   -22053   -22327   -22645   -22934   -23171 
  -23373   -23546   -23659   -23687   -23645   -23540   -23351   -23054 
  -22665   -22240   -21844   -21513   -21263   -21115   -21076   -21099 
  -21110   -21076   -21003   -20893   -20762   -20654   -20618   -20681 
  -20813   -20953   -21071   -21176   -21282   -21399   -21551   -21755 
  -22003   -22280   -22576   -22852   -23040   -23100   -23054   -22948 
  -22803   -22617   -22387   -22138   -21925   -21790   -21729   -21713 
  -21739   -21836   -22015   -22240   -22447   -22609   -22735   -22819 
  -22819   -22725   -22600   -22510   -22456   -22392   -22309   -22252 
  -22248   -22248   -22218   -22207   -22273   -22393   -22480   -22471 
  -22385   -22281   -22173   -22019   -21791   -21524   -21286   -21094 
  -20923   -20795   -20792   -20958   -21254   -21609   -21951   -22223 
  -22416   -22560   -22664   -22730   -22785   -22842   -22884   -22913 
  -22951   -22999   -23034   -23018   -22931   -22802   -22647   -22450 
  -22205   -21914   -21579   -21238   -20932   -20678   -20529   -20549 
  -20738   -21037   -21376   -21711   -22017   -22252   -22378   -22406 
  -22367   -22293   -22221   -22183   -22217   -22312   -22395   -22442 
  -22481   -22529   -22561   -22555   -22519   -22469   -22397   -22291 
  -22153   -21976   -21762   -21544   -21361   -21249   -21234   -21288 
  -21371   -21478   -21608   -21754   -21886   -21949   -21924   -21857 
  -21796   -21776   -21799   -21822   -21831   -21852   -21881   -21881 
  -21839   -21810   -21872   -22036   -22262   -22513   -22748   -22904 
  -22939   -22880   -22780   -22662   -22535   -22445   -22438   -22489 
  -22530   -22515   -22448   -22350   -22240   -22145   -22084   -22052 
  -22035   -22030   -22050   -22089   -22091   -22018   -21906   -21840 
  -21882   -22026   -22224   -22425   -22575   -22633   -22574   -22419 
  -22246   -22118   -22031   -21981   -21991   -22066   -22160   -22217 
  -22229   -22238   -22281   -22355   -22433   -22472   -22443   -22361 
  -22257   -22133   -21991   -21863   -21774   -21738   -21755   -21803 
  -21853   -21869   -21808   -21669   -21493   -21329   -21220   -21192 
  -21246   -21375   -21557   -21755   -21928   -22043   -22083   -22084 
  -22092   -22114   -22140   -22162   -22169   -22157   -22110   -22026 
  -21946   -21906   -21913   -21950   -21994   -22027   -22033   -22006 
  -21944   -21847   -21735   -21658   -21648   -21691   -21777   -21900 
  -22050   -22228   -22425   -22600   -22722   -22795   -22847   -22902 
  -22939   -22890   -22719   -22474   -22208   -21927   -21634   -21361 
  -21156   -21059   -21095   -21276   -21591   -21998   -22424   -22804 
  -23101   -23284   -23334   -23245   -23027   -22711   -22349   -21976 
  -21617   -21316   -21108   -21012   -21040   -21183   -21403   -21662 
  -21927   -22172   -22384   -22530   -22571   -22512   -22400   -22292 
  -22237   -22268   -22409   -22638   -22885   -23069   -23143   -23086 
  -22886   -22567   -22194   -21836   -21526   -21271   -21080   -20954 
  -20876   -20839   -20860   -20951   -21120   -21372   -21682   -21978 
  -22186   -22286   -22311   -22300   -22283   -22293   -22347   -22444 
  -22578   -22715   -22799   -22811   -22778   -22724   -22657   -22584 
  -22508   -22410   -22268   -22077   -21861   -21660   -21506   -21404 
  -21344   -21318   -21321   -21330   -21315   -21274   -21201   -21107 
  -21036   -21028   -21104   -21289   -21598   -22028   -22538   -23051 
  -23500   -23826   -23994   -24020   -23926   -23706   -23375   -22980 
  -22587   -22259   -22037   -21911   -21857   -21868   -21939   -22049 
  -22143   -22181   -22212   -22284   -22350   -22349   -22279   -22167 
  -22025   -21864   -21732   -21682   -21724   -21839   -21993   -22132 
  -22216   -22222   -22125   -21951   -21781   -21668   -21627   -21645 
  -21697   -21767   -21848   -21921   -21953   -21936   -21892   -21825 
  -21722   -21588   -21440   -21271   -21061   -20823   -20597   -20425 
  -20352   -20407   -20556   -20759   -21003   -21262   -21496   -21700 
  -21902   -22123   -22364   -22631   -22932   -23237   -23489   -23656 
  -23745   -23766   -23716   -23601   -23452   -23298   -23119   -22892 
  -22650   -22435   -22257   -22122   -22036   -21993   -21976   -21958 
  -21919   -21853   -21760   -21663   -21607   -21604   -21611   -21604 
  -21608   -21648   -21731   -21859   -22043   -22262   -22466   -22618 
  -22714   -22762   -22766   -22746   -22737   -22763   -22817   -22861 
  -22867   -22825   -22729   -22592   -22437   -22279   -22121   -21967 
  -21826   -21684   -21525   -21361   -21210   -21062   -20915   -20795 
  -20734   -20750   -20836   -20973   -21157   -21388   -21619   -21810 
  -21970   -22123   -22271   -22405   -22495   -22516   -22452   -22304 
  -22092   -21877   -21722   -21652   -21662   -21753   -21923   -22136 
  -22351   -22546   -22711   -22837   -22920   -22944   -22899   -22810 
  -22708   -22592   -22441   -22247   -22040   -21856   -21710   -21628 
  -21638   -21733   -21879   -22039   -22179   -22280   -22335   -22350 
  -22332   -22302   -22298   -22336   -22391   -22428   -22416   -22353 
  -22260   -22139   -21993   -21869   -21812   -21821   -21880   -21964 
  -22042   -22102   -22139   -22143   -22126   -22133   -22181   -22228 
  -22230   -22193   -22134   -22048   -21912   -21719   -21500   -21320 
  -21218   -21190   -21236   -21368   -21569   -21787   -21988   -22165 
  -22323   -22459   -22548   -22565   -22497   -22350   -22155   -21962 
  -21797   -21689   -21678   -21758   -21870   -21960   -22011   -22040 
  -22055   -22064   -22097   -22178   -22293   -22403   -22482   -22526 
  -22517   -22442   -22329   -22219   -22128   -22042   -21948   -21841 
