Origin Time       2025/06/03 22:18:00
Lat.              41.7
Long.             143.6
Depth. (km)       30
Mag.              5.2
Station Code      AOMH06
Station Lat.      40.9664
Station Long.     141.3738
Station Height(m) -95
Record Time       2025/06/03 22:19:25
Sampling Freq(Hz) 100Hz
Duration Time(s)  120
Dir.              2
Scale Factor      2942(gal)/8224139
Max. Acc. (gal)   0.156
Last Correction   2025/06/03 22:19:26
Memo.             
[...]
  -97432   -97448   -97467   -97484   -97495   -97499   -97507   -97529 
  -97556   -97580   -97588   -97576   -97572   -97582   -97587   -97582 
  -97568   -97556   -97551   -97544   -97533   -97526   -97514   -97497 
  -97479   -97463   -97449   -97441   -97434   -97437   -97443   -97433 
  -97413   -97401   -97410   -97426   -97438   -97448   -97463   -97475 
  -97484   -97486   -97484   -97491   -97509   -97530   -97536   -97524 
  -97519   -97526   -97529   -97524   -97521   -97515   -97499   -97472 
  -97449   -97436   -97425   -97422   -97428   -97432   -97434   -97429 
  -97422   -97432   -97449   -97464   -97487   -97509   -97519   -97525 
  -97537   -97552   -97564   -97572   -97571   -97560   -97549   -97541 
  -97540   -97549   -97564   -97572   -97575   -97569   -97560   -97556 
  -97546   -97524   -97501   -97486   -97472   -97468   -97472   -97486 
  -97515   -97541   -97544   -97546   -97551   -97548   -97555   -97564 
  -97555   -97540   -97537   -97525   -97506   -97494   -97490   -97486 
  -97476   -97461   -97452   -97457   -97461   -97460   -97471   -97486 
  -97483   -97463   -97434   -97407   -97398   -97405   -97413   -97414 
  -97417   -97422   -97434   -97449   -97461   -97479   -97499   -97514 
  -97525   -97530   -97530   -97524   -97499   -97472   -97464   -97468 
  -97463   -97447   -97436   -97451   -97471   -97472   -97459   -97437 
  -97421   -97411   -97393   -97370   -97363   -97372   -97387   -97401 
  -97409   -97411   -97410   -97406   -97406   -97413   -97411   -97405 
  -97402   -97417   -97461   -97519   -97561   -97587   -97600   -97610 
  -97619   -97622   -97619   -97611   -97605   -97609   -97618   -97619 
  -97614   -97598   -97563   -97517   -97480   -97459   -97438   -97403 
  -97368   -97351   -97337   -97321   -97316   -97320   -97333   -97356 
  -97378   -97391   -97410   -97433   -97456   -97486   -97532   -97590 
  -97642   -97683   -97710   -97710   -97690   -97664   -97637   -97610 
  -97587   -97563   -97530   -97490   -97447   -97410   -97376   -97336 
  -97293   -97260   -97251   -97263   -97287   -97318   -97348   -97364 
  -97366   -97368   -97383   -97405   -97420   -97425   -97426   -97436 
  -97467   -97518   -97569   -97587   -97563   -97536   -97537   -97564 
  -97602   -97618   -97599   -97569   -97545   -97533   -97537   -97552 
  -97561   -97559   -97537   -97507   -97497   -97505   -97502   -97486 
  -97468   -97436   -97398   -97371   -97359   -97356   -97356   -97347 
  -97333   -97328   -97336   -97362   -97409   -97453   -97476   -97486 
  -97488   -97494   -97518   -97556   -97590   -97623   -97660   -97684 
  -97686   -97677   -97672   -97667   -97650   -97632   -97614   -97605 
  -97607   -97611   -97595   -97572   -97552   -97522   -97492   -97475 
  -97471   -97475   -97484   -97494   -97498   -97491   -97482   -97478 
  -97470   -97436   -97380   -97335   -97326   -97355   -97401   -97438 
  -97447   -97447   -97453   -97451   -97436   -97425   -97421   -97429 
  -97452   -97467   -97463   -97451   -97426   -97391   -97372   -97387 
  -97426   -97482   -97540   -97569   -97559   -97517   -97459   -97424 
  -97425   -97455   -97495   -97545   -97594   -97613   -97586   -97521 
  -97448   -97402   -97397   -97416   -97438   -97444   -97430   -97421 
  -97436   -97471   -97513   -97544   -97536   -97497   -97459   -97430 
  -97402   -97386   -97399   -97434   -97480   -97530   -97576   -97610 
  -97629   -97633   -97621   -97610   -97622   -97657   -97703   -97733 
  -97725   -97694   -97663   -97625   -97583   -97553   -97515   -97478 
  -97467   -97460   -97436   -97402   -97371   -97359   -97384   -97420 
  -97430   -97424   -97405   -97376   -97367   -97389   -97426   -97476 
  -97524   -97542   -97546   -97560   -97582   -97596   -97600   -97610 
  -97645   -97706   -97752   -97753   -97711   -97630   -97533   -97461 
  -97421   -97399   -97391   -97372   -97329   -97279   -97227   -97171 
  -97135   -97136   -97173   -97231   -97287   -97333   -97382   -97444 
  -97509   -97557   -97582   -97583   -97573   -97569   -97575   -97580 
  -97578   -97568   -97556   -97542   -97525   -97498   -97464   -97433 
  -97405   -97380   -97376   -97398   -97429   -97464   -97499   -97537 
  -97567   -97569   -97541   -97505   -97479   -97453   -97414   -97379 
  -97370   -97397   -97460   -97532   -97579   -97590   -97576   -97549 
  -97521   -97509   -97513   -97521   -97532   -97540   -97542   -97540 
  -97529   -97505   -97487   -97506   -97556   -97609   -97637   -97626 
  -97583   -97537   -97510   -97497   -97476   -97448   -97432   -97448 
  -97497   -97559   -97609   -97629   -97625   -97609   -97591   -97584 
  -97592   -97595   -97572   -97533   -97499   -97494   -97498   -97475 
  -97414   -97336   -97276   -97251   -97245   -97245   -97259   -97287 
  -97314   -97329   -97335   -97333   -97347   -97379   -97421   -97476 
  -97563   -97657   -97717   -97735   -97745   -97750   -97726   -97672 
  -97615   -97569   -97534   -97515   -97517   -97518   -97486   -97422 
  -97348   -97262   -97178   -97128   -97120   -97141   -97175   -97201 
  -97213   -97232   -97268   -97316   -97374   -97440   -97517   -97584 
  -97609   -97591   -97567   -97555   -97563   -97583   -97594   -97590 
  -97567   -97522   -97471   -97449   -97463   -97505   -97563   -97618 
  -97654   -97672   -97669   -97654   -97625   -97586   -97561   -97568 
  -97600   -97640   -97657   -97652   -97642   -97636   -97621   -97595 
  -97578   -97576   -97575   -97560   -97529   -97476   -97401   -97325 
  -97281   -97272   -97285   -97314   -97360   -97407   -97447   -97488 
  -97540   -97588   -97617   -97630   -97649   -97673   -97673   -97653 
  -97633   -97613   -97584   -97544   -97490   -97425   -97357   -97321 
  -97341   -97387   -97414   -97398   -97364   -97344   -97333   -97309 
  -97283   -97283   -97303   -97320   -97337   -97366   -97399   -97449 
  -97514   -97556   -97567   -97578   -97596   -97618   -97638   -97642 
  -97618   -97568   -97503   -97437   -97380   -97351   -97348   -97356 
  -97375   -97406   -97445   -97480   -97513   -97533   -97525   -97486 
  -97444   -97413   -97384   -97348   -97325   -97339   -97379   -97407 
  -97418   -97425   -97430   -97440   -97463   -97490   -97509   -97518 
  -97518   -97513   -97517   -97526   -97530   -97537   -97544   -97544 
  -97544   -97549   -97568   -97606   -97656   -97691   -97699   -97695 
  -97680   -97640   -97588   -97544   -97510   -97487   -97470   -97461 
  -97461   -97455   -97444   -97440   -97437   -97434   -97443   -97459 
  -97470   -97487   -97522   -97565   -97600   -97621   -97632   -97625 
  -97595   -97549   -97505   -97463   -97425   -97398   -97380   -97370 
  -97362   -97363   -97383   -97403   -97414   -97414   -97403   -97386 
  -97378   -97384   -97394   -97403   -97406   -97379   -97324   -97282 
  -97282   -97316   -97360   -97410   -97457   -97490   -97505   -97501 
  -97484   -97457   -97429   -97409   -97403   -97418   -97447   -97490 
  -97555   -97634   -97699   -97730   -97731   -97733   -97749   -97773 
  -97791   -97787   -97765   -97721   -97648   -97565   -97495   -97444 
  -97411   -97379   -97333   -97297   -97275   -97245   -97212   -97216 
  -97263   -97325   -97376   -97399   -97397   -97397   -97432   -97515 
  -97623   -97717   -97780   -97796   -97752   -97691   -97657   -97641 
  -97615   -97578   -97540   -97519   -97518   -97503   -97463   -97414 
  -97374   -97328   -97278   -97251   -97259   -97286   -97317   -97345 
  -97376   -97416   -97449   -97471   -97484   -97497   -97506   -97517 
  -97532   -97553   -97587   -97622   -97645   -97646   -97623   -97563 
  -97476   -97414   -97397   -97411   -97437   -97449   -97438   -97421 
  -97402   -97370   -97328   -97290   -97276   -97299   -97341   -97393 
  -97444   -97488   -97525   -97548   -97555   -97546   -97525   -97486 
  -97440   -97410   -97402   -97399   -97399   -97410   -97433   -97465 
  -97498   -97513   -97511   -97511   -97518   -97528   -97537   -97541 
  -97530   -97502   -97470   -97445   -97426   -97407   -97391   -97391 
  -97424   -97478   -97521   -97536   -97540   -97549   -97557   -97551 
  -97532   -97521   -97529   -97553   -97588   -97625   -97654   -97683 
  -97700   -97695   -97672   -97656   -97656   -97652   -97638   -97622 
  -97613   -97611   -97614   -97605   -97576   -97536   -97502   -97488 
  -97495   -97490   -97460   -97433   -97416   -97403   -97394   -97386 
  -97375   -97355   -97330   -97298   -97260   -97249   -97271   -97302 
  -97337   -97376   -97422   -97479   -97534   -97582   -97621   -97636 
  -97617   -97588   -97572   -97565   -97565   -97575   -97573   -97549 
  -97510   -97465   -97418   -97378   -97348   -97324   -97309   -97316 
  -97336   -97351   -97363   -97383   -97393   -97384   -97378   -97383 
  -97403   -97434   -97465   -97506   -97564   -97622   -97650   -97633 
  -97592   -97564   -97555   -97560   -97588   -97638   -97686   -97715 
  -97721   -97696   -97663   -97638   -97617   -97595   -97578   -97559 
  -97540   -97522   -97499   -97472   -97440   -97403   -97378   -97371 
  -97372   -97387   -97421   -97448   -97460   -97471   -97482   -97490 
  -97510   -97533   -97538   -97532   -97510   -97471   -97429   -97397 
  -97382   -97395   -97421   -97429   -97421   -97410   -97405   -97410 
  -97426   -97443   -97455   -97464   -97464   -97468   -97488   -97515 
  -97537   -97557   -97576   -97602   -97646   -97708   -97761   -97787 
  -97769   -97715   -97653   -97591   -97511   -97418   -97330   -97252 
  -97194   -97158   -97136   -97127   -97136   -97173   -97225   -97286 
  -97351   -97416   -97476   -97529   -97559   -97553   -97532   -97514 
  -97513   -97522   -97530   -97542   -97563   -97590   -97621   -97650 
  -97686   -97726   -97745   -97723   -97676   -97626   -97564   -97495 
  -97436   -97382   -97318   -97259   -97224   -97216   -97237   -97287 
  -97355   -97422   -97479   -97511   -97515   -97511   -97514   -97521 
  -97526   -97526   -97522   -97519   -97522   -97532   -97545   -97557 
  -97565   -97557   -97536   -97521   -97515   -97510   -97497   -97467 
  -97417   -97353   -97283   -97227   -97193   -97177   -97181   -97210 
  -97262   -97325   -97390   -97453   -97513   -97567   -97610   -97641 
  -97669   -97699   -97729   -97750   -97754   -97749   -97748   -97756 
  -97757   -97737   -97698   -97646   -97588   -97538   -97506   -97494 
  -97495   -97494   -97486   -97484   -97487   -97497   -97519   -97545 
  -97561   -97569   -97578   -97588   -97592   -97586   -97565   -97522 
  -97470   -97429   -97405   -97386   -97368   -97357   -97370   -97394 
  -97416   -97425   -97420   -97405   -97386   -97367   -97356   -97359 
  -97371   -97394   -97430   -97474   -97515   -97548   -97567   -97575 
  -97578   -97579   -97586   -97606   -97625   -97629   -97626   -97618 
  -97603   -97578   -97542   -97502   -97463   -97426   -97406   -97398 
  -97390   -97380   -97376   -97374   -97366   -97347   -97321   -97306 
  -97310   -97328   -97355   -97366   -97351   -97335   -97325   -97316 
  -97317   -97333   -97356   -97387   -97422   -97444   -97453   -97461 
  -97468   -97472   -97484   -97499   -97502   -97480   -97437   -97398 
  -97374   -97359   -97362   -97384   -97409   -97426   -97436   -97434 
  -97425   -97422   -97418   -97426   -97465   -97524   -97576   -97609 
  -97617   -97614   -97615   -97618   -97606   -97578   -97553   -97536 
  -97528   -97530   -97530   -97524   -97509   -97478   -97438   -97426 
  -97443   -97455   -97449   -97441   -97440   -97441   -97444   -97448 
  -97453   -97453   -97441   -97422   -97407   -97401   -97401   -97403 
  -97413   -97432   -97457   -97480   -97501   -97519   -97537   -97556 
  -97578   -97594   -97603   -97613   -97634   -97663   -97677   -97673 
  -97672   -97680   -97686   -97672   -97640   -97602   -97569   -97544 
  -97526   -97513   -97502   -97494   -97490   -97494   -97501   -97501 
  -97501   -97503   -97507   -97518   -97540   -97565   -97595   -97622 
  -97629   -97610   -97583   -97563   -97541   -97511   -97482   -97476 
  -97494   -97522   -97548   -97556   -97549   -97540   -97532   -97528 
  -97521   -97515   -97522   -97533   -97540   -97544   -97538   -97515 
  -97482   -97441   -97395   -97363   -97345   -97329   -97310   -97301 
  -97309   -97325   -97335   -97347   -97371   -97393   -97405   -97418 
  -97438   -97457   -97463   -97456   -97453   -97461   -97470   -97470 
  -97459   -97436   -97410   -97378   -97345   -97326   -97320   -97325 
  -97340   -97349   -97353   -97363   -97371   -97389   -97434   -97498 
  -97549   -97580   -97603   -97623   -97644   -97663   -97667   -97657 
  -97645   -97642   -97644   -97640   -97636   -97629   -97610   -97586 
  -97565   -97537   -97491   -97438   -97393   -97368   -97371   -97380 
  -97368   -97341   -97321   -97320   -97328   -97339   -97355   -97380 
  -97416   -97463   -97528   -97596   -97650   -97686   -97704   -97713 
  -97718   -97721   -97723   -97733   -97746   -97758   -97768   -97767 
  -97745   -97710   -97669   -97629   -97596   -97569   -97540   -97513 
  -97490   -97468   -97445   -97407   -97353   -97298   -97263   -97256 
  -97266   -97279   -97295   -97321   -97353   -97393   -97434   -97460 
  -97468   -97464   -97443   -97414   -97395   -97390   -97387   -97378 
  -97360   -97343   -97328   -97309   -97282   -97252   -97229   -97216 
  -97201   -97178   -97155   -97137   -97137   -97155   -97182   -97225 
  -97285   -97352   -97429   -97530   -97649   -97753   -97819   -97860 
  -97889   -97914   -97923   -97915   -97895   -97868   -97838   -97804 
  -97768   -97737   -97715   -97690   -97654   -97618   -97590   -97561 
  -97524   -97479   -97429   -97378   -97332   -97301   -97287   -97285 
  -97285   -97285   -97289   -97305   -97325   -97340   -97359   -97383 
  -97405   -97425   -97440   -97438   -97432   -97433   -97436   -97438 
  -97444   -97455   -97461   -97455   -97440   -97421   -97409   -97403 
  -97407   -97425   -97453   -97484   -97509   -97526   -97530   -97525 
  -97519   -97518   -97526   -97552   -97586   -97618   -97648   -97677 
  -97707   -97737   -97758   -97765   -97760   -97752   -97742   -97730 
  -97715   -97692   -97665   -97642   -97619   -97590   -97559   -97538 
  -97534   -97538   -97545   -97544   -97528   -97492   -97457   -97432 
  -97413   -97398   -97389   -97374   -97359   -97352   -97356   -97362 
  -97359   -97349   -97344   -97336   -97313   -97285   -97263   -97245 
  -97231   -97229   -97244   -97271   -97297   -97314   -97326   -97330 
  -97330   -97332   -97341   -97364   -97389   -97402   -97407   -97409 
  -97394   -97370   -97357   -97366   -97384   -97406   -97425   -97436 
  -97449   -97461   -97476   -97494   -97506   -97510   -97507   -97499 
  -97498   -97514   -97542   -97573   -97603   -97637   -97663   -97669 
  -97656   -97638   -97634   -97642   -97648   -97641   -97629   -97613 
  -97586   -97557   -97530   -97503   -97478   -97460   -97464   -97482 
  -97499   -97513   -97534   -97571   -97618   -97661   -97690   -97703 
  -97704   -97691   -97667   -97638   -97614   -97588   -97559   -97536 
  -97514   -97490   -97464   -97440   -97428   -97432   -97440   -97452 
  -97470   -97487   -97510   -97537   -97559   -97565   -97561   -97559 
  -97568   -97580   -97583   -97573   -97555   -97537   -97524   -97517 
  -97513   -97503   -97494   -97491   -97483   -97459   -97429   -97407 
  -97389   -97370   -97353   -97341   -97329   -97313   -97298   -97286 
  -97286   -97312   -97355   -97399   -97443   -97479   -97502   -97506 
  -97494   -97475   -97451   -97425   -97406   -97387   -97368   -97353 
  -97351   -97364   -97384   -97397   -97405   -97414   -97417   -97414 
  -97420   -97429   -97437   -97452   -97474   -97486   -97476   -97461 
  -97455   -97453   -97447   -97432   -97416   -97406   -97403   -97397 
  -97389   -97393   -97410   -97430   -97452   -97480   -97503   -97522 
  -97538   -97546   -97561   -97592   -97626   -97650   -97667   -97664 
  -97652   -97648   -97654   -97667   -97672   -97664   -97646   -97627 
  -97611   -97596   -97571   -97534   -97501   -97475   -97456   -97441 
  -97432   -97433   -97444   -97455   -97457   -97455   -97452   -97448 
  -97444   -97445   -97453   -97464   -97480   -97498   -97514   -97526 
  -97534   -97533   -97521   -97509   -97510   -97529   -97553   -97571 
  -97564   -97534   -97502   -97487   -97484   -97482   -97483   -97482 
  -97474   -97465   -97460   -97456   -97455   -97457   -97465   -97470 
  -97460   -97443   -97416   -97386   -97367   -97356   -97345   -97341 
  -97348   -97353   -97360   -97366   -97367   -97375   -97390   -97395 
  -97397   -97409   -97428   -97440   -97441   -97440   -97447   -97457 
  -97472   -97494   -97517   -97545   -97580   -97613   -97640   -97650 
  -97650   -97650   -97648   -97640   -97629   -97626   -97636   -97637 
  -97622   -97596   -97568   -97529   -97480   -97428   -97383   -97357 
  -97351   -97351   -97345   -97339   -97339   -97336   -97333   -97336 
  -97347   -97367   -97394   -97418   -97440   -97460   -97474   -97488 
  -97507   -97526   -97541   -97545   -97541   -97538   -97532   -97519 
  -97502   -97486   -97475   -97463   -97451   -97437   -97425   -97411 
  -97391   -97371   -97362   -97359   -97364   -97384   -97409   -97438 
  -97484   -97536   -97582   -97614   -97626   -97625   -97625   -97617 
  -97602   -97592   -97594   -97600   -97602   -97602   -97611   -97626 
  -97641   -97656   -97664   -97654   -97638   -97636   -97646   -97653 
  -97648   -97636   -97618   -97596   -97578   -97563   -97553   -97552 
  -97561   -97575   -97592   -97617   -97634   -97638   -97633   -97615 
  -97592   -97567   -97533   -97498   -97460   -97417   -97378   -97348 
  -97322   -97305   -97298   -97303   -97317   -97329   -97335   -97332 
  -97329   -97339   -97362   -97384   -97403   -97416   -97421   -97425 
  -97432   -97441   -97460   -97488   -97521   -97546   -97560   -97559 
  -97544   -97518   -97480   -97434   -97390   -97353   -97324   -97293 
  -97262   -97235   -97213   -97193   -97177   -97168   -97170   -97181 
  -97194   -97205   -97216   -97233   -97258   -97283   -97302   -97322 
  -97344   -97360   -97380   -97414   -97460   -97510   -97555   -97598 
  -97645   -97673   -97687   -97692   -97690   -97679   -97661   -97641 
  -97627   -97621   -97614   -97610   -97614   -97626   -97640   -97652 
  -97663   -97669   -97676   -97690   -97703   -97702   -97684   -97664 
  -97656   -97660   -97667   -97663   -97648   -97641   -97638   -97627 
  -97619   -97619   -97618   -97614   -97609   -97599   -97587   -97573 
  -97557   -97540   -97515   -97487   -97460   -97434   -97407   -97384 
  -97364   -97351   -97340   -97328   -97306   -97289   -97286   -97293 
  -97302   -97318   -97335   -97353   -97374   -97393   -97407   -97417 
  -97422   -97429   -97444   -97463   -97486   -97506   -97519   -97525 
  -97534   -97545   -97540   -97519   -97497   -97471   -97444   -97428 
  -97422   -97428   -97437   -97444   -97448   -97449   -97437   -97422 
  -97422   -97433   -97451   -97476   -97501   -97522   -97537   -97544 
  -97544   -97538   -97533   -97530   -97521   -97507   -97490   -97467 
  -97445   -97430   -97417   -97405   -97394   -97380   -97368   -97357 
  -97351   -97360   -97383   -97410   -97434   -97456   -97480   -97510 
  -97537   -97555   -97568   -97579   -97590   -97605   -97625   -97640 
