Origin Time       2025/06/03 22:18:00
Lat.              41.7
Long.             143.6
Depth. (km)       30
Mag.              5.2
Station Code      AOMH16
Station Lat.      40.4624
Station Long.     141.0923
Station Height(m) 315
Record Time       2025/06/03 22:19:38
Sampling Freq(Hz) 100Hz
Duration Time(s)  120
Dir.              6
Scale Factor      7845(gal)/8223790
Max. Acc. (gal)   0.481
Last Correction   2025/06/03 22:19:39
Memo.             
[...]
    6259     6328     6421     6466     6455     6417     6358     6280 
    6211     6181     6180     6195     6234     6288     6331     6346 
    6328     6300     6277     6247     6207     6181     6203     6258 
    6297     6319     6349     6382     6381     6334     6276     6232 
    6183     6133     6141     6238     6354     6409     6400     6367 
    6332     6296     6261     6237     6226     6241     6300     6397 
    6474     6492     6466     6438     6431     6439     6428     6363 
    6255     6174     6187     6284     6393     6450     6436     6374 
    6292     6195     6089     6018     6012     6070     6166     6269 
    6339     6339     6301     6288     6295     6278     6242     6220 
    6247     6318     6373     6394     6408     6412     6423     6451 
    6447     6386     6315     6297     6349     6413     6439     6413 
    6367     6351     6373     6381     6318     6189     6072     6058 
    6137     6212     6242     6253     6277     6315     6338     6323 
    6288     6281     6340     6430     6457     6400     6316     6262 
    6282     6380     6475     6486     6416     6327     6295     6342 
    6396     6380     6299     6212     6189     6273     6409     6467 
    6401     6296     6241     6255     6311     6369     6405     6396 
    6342     6296     6276     6246     6192     6147     6151     6200 
    6266     6326     6354     6336     6281     6220     6199     6222 
    6224     6176     6141     6192     6322     6442     6462     6369 
    6223     6126     6137     6243     6374     6428     6378     6299 
    6245     6201     6150     6114     6118     6146     6168     6195 
    6253     6332     6405     6442     6424     6357     6276     6214 
    6203     6269     6385     6474     6497     6463     6416     6392 
    6366     6315     6269     6257     6291     6347     6376     6353 
    6309     6286     6284     6289     6315     6359     6408     6447 
    6478     6482     6417     6278     6170     6200     6323     6428 
    6453     6420     6377     6330     6293     6291     6300     6272 
    6205     6174     6216     6277     6301     6301     6296     6277 
    6246     6230     6255     6307     6345     6347     6331     6303 
    6254     6226     6293     6448     6566     6531     6373     6232 
    6196     6243     6305     6316     6285     6293     6392     6520 
    6563     6461     6285     6160     6115     6118     6135     6138 
    6135     6177     6286     6404     6427     6332     6227     6222 
    6295     6353     6372     6381     6389     6390     6369     6323 
    6274     6251     6264     6286     6282     6259     6250     6250 
    6249     6258     6292     6323     6335     6363     6430     6466 
    6409     6293     6204     6160     6112     6062     6079     6177 
    6313     6438     6536     6590     6552     6416     6268     6188 
    6177     6218     6316     6455     6571     6606     6519     6335 
    6142     6029     6043     6151     6261     6300     6269     6231 
    6220     6207     6165     6123     6139     6243     6388     6485 
    6488     6424     6382     6427     6488     6453     6327     6220 
    6196     6235     6296     6346     6362     6339     6318     6334 
    6363     6367     6336     6292     6254     6218     6215     6281 
    6381     6442     6443     6409     6361     6297     6239     6205 
    6174     6111     6041     6026     6085     6187     6296     6373 
    6382     6332     6280     6261     6261     6268     6288     6332 
    6397     6447     6462     6431     6350     6278     6289     6349 
    6376     6372     6388     6419     6412     6340     6234     6138 
    6084     6091     6150     6222     6268     6301     6361     6427 
    6434     6362     6265     6199     6189     6235     6308     6370 
    6401     6413     6443     6505     6544     6494     6363     6235 
    6193     6254     6362     6426     6401     6331     6295     6328 
    6382     6377     6307     6223     6181     6188     6185     6145 
    6111     6127     6196     6285     6358     6392     6386     6357 
    6334     6330     6339     6343     6340     6369     6431     6473 
    6458     6396     6318     6259     6245     6270     6311     6331 
    6322     6311     6323     6347     6345     6309     6270     6249 
    6245     6270     6318     6354     6367     6361     6340     6308 
    6251     6153     6045     5991     6046     6215     6428     6596 
    6656     6592     6455     6343     6293     6259     6215     6204 
    6277     6396     6465     6435     6349     6297     6359     6509 
    6633     6632     6504     6327     6197     6150     6147     6150 
    6162     6184     6199     6184     6129     6068     6050     6089 
    6127     6114     6072     6056     6112     6232     6350     6408 
    6400     6342     6274     6249     6284     6343     6357     6281 
    6142     6014     5958     5985     6068     6168     6273     6401 
    6551     6670     6697     6627     6489     6350     6277     6291 
    6355     6423     6471     6515     6547     6539     6474     6369 
    6276     6227     6222     6234     6250     6272     6296     6313 
    6327     6338     6347     6347     6351     6357     6316     6218 
    6123     6083     6093     6143     6232     6315     6322     6264 
    6223     6253     6330     6412     6498     6590     6656     6674 
    6651     6597     6529     6477     6450     6446     6447     6435 
    6381     6293     6205     6127     6061     6039     6075     6138 
    6188     6212     6210     6177     6134     6103     6077     6054 
    6061     6112     6170     6189     6177     6204     6292     6381 
    6420     6431     6428     6409     6403     6428     6459     6469 
    6435     6381     6361     6381     6416     6469     6519     6527 
    6504     6484     6453     6403     6355     6323     6300     6281 
    6269     6254     6226     6168     6073     5992     5981     6041 
    6127     6193     6211     6193     6173     6169     6165     6146 
    6124     6124     6174     6266     6373     6474     6543     6546 
    6459     6308     6164     6097     6129     6227     6343     6462 
    6578     6671     6728     6727     6648     6517     6400     6357 
    6393     6451     6454     6385     6284     6191     6124     6092 
    6081     6056     5998     5948     5954     6015     6081     6135 
    6192     6245     6259     6241     6241     6280     6327     6363 
    6401     6436     6430     6377     6316     6303     6345     6389 
    6408     6424     6440     6413     6351     6311     6323     6369 
    6431     6481     6490     6450     6370     6282     6231     6232 
    6251     6239     6177     6111     6085     6089     6092     6102 
    6160     6277     6400     6478     6488     6413     6295     6208 
    6187     6212     6258     6328     6405     6447     6432     6384 
    6338     6291     6245     6239     6295     6386     6465     6477 
    6421     6365     6354     6370     6384     6382     6365     6335 
    6297     6273     6265     6219     6112     6026     6043     6145 
    6253     6313     6326     6311     6296     6296     6316     6349 
    6393     6444     6477     6469     6417     6328     6222     6135 
    6119     6193     6304     6396     6473     6523     6521     6488 
    6461     6458     6439     6386     6349     6359     6376     6349 
    6277     6216     6218     6273     6318     6312     6278     6253 
    6242     6220     6184     6184     6241     6327     6412     6454 
    6424     6336     6226     6173     6250     6386     6458     6450 
    6424     6411     6363     6247     6119     6066     6104     6192 
    6292     6369     6376     6319     6253     6219     6210     6220 
    6268     6342     6382     6354     6278     6208     6187     6208 
    6232     6241     6255     6286     6318     6322     6272     6162 
    6046     6004     6054     6133     6199     6268     6358     6448 
    6492     6461     6393     6340     6336     6382     6450     6486 
    6466     6412     6373     6365     6370     6372     6382     6409 
    6451     6498     6502     6416     6247     6056     5926     5918 
    6016     6151     6251     6281     6254     6216     6188     6165 
    6135     6096     6075     6084     6104     6131     6183     6261 
    6340     6408     6467     6531     6588     6613     6577     6515 
    6494     6521     6573     6648     6716     6721     6648     6500 
    6316     6162     6076     6072     6153     6270     6343     6345 
    6299     6239     6208     6197     6176     6149     6150     6188 
    6237     6254     6231     6201     6191     6188     6195     6232 
    6309     6394     6435     6416     6378     6362     6392     6447 
    6500     6529     6519     6478     6427     6369     6318     6288 
    6262     6245     6276     6338     6376     6354     6284     6220 
    6220     6276     6324     6320     6276     6231     6201     6184 
    6185     6207     6239     6281     6324     6361     6382     6389 
    6384     6378     6382     6396     6426     6462     6458     6385 
    6259     6134     6061     6046     6070     6116     6147     6153 
    6150     6157     6168     6169     6154     6156     6218     6319 
    6373     6340     6262     6207     6220     6299     6403     6492 
    6559     6624     6701     6756     6727     6606     6467     6367 
    6299     6245     6214     6220     6247     6265     6258     6216 
    6161     6142     6181     6254     6316     6328     6285     6226 
    6215     6258     6292     6264     6183     6106     6089     6110 
    6119     6126     6161     6230     6309     6358     6351     6309 
    6262     6227     6223     6249     6277     6308     6373     6457 
    6490     6426     6286     6165     6123     6157     6223     6293 
    6363     6438     6520     6608     6663     6671     6650     6610 
    6562     6511     6455     6421     6428     6438     6405     6335 
    6264     6231     6251     6288     6278     6196     6062     5931 
    5859     5849     5876     5952     6084     6226     6327     6370 
    6349     6258     6129     6038     6053     6156     6261     6309 
    6311     6300     6286     6270     6258     6264     6266     6258 
    6273     6346     6455     6528     6520     6462     6423     6439 
    6482     6507     6496     6470     6467     6509     6586     6667 
    6708     6701     6666     6616     6586     6605     6654     6693 
    6702     6681     6613     6481     6319     6187     6088     6011 
    5971     5985     6033     6056     6030     6000     5998     5998 
    5964     5896     5837     5826     5846     5887     5976     6104 
    6208     6255     6268     6269     6285     6339     6407     6450 
    6465     6473     6481     6470     6434     6390     6366     6377 
    6428     6517     6596     6598     6516     6389     6266     6180 
    6138     6149     6199     6250     6292     6338     6385     6408 
    6399     6369     6331     6301     6304     6357     6428     6463 
    6446     6409     6370     6301     6193     6085     6018     5984 
    5961     5958     5996     6058     6110     6149     6177     6191 
    6218     6288     6378     6446     6470     6457     6427     6400 
    6376     6354     6362     6399     6438     6486     6547     6581 
    6556     6482     6408     6365     6349     6347     6350     6338 
    6277     6180     6080     5994     5940     5918     5921     5948 
    5984     6010     6042     6104     6197     6319     6451     6554 
    6588     6555     6496     6432     6374     6327     6308     6347 
    6443     6538     6573     6525     6419     6311     6249     6253 
    6303     6354     6386     6403     6419     6442     6459     6454 
    6426     6393     6367     6343     6322     6304     6293     6299 
    6311     6313     6308     6305     6311     6338     6374     6381 
    6351     6311     6304     6351     6419     6448     6423     6357 
    6270     6191     6142     6135     6178     6262     6359     6435 
    6455     6399     6289     6191     6161     6196     6237     6230 
    6177     6123     6097     6080     6052     6027     6012     5996 
    5994     6034     6114     6195     6257     6315     6389     6473 
    6540     6594     6639     6673     6681     6644     6554     6420 
    6273     6166     6145     6193     6254     6280     6274     6262 
    6239     6193     6122     6038     5973     5958     6002     6075 
    6134     6181     6243     6335     6432     6484     6471     6428 
    6386     6358     6354     6366     6374     6384     6420     6484 
    6558     6617     6639     6620     6573     6505     6444     6405 
    6369     6318     6253     6193     6157     6151     6165     6164 
    6135     6104     6099     6114     6130     6141     6150     6156 
    6153     6146     6145     6154     6180     6215     6250     6295 
    6355     6419     6466     6478     6448     6421     6444     6512 
    6582     6621     6619     6589     6562     6544     6525     6500 
    6455     6400     6363     6339     6313     6289     6265     6218 
    6143     6068     6025     6004     5996     5999     6016     6065 
    6150     6222     6235     6168     6042     5933     5907     5968 
    6070     6169     6264     6359     6446     6515     6574     6635 
    6690     6723     6740     6764     6794     6810     6790     6723 
    6627     6525     6446     6420     6467     6546     6592     6570 
    6489     6389     6296     6193     6070     5965     5933     5991 
    6088     6150     6157     6116     6048     5980     5940     5926 
    5930     5956     6015     6085     6129     6130     6107     6097 
    6134     6215     6305     6376     6421     6455     6488     6511 
    6502     6458     6409     6396     6426     6475     6519     6538 
    6519     6471     6424     6404     6416     6432     6424     6385 
    6328     6264     6207     6178     6180     6195     6212     6224 
    6231     6226     6212     6205     6211     6210     6203     6196 
    6181     6174     6187     6201     6219     6250     6284     6301 
    6286     6250     6214     6187     6187     6224     6274     6313 
    6324     6301     6276     6278     6311     6355     6392     6400 
    6382     6374     6400     6458     6520     6544     6528     6484 
    6419     6361     6331     6331     6343     6350     6345     6328 
    6288     6216     6133     6057     6010     5998     6018     6065 
    6126     6170     6201     6242     6286     6318     6338     6361 
    6384     6404     6431     6473     6524     6565     6585     6586 
    6582     6583     6597     6615     6609     6575     6538     6501 
    6447     6374     6303     6258     6242     6250     6270     6277 
    6247     6189     6142     6129     6137     6158     6195     6246 
    6297     6336     6350     6338     6326     6327     6320     6295 
    6276     6261     6228     6181     6156     6183     6246     6307 
    6335     6320     6280     6251     6261     6309     6362     6393 
    6409     6420     6431     6432     6404     6362     6332     6309 
    6285     6245     6170     6085     6038     6039     6069     6108 
    6154     6210     6272     6332     6384     6415     6413     6374 
    6312     6261     6237     6226     6232     6268     6313     6334 
    6308     6257     6218     6189     6165     6154     6151     6141 
    6112     6072     6050     6060     6077     6093     6112     6134 
    6161     6199     6237     6257     6254     6251     6282     6355 
    6448     6534     6590     6609     6593     6554     6524     6528 
    6558     6593     6625     6640     6635     6623     6621     6629 
    6623     6590     6561     6555     6567     6559     6501     6405 
    6307     6234     6196     6162     6096     5998     5896     5830 
    5806     5817     5854     5908     5977     6052     6114     6170 
    6224     6269     6312     6367     6432     6490     6517     6521 
    6517     6498     6455     6405     6362     6316     6259     6216 
    6210     6230     6254     6259     6251     6242     6235     6222 
    6207     6208     6231     6268     6318     6374     6417     6430 
    6408     6370     6338     6322     6326     6349     6381     6412 
    6428     6432     6442     6462     6474     6448     6393     6346 
    6313     6277     6230     6189     6173     6180     6204     6238 
    6269     6289     6308     6327     6335     6334     6334     6336 
    6349     6376     6399     6403     6396     6399     6424     6444 
    6431     6388     6334     6282     6235     6187     6145     6124 
    6141     6189     6234     6246     6216     6158     6097     6075 
    6106     6165     6214     6249     6291     6347     6408     6463 
    6505     6532     6540     6535     6540     6566     6596     6619 
    6632     6625     6589     6534     6463     6367     6255     6147 
    6050     5968     5903     5859     5849     5857     5860     5867 
    5900     5953     6011     6054     6083     6118     6158     6201 
    6262     6335     6394     6427     6442     6444     6444     6451 
    6469     6501     6546     6589     6620     6631     6609     6559 
    6497     6436     6401     6416     6465     6507     6511     6475 
    6427     6382     6328     6255     6176     6112     6077     6064 
    6062     6083     6124     6165     6191     6207     6219     6234 
    6255     6276     6286     6291     6281     6273     6295     6355 
    6419     6458     6473     6462     6446     6434     6409     6363 
    6304     6241     6196     6178     6169     6164     6170     6184 
    6200     6204     6197     6185     6173     6176     6200     6242 
    6281     6297     6293     6281     6262     6243     6237     6251 
    6301     6367     6405     6405     6385     6359     6347     6367 
    6405     6438     6458     6467     6455     6424     6376     6324 
    6284     6265     6276     6301     6323     6331     6322     6285 
    6234     6195     6191     6237     6319     6412     6500     6554 
    6548     6507     6469     6447     6427     6403     6386     6385 
    6390     6390     6367     6319     6262     6223     6216     6249 
    6300     6342     6378     6412     6427     6403     6347     6284 
    6232     6199     6180     6169     6168     6184     6219     6264 
    6297     6304     6299     6301     6322     6353     6382     6390 
    6369     6336     6311     6295     6285     6269     6249     6239 
    6237     6238     6258     6305     6374     6447     6496     6501 
    6463     6392     6316     6270     6259     6274     6296     6295 
    6266     6227     6178     6115     6045     5979     5926     5906 
    5919     5942     5956     5952     5945     5953     5984     6038 
    6103     6174     6251     6318     6357     6388     6427     6463 
    6490     6505     6504     6490     6469     6459     6481     6524 
    6570     6604     6606     6579     6542     6511     6508     6523 
    6525     6508     6486     6469     6463     6469     6466     6436 
    6389     6342     6303     6273     6253     6246     6237     6215 
