Origin Time       2025/06/03 22:18:00
Lat.              41.7
Long.             143.6
Depth. (km)       30
Mag.              5.2
Station Code      AOMH12
Station Lat.      40.5846
Station Long.     141.1547
Station Height(m) -15
Record Time       2025/06/03 22:19:42
Sampling Freq(Hz) 100Hz
Duration Time(s)  120
Dir.              3
Scale Factor      2942(gal)/8224139
Max. Acc. (gal)   0.185
Last Correction   2025/06/03 22:19:43
Memo.             
[...]
  -40220   -40240   -40243   -40246   -40269   -40284   -40259   -40228 
  -40223   -40224   -40220   -40232   -40255   -40254   -40230   -40213 
  -40204   -40200   -40205   -40203   -40184   -40171   -40182   -40201 
  -40223   -40251   -40277   -40285   -40279   -40269   -40247   -40212 
  -40176   -40151   -40144   -40147   -40149   -40157   -40177   -40200 
  -40228   -40251   -40251   -40238   -40232   -40234   -40238   -40243 
  -40243   -40236   -40228   -40235   -40254   -40250   -40219   -40201 
  -40209   -40227   -40243   -40252   -40262   -40270   -40271   -40261 
  -40248   -40231   -40201   -40174   -40173   -40200   -40236   -40261 
  -40274   -40281   -40288   -40285   -40265   -40239   -40223   -40217 
  -40215   -40213   -40211   -40203   -40194   -40198   -40205   -40215 
  -40231   -40236   -40227   -40220   -40215   -40212   -40217   -40221 
  -40220   -40215   -40212   -40211   -40201   -40193   -40201   -40220 
  -40235   -40244   -40250   -40242   -40227   -40224   -40231   -40232 
  -40240   -40257   -40255   -40220   -40189   -40197   -40234   -40273 
  -40284   -40270   -40267   -40277   -40273   -40265   -40284   -40321 
  -40348   -40348   -40327   -40300   -40278   -40255   -40244   -40262 
  -40286   -40292   -40284   -40263   -40238   -40223   -40205   -40184 
  -40178   -40184   -40189   -40193   -40198   -40223   -40266   -40289 
  -40259   -40209   -40198   -40219   -40213   -40185   -40165   -40157 
  -40159   -40166   -40166   -40166   -40166   -40153   -40138   -40142 
  -40161   -40167   -40162   -40162   -40162   -40153   -40151   -40159 
  -40159   -40158   -40171   -40178   -40173   -40174   -40193   -40224 
  -40259   -40282   -40279   -40261   -40254   -40257   -40255   -40251 
  -40248   -40239   -40238   -40247   -40246   -40239   -40246   -40262 
  -40274   -40286   -40292   -40270   -40225   -40198   -40201   -40215 
  -40230   -40251   -40271   -40281   -40288   -40292   -40277   -40269 
  -40288   -40325   -40358   -40373   -40379   -40387   -40375   -40329 
  -40288   -40270   -40258   -40230   -40204   -40204   -40230   -40247 
  -40236   -40211   -40182   -40159   -40157   -40166   -40171   -40178 
  -40203   -40232   -40238   -40221   -40197   -40167   -40142   -40128 
  -40113   -40085   -40068   -40070   -40082   -40105   -40144   -40185 
  -40213   -40228   -40236   -40243   -40250   -40261   -40271   -40271 
  -40252   -40230   -40225   -40231   -40234   -40240   -40251   -40271 
  -40311   -40356   -40382   -40378   -40351   -40332   -40335   -40346 
  -40346   -40339   -40331   -40321   -40304   -40282   -40257   -40232 
  -40235   -40262   -40293   -40319   -40328   -40308   -40275   -40244 
  -40217   -40201   -40219   -40255   -40270   -40250   -40211   -40165 
  -40124   -40104   -40103   -40107   -40124   -40158   -40188   -40207 
  -40220   -40217   -40197   -40170   -40151   -40142   -40139   -40142 
  -40144   -40143   -40149   -40157   -40154   -40161   -40169   -40155 
  -40128   -40112   -40109   -40115   -40126   -40132   -40140   -40159 
  -40185   -40186   -40163   -40151   -40166   -40184   -40180   -40167 
  -40184   -40215   -40232   -40248   -40279   -40313   -40332   -40328 
  -40312   -40305   -40317   -40343   -40374   -40398   -40404   -40379 
  -40339   -40319   -40338   -40365   -40367   -40351   -40335   -40317 
  -40286   -40252   -40243   -40262   -40290   -40315   -40340   -40352 
  -40342   -40320   -40308   -40302   -40309   -40325   -40331   -40331 
  -40343   -40351   -40332   -40298   -40266   -40240   -40231   -40228 
  -40219   -40211   -40208   -40208   -40219   -40246   -40279   -40294 
  -40271   -40238   -40221   -40213   -40211   -40224   -40243   -40244 
  -40238   -40235   -40234   -40231   -40219   -40197   -40196   -40215 
  -40235   -40250   -40251   -40242   -40242   -40232   -40188   -40147 
  -40142   -40150   -40143   -40128   -40113   -40101   -40095   -40095 
  -40097   -40107   -40113   -40104   -40092   -40090   -40085   -40070 
  -40059   -40062   -40088   -40131   -40162   -40161   -40142   -40113 
  -40093   -40096   -40123   -40151   -40165   -40178   -40204   -40224 
  -40221   -40204   -40181   -40176   -40204   -40243   -40273   -40297 
  -40312   -40304   -40285   -40267   -40266   -40282   -40309   -40333 
  -40348   -40352   -40346   -40332   -40331   -40346   -40369   -40393 
  -40401   -40375   -40338   -40315   -40306   -40300   -40300   -40315 
  -40335   -40344   -40344   -40340   -40324   -40298   -40262   -40225 
  -40201   -40186   -40173   -40158   -40143   -40142   -40157   -40176 
  -40197   -40219   -40228   -40228   -40236   -40259   -40294   -40321 
  -40325   -40323   -40325   -40317   -40300   -40296   -40308   -40327 
  -40342   -40343   -40321   -40279   -40246   -40217   -40193   -40188 
  -40205   -40232   -40267   -40285   -40271   -40228   -40176   -40140 
  -40122   -40095   -40069   -40063   -40077   -40092   -40089   -40081 
  -40092   -40112   -40130   -40140   -40136   -40124   -40113   -40100 
  -40074   -40049   -40036   -40041   -40057   -40072   -40089   -40117 
  -40161   -40205   -40230   -40213   -40173   -40144   -40142   -40149 
  -40155   -40173   -40215   -40278   -40343   -40393   -40423   -40440 
  -40444   -40444   -40444   -40435   -40429   -40436   -40446   -40448 
  -40446   -40436   -40414   -40383   -40340   -40293   -40261   -40230 
  -40196   -40176   -40170   -40161   -40150   -40150   -40165   -40180 
  -40176   -40158   -40143   -40134   -40128   -40128   -40126   -40123 
  -40131   -40143   -40153   -40174   -40193   -40190   -40182   -40189 
  -40205   -40212   -40217   -40227   -40227   -40215   -40207   -40211 
  -40227   -40247   -40269   -40297   -40313   -40306   -40301   -40302 
  -40296   -40288   -40288   -40298   -40313   -40325   -40320   -40301 
  -40292   -40304   -40319   -40320   -40317   -40324   -40320   -40275 
  -40204   -40146   -40126   -40124   -40124   -40130   -40158   -40198 
  -40228   -40240   -40243   -40242   -40236   -40235   -40240   -40247 
  -40246   -40246   -40251   -40248   -40232   -40209   -40188   -40182 
  -40190   -40201   -40219   -40242   -40267   -40282   -40271   -40254 
  -40251   -40255   -40257   -40251   -40240   -40232   -40230   -40221 
  -40201   -40182   -40165   -40144   -40136   -40150   -40173   -40177 
  -40151   -40123   -40107   -40089   -40072   -40066   -40082   -40119 
  -40163   -40200   -40225   -40247   -40271   -40292   -40300   -40302 
  -40311   -40315   -40311   -40308   -40306   -40294   -40269   -40247 
  -40243   -40243   -40239   -40243   -40255   -40261   -40265   -40277 
  -40290   -40297   -40292   -40282   -40277   -40271   -40269   -40271 
  -40270   -40271   -40279   -40284   -40274   -40261   -40254   -40266 
  -40285   -40301   -40311   -40311   -40290   -40258   -40228   -40203 
  -40182   -40173   -40173   -40189   -40221   -40252   -40270   -40288 
  -40321   -40358   -40379   -40387   -40389   -40389   -40387   -40385 
  -40373   -40343   -40300   -40259   -40221   -40190   -40166   -40146 
  -40138   -40136   -40122   -40100   -40100   -40122   -40142   -40162 
  -40189   -40209   -40219   -40231   -40247   -40251   -40234   -40205 
  -40181   -40162   -40130   -40074   -40018   -39984   -39987   -40000 
  -40000   -40001   -40012   -40035   -40077   -40128   -40174   -40212 
  -40234   -40244   -40261   -40274   -40274   -40269   -40271   -40267 
  -40247   -40221   -40194   -40173   -40154   -40130   -40104   -40096 
  -40105   -40113   -40120   -40127   -40128   -40126   -40127   -40132 
  -40143   -40167   -40207   -40251   -40296   -40329   -40347   -40347 
  -40339   -40338   -40338   -40315   -40277   -40258   -40259   -40263 
  -40273   -40297   -40329   -40354   -40359   -40356   -40362   -40373 
  -40378   -40374   -40365   -40365   -40375   -40378   -40365   -40348 
  -40331   -40308   -40288   -40277   -40263   -40240   -40224   -40220 
  -40216   -40211   -40213   -40224   -40240   -40255   -40263   -40262 
  -40254   -40246   -40235   -40221   -40209   -40194   -40184   -40180 
  -40169   -40147   -40122   -40101   -40092   -40085   -40076   -40072 
  -40076   -40084   -40096   -40109   -40130   -40154   -40185   -40228 
  -40273   -40304   -40315   -40316   -40316   -40320   -40320   -40312 
  -40306   -40308   -40313   -40331   -40352   -40358   -40347   -40343 
  -40346   -40343   -40320   -40284   -40252   -40235   -40227   -40225 
  -40216   -40197   -40186   -40190   -40197   -40205   -40219   -40240 
  -40263   -40277   -40282   -40273   -40252   -40230   -40204   -40180 
  -40162   -40154   -40167   -40200   -40224   -40235   -40243   -40251 
  -40266   -40289   -40309   -40315   -40323   -40340   -40354   -40350 
  -40339   -40332   -40331   -40338   -40346   -40354   -40358   -40354 
  -40351   -40348   -40339   -40320   -40298   -40277   -40244   -40198 
  -40161   -40142   -40144   -40166   -40181   -40173   -40153   -40128 
  -40100   -40073   -40057   -40063   -40095   -40139   -40178   -40194 
  -40188   -40169   -40153   -40142   -40134   -40128   -40127   -40138 
  -40159   -40182   -40203   -40215   -40211   -40204   -40207   -40219 
  -40232   -40244   -40247   -40239   -40231   -40223   -40209   -40204 
  -40213   -40225   -40236   -40248   -40254   -40261   -40273   -40279 
  -40267   -40238   -40203   -40178   -40166   -40155   -40149   -40153 
  -40163   -40166   -40161   -40153   -40142   -40142   -40159   -40177 
  -40185   -40190   -40198   -40211   -40232   -40261   -40281   -40296 
  -40308   -40316   -40321   -40329   -40338   -40346   -40363   -40378 
  -40383   -40378   -40373   -40378   -40386   -40389   -40387   -40389 
  -40392   -40390   -40382   -40381   -40385   -40375   -40355   -40333 
  -40298   -40251   -40213   -40189   -40178   -40182   -40186   -40170 
  -40146   -40124   -40109   -40105   -40113   -40135   -40170   -40204 
  -40223   -40225   -40220   -40212   -40207   -40207   -40211   -40205 
  -40178   -40146   -40117   -40090   -40069   -40068   -40089   -40131 
  -40182   -40232   -40277   -40306   -40315   -40304   -40289   -40282 
  -40288   -40297   -40306   -40323   -40350   -40370   -40367   -40343 
  -40317   -40297   -40271   -40235   -40204   -40185   -40167   -40154 
  -40138   -40116   -40096   -40082   -40065   -40047   -40036   -40034 
  -40032   -40028   -40023   -40011   -39996   -39988   -39985   -39978 
  -39976   -39987   -40001   -40011   -40018   -40026   -40026   -40035 
  -40072   -40120   -40161   -40190   -40213   -40235   -40257   -40265 
  -40265   -40270   -40289   -40323   -40365   -40396   -40417   -40441 
  -40473   -40497   -40501   -40487   -40475   -40473   -40470   -40464 
  -40458   -40444   -40431   -40425   -40421   -40425   -40436   -40436 
  -40425   -40420   -40417   -40404   -40386   -40374   -40355   -40321 
  -40284   -40248   -40224   -40211   -40189   -40162   -40139   -40117 
  -40101   -40090   -40076   -40051   -40030   -40016   -40011   -40019 
  -40041   -40058   -40061   -40065   -40082   -40096   -40092   -40080 
  -40072   -40077   -40090   -40108   -40128   -40143   -40150   -40157 
  -40159   -40151   -40150   -40161   -40170   -40178   -40186   -40186 
  -40182   -40192   -40207   -40225   -40251   -40279   -40304   -40327 
  -40355   -40386   -40406   -40414   -40417   -40416   -40424   -40440 
  -40444   -40429   -40410   -40398   -40400   -40409   -40414   -40414 
  -40410   -40398   -40382   -40366   -40354   -40332   -40296   -40262 
  -40230   -40193   -40157   -40132   -40117   -40107   -40093   -40077 
  -40057   -40032   -40020   -40026   -40039   -40049   -40047   -40032 
  -40016   -39999   -39984   -39982   -40003   -40039   -40078   -40111 
  -40132   -40151   -40170   -40186   -40196   -40209   -40224   -40223 
  -40220   -40228   -40243   -40265   -40290   -40311   -40331   -40352 
  -40360   -40358   -40360   -40367   -40370   -40367   -40367   -40366 
  -40354   -40331   -40308   -40286   -40267   -40250   -40232   -40216 
  -40213   -40221   -40230   -40234   -40230   -40219   -40221   -40240 
  -40251   -40254   -40258   -40265   -40273   -40278   -40279   -40278 
  -40277   -40277   -40277   -40279   -40285   -40297   -40309   -40311 
  -40305   -40300   -40294   -40292   -40288   -40285   -40293   -40305 
  -40309   -40298   -40270   -40236   -40201   -40161   -40128   -40115 
  -40104   -40096   -40111   -40142   -40169   -40196   -40230   -40266 
  -40296   -40315   -40329   -40352   -40382   -40398   -40401   -40398 
  -40387   -40371   -40355   -40342   -40335   -40340   -40338   -40321 
  -40308   -40298   -40284   -40270   -40255   -40235   -40209   -40180 
  -40158   -40144   -40130   -40132   -40161   -40198   -40236   -40274 
  -40309   -40336   -40346   -40338   -40327   -40323   -40325   -40328 
  -40327   -40317   -40293   -40262   -40224   -40170   -40119   -40080 
  -40047   -40019   -40005   -39996   -39978   -39964   -39969   -39996 
  -40031   -40066   -40099   -40126   -40140   -40135   -40107   -40081 
  -40082   -40101   -40120   -40139   -40165   -40186   -40204   -40227 
  -40255   -40281   -40304   -40313   -40308   -40308   -40311   -40298 
  -40284   -40281   -40274   -40251   -40223   -40197   -40173   -40146 
  -40127   -40119   -40113   -40105   -40096   -40085   -40070   -40055 
  -40054   -40061   -40065   -40063   -40054   -40039   -40031   -40027 
  -40014   -39993   -39976   -39969   -39982   -40011   -40039   -40073 
  -40123   -40182   -40239   -40302   -40363   -40412   -40459   -40513 
  -40568   -40618   -40662   -40698   -40728   -40745   -40747   -40728 
  -40697   -40659   -40618   -40589   -40574   -40558   -40540   -40531 
  -40527   -40521   -40517   -40513   -40495   -40463   -40433   -40410 
  -40386   -40354   -40313   -40270   -40235   -40212   -40192   -40173 
  -40153   -40128   -40104   -40085   -40069   -40045   -40018   -39999 
  -39987   -39974   -39974   -39989   -40011   -40034   -40057   -40080 
  -40100   -40116   -40128   -40134   -40138   -40153   -40180   -40205 
  -40225   -40250   -40273   -40289   -40300   -40305   -40302   -40288 
  -40270   -40263   -40269   -40269   -40258   -40252   -40258   -40261 
  -40258   -40255   -40254   -40250   -40242   -40230   -40213   -40192 
  -40169   -40146   -40123   -40101   -40080   -40055   -40024   -39995 
  -39970   -39953   -39934   -39922   -39926   -39928   -39927   -39934 
  -39945   -39957   -39982   -40014   -40046   -40082   -40117   -40140 
  -40158   -40186   -40208   -40211   -40212   -40220   -40230   -40243 
  -40257   -40271   -40296   -40321   -40342   -40359   -40373   -40382 
  -40394   -40406   -40425   -40451   -40470   -40485   -40495   -40493 
  -40477   -40458   -40440   -40431   -40431   -40429   -40423   -40420 
  -40419   -40401   -40371   -40343   -40321   -40304   -40288   -40270 
  -40252   -40240   -40232   -40228   -40235   -40250   -40261   -40262 
  -40254   -40240   -40219   -40194   -40171   -40155   -40147   -40149 
  -40158   -40173   -40185   -40185   -40186   -40194   -40194   -40180 
  -40157   -40139   -40132   -40135   -40140   -40147   -40157   -40163 
  -40163   -40162   -40161   -40158   -40161   -40180   -40207   -40230 
  -40248   -40263   -40277   -40293   -40302   -40296   -40275   -40250 
  -40219   -40189   -40170   -40166   -40173   -40184   -40192   -40189 
  -40170   -40149   -40131   -40113   -40100   -40097   -40101   -40115 
  -40135   -40149   -40158   -40163   -40163   -40150   -40130   -40111 
  -40084   -40061   -40054   -40057   -40062   -40073   -40090   -40116 
  -40138   -40154   -40162   -40165   -40170   -40188   -40212   -40238 
  -40266   -40298   -40327   -40352   -40381   -40406   -40423   -40439 
  -40459   -40475   -40483   -40487   -40490   -40495   -40493   -40477 
  -40455   -40441   -40433   -40420   -40397   -40375   -40358   -40338 
  -40320   -40298   -40271   -40246   -40225   -40212   -40207   -40204 
  -40197   -40193   -40201   -40213   -40223   -40227   -40236   -40257 
  -40281   -40302   -40324   -40344   -40351   -40347   -40342   -40332 
  -40320   -40311   -40302   -40294   -40293   -40294   -40290   -40281 
  -40273   -40266   -40262   -40262   -40269   -40284   -40302   -40313 
  -40316   -40319   -40325   -40329   -40323   -40312   -40301   -40286 
  -40269   -40250   -40224   -40196   -40169   -40147   -40132   -40119 
  -40099   -40078   -40070   -40070   -40070   -40066   -40065   -40069 
  -40070   -40073   -40084   -40093   -40107   -40130   -40155   -40180 
  -40208   -40236   -40251   -40247   -40236   -40230   -40221   -40211 
  -40201   -40186   -40169   -40157   -40144   -40127   -40103   -40081 
  -40062   -40046   -40039   -40039   -40038   -40043   -40063   -40077 
  -40081   -40085   -40093   -40103   -40111   -40124   -40139   -40151 
  -40163   -40188   -40223   -40257   -40288   -40313   -40329   -40339 
  -40346   -40350   -40356   -40371   -40397   -40425   -40450   -40468 
  -40482   -40490   -40498   -40501   -40494   -40479   -40459   -40440 
  -40429   -40421   -40406   -40393   -40383   -40366   -40336   -40304 
  -40273   -40240   -40205   -40177   -40159   -40149   -40138   -40119 
  -40095   -40073   -40058   -40045   -40030   -40018   -40014   -40014 
  -40011   -40011   -40016   -40019   -40014   -40001   -39989   -39978 
  -39969   -39957   -39950   -39960   -39982   -40009   -40041   -40074 
  -40105   -40128   -40144   -40163   -40190   -40216   -40239   -40266 
  -40296   -40316   -40323   -40325   -40328   -40333   -40340   -40342 
  -40342   -40350   -40365   -40377   -40381   -40382   -40379   -40378 
  -40378   -40386   -40397   -40394   -40379   -40367   -40359   -40346 
  -40321   -40293   -40263   -40234   -40209   -40192   -40185   -40180 
  -40170   -40163   -40161   -40158   -40158   -40169   -40184   -40190 
  -40198   -40208   -40217   -40225   -40232   -40240   -40248   -40254 
  -40258   -40257   -40250   -40247   -40254   -40266   -40278   -40290 
  -40304   -40316   -40332   -40347   -40360   -40371   -40375   -40375 
  -40375   -40378   -40374   -40366   -40354   -40339   -40315   -40290 
  -40270   -40258   -40247   -40238   -40230   -40223   -40220   -40216 
  -40212   -40204   -40197   -40197   -40192   -40174   -40146   -40107 
  -40069   -40046   -40031   -40019   -40008   -40003   -40009   -40022 
  -40034   -40045   -40058   -40081   -40111   -40139   -40157   -40166 
  -40181   -40194   -40200   -40201   -40205   -40213   -40223   -40231 
  -40238   -40244   -40251   -40252   -40259   -40278   -40306   -40329 
  -40351   -40369   -40381   -40386   -40390   -40394   -40394   -40397 
  -40406   -40413   -40417   -40424   -40425   -40409   -40378   -40347 
  -40324   -40309   -40298   -40286   -40267   -40248   -40236   -40225 
  -40217   -40215   -40223   -40238   -40248   -40258   -40262   -40261 
  -40266   -40288   -40316   -40340   -40348   -40346   -40344   -40344 
  -40338   -40327   -40317   -40311   -40300   -40285   -40269   -40255 
  -40242   -40223   -40203   -40185   -40171   -40155   -40143   -40128 
  -40101   -40077   -40063   -40055   -40051   -40054   -40062   -40078 
  -40103   -40124   -40147   -40174   -40197   -40221   -40248   -40267 
  -40278   -40288   -40302   -40315   -40323   -40328   -40331   -40336 
  -40344   -40343   -40335   -40329   -40335   -40342   -40343   -40351 
  -40369   -40379   -40381   -40378   -40381   -40389   -40393   -40392 
