Origin Time       2025/06/03 22:18:00
Lat.              41.7
Long.             143.6
Depth. (km)       30
Mag.              5.2
Station Code      AOMH17
Station Lat.      40.4492
Station Long.     141.3374
Station Height(m) -49.1
Record Time       2025/06/03 22:19:33
Sampling Freq(Hz) 100Hz
Duration Time(s)  120
Dir.              3
Scale Factor      3923(gal)/8224838
Max. Acc. (gal)   0.130
Last Correction   2025/06/03 22:19:34
Memo.             
[...]
    9163     9139     9121     9121     9139     9151     9161     9185 
    9208     9216     9225     9239     9235     9217     9211     9213 
    9211     9204     9205     9221     9232     9235     9246     9256 
    9244     9220     9204     9200     9205     9201     9182     9177 
    9196     9212     9216     9221     9229     9232     9225     9212 
    9194     9174     9163     9166     9185     9201     9205     9205 
    9205     9200     9182     9159     9162     9186     9189     9165 
    9139     9131     9138     9157     9177     9185     9181     9177 
    9177     9180     9185     9186     9178     9173     9178     9193 
    9212     9220     9223     9236     9250     9251     9250     9255 
    9261     9265     9263     9256     9255     9250     9232     9224 
    9219     9207     9197     9196     9202     9205     9193     9186 
    9182     9174     9165     9154     9146     9136     9128     9130 
    9153     9177     9174     9169     9185     9193     9180     9166 
    9167     9175     9173     9167     9190     9236     9270     9270 
    9252     9231     9205     9186     9197     9235     9255     9239 
    9220     9224     9224     9215     9212     9219     9221     9224 
    9227     9231     9232     9234     9239     9232     9208     9193 
    9204     9215     9204     9196     9204     9197     9171     9169 
    9185     9201     9216     9216     9190     9161     9148     9161 
    9188     9201     9196     9188     9189     9182     9150     9123 
    9112     9086     9059     9074     9111     9117     9109     9116 
    9124     9139     9170     9202     9228     9248     9263     9270 
    9262     9256     9275     9298     9285     9254     9244     9251 
    9261     9271     9263     9238     9221     9224     9244     9252 
    9232     9215     9211     9197     9192     9190     9173     9158 
    9159     9171     9182     9185     9175     9167     9177     9198 
    9219     9238     9240     9221     9209     9212     9204     9192 
    9201     9220     9221     9201     9181     9173     9177     9194 
    9209     9208     9213     9234     9244     9247     9242     9216 
    9186     9180     9194     9213     9228     9220     9194     9177 
    9177     9188     9216     9250     9265     9261     9243     9221 
    9231     9269     9286     9262     9240     9240     9242     9242 
    9239     9224     9198     9165     9151     9159     9157     9140 
    9132     9117     9101     9107     9128     9139     9140     9144 
    9147     9143     9142     9144     9140     9138     9151     9161 
    9154     9150     9169     9189     9192     9200     9219     9228 
    9232     9247     9269     9269     9244     9225     9208     9194 
    9196     9196     9197     9197     9184     9177     9188     9193 
    9193     9192     9190     9194     9194     9188     9177     9159 
    9157     9177     9196     9204     9208     9221     9247     9265 
    9274     9279     9266     9243     9236     9259     9283     9277 
    9247     9225     9217     9211     9201     9193     9184     9167 
    9163     9178     9185     9181     9184     9193     9200     9204 
    9198     9193     9204     9215     9209     9204     9208     9201 
    9175     9146     9135     9140     9144     9158     9193     9235 
    9242     9212     9190     9186     9166     9142     9138     9146 
    9158     9167     9166     9165     9170     9170     9161     9163 
    9177     9167     9151     9167     9190     9209     9229     9246 
    9254     9259     9254     9251     9252     9239     9228     9244 
    9262     9258     9247     9239     9223     9207     9207     9209 
    9194     9167     9146     9135     9144     9158     9147     9135 
    9134     9136     9150     9163     9170     9180     9186     9190 
    9208     9224     9228     9235     9255     9267     9263     9259 
    9258     9258     9266     9274     9270     9269     9277     9286 
    9289     9278     9263     9261     9262     9258     9246     9223 
    9205     9198     9188     9169     9157     9150     9140     9138 
    9134     9116     9108     9119     9131     9147     9158     9153 
    9135     9112     9104     9117     9135     9157     9180     9181 
    9155     9117     9099     9101     9104     9111     9119     9130 
    9158     9190     9205     9213     9224     9239     9246     9255 
    9270     9265     9244     9240     9256     9267     9254     9231 
    9227     9225     9217     9217     9221     9220     9227     9221 
    9194     9174     9171     9169     9167     9181     9190     9167 
    9130     9113     9127     9154     9174     9189     9188     9165 
    9153     9170     9198     9213     9205     9194     9200     9213 
    9219     9221     9219     9208     9205     9219     9238     9259 
    9273     9263     9250     9261     9282     9293     9297     9301 
    9304     9294     9265     9240     9244     9255     9261     9256 
    9235     9212     9201     9189     9184     9189     9194     9198 
    9204     9211     9221     9228     9227     9225     9215     9192 
    9173     9163     9169     9184     9188     9174     9157     9146 
    9154     9167     9169     9169     9173     9163     9150     9153 
    9162     9161     9150     9144     9148     9163     9190     9212 
    9209     9189     9181     9193     9202     9202     9200     9197 
    9204     9216     9221     9209     9193     9200     9220     9235 
    9244     9247     9243     9248     9256     9258     9256     9259 
    9259     9247     9236     9242     9251     9250     9243     9242 
    9247     9255     9262     9255     9235     9215     9201     9200 
    9205     9202     9193     9182     9166     9155     9150     9130 
    9107     9104     9107     9099     9108     9131     9151     9185 
    9223     9229     9212     9212     9219     9205     9188     9184 
    9197     9225     9254     9273     9283     9286     9294     9321 
    9344     9331     9288     9239     9205     9196     9198     9190 
    9173     9146     9127     9144     9180     9180     9143     9107 
    9074     9059     9078     9108     9104     9080     9073     9067 
    9049     9039     9053     9078     9089     9092     9121     9155 
    9165     9175     9193     9209     9227     9246     9259     9259 
    9252     9254     9250     9239     9252     9283     9282     9248 
    9228     9235     9250     9266     9282     9283     9273     9270 
    9285     9302     9300     9281     9271     9256     9231     9215 
    9205     9205     9216     9220     9224     9234     9238     9221 
    9185     9151     9136     9128     9138     9166     9186     9188 
    9177     9150     9131     9144     9169     9165     9143     9123 
    9117     9119     9112     9111     9113     9101     9099     9130 
    9169     9202     9211     9189     9174     9194     9235     9262 
    9265     9261     9258     9244     9244     9270     9288     9283 
    9289     9301     9289     9274     9285     9306     9316     9315 
    9321     9339     9355     9363     9351     9327     9310     9297 
    9266     9225     9190     9162     9134     9096     9059     9040 
    9038     9046     9072     9115     9147     9158     9161     9165 
    9154     9119     9074     9035     9018     9039     9086     9121 
    9124     9113     9123     9161     9204     9229     9258     9293 
    9313     9320     9321     9313     9302     9293     9292     9302 
    9309     9309     9313     9309     9315     9329     9321     9296 
    9279     9265     9239     9217     9196     9175     9185     9208 
    9208     9184     9154     9130     9092     9036     8995     8982 
    8991     9011     9043     9089     9112     9089     9067     9081 
    9108     9132     9154     9180     9207     9229     9242     9244 
    9234     9215     9202     9207     9236     9290     9327     9333 
    9333     9325     9297     9283     9304     9313     9293     9278 
    9282     9274     9246     9227     9217     9200     9178     9170 
    9159     9126     9078     9055     9094     9155     9175     9165 
    9153     9144     9147     9153     9138     9131     9150     9169 
    9180     9192     9205     9205     9193     9197     9219     9235 
    9225     9193     9161     9153     9169     9188     9189     9193 
    9216     9232     9235     9240     9240     9213     9169     9143 
    9158     9192     9219     9244     9271     9294     9297     9271 
    9244     9227     9219     9231     9269     9315     9354     9346 
    9281     9211     9166     9148     9151     9159     9165     9163 
    9147     9131     9128     9144     9175     9196     9200     9212 
    9224     9220     9215     9190     9134     9093     9082     9061 
    9047     9078     9126     9151     9180     9205     9200     9177 
    9163     9155     9162     9182     9202     9217     9223     9219 
    9224     9242     9255     9265     9278     9283     9290     9310 
    9333     9356     9371     9371     9350     9312     9281     9251 
    9219     9209     9211     9205     9205     9212     9211     9197 
    9189     9196     9196     9184     9173     9158     9131     9103 
    9084     9063     9032     9009     9024     9073     9127     9163 
    9185     9200     9219     9238     9239     9220     9201     9186 
    9163     9158     9174     9177     9167     9173     9201     9244 
    9271     9269     9267     9273     9266     9269     9290     9290 
    9265     9238     9229     9248     9269     9263     9234     9189 
    9146     9126     9130     9140     9144     9150     9173     9194 
    9181     9151     9140     9153     9171     9181     9188     9181 
    9165     9174     9196     9196     9184     9171     9159     9157 
    9170     9193     9208     9224     9243     9252     9259     9252 
    9240     9248     9252     9228     9205     9189     9170     9163 
    9167     9170     9154     9135     9144     9159     9169     9184 
    9181     9166     9167     9170     9173     9169     9159     9166 
    9186     9197     9198     9204     9228     9265     9289     9301 
    9305     9288     9256     9229     9212     9192     9184     9211 
    9248     9273     9286     9281     9263     9256     9246     9228 
    9219     9216     9219     9224     9228     9235     9228     9197 
    9162     9130     9103     9081     9072     9073     9072     9065 
    9074     9103     9124     9113     9093     9104     9140     9175 
    9196     9190     9180     9185     9211     9242     9259     9271 
    9304     9339     9343     9319     9290     9275     9261     9242 
    9235     9223     9186     9157     9146     9148     9157     9143 
    9104     9090     9121     9171     9211     9220     9205     9200 
    9208     9216     9219     9220     9221     9219     9227     9247 
    9270     9292     9316     9327     9312     9290     9281     9274 
    9270     9281     9304     9305     9270     9235     9219     9202 
    9180     9174     9189     9197     9193     9190     9193     9196 
    9205     9211     9205     9209     9221     9208     9184     9171 
    9170     9173     9165     9138     9105     9081     9065     9051 
    9046     9040     9013     8995     9001     9009     9024     9045 
    9050     9054     9070     9101     9144     9182     9196     9202 
    9224     9252     9267     9270     9259     9235     9217     9221 
    9246     9279     9308     9331     9344     9346     9356     9378 
    9387     9374     9346     9323     9313     9297     9281     9271 
    9256     9239     9220     9197     9193     9213     9212     9184 
    9166     9166     9171     9178     9174     9157     9136     9115 
    9101     9107     9127     9132     9103     9065     9059     9077 
    9097     9136     9188     9212     9219     9247     9288     9316 
    9319     9298     9286     9301     9308     9286     9250     9219 
    9205     9201     9200     9216     9244     9254     9255     9269 
    9289     9302     9313     9327     9340     9350     9339     9312 
    9293     9281     9255     9225     9192     9147     9096     9054 
    9042     9054     9049     9036     9045     9077     9135     9204 
    9242     9243     9234     9216     9189     9165     9139     9108 
    9089     9099     9123     9140     9135     9117     9105     9107 
    9111     9109     9111     9123     9146     9161     9161     9158 
    9147     9132     9131     9140     9165     9193     9200     9204 
    9232     9267     9288     9304     9325     9342     9348     9354 
    9342     9309     9267     9223     9197     9178     9154     9151 
    9167     9161     9147     9154     9150     9123     9097     9092 
    9099     9109     9124     9140     9143     9128     9116     9126 
    9153     9182     9205     9217     9232     9269     9308     9317 
    9305     9294     9278     9251     9234     9246     9265     9267 
    9261     9254     9248     9250     9251     9246     9229     9208 
    9182     9167     9173     9175     9154     9120     9099     9096 
    9113     9147     9175     9197     9231     9282     9336     9379 
    9400     9398     9387     9371     9359     9359     9359     9348 
    9333     9310     9290     9273     9244     9228     9236     9235 
    9209     9158     9094     9045     9008     8978     8957     8937 
    8927     8937     8943     8955     8982     9011     9039     9077 
    9111     9143     9167     9166     9158     9162     9166     9167 
    9173     9175     9177     9184     9202     9234     9250     9252 
    9265     9288     9305     9308     9306     9305     9324     9355 
    9367     9374     9379     9362     9344     9348     9363     9373 
    9371     9373     9378     9364     9343     9321     9292     9256 
    9219     9178     9143     9124     9124     9126     9109     9088 
    9067     9047     9028     9015     9004     8986     8965     8955 
    8958     8958     8950     8938     8931     8947     8976     8993 
    9008     9035     9074     9135     9213     9283     9328     9344 
    9350     9354     9342     9316     9294     9297     9309     9301 
    9288     9290     9286     9265     9259     9269     9266     9262 
    9267     9269     9261     9239     9219     9229     9243     9243 
    9256     9271     9250     9217     9205     9200     9185     9170 
    9163     9158     9139     9116     9104     9117     9155     9185 
    9190     9193     9193     9184     9186     9211     9235     9250 
    9248     9238     9235     9234     9229     9236     9248     9266 
    9310     9359     9381     9387     9397     9405     9401     9393 
    9387     9370     9346     9331     9316     9293     9265     9223 
    9170     9142     9153     9175     9193     9201     9205     9196 
    9174     9165     9169     9140     9082     9030     8988     8965 
    8968     8978     8993     9015     9040     9074     9104     9127 
    9151     9177     9202     9243     9283     9309     9332     9355 
    9367     9375     9370     9356     9350     9329     9304     9300 
    9293     9273     9263     9258     9243     9211     9162     9124 
    9115     9120     9128     9138     9153     9174     9190     9181 
    9159     9148     9144     9135     9109     9077     9053     9038 
    9036     9040     9035     9024     9019     9024     9040     9047 
    9039     9043     9062     9086     9115     9143     9178     9209 
    9223     9229     9251     9273     9270     9256     9244     9215 
    9180     9151     9124     9105     9104     9119     9155     9211 
    9256     9298     9351     9391     9413     9429     9440     9443 
    9439     9436     9445     9450     9447     9455     9455     9417 
    9366     9332     9312     9294     9273     9259     9248     9234 
    9229     9232     9228     9221     9205     9169     9123     9090 
    9062     9039     9024     9011     9001     9001     9000     9004 
    9012     9007     9013     9040     9059     9066     9072     9065 
    9067     9094     9134     9167     9182     9185     9193     9198 
    9202     9207     9207     9200     9177     9142     9113     9093 
    9084     9090     9104     9112     9108     9109     9127     9155 
    9189     9216     9238     9261     9281     9301     9316     9323 
    9324     9321     9336     9362     9370     9352     9335     9325 
    9320     9305     9292     9296     9294     9281     9271     9279 
    9290     9281     9261     9243     9221     9200     9182     9162 
    9148     9142     9144     9159     9178     9198     9225     9248 
    9262     9265     9263     9277     9289     9286     9288     9293 
    9292     9285     9277     9256     9234     9223     9207     9178 
    9165     9167     9163     9146     9115     9089     9082     9066 
    9034     9015     9012     9016     9030     9042     9049     9065 
    9100     9134     9157     9174     9192     9207     9220     9250 
    9290     9308     9304     9298     9288     9273     9254     9238 
    9224     9200     9159     9126     9111     9105     9105     9119 
    9138     9150     9165     9182     9184     9184     9177     9155 
    9143     9144     9144     9153     9161     9158     9166     9192 
    9212     9219     9207     9177     9147     9134     9138     9143 
    9153     9169     9171     9165     9171     9181     9197     9213 
    9223     9234     9242     9243     9243     9238     9228     9225 
    9224     9224     9238     9256     9269     9283     9305     9328 
    9346     9348     9351     9360     9360     9360     9367     9370 
    9371     9382     9396     9400     9390     9377     9346     9298 
    9259     9225     9188     9157     9135     9127     9123     9121 
    9132     9140     9123     9107     9127     9162     9178     9193 
    9216     9227     9225     9220     9211     9204     9196     9181 
    9175     9175     9171     9177     9182     9182     9186     9196 
    9198     9200     9201     9197     9185     9170     9159     9142 
    9112     9099     9107     9093     9066     9050     9036     9020 
    9013     9011     9015     9019     9019     9023     9026     9027 
    9032     9042     9042     9028     9015     9020     9036     9051 
    9063     9074     9094     9128     9171     9219     9261     9292 
    9325     9359     9386     9416     9443     9452     9455     9458 
    9451     9429     9402     9382     9366     9351     9347     9347 
    9342     9340     9343     9339     9327     9308     9288     9269 
    9251     9235     9217     9204     9197     9194     9196     9200 
    9194     9177     9165     9170     9175     9163     9154     9155 
    9153     9144     9146     9153     9159     9166     9174     9196 
    9225     9243     9250     9250     9243     9238     9247     9247 
    9212     9166     9130     9100     9082     9074     9059     9040 
    9027     9023     9030     9032     9038     9053     9069     9092 
    9121     9134     9134     9154     9197     9242     9277     9306 
    9332     9339     9321     9302     9289     9278     9273     9262 
    9231     9202     9200     9216     9239     9266     9289     9294 
