Origin Time       2025/06/03 22:18:00
Lat.              41.7
Long.             143.6
Depth. (km)       30
Mag.              5.2
Station Code      AOMH17
Station Lat.      40.4492
Station Long.     141.3374
Station Height(m) -49.1
Record Time       2025/06/03 22:19:33
Sampling Freq(Hz) 100Hz
Duration Time(s)  120
Dir.              1
Scale Factor      3923(gal)/8224838
Max. Acc. (gal)   0.149
Last Correction   2025/06/03 22:19:34
Memo.             
[...]
   20322    20320    20298    20277    20278    20279    20274    20275 
   20291    20301    20301    20309    20329    20344    20337    20317 
   20299    20281    20271    20275    20271    20252    20239    20236 
   20236    20252    20289    20320    20335    20341    20333    20321 
   20331    20348    20362    20367    20359    20343    20328    20322 
   20335    20351    20348    20325    20306    20306    20313    20318 
   20318    20314    20322    20340    20345    20333    20309    20291 
   20293    20302    20314    20316    20304    20309    20326    20326 
   20325    20336    20325    20305    20309    20313    20317    20339 
   20359    20355    20335    20318    20312    20291    20275    20277 
   20255    20228    20229    20229    20216    20216    20227    20243 
   20264    20270    20262    20262    20256    20250    20252    20252 
   20252    20267    20283    20285    20275    20270    20270    20267 
   20275    20291    20298    20309    20312    20293    20289    20295 
   20289    20290    20295    20297    20313    20316    20299    20304 
   20325    20337    20329    20320    20325    20318    20295    20293 
   20301    20310    20321    20337    20348    20337    20309    20282 
   20256    20241    20244    20252    20271    20290    20289    20283 
   20279    20279    20294    20301    20290    20291    20298    20309 
   20329    20333    20316    20302    20299    20298    20297    20297 
   20295    20293    20291    20291    20290    20282    20278    20279 
   20275    20268    20263    20268    20278    20281    20282    20281 
   20281    20291    20298    20306    20325    20339    20341    20337 
   20336    20352    20366    20363    20352    20347    20355    20355 
   20333    20321    20333    20339    20341    20358    20363    20345 
   20329    20324    20325    20339    20352    20353    20355    20353 
   20343    20332    20328    20331    20340    20340    20314    20289 
   20272    20260    20262    20258    20240    20250    20274    20283 
   20291    20286    20267    20264    20262    20244    20224    20217 
   20228    20233    20220    20208    20196    20194    20217    20235 
   20241    20255    20258    20252    20260    20272    20271    20250 
   20235    20239    20233    20218    20218    20233    20254    20274 
   20297    20312    20310    20309    20316    20320    20325    20344 
   20371    20385    20386    20385    20380    20386    20389    20372 
   20353    20345    20339    20337    20337    20335    20321    20298 
   20279    20277    20281    20286    20289    20287    20287    20282 
   20277    20279    20275    20268    20271    20283    20283    20274 
   20282    20293    20293    20297    20305    20302    20305    20317 
   20318    20304    20290    20281    20282    20297    20298    20286 
   20285    20283    20287    20301    20308    20309    20314    20316 
   20314    20309    20298    20295    20308    20318    20317    20312 
   20316    20329    20333    20337    20332    20310    20301    20297 
   20281    20278    20285    20281    20279    20278    20268    20270 
   20278    20266    20254    20259    20274    20297    20321    20332 
   20333    20331    20339    20349    20347    20339    20335    20317 
   20289    20283    20293    20293    20304    20337    20360    20355 
   20341    20335    20324    20301    20282    20285    20289    20287 
   20285    20264    20239    20239    20250    20255    20260    20260 
   20258    20260    20260    20258    20262    20267    20271    20278 
   20287    20291    20289    20285    20278    20266    20262    20264 
   20254    20244    20241    20244    20267    20289    20287    20291 
   20302    20301    20293    20289    20302    20333    20352    20362 
   20376    20385    20382    20379    20367    20358    20360    20352 
   20339    20335    20322    20306    20308    20304    20289    20289 
   20291    20286    20277    20263    20268    20287    20298    20290 
   20275    20266    20255    20248    20252    20256    20262    20274 
   20286    20297    20299    20293    20294    20314    20337    20353 
   20364    20376    20389    20401    20395    20383    20375    20358 
   20336    20318    20289    20259    20251    20244    20241    20244 
   20244    20256    20267    20255    20235    20232    20252    20275 
   20268    20250    20248    20256    20262    20267    20267    20264 
   20268    20283    20295    20301    20294    20286    20293    20299 
   20295    20283    20271    20275    20293    20293    20278    20268 
   20282    20306    20309    20297    20306    20309    20287    20271 
   20262    20256    20272    20272    20259    20267    20270    20263 
   20271    20277    20285    20304    20313    20313    20309    20305 
   20313    20332    20351    20374    20389    20385    20385    20383 
   20362    20336    20313    20304    20314    20318    20308    20302 
   20302    20299    20314    20345    20367    20372    20359    20332 
   20318    20317    20312    20302    20278    20247    20243    20256 
   20266    20264    20255    20258    20274    20287    20294    20297 
   20301    20310    20326    20337    20326    20308    20306    20312 
   20306    20304    20302    20298    20301    20301    20295    20293 
   20291    20289    20282    20272    20270    20279    20299    20316 
   20309    20282    20256    20255    20285    20302    20302    20305 
   20313    20326    20341    20347    20351    20343    20332    20339 
   20340    20325    20306    20281    20260    20248    20237    20245 
   20263    20267    20255    20228    20205    20210    20223    20223 
   20220    20229    20247    20259    20267    20270    20255    20247 
   20263    20286    20306    20318    20306    20286    20283    20285 
   20285    20289    20285    20272    20258    20251    20262    20287 
   20312    20329    20341    20348    20347    20353    20362    20356 
   20353    20356    20353    20376    20407    20418    20428    20433 
   20421    20422    20426    20421    20416    20401    20389    20398 
   20391    20375    20383    20394    20386    20370    20336    20313 
   20317    20312    20310    20324    20331    20333    20322    20289 
   20264    20255    20243    20232    20220    20210    20214    20229 
   20241    20243    20245    20250    20245    20231    20217    20213 
   20224    20244    20255    20254    20262    20278    20285    20275 
   20258    20248    20263    20285    20293    20297    20294    20283 
   20282    20290    20295    20299    20294    20281    20279    20281 
   20277    20279    20281    20268    20252    20241    20239    20237 
   20233    20227    20218    20214    20216    20213    20209    20210 
   20220    20233    20250    20272    20290    20297    20297    20295 
   20301    20314    20317    20325    20332    20317    20308    20301 
   20274    20272    20310    20344    20359    20352    20343    20341 
   20336    20329    20308    20275    20274    20290    20306    20336 
   20362    20375    20386    20370    20345    20332    20309    20293 
   20304    20305    20290    20279    20274    20278    20285    20287 
   20290    20286    20270    20255    20254    20264    20272    20274 
   20279    20286    20281    20282    20304    20322    20328    20325 
   20329    20343    20355    20366    20371    20351    20310    20290 
   20285    20278    20286    20301    20312    20326    20329    20308 
   20293    20293    20298    20305    20313    20318    20302    20277 
   20285    20305    20308    20313    20309    20274    20247    20258 
   20267    20262    20263    20260    20241    20244    20271    20295 
   20298    20274    20244    20231    20216    20197    20181    20171 
   20175    20186    20186    20196    20229    20263    20298    20333 
   20351    20363    20372    20364    20359    20358    20352    20366 
   20383    20383    20379    20375    20368    20374    20375    20352 
   20328    20320    20308    20302    20314    20308    20281    20264 
   20258    20258    20266    20282    20302    20308    20298    20290 
   20281    20270    20266    20260    20247    20240    20243    20250 
   20272    20301    20333    20366    20371    20341    20305    20282 
   20264    20262    20282    20305    20301    20281    20262    20259 
   20281    20313    20336    20336    20320    20308    20320    20349 
   20371    20380    20385    20376    20349    20321    20317    20329 
   20333    20339    20337    20317    20308    20321    20337    20340 
   20332    20320    20310    20320    20343    20363    20385    20405 
   20397    20376    20364    20331    20264    20205    20179    20175 
   20178    20174    20171    20187    20212    20243    20272    20287 
   20291    20289    20272    20255    20252    20267    20289    20299 
   20287    20258    20243    20255    20281    20304    20318    20324 
   20324    20332    20367    20395    20385    20355    20314    20285 
   20302    20333    20339    20326    20302    20282    20287    20305 
   20329    20355    20372    20375    20362    20344    20322    20293 
   20267    20247    20232    20225    20217    20225    20243    20239 
   20233    20244    20251    20266    20291    20301    20302    20316 
   20325    20305    20270    20250    20243    20239    20240    20244 
   20263    20314    20366    20379    20345    20271    20209    20218 
   20277    20316    20324    20325    20318    20310    20302    20293 
   20294    20301    20293    20283    20271    20255    20267    20287 
   20291    20309    20328    20333    20351    20366    20348    20308 
   20262    20233    20243    20266    20278    20277    20272    20271 
   20281    20295    20297    20274    20248    20243    20259    20291 
   20310    20285    20248    20240    20258    20271    20250    20213 
   20209    20243    20295    20336    20353    20370    20385    20393 
   20406    20407    20399    20402    20389    20364    20364    20368 
   20360    20367    20379    20371    20360    20363    20371    20366 
   20336    20297    20277    20279    20297    20309    20312    20313 
   20317    20325    20336    20331    20305    20293    20302    20289 
   20258    20260    20278    20275    20266    20263    20271    20301 
   20332    20328    20295    20267    20247    20216    20166    20119 
   20116    20166    20218    20233    20227    20206    20183    20187 
   20205    20218    20237    20254    20262    20268    20272    20286 
   20309    20320    20314    20316    20348    20395    20418    20413 
   20389    20360    20348    20349    20363    20385    20394    20401 
   20403    20379    20347    20332    20332    20333    20325    20317 
   20304    20268    20232    20205    20187    20186    20200    20232 
   20278    20306    20321    20347    20375    20395    20407    20413 
   20403    20374    20341    20325    20305    20279    20255    20228 
   20213    20224    20237    20241    20237    20229    20231    20248 
   20267    20290    20309    20305    20286    20285    20306    20310 
   20291    20279    20274    20267    20264    20244    20227    20251 
   20294    20325    20318    20275    20250    20259    20274    20290 
   20304    20308    20312    20312    20316    20325    20321    20324 
   20353    20380    20385    20374    20359    20358    20364    20375 
   20407    20439    20445    20428    20387    20339    20306    20294 
   20290    20278    20256    20244    20258    20277    20267    20243 
   20221    20204    20194    20191    20181    20162    20142    20125 
   20121    20156    20225    20293    20340    20367    20372    20355 
   20326    20308    20295    20279    20263    20258    20275    20295 
   20285    20255    20233    20241    20277    20312    20329    20333 
   20336    20328    20304    20294    20312    20333    20370    20409 
   20414    20403    20410    20413    20386    20335    20283    20255 
   20256    20278    20299    20313    20321    20344    20372    20380 
   20386    20401    20402    20393    20389    20389    20394    20398 
   20383    20367    20370    20379    20391    20394    20360    20324 
   20320    20326    20324    20306    20283    20282    20297    20313 
   20337    20347    20335    20329    20317    20290    20282    20285 
   20271    20255    20251    20235    20202    20194    20208    20228 
   20274    20332    20344    20310    20260    20228    20228    20241 
   20245    20243    20237    20235    20245    20263    20267    20260 
   20271    20299    20318    20332    20352    20366    20368    20376 
   20374    20358    20347    20322    20272    20229    20202    20197 
   20204    20194    20166    20124    20086    20081    20086    20073 
   20065    20081    20105    20119    20117    20127    20147    20163 
   20197    20239    20250    20247    20258    20272    20277    20278 
   20297    20317    20324    20332    20340    20340    20337    20331 
   20318    20299    20294    20322    20352    20360    20375    20387 
   20367    20358    20393    20430    20448    20436    20389    20343 
   20331    20353    20389    20412    20418    20409    20382    20341 
   20297    20270    20274    20295    20314    20306    20271    20244 
   20240    20240    20243    20241    20231    20217    20198    20166 
   20135    20128    20142    20174    20228    20270    20285    20290 
   20291    20306    20352    20394    20402    20407    20429    20452 
   20467    20487    20520    20541    20556    20582    20606    20610 
   20592    20551    20495    20451    20412    20366    20316    20267 
   20245    20244    20241    20239    20229    20224    20232    20241 
   20227    20202    20194    20190    20182    20193    20220    20254 
   20301    20336    20345    20360    20368    20337    20299    20286 
   20297    20325    20349    20358    20362    20359    20349    20341 
   20332    20305    20267    20229    20198    20191    20198    20173 
   20127    20104    20108    20129    20151    20159    20162    20173 
   20205    20236    20228    20194    20175    20191    20231    20262 
   20274    20270    20260    20254    20258    20281    20304    20306 
   20295    20272    20231    20200    20196    20197    20204    20243 
   20314    20371    20375    20343    20309    20283    20270    20260 
   20247    20236    20240    20255    20278    20301    20321    20341 
   20349    20332    20301    20264    20243    20252    20247    20201 
   20173    20190    20209    20217    20228    20229    20227    20240 
   20255    20266    20293    20324    20345    20376    20407    20416 
   20406    20382    20351    20341    20367    20405    20437    20460 
   20470    20455    20420    20387    20393    20422    20445    20455 
   20456    20444    20412    20360    20322    20314    20316    20317 
   20328    20347    20376    20406    20425    20444    20452    20436 
   20417    20406    20403    20397    20359    20299    20251    20216 
   20202    20214    20243    20282    20329    20359    20348    20321 
   20314    20326    20347    20366    20367    20372    20403    20425 
   20425    20421    20416    20402    20376    20340    20309    20287 
   20271    20260    20258    20263    20267    20262    20264    20267 
   20277    20285    20267    20250    20254    20250    20251    20271 
   20272    20237    20200    20193    20202    20202    20202    20212 
   20210    20206    20205    20202    20208    20221    20220    20190 
   20159    20151    20158    20175    20198    20216    20221    20237 
   20267    20294    20304    20314    20329    20329    20317    20304 
   20299    20321    20353    20363    20368    20368    20356    20352 
   20353    20348    20331    20294    20274    20278    20267    20255 
   20254    20244    20240    20237    20220    20204    20218    20268 
   20309    20318    20314    20286    20241    20217    20214    20229 
   20263    20258    20218    20197    20182    20171    20167    20155 
   20143    20131    20097    20070    20062    20065    20077    20090 
   20116    20150    20164    20194    20263    20314    20343    20376 
   20393    20398    20417    20436    20457    20478    20476    20471 
   20463    20457    20472    20488    20501    20524    20540    20540 
   20532    20518    20522    20545    20564    20567    20551    20518 
   20467    20418    20406    20426    20441    20420    20385    20363 
   20349    20352    20379    20401    20420    20440    20426    20395 
   20387    20367    20316    20270    20254    20245    20221    20185 
   20155    20147    20164    20178    20174    20178    20194    20210 
   20229    20233    20229    20236    20229    20217    20214    20202 
   20198    20200    20185    20162    20132    20108    20109    20110 
   20106    20120    20137    20137    20121    20088    20062    20059 
   20074    20085    20096    20105    20116    20151    20210    20270 
   20320    20367    20403    20428    20452    20468    20471    20467 
   20479    20517    20544    20515    20456    20395    20337    20297 
   20275    20267    20268    20252    20229    20227    20220    20204 
   20210    20231    20244    20271    20302    20299    20275    20279 
   20320    20351    20352    20351    20362    20395    20451    20486 
   20490    20487    20479    20460    20448    20432    20398    20362 
   20336    20324    20329    20347    20359    20351    20328    20304 
   20293    20274    20235    20198    20181    20179    20178    20156 
   20123    20108    20106    20112    20139    20179    20213    20245 
   20271    20285    20297    20312    20322    20339    20349    20345 
   20333    20313    20301    20306    20309    20313    20331    20345 
   20356    20371    20372    20352    20335    20325    20320    20318 
   20314    20321    20337    20337    20329    20313    20287    20286 
   20306    20324    20343    20353    20351    20352    20341    20316 
   20314    20349    20394    20428    20436    20422    20409    20393 
   20372    20353    20341    20345    20363    20374    20366    20345 
   20316    20283    20260    20256    20270    20277    20272    20279 
   20297    20309    20318    20325    20328    20341    20379    20414 
   20412    20383    20360    20355    20362    20370    20374    20366 
   20328    20279    20243    20209    20177    20162    20159    20166 
   20186    20209    20208    20170    20125    20112    20117    20117 
   20121    20124    20121    20137    20159    20164    20171    20190 
   20212    20228    20227    20212    20212    20216    20217    20227 
   20228    20217    20218    20225    20228    20231    20217    20202 
   20206    20218    20237    20260    20272    20282    20304    20333 
   20348    20341    20326    20308    20293    20285    20264    20237 
   20232    20244    20245    20239    20235    20241    20240    20210 
   20171    20144    20142    20179    20232    20255    20271    20310 
   20353    20389    20421    20444    20457    20471    20482    20475 
   20464    20461    20456    20453    20467    20470    20470    20483 
   20483    20467    20453    20424    20370    20317    20283    20272 
   20281    20310    20358    20397    20422    20445    20463    20482 
   20488    20472    20461    20456    20426    20386    20367    20370 
