Origin Time       2025/06/03 22:18:00
Lat.              41.7
Long.             143.6
Depth. (km)       30
Mag.              5.2
Station Code      AOMH16
Station Lat.      40.4624
Station Long.     141.0923
Station Height(m) 165
Record Time       2025/06/03 22:19:38
Sampling Freq(Hz) 100Hz
Duration Time(s)  120
Dir.              1
Scale Factor      2942(gal)/8224139
Max. Acc. (gal)   0.183
Last Correction   2025/06/03 22:19:39
Memo.             
[...]
  132031   132038   132038   132034   132027   132003   131984   131998 
  132016   132007   131982   131963   131966   131984   131996   132013 
  132036   132046   132050   132057   132051   132025   131994   131978 
  131988   132015   132040   132047   132023   131988   131974   131984 
  131985   131974   131969   131953   131922   131913   131951   132003 
  132031   132039   132038   132040   132061   132090   132109   132104 
  132082   132073   132077   132079   132081   132078   132066   132036 
  131993   131970   131974   131984   131984   131982   131978   131953 
  131917   131908   131919   131919   131905   131909   131931   131932 
  131911   131901   131912   131915   131909   131913   131926   131938 
  131949   131949   131931   131916   131915   131920   131931   131954 
  131965   131938   131904   131899   131912   131927   131951   131978 
  131988   132000   132020   132016   131988   131967   131961   131951 
  131947   131966   131997   132001   131980   131963   131969   131993 
  132013   132028   132040   132044   132039   132032   132025   132019 
  132019   132027   132035   132054   132082   132096   132084   132062 
  132036   132003   131961   131927   131908   131885   131854   131843 
  131858   131872   131884   131908   131951   132015   132069   132098 
  132111   132102   132067   132030   132013   132025   132054   132079 
  132096   132106   132120   132128   132113   132085   132073   132085 
  132084   132054   132031   132027   132015   131985   131971   131989 
  132003   131994   131988   131989   131981   131950   131922   131911 
  131907   131907   131924   131962   132007   132038   132055   132061 
  132055   132058   132067   132050   132023   132013   132015   132017 
  132007   131980   131971   131989   132003   132000   131985   131976 
  131990   132019   132038   132035   132009   131977   131953   131934 
  131924   131923   131932   131958   131993   132009   131997   131992 
  132011   132021   131996   131955   131930   131924   131930   131943 
  131949   131935   131927   131934   131943   131958   131969   131967 
  131974   132009   132057   132097   132127   132143   132140   132120 
  132092   132071   132059   132039   132016   132015   132027   132027 
  132012   132000   132001   132003   131996   131988   131990   132000 
  132000   131986   131962   131935   131934   131957   131971   131966 
  131953   131944   131950   131965   131980   131978   131961   131944 
  131942   131958   131981   131981   131955   131940   131955   131970 
  131955   131928   131922   131920   131912   131907   131915   131926 
  131931   131934   131935   131936   131953   131977   131992   131997 
  132004   132007   132004   131990   131985   131997   131998   131985 
  131993   132025   132048   132039   132020   132024   132031   132013 
  131994   131986   131958   131920   131920   131942   131959   131973 
  131986   131992   131984   131977   131978   131982   131978   131962 
  131954   131970   131990   132001   131994   131957   131908   131886 
  131899   131939   131985   132007   132019   132036   132047   132040 
  132019   131988   131976   131969   131950   131940   131950   131963 
  131977   131976   131963   131971   132000   132020   132024   132020 
  131992   131958   131961   131989   132007   132015   132035   132058 
  132058   132050   132069   132089   132079   132055   132036   132028 
  132034   132048   132052   132035   132021   132032   132044   132048 
  132057   132066   132061   132039   132009   131980   131953   131932 
  131934   131949   131953   131947   131957   131986   132008   132007 
  132004   132020   132044   132050   132035   132015   132009   132019 
  132017   131997   131982   131989   132003   132007   132009   132013 
  132019   132036   132048   132030   132007   131997   131980   131940 
  131901   131895   131919   131942   131966   132005   132035   132031 
  132021   132027   132019   131997   131990   132001   132008   132005 
  132005   132007   132013   132025   132031   132020   132004   131989 
  131976   131959   131944   131938   131920   131886   131870   131895 
  131932   131965   131989   131993   131990   131998   132003   131990 
  131973   131965   131971   131986   131990   131980   131969   131967 
  131965   131954   131949   131955   131969   131986   132004   132025 
  132032   132019   132017   132039   132057   132058   132059   132075 
  132093   132090   132081   132084   132085   132069   132055   132048 
  132020   131978   131958   131966   131971   131965   131961   131959 
  131961   131970   131970   131962   131957   131944   131922   131911 
  131916   131923   131926   131926   131931   131944   131959   131966 
  131967   131976   131986   131988   131989   131996   131998   132003 
  132016   132034   132055   132057   132024   131994   131996   132019 
  132030   132013   131996   131998   132009   132009   132003   132012 
  132030   132039   132040   132042   132032   132011   131989   131985 
  131990   131989   131997   132005   131994   131982   131969   131946 
  131917   131889   131886   131922   131966   131986   131986   132000 
  132023   132034   132038   132034   132024   132017   132013   132009 
  132001   131992   131992   131996   131990   131985   131981   131961 
  131930   131919   131930   131936   131932   131935   131942   131936 
  131935   131951   131971   131974   131973   131982   131997   132001 
  131998   132008   132019   132009   131989   131985   132007   132038 
  132057   132058   132052   132046   132032   132019   132021   132021 
  132012   132003   131994   132000   132023   132042   132047   132046 
  132038   132024   132020   132042   132078   132098   132098   132092 
  132081   132059   132028   132007   131997   131977   131966   132000 
  132039   132035   132001   131966   131934   131899   131874   131876 
  131895   131912   131911   131911   131932   131970   132003   132016 
  132012   131989   131957   131943   131959   131965   131943   131930 
  131950   131988   132017   132030   132032   132028   132003   131971 
  131957   131953   131938   131919   131911   131908   131907   131904 
  131882   131861   131878   131919   131939   131938   131936   131949 
  131963   131963   131959   131961   131976   132013   132047   132059 
  132061   132038   131982   131939   131953   132012   132051   132035 
  132009   132011   132001   131970   131946   131927   131912   131924 
  131954   131992   132042   132065   132038   132001   131988   131989 
  131978   131976   131997   132009   132000   132000   132020   132032 
  132023   132009   132008   132013   132030   132042   132028   132011 
  132016   132048   132082   132082   132054   132028   132011   131994 
  131982   131965   131942   131920   131886   131863   131874   131895 
  131885   131845   131819   131851   131903   131923   131928   131946 
  131957   131953   131954   131974   132008   132040   132061   132062 
  132048   132030   132017   132024   132065   132098   132089   132057 
  132036   132042   132065   132073   132067   132070   132078   132079 
  132077   132078   132077   132050   132019   132021   132052   132065 
  132036   131978   131913   131878   131907   131973   132021   132047 
  132058   132025   131924   131809   131795   131893   131997   132034 
  132027   132004   131986   132003   132031   132034   132019   132019 
  132042   132086   132125   132140   132140   132124   132105   132102 
  132093   132077   132094   132132   132133   132094   132069   132078 
  132090   132081   132062   132043   132034   132019   131961   131868 
  131774   131708   131697   131758   131866   131954   131965   131911 
  131854   131836   131854   131888   131901   131870   131846   131904 
  132011   132061   132032   131969   131912   131899   131923   131950 
  131947   131913   131885   131885   131897   131915   131954   132019 
  132079   132105   132102   132079   132039   131996   131961   131935 
  131912   131908   131940   132004   132086   132159   132171   132106 
  132021   131969   131931   131893   131886   131924   131971   131986 
  131974   131974   131992   132004   132011   132032   132086   132132 
  132115   132038   131965   131940   131966   132011   132043   132039 
  131985   131907   131851   131853   131890   131912   131917   131919 
  131899   131862   131847   131876   131928   131986   132034   132055 
  132077   132135   132186   132165   132081   132009   131980   131998 
  132058   132111   132135   132155   132173   132156   132106   132047 
  132003   131997   132024   132077   132121   132115   132096   132108 
  132104   132047   131988   131958   131934   131917   131947   131988 
  131966   131907   131857   131828   131842   131905   131966   131970 
  131927   131904   131938   132004   132086   132182   132250   132246 
  132190   132125   132051   131966   131904   131885   131905   131943 
  131974   131986   131978   131984   132032   132086   132097   132070 
  132038   132031   132032   132025   132043   132085   132128   132189 
  132240   132213   132100   131967   131880   131845   131816   131791 
  131808   131873   131953   132040   132127   132209   132291   132332 
  132262   132100   131950   131899   131931   131980   132021   132063 
  132089   132074   132042   132036   132020   131938   131827   131757 
  131749   131782   131846   131934   132023   132069   132057   132012 
  131959   131892   131820   131762   131739   131757   131792   131831 
  131882   131938   131971   131976   131955   131928   131893   131851 
  131823   131823   131857   131936   132050   132129   132125   132077 
  132043   132021   131985   131947   131920   131890   131865   131885 
  131936   131963   131963   131957   131957   131961   131950   131919 
  131908   131951   132013   132063   132108   132131   132104   132030 
  131966   131953   131950   131926   131927   131988   132050   132048 
  132017   132007   131976   131901   131820   131755   131720   131730 
  131768   131816   131907   132055   132213   132302   132306   132270 
  132202   132088   131974   131928   131931   131940   131974   132070 
  132185   132240   132204   132111   132027   131978   131932   131889 
  131886   131911   131924   131939   131988   132054   132092   132090 
  132070   132047   132007   131943   131888   131868   131889   131949 
  132011   132030   132027   132054   132085   132073   132038   132016 
  131993   131961   131965   132017   132071   132094   132093   132073 
  132025   131963   131905   131858   131815   131803   131855   131949 
  132021   132062   132069   132036   131998   131973   131942   131924 
  131969   132061   132132   132173   132186   132148   132086   132071 
  132084   132051   131973   131911   131899   131909   131920   131959 
  132035   132105   132148   132151   132090   131990   131931   131935 
  131951   131934   131926   131966   132030   132088   132117   132088 
  132038   132015   132004   131977   131950   131944   131935   131911 
  131927   131978   131994   131990   132013   132048   132043   132004 
  131992   132012   132021   132036   132088   132158   132200   132219 
  132232   132205   132120   132031   131958   131890   131868   131922 
  131988   132000   131984   131976   131950   131907   131886   131900 
  131909   131912   131953   132030   132074   132071   132077   132104 
  132120   132121   132140   132155   132111   132003   131904   131880 
  131923   131985   132024   132025   132007   131993   131997   131998 
  131962   131881   131796   131773   131819   131873   131903   131931 
  131967   132007   132052   132086   132090   132081   132071   132040 
  131977   131946   132003   132075   132098   132105   132142   132185 
  132213   132219   132194   132136   132074   132043   132046   132052 
  132036   131970   131872   131793   131754   131735   131734   131768 
  131838   131909   131950   131973   132004   132043   132066   132050 
  132028   132058   132129   132177   132179   132174   132150   132075 
  132004   132004   132050   132070   132066   132071   132051   131957 
  131841   131780   131770   131789   131835   131886   131911   131930 
  131966   131974   131932   131895   131878   131857   131831   131849 
  131913   131944   131917   131932   132025   132120   132159   132152 
  132111   132025   131913   131830   131815   131861   131924   131958 
  131955   131943   131924   131873   131792   131726   131699   131697 
  131727   131822   131940   132004   132019   132044   132093   132132 
  132148   132163   132177   132155   132092   132027   131993   131974 
  131944   131917   131932   131982   132017   132019   132017   132020 
  131982   131893   131818   131803   131824   131859   131892   131895 
  131876   131890   131938   131970   131971   131958   131940   131919 
  131913   131950   132007   132040   132036   132009   132000   132025 
  132062   132062   132021   131985   131957   131915   131895   131935 
  131998   132044   132078   132111   132132   132139   132156   132186 
  132178   132142   132139   132169   132186   132173   132125   132054 
  132008   132025   132052   132036   132012   131996   131951   131885 
  131845   131857   131882   131878   131865   131853   131797   131710 
  131661   131664   131674   131701   131750   131803   131858   131912 
  131942   131932   131908   131915   131940   131934   131909   131928 
  132003   132092   132152   132171   132166   132144   132129   132142 
  132171   132209   132267   132351   132444   132503   132502   132459 
  132394   132320   132246   132178   132105   132013   131935   131919 
  131954   131981   131973   131961   131965   131977   132003   132047 
  132077   132079   132082   132096   132088   132036   131977   131938 
  131909   131874   131835   131801   131776   131747   131723   131730 
  131758   131787   131843   131932   132000   132019   131997   131957 
  131935   131950   131985   132016   132047   132097   132167   132220 
  132237   132262   132286   132263   132206   132155   132125   132102 
  132098   132151   132247   132317   132317   132264   132208   132173 
  132167   132154   132092   132015   131966   131951   131939   131911 
  131880   131859   131855   131853   131845   131824   131768   131701 
  131683   131706   131738   131784   131846   131922   131998   132047 
  132075   132090   132081   132074   132094   132100   132062   132016 
  132011   132017   131988   131944   131938   131950   131943   131955 
  131996   132000   131973   131981   132027   132059   132042   132004 
  131988   131963   131922   131889   131866   131861   131896   131957 
  132017   132058   132097   132152   132185   132166   132120   132066 
  132023   132020   132038   132030   131982   131930   131888   131862 
  131847   131850   131889   131967   132039   132081   132092   132063 
  132008   131965   131950   131966   131986   131977   131965   131981 
  131996   131993   131977   131963   131963   131958   131951   131980 
  132019   132009   131959   131939   131958   131958   131924   131903 
  131904   131905   131913   131939   131978   132011   132027   132030 
  132027   132012   131998   131990   131978   131959   131938   131919 
  131923   131957   132015   132089   132163   132210   132217   132194 
  132156   132108   132070   132062   132062   132044   132015   131977 
  131927   131861   131789   131751   131751   131735   131688   131639 
  131599   131575   131583   131627   131696   131760   131804   131820 
  131801   131769   131758   131777   131805   131827   131855   131881 
  131866   131818   131804   131851   131916   131954   131976   132011 
  132051   132066   132065   132096   132159   132221   132262   132274 
  132264   132260   132267   132267   132262   132259   132225   132163 
  132121   132117   132111   132065   132001   131943   131888   131836 
  131805   131822   131874   131924   131947   131947   131957   131994 
  132004   131946   131872   131843   131861   131900   131938   131955 
  131954   131935   131944   132020   132111   132152   132163   132170 
  132170   132156   132138   132124   132128   132150   132163   132148 
  132133   132139   132133   132093   132054   132058   132071   132054 
  132030   132024   132028   132039   132063   132109   132160   132185 
  132166   132111   132055   132021   132005   131989   131970   131959 
  131967   131973   131973   131986   131998   131965   131896   131841 
  131818   131814   131807   131797   131803   131793   131757   131754 
  131807   131863   131905   131946   131981   131994   131990   131997 
  132020   132031   132043   132086   132133   132156   132179   132217 
  132229   132192   132152   132158   132196   132223   132221   132201 
  132160   132100   132048   132024   132004   131971   131942   131934 
  131946   131961   131962   131967   132011   132088   132148   132148 
  132123   132109   132073   131994   131900   131816   131743   131687 
  131660   131656   131650   131653   131656   131625   131593   131598 
  131608   131616   131634   131670   131719   131747   131765   131797 
  131846   131908   131969   131997   131996   131990   131985   131976 
  131986   132032   132100   132179   132268   132340   132358   132358 
  132379   132381   132322   132254   132250   132312   132378   132430 
  132462   132439   132372   132300   132221   132144   132094   132090 
  132105   132084   132038   132020   132031   132046   132059   132047 
  131989   131903   131812   131734   131674   131641   131637   131654 
  131668   131666   131652   131634   131643   131677   131697   131695 
  131720   131796   131882   131940   131980   132031   132075   132097 
  132113   132117   132088   132036   131997   131986   131990   131990 
  132000   132017   132017   132008   132017   132044   132071   132089 
  132090   132078   132077   132098   132119   132125   132148   132200 
  132225   132190   132127   132063   132001   131959   131950   131957 
  131977   132003   132004   131970   131916   131882   131882   131892 
  131893   131905   131919   131913   131907   131909   131912   131919 
  131940   131969   131993   132000   131990   131982   132001   132039 
  132066   132066   132063   132079   132096   132081   132048   132021 
  131997   131962   131915   131884   131905   131980   132058   132111 
  132139   132154   132151   132135   132109   132075   132047   132039 
  132039   132048   132062   132073   132085   132090   132063   132015 
  131986   131989   131990   131971   131936   131919   131923   131919 
  131917   131917   131900   131900   131934   131955   131961   131981 
  132007   132004   131986   131986   132001   131996   131966   131953 
  131953   131928   131889   131863   131849   131830   131809   131811 
  131808   131776   131755   131768   131797   131845   131901   131970 
  132054   132104   132097   132073   132055   132061   132092   132106 
  132090   132070   132065   132071   132066   132055   132067   132093 
  132112   132117   132127   132143   132152   132155   132152   132138 
  132112   132088   132079   132075   132051   132008   131963   131924 
  131890   131876   131890   131916   131944   131970   131966   131931 
  131911   131924   131940   131949   131951   131962   131996   132032 
  132046   132040   132024   132015   132030   132052   132065   132052 
