Origin Time       2025/06/03 22:18:00
Lat.              41.7
Long.             143.6
Depth. (km)       30
Mag.              5.2
Station Code      AOMH06
Station Lat.      40.9664
Station Long.     141.3738
Station Height(m) -95
Record Time       2025/06/03 22:19:25
Sampling Freq(Hz) 100Hz
Duration Time(s)  120
Dir.              3
Scale Factor      2942(gal)/8224139
Max. Acc. (gal)   0.106
Last Correction   2025/06/03 22:19:26
Memo.             
[...]
 -108202  -108180  -108159  -108156  -108178  -108220  -108249  -108257 
 -108270  -108295  -108310  -108303  -108276  -108238  -108216  -108228 
 -108251  -108271  -108287  -108291  -108276  -108267  -108272  -108272 
 -108264  -108264  -108287  -108306  -108305  -108305  -108309  -108294 
 -108265  -108245  -108238  -108232  -108230  -108249  -108272  -108272 
 -108253  -108236  -108216  -108183  -108141  -108114  -108117  -108141 
 -108168  -108182  -108172  -108141  -108116  -108106  -108098  -108095 
 -108108  -108124  -108140  -108166  -108191  -108207  -108217  -108213 
 -108197  -108205  -108245  -108290  -108326  -108349  -108361  -108378 
 -108407  -108432  -108442  -108438  -108419  -108398  -108376  -108357 
 -108344  -108341  -108342  -108324  -108295  -108284  -108275  -108249 
 -108228  -108216  -108210  -108210  -108207  -108187  -108166  -108168 
 -108190  -108213  -108225  -108214  -108197  -108191  -108193  -108193 
 -108183  -108160  -108144  -108149  -108160  -108163  -108164  -108171 
 -108194  -108225  -108229  -108194  -108166  -108171  -108186  -108190 
 -108182  -108159  -108137  -108156  -108193  -108199  -108193  -108203 
 -108225  -108243  -108249  -108248  -108237  -108226  -108237  -108259 
 -108284  -108315  -108341  -108352  -108353  -108341  -108324  -108311 
 -108288  -108248  -108221  -108222  -108232  -108244  -108264  -108274 
 -108265  -108256  -108244  -108213  -108179  -108164  -108160  -108167 
 -108183  -108197  -108203  -108217  -108228  -108230  -108222  -108201 
 -108179  -108168  -108174  -108194  -108217  -108225  -108232  -108249 
 -108259  -108260  -108265  -108272  -108286  -108306  -108315  -108314 
 -108313  -108302  -108287  -108290  -108306  -108310  -108303  -108294 
 -108282  -108275  -108268  -108252  -108224  -108195  -108179  -108184 
 -108193  -108201  -108206  -108203  -108216  -108245  -108255  -108236 
 -108211  -108209  -108229  -108247  -108264  -108280  -108284  -108294 
 -108309  -108321  -108334  -108340  -108330  -108328  -108328  -108314 
 -108290  -108260  -108228  -108207  -108210  -108226  -108236  -108230 
 -108221  -108209  -108193  -108178  -108159  -108139  -108133  -108141 
 -108168  -108217  -108259  -108270  -108264  -108255  -108244  -108247 
 -108270  -108286  -108270  -108256  -108268  -108270  -108247  -108236 
 -108237  -108220  -108198  -108201  -108207  -108199  -108197  -108209 
 -108217  -108221  -108232  -108238  -108228  -108207  -108189  -108182 
 -108198  -108228  -108249  -108265  -108284  -108292  -108288  -108272 
 -108252  -108234  -108222  -108217  -108237  -108270  -108283  -108287 
 -108291  -108280  -108265  -108268  -108270  -108263  -108268  -108294 
 -108310  -108310  -108301  -108271  -108233  -108198  -108167  -108163 
 -108195  -108221  -108218  -108214  -108217  -108216  -108206  -108197 
 -108203  -108226  -108256  -108278  -108286  -108282  -108261  -108241 
 -108240  -108248  -108253  -108264  -108275  -108264  -108241  -108222 
 -108203  -108178  -108162  -108162  -108174  -108190  -108199  -108201 
 -108190  -108180  -108186  -108201  -108202  -108201  -108221  -108234 
 -108222  -108216  -108225  -108218  -108224  -108267  -108306  -108328 
 -108352  -108373  -108368  -108333  -108298  -108286  -108290  -108284 
 -108275  -108287  -108298  -108292  -108295  -108302  -108279  -108249 
 -108249  -108255  -108244  -108247  -108244  -108207  -108178  -108180 
 -108189  -108180  -108163  -108147  -108132  -108113  -108106  -108116 
 -108118  -108122  -108155  -108194  -108203  -108207  -108228  -108243 
 -108249  -108271  -108302  -108315  -108309  -108307  -108319  -108334 
 -108340  -108342  -108345  -108351  -108360  -108364  -108355  -108332 
 -108303  -108284  -108284  -108294  -108291  -108272  -108243  -108207 
 -108182  -108166  -108153  -108149  -108148  -108133  -108124  -108140 
 -108152  -108136  -108116  -108120  -108139  -108149  -108155  -108179 
 -108225  -108260  -108256  -108232  -108222  -108230  -108260  -108302 
 -108319  -108306  -108302  -108319  -108333  -108328  -108290  -108234 
 -108224  -108275  -108337  -108369  -108363  -108329  -108290  -108249 
 -108199  -108149  -108121  -108117  -108126  -108145  -108170  -108193 
 -108217  -108237  -108244  -108236  -108228  -108229  -108247  -108276 
 -108292  -108294  -108317  -108356  -108383  -108391  -108388  -108369 
 -108337  -108305  -108283  -108272  -108274  -108278  -108261  -108222 
 -108197  -108182  -108164  -108145  -108121  -108089  -108072  -108083 
 -108110  -108143  -108162  -108149  -108122  -108106  -108101  -108108 
 -108129  -108157  -108179  -108209  -108253  -108272  -108241  -108203 
 -108191  -108198  -108222  -108252  -108276  -108307  -108345  -108363 
 -108344  -108297  -108233  -108162  -108125  -108139  -108172  -108203 
 -108222  -108222  -108224  -108225  -108213  -108199  -108189  -108160 
 -108121  -108117  -108155  -108194  -108216  -108229  -108234  -108232 
 -108222  -108206  -108198  -108207  -108225  -108260  -108328  -108394 
 -108417  -108410  -108392  -108367  -108356  -108361  -108361  -108371 
 -108419  -108476  -108494  -108461  -108403  -108342  -108295  -108267 
 -108259  -108263  -108261  -108259  -108271  -108272  -108236  -108162 
 -108089  -108049  -108040  -108047  -108068  -108106  -108135  -108135 
 -108118  -108091  -108058  -108031  -108028  -108055  -108108  -108160 
 -108209  -108253  -108282  -108283  -108275  -108286  -108314  -108329 
 -108325  -108319  -108324  -108342  -108372  -108378  -108353  -108338 
 -108342  -108344  -108324  -108288  -108255  -108228  -108206  -108193 
 -108190  -108206  -108216  -108203  -108187  -108176  -108168  -108168 
 -108189  -108216  -108220  -108207  -108193  -108167  -108143  -108121 
 -108110  -108130  -108167  -108203  -108238  -108255  -108234  -108198 
 -108176  -108175  -108182  -108187  -108195  -108210  -108238  -108270 
 -108287  -108286  -108282  -108288  -108288  -108274  -108253  -108236 
 -108232  -108245  -108261  -108268  -108272  -108284  -108297  -108298 
 -108295  -108294  -108305  -108329  -108353  -108368  -108352  -108298 
 -108236  -108198  -108184  -108179  -108184  -108194  -108190  -108186 
 -108194  -108197  -108186  -108176  -108171  -108179  -108211  -108255 
 -108301  -108337  -108346  -108338  -108325  -108290  -108229  -108168 
 -108143  -108153  -108186  -108229  -108259  -108263  -108271  -108291 
 -108284  -108237  -108189  -108167  -108174  -108210  -108253  -108257 
 -108230  -108229  -108249  -108265  -108288  -108307  -108305  -108303 
 -108314  -108309  -108271  -108216  -108176  -108184  -108241  -108315 
 -108379  -108423  -108437  -108425  -108396  -108340  -108257  -108184 
 -108148  -108136  -108145  -108182  -108237  -108279  -108303  -108319 
 -108319  -108282  -108234  -108218  -108229  -108244  -108263  -108274 
 -108279  -108299  -108330  -108346  -108340  -108315  -108287  -108263 
 -108248  -108240  -108224  -108213  -108221  -108226  -108203  -108167 
 -108136  -108114  -108122  -108160  -108186  -108194  -108193  -108172 
 -108152  -108163  -108189  -108207  -108216  -108213  -108209  -108209 
 -108216  -108222  -108218  -108209  -108205  -108221  -108238  -108234 
 -108240  -108264  -108279  -108283  -108276  -108268  -108267  -108263 
 -108249  -108236  -108233  -108244  -108249  -108237  -108226  -108225 
 -108221  -108216  -108207  -108187  -108172  -108174  -108163  -108129 
 -108098  -108078  -108079  -108103  -108116  -108105  -108106  -108130 
 -108167  -108217  -108271  -108317  -108349  -108376  -108396  -108407 
 -108410  -108413  -108402  -108367  -108318  -108268  -108229  -108199 
 -108163  -108118  -108091  -108094  -108120  -108145  -108148  -108130 
 -108109  -108093  -108091  -108103  -108133  -108179  -108226  -108272 
 -108303  -108297  -108271  -108260  -108255  -108247  -108245  -108265 
 -108306  -108346  -108379  -108396  -108417  -108453  -108480  -108473 
 -108448  -108423  -108413  -108409  -108392  -108365  -108340  -108315 
 -108276  -108218  -108152  -108082  -108022  -108001  -108020  -108049 
 -108067  -108066  -108048  -108032  -108036  -108063  -108102  -108163 
 -108252  -108338  -108398  -108436  -108434  -108403  -108371  -108349 
 -108338  -108334  -108337  -108353  -108359  -108340  -108306  -108256 
 -108214  -108206  -108226  -108260  -108299  -108332  -108349  -108341 
 -108301  -108248  -108210  -108201  -108224  -108265  -108294  -108284 
 -108261  -108256  -108249  -108213  -108163  -108135  -108132  -108147 
 -108182  -108206  -108198  -108195  -108218  -108236  -108236  -108225 
 -108201  -108170  -108159  -108186  -108225  -108251  -108268  -108276 
 -108260  -108224  -108190  -108187  -108207  -108228  -108236  -108236 
 -108240  -108240  -108216  -108175  -108132  -108093  -108074  -108079 
 -108109  -108148  -108171  -108167  -108149  -108139  -108130  -108132 
 -108151  -108164  -108160  -108152  -108145  -108144  -108162  -108187 
 -108202  -108213  -108229  -108255  -108292  -108334  -108365  -108371 
 -108359  -108346  -108336  -108314  -108288  -108274  -108272  -108279 
 -108295  -108328  -108369  -108407  -108402  -108359  -108321  -108295 
 -108257  -108220  -108194  -108162  -108139  -108145  -108153  -108152 
 -108180  -108224  -108256  -108287  -108309  -108311  -108314  -108305 
 -108267  -108228  -108207  -108197  -108194  -108214  -108247  -108268 
 -108278  -108279  -108272  -108252  -108221  -108203  -108218  -108241 
 -108264  -108298  -108329  -108349  -108371  -108405  -108423  -108418 
 -108413  -108413  -108396  -108360  -108315  -108276  -108251  -108238 
 -108232  -108222  -108214  -108214  -108222  -108226  -108220  -108198 
 -108170  -108159  -108171  -108170  -108137  -108086  -108041  -108017 
 -108010  -108025  -108052  -108064  -108074  -108093  -108113  -108130 
 -108148  -108166  -108187  -108213  -108256  -108313  -108353  -108372 
 -108383  -108392  -108386  -108353  -108318  -108298  -108279  -108265 
 -108271  -108295  -108322  -108336  -108324  -108286  -108241  -108206 
 -108186  -108195  -108253  -108328  -108369  -108373  -108342  -108283 
 -108226  -108179  -108132  -108089  -108060  -108036  -108009  -108001 
 -108006  -108016  -108043  -108087  -108133  -108176  -108213  -108233 
 -108244  -108248  -108245  -108244  -108245  -108241  -108234  -108229 
 -108222  -108232  -108267  -108306  -108326  -108330  -108332  -108341 
 -108359  -108372  -108384  -108409  -108429  -108437  -108450  -108456 
 -108430  -108379  -108326  -108283  -108252  -108253  -108288  -108317 
 -108321  -108305  -108264  -108218  -108195  -108195  -108207  -108232 
 -108265  -108306  -108346  -108375  -108380  -108353  -108309  -108274 
 -108248  -108220  -108190  -108156  -108114  -108068  -108024  -108004 
 -108029  -108083  -108132  -108168  -108205  -108241  -108261  -108263 
 -108271  -108295  -108318  -108336  -108351  -108355  -108341  -108314 
 -108283  -108255  -108221  -108167  -108105  -108063  -108043  -108043 
 -108059  -108074  -108087  -108102  -108108  -108108  -108113  -108122 
 -108129  -108139  -108162  -108199  -108220  -108197  -108155  -108122 
 -108116  -108137  -108170  -108184  -108186  -108191  -108205  -108216 
 -108209  -108183  -108172  -108203  -108260  -108313  -108353  -108384 
 -108399  -108388  -108355  -108322  -108307  -108302  -108294  -108290 
 -108286  -108276  -108276  -108298  -108322  -108334  -108341  -108341 
 -108330  -108324  -108333  -108348  -108359  -108371  -108382  -108378 
 -108355  -108325  -108292  -108249  -108206  -108194  -108211  -108229 
 -108244  -108257  -108256  -108234  -108211  -108211  -108238  -108283 
 -108324  -108332  -108306  -108263  -108218  -108189  -108187  -108203 
 -108224  -108248  -108275  -108286  -108286  -108292  -108290  -108274 
 -108261  -108257  -108263  -108271  -108271  -108259  -108244  -108233 
 -108225  -108218  -108201  -108178  -108149  -108116  -108093  -108095 
 -108113  -108118  -108108  -108095  -108093  -108094  -108099  -108114 
 -108141  -108178  -108211  -108233  -108243  -108233  -108201  -108159 
 -108129  -108132  -108160  -108190  -108224  -108253  -108252  -108251 
 -108279  -108295  -108283  -108268  -108260  -108261  -108283  -108314 
 -108332  -108326  -108291  -108233  -108168  -108112  -108079  -108066 
 -108060  -108071  -108095  -108109  -108118  -108137  -108162  -108201 
 -108270  -108355  -108426  -108477  -108499  -108504  -108506  -108500 
 -108480  -108448  -108410  -108368  -108332  -108299  -108261  -108226 
 -108202  -108186  -108164  -108137  -108109  -108085  -108064  -108045 
 -108018  -108000  -108008  -108041  -108086  -108136  -108178  -108205 
 -108229  -108249  -108259  -108264  -108271  -108272  -108276  -108298 
 -108330  -108357  -108364  -108360  -108355  -108338  -108310  -108283 
 -108257  -108236  -108224  -108225  -108240  -108256  -108265  -108279 
 -108306  -108329  -108344  -108352  -108351  -108352  -108357  -108356 
 -108355  -108357  -108355  -108332  -108301  -108282  -108275  -108265 
 -108248  -108214  -108176  -108162  -108164  -108166  -108164  -108164 
 -108157  -108152  -108156  -108159  -108148  -108129  -108110  -108101 
 -108102  -108114  -108132  -108147  -108162  -108174  -108187  -108197 
 -108193  -108194  -108205  -108220  -108237  -108245  -108241  -108244 
 -108249  -108241  -108233  -108228  -108207  -108179  -108157  -108133 
 -108116  -108102  -108085  -108068  -108063  -108075  -108101  -108126 
 -108151  -108191  -108252  -108325  -108392  -108446  -108480  -108498 
 -108506  -108504  -108499  -108503  -108522  -108534  -108531  -108522 
 -108507  -108473  -108414  -108346  -108287  -108238  -108207  -108197 
 -108186  -108176  -108183  -108193  -108194  -108190  -108182  -108168 
 -108159  -108160  -108166  -108170  -108171  -108178  -108189  -108198 
 -108201  -108195  -108189  -108182  -108179  -108175  -108167  -108172 
 -108193  -108205  -108202  -108197  -108190  -108179  -108167  -108163 
 -108167  -108176  -108182  -108193  -108213  -108222  -108206  -108183 
 -108160  -108136  -108125  -108133  -108147  -108163  -108175  -108175 
 -108172  -108178  -108186  -108201  -108225  -108249  -108268  -108295 
 -108324  -108338  -108346  -108353  -108346  -108346  -108357  -108360 
 -108349  -108334  -108315  -108307  -108310  -108305  -108286  -108256 
 -108222  -108199  -108194  -108202  -108213  -108216  -108210  -108205 
 -108203  -108193  -108175  -108180  -108210  -108233  -108247  -108270 
 -108286  -108283  -108278  -108268  -108240  -108205  -108183  -108187 
 -108213  -108237  -108240  -108236  -108257  -108301  -108329  -108338 
 -108348  -108349  -108340  -108336  -108330  -108310  -108276  -108229 
 -108180  -108151  -108141  -108135  -108140  -108162  -108179  -108190 
 -108206  -108222  -108236  -108256  -108286  -108321  -108360  -108384 
 -108378  -108351  -108330  -108311  -108286  -108260  -108240  -108229 
 -108220  -108206  -108198  -108199  -108199  -108203  -108203  -108187 
 -108168  -108162  -108156  -108141  -108133  -108140  -108163  -108198 
 -108230  -108248  -108245  -108228  -108211  -108195  -108174  -108152 
 -108132  -108121  -108126  -108145  -108162  -108167  -108174  -108198 
 -108236  -108275  -108306  -108322  -108325  -108330  -108338  -108336 
 -108321  -108301  -108271  -108243  -108228  -108221  -108218  -108222 
 -108237  -108255  -108271  -108294  -108324  -108340  -108340  -108338 
 -108332  -108329  -108338  -108349  -108352  -108352  -108351  -108334 
 -108303  -108259  -108202  -108155  -108128  -108110  -108098  -108103 
 -108120  -108139  -108151  -108156  -108162  -108166  -108164  -108174 
 -108195  -108220  -108233  -108240  -108237  -108229  -108220  -108207 
 -108184  -108159  -108135  -108117  -108106  -108105  -108114  -108133 
 -108153  -108164  -108167  -108178  -108201  -108214  -108228  -108259 
 -108295  -108330  -108365  -108396  -108421  -108430  -108423  -108425 
 -108436  -108441  -108446  -108463  -108476  -108473  -108459  -108445 
 -108437  -108427  -108410  -108386  -108360  -108341  -108322  -108301 
 -108280  -108270  -108272  -108286  -108292  -108286  -108261  -108225 
 -108193  -108176  -108163  -108143  -108128  -108130  -108147  -108160 
 -108151  -108125  -108116  -108114  -108103  -108095  -108079  -108052 
 -108045  -108056  -108049  -108027  -108014  -108014  -108016  -108017 
 -108022  -108032  -108052  -108079  -108097  -108105  -108117  -108136 
 -108157  -108179  -108191  -108199  -108217  -108245  -108275  -108294 
 -108302  -108309  -108325  -108344  -108368  -108402  -108433  -108446 
 -108445  -108444  -108441  -108423  -108395  -108371  -108352  -108344 
 -108352  -108371  -108386  -108380  -108357  -108319  -108272  -108230 
 -108197  -108172  -108166  -108170  -108167  -108153  -108133  -108106 
 -108075  -108052  -108044  -108054  -108072  -108091  -108114  -108135 
 -108143  -108148  -108162  -108182  -108210  -108238  -108259  -108274 
 -108290  -108302  -108302  -108290  -108276  -108270  -108267  -108265 
 -108259  -108244  -108228  -108224  -108228  -108236  -108247  -108255 
 -108252  -108248  -108252  -108265  -108276  -108275  -108268  -108260 
 -108253  -108247  -108232  -108217  -108218  -108225  -108218  -108206 
 -108194  -108184  -108174  -108166  -108163  -108164  -108174  -108194 
 -108210  -108216  -108217  -108216  -108216  -108230  -108247  -108252 
 -108253  -108259  -108265  -108274  -108278  -108276  -108275  -108283 
 -108306  -108333  -108352  -108352  -108336  -108313  -108290  -108271 
 -108257  -108255  -108267  -108286  -108303  -108317  -108322  -108322 
 -108315  -108310  -108318  -108337  -108342  -108325  -108291  -108252 
 -108216  -108194  -108183  -108175  -108176  -108198  -108224  -108229 
 -108216  -108190  -108164  -108159  -108170  -108176  -108184  -108201 
 -108217  -108225  -108218  -108195  -108168  -108151  -108148  -108162 
 -108180  -108191  -108193  -108197  -108203  -108202  -108195  -108197 
 -108214  -108247  -108283  -108294  -108276  -108264  -108271  -108291 
 -108314  -108336  -108352  -108361  -108379  -108400  -108400  -108384 
 -108373  -108364  -108345  -108329  -108305  -108270  -108248  -108252 
 -108271  -108288  -108295  -108294  -108291  -108283  -108270  -108255 
 -108237  -108216  -108199  -108203  -108214  -108211  -108197  -108179 
 -108163  -108149  -108133  -108121  -108116  -108109  -108101  -108105 
 -108113  -108109  -108098  -108091  -108097  -108112  -108126  -108144 
 -108162  -108172  -108193  -108226  -108264  -108292  -108311  -108317 
 -108309  -108294  -108280  -108264  -108249  -108252  -108260  -108263 
 -108264  -108260  -108248  -108240  -108233  -108232  -108244  -108257 
 -108263  -108274  -108288  -108292  -108292  -108309  -108340  -108368 
 -108386  -108382  -108367  -108348  -108318  -108284  -108253  -108217 
 -108190  -108189  -108214  -108238  -108247  -108245  -108234  -108222 
 -108214  -108211  -108218  -108236  -108255  -108265  -108271  -108278 
 -108286  -108290  -108286  -108284  -108292  -108297  -108297  -108301 
 -108302  -108303  -108302  -108302  -108305  -108306  -108310  -108319 
 -108328  -108325  -108306  -108283  -108265  -108248  -108234  -108229 
 -108224  -108210  -108190  -108175  -108170  -108159  -108143  -108133 
 -108125  -108113  -108106  -108108  -108114  -108114  -108110  -108112 
 -108114  -108110  -108091  -108060  -108033  -108018  -108021  -108041 
