Origin Time       2025/06/03 22:18:00
Lat.              41.7
Long.             143.6
Depth. (km)       30
Mag.              5.2
Station Code      AOMH13
Station Lat.      40.5794
Station Long.     141.4451
Station Height(m) -140
Record Time       2025/06/03 22:19:25
Sampling Freq(Hz) 100Hz
Duration Time(s)  120
Dir.              1
Scale Factor      2942(gal)/8224139
Max. Acc. (gal)   0.197
Last Correction   2025/06/03 22:19:26
Memo.             
[...]
   45010    45006    45004    45000    44982    44960    44950    44949 
   44948    44950    44946    44936    44944    44952    44932    44896 
   44875    44867    44878    44929    45022    45114    45162    45164 
   45122    45053    44988    44950    44936    44934    44941    44946 
   44944    44922    44883    44867    44882    44910    44959    45018 
   45069    45114    45146    45156    45150    45137    45112    45073 
   45023    44976    44940    44914    44903    44906    44918    44929 
   44944    44961    44960    44942    44936    44936    44937    44949 
   44972    44987    45004    45036    45069    45106    45137    45141 
   45106    45063    45041    45025    44987    44944    44926    44934 
   44950    44953    44937    44903    44857    44828    44828    44824 
   44786    44736    44695    44676    44685    44722    44788    44876 
   44967    45046    45102    45115    45095    45073    45085    45134 
   45184    45207    45222    45242    45254    45238    45198    45148 
   45096    45054    45041    45048    45045    45036    45026    45036 
   45088    45169    45230    45246    45223    45180    45127    45072 
   45029    45002    44971    44937    44922    44914    44894    44864 
   44832    44806    44793    44778    44770    44786    44805    44814 
   44845    44902    44953    44999    45042    45077    45106    45130 
   45150    45176    45215    45256    45262    45226    45175    45144 
   45129    45096    45056    45036    45030    45027    45014    44976 
   44945    44950    44984    45021    45036    45023    45015    45025 
   45033    45025    45006    44990    44973    44963    44975    45006 
   45034    45027    44973    44909    44883    44891    44914    44950 
   44984    44992    44975    44934    44882    44829    44783    44771 
   44822    44923    45022    45079    45084    45061    45021    44955 
   44879    44825    44806    44815    44838    44860    44884    44914 
   44952    44988    45033    45091    45153    45210    45249    45269 
   45276    45260    45237    45247    45284    45324    45349    45339 
   45293    45230    45153    45067    44996    44965    44963    44961 
   44964    44968    44959    44946    44936    44909    44869    44834 
   44809    44802    44810    44797    44744    44691    44683    44716 
   44755    44786    44830    44895    44963    45015    45027    45003 
   44982    44987    45006    45022    45027    45037    45073    45127 
   45169    45173    45150    45129    45119    45107    45098    45103 
   45111    45118    45117    45102    45080    45046    44988    44922 
   44878    44860    44868    44895    44923    44933    44929    44923 
   44917    44911    44903    44880    44857    44875    44941    45021 
   45092    45152    45196    45216    45187    45098    44995    44926 
   44887    44848    44801    44759    44732    44716    44705    44694 
   44698    44739    44822    44940    45064    45165    45238    45297 
   45358    45416    45447    45435    45387    45337    45306    45279 
   45237    45184    45142    45126    45131    45152    45162    45145 
   45127    45126    45122    45110    45096    45077    45044    44998 
   44948    44925    44945    44984    45017    45046    45065    45050 
   44988    44892    44797    44734    44714    44725    44734    44732 
   44734    44757    44797    44836    44872    44905    44941    44973 
   44979    44950    44895    44832    44782    44763    44787    44868 
   44990    45117    45227    45306    45335    45324    45296    45256 
   45191    45107    45021    44956    44929    44934    44965    45022 
   45091    45157    45216    45268    45292    45292    45279    45254 
   45234    45218    45193    45165    45134    45100    45068    45046 
   45045    45064    45079    45054    44994    44937    44896    44864 
   44844    44840    44829    44799    44761    44737    44740    44771 
   44829    44910    45002    45084    45142    45164    45146    45106 
   45042    44938    44825    44771    44795    44859    44928    44995 
   45058    45114    45156    45184    45202    45198    45181    45176 
   45179    45168    45158    45181    45235    45307    45380    45419 
   45396    45328    45250    45180    45127    45091    45048    45007 
   44996    44992    44969    44937    44894    44826    44761    44718 
   44694    44674    44651    44636    44631    44626    44633    44656 
   44674    44683    44697    44726    44790    44884    44975    45011 
   44990    44955    44929    44909    44905    44917    44941    44980 
   45018    45045    45060    45056    45050    45060    45075    45090 
   45117    45149    45177    45203    45227    45239    45237    45241 
   45268    45293    45301    45292    45258    45202    45138    45099 
   45100    45123    45146    45160    45149    45112    45057    45004 
   44979    44971    44956    44937    44919    44896    44864    44821 
   44763    44698    44647    44639    44679    44741    44821    44919 
   45006    45040    45036    45037    45049    45061    45056    45021 
   44963    44899    44860    44860    44872    44879    44896    44946 
   45019    45091    45148    45183    45189    45162    45111    45063 
   45042    45057    45108    45169    45189    45156    45107    45060 
   45003    44945    44894    44853    44840    44844    44836    44798 
   44734    44690    44699    44748    44795    44837    44883    44932 
   44984    45034    45065    45067    45048    45023    45011    45011 
   45014    45015    45029    45076    45145    45200    45234    45265 
   45295    45306    45291    45256    45204    45138    45053    44955 
   44856    44784    44768    44814    44879    44911    44919    44941 
   44980    45010    45026    45050    45087    45117    45133    45134 
   45112    45069    45029    45000    44980    44968    44971    44992 
   45029    45048    45011    44944    44896    44888    44894    44898 
   44917    44956    44994    45009    45010    45022    45053    45085 
   45094    45071    45033    44992    44946    44890    44825    44760 
   44718    44717    44763    44842    44928    45009    45094    45157 
   45180    45175    45160    45135    45096    45063    45045    45011 
   44955    44909    44899    44928    44977    45022    45057    45091 
   45108    45085    45021    44952    44895    44852    44840    44856 
   44878    44902    44937    44975    45022    45076    45121    45157 
   45196    45233    45258    45291    45327    45341    45323    45285 
   45253    45245    45252    45254    45252    45242    45215    45172 
   45122    45067    45003    44949    44914    44882    44853    44838 
   44825    44809    44801    44786    44759    44744    44756    44784 
   44814    44832    44837    44849    44878    44892    44883    44857 
   44838    44842    44864    44892    44932    44975    45017    45058 
   45095    45126    45148    45141    45118    45102    45080    45046 
   45021    45018    45030    45030    44995    44948    44910    44882 
   44864    44859    44848    44830    44829    44848    44876    44913 
   44949    44980    45010    45037    45056    45067    45061    45029 
   44976    44917    44861    44833    44840    44867    44913    44971 
   45018    45050    45077    45103    45130    45144    45135    45126 
   45123    45118    45111    45112    45118    45127    45158    45206 
   45252    45280    45277    45245    45208    45181    45162    45146 
   45127    45117    45122    45133    45127    45111    45104    45114 
   45129    45141    45138    45118    45085    45041    44996    44971 
   44960    44955    44944    44917    44896    44905    44942    44968 
   44949    44894    44844    44825    44830    44847    44863    44876 
   44886    44883    44869    44869    44898    44959    45037    45103 
   45137    45139    45121    45107    45100    45083    45050    45014 
   44994    44994    44998    44995    44984    44964    44948    44953 
   44964    44971    44980    44980    44969    44952    44923    44896 
   44902    44946    45022    45103    45172    45223    45254    45257 
   45229    45184    45134    45095    45071    45057    45049    45042 
   45040    45042    45041    45027    45000    44983    44987    45003 
   45041    45088    45107    45098    45088    45085    45095    45123 
   45165    45198    45206    45175    45114    45052    45002    44967 
   44949    44950    44953    44932    44892    44861    44847    44848 
   44875    44914    44946    44977    45010    45030    45041    45046 
   45044    45031    45025    45029    45033    45026    45022    45026 
   45040    45058    45075    45088    45111    45137    45157    45171 
   45172    45162    45142    45099    45036    44968    44915    44882 
   44852    44811    44771    44755    44755    44748    44726    44707 
   44712    44751    44815    44890    44949    44984    45010    45026 
   45021    45007    44998    44983    44969    44967    44968    44977 
   45009    45046    45079    45098    45104    45111    45119    45121 
   45117    45107    45094    45069    45034    45010    44999    44986 
   44973    44965    44946    44914    44887    44883    44895    44913 
   44928    44938    44955    44991    45037    45071    45092    45103 
   45095    45067    45023    44963    44882    44786    44717    44698 
   44706    44726    44764    44815    44871    44929    44982    45021 
   45050    45076    45096    45112    45122    45122    45121    45131 
   45152    45180    45219    45254    45272    45283    45285    45280 
   45274    45268    45250    45222    45198    45185    45181    45172 
   45156    45133    45110    45091    45069    45041    44991    44929 
   44887    44857    44814    44767    44737    44726    44734    44761 
   44791    44824    44856    44882    44903    44930    44959    44995 
   45031    45049    45054    45068    45084    45103    45130    45168 
   45204    45234    45237    45198    45130    45061    45007    44979 
   44972    44972    44977    44983    44977    44965    44957    44956 
   44956    44950    44937    44929    44933    44937    44923    44903 
   44894    44901    44921    44952    44976    44983    44992    45021 
   45049    45056    45044    45030    45018    44990    44946    44903 
   44867    44844    44842    44852    44869    44895    44923    44944 
   44950    44945    44941    44957    44991    45022    45026    44996 
   44948    44896    44861    44855    44865    44901    44976    45058 
   45117    45144    45141    45129    45123    45115    45102    45098 
   45108    45122    45126    45121    45108    45080    45049    45041 
   45065    45100    45117    45117    45115    45114    45099    45069 
   45046    45031    45014    44992    44963    44925    44886    44863 
   44867    44887    44907    44921    44928    44923    44925    44938 
   44955    44955    44936    44903    44876    44865    44859    44845 
   44836    44822    44798    44783    44790    44801    44814    44828 
   44836    44851    44888    44929    44956    44972    44987    45007 
   45033    45064    45092    45108    45115    45121    45122    45123 
   45130    45154    45200    45246    45268    45268    45254    45237 
   45216    45195    45172    45150    45129    45107    45088    45071 
   45053    45031    45017    45026    45050    45068    45071    45057 
   45022    44972    44925    44876    44834    44814    44805    44807 
   44829    44857    44874    44875    44863    44838    44809    44783 
   44775    44774    44778    44805    44852    44914    44976    45015 
   45030    45048    45077    45111    45141    45165    45199    45230 
   45237    45223    45204    45188    45198    45235    45277    45304 
   45310    45301    45280    45238    45181    45133    45111    45112 
   45111    45100    45079    45045    45010    44980    44948    44910 
   44869    44842    44834    44830    44814    44790    44764    44752 
   44763    44795    44836    44869    44883    44880    44867    44847 
   44829    44820    44829    44869    44929    44994    45057    45118 
   45165    45188    45188    45185    45188    45188    45184    45188 
   45200    45198    45181    45162    45135    45092    45065    45067 
   45068    45056    45045    45045    45054    45063    45049    45018 
   44983    44965    44972    44983    44982    44977    44982    44975 
   44952    44925    44895    44871    44860    44848    44845    44859 
   44867    44864    44861    44849    44837    44841    44867    44898 
   44926    44946    44964    44986    45009    45021    45027    45041 
   45060    45087    45121    45154    45183    45204    45222    45226 
   45214    45191    45166    45150    45144    45137    45126    45114 
   45102    45090    45076    45061    45046    45026    45000    44977 
   44955    44934    44928    44929    44928    44926    44923    44915 
   44905    44891    44876    44865    44861    44868    44884    44902 
   44928    44956    44984    45015    45041    45050    45040    45019 
   45007    45021    45057    45102    45137    45148    45139    45130 
   45114    45092    45080    45079    45083    45084    45084    45083 
   45067    45040    45010    44979    44946    44906    44861    44834 
   44829    44834    44836    44832    44824    44806    44782    44761 
   44747    44737    44736    44753    44801    44861    44917    44963 
   44996    45019    45044    45081    45134    45203    45285    45372 
   45443    45485    45503    45509    45527    45546    45555    45557 
   45546    45509    45451    45374    45288    45212    45149    45090 
   45036    44990    44948    44903    44861    44828    44807    44809 
   44833    44864    44892    44921    44944    44964    44991    45017 
   45031    45030    45015    44995    44969    44944    44922    44896 
   44864    44837    44824    44832    44852    44872    44895    44923 
   44946    44959    44960    44969    44990    45010    45027    45048 
   45067    45076    45088    45111    45138    45176    45223    45264 
   45277    45262    45235    45208    45183    45161    45139    45115 
   45084    45048    45010    44963    44905    44845    44791    44740 
   44702    44680    44658    44635    44631    44641    44641    44639 
   44644    44653    44668    44710    44768    44821    44869    44918 
   44957    44983    44996    45003    45013    45036    45072    45117 
   45150    45166    45179    45193    45198    45188    45176    45157 
   45131    45110    45095    45079    45063    45046    45030    45013 
   44998    44987    44980    44969    44950    44936    44934    44950 
   44977    45002    45019    45026    45022    45013    45002    44980 
   44941    44892    44852    44822    44793    44760    44744    44745 
   44763    44786    44803    44828    44853    44875    44903    44948 
   45006    45073    45135    45184    45220    45238    45226    45181 
   45127    45085    45064    45060    45068    45079    45090    45094 
   45087    45071    45052    45040    45037    45034    45033    45040 
   45057    45079    45091    45090    45081    45069    45057    45046 
   45023    44983    44942    44919    44932    44972    45025    45090 
   45158    45215    45260    45292    45314    45330    45342    45351 
   45350    45338    45323    45303    45276    45246    45208    45161 
   45112    45065    45023    44994    44976    44967    44965    44967 
   44961    44952    44944    44938    44929    44906    44876    44851 
   44829    44813    44810    44824    44844    44860    44874    44884 
   44882    44865    44848    44832    44821    44830    44853    44876 
   44902    44923    44932    44930    44923    44919    44925    44938 
   44955    44960    44959    44960    44965    44971    44971    44975 
   44991    45007    45006    44992    44975    44957    44944    44938 
   44941    44948    44963    44986    45009    45029    45048    45063 
   45071    45065    45041    45011    44982    44948    44915    44896 
   44886    44880    44888    44914    44948    44977    44987    44980 
   44965    44946    44929    44917    44911    44914    44923    44937 
   44945    44938    44926    44933    44957    44982    44995    44992 
   44984    44980    44979    44975    44967    44955    44944    44944 
   44952    44955    44944    44934    44928    44922    44915    44914 
   44922    44944    44983    45030    45076    45111    45129    45135 
   45146    45154    45153    45152    45149    45144    45126    45095 
   45065    45037    45006    44983    44969    44963    44964    44971 
   44986    45000    45013    45019    45021    45017    45015    45011 
   45002    44983    44946    44909    44888    44884    44901    44933 
   44968    44996    45006    44994    44973    44959    44952    44961 
   44991    45030    45064    45081    45091    45102    45110    45108 
   45102    45098    45103    45119    45135    45148    45161    45175 
   45189    45210    45230    45246    45260    45272    45283    45291 
   45283    45260    45234    45206    45179    45153    45123    45088 
   45052    45018    44986    44949    44909    44872    44837    44802 
   44772    44759    44766    44784    44803    44822    44841    44855 
   44872    44892    44907    44919    44932    44944    44965    44991 
   45014    45033    45052    45072    45099    45125    45148    45175 
   45203    45231    45260    45281    45287    45269    45235    45203 
   45179    45157    45138    45119    45095    45069    45049    45029 
   45014    45009    45007    45006    45004    44999    44992    44988 
   44976    44950    44921    44891    44865    44852    44842    44837 
   44848    44857    44844    44818    44799    44788    44791    44803 
   44817    44828    44840    44848    44855    44861    44868    44879 
   44892    44898    44896    44891    44888    44895    44918    44961 
   45019    45079    45129    45175    45220    45256    45277    45284 
   45279    45266    45254    45239    45226    45210    45188    45164 
   45146    45131    45115    45107    45107    45100    45081    45058 
   45040    45030    45030    45033    45037    45042    45041    45025 
   44995    44967    44948    44934    44928    44928    44923    44909 
   44884    44856    44833    44821    44814    44813    44817    44833 
   44857    44886    44915    44945    44965    44976    44982    44984 
   44996    45011    45026    45045    45063    45076    45085    45095 
   45104    45115    45123    45130    45137    45139    45144    45152 
   45165    45171    45164    45150    45129    45103    45083    45071 
   45068    45076    45095    45110    45111    45096    45072    45049 
   45034    45022    45011    44998    44984    44975    44968    44960 
   44957    44964    44967    44964    44965    44963    44959    44957 
   44956    44956    44961    44979    45002    45022    45041    45053 
   45058    45068    45080    45092    45102    45110    45114    45107 
   45080    45046    45017    44998    44988    44986    44988    44988 
   44983    44986    44991    44998    45011    45025    45029    45033 
   45034    45033    45030    45014    44984    44955    44933    44910 
   44886    44868    44856    44851    44852    44860    44871    44879 
   44890    44909    44928    44937    44938    44938    44937    44936 
