Origin Time       2025/06/03 22:18:00
Lat.              41.7
Long.             143.6
Depth. (km)       30
Mag.              5.2
Station Code      AOMH13
Station Lat.      40.5794
Station Long.     141.4451
Station Height(m) -140
Record Time       2025/06/03 22:19:25
Sampling Freq(Hz) 100Hz
Duration Time(s)  120
Dir.              2
Scale Factor      2942(gal)/8224139
Max. Acc. (gal)   0.183
Last Correction   2025/06/03 22:19:26
Memo.             
[...]
  148408   148408   148417   148429   148414   148390   148390   148390 
  148382   148377   148370   148365   148363   148354   148327   148290 
  148267   148279   148298   148306   148312   148319   148338   148363 
  148366   148346   148336   148338   148329   148312   148305   148335 
  148390   148440   148474   148486   148467   148439   148428   148433 
  148432   148420   148409   148402   148400   148400   148394   148392 
  148402   148410   148410   148409   148406   148400   148387   148371 
  148356   148344   148343   148352   148360   148352   148324   148292 
  148273   148261   148251   148247   148248   148262   148285   148302 
  148316   148323   148332   148344   148340   148321   148308   148315 
  148346   148375   148386   148396   148405   148412   148432   148451 
  148448   148436   148431   148429   148443   148471   148505   148522 
  148512   148505   148504   148485   148459   148432   148392   148362 
  148342   148323   148324   148343   148351   148347   148336   148321 
  148308   148290   148281   148290   148306   148321   148338   148350 
  148348   148336   148328   148331   148331   148325   148325   148327 
  148311   148285   148269   148271   148285   148290   148306   148354 
  148408   148450   148479   148485   148477   148458   148425   148417 
  148452   148498   148508   148468   148416   148402   148416   148424 
  148423   148409   148392   148393   148398   148383   148355   148336 
  148343   148369   148397   148409   148409   148416   148432   148456 
  148478   148485   148483   148479   148473   148466   148456   148424 
  148386   148377   148382   148382   148377   148367   148350   148338 
  148333   148339   148344   148329   148306   148300   148305   148317 
  148338   148356   148363   148350   148325   148317   148320   148313 
  148297   148279   148270   148274   148282   148293   148321   148359 
  148404   148440   148446   148429   148405   148377   148359   148351 
  148335   148321   148332   148370   148423   148462   148471   148459 
  148436   148428   148446   148463   148470   148483   148501   148513 
  148510   148486   148462   148475   148509   148518   148490   148459 
  148452   148446   148416   148378   148352   148336   148335   148344 
  148359   148371   148381   148389   148394   148386   148370   148369 
  148385   148389   148354   148286   148235   148230   148246   148251 
  148238   148235   148251   148270   148288   148293   148281   148281 
  148309   148342   148371   148394   148392   148370   148344   148313 
  148281   148281   148324   148362   148343   148289   148259   148261 
  148274   148294   148338   148398   148429   148417   148408   148419 
  148427   148437   148464   148491   148497   148483   148471   148462 
  148433   148385   148342   148321   148316   148312   148297   148279 
  148269   148261   148262   148263   148250   148232   148219   148211 
  148216   148223   148213   148213   148239   148284   148346   148409 
  148462   148497   148497   148468   148447   148437   148424   148397 
  148358   148338   148355   148389   148417   148448   148473   148486 
  148506   148536   148551   148540   148525   148520   148513   148497 
  148460   148387   148281   148173   148115   148119   148131   148119 
  148130   148181   148230   148261   148279   148294   148296   148271 
  148238   148243   148290   148347   148385   148398   148382   148343 
  148304   148279   148270   148277   148298   148338   148400   148466 
  148521   148578   148624   148625   148590   148554   148532   148513 
  148481   148431   148378   148332   148270   148186   148126   148116 
  148142   148177   148224   148274   148308   148324   148327   148325 
  148319   148296   148278   148296   148333   148346   148335   148344 
  148371   148377   148365   148367   148381   148373   148335   148309 
  148328   148379   148421   148451   148504   148568   148605   148616 
  148609   148583   148554   148541   148536   148513   148479   148456 
  148448   148452   148462   148460   148446   148446   148490   148547 
  148558   148513   148447   148365   148274   148215   148200   148201 
  148212   148236   148265   148279   148277   148266   148263   148267 
  148267   148251   148223   148203   148203   148221   148246   148263 
  148282   148309   148340   148389   148467   148543   148570   148555 
  148532   148502   148454   148406   148383   148381   148396   148436 
  148478   148471   148404   148312   148244   148223   148247   148285 
  148304   148312   148327   148340   148332   148311   148312   148348 
  148394   148419   148400   148360   148336   148313   148278   148267 
  148292   148325   148362   148386   148371   148350   148359   148393 
  148432   148473   148500   148489   148444   148398   148385   148402 
  148402   148367   148324   148301   148298   148301   148315   148360 
  148417   148444   148441   148443   148455   148459   148448   148428 
  148409   148405   148419   148447   148481   148502   148497   148473 
  148440   148402   148352   148289   148223   148165   148113   148062 
  148028   148023   148026   148019   148011   148031   148093   148163 
  148221   148267   148316   148379   148455   148502   148494   148458 
  148428   148432   148478   148524   148529   148521   148527   148536 
  148543   148556   148575   148563   148505   148432   148381   148340 
  148313   148324   148358   148389   148409   148410   148405   148413 
  148425   148423   148409   148387   148366   148344   148317   148297 
  148292   148290   148300   148332   148378   148444   148524   148581 
  148598   148590   148570   148541   148508   148473   148440   148412 
  148397   148413   148443   148441   148405   148375   148375   148389 
  148408   148423   148414   148371   148309   148258   148236   148232 
  148232   148223   148196   148166   148150   148162   148215   148277 
  148317   148346   148378   148404   148408   148385   148362   148354 
  148354   148348   148340   148342   148348   148348   148344   148331 
  148301   148258   148219   148198   148208   148221   148209   148194 
  148205   148228   148267   148346   148437   148501   148540   148567 
  148590   148614   148616   148562   148474   148406   148389   148412 
  148451   148486   148501   148487   148454   148413   148373   148347 
  148346   148360   148383   148402   148419   148458   148517   148562 
  148590   148603   148605   148595   148570   148543   148525   148517 
  148527   148549   148556   148527   148470   148412   148375   148370 
  148366   148320   148252   148211   148176   148128   148105   148112 
  148120   148123   148122   148128   148139   148142   148157   148209 
  148278   148328   148336   148325   148333   148351   148362   148379 
  148400   148413   148436   148467   148473   148452   148409   148336 
  148257   148192   148149   148112   148058   148012   148018   148066 
  148113   148134   148136   148144   148174   148217   148246   148252 
  148266   148311   148374   148448   148535   148599   148609   148568 
  148509   148468   148462   148470   148471   148455   148423   148397 
  148393   148390   148389   148419   148467   148495   148504   148510 
  148518   148541   148589   148641   148674   148664   148626   148576 
  148512   148419   148323   148275   148281   148312   148354   148406 
  148462   148512   148551   148586   148625   148647   148648   148644 
  148621   148560   148463   148344   148246   148205   148227   148252 
  148219   148134   148054   148012   148011   148041   148089   148140 
  148182   148208   148205   148147   148062   148004   148003   148047 
  148095   148112   148105   148097   148111   148177   148285   148371 
  148412   148436   148447   148454   148458   148448   148448   148467 
  148483   148501   148517   148497   148450   148393   148328   148271 
  148254   148281   148329   148381   148440   148494   148520   148543 
  148586   148635   148675   148706   148725   148733   148711   148666 
  148641   148641   148632   148594   148554   148521   148483   148424 
  148355   148308   148285   148279   148289   148296   148298   148301 
  148290   148262   148242   148261   148315   148381   148444   148505 
  148558   148581   148559   148516   148493   148506   148551   148602 
  148626   148597   148540   148504   148498   148509   148516   148498 
  148452   148385   148301   148211   148134   148082   148062   148082 
  148123   148155   148178   148209   148244   148251   148247   148265 
  148288   148285   148254   148209   148188   148209   148230   148200 
  148134   148065   148012   147993   148015   148049   148070   148086 
  148108   148119   148096   148049   148027   148077   148193   148331 
  148454   148545   148610   148662   148706   148748   148782   148792 
  148799   148818   148803   148721   148621   148568   148586   148649 
  148707   148736   148747   148737   148697   148635   148567   148508 
  148471   148450   148428   148409   148373   148312   148255   148219 
  148197   148197   148234   148296   148360   148396   148374   148309 
  148239   148180   148146   148151   148174   148186   148193   148212 
  148230   148217   148190   148176   148178   148194   148223   148259 
  148321   148406   148459   148441   148373   148312   148292   148298 
  148311   148331   148351   148352   148328   148294   148271   148259 
  148243   148239   148259   148294   148335   148377   148427   148475 
  148513   148549   148572   148558   148510   148451   148389   148319 
  148250   148193   148158   148161   148182   148178   148151   148130 
  148132   148150   148184   148247   148332   148409   148458   148479 
  148479   148460   148435   148424   148433   148448   148462   148487 
  148525   148567   148605   148617   148594   148568   148576   148599 
  148601   148581   148560   148547   148525   148481   148409   148340 
  148298   148286   148282   148289   148311   148325   148306   148279 
  148275   148296   148321   148342   148342   148312   148266   148232 
  148224   148240   148278   148324   148374   148421   148425   148360 
  148255   148157   148093   148059   148031   148012   148032   148089 
  148167   148236   148273   148284   148282   148255   148212   148192 
  148201   148216   148221   148216   148201   148193   148200   148219 
  148247   148293   148366   148475   148591   148666   148694   148699 
  148695   148689   148684   148679   148660   148636   148629   148656 
  148694   148718   148737   148768   148797   148795   148752   148686 
  148618   148571   148539   148485   148417   148379   148373   148371 
  148359   148328   148289   148265   148259   148267   148278   148281 
  148269   148236   148205   148204   148221   148248   148284   148319 
  148342   148348   148333   148293   148242   148194   148154   148117 
  148093   148088   148105   148130   148150   148176   148207   148252 
  148324   148409   148473   148512   148548   148593   148635   148647 
  148629   148602   148585   148570   148551   148532   148520   148498 
  148450   148397   148379   148396   148406   148398   148383   148350 
  148285   148216   148177   148171   148186   148205   148221   148242 
  148282   148343   148390   148414   148432   148455   148490   148531 
  148563   148593   148628   148639   148597   148536   148498   148491 
  148490   148482   148473   148466   148464   148486   148527   148568 
  148598   148608   148598   148562   148501   148428   148359   148301 
  148254   148219   148198   148193   148215   148250   148263   148243 
  148212   148209   148234   148273   148327   148390   148435   148451 
  148437   148404   148367   148336   148321   148325   148350   148390 
  148424   148429   148404   148354   148292   148232   148194   148176 
  148165   148155   148124   148055   147969   147919   147943   148020 
  148092   148139   148181   148213   148232   148248   148261   148261 
  148261   148278   148327   148381   148393   148367   148351   148365 
  148389   148396   148400   148427   148463   148486   148495   148497 
  148500   148506   148510   148509   148502   148497   148508   148528 
  148539   148547   148564   148593   148630   148660   148671   148659 
  148637   148625   148617   148612   148621   148625   148605   148567 
  148525   148486   148451   148423   148417   148424   148419   148382 
  148325   148271   148228   148188   148163   148169   148192   148220 
  148234   148221   148193   148163   148151   148169   148211   148246 
  148240   148180   148090   148001   147943   147950   148007   148065 
  148111   148163   148224   148294   148363   148392   148365   148323 
  148300   148309   148344   148363   148346   148316   148285   148244 
  148213   148203   148203   148205   148223   148244   148248   148238 
  148230   148236   148262   148289   148297   148285   148262   148252 
  148259   148284   148331   148387   148412   148402   148398   148416 
  148446   148462   148432   148365   148301   148289   148344   148441 
  148544   148635   148705   148756   148792   148810   148818   148813 
  148782   148743   148717   148706   148705   148711   148726   148741 
  148748   148755   148780   148819   148845   148834   148794   148744 
  148689   148632   148594   148571   148544   148510   148468   148423 
  148374   148328   148292   148263   148234   148207   148184   148157 
  148134   148120   148119   148146   148197   148236   148239   148205 
  148158   148120   148086   148051   148022   147996   147964   147918 
  147872   147858   147881   147919   147958   147991   148028   148085 
  148144   148198   148255   148296   148282   148220   148158   148117 
  148076   148035   148035   148090   148169   148238   148279   148293 
  148302   148323   148343   148358   148356   148336   148325   148351 
  148417   148489   148536   148568   148594   148605   148616   148644 
  148680   148699   148701   148693   148667   148626   148587   148570 
  148578   148593   148599   148602   148598   148575   148537   148494 
  148455   148425   148416   148433   148462   148493   148521   148539 
  148545   148544   148528   148508   148500   148500   148498   148495 
  148501   148518   148522   148483   148420   148370   148359   148387 
  148423   148433   148429   148436   148450   148424   148351   148269 
  148205   148154   148115   148085   148036   147970   147923   147900 
  147879   147861   147861   147879   147900   147914   147933   147977 
  148032   148076   148107   148147   148201   148251   148284   148320 
  148370   148431   148497   148555   148582   148574   148552   148540 
  148540   148548   148563   148585   148606   148603   148558   148481 
  148405   148350   148320   148321   148333   148331   148332   148354 
  148381   148397   148404   148414   148435   148458   148485   148520 
  148547   148549   148536   148527   148541   148576   148608   148605 
  148571   148529   148517   148535   148555   148574   148598   148610 
  148608   148602   148579   148536   148490   148444   148389   148335 
  148301   148302   148342   148406   148473   148529   148556   148541 
  148512   148479   148433   148379   148336   148301   148266   148231 
  148197   148155   148112   148074   148049   148034   148023   148020 
  148028   148043   148069   148115   148169   148211   148239   148251 
  148244   148236   148238   148250   148257   148251   148236   148227 
  148234   148262   148302   148354   148405   148437   148444   148429 
  148410   148401   148408   148424   148437   148455   148481   148501 
  148493   148454   148412   148394   148398   148410   148429   148452 
  148474   148498   148524   148559   148602   148643   148670   148682 
  148697   148706   148684   148633   148579   148537   148514   148508 
  148504   148489   148455   148406   148370   148352   148329   148293 
  148257   148224   148207   148205   148208   148209   148219   148246 
  148290   148332   148365   148396   148424   148427   148408   148383 
  148348   148298   148258   148232   148205   148178   148173   148182 
  148192   148211   148246   148298   148352   148394   148437   148475 
  148481   148460   148432   148396   148339   148267   148194   148139 
  148120   148134   148165   148201   148235   148281   148346   148417 
  148489   148540   148555   148554   148555   148558   148566   148572 
  148570   148567   148563   148555   148537   148508   148475   148448 
  148423   148402   148387   148377   148383   148410   148439   148454 
  148452   148432   148408   148401   148404   148394   148377   148356 
  148335   148315   148304   148301   148305   148319   148344   148378 
  148410   148429   148428   148424   148425   148420   148397   148367 
  148346   148325   148296   148277   148277   148278   148267   148255 
  148258   148278   148301   148321   148340   148351   148352   148340 
  148313   148279   148247   148215   148185   148163   148159   148177 
  148207   148251   148305   148350   148375   148386   148385   148381 
  148378   148365   148363   148386   148416   148443   148467   148481 
  148475   148463   148454   148448   148454   148470   148490   148513 
  148543   148579   148608   148618   148610   148578   148539   148514 
  148500   148482   148460   148439   148412   148389   148374   148359 
  148335   148312   148312   148332   148360   148386   148392   148374 
  148350   148333   148316   148301   148292   148281   148261   148232 
  148209   148186   148143   148093   148061   148043   148035   148031 
  148031   148039   148065   148107   148161   148225   148293   148333 
  148347   148352   148359   148360   148356   148355   148358   148360 
  148367   148371   148378   148389   148393   148396   148397   148387 
  148374   148371   148383   148412   148447   148479   148498   148508 
  148513   148508   148485   148452   148421   148412   148431   148460 
  148493   148510   148504   148487   148471   148451   148428   148406 
  148396   148408   148431   148448   148459   148463   148467   148474 
  148485   148491   148485   148467   148441   148424   148417   148419 
  148417   148413   148405   148400   148406   148428   148448   148446 
  148429   148413   148402   148416   148459   148497   148508   148504 
  148479   148440   148402   148362   148316   148270   148219   148165 
  148122   148095   148081   148084   148099   148128   148163   148192 
  148213   148228   148230   148220   148196   148165   148139   148131 
  148134   148131   148117   148101   148100   148127   148182   148246 
  148305   148359   148405   148444   148485   148516   148529   148525 
  148509   148481   148444   148416   148412   148424   148421   148398 
  148375   148369   148374   148377   148369   148354   148344   148360 
  148401   148440   148463   148470   148473   148475   148471   148473 
  148487   148504   148512   148508   148490   148467   148448   148435 
  148427   148416   148398   148383   148375   148375   148378   148379 
  148385   148393   148400   148412   148429   148440   148437   148424 
  148408   148394   148393   148414   148455   148498   148532   148556 
  148576   148586   148583   148579   148574   148556   148525   148497 
  148490   148500   148498   148477   148452   148429   148397   148362 
  148328   148286   148236   148182   148117   148045   147984   147945 
  147928   147942   147978   148020   148058   148080   148093   148119 
