Origin Time       2025/06/03 22:18:00
Lat.              41.7
Long.             143.6
Depth. (km)       30
Mag.              5.2
Station Code      AOMH17
Station Lat.      40.4492
Station Long.     141.3374
Station Height(m) -49.1
Record Time       2025/06/03 22:19:33
Sampling Freq(Hz) 100Hz
Duration Time(s)  120
Dir.              2
Scale Factor      3923(gal)/8224838
Max. Acc. (gal)   0.172
Last Correction   2025/06/03 22:19:34
Memo.             
[...]
   -9910    -9903    -9879    -9864    -9877    -9900    -9896    -9872 
   -9856    -9842    -9829    -9823    -9815    -9817    -9838    -9863 
   -9884    -9896    -9887    -9868    -9857    -9850    -9845    -9856 
   -9887    -9918    -9927    -9915    -9910    -9915    -9909    -9896 
   -9891    -9890    -9890    -9887    -9882    -9875    -9875    -9886 
   -9899    -9906    -9909    -9915    -9927    -9952    -9963    -9942 
   -9936    -9946    -9933    -9917    -9918    -9915    -9925    -9949 
   -9961    -9963    -9973    -9984    -9973    -9954    -9938    -9919 
   -9903    -9896    -9898    -9896    -9887    -9871    -9860    -9861 
   -9873    -9876    -9880    -9898    -9898    -9877    -9857    -9833 
   -9826    -9846    -9850    -9841    -9852    -9876    -9887    -9890 
   -9892    -9887    -9882    -9886    -9888    -9890    -9894    -9902 
   -9914    -9909    -9884    -9876    -9882    -9871    -9849    -9841 
   -9846    -9856    -9857    -9848    -9846    -9850    -9859    -9869 
   -9872    -9882    -9891    -9882    -9873    -9867    -9856    -9852 
   -9856    -9865    -9873    -9876    -9873    -9876    -9898    -9922 
   -9936    -9945    -9957    -9963    -9945    -9926    -9930    -9934 
   -9934    -9937    -9919    -9887    -9873    -9880    -9875    -9865 
   -9865    -9855    -9841    -9837    -9841    -9848    -9848    -9856 
   -9872    -9868    -9867    -9884    -9888    -9873    -9849    -9830 
   -9842    -9860    -9857    -9850    -9850    -9840    -9823    -9810 
   -9806    -9822    -9853    -9877    -9903    -9923    -9926    -9930 
   -9946    -9957    -9958    -9949    -9929    -9904    -9891    -9890 
   -9882    -9882    -9906    -9922    -9914    -9913    -9913    -9895 
   -9882    -9880    -9876    -9875    -9886    -9894    -9882    -9859 
   -9850    -9852    -9852    -9863    -9883    -9894    -9904    -9918 
   -9925    -9941    -9967    -9973    -9973    -9984    -9980    -9961 
   -9958    -9965    -9950    -9921    -9911    -9914    -9909    -9895 
   -9861    -9840    -9849    -9856    -9857    -9855    -9852    -9872 
   -9895    -9907    -9910    -9904    -9915    -9930    -9927    -9923 
   -9926    -9933    -9933    -9919    -9918    -9922    -9911    -9899 
   -9894    -9899    -9917    -9904    -9867    -9846    -9846    -9833 
   -9819    -9833    -9860    -9890    -9904    -9895    -9882    -9875 
   -9867    -9868    -9883    -9892    -9892    -9888    -9884    -9877 
   -9877    -9892    -9907    -9907    -9899    -9902    -9914    -9903 
   -9883    -9880    -9865    -9844    -9834    -9811    -9790    -9792 
   -9798    -9794    -9787    -9786    -9784    -9780    -9795    -9823 
   -9849    -9875    -9899    -9913    -9913    -9915    -9922    -9922 
   -9922    -9923    -9922    -9934    -9946    -9936    -9921    -9910 
   -9896    -9880    -9869    -9863    -9861    -9880    -9915    -9923 
   -9913    -9919    -9911    -9876    -9863    -9887    -9896    -9887 
   -9879    -9869    -9868    -9886    -9891    -9880    -9882    -9890 
   -9890    -9879    -9867    -9869    -9887    -9898    -9904    -9910 
   -9900    -9877    -9863    -9859    -9871    -9900    -9919    -9929 
   -9933    -9929    -9931    -9926    -9902    -9883    -9871    -9863 
   -9876    -9896    -9903    -9903    -9894    -9869    -9853    -9863 
   -9883    -9894    -9900    -9913    -9929    -9940    -9937    -9925 
   -9915    -9915    -9919    -9917    -9909    -9909    -9922    -9946 
   -9968    -9965    -9946    -9940    -9937    -9923    -9914    -9914 
   -9915    -9913    -9913    -9919    -9913    -9895    -9880    -9871 
   -9873    -9880    -9864    -9852    -9860    -9872    -9875    -9861 
   -9852    -9855    -9856    -9853    -9849    -9848    -9855    -9856 
   -9846    -9840    -9846    -9857    -9864    -9876    -9891    -9902 
   -9904    -9909    -9899    -9869    -9867    -9891    -9898    -9902 
   -9917    -9923    -9929    -9927    -9902    -9873    -9857    -9852 
   -9852    -9853    -9863    -9879    -9896    -9911    -9910    -9906 
   -9913    -9910    -9902    -9906    -9918    -9926    -9917    -9896 
   -9888    -9882    -9868    -9859    -9859    -9861    -9863    -9868 
   -9867    -9864    -9868    -9859    -9837    -9826    -9828    -9841 
   -9856    -9861    -9871    -9880    -9876    -9871    -9859    -9841 
   -9841    -9859    -9876    -9876    -9857    -9849    -9857    -9860 
   -9850    -9845    -9849    -9844    -9837    -9841    -9857    -9890 
   -9917    -9910    -9891    -9899    -9914    -9910    -9906    -9917 
   -9923    -9942    -9967    -9965    -9961    -9969    -9971    -9961 
   -9940    -9926    -9931    -9931    -9917    -9903    -9906    -9915 
   -9918    -9919    -9909    -9886    -9875    -9872    -9861    -9857 
   -9863    -9859    -9840    -9823    -9825    -9841    -9860    -9876 
   -9880    -9880    -9895    -9907    -9904    -9903    -9915    -9937 
   -9956    -9950    -9926    -9921    -9934    -9940    -9936    -9914 
   -9890    -9882    -9875    -9868    -9871    -9875    -9883    -9896 
   -9894    -9892    -9918    -9941    -9945    -9945    -9941    -9938 
   -9937    -9922    -9900    -9883    -9873    -9872    -9879    -9894 
   -9910    -9927    -9925    -9902    -9898    -9898    -9895    -9906 
   -9910    -9900    -9896    -9902    -9923    -9938    -9921    -9896 
   -9882    -9863    -9849    -9846    -9856    -9863    -9840    -9807 
   -9802    -9805    -9798    -9795    -9791    -9792    -9814    -9818 
   -9794    -9776    -9779    -9790    -9811    -9840    -9853    -9869 
   -9886    -9868    -9844    -9838    -9828    -9815    -9828    -9850 
   -9861    -9859    -9852    -9832    -9813    -9813    -9821    -9837 
   -9861    -9886    -9915    -9936    -9937    -9933    -9933    -9931 
   -9925    -9937    -9960    -9958    -9949    -9953    -9948    -9937 
   -9930    -9919    -9913    -9919    -9937    -9944    -9925    -9936 
   -9985   -10014   -10011   -10004   -10000    -9988    -9968    -9946 
   -9919    -9904    -9898    -9868    -9833    -9821    -9811    -9792 
   -9783    -9794    -9813    -9845    -9896    -9937    -9949    -9942 
   -9925    -9895    -9860    -9829    -9801    -9796    -9830    -9877 
   -9913    -9919    -9902    -9883    -9868    -9865    -9872    -9861 
   -9826    -9809    -9833    -9872    -9900    -9909    -9894    -9875 
   -9868    -9871    -9879    -9884    -9883    -9877    -9861    -9848 
   -9852    -9861    -9880    -9904    -9923    -9936    -9942    -9937 
   -9936    -9953    -9987   -10023   -10056   -10071   -10054   -10015 
   -9988    -9985    -9985    -9972    -9946    -9918    -9906    -9907 
   -9910    -9900    -9873    -9857    -9859    -9853    -9846    -9852 
   -9850    -9832    -9815    -9828    -9857    -9877    -9868    -9830 
   -9790    -9783    -9803    -9813    -9819    -9855    -9896    -9906 
   -9896    -9899    -9918    -9934    -9927    -9896    -9860    -9836 
   -9838    -9850    -9861    -9873    -9872    -9859    -9857    -9888 
   -9938    -9957    -9933    -9900    -9884    -9880    -9876    -9871 
   -9873    -9883    -9892    -9888    -9883    -9887    -9882    -9865 
   -9859    -9861    -9868    -9886    -9913    -9936    -9929    -9900 
   -9884    -9892    -9913    -9923    -9922    -9929    -9940    -9937 
   -9918    -9888    -9853    -9836    -9833    -9823    -9805    -9790 
   -9802    -9844    -9888    -9913    -9919    -9917    -9895    -9864 
   -9841    -9818    -9796    -9787    -9782    -9794    -9834    -9872 
   -9891    -9921    -9960    -9961    -9915    -9857    -9832    -9865 
   -9921    -9946    -9956    -9964    -9973    -9976    -9958    -9948 
   -9941    -9921    -9923    -9937    -9918    -9884    -9867    -9880 
   -9921    -9950    -9933    -9884    -9837    -9801    -9782    -9783 
   -9786    -9774    -9752    -9748    -9787    -9814    -9799    -9779 
   -9780    -9802    -9822    -9837    -9841    -9805    -9757    -9767 
   -9802    -9830    -9867    -9915    -9957    -9991   -10025   -10058 
  -10076   -10044    -9981    -9942    -9937    -9936    -9931    -9944 
   -9985   -10027   -10039   -10027   -10010   -10006   -10010    -9992 
   -9950    -9914    -9911    -9944    -9980    -9987    -9980    -9971 
   -9950    -9942    -9942    -9927    -9914    -9925    -9938    -9938 
   -9936    -9925    -9896    -9869    -9864    -9864    -9855    -9841 
   -9823    -9810    -9825    -9859    -9877    -9867    -9837    -9818 
   -9819    -9840    -9872    -9876    -9849    -9845    -9876    -9930 
   -9983    -9996    -9963    -9902    -9829    -9776    -9768    -9786 
   -9807    -9817    -9813    -9788    -9759    -9755    -9771    -9783 
   -9795    -9825    -9861    -9879    -9879    -9884    -9900    -9926 
   -9960    -9991    -9995    -9977    -9964    -9950    -9927    -9931 
   -9960    -9973    -9985   -10007   -10026   -10038   -10030    -9994 
   -9952    -9922    -9923    -9950    -9961    -9937    -9922    -9942 
   -9960    -9945    -9923    -9903    -9873    -9850    -9833    -9805 
   -9783    -9775    -9759    -9745    -9768    -9818    -9863    -9871 
   -9836    -9801    -9799    -9810    -9795    -9761    -9728    -9726 
   -9786    -9867    -9890    -9850    -9792    -9764    -9801    -9855 
   -9869    -9864    -9868    -9879    -9886    -9876    -9855    -9837 
   -9826    -9814    -9799    -9814    -9869    -9910    -9915    -9911 
   -9902    -9892    -9906    -9940    -9961    -9976   -10017   -10056 
  -10065   -10072   -10083   -10088   -10085   -10073   -10053   -10023 
  -10003   -10011   -10031   -10019    -9956    -9887    -9849    -9841 
   -9853    -9869    -9872    -9856    -9842    -9833    -9813    -9780 
   -9734    -9706    -9713    -9717    -9709    -9706    -9707    -9724 
   -9753    -9768    -9767    -9769    -9775    -9795    -9849    -9937 
  -10029   -10087   -10088   -10064   -10031   -10000    -9984    -9979 
   -9981    -9983    -9961    -9933    -9914    -9898    -9872    -9855 
   -9886    -9930    -9946    -9944    -9904    -9855    -9856    -9879 
   -9883    -9873    -9863    -9877    -9919    -9954    -9976    -9990 
   -9999   -10017   -10029   -10006    -9972    -9976   -10004   -10008 
   -9985    -9963    -9945    -9925    -9921    -9922    -9902    -9869 
   -9826    -9774    -9734    -9720    -9732    -9775    -9815    -9846 
   -9898    -9945    -9954    -9944    -9942    -9958    -9977    -9987 
   -9992    -9994    -9973    -9925    -9884    -9871    -9863    -9852 
   -9837    -9826    -9817    -9784    -9740    -9722    -9734    -9763 
   -9795    -9810    -9814    -9813    -9799    -9780    -9760    -9744 
   -9734    -9730    -9718    -9686    -9674    -9703    -9751    -9792 
   -9815    -9814    -9803    -9806    -9836    -9887    -9936    -9957 
   -9925    -9864    -9826    -9813    -9801    -9807    -9837    -9880 
   -9910    -9891    -9838    -9817    -9848    -9903    -9954    -9977 
   -9985    -9999    -9996    -9973    -9960    -9963    -9973    -9981 
   -9967    -9931    -9906    -9911    -9934    -9952    -9964    -9960 
   -9927    -9907    -9922    -9927    -9915    -9925    -9936    -9914 
   -9890    -9880    -9890    -9940   -10003   -10041   -10050   -10018 
   -9961    -9927    -9909    -9872    -9834    -9826    -9856    -9900 
   -9933    -9952    -9945    -9927    -9919    -9911    -9907    -9918 
   -9926    -9930    -9929    -9922    -9907    -9871    -9842    -9845 
   -9853    -9853    -9873    -9917    -9957    -9979    -9977    -9961 
   -9948    -9940    -9923    -9917    -9948    -9998   -10015    -9991 
   -9953    -9921    -9898    -9895    -9913    -9929    -9940    -9945 
   -9938    -9929    -9915    -9891    -9873    -9860    -9841    -9841 
   -9852    -9841    -9818    -9799    -9791    -9798    -9796    -9788 
   -9809    -9850    -9909    -9972    -9992    -9973    -9958    -9954 
   -9948    -9936    -9942    -9967    -9967    -9945    -9919    -9873 
   -9806    -9753    -9725    -9698    -9675    -9676    -9667    -9621 
   -9576    -9559    -9563    -9587    -9613    -9621    -9632    -9668 
   -9734    -9809    -9855    -9879    -9907    -9929    -9909    -9861 
   -9833    -9832    -9838    -9855    -9886    -9930    -9981   -10014 
  -10018   -10019   -10044   -10076   -10107   -10130   -10141   -10146 
  -10125   -10058   -10007    -9996   -10008   -10049   -10081   -10065 
  -10006    -9933    -9877    -9842    -9814    -9815    -9852    -9892 
   -9909    -9891    -9850    -9805    -9780    -9786    -9807    -9817 
   -9813    -9823    -9860    -9888    -9890    -9883    -9886    -9896 
   -9909    -9931    -9949    -9953    -9963    -9960    -9930    -9896 
   -9886    -9913    -9938    -9931    -9923    -9929    -9946    -9971 
   -9969    -9938    -9910    -9906    -9915    -9915    -9909    -9902 
   -9887    -9871    -9873    -9886    -9876    -9855    -9861    -9886 
   -9896    -9896    -9886    -9859    -9825    -9805    -9811    -9834 
   -9852    -9861    -9877    -9898    -9931    -9976   -10000    -9999 
   -9985    -9960    -9937    -9930    -9926    -9917    -9919    -9917 
   -9895    -9887    -9900    -9879    -9828    -9821    -9867    -9910 
   -9945    -9983    -9990    -9960    -9931    -9930    -9954    -9998 
  -10038   -10049   -10038   -10039   -10035   -10002    -9949    -9891 
   -9859    -9867    -9872    -9859    -9848    -9834    -9809    -9769 
   -9724    -9675    -9641    -9633    -9628    -9606    -9579    -9544 
   -9529    -9566    -9633    -9698    -9736    -9741    -9737    -9755 
   -9794    -9823    -9838    -9855    -9864    -9867    -9865    -9845 
   -9819    -9818    -9833    -9844    -9865    -9909    -9967   -10014 
  -10034   -10046   -10080   -10129   -10166   -10164   -10122   -10081 
  -10058   -10041   -10034   -10045   -10069   -10087   -10064    -9987 
   -9888    -9814    -9779    -9788    -9840    -9883    -9902    -9930 
   -9990   -10048   -10060   -10046   -10045   -10041   -10029   -10007 
   -9969    -9927    -9890    -9844    -9787    -9734    -9693    -9661 
   -9675    -9732    -9783    -9815    -9825    -9818    -9828    -9861 
   -9882    -9871    -9840    -9821    -9819    -9830    -9848    -9861 
   -9872    -9877    -9871    -9848    -9815    -9784    -9755    -9738 
   -9756    -9788    -9813    -9838    -9876    -9923    -9949    -9950 
   -9968   -10012   -10050   -10061   -10064   -10073   -10068   -10039 
  -10012    -9999    -9987    -9979    -9983    -9977    -9938    -9892 
   -9876    -9903    -9949    -9984   -10002   -10007   -10010   -10002 
   -9976    -9976   -10018   -10054   -10049    -9996    -9919    -9857 
   -9833    -9840    -9857    -9877    -9919    -9948    -9929    -9904 
   -9907    -9915    -9914    -9887    -9822    -9751    -9699    -9667 
   -9655    -9651    -9625    -9587    -9575    -9599    -9639    -9666 
   -9663    -9651    -9648    -9655    -9668    -9671    -9668    -9690 
   -9721    -9730    -9752    -9796    -9821    -9810    -9790    -9778 
   -9776    -9782    -9787    -9801    -9836    -9876    -9909    -9952 
   -9994   -10023   -10046   -10049   -10048   -10066   -10084   -10093 
  -10106   -10118   -10126   -10139   -10145   -10116   -10065   -10019 
   -9976    -9937    -9911    -9891    -9887    -9907    -9936    -9956 
   -9964    -9979    -9999    -9995    -9983   -10000   -10037   -10060 
  -10058   -10033    -9990    -9964    -9975    -9981    -9950    -9922 
   -9907    -9871    -9834    -9823    -9815    -9799    -9792    -9802 
   -9810    -9807    -9802    -9799    -9782    -9774    -9799    -9823 
   -9822    -9807    -9787    -9786    -9802    -9817    -9821    -9822 
   -9832    -9850    -9876    -9907    -9919    -9904    -9882    -9852 
   -9829    -9846    -9879    -9883    -9863    -9846    -9825    -9799 
   -9776    -9755    -9734    -9710    -9684    -9679    -9698    -9737 
   -9795    -9845    -9877    -9918    -9977   -10029   -10048   -10046 
  -10062   -10104   -10149   -10183   -10196   -10187   -10176   -10172 
  -10164   -10164   -10168   -10153   -10141   -10146   -10147   -10125 
  -10085   -10049   -10026   -10004    -9973    -9945    -9917    -9888 
   -9877    -9871    -9836    -9805    -9803    -9795    -9767    -9755 
   -9757    -9757    -9756    -9752    -9738    -9720    -9713    -9730 
   -9771    -9813    -9848    -9879    -9904    -9918    -9927    -9929 
   -9911    -9892    -9890    -9873    -9833    -9798    -9780    -9763 
   -9715    -9648    -9605    -9605    -9633    -9659    -9668    -9668 
   -9680    -9734    -9802    -9842    -9872    -9882    -9850    -9817 
   -9795    -9763    -9741    -9737    -9734    -9740    -9751    -9775 
   -9813    -9838    -9849    -9859    -9871    -9887    -9894    -9898 
   -9903    -9904    -9922    -9948    -9945    -9922    -9891    -9861 
   -9855    -9857    -9855    -9856    -9853    -9833    -9805    -9783 
   -9780    -9802    -9837    -9865    -9882    -9892    -9909    -9929 
   -9931    -9917    -9903    -9909    -9948    -9995   -10010    -9999 
   -9988    -9990   -10003   -10007    -9996    -9987    -9990    -9998 
  -10011   -10026   -10037   -10045   -10064   -10093   -10114   -10122 
  -10126   -10125   -10112   -10103   -10114   -10122   -10119   -10116 
  -10120   -10123   -10122   -10112   -10083   -10042   -10008    -9981 
   -9950    -9919    -9902    -9895    -9886    -9865    -9855    -9876 
   -9906    -9911    -9911    -9927    -9937    -9930    -9930    -9937 
   -9926    -9906    -9895    -9886    -9857    -9811    -9780    -9765 
   -9742    -9721    -9709    -9697    -9695    -9706    -9703    -9693 
   -9687    -9680    -9680    -9694    -9710    -9729    -9749    -9760 
   -9759    -9747    -9733    -9720    -9720    -9738    -9764    -9780 
   -9786    -9790    -9796    -9809    -9815    -9799    -9764    -9729 
   -9703    -9693    -9695    -9707    -9732    -9767    -9813    -9867 
   -9917    -9957   -10007   -10060   -10098   -10125   -10138   -10138 
  -10138   -10119   -10079   -10053   -10045   -10039   -10026   -10000 
   -9980    -9973    -9964    -9958    -9952    -9948    -9948    -9940 
   -9923    -9911    -9903    -9888    -9859    -9828    -9807    -9798 
   -9802    -9811    -9818    -9829    -9840    -9848    -9861    -9886 
   -9921    -9953    -9969    -9973    -9977    -9988   -10000   -10010 
  -10030   -10053   -10054   -10054   -10062   -10050   -10021   -10008 
  -10004    -9991    -9972    -9965    -9976    -9985    -9981    -9961 
   -9926    -9884    -9844    -9796    -9765    -9764    -9763    -9753 
   -9753    -9764    -9782    -9801    -9815    -9826    -9836    -9844 
   -9841    -9838    -9842    -9842    -9841    -9844    -9840    -9829 
   -9833    -9845    -9830    -9799    -9786    -9787    -9790    -9801 
   -9805    -9798    -9799    -9807    -9803    -9794    -9791    -9794 
   -9803    -9823    -9842    -9859    -9872    -9888    -9915    -9945 
   -9965    -9994   -10034   -10065   -10068   -10053   -10031   -10004 
   -9983    -9972    -9961    -9958    -9965    -9958    -9938    -9915 
   -9910    -9927    -9948    -9972    -9981    -9957    -9933    -9931 
   -9934    -9929    -9914    -9900    -9887    -9856    -9823    -9810 
   -9829    -9872    -9899    -9899    -9906    -9907    -9891    -9868 
   -9846    -9837    -9836    -9818    -9782    -9747    -9726    -9714 
