Origin Time       2025/06/03 22:18:00
Lat.              41.7
Long.             143.6
Depth. (km)       30
Mag.              5.2
Station Code      AOMH12
Station Lat.      40.5846
Station Long.     141.1547
Station Height(m) 85
Record Time       2025/06/03 22:19:42
Sampling Freq(Hz) 100Hz
Duration Time(s)  120
Dir.              5
Scale Factor      7845(gal)/8223790
Max. Acc. (gal)   0.753
Last Correction   2025/06/03 22:19:43
Memo.             
[...]
   36574    36562    36553    36547    36540    36520    36486    36462 
   36464    36485    36504    36510    36505    36502    36509    36514 
   36510    36495    36482    36477    36477    36495    36537    36587 
   36626    36641    36636    36613    36568    36509    36458    36428 
   36424    36445    36502    36585    36666    36710    36695    36625 
   36522    36410    36329    36312    36362    36445    36531    36599 
   36639    36649    36645    36620    36571    36505    36440    36393 
   36364    36356    36362    36362    36362    36370    36373    36375 
   36401    36451    36498    36526    36541    36553    36558    36548 
   36528    36508    36497    36513    36562    36632    36710    36775 
   36805    36788    36728    36643    36562    36504    36467    36447 
   36443    36475    36559    36678    36786    36842    36826    36742 
   36614    36479    36371    36308    36301    36350    36423    36487 
   36522    36510    36459    36406    36382    36389    36423    36477 
   36543    36610    36663    36675    36641    36574    36504    36450 
   36431    36458    36517    36582    36629    36663    36674    36652 
   36606    36548    36494    36454    36424    36406    36405    36417 
   36437    36463    36493    36520    36535    36533    36524    36509 
   36489    36466    36441    36435    36460    36517    36568    36579 
   36541    36470    36404    36377    36385    36423    36491    36572 
   36643    36682    36668    36613    36543    36471    36428    36427 
   36450    36479    36516    36552    36594    36640    36683    36714 
   36728    36726    36703    36651    36576    36491    36412    36351 
   36306    36292    36325    36406    36510    36598    36634    36617 
   36553    36464    36390    36354    36360    36416    36506    36607 
   36691    36733    36734    36717    36686    36649    36613    36571 
   36533    36520    36529    36545    36548    36522    36474    36420 
   36383    36383    36423    36490    36567    36629    36653    36637 
   36595    36545    36491    36437    36396    36379    36405    36470 
   36551    36622    36666    36682    36679    36664    36634    36597 
   36558    36516    36477    36450    36429    36412    36416    36452 
   36521    36612    36686    36721    36732    36722    36686    36617 
   36521    36425    36344    36283    36256    36281    36358    36474 
   36598    36702    36769    36786    36745    36643    36498    36351 
   36247    36202    36219    36296    36418    36560    36694    36787 
   36811    36751    36610    36423    36251    36153    36151    36234 
   36359    36493    36602    36664    36660    36593    36495    36412 
   36367    36367    36400    36448    36508    36570    36605    36590 
   36526    36452    36416    36439    36501    36568    36620    36637 
   36613    36552    36485    36439    36428    36454    36499    36536 
   36549    36548    36529    36486    36440    36424    36450    36526 
   36632    36718    36757    36738    36666    36555    36454    36408 
   36432    36516    36633    36741    36796    36783    36717    36620 
   36520    36458    36460    36540    36684    36841    36950    36977 
   36907    36755    36553    36356    36215    36147    36147    36197 
   36274    36354    36425    36490    36547    36594    36628    36645 
   36652    36656    36644    36605    36560    36529    36514    36533 
   36601    36706    36821    36907    36929    36871    36747    36587 
   36452    36381    36391    36482    36616    36736    36799    36783 
   36698    36572    36432    36301    36209    36175    36201    36270 
   36356    36437    36497    36520    36497    36437    36370    36316 
   36278    36256    36254    36269    36297    36346    36414    36497 
   36589    36694    36799    36875    36883    36813    36688    36559 
   36466    36428    36423    36425    36432    36432    36425    36418 
   36413    36423    36463    36535    36605    36634    36603    36516 
   36402    36308    36262    36281    36342    36423    36513    36602 
   36667    36695    36687    36647    36595    36555    36526    36514 
   36529    36562    36595    36613    36607    36597    36598    36618 
   36643    36655    36637    36582    36495    36397    36305    36242 
   36217    36227    36263    36320    36381    36428    36455    36450 
   36423    36391    36362    36347    36373    36429    36498    36562 
   36599    36607    36602    36590    36579    36585    36607    36637 
   36671    36699    36713    36715    36720    36725    36718    36695 
   36667    36636    36612    36606    36616    36628    36633    36629 
   36614    36585    36543    36501    36468    36474    36535    36629 
   36717    36760    36736    36659    36548    36416    36288    36204 
   36197    36263    36367    36466    36529    36547    36510    36429 
   36342    36292    36312    36414    36582    36769    36937    37039 
   37039    36949    36799    36620    36458    36364    36364    36443 
   36553    36651    36703    36693    36630    36544    36456    36389 
   36363    36378    36410    36433    36427    36389    36335    36313 
   36347    36420    36510    36602    36668    36698    36690    36653 
   36609    36563    36510    36466    36454    36478    36533    36601 
   36649    36657    36624    36555    36479    36424    36397    36398 
   36427    36481    36549    36603    36628    36616    36576    36535 
   36505    36486    36467    36437    36405    36386    36378    36379 
   36405    36464    36566    36682    36763    36779    36740    36660 
   36548    36427    36324    36259    36247    36286    36354    36428 
   36501    36563    36591    36578    36533    36471    36414    36385 
   36397    36448    36520    36594    36661    36713    36740    36748 
   36745    36728    36691    36648    36620    36617    36640    36680 
   36724    36751    36742    36684    36576    36444    36337    36293 
   36315    36391    36498    36594    36651    36652    36603    36524 
   36427    36327    36243    36197    36204    36266    36364    36471 
   36564    36629    36659    36653    36606    36528    36441    36375 
   36354    36396    36489    36603    36713    36802    36860    36879 
   36875    36865    36845    36809    36761    36687    36583    36477 
   36389    36337    36328    36356    36409    36463    36498    36502 
   36470    36398    36300    36209    36151    36144    36194    36286 
   36396    36487    36536    36528    36470    36383    36298    36239 
   36213    36223    36275    36386    36539    36690    36790    36813 
   36759    36648    36509    36385    36315    36309    36363    36455 
   36555    36634    36670    36637    36548    36437    36324    36232 
   36190    36217    36313    36470    36655    36818    36931    36976 
   36945    36864    36771    36699    36661    36655    36672    36702 
   36728    36733    36703    36625    36517    36416    36350    36333 
   36364    36427    36499    36572    36625    36634    36599    36547 
   36499    36474    36470    36487    36526    36572    36599    36594 
   36555    36493    36425    36370    36346    36374    36450    36539 
   36601    36613    36562    36458    36336    36248    36229    36293 
   36416    36555    36667    36728    36722    36663    36571    36486 
   36448    36482    36594    36760    36926    37052    37099    37049 
   36918    36749    36597    36508    36502    36559    36643    36720 
   36748    36705    36587    36423    36258    36135    36063    36047 
   36085    36161    36248    36327    36381    36408    36417    36421 
   36424    36431    36450    36477    36510    36543    36576    36618 
   36667    36705    36721    36705    36651    36568    36486    36432 
   36433    36491    36586    36678    36737    36749    36709    36621 
   36520    36448    36408    36387    36386    36398    36408    36414 
   36418    36418    36421    36435    36458    36479    36494    36494 
   36478    36462    36450    36444    36444    36441    36439    36452 
   36489    36533    36575    36597    36579    36524    36444    36367 
   36319    36319    36377    36486    36634    36788    36904    36956 
   36923    36821    36683    36540    36413    36331    36304    36323 
   36364    36417    36471    36522    36579    36644    36705    36757 
   36799    36821    36813    36772    36711    36651    36612    36605 
   36634    36690    36752    36791    36772    36687    36575    36471 
   36386    36331    36308    36316    36355    36414    36466    36491 
   36499    36516    36551    36599    36648    36672    36647    36563 
   36437    36304    36211    36198    36266    36396    36556    36709 
   36810    36838    36784    36666    36528    36418    36373    36404 
   36497    36616    36714    36760    36742    36676    36586    36506 
   36470    36493    36566    36653    36714    36722    36661    36532 
   36377    36246    36174    36184    36278    36432    36597    36724 
   36782    36757    36664    36552    36463    36410    36400    36414 
   36437    36462    36478    36493    36520    36556    36589    36614 
   36625    36617    36603    36591    36580    36571    36567    36571 
   36572    36568    36556    36525    36467    36397    36324    36266 
   36250    36290    36371    36466    36540    36563    36541    36490 
   36421    36359    36335    36363    36433    36522    36607    36657 
   36645    36575    36466    36340    36238    36194    36217    36283 
   36366    36436    36479    36495    36499    36502    36513    36543 
   36591    36657    36728    36782    36801    36780    36732    36672 
   36617    36564    36520    36495    36483    36470    36459    36456 
   36463    36487    36533    36594    36663    36726    36765    36763 
   36711    36633    36562    36526    36531    36566    36614    36652 
   36657    36622    36547    36443    36336    36252    36221    36266 
   36370    36485    36572    36599    36556    36452    36313    36180 
   36104    36103    36171    36301    36459    36612    36726    36778 
   36761    36698    36618    36551    36518    36532    36583    36661 
   36751    36828    36875    36880    36850    36795    36722    36636 
   36540    36443    36356    36286    36243    36235    36262    36323 
   36400    36471    36522    36547    36551    36545    36528    36504 
   36478    36447    36416    36387    36373    36379    36406    36447 
   36493    36533    36555    36547    36510    36455    36397    36344 
   36304    36288    36312    36367    36439    36517    36590    36636 
   36649    36633    36594    36568    36585    36644    36737    36838 
   36910    36927    36892    36792    36643    36477    36328    36224 
   36190    36234    36325    36424    36506    36552    36547    36506 
   36455    36408    36393    36431    36510    36606    36697    36769 
   36814    36821    36786    36711    36610    36509    36431    36397 
   36409    36450    36499    36552    36585    36576    36541    36493 
   36443    36412    36413    36455    36535    36622    36693    36733 
   36740    36710    36657    36601    36556    36535    36544    36583 
   36637    36676    36679    36634    36552    36462    36393    36364 
   36381    36437    36516    36594    36645    36648    36601    36517 
   36425    36359    36348    36402    36508    36632    36737    36802 
   36810    36761    36675    36574    36481    36420    36394    36391 
   36402    36417    36428    36439    36451    36458    36463    36470 
   36468    36451    36412    36356    36292    36236    36217    36250 
   36329    36440    36560    36667    36742    36764    36725    36649 
   36564    36491    36445    36417    36396    36377    36351    36320 
   36298    36300    36342    36425    36536    36652    36753    36818 
   36832    36806    36767    36737    36732    36752    36784    36802 
   36780    36720    36626    36518    36427    36373    36369    36418 
   36502    36585    36633    36643    36620    36572    36516    36468 
   36450    36455    36478    36512    36543    36555    36545    36528 
   36513    36509    36526    36555    36576    36586    36578    36545 
   36498    36445    36390    36339    36296    36263    36239    36223 
   36219    36231    36258    36297    36343    36398    36460    36514 
   36544    36545    36522    36486    36455    36443    36464    36522 
   36594    36656    36697    36702    36670    36607    36528    36451 
   36401    36396    36436    36512    36612    36713    36795    36852 
   36871    36846    36792    36710    36609    36516    36444    36398 
   36381    36389    36418    36454    36486    36517    36540    36553 
   36552    36532    36512    36510    36526    36559    36607    36657 
   36701    36728    36726    36703    36661    36612    36570    36556 
   36578    36629    36684    36720    36722    36695    36645    36587 
   36536    36495    36475    36477    36497    36524    36544    36539 
   36506    36455    36396    36344    36316    36315    36342    36389 
   36452    36517    36566    36594    36616    36632    36640    36639 
   36628    36601    36556    36501    36437    36378    36329    36294 
   36283    36305    36348    36397    36450    36499    36543    36582 
   36612    36625    36626    36628    36633    36645    36667    36698 
   36737    36778    36799    36788    36744    36671    36583    36508 
   36460    36445    36462    36493    36521    36525    36481    36378 
   36225    36045    35878    35766    35737    35799    35939    36135 
   36354    36551    36697    36769    36765    36703    36610    36498 
   36396    36325    36300    36332    36409    36508    36610    36690 
   36734    36745    36725    36687    36652    36618    36590    36575 
   36570    36575    36591    36612    36626    36628    36616    36595 
   36576    36567    36567    36578    36597    36630    36686    36757 
   36832    36892    36918    36902    36852    36760    36644    36526 
   36425    36351    36316    36323    36360    36416    36475    36521 
   36540    36536    36513    36482    36454    36436    36429    36435 
   36447    36464    36485    36499    36508    36517    36531    36549 
   36585    36624    36660    36688    36698    36684    36659    36625 
   36591    36566    36560    36582    36626    36676    36714    36732 
   36734    36728    36707    36668    36612    36555    36506    36468 
   36444    36450    36485    36531    36571    36593    36590    36563 
   36516    36462    36420    36401    36412    36444    36490    36535 
   36563    36568    36551    36521    36490    36478    36499    36548 
   36613    36668    36706    36730    36730    36699    36645    36579 
   36508    36432    36360    36302    36255    36217    36188    36163 
   36150    36158    36184    36221    36266    36301    36313    36309 
   36300    36289    36270    36248    36240    36252    36285    36333 
   36398    36475    36555    36634    36697    36733    36753    36757 
   36742    36718    36686    36653    36633    36629    36628    36618 
   36602    36580    36547    36505    36452    36398    36366    36366 
   36397    36445    36499    36552    36587    36591    36571    36537 
   36498    36467    36458    36472    36518    36589    36668    36744 
   36795    36821    36819    36790    36740    36687    36643    36605 
   36576    36562    36558    36555    36563    36587    36616    36641 
   36655    36637    36590    36532    36482    36445    36428    36445 
   36493    36563    36647    36714    36744    36729    36663    36551 
   36420    36297    36200    36140    36120    36135    36177    36231 
   36292    36347    36397    36448    36494    36528    36556    36579 
   36598    36621    36656    36706    36769    36842    36906    36937 
   36925    36876    36792    36688    36587    36504    36450    36428 
   36429    36436    36435    36427    36416    36404    36409    36439 
   36482    36528    36568    36594    36599    36575    36521    36462 
   36409    36366    36356    36394    36458    36532    36603    36652 
   36675    36672    36639    36583    36528    36489    36471    36475 
   36504    36544    36580    36602    36606    36597    36574    36541 
   36501    36456    36417    36394    36385    36387    36405    36433 
   36466    36498    36525    36544    36558    36559    36552    36541 
   36524    36505    36491    36482    36483    36501    36525    36553 
   36589    36614    36610    36576    36516    36435    36351    36273 
   36208    36165    36154    36192    36281    36404    36532    36644 
   36728    36764    36744    36683    36603    36521    36459    36431 
   36437    36477    36544    36620    36691    36749    36783    36786 
   36761    36721    36670    36617    36566    36526    36509    36518 
   36539    36543    36537    36526    36504    36470    36443    36420 
   36405    36405    36420    36452    36501    36552    36603    36651 
   36674    36670    36659    36641    36617    36594    36568    36532 
   36482    36423    36363    36313    36283    36279    36306    36358 
   36424    36485    36531    36555    36552    36529    36493    36447 
   36406    36373    36347    36335    36342    36364    36412    36482 
   36559    36630    36683    36706    36699    36666    36617    36568 
   36525    36504    36513    36536    36559    36570    36567    36562 
   36556    36547    36549    36568    36599    36639    36666    36667 
   36652    36621    36583    36555    36541    36537    36552    36586 
   36629    36666    36684    36678    36655    36622    36589    36559 
   36532    36510    36494    36479    36464    36459    36463    36487 
   36526    36564    36598    36622    36626    36621    36610    36598 
   36598    36603    36595    36580    36572    36568    36560    36549 
   36536    36522    36517    36510    36491    36460    36416    36363 
   36309    36266    36242    36244    36273    36323    36383    36439 
   36479    36504    36514    36512    36495    36471    36455    36459 
   36478    36499    36521    36525    36506    36472    36440    36418 
   36406    36406    36412    36423    36448    36486    36535    36589 
   36648    36699    36730    36744    36748    36736    36705    36675 
   36656    36656    36672    36705    36742    36765    36763    36730 
   36667    36595    36540    36506    36497    36508    36529    36548 
   36552    36540    36521    36502    36495    36504    36521    36545 
   36562    36553    36514    36450    36373    36308    36277    36294 
   36348    36421    36494    36548    36566    36551    36517    36482 
   36464    36468    36486    36509    36533    36551    36552    36543 
   36532    36528    36540    36566    36609    36655    36690    36705 
   36698    36671    36644    36630    36636    36661    36702    36744 
   36776    36790    36778    36737    36674    36602    36537    36491 
   36468    36466    36479    36499    36516    36526    36536    36548 
   36559    36562    36547    36506    36437    36360    36297    36255 
   36250    36281    36335    36401    36459    36494    36504    36491 
   36460    36423    36394    36379    36377    36391    36414    36435 
   36454    36467    36474    36481    36490    36497    36499    36497 
   36486    36464    36439    36417    36408    36416    36437    36475 
