Origin Time       2025/06/03 22:18:00
Lat.              41.7
Long.             143.6
Depth. (km)       30
Mag.              5.2
Station Code      AOMH05
Station Lat.      40.8564
Station Long.     141.1033
Station Height(m) 45
Record Time       2025/06/03 22:19:32
Sampling Freq(Hz) 100Hz
Duration Time(s)  120
Dir.              4
Scale Factor      3920(gal)/6170801
Max. Acc. (gal)   1.793
Last Correction   2025/06/03 22:19:17
Memo.             
[...]
  -18963   -18837   -18787   -18798   -18856   -18953   -19067   -19163 
  -19213   -19221   -19215   -19212   -19212   -19218   -19229   -19222 
  -19156   -19026   -18881   -18772   -18706   -18675   -18695   -18764 
  -18856   -18937   -18992   -19042   -19122   -19222   -19296   -19312 
  -19298   -19317   -19372   -19408   -19400   -19369   -19315   -19222 
  -19096   -18989   -18953   -18977   -19013   -19032   -19036   -19032 
  -19011   -18959   -18879   -18793   -18718   -18666   -18679   -18791 
  -18969   -19143   -19270   -19347   -19393   -19421   -19422   -19385 
  -19308   -19198   -19082   -19005   -18980   -19000   -19059   -19126 
  -19170   -19216   -19279   -19317   -19299   -19243   -19184   -19129 
  -19061   -18967   -18864   -18787   -18758   -18764   -18801   -18887 
  -19020   -19163   -19267   -19301   -19269   -19206   -19152   -19122 
  -19102   -19066   -19009   -18941   -18875   -18830   -18821   -18850 
  -18903   -18956   -18984   -18992   -19000   -19005   -18987   -18936 
  -18878   -18860   -18905   -19001   -19147   -19339   -19537   -19670 
  -19685   -19591   -19440   -19274   -19102   -18958   -18884   -18895 
  -18975   -19089   -19204   -19276   -19263   -19173   -19044   -18913 
  -18819   -18809   -18894   -19039   -19194   -19321   -19393   -19391 
  -19303   -19159   -19012   -18891   -18801   -18742   -18702   -18672 
  -18664   -18684   -18729   -18795   -18878   -18963   -19032   -19069 
  -19064   -19032   -19001   -18998   -19043   -19122   -19212   -19311 
  -19403   -19445   -19412   -19319   -19202   -19105   -19048   -19025 
  -19042   -19121   -19228   -19288   -19265   -19196   -19124   -19064 
  -19012   -18990   -19030   -19109   -19162   -19153   -19093   -19010 
  -18922   -18827   -18726   -18646   -18629   -18688   -18828   -19037 
  -19261   -19454   -19604   -19705   -19727   -19644   -19469   -19275 
  -19148   -19124   -19161   -19199   -19210   -19187   -19115   -18982 
  -18817   -18675   -18590   -18571   -18619   -18719   -18843   -18942 
  -18960   -18897   -18803   -18724   -18681   -18682   -18715   -18774 
  -18880   -19028   -19169   -19284   -19384   -19459   -19507   -19553 
  -19595   -19602   -19578   -19553   -19530   -19480   -19395   -19297 
  -19207   -19143   -19118   -19128   -19157   -19175   -19148   -19055 
  -18923   -18800   -18711   -18666   -18655   -18654   -18666   -18696 
  -18723   -18733   -18736   -18745   -18772   -18829   -18921   -19065 
  -19261   -19482   -19678   -19795   -19800   -19694   -19511   -19299 
  -19114   -18987   -18924   -18932   -19009   -19147   -19318   -19455 
  -19488   -19402   -19229   -19024   -18857   -18768   -18748   -18764 
  -18781   -18794   -18811   -18828   -18841   -18861   -18888   -18915 
  -18944   -18983   -19039   -19098   -19131   -19131   -19126   -19128 
  -19138   -19161   -19197   -19236   -19263   -19286   -19320   -19339 
  -19312   -19252   -19187   -19129   -19079   -19038   -19011   -18985 
  -18933   -18854   -18779   -18749   -18771   -18826   -18899   -18967 
  -18990   -18970   -18957   -18981   -19031   -19082   -19124   -19154 
  -19165   -19164   -19162   -19163   -19173   -19185   -19187   -19195 
  -19215   -19221   -19202   -19161   -19100   -19043   -19018   -19042 
  -19112   -19193   -19243   -19239   -19192   -19137   -19096   -19062 
  -19040   -19035   -19028   -19016   -19010   -19007   -19005   -19006 
  -18996   -18981   -18999   -19044   -19082   -19112   -19146   -19160 
  -19130   -19059   -18970   -18891   -18846   -18851   -18900   -18959 
  -19004   -19057   -19145   -19260   -19355   -19400   -19396   -19375 
  -19351   -19324   -19307   -19306   -19307   -19296   -19264   -19222 
  -19183   -19120   -19011   -18879   -18765   -18685   -18654   -18676 
  -18728   -18788   -18838   -18863   -18865   -18853   -18836   -18836 
  -18855   -18870   -18893   -18980   -19134   -19285   -19367   -19388 
  -19409   -19445   -19443   -19362   -19221   -19062   -18919   -18819 
  -18793   -18850   -18956   -19079   -19213   -19337   -19413   -19426 
  -19371   -19256   -19109   -18972   -18868   -18798   -18765   -18778 
  -18811   -18824   -18829   -18873   -18962   -19070   -19182   -19289 
  -19372   -19413   -19401   -19348   -19290   -19252   -19215   -19168 
  -19122   -19093   -19094   -19119   -19149   -19175   -19184   -19163 
  -19123   -19085   -19047   -18995   -18934   -18886   -18866   -18864 
  -18861   -18858   -18864   -18864   -18840   -18806   -18794   -18813 
  -18836   -18861   -18930   -19051   -19171   -19243   -19263   -19266 
  -19290   -19323   -19315   -19272   -19259   -19305   -19373   -19407 
  -19402   -19398   -19409   -19412   -19383   -19319   -19215   -19085 
  -18950   -18846   -18788   -18754   -18711   -18654   -18594   -18552 
  -18549   -18588   -18663   -18755   -18842   -18933   -19038   -19139 
  -19207   -19232   -19226   -19182   -19084   -18956   -18858   -18836 
  -18898   -19019   -19175   -19356   -19521   -19624   -19661   -19640 
  -19556   -19426   -19298   -19203   -19130   -19069   -19034   -19034 
  -19046   -19029   -18976   -18906   -18851   -18834   -18856   -18904 
  -18961   -19025   -19084   -19104   -19070   -19021   -18998   -18995 
  -18988   -18977   -18968   -18955   -18938   -18936   -18972   -19053 
  -19156   -19230   -19248   -19231   -19200   -19152   -19103   -19075 
  -19068   -19097   -19188   -19320   -19453   -19547   -19567   -19501 
  -19372   -19212   -19049   -18899   -18784   -18737   -18764   -18847 
  -18959   -19077   -19198   -19307   -19345   -19276   -19141   -19012 
  -18929   -18898   -18935   -19054   -19207   -19321   -19344   -19259 
  -19104   -18936   -18808   -18764   -18813   -18931   -19087   -19241 
  -19352   -19405   -19403   -19346   -19251   -19148   -19062   -18993 
  -18911   -18801   -18710   -18700   -18779   -18896   -19003   -19104 
  -19206   -19261   -19245   -19190   -19137   -19097   -19054   -19005 
  -18980   -18998   -19043   -19087   -19117   -19128   -19114   -19073 
  -19022   -18998   -19004   -19010   -19005   -19004   -19014   -19050 
  -19120   -19215   -19315   -19386   -19385   -19317   -19256   -19254 
  -19307   -19388   -19472   -19535   -19564   -19549   -19471   -19335 
  -19177   -19018   -18848   -18669   -18506   -18377   -18271   -18178 
  -18120   -18115   -18132   -18158   -18214   -18311   -18459   -18667 
  -18932   -19233   -19518   -19737   -19886   -19972   -19975   -19895 
  -19777   -19671   -19602   -19556   -19511   -19480   -19477   -19459 
  -19404   -19332   -19256   -19159   -19032   -18886   -18741   -18586 
  -18393   -18158   -17924   -17759   -17711   -17795   -18015   -18337 
  -18682   -18965   -19146   -19233   -19271   -19309   -19360   -19439 
  -19592   -19844   -20149   -20418   -20560   -20527   -20345   -20065 
  -19730   -19406   -19168   -19044   -18986   -18934   -18879   -18828 
  -18771   -18703   -18624   -18521   -18404   -18324   -18331   -18409 
  -18480   -18496   -18476   -18446   -18426   -18458   -18583   -18800 
  -19062   -19316   -19537   -19702   -19789   -19798   -19740   -19647 
  -19596   -19639   -19755   -19888   -19968   -19922   -19701   -19320 
  -18852   -18381   -17977   -17682   -17527   -17549   -17729   -17974 
  -18222   -18478   -18764   -19087   -19438   -19794   -20125   -20349 
  -20371   -20189   -19875   -19496   -19129   -18870   -18817   -19005 
  -19342   -19669   -19893   -19985   -19921   -19703   -19415   -19176 
  -19035   -18961   -18935   -18955   -18991   -18972   -18844   -18626 
  -18406   -18262   -18202   -18197   -18246   -18369   -18553   -18748 
  -18901   -18976   -18974   -18931   -18878   -18838   -18839   -18904 
  -19033   -19232   -19501   -19769   -19929   -19962   -19909   -19799 
  -19653   -19504   -19393   -19362   -19403   -19452   -19437   -19330 
  -19146   -18918   -18691   -18520   -18427   -18396   -18409   -18460 
  -18554   -18684   -18809   -18878   -18891   -18906   -18965   -19056 
  -19172   -19339   -19560   -19779   -19924   -19967   -19913   -19775 
  -19580   -19352   -19104   -18862   -18647   -18468   -18356   -18331 
  -18382   -18498   -18659   -18826   -18964   -19037   -19016   -18909 
  -18745   -18555   -18372   -18218   -18132   -18186   -18440   -18868 
  -19341   -19716   -19926   -19996   -20006   -20022   -20059   -20116 
  -20214   -20331   -20369   -20258   -20015   -19712   -19417   -19155 
  -18924   -18751   -18654   -18579   -18470   -18330   -18182   -18039 
  -17905   -17798   -17758   -17806   -17934   -18119   -18324   -18530 
  -18762   -19014   -19231   -19401   -19574   -19771   -19934   -19985 
  -19911   -19778   -19666   -19607   -19587   -19578   -19568   -19565 
  -19548   -19475   -19332   -19142   -18948   -18765   -18568   -18363 
  -18228   -18238   -18372   -18524   -18602   -18647   -18778   -19074 
  -19521   -20036   -20496   -20766   -20739   -20390   -19805   -19116 
  -18435   -17893   -17634   -17724   -18089   -18559   -18967   -19211 
  -19267   -19197   -19094   -19024   -19013   -19041   -19059   -19038 
  -18977   -18902   -18845   -18815   -18825   -18912   -19073   -19241 
  -19346   -19383   -19410   -19488   -19641   -19859   -20096   -20273 
  -20324   -20225   -19999   -19688   -19337   -19009   -18771   -18618 
  -18477   -18298   -18107   -17975   -17957   -18064   -18291   -18614 
  -18938   -19119   -19064   -18844   -18637   -18538   -18530   -18628 
  -18849   -19107   -19285   -19351   -19328   -19226   -19032   -18787 
  -18587   -18515   -18595   -18797   -19072   -19386   -19690   -19916 
  -20045   -20113   -20129   -20067   -19938   -19762   -19527   -19264 
  -19040   -18878   -18763   -18696   -18688   -18714   -18747   -18799 
  -18876   -18933   -18920   -18856   -18797   -18751   -18683   -18582 
  -18464   -18334   -18209   -18158   -18245   -18440   -18652   -18847 
  -19054   -19292   -19535   -19719   -19813   -19847   -19860   -19866 
  -19877   -19921   -20009   -20095   -20102   -19978   -19737   -19442 
  -19142   -18845   -18579   -18408   -18354   -18371   -18411   -18473 
  -18544   -18570   -18552   -18556   -18620   -18722   -18833   -18944 
  -19044   -19101   -19087   -19014   -18923   -18855   -18828   -18848 
  -18931   -19092   -19303   -19509   -19651   -19666   -19540   -19335 
  -19135   -19001   -18963   -19042   -19245   -19531   -19804   -19966 
  -19954   -19763   -19439   -19044   -18633   -18289   -18113   -18139 
  -18284   -18443   -18579   -18703   -18829   -18944   -19011   -19022 
  -18986   -18869   -18644   -18363   -18140   -18078   -18204   -18481 
  -18866   -19295   -19699   -20069   -20438   -20785   -21051   -21209 
  -21255   -21170   -20943   -20587   -20137   -19659   -19229   -18873 
  -18555   -18251   -18000   -17847   -17793   -17830   -17949   -18130 
  -18358   -18585   -18706   -18633   -18349   -17915   -17471   -17187 
  -17184   -17500   -18084   -18806   -19528   -20138   -20567   -20818 
  -20928   -20933   -20891   -20876   -20888   -20863   -20726   -20410 
  -19908   -19301   -18685   -18114   -17606   -17217   -17054   -17162 
  -17436   -17729   -17968   -18152   -18272   -18308   -18279   -18256 
  -18317   -18487   -18729   -18980   -19214   -19433   -19630   -19801 
  -19978   -20198   -20461   -20727   -20930   -21000   -20901   -20664 
  -20319   -19873   -19383   -18939   -18567   -18263   -18032   -17877 
  -17804   -17802   -17871   -18056   -18384   -18823   -19298   -19709 
  -19977   -20066   -19962   -19665   -19252   -18865   -18621   -18554 
  -18641   -18848   -19127   -19410   -19643   -19797   -19846   -19784 
  -19641   -19456   -19276   -19139   -19051   -18985   -18896   -18753 
  -18568   -18378   -18238   -18220   -18363   -18620   -18922   -19220 
  -19461   -19594   -19609   -19509   -19299   -19009   -18688   -18398 
  -18189   -18060   -17991   -17977   -18019   -18136   -18377   -18775 
  -19297   -19847   -20316   -20627   -20736   -20644   -20398   -20076 
  -19738   -19416   -19125   -18883   -18707   -18587   -18502   -18462 
  -18508   -18660   -18904   -19199   -19472   -19667   -19746   -19650 
  -19335   -18850   -18279   -17694   -17186   -16888   -16917   -17295 
  -17941   -18722   -19504   -20174   -20623   -20791   -20711   -20482 
  -20204   -19962   -19831   -19807   -19772   -19614   -19338   -18991 
  -18623   -18314   -18164   -18238   -18503   -18851   -19195   -19513 
  -19804   -20041   -20199   -20298   -20351   -20307   -20118   -19796 
  -19362   -18822   -18219   -17643   -17214   -17036   -17131   -17443 
  -17879   -18310   -18632   -18827   -18898   -18825   -18624   -18381 
  -18193   -18105   -18115   -18215   -18386   -18595   -18835   -19086 
  -19285   -19391   -19433   -19464   -19525   -19647   -19823   -20015 
  -20178   -20269   -20257   -20151   -19997   -19836   -19697   -19603 
  -19519   -19360   -19098   -18787   -18468   -18143   -17843   -17635 
  -17579   -17709   -18027   -18491   -19007   -19441   -19715   -19846 
  -19885   -19874   -19853   -19860   -19905   -19961   -19988   -19962 
  -19910   -19876   -19867   -19868   -19877   -19870   -19803   -19677 
  -19522   -19322   -19027   -18621   -18150   -17685   -17287   -16996 
  -16874   -16984   -17323   -17810   -18345   -18843   -19249   -19536 
  -19707   -19793   -19816   -19800   -19774   -19771   -19799   -19815 
  -19793   -19767   -19780   -19857   -20023   -20286   -20593   -20829 
  -20902   -20780   -20474   -19994   -19365   -18663   -17984   -17382 
  -16886   -16517   -16296   -16255   -16403   -16706   -17125   -17645 
  -18228   -18801   -19290   -19628   -19771   -19742   -19592   -19333 
  -18986   -18621   -18332   -18209   -18293   -18575   -19026   -19597 
  -20197   -20716   -21069   -21197   -21073   -20725   -20244   -19731 
  -19261   -18857   -18542   -18355   -18325   -18448   -18692   -19022 
  -19406   -19770   -20008   -20061   -19952   -19717   -19391   -19023 
  -18648   -18294   -18006   -17819   -17764   -17861   -18105   -18483 
  -18973   -19501   -19967   -20287   -20422   -20407   -20299   -20114 
  -19866   -19592   -19306   -19007   -18683   -18328   -17971   -17676 
  -17511   -17530   -17734   -18068   -18445   -18791   -19062   -19227 
  -19260   -19174   -19029   -18887   -18785   -18741   -18799   -18993 
  -19287   -19620   -19950   -20239   -20450   -20582   -20669   -20726 
  -20734   -20660   -20460   -20092   -19573   -18986   -18434   -18005 
  -17744   -17662   -17766   -18008   -18275   -18482   -18588   -18576 
  -18462   -18284   -18081   -17894   -17755   -17672   -17649   -17716 
  -17901   -18206   -18621   -19116   -19644   -20166   -20644   -21042 
  -21315   -21426   -21358   -21093   -20655   -20133   -19620   -19164 
  -18779   -18470   -18254   -18149   -18146   -18215   -18354   -18577 
  -18872   -19194   -19479   -19674   -19758   -19732   -19606   -19390 
  -19129   -18901   -18756   -18685   -18671   -18744   -18942   -19246 
  -19569   -19812   -19934   -19952   -19890   -19734   -19476   -19139 
  -18749   -18313   -17866   -17463   -17143   -16960   -16977   -17214 
  -17641   -18163   -18645   -19000   -19209   -19267   -19169   -18947 
  -18679   -18434   -18245   -18134   -18123   -18209   -18370   -18598 
  -18912   -19315   -19764   -20206   -20609   -20951   -21223   -21431 
  -21543   -21508   -21328   -21054   -20723   -20350   -19944   -19498 
  -19005   -18487   -17998   -17583   -17272   -17115   -17159   -17379 
  -17711   -18094   -18473   -18791   -19022   -19185   -19298   -19341 
  -19321   -19296   -19293   -19297   -19311   -19337   -19347   -19331 
  -19338   -19452   -19722   -20106   -20503   -20798   -20939   -20921 
  -20727   -20335   -19786   -19184   -18623   -18170   -17871   -17726 
  -17681   -17691   -17760   -17894   -18072   -18279   -18499   -18678 
  -18763   -18749   -18658   -18511   -18338   -18186   -18085   -18047 
  -18097   -18253   -18469   -18680   -18867   -19045   -19227   -19403 
  -19565   -19755   -20001   -20257   -20455   -20564   -20593   -20550 
  -20421   -20208   -19957   -19723   -19524   -19346   -19207   -19136 
  -19114   -19080   -18985   -18843   -18692   -18543   -18398   -18280 
  -18234   -18264   -18308   -18304   -18251   -18190   -18165   -18194 
  -18276   -18424   -18641   -18894   -19120   -19266   -19345   -19404 
  -19454   -19465   -19431   -19381   -19353   -19378   -19455   -19548 
  -19610   -19608   -19541   -19436   -19336   -19270   -19239   -19224 
  -19195   -19137   -19057   -18975   -18910   -18852   -18778   -18689 
  -18603   -18523   -18452   -18399   -18394   -18464   -18593   -18750 
  -18924   -19101   -19274   -19456   -19656   -19861   -20039   -20156 
  -20189   -20112   -19913   -19624   -19318   -19052   -18859   -18781 
  -18838   -18986   -19156   -19300   -19361   -19291   -19090   -18809 
  -18538   -18341   -18223   -18159   -18154   -18214   -18311   -18408 
  -18486   -18541   -18586   -18638   -18705   -18762   -18788   -18814 
  -18900   -19073   -19298   -19517   -19701   -19829   -19882   -19865 
  -19787   -19652   -19494   -19384   -19372   -19455   -19585   -19687 
  -19697   -19598   -19435   -19294   -19221   -19218   -19265   -19325 
  -19381   -19429   -19435   -19382   -19307   -19257   -19234   -19215 
  -19198   -19174   -19119   -19032   -18931   -18828   -18744   -18702 
  -18717   -18785   -18888   -19011   -19142   -19263   -19362   -19431 
  -19458   -19443   -19372   -19239   -19077   -18921   -18766   -18591 
  -18415   -18268   -18176   -18181   -18304   -18512   -18768   -19038 
  -19268   -19397   -19400   -19330   -19267   -19230   -19194   -19146 
  -19086   -19014   -18938   -18876   -18846   -18868   -18950   -19099 
  -19295   -19483   -19604   -19638   -19571   -19409   -19192   -18966 
  -18754   -18573   -18435   -18365   -18384   -18463   -18552   -18614 
  -18619   -18597   -18592   -18604   -18622   -18658   -18711   -18776 
  -18857   -18952   -19061   -19165   -19223   -19228   -19219   -19226 
  -19248   -19281   -19336   -19427   -19548   -19658   -19749   -19857 
  -19984   -20097   -20162   -20164   -20122   -20062   -19976   -19856 
  -19711   -19556   -19403   -19261   -19140   -19062   -19038   -19057 
  -19081   -19071   -19019   -18954   -18895   -18841   -18782   -18705 
  -18598   -18444   -18235   -17983   -17726   -17512   -17388   -17389 
  -17527   -17803   -18185   -18612   -19014   -19335   -19549   -19663 
  -19692   -19636   -19503   -19322   -19131   -18937   -18729   -18541 
  -18442   -18481   -18655   -18924   -19232   -19508   -19677   -19719 
  -19653   -19504   -19323   -19177   -19107   -19124   -19202   -19306 
  -19422   -19526   -19583   -19577   -19519   -19433   -19330   -19195 
  -19023   -18837   -18652   -18472   -18320   -18246   -18291   -18451 
  -18703   -19033   -19413   -19775   -20057   -20230   -20280   -20207 
  -20041   -19832   -19620   -19439   -19298   -19182   -19073   -18970 
  -18889   -18859   -18900   -19004   -19158   -19338   -19472   -19518 
  -19487   -19404   -19272   -19069   -18798   -18501   -18219   -17981 
  -17809   -17726   -17742   -17843   -17986   -18140   -18307   -18483 
  -18649   -18798   -18941   -19091   -19226   -19323   -19397   -19467 
  -19528   -19577   -19604   -19604   -19589   -19559   -19499   -19421 
  -19339   -19258   -19209   -19225   -19295   -19391   -19509   -19647 
