Origin Time       2025/06/03 22:18:00
Lat.              41.7
Long.             143.6
Depth. (km)       30
Mag.              5.2
Station Code      AOMH05
Station Lat.      40.8564
Station Long.     141.1033
Station Height(m) 45
Record Time       2025/06/03 22:19:32
Sampling Freq(Hz) 100Hz
Duration Time(s)  120
Dir.              6
Scale Factor      3920(gal)/6170801
Max. Acc. (gal)   0.433
Last Correction   2025/06/03 22:19:17
Memo.             
[...]
    5544     5470     5414     5443     5536     5600     5551     5411 
    5289     5255     5278     5297     5301     5334     5414     5512 
    5602     5647     5627     5582     5548     5492     5394     5316 
    5328     5414     5492     5485     5387     5281     5250     5298 
    5359     5381     5371     5372     5410     5480     5537     5551 
    5537     5513     5481     5478     5526     5563     5515     5398 
    5302     5313     5428     5539     5548     5482     5429     5431 
    5468     5505     5518     5493     5438     5395     5404     5455 
    5493     5483     5442     5391     5348     5341     5383     5426 
    5419     5374     5331     5307     5307     5345     5411     5456 
    5445     5384     5310     5285     5344     5455     5546     5575 
    5555     5519     5476     5438     5432     5474     5540     5585 
    5593     5568     5531     5510     5516     5514     5467     5385 
    5335     5350     5377     5364     5321     5301     5344     5429 
    5502     5538     5536     5518     5504     5487     5444     5384 
    5347     5346     5359     5382     5413     5424     5382     5282 
    5170     5114     5135     5210     5311     5405     5446     5430 
    5393     5371     5384     5419     5445     5453     5463     5513 
    5600     5662     5653     5577     5476     5416     5438     5509 
    5564     5579     5565     5525     5469     5428     5411     5409 
    5425     5449     5470     5510     5579     5626     5594     5513 
    5443     5389     5327     5292     5341     5434     5455     5360 
    5238     5201     5272     5390     5464     5445     5385     5374 
    5423     5459     5435     5376     5340     5369     5449     5508 
    5472     5356     5242     5195     5220     5284     5351     5418 
    5469     5470     5439     5436     5465     5484     5479     5452 
    5418     5410     5430     5428     5395     5386     5436     5508 
    5540     5502     5435     5427     5501     5584     5598     5549 
    5481     5421     5397     5429     5489     5527     5517     5473 
    5445     5473     5543     5610     5604     5489     5337     5284 
    5378     5547     5673     5664     5534     5396     5328     5306 
    5293     5303     5335     5354     5364     5397     5437     5450 
    5448     5451     5455     5457     5462     5475     5512     5551 
    5534     5428     5278     5197     5265     5419     5494     5433 
    5333     5304     5379     5498     5540     5460     5335     5267 
    5298     5395     5472     5445     5340     5297     5377     5481 
    5503     5436     5358     5351     5450     5599     5693     5683 
    5585     5461     5401     5449     5536     5574     5546     5495 
    5471     5483     5498     5478     5437     5431     5448     5413 
    5323     5262     5275     5340     5403     5430     5416     5369 
    5331     5346     5395     5425     5426     5428     5444     5484 
    5555     5607     5593     5532     5461     5394     5340     5319 
    5335     5351     5352     5355     5353     5342     5341     5362 
    5405     5476     5542     5539     5467     5402     5399     5431 
    5433     5384     5321     5292     5313     5369     5428     5468 
    5480     5491     5516     5538     5557     5569     5545     5491 
    5449     5449     5469     5459     5407     5349     5320     5325 
    5358     5404     5440     5465     5489     5503     5501     5489 
    5474     5451     5422     5414     5436     5465     5483     5488 
    5477     5459     5455     5440     5381     5331     5359     5432 
    5459     5402     5323     5310     5366     5415     5400     5359 
    5387     5505     5612     5595     5444     5279     5252     5382 
    5533     5571     5509     5452     5446     5437     5383     5331 
    5342     5406     5457     5441     5380     5346     5387     5477 
    5554     5564     5509     5467     5489     5528     5507     5397 
    5256     5186     5221     5294     5331     5331     5340     5385 
    5451     5509     5547     5564     5564     5552     5537     5532 
    5524     5501     5484     5509     5563     5576     5513     5432 
    5410     5460     5515     5504     5450     5448     5509     5533 
    5440     5271     5151     5171     5289     5366     5338     5293 
    5329     5443     5570     5630     5599     5522     5455     5408 
    5379     5371     5383     5399     5426     5469     5521     5572 
    5608     5608     5550     5417     5277     5221     5244     5294 
    5346     5378     5375     5355     5342     5351     5396     5462 
    5500     5492     5488     5521     5549     5514     5402     5289 
    5282     5381     5485     5533     5539     5551     5590     5603 
    5518     5376     5319     5375     5434     5440     5437     5461 
    5505     5533     5511     5445     5383     5364     5365     5356 
    5343     5357     5399     5434     5448     5453     5443     5401 
    5322     5243     5228     5296     5387     5438     5445     5432 
    5423     5431     5447     5444     5421     5408     5425     5473 
    5529     5563     5550     5497     5427     5375     5369     5383 
    5359     5285     5220     5215     5265     5333     5375     5359 
    5314     5312     5370     5434     5457     5443     5409     5381 
    5404     5500     5603     5637     5623     5622     5643     5664 
    5652     5606     5576     5610     5698     5777     5795     5764 
    5721     5664     5556     5396     5259     5219     5250     5276 
    5253     5198     5176     5236     5349     5438     5440     5361 
    5247     5145     5120     5226     5410     5524     5480     5364 
    5332     5443     5626     5757     5748     5619     5493     5477 
    5543     5578     5518     5391     5290     5278     5332     5383 
    5395     5385     5390     5433     5483     5479     5424     5394 
    5439     5527     5599     5621     5599     5549     5489     5448 
    5447     5467     5483     5496     5498     5462     5398     5350 
    5350     5417     5528     5597     5561     5471     5429     5448 
    5452     5380     5246     5127     5104     5189     5314     5395 
    5410     5385     5352     5331     5305     5271     5263     5308 
    5418     5555     5633     5617     5578     5585     5596     5537 
    5409     5289     5245     5292     5392     5454     5409     5299 
    5222     5209     5202     5178     5190     5267     5361     5414 
    5441     5484     5534     5553     5530     5509     5555     5680 
    5811     5876     5863     5776     5625     5461     5350     5326 
    5375     5471     5547     5509     5357     5208     5160     5196 
    5256     5304     5318     5289     5253     5271     5355     5438 
    5453     5403     5359     5409     5558     5705     5741     5665 
    5575     5551     5570     5562     5522     5502     5525     5570 
    5613     5618     5555     5467     5437     5461     5467     5440 
    5413     5371     5276     5147     5047     5016     5055     5126 
    5158     5120     5102     5222     5457     5671     5769     5743 
    5655     5590     5585     5603     5579     5493     5417     5447 
    5569     5658     5621     5518     5474     5542     5680     5761 
    5651     5388     5167     5095     5125     5203     5312     5435 
    5568     5680     5716     5658     5554     5440     5310     5177 
    5071     5027     5117     5365     5639     5760     5689     5549 
    5486     5535     5600     5548     5343     5111     5019     5097 
    5219     5290     5339     5391     5398     5335     5253     5197 
    5170     5169     5194     5233     5289     5367     5427     5451 
    5478     5536     5598     5646     5704     5790     5871     5891 
    5827     5724     5639     5586     5553     5536     5548     5590 
    5620     5597     5555     5540     5511     5408     5271     5208 
    5265     5342     5281     5065     4873     4873     5074     5351 
    5535     5533     5433     5399     5467     5559     5627     5650 
    5613     5553     5520     5515     5501     5449     5369     5332 
    5380     5443     5411     5294     5219     5266     5394     5485 
    5478     5420     5397     5453     5553     5607     5581     5520 
    5452     5359     5237     5157     5198     5334     5442     5449 
    5408     5428     5543     5684     5772     5784     5748     5720 
    5722     5720     5700     5658     5580     5477     5356     5217 
    5086     5000     4949     4919     4940     5019     5093     5133 
    5196     5353     5584     5772     5820     5738     5599     5463 
    5348     5274     5261     5297     5354     5408     5460     5514 
    5545     5528     5505     5523     5562     5565     5500     5393 
    5287     5230     5270     5389     5483     5467     5370     5303 
    5312     5347     5350     5323     5290     5313     5473     5748 
    5981     6013     5795     5433     5123     5000     5065     5239 
    5437     5573     5601     5576     5575     5584     5553     5496 
    5451     5433     5449     5489     5517     5527     5554     5577 
    5530     5430     5373     5378     5355     5262     5184     5187 
    5249     5316     5356     5395     5475     5593     5678     5634 
    5459     5273     5184     5200     5288     5422     5583     5727 
    5792     5751     5643     5518     5384     5258     5198     5209 
    5216     5183     5154     5162     5188     5217     5277     5386 
    5529     5674     5760     5727     5598     5449     5335     5271 
    5247     5265     5354     5516     5679     5738     5656     5525 
    5480     5571     5717     5796     5759     5658     5608     5678 
    5793     5820     5727     5576     5421     5305     5265     5313 
    5394     5437     5403     5292     5152     5036     4947     4847 
    4762     4806     5014     5276     5457     5509     5493     5505 
    5566     5626     5652     5672     5726     5801     5835     5778 
    5639     5481     5363     5278     5196     5133     5133     5178 
    5225     5292     5409     5533     5586     5557     5496     5443 
    5410     5392     5371     5359     5408     5526     5648     5692 
    5630     5489     5358     5338     5417     5477     5462     5402 
    5324     5257     5245     5266     5224     5080     4930     4908 
    5040     5225     5355     5412     5454     5552     5680     5725 
    5618     5448     5402     5556     5781     5906     5880     5761 
    5641     5567     5497     5379     5232     5100     5004     4964 
    4990     5075     5190     5312     5454     5639     5848     6026 
    6113     6060     5902     5749     5672     5681     5748     5807 
    5827     5843     5835     5723     5475     5172     4972     4931 
    4956     4961     4949     4963     5038     5162     5276     5327 
    5327     5331     5388     5497     5603     5647     5612     5529 
    5432     5320     5195     5112     5130     5259     5433     5534 
    5516     5472     5511     5622     5683     5627     5536     5513 
    5561     5627     5661     5635     5576     5532     5508     5471 
    5403     5337     5329     5382     5428     5407     5319     5220 
    5176     5206     5262     5284     5251     5201     5168     5143 
    5109     5073     5063     5124     5263     5438     5612     5753 
    5816     5796     5764     5789     5849     5853     5754     5568 
    5332     5137     5077     5143     5251     5336     5390     5446 
    5550     5695     5809     5819     5724     5620     5624     5720 
    5802     5823     5791     5716     5625     5538     5442     5330 
    5226     5183     5226     5300     5323     5267     5159     5084 
    5126     5241     5289     5241     5207     5252     5308     5286 
    5172     5019     4930     4976     5124     5289     5414     5477 
    5496     5505     5510     5494     5449     5415     5443     5530 
    5641     5752     5839     5888     5924     5963     5962     5881 
    5754     5632     5521     5424     5375     5386     5440     5513 
    5562     5530     5416     5292     5236     5277     5351     5365 
    5310     5242     5214     5219     5177     5071     5027     5143 
    5347     5505     5557     5533     5506     5539     5615     5651 
    5618     5565     5511     5435     5353     5297     5281     5311 
    5363     5387     5342     5259     5221     5279     5403     5520 
    5576     5591     5628     5706     5773     5778     5731     5686 
    5647     5571     5474     5437     5489     5573     5617     5554 
    5351     5112     5008     5049     5107     5101     5043     5000 
    5040     5169     5319     5426     5474     5476     5450     5407 
    5383     5423     5507     5559     5530     5433     5332     5309 
    5400     5535     5603     5571     5497     5446     5428     5413 
    5355     5234     5096     5012     5020     5126     5292     5450 
    5557     5593     5544     5443     5361     5359     5456     5639 
    5855     6027     6100     6072     5975     5846     5722     5620 
    5554     5541     5567     5579     5518     5380     5240     5179 
    5183     5184     5158     5138     5166     5249     5340     5368 
    5321     5244     5193     5223     5339     5457     5483     5394 
    5258     5173     5187     5287     5430     5572     5707     5864 
    6027     6114     6077     5947     5778     5608     5477     5393 
    5325     5259     5218     5233     5293     5343     5347     5324 
    5311     5325     5343     5325     5256     5163     5095     5070 
    5060     5039     5033     5078     5151     5194     5206     5239 
    5324     5440     5532     5571     5558     5519     5502     5515 
    5523     5528     5551     5584     5630     5705     5782     5806 
    5783     5775     5804     5832     5804     5705     5566     5435 
    5336     5253     5183     5162     5185     5208     5221     5264 
    5375     5550     5719     5794     5768     5732     5760     5839 
    5904     5886     5773     5609     5456     5359     5303     5235 
    5134     5025     4953     4943     4986     5058     5118     5112 
    5045     4995     5004     5032     5032     5019     5054     5159 
    5290     5402     5511     5657     5829     5957     5961     5863 
    5792     5824     5895     5914     5871     5821     5774     5693 
    5586     5498     5459     5475     5520     5540     5528     5536 
    5583     5606     5518     5348     5230     5234     5282     5277 
    5210     5139     5092     5052     4997     4947     4960     5067 
    5226     5364     5441     5452     5396     5306     5233     5217 
    5283     5420     5569     5668     5697     5689     5677     5655 
    5616     5595     5619     5672     5707     5677     5566     5419 
    5307     5274     5301     5329     5309     5262     5248     5306 
    5403     5461     5432     5331     5241     5266     5433     5656 
    5806     5808     5701     5595     5562     5591     5624     5613 
    5556     5490     5446     5415     5379     5351     5327     5278 
    5189     5082     4992     4954     4994     5091     5191     5274 
    5358     5445     5524     5602     5682     5755     5803     5819 
    5809     5774     5717     5661     5608     5551     5528     5579 
    5673     5732     5709     5610     5469     5326     5219     5162 
    5145     5133     5093     5027     4982     4993     5018     4994 
    4926     4896     4985     5187     5427     5636     5783     5867 
    5902     5907     5886     5839     5803     5810     5835     5844 
    5837     5818     5789     5745     5672     5566     5465     5409 
    5394     5391     5373     5334     5299     5295     5315     5325 
    5293     5223     5147     5096     5075     5053     4993     4908 
    4868     4920     5011     5057     5058     5077     5130     5176 
    5187     5169     5166     5232     5350     5447     5493     5532 
    5609     5704     5775     5813     5848     5895     5928     5917 
    5885     5868     5836     5738     5606     5523     5509     5512 
    5493     5462     5479     5565     5657     5674     5602     5490 
    5402     5343     5264     5161     5078     5029     5015     5040 
    5089     5135     5175     5219     5284     5370     5448     5483 
    5471     5461     5497     5538     5511     5423     5351     5368 
    5477     5596     5652     5657     5653     5627     5538     5400 
    5287     5272     5384     5576     5744     5813     5779     5697 
    5611     5522     5410     5288     5220     5261     5379     5470 
    5458     5339     5188     5119     5168     5258     5313     5330 
    5349     5392     5427     5410     5354     5329     5377     5460 
    5518     5538     5529     5482     5391     5295     5227     5189 
    5195     5258     5350     5423     5455     5459     5448     5423 
    5406     5426     5496     5596     5681     5729     5758     5772 
    5757     5719     5681     5657     5655     5662     5639     5566 
    5459     5380     5376     5426     5470     5474     5447     5425 
    5439     5469     5461     5393     5301     5238     5251     5341 
    5455     5529     5533     5488     5446     5431     5417     5377 
    5320     5285     5301     5352     5385     5383     5389     5436 
    5516     5599     5664     5719     5755     5745     5671     5563 
    5456     5369     5312     5292     5309     5353     5392     5386 
    5340     5301     5304     5348     5401     5415     5368     5291 
    5262     5297     5335     5333     5302     5265     5254     5275 
    5305     5340     5377     5395     5384     5346     5309     5325 
    5400     5486     5545     5545     5480     5415     5416     5463 
    5483     5452     5412     5403     5406     5384     5341     5305 
    5298     5325     5376     5435     5490     5534     5575     5608 
    5605     5567     5522     5487     5471     5469     5461     5438 
    5412     5390     5393     5452     5556     5650     5686     5651 
    5570     5486     5425     5396     5408     5460     5531     5599 
    5648     5666     5652     5620     5593     5579     5563     5539 
    5512     5473     5420     5365     5295     5200     5122     5103 
    5130     5173     5197     5179     5134     5105     5124     5193 
    5294     5411     5521     5590     5634     5687     5725     5709 
    5651     5585     5529     5483     5442     5379     5283     5183 
    5124     5121     5148     5180     5211     5235     5240     5220 
    5197     5216     5319     5480     5618     5680     5690     5696 
    5697     5662     5587     5507     5456     5443     5465     5492 
    5499     5501     5508     5507     5504     5516     5536     5538 
    5516     5490     5473     5458     5453     5472     5491     5481 
    5450     5435     5457     5496     5522     5539     5550     5553 
    5556     5579     5621     5658     5663     5633     5590     5551 
    5511     5474     5465     5477     5468     5424     5374     5338 
    5309     5290     5299     5330     5352     5342     5303     5243 
    5186     5175     5228     5299     5331     5341     5378     5430 
