Origin Time       2025/06/03 22:18:00
Lat.              41.7
Long.             143.6
Depth. (km)       30
Mag.              5.2
Station Code      AOMH06
Station Lat.      40.9664
Station Long.     141.3738
Station Height(m) -95
Record Time       2025/06/03 22:19:25
Sampling Freq(Hz) 100Hz
Duration Time(s)  120
Dir.              1
Scale Factor      2942(gal)/8224139
Max. Acc. (gal)   0.129
Last Correction   2025/06/03 22:19:26
Memo.             
[...]
   47698    47687    47676    47665    47648    47628    47622    47629 
   47629    47629    47641    47661    47692    47723    47736    47737 
   47742    47757    47780    47800    47814    47821    47822    47811 
   47799    47787    47769    47749    47734    47731    47733    47733 
   47741    47756    47756    47742    47726    47707    47692    47686 
   47673    47649    47619    47596    47590    47601    47626    47661 
   47690    47714    47742    47761    47777    47796    47810    47814 
   47818    47825    47833    47831    47821    47806    47787    47765 
   47761    47779    47792    47791    47791    47792    47791    47785 
   47773    47757    47741    47721    47702    47695    47691    47691 
   47692    47690    47684    47684    47691    47702    47715    47719 
   47714    47710    47704    47702    47704    47707    47707    47706 
   47707    47718    47725    47722    47727    47749    47773    47790 
   47802    47806    47799    47783    47764    47753    47752    47749 
   47744    47740    47722    47684    47644    47611    47596    47606 
   47630    47655    47679    47699    47710    47715    47717    47718 
   47725    47731    47740    47754    47769    47775    47772    47769 
   47772    47783    47796    47803    47798    47779    47757    47738 
   47723    47713    47710    47709    47709    47719    47730    47731 
   47733    47731    47731    47729    47714    47692    47679    47684 
   47709    47737    47748    47744    47734    47731    47744    47764 
   47775    47775    47773    47767    47752    47742    47740    47744 
   47750    47756    47760    47760    47752    47734    47713    47691 
   47672    47657    47648    47644    47648    47656    47665    47673 
   47688    47710    47738    47769    47794    47803    47807    47817 
   47819    47811    47806    47803    47791    47771    47750    47723 
   47691    47683    47703    47721    47726    47731    47731    47725 
   47734    47754    47754    47737    47715    47696    47690    47688 
   47686    47694    47710    47723    47733    47733    47725    47723 
   47740    47765    47791    47814    47834    47838    47825    47807 
   47791    47785    47787    47771    47742    47719    47696    47667 
   47656    47673    47696    47709    47711    47699    47687    47686 
   47687    47682    47679    47672    47660    47656    47655    47652 
   47659    47683    47709    47727    47742    47745    47730    47711 
   47709    47725    47741    47750    47763    47775    47781    47787 
   47794    47802    47798    47780    47760    47731    47692    47675 
   47691    47713    47723    47715    47698    47688    47687    47680 
   47661    47644    47638    47641    47660    47707    47763    47790 
   47796    47800    47800    47803    47814    47810    47792    47785 
   47794    47800    47800    47800    47795    47784    47768    47748 
   47736    47729    47711    47699    47700    47692    47679    47675 
   47673    47680    47704    47727    47737    47738    47730    47715 
   47707    47710    47727    47748    47754    47757    47764    47772 
   47767    47749    47730    47722    47722    47729    47748    47767 
   47768    47756    47740    47721    47702    47691    47694    47704 
   47711    47711    47710    47707    47704    47703    47709    47733 
   47771    47799    47812    47821    47818    47803    47785    47777 
   47776    47775    47783    47800    47804    47788    47767    47753 
   47745    47744    47741    47734    47731    47736    47730    47711 
   47692    47677    47668    47668    47668    47659    47650    47655 
   47661    47667    47676    47682    47684    47696    47710    47725 
   47741    47749    47748    47752    47760    47760    47752    47744 
   47740    47749    47757    47754    47749    47749    47748    47745 
   47734    47719    47715    47727    47749    47756    47741    47713 
   47684    47657    47646    47650    47661    47672    47683    47687 
   47677    47665    47661    47661    47661    47667    47676    47686 
   47696    47706    47722    47745    47765    47777    47791    47795 
   47777    47760    47764    47779    47791    47802    47811    47818 
   47818    47803    47777    47753    47733    47710    47696    47694 
   47696    47703    47717    47730    47727    47714    47699    47684 
   47675    47676    47683    47691    47699    47709    47709    47709 
   47723    47740    47750    47761    47763    47754    47744    47738 
   47736    47745    47769    47806    47838    47849    47829    47803 
   47791    47787    47781    47776    47761    47741    47726    47721 
   47725    47737    47740    47726    47717    47721    47721    47729 
   47753    47775    47784    47779    47761    47748    47736    47726 
   47731    47745    47749    47741    47736    47731    47719    47702 
   47694    47706    47715    47704    47690    47679    47667    47660 
   47669    47690    47706    47717    47718    47707    47698    47703 
   47710    47714    47713    47694    47664    47637    47626    47637 
   47653    47664    47672    47680    47683    47680    47687    47700 
   47714    47721    47731    47744    47750    47750    47752    47752 
   47745    47733    47731    47742    47763    47794    47827    47848 
   47856    47860    47866    47866    47849    47823    47804    47792 
   47775    47757    47737    47717    47709    47714    47722    47726 
   47730    47729    47718    47711    47718    47726    47733    47746 
   47769    47790    47798    47807    47819    47821    47814    47812 
   47812    47815    47822    47822    47808    47796    47791    47784 
   47777    47773    47761    47750    47742    47730    47717    47706 
   47694    47680    47671    47663    47661    47668    47682    47690 
   47684    47673    47667    47663    47659    47661    47668    47672 
   47676    47683    47683    47675    47665    47656    47645    47633 
   47630    47655    47688    47710    47717    47718    47721    47727 
   47734    47740    47748    47764    47777    47780    47775    47760 
   47748    47742    47733    47714    47702    47695    47687    47686 
   47680    47663    47642    47633    47646    47675    47692    47700 
   47713    47722    47714    47702    47709    47723    47733    47734 
   47731    47737    47757    47772    47775    47776    47783    47798 
   47810    47804    47787    47768    47760    47764    47771    47779 
   47781    47777    47772    47771    47773    47767    47754    47746 
   47748    47742    47729    47713    47695    47676    47665    47672 
   47694    47703    47699    47706    47725    47745    47760    47768 
   47763    47757    47763    47777    47794    47804    47808    47804 
   47792    47780    47784    47799    47799    47781    47765    47752 
   47740    47719    47692    47675    47667    47675    47695    47704 
   47703    47695    47676    47649    47636    47646    47668    47687 
   47699    47704    47710    47719    47727    47738    47756    47768 
   47769    47769    47764    47752    47740    47733    47733    47741 
   47752    47756    47746    47731    47730    47742    47746    47734 
   47725    47725    47737    47752    47753    47745    47744    47749 
   47754    47756    47750    47748    47749    47740    47726    47731 
   47744    47750    47749    47749    47752    47754    47756    47760 
   47761    47761    47765    47769    47768    47768    47769    47760 
   47742    47733    47733    47733    47740    47761    47783    47792 
   47803    47819    47830    47834    47825    47799    47769    47736 
   47703    47682    47664    47653    47656    47664    47673    47695 
   47719    47719    47706    47700    47694    47684    47687    47698 
   47706    47711    47711    47706    47704    47710    47718    47736 
   47758    47777    47799    47819    47814    47790    47771    47757 
   47749    47742    47738    47731    47718    47699    47682    47672 
   47671    47682    47699    47715    47725    47723    47707    47688 
   47677    47673    47680    47696    47717    47731    47730    47729 
   47738    47740    47740    47745    47746    47756    47775    47794 
   47806    47806    47806    47818    47825    47818    47806    47780 
   47764    47773    47779    47763    47741    47734    47736    47730 
   47718    47706    47684    47664    47660    47656    47638    47636 
   47649    47655    47660    47683    47702    47704    47698    47690 
   47686    47691    47699    47714    47729    47738    47749    47771 
   47787    47788    47779    47767    47753    47742    47738    47741 
   47752    47760    47749    47727    47709    47692    47679    47677 
   47687    47696    47704    47709    47696    47676    47653    47629 
   47610    47601    47591    47588    47595    47617    47648    47667 
   47677    47691    47715    47745    47773    47792    47799    47798 
   47794    47787    47775    47771    47776    47781    47780    47780 
   47781    47779    47765    47749    47727    47702    47680    47664 
   47660    47667    47668    47642    47602    47565    47529    47509 
   47521    47538    47545    47559    47582    47602    47625    47655 
   47690    47730    47775    47819    47861    47893    47912    47937 
   47960    47958    47931    47892    47844    47804    47787    47785 
   47790    47787    47773    47749    47718    47682    47657    47641 
   47619    47605    47595    47583    47576    47584    47605    47630 
   47656    47680    47707    47730    47745    47760    47781    47817 
   47860    47893    47904    47893    47873    47854    47844    47837 
   47846    47876    47896    47888    47850    47800    47758    47726 
   47694    47663    47644    47645    47672    47709    47715    47696 
   47688    47700    47714    47727    47753    47794    47829    47848 
   47857    47864    47884    47926    47965    47993    48012    48012 
   47997    47970    47933    47883    47822    47749    47687    47664 
   47675    47690    47700    47707    47699    47677    47656    47648 
   47659    47687    47719    47744    47752    47746    47730    47710 
   47683    47656    47640    47640    47663    47696    47710    47704 
   47700    47696    47703    47741    47783    47794    47776    47745 
   47713    47683    47655    47636    47630    47613    47574    47532 
   47506    47510    47549    47598    47634    47672    47721    47771 
   47819    47857    47866    47864    47872    47865    47827    47783 
   47750    47731    47717    47684    47626    47569    47528    47498 
   47475    47472    47509    47560    47592    47602    47601    47609 
   47652    47722    47788    47826    47833    47811    47776    47753 
   47745    47741    47748    47750    47734    47721    47729    47742 
   47754    47765    47769    47764    47752    47729    47700    47682 
   47682    47704    47742    47780    47781    47727    47649    47596 
   47594    47648    47740    47826    47893    47965    48037    48074 
   48068    48034    47997    47965    47927    47883    47835    47776 
   47713    47676    47660    47630    47587    47563    47583    47648 
   47725    47779    47812    47834    47848    47871    47900    47923 
   47922    47889    47837    47788    47741    47687    47637    47607 
   47605    47619    47638    47660    47684    47710    47742    47771 
   47772    47768    47777    47784    47763    47723    47699    47692 
   47687    47682    47687    47703    47714    47713    47699    47688 
   47692    47709    47718    47713    47691    47653    47622    47615 
   47622    47626    47626    47625    47613    47582    47548    47537 
   47549    47572    47598    47628    47665    47715    47780    47852 
   47926    47987    48016    48007    47962    47893    47811    47737 
   47682    47644    47641    47671    47692    47680    47644    47617 
   47629    47673    47722    47753    47758    47749    47750    47757 
   47763    47780    47806    47814    47804    47777    47737    47700 
   47672    47659    47668    47672    47648    47625    47636    47677 
   47729    47780    47829    47876    47911    47908    47869    47811 
   47757    47719    47694    47660    47619    47602    47625    47671 
   47698    47698    47696    47717    47753    47779    47785    47796 
   47823    47844    47838    47818    47795    47758    47684    47580 
   47491    47445    47445    47478    47515    47556    47599    47632 
   47665    47722    47785    47825    47831    47811    47785    47765 
   47746    47737    47745    47757    47771    47798    47838    47884 
   47929    47969    48010    48045    48064    48068    48061    48049 
   48023    47976    47908    47826    47741    47672    47625    47580 
   47530    47490    47474    47499    47561    47630    47677    47698 
   47710    47737    47777    47818    47845    47861    47876    47898 
   47929    47962    48000    48034    48038    47996    47933    47875 
   47822    47780    47746    47700    47641    47594    47571    47571 
   47598    47641    47671    47675    47660    47640    47614    47575 
   47533    47514    47526    47559    47584    47588    47587    47588 
   47586    47592    47614    47644    47668    47695    47748    47826 
   47898    47939    47952    47939    47907    47866    47826    47798 
   47781    47776    47780    47775    47730    47649    47563    47498 
   47451    47414    47393    47389    47394    47397    47391    47379 
   47371    47380    47418    47484    47572    47661    47741    47795 
   47808    47804    47818    47849    47891    47933    47958    47979 
   48012    48053    48072    48055    48020    47989    47964    47941 
   47920    47900    47860    47794    47711    47626    47552    47490 
   47452    47461    47505    47544    47571    47583    47587    47587 
   47606    47656    47717    47768    47811    47853    47889    47904 
   47885    47848    47825    47830    47865    47918    47962    47984 
   47984    47972    47961    47949    47922    47880    47825    47754 
   47672    47594    47517    47452    47412    47390    47376    47375 
   47387    47421    47467    47511    47544    47572    47596    47615 
   47642    47691    47764    47854    47933    47957    47931    47892 
   47857    47831    47818    47799    47767    47738    47719    47699 
   47687    47694    47699    47694    47694    47699    47706    47713 
   47719    47721    47722    47721    47718    47715    47713    47721 
   47752    47800    47848    47868    47860    47844    47834    47822 
   47808    47810    47831    47850    47842    47817    47781    47733 
   47676    47629    47598    47572    47555    47548    47542    47538 
   47551    47571    47591    47602    47611    47632    47656    47675 
   47694    47726    47783    47854    47908    47920    47904    47889 
   47883    47887    47893    47881    47842    47795    47752    47722 
   47707    47703    47715    47741    47765    47779    47780    47780 
   47787    47783    47775    47785    47811    47835    47849    47846 
   47831    47826    47830    47833    47823    47803    47771    47730 
   47690    47682    47718    47776    47823    47838    47821    47791 
   47765    47744    47722    47711    47703    47687    47661    47638 
   47634    47640    47646    47656    47656    47634    47613    47607 
   47603    47599    47619    47665    47729    47792    47830    47833 
   47802    47752    47695    47640    47594    47561    47534    47513 
   47503    47529    47592    47669    47731    47764    47760    47740 
   47723    47710    47692    47682    47691    47714    47727    47709 
   47671    47630    47598    47579    47574    47579    47594    47611 
   47626    47652    47688    47737    47796    47858    47911    47952 
   47976    47976    47950    47920    47906    47899    47892    47891 
   47898    47911    47919    47910    47880    47842    47822    47819 
   47829    47841    47846    47834    47814    47799    47788    47777 
   47769    47761    47761    47771    47785    47804    47831    47866 
   47896    47918    47941    47962    47969    47953    47907    47846 
   47785    47721    47652    47580    47510    47474    47476    47486 
   47484    47479    47471    47471    47498    47544    47583    47594 
   47578    47544    47510    47503    47518    47544    47578    47601 
   47599    47590    47583    47583    47603    47642    47696    47757 
   47815    47864    47903    47930    47930    47902    47875    47869 
   47879    47879    47858    47823    47792    47765    47726    47672 
   47630    47609    47599    47605    47618    47617    47596    47574 
   47553    47529    47497    47471    47466    47478    47493    47502 
   47510    47514    47521    47553    47615    47688    47758    47835 
   47910    47958    47974    47969    47956    47952    47962    47970 
   47965    47958    47961    47976    47991    47988    47970    47956 
   47949    47956    47966    47968    47962    47966    47988    48007 
   48003    47962    47889    47806    47727    47665    47618    47575 
   47545    47534    47528    47515    47498    47479    47453    47433 
   47443    47472    47510    47559    47599    47625    47653    47691 
   47740    47788    47819    47837    47850    47858    47864    47872 
   47895    47931    47964    47984    47989    47980    47965    47949 
   47923    47883    47837    47787    47736    47690    47641    47582 
   47522    47471    47426    47395    47380    47386    47405    47425 
   47452    47479    47506    47542    47587    47619    47645    47684 
   47736    47781    47812    47826    47829    47834    47833    47815 
   47795    47784    47781    47776    47753    47714    47673    47645 
   47626    47613    47614    47637    47669    47717    47773    47821 
   47848    47865    47881    47899    47923    47960    47985    47980 
   47954    47930    47906    47884    47871    47869    47879    47895 
   47899    47879    47826    47757    47699    47646    47595    47564 
   47544    47525    47514    47528    47563    47609    47648    47668 
   47677    47699    47734    47777    47831    47883    47918    47938 
   47938    47916    47895    47892    47896    47889    47864    47823 
   47785    47768    47764    47768    47765    47742    47713    47686 
   47652    47611    47568    47522    47478    47443    47424    47432 
   47468    47517    47559    47592    47628    47668    47710    47750 
   47785    47798    47792    47781    47765    47749    47734    47698 
   47642    47591    47560    47555    47571    47595    47618    47636 
   47642    47650    47672    47703    47725    47737    47740    47730 
   47710    47682    47655    47641    47638    47634    47623    47623 
   47641    47663    47672    47671    47673    47680    47694    47715 
   47738    47761    47781    47791    47794    47798    47800    47798 
   47785    47763    47738    47722    47726    47748    47768    47771 
   47769    47769    47754    47740    47737    47736    47740    47752 
   47742    47723    47729    47754    47780    47806    47839    47875 
   47900    47895    47865    47846    47853    47875    47899    47916 
   47922    47925    47931    47934    47926    47904    47876    47868 
   47883    47903    47915    47920    47926    47926    47911    47875 
