Origin Time       2025/06/03 22:18:00
Lat.              41.7
Long.             143.6
Depth. (km)       30
Mag.              5.2
Station Code      AOMH06
Station Lat.      40.9664
Station Long.     141.3738
Station Height(m) 5
Record Time       2025/06/03 22:19:25
Sampling Freq(Hz) 100Hz
Duration Time(s)  120
Dir.              4
Scale Factor      7845(gal)/8223790
Max. Acc. (gal)   0.659
Last Correction   2025/06/03 22:19:26
Memo.             
   -2821    -2825    -2848    -2894    -2945    -2982    -2995    -2975 
   -2914    -2817    -2712    -2659    -2686    -2786    -2933    -3082 
   -3179    -3196    -3142    -3034    -2897    -2789    -2747    -2743 
   -2754    -2776    -2809    -2853    -2903    -2948    -2986    -3015 
   -3025    -3007    -2978    -2947    -2924    -2914    -2907    -2901 
   -2910    -2934    -2959    -2967    -2952    -2932    -2911    -2883 
   -2852    -2836    -2856    -2916    -2990    -3032    -3018    -2964 
   -2902    -2864    -2859    -2871    -2902    -2945    -2967    -2938 
   -2874    -2808    -2774    -2787    -2828    -2875    -2926    -2964 
   -2976    -2970    -2938    -2878    -2810    -2760    -2756    -2805 
   -2889    -2975    -3036    -3067    -3065    -3022    -2949    -2871 
   -2805    -2775    -2794    -2849    -2916    -2964    -2971    -2933 
   -2880    -2837    -2829    -2870    -2940    -2990    -2992    -2960 
   -2911    -2863    -2824    -2813    -2856    -2933    -2994    -3013 
   -2999    -2965    -2926    -2898    -2884    -2875    -2860    -2843 
   -2835    -2859    -2911    -2976    -3038    -3090    -3110    -3082 
   -3002    -2894    -2797    -2763    -2794    -2864    -2937    -2972 
   -2953    -2890    -2795    -2717    -2704    -2756    -2847    -2940 
   -3001    -3014    -2992    -2951    -2909    -2883    -2875    -2887 
   -2930    -2982    -3013    -3010    -2972    -2916    -2867    -2848 
   -2871    -2918    -2965    -3006    -3025    -3014    -2978    -2916 
   -2832    -2755    -2706    -2710    -2764    -2839    -2903    -2938 
   -2944    -2952    -2978    -2991    -2953    -2867    -2772    -2710 
   -2700    -2743    -2814    -2894    -2964    -3003    -3018    -3021 
   -3018    -3025    -3042    -3057    -3065    -3057    -3024    -2971 
   -2920    -2876    -2844    -2814    -2791    -2791    -2824    -2884 
   -2952    -2994    -3002    -2976    -2929    -2887    -2868    -2872 
   -2891    -2909    -2916    -2907    -2895    -2895    -2899    -2898 
   -2895    -2886    -2884    -2891    -2893    -2890    -2909    -2964 
   -3026    -3045    -3014    -2956    -2901    -2860    -2829    -2808 
   -2798    -2799    -2822    -2866    -2916    -2961    -2991    -2992 
   -2974    -2947    -2913    -2889    -2882    -2880    -2875    -2868 
   -2868    -2872    -2871    -2862    -2853    -2866    -2907    -2971 
   -3034    -3080    -3090    -3052    -2974    -2875    -2785    -2736 
   -2733    -2764    -2821    -2884    -2929    -2941    -2936    -2932 
   -2922    -2906    -2890    -2872    -2847    -2836    -2860    -2907 
   -2963    -3014    -3046    -3063    -3075    -3078    -3056    -2994 
   -2903    -2824    -2787    -2791    -2839    -2926    -3021    -3073 
   -3067    -3001    -2911    -2841    -2794    -2770    -2764    -2781 
   -2808    -2824    -2832    -2845    -2857    -2855    -2835    -2818 
   -2822    -2843    -2868    -2905    -2960    -3013    -3026    -2997 
   -2945    -2903    -2890    -2901    -2920    -2936    -2945    -2949 
   -2953    -2959    -2968    -2979    -2968    -2925    -2882    -2870 
   -2880    -2901    -2926    -2948    -2960    -2963    -2948    -2920 
   -2893    -2864    -2829    -2801    -2783    -2774    -2779    -2799 
   -2822    -2849    -2890    -2947    -3002    -3033    -3036    -3015 
   -2972    -2914    -2868    -2867    -2907    -2963    -3032    -3092 
   -3118    -3107    -3068    -3018    -2972    -2936    -2926    -2934 
   -2940    -2925    -2871    -2781    -2685    -2625    -2644    -2733 
   -2851    -2957    -3024    -3029    -2979    -2911    -2867    -2853 
   -2870    -2905    -2925    -2918    -2899    -2889    -2893    -2886 
   -2863    -2848    -2853    -2874    -2909    -2960    -3001    -3001 
   -2960    -2902    -2840    -2791    -2779    -2808    -2874    -2957 
   -3032    -3073    -3068    -3025    -2955    -2867    -2801    -2793 
   -2832    -2889    -2937    -2964    -2959    -2930    -2899    -2894 
   -2928    -2984    -3040    -3064    -3030    -2947    -2856    -2799 
   -2786    -2806    -2851    -2895    -2909    -2895    -2876    -2856 
   -2843    -2847    -2857    -2875    -2895    -2901    -2894    -2894 
   -2899    -2903    -2902    -2893    -2875    -2870    -2883    -2906 
   -2925    -2938    -2941    -2936    -2937    -2949    -2960    -2965 
   -2960    -2932    -2893    -2876    -2890    -2906    -2920    -2925 
   -2911    -2889    -2874    -2878    -2894    -2909    -2914    -2903 
   -2876    -2856    -2860    -2890    -2922    -2937    -2937    -2920 
   -2882    -2851    -2847    -2876    -2932    -3002    -3067    -3100 
   -3096    -3060    -3002    -2932    -2868    -2826    -2826    -2868 
   -2940    -3009    -3034    -3005    -2933    -2855    -2797    -2755 
   -2724    -2724    -2768    -2855    -2956    -3046    -3099    -3084 
   -3017    -2945    -2898    -2879    -2886    -2905    -2917    -2911 
   -2882    -2844    -2833    -2863    -2916    -2968    -3015    -3048 
   -3049    -3019    -2967    -2895    -2821    -2766    -2743    -2763 
   -2821    -2897    -2970    -3011    -2994    -2922    -2837    -2778 
   -2758    -2766    -2793    -2837    -2889    -2941    -2999    -3038 
   -3021    -2960    -2889    -2832    -2817    -2857    -2928    -2991 
   -3009    -2983    -2943    -2920    -2921    -2921    -2895    -2867 
   -2860    -2876    -2918    -2971    -3003    -2998    -2952    -2882 
   -2828    -2816    -2832    -2866    -2916    -2956    -2955    -2921 
   -2884    -2855    -2841    -2855    -2872    -2889    -2921    -2949 
   -2952    -2933    -2889    -2830    -2787    -2771    -2794    -2855 
   -2918    -2956    -2971    -2957    -2924    -2890    -2855    -2821 
   -2820    -2856    -2905    -2949    -2986    -3006    -3010    -3006 
   -3007    -3019    -3032    -3013    -2964    -2930    -2925    -2945 
   -2986    -3015    -3005    -2963    -2921    -2899    -2903    -2941 
   -2995    -3026    -3022    -2991    -2930    -2855    -2782    -2722 
   -2695    -2712    -2770    -2870    -2980    -3049    -3067    -3046 
   -2998    -2937    -2882    -2840    -2825    -2853    -2913    -2955 
   -2937    -2875    -2828    -2837    -2878    -2905    -2905    -2886 
   -2863    -2829    -2802    -2813    -2851    -2883    -2916    -2936 
   -2924    -2884    -2829    -2764    -2706    -2689    -2721    -2791 
   -2882    -2959    -3003    -3025    -3022    -2997    -2980    -2984 
   -3005    -3030    -3046    -3048    -3022    -2965    -2901    -2852 
   -2828    -2828    -2837    -2832    -2810    -2795    -2806    -2845 
   -2895    -2920    -2916    -2903    -2884    -2866    -2864    -2884 
   -2907    -2920    -2930    -2951    -2975    -2986    -2970    -2933 
   -2894    -2883    -2905    -2938    -2971    -2986    -2975    -2951 
   -2929    -2932    -2964    -3005    -3048    -3080    -3086    -3075 
   -3056    -3009    -2934    -2859    -2805    -2783    -2805    -2853 
   -2911    -2957    -2968    -2945    -2899    -2856    -2844    -2867 
   -2905    -2934    -2943    -2924    -2884    -2841    -2797    -2759 
   -2756    -2803    -2889    -2982    -3036    -3040    -3019    -2998 
   -2978    -2948    -2899    -2844    -2806    -2798    -2813    -2844 
   -2880    -2909    -2930    -2933    -2895    -2847    -2836    -2887 
   -2976    -3055    -3082    -3041    -2953    -2868    -2818    -2818 
   -2862    -2903    -2905    -2871    -2840    -2832    -2843    -2871 
   -2902    -2917    -2910    -2889    -2853    -2820    -2816    -2849 
   -2909    -2983    -3042    -3046    -2990    -2916    -2864    -2839 
   -2848    -2889    -2921    -2926    -2926    -2930    -2932    -2938 
   -2944    -2934    -2918    -2905    -2902    -2921    -2951    -2959 
   -2938    -2883    -2817    -2778    -2766    -2774    -2801    -2839 
   -2875    -2922    -2980    -3028    -3042    -3014    -2955    -2895 
   -2862    -2863    -2891    -2914    -2925    -2934    -2972    -3044 
   -3103    -3107    -3045    -2945    -2868    -2845    -2874    -2929 
   -2970    -2964    -2918    -2864    -2826    -2813    -2833    -2876 
   -2920    -2952    -2961    -2938    -2899    -2866    -2847    -2836 
   -2822    -2813    -2826    -2868    -2920    -2940    -2902    -2825 
   -2754    -2727    -2748    -2805    -2878    -2940    -2964    -2956 
   -2945    -2943    -2936    -2930    -2937    -2967    -3015    -3056 
   -3061    -3038    -3002    -2959    -2925    -2909    -2905    -2895 
   -2868    -2826    -2791    -2781    -2791    -2821    -2875    -2932 
   -2965    -2965    -2940    -2901    -2851    -2799    -2772    -2787 
   -2859    -2960    -3034    -3064    -3059    -3018    -2953    -2884 
   -2824    -2790    -2793    -2813    -2841    -2884    -2937    -2983 
   -3026    -3071    -3103    -3106    -3082    -3032    -2978    -2928 
   -2883    -2867    -2891    -2928    -2945    -2938    -2910    -2868 
   -2828    -2794    -2762    -2747    -2768    -2809    -2830    -2829 
   -2836    -2872    -2928    -2976    -3009    -3025    -3007    -2945 
   -2871    -2824    -2825    -2875    -2940    -2988    -3015    -3024 
   -3006    -2952    -2889    -2856    -2863    -2879    -2889    -2907 
   -2913    -2875    -2814    -2759    -2712    -2701    -2745    -2818 
   -2893    -2964    -3009    -2991    -2928    -2880    -2891    -2949 
   -3017    -3076    -3100    -3061    -2978    -2902    -2874    -2884 
   -2910    -2945    -2994    -3048    -3094    -3109    -3069    -2995 
   -2928    -2886    -2857    -2851    -2879    -2914    -2921    -2894 
   -2835    -2744    -2674    -2679    -2763    -2887    -2987    -3025 
   -2991    -2890    -2772    -2701    -2693    -2732    -2805    -2901 
   -3001    -3072    -3102    -3095    -3064    -3018    -2972    -2943 
   -2929    -2924    -2940    -2994    -3072    -3154    -3210    -3206 
   -3144    -3049    -2952    -2876    -2841    -2847    -2870    -2867 
   -2836    -2795    -2751    -2713    -2708    -2743    -2817    -2907 
   -2974    -2984    -2951    -2887    -2794    -2686    -2625    -2664 
   -2793    -2936    -3015    -3018    -2975    -2901    -2836    -2829 
   -2883    -2965    -3055    -3123    -3138    -3106    -3051    -2987 
   -2948    -2957    -2986    -3006    -3022    -3036    -3025    -2974 
   -2878    -2771    -2697    -2675    -2718    -2812    -2922    -3019 
   -3072    -3061    -2999    -2909    -2826    -2779    -2763    -2783 
   -2841    -2924    -3013    -3079    -3113    -3111    -3078    -3010 
   -2903    -2779    -2675    -2624    -2648    -2729    -2821    -2901 
   -2944    -2930    -2895    -2848    -2783    -2748    -2766    -2802 
   -2839    -2880    -2936    -2992    -3022    -3006    -2937    -2828 
   -2708    -2617    -2613    -2722    -2899    -3061    -3153    -3164 
   -3096    -2965    -2816    -2714    -2706    -2801    -2980    -3167 
   -3260    -3199    -3011    -2797    -2654    -2625    -2701    -2821 
   -2911    -2922    -2882    -2835    -2775    -2691    -2612    -2597 
   -2693    -2895    -3141    -3339    -3415    -3356    -3204    -3007 
   -2833    -2755    -2783    -2863    -2920    -2920    -2879    -2824 
   -2775    -2756    -2764    -2766    -2751    -2739    -2774    -2875 
   -3009    -3119    -3153    -3115    -3061    -3025    -3014    -3029 
   -3060    -3091    -3100    -3079    -3037    -3006    -3002    -3015 
   -3037    -3057    -3067    -3061    -3033    -2976    -2907    -2864 
   -2857    -2862    -2843    -2768    -2646    -2538    -2511    -2592 
   -2758    -2934    -3037    -3028    -2917    -2768    -2679    -2695 
   -2808    -2978    -3145    -3265    -3311    -3268    -3156    -3006 
   -2849    -2749    -2741    -2805    -2883    -2929    -2930    -2916 
   -2925    -2963    -2998    -2979    -2890    -2774    -2704    -2740 
   -2879    -3055    -3169    -3153    -3019    -2875    -2824    -2878 
   -2970    -3024    -2987    -2862    -2704    -2570    -2492    -2498 
   -2593    -2732    -2871    -2986    -3049    -3044    -2975    -2848 
   -2691    -2578    -2552    -2605    -2712    -2837    -2949    -3019 
   -3037    -3024    -3007    -3011    -3037    -3072    -3107    -3148 
   -3176    -3150    -3060    -2938    -2809    -2698    -2660    -2697 
   -2778    -2891    -3007    -3075    -3076    -3033    -2955    -2856 
   -2781    -2785    -2899    -3096    -3299    -3408    -3352    -3109 
   -2743    -2403    -2246    -2322    -2547    -2803    -2999    -3105 
   -3141    -3127    -3061    -2956    -2857    -2799    -2797    -2849 
   -2926    -2965    -2955    -2944    -2959    -3002    -3065    -3123 
   -3156    -3156    -3117    -3053    -2983    -2916    -2866    -2826 
   -2797    -2776    -2766    -2795    -2882    -3001    -3110    -3171 
   -3165    -3094    -2972    -2840    -2745    -2709    -2717    -2739 
   -2764    -2808    -2875    -2944    -2997    -3022    -3005    -2933 
   -2817    -2689    -2586    -2542    -2569    -2640    -2717    -2794 
   -2874    -2941    -2976    -2980    -2952    -2895    -2844    -2841 
   -2894    -2971    -3046    -3096    -3106    -3080    -3049    -3049 
   -3094    -3159    -3211    -3217    -3138    -2986    -2812    -2677 
   -2614    -2644    -2758    -2897    -3003    -3082    -3154    -3210 
   -3204    -3103    -2928    -2752    -2650    -2660    -2781    -2949 
   -3067    -3064    -2926    -2695    -2473    -2346    -2338    -2442 
   -2655    -2948    -3248    -3485    -3600    -3565    -3404    -3171 
   -2917    -2712    -2614    -2624    -2697    -2794    -2879    -2940 
   -2976    -2986    -2963    -2929    -2897    -2847    -2770    -2694 
   -2662    -2666    -2670    -2660    -2628    -2586    -2563    -2581 
   -2670    -2837    -3014    -3140    -3194    -3168    -3091    -3002 
   -2938    -2916    -2934    -2979    -3024    -3060    -3080    -3059 
   -2984    -2868    -2743    -2658    -2656    -2736    -2878    -3030 
   -3114    -3086    -2972    -2821    -2673    -2560    -2516    -2571 
   -2722    -2929    -3118    -3226    -3229    -3145    -3034    -2982 
   -3018    -3118    -3223    -3262    -3203    -3060    -2872    -2700 
   -2594    -2586    -2678    -2829    -2987    -3130    -3249    -3318 
   -3310    -3218    -3053    -2867    -2741    -2729    -2809    -2917 
   -2984    -2970    -2887    -2778    -2689    -2656    -2689    -2759 
   -2843    -2943    -3041    -3100    -3092    -2998    -2840    -2698 
   -2636    -2683    -2835    -3036    -3213    -3300    -3275    -3177 
   -3068    -2987    -2965    -3011    -3096    -3165    -3154    -3034 
   -2849    -2663    -2523    -2466    -2523    -2693    -2911    -3078 
   -3129    -3083    -2965    -2813    -2681    -2602    -2579    -2616 
   -2717    -2864    -2995    -3038    -2971    -2837    -2694    -2586 
   -2555    -2640    -2830    -3052    -3223    -3280    -3192    -2997 
   -2785    -2648    -2651    -2795    -2998    -3140    -3130    -2974 
   -2760    -2589    -2525    -2585    -2729    -2910    -3098    -3275 
   -3410    -3451    -3385    -3231    -3026    -2839    -2736    -2755 
   -2887    -3064    -3215    -3298    -3276    -3165    -3032    -2930 
   -2906    -2963    -3038    -3078    -3036    -2891    -2679    -2479 
   -2366    -2396    -2567    -2820    -3045    -3152    -3088    -2879 
   -2635    -2475    -2463    -2581    -2760    -2914    -2997    -3038 
   -3076    -3095    -3080    -3042    -2997    -2968    -2978    -3010 
   -3029    -3021    -2975    -2887    -2798    -2762    -2793    -2875 
   -2955    -2980    -2944    -2866    -2755    -2636    -2570    -2598 
   -2705    -2841    -2974    -3068    -3105    -3098    -3067    -3033 
   -3025    -3036    -3038    -3032    -3024    -3011    -2997    -2988 
   -2987    -3001    -3038    -3083    -3100    -3087    -3055    -2999 
   -2901    -2779    -2679    -2625    -2614    -2651    -2720    -2779 
   -2782    -2724    -2658    -2643    -2708    -2828    -2944    -3019 
   -3044    -3028    -2990    -2951    -2936    -2952    -2978    -3002 
   -3015    -2998    -2955    -2899    -2866    -2883    -2926    -2947 
   -2916    -2812    -2659    -2521    -2457    -2506    -2662    -2859 
   -3036    -3142    -3146    -3057    -2925    -2817    -2790    -2875 
   -3029    -3161    -3231    -3245    -3204    -3122    -3025    -2928 
   -2848    -2797    -2763    -2733    -2708    -2695    -2731    -2843 
   -3022    -3222    -3372    -3408    -3322    -3149    -2956    -2810 
   -2736    -2713    -2725    -2774    -2848    -2921    -2972    -2994 
   -3002    -3019    -3075    -3167    -3234    -3219    -3115    -2937 
   -2728    -2575    -2547    -2640    -2790    -2934    -3026    -3021 
   -2929    -2825    -2768    -2776    -2845    -2951    -3053    -3100 
   -3072    -2988    -2870    -2736    -2605    -2509    -2475    -2497 
   -2540    -2562    -2551    -2516    -2502    -2563    -2708    -2894 
   -3080    -3230    -3296    -3261    -3154    -3036    -2938    -2878 
   -2863    -2898    -2987    -3111    -3225    -3276    -3249    -3159 
   -3052    -2951    -2848    -2760    -2713    -2720    -2789    -2878 
   -2934    -2941    -2910    -2856    -2791    -2725    -2655    -2601 
   -2594    -2641    -2737    -2864    -2982    -3053    -3067    -3048 
   -3048    -3083    -3142    -3198    -3223    -3208    -3154    -3075 
   -2997    -2952    -2964    -3018    -3075    -3122    -3152    -3152 
   -3117    -3049    -2974    -2920    -2898    -2902    -2910    -2889 
   -2818    -2725    -2666    -2682    -2763    -2833    -2826    -2758 
   -2682    -2643    -2667    -2751    -2860    -2948    -2983    -2960 
   -2901    -2845    -2824    -2824    -2839    -2871    -2899    -2917 
   -2928    -2932    -2949    -2990    -3034    -3063    -3064    -3030 
   -2968    -2895    -2843    -2857    -2957    -3118    -3296    -3437 
   -3472    -3384    -3217    -3018    -2847    -2751    -2716    -2701 
   -2689    -2678    -2663    -2647    -2633    -2619    -2589    -2547 
   -2520    -2554    -2659    -2794    -2894    -2930    -2898    -2806 
   -2704    -2644    -2627    -2635    -2654    -2658    -2663    -2714 
   -2801    -2880    -2945    -3003    -3055    -3110    -3191    -3281 
   -3331    -3321    -3256    -3168    -3100    -3079    -3098    -3146 
   -3219    -3277    -3281    -3223    -3115    -2986    -2867    -2766 
   -2695    -2685    -2725    -2793    -2863    -2903    -2901    -2859 
   -2795    -2740    -2708    -2701    -2718    -2766    -2848    -2949 
   -3044    -3103    -3095    -3025    -2941    -2880    -2867    -2913 
   -2998    -3086    -3137    -3119    -3057    -3005    -2987    -2992 
   -2994    -2956    -2866    -2745    -2639    -2559    -2515    -2508 
   -2552    -2659    -2813    -2983    -3132    -3206    -3190    -3099 
   -2972    -2857    -2772    -2733    -2743    -2782    -2856    -2979 
   -3106    -3186    -3191    -3125    -3021    -2914    -2806    -2705 
   -2617    -2554    -2529    -2555    -2635    -2735    -2802    -2828 
   -2832    -2825    -2813    -2802    -2808    -2841    -2889    -2947 
   -3022    -3113    -3196    -3240    -3238    -3211    -3176    -3136 
   -3102    -3084    -3088    -3098    -3076    -2999    -2879    -2740 
   -2610    -2524    -2506    -2554    -2654    -2781    -2906    -3014 
   -3099    -3141    -3137    -3102    -3041    -2968    -2907    -2864 
