Origin Time       2025/06/03 22:18:00
Lat.              41.7
Long.             143.6
Depth. (km)       30
Mag.              5.2
Station Code      AOMH17
Station Lat.      40.4492
Station Long.     141.3374
Station Height(m) 65
Record Time       2025/06/03 22:19:33
Sampling Freq(Hz) 100Hz
Duration Time(s)  120
Dir.              5
Scale Factor      7845(gal)/8223790
Max. Acc. (gal)   0.529
Last Correction   2025/06/03 22:19:34
Memo.             
[...]
     743      751      781      819      868      928      994     1030 
    1003      932      859      803      777      797      854      896 
     877      820      768      727      710      756      866      985 
    1057     1071     1039      967      897      880      913      950 
     973      990      984      954      943      954      942      892 
     839      807      785      789      811      816      803      791 
     781      792      832      872      889      908      922      913 
     923      961      973      940      909      888      847      796 
     753      723      726      777      864      945      981      961 
     889      793      716      692      727      797      859      884 
     893      915      946      974      989      970      907      828 
     783      785      815      849      865      851      828      810 
     803      807      814      811      805      811      835      880 
     940     1008     1071     1109     1086     1004      911      842 
     820      858      920      943      912      851      803      810 
     870      940      977      959      891      788      693      656 
     679      745      828      896      930      926      884      820 
     762      722      704      735      814      908     1000     1062 
    1054     1000      961      939      918      905      904      891 
     878      889      915      938      940      911      861      810 
     772      770      805      849      897      949      988     1001 
    1000      988      957      905      847      793      766      796 
     870      946      990      990      934      853      797      792 
     823      857      866      864      872      895      913      912 
     899      874      830      792      784      780      773      784 
     810      846      896      942      950      909      847      803 
     787      808      868      936      997     1031     1016      970 
     922      874      843      823      799      789      812      854 
     892      913      912      878      831      811      830      866 
     896      904      908      926      939      942      942      935 
     905      851      801      785      785      783      799      839 
     878      895      880      842      823      839      876      932 
     992     1008      970      905      832      757      703      695 
     712      741      778      810      835      866      897      912 
     911      896      870      845      834      841      861      903 
     963     1003     1007      978      912      837      789      768 
     777      823      891      954     1000     1012      985      946 
     931      928      912      893      888      893      905      913 
     905      881      841      800      778      778      785      785 
     788      804      837      882      927      951      935      870 
     795      753      741      762      816      868      891      885 
     877      884      905      934      962      977      974      965 
     955      957      974      993      992      961      915      891 
     897      913      922      926      931      934      916      888 
     865      835      791      749      741      764      811      881 
     938      942      901      846      793      770      796      854 
     905      934      939      919      886      865      851      824 
     792      784      807      835      862      893      909      899 
     872      850      846      865      908      970     1032     1074 
    1051      959      855      781      735      724      757      799 
     830      868      905      926      930      916      878      810 
     722      649      642      730      882     1028     1117     1121 
    1019      843      691      618      635      723      842      945 
    1016     1044     1021      961      889      820      761      723 
     719      750      816      916     1027     1108     1119     1051 
     930      791      688      670      726      820      932     1024 
    1053     1008      923      830      746      696      700      742 
     793      849      904      946      978      992      950      849 
     734      669      695      812      981     1117     1136     1044 
     922      835      803      816      851      899      936      940 
     930      930      938      949      961      959      946      923 
     882      845      847      880      916      938      932      905 
     877      861      861      866      866      869      865      857 
     870      895      903      905      927      951      955      942 
     923      912      908      889      854      822      795      772 
     766      795      842      864      845      799      746      715 
     718      735      766      799      803      800      810      828 
     876      947      985      966      932      904      876      855 
     854      847      823      805      818      861      913      950 
     978     1003     1011     1003      988      974      957      943 
     954      986      994      957      893      835      799      783 
     796      826      841      861      904      936      932      892 
     818      734      688      714      792      877      946      984 
     967      903      823      739      662      611      606      658 
     753      861      962     1040     1078     1078     1046      977 
     874      766      697      699      777      907     1020     1057 
    1020      957      886      826      785      764      745      738 
     776      872      992     1074     1082     1026      951      874 
     788      710      673      700      780      877      969     1047 
    1098     1113     1097     1039      949      859      784      733 
     733      783      845      876      885      891      886      868 
     831      780      731      700      704      761      858      950 
    1008     1026      992      920      837      765      723      718 
     735      764      788      812      845      888      949     1021 
    1078     1100     1092     1054      982      895      826      815 
     868      946     1012     1017      939      819      733      724 
     785      873      954     1015     1055     1074     1065     1017 
     922      796      683      619      633      723      862     1008 
    1116     1131     1023      834      645      527      510      569 
     675      797      905      989     1054     1088     1054      938 
     783      662      625      658      737      850      989     1129 
    1228     1244     1155      970      754      595      569      704 
     935     1146     1256     1254     1167     1035      908      835 
     803      769      730      707      719      766      826      869 
     877      850      799      758      761      800      849      886 
     891      855      795      743      764      882     1053     1194 
    1243     1178     1042      880      739      649      596      557 
     540      575      670      812      976     1112     1165     1105 
     966      811      683      618      642      737      855      969 
    1036     1024      934      797      660      572      577      679 
     818      932     1001     1035     1050     1053     1024      950 
     854      772      718      718      796      926     1044     1129 
    1183     1175     1074      908      745      660      676      757 
     861      965     1054     1121     1155     1121      988      773 
     556      415      395      506      716      943     1117     1189 
    1124      962      793      684      669      745      864      973 
    1028     1005      927      851      827      854      897      918 
     892      824      751      712      739      847     1005     1135 
    1166     1077      919      766      672      643      675      742 
     800      832      865      922      993     1050     1070     1035 
     928      765      621      568      630      772      919     1019 
    1043      999      938      920      957     1005     1015      977 
     935      923      955     1028     1111     1171     1202     1188 
    1093      934      774      672      662      743      866      961 
     969      888      781      714      696      689      661      616 
     573      552      583      672      783      859      888      901 
     918      904      864      837      822      815      839      886 
     928      959      976      974      942      858      757      712 
     762      903     1100     1289     1393     1378     1254     1058 
     834      643      550      577      711      882     1009     1078 
    1111     1080      974      845      724      622      552      519 
     522      571      684      849     1011     1123     1146     1058 
     895      733      629      600      642      741      877     1017 
    1136     1205     1209     1152     1035      880      738      653 
     652      727      841      938      988      989      957      900 
     838      780      734      720      737      750      745      722 
     696      688      703      742      799      858      900      927 
     963     1005     1017      980      905      853      872      940 
    1020     1090     1115     1080     1007      927      862      810 
     770      756      754      765      818      901      978     1020 
    1013      958      874      788      719      685      689      733 
     819      940     1074     1182     1232     1210     1138     1040 
     940      872      854      842      795      770      812      891 
     966     1034     1071     1050      978      888      816      792 
     827      908      986     1011      965      873      774      716 
     708      737      781      811      811      808      841      908 
     977     1013      992      913      823      772      788      854 
     920      939      904      810      652      464      336      337 
     453      637      851     1044     1146     1146     1084      994 
     903      842      838      888      969     1061     1135     1156 
    1108     1017      931      874      838      805      776      753 
     760      815      892      951      957      893      785      687 
     661      734      864      967      984      907      783      675 
     625      642      720      831      923      962      949      900 
     832      777      762      768      758      727      687      648 
     635      672      743      819      892      957     1012     1067 
    1121     1154     1143     1082      990      897      824      793 
     820      889      965     1027     1059     1061     1027      958 
     889      878      927      988     1036     1054     1020      950 
     874      814      789      818      857      869      862      842 
     789      737      747      812      855      850      824      816 
     857      961     1093     1188     1205     1139     1003      862 
     791      796      839      893      932      951      958      961 
     965      958      897      773      629      531      517      568 
     665      796      919      996     1043     1044      958      812 
     684      614      621      700      818      947     1082     1190 
    1232     1206     1117      976      804      649      562      575 
     672      819      977     1105     1166     1142     1057      939 
     804      683      598      537      504      531      621      741 
     854      923      920      853      766      703      669      657 
     675      737      835      943     1040     1112     1138     1102 
    1016      918      842      815      866     1004     1175     1289 
    1291     1183      997      796      658      623      668      756 
     854      934      974      980      966      943      918      900 
     900      897      866      811      773      773      797      828 
     842      811      747      687      641      625      643      680 
     723      783      862      931      951      923      885      857 
     820      773      735      737      796      893      984     1031 
    1016      943      837      738      696      749      870     1000 
    1116     1198     1212     1152     1053      946      865      834 
     850      895      961     1039     1086     1094     1107     1136 
    1148     1135     1109     1075     1040     1030     1058     1108 
    1136     1088      935      718      529      454      486      565 
     627      626      588      576      600      653      741      846 
     942     1005     1034     1027      993      949      882      774 
     650      572      576      652      746      805      832      847 
     857      855      849      834      789      712      654      662 
     750      891     1042     1170     1247     1263     1228     1148 
    1036      916      804      726      722      799      904      988 
    1039     1054     1035     1001      966      919      868      834 
     820      820      822      816      814      820      811      773 
     737      735      761      797      854      913      946      935 
     876      787      714      691      727      814      940     1065 
    1134     1142     1096      981      824      700      641      637 
     683      756      811      824      814      797      774      738 
     689      648      642      666      708      808      978     1171 
    1335     1429     1414     1291     1117      942      797      716 
     695      688      673      642      595      571      603      684 
     791      889      954      980      981      986     1020     1070 
    1109     1129     1129     1123     1128     1154     1181     1179 
    1154     1125     1088     1020      931      845      780      754 
     776      835      896      936      949      926      889      859 
     819      762      719      697      679      668      679      697 
     722      762      822      895      959      974      934      850 
     738      641      588      603      696      826      928      982 
     986      938      849      774      751      770      820      909 
    1021     1124     1196     1219     1162     1026      868      726 
     622      589      634      722      827      927      984      957 
     855      743      660      612      616      675      751      814 
     853      880      915      962     1000     1005      988      978 
     996     1038     1088     1113     1088     1009      913      853 
     862      936     1038     1112     1135     1112     1058      986 
     903      805      706      623      575      572      614      688 
     770      816      810      766      704      664      683      739 
     797      851      897      936      978     1040     1109     1138 
    1082      939      765      631      584      623      710      796 
     843      834      796      773      769      770      781      795 
     815      851      904      972     1035     1073     1078     1047 
     981      899      819      772      783      837      893      920 
     899      838      785      773      795      818      837      855 
     873      892      922      970     1019     1051     1067     1063 
    1028      953      861      800      785      801      831      858 
     869      862      854      855      884      942     1004     1050 
    1077     1088     1092     1100     1113     1113     1085     1040 
     986      918      846      797      773      769      791      832 
     861      873      885      892      889      896      911      901 
     850      791      774      820      926     1059     1165     1186 
    1116      989      859      761      699      656      627      623 
     645      689      747      812      869      904      918      912 
     900      900      916      934      959      982      984      965 
     932      901      877      859      842      814      769      731 
     718      712      711      723      735      731      708      673 
     645      627      611      591      575      573      580      598 
     634      688      756      822      869      897      912      923 
     954     1000     1035     1055     1070     1078     1071     1057 
    1043     1034     1012      976      942      928      935      939 
     924      897      877      868      858      834      789      729 
     664      622      622      672      749      832      915      976 
    1001     1009     1024     1040     1038     1015      992      990 
    1036     1127     1219     1263     1237     1146     1020      904 
     826      789      781      796      831      866      897      934 
     955      947      920      868      799      753      762      823 
     905      977     1019     1016      976      913      851      807 
     773      751      747      741      731      747      784      808 
     814      818      811      795      799      831      892      973 
    1047     1070     1024      931      827      756      739      769 
     819      861      882      884      864      834      812      805 
     803      788      776      777      778      780      799      832 
     850      837      803      783      796      820      832      839 
     845      830      799      770      750      726      704      703 
     723      762      816      873      909      922      923      924 
     943      986     1024     1044     1055     1057     1058     1074 
    1092     1085     1038      955      859      796      791      850 
     949     1058     1143     1177     1151     1078      972      857 
     758      688      658      672      727      814      886      926 
     943      927      858      776      734      731      756      810 
     872      915      923      892      827      743      660      602 
     594      633      711      828      957     1061     1131     1152 
    1116     1039      949      885      872      901      957     1017 
    1055     1047      994      918      837      764      706      665 
     653      684      760      846      915      953      958      936 
     885      807      726      661      625      629      684      799 
     942     1058     1125     1151     1152     1140     1109     1061 
    1003      947      905      892      923      969      978      932 
     841      727      629      584      616      715      837      942 
    1003     1003      950      873      799      749      746      787 
     849      911      954      974      972      943      895      837 
     769      703      668      680      737      831      946     1055 
    1117     1101     1021      908      792      702      661      680 
     743      831      923     1001     1055     1089     1097     1069 
    1013      946      884      857      874      931     1009     1074 
    1094     1061      985      897      832      816      837      853 
     843      812      760      702      650      615      606      612 
     638      697      783      859      908      911      865      789 
     710      649      625      648      722      823      911      961 
     963      927      877      830      796      795      830      892 
     962     1034     1097     1139     1142     1098     1017      926 
