Origin Time       2025/06/03 22:18:00
Lat.              41.7
Long.             143.6
Depth. (km)       30
Mag.              5.2
Station Code      AOMH06
Station Lat.      40.9664
Station Long.     141.3738
Station Height(m) 5
Record Time       2025/06/03 22:19:25
Sampling Freq(Hz) 100Hz
Duration Time(s)  120
Dir.              6
Scale Factor      7845(gal)/8223790
Max. Acc. (gal)   0.245
Last Correction   2025/06/03 22:19:26
Memo.             
[...]
    5080     5078     5076     5078     5076     5071     5077     5077 
    5076     5076     5063     5058     5061     5061     5062     5057 
    5051     5071     5096     5107     5109     5104     5115     5159 
    5196     5206     5202     5174     5117     5070     5062     5088 
    5120     5155     5185     5177     5124     5062     5034     5043 
    5063     5073     5066     5044     5034     5061     5109     5138 
    5128     5082     5024     5017     5090     5171     5163     5073 
    5005     4997     5015     5057     5108     5113     5076     5042 
    5039     5070     5103     5116     5123     5119     5121     5157 
    5190     5179     5135     5044     4942     4936     5024     5097 
    5115     5098     5078     5073     5057     5043     5077     5134 
    5157     5134     5103     5088     5065     5051     5096     5142 
    5134     5121     5128     5119     5096     5096     5115     5108 
    5069     5054     5074     5096     5123     5134     5093     5028 
    4982     4977     5007     5047     5088     5090     5050     5038 
    5082     5111     5116     5154     5208     5206     5155     5116 
    5092     5039     4995     5032     5109     5143     5125     5074 
    5017     4996     5013     5043     5074     5103     5120     5127 
    5120     5109     5105     5104     5105     5097     5078     5076 
    5081     5073     5071     5090     5115     5105     5038     4958 
    4946     5013     5111     5169     5157     5100     5054     5066 
    5131     5185     5175     5138     5113     5094     5067     5059 
    5092     5132     5143     5146     5163     5175     5179     5155 
    5084     5024     5026     5049     5051     5020     4993     5028 
    5104     5147     5151     5127     5090     5089     5107     5089 
    5057     5051     5073     5097     5105     5093     5077     5066 
    5067     5067     5058     5066     5080     5071     5070     5088 
    5098     5096     5107     5132     5124     5077     5058     5078 
    5094     5101     5104     5084     5042     5005     5023     5094 
    5150     5159     5154     5139     5117     5112     5117     5135 
    5171     5197     5204     5190     5142     5090     5057     5044 
    5074     5107     5097     5073     5050     5035     5050     5061 
    5036     5003     4996     5011     5030     5036     5031     5013 
    4995     5013     5061     5098     5119     5112     5085     5063 
    5057     5080     5132     5148     5097     5058     5082     5131 
    5171     5192     5186     5173     5186     5201     5162     5096 
    5067     5063     5062     5055     5040     5035     5053     5092 
    5127     5109     5050     5030     5073     5121     5136     5125 
    5130     5167     5192     5157     5085     5035     5046     5093 
    5123     5120     5111     5109     5115     5086     5012     4976 
    5027     5097     5138     5152     5148     5124     5084     5042 
    5007     4990     5016     5058     5076     5062     5044     5057 
    5104     5134     5115     5078     5047     5036     5063     5108 
    5134     5154     5185     5209     5209     5174     5127     5107 
    5119     5131     5116     5084     5066     5063     5055     5049 
    5046     5040     5020     4982     4957     4970     5012     5059 
    5100     5103     5073     5058     5065     5096     5146     5161 
    5144     5142     5124     5081     5069     5103     5135     5123 
    5078     5062     5094     5134     5155     5146     5113     5101 
    5107     5103     5097     5065     5007     4995     5042     5088 
    5107     5092     5047     4996     4976     4996     5024     5039 
    5031     4992     4973     5031     5108     5146     5167     5178 
    5173     5178     5179     5157     5127     5117     5134     5142 
    5124     5105     5089     5074     5082     5093     5082     5054 
    5030     5034     5077     5113     5115     5103     5089     5078 
    5077     5098     5117     5093     5065     5081     5100     5097 
    5113     5124     5085     5051     5070     5098     5100     5097 
    5103     5086     5054     5051     5082     5127     5162     5152 
    5107     5067     5042     5044     5082     5109     5096     5057 
    5020     5019     5051     5058     5044     5053     5063     5069 
    5096     5134     5154     5136     5085     5040     5022     5032 
    5084     5148     5190     5198     5159     5101     5059     5034 
    5043     5101     5148     5143     5107     5101     5125     5111 
    5046     4996     4992     5028     5085     5115     5103     5069 
    5040     5020     5009     5034     5113     5197     5220     5190 
    5157     5136     5112     5092     5096     5111     5108     5103 
    5119     5124     5104     5096     5086     5063     5080     5127 
    5113     5051     5040     5062     5026     4977     4999     5047 
    5053     5046     5066     5089     5094     5092     5076     5050 
    5039     5074     5128     5134     5105     5104     5105     5085 
    5093     5136     5155     5148     5151     5140     5085     5034 
    5047     5104     5154     5188     5200     5152     5070     5032 
    5057     5088     5105     5125     5124     5078     5028     5005 
    4995     5008     5053     5097     5098     5047     5001     5005 
    5012     5012     5039     5062     5066     5076     5101     5143 
    5158     5112     5058     5042     5062     5119     5175     5185 
    5167     5151     5152     5170     5185     5179     5142     5111 
    5132     5151     5119     5090     5093     5092     5054     4997 
    4996     5062     5103     5081     5022     4950     4916     4954 
    5016     5065     5107     5132     5128     5117     5107     5084 
    5050     5034     5058     5090     5092     5096     5128     5175 
    5194     5167     5142     5155     5171     5157     5109     5050 
    5031     5047     5051     5043     5036     5027     5026     5034 
    5034     5019     5015     5053     5097     5085     5051     5061 
    5097     5130     5150     5148     5138     5134     5138     5144 
    5142     5138     5143     5125     5090     5069     5053     5043 
    5066     5112     5152     5170     5170     5179     5185     5140 
    5085     5074     5074     5059     5077     5139     5188     5190 
    5162     5105     5028     4969     4941     4941     4977     5054 
    5112     5121     5112     5101     5096     5116     5151     5193 
    5217     5192     5132     5073     5047     5093     5181     5221 
    5169     5051     4965     4970     5008     5034     5053     5061 
    5074     5105     5138     5146     5101     5011     4953     4969 
    5024     5074     5086     5044     4985     4957     4949     4941 
    4962     5019     5053     5042     5049     5116     5197     5215 
    5171     5146     5169     5188     5189     5209     5243     5254 
    5236     5201     5167     5130     5097     5100     5142     5174 
    5165     5123     5082     5069     5070     5047     4996     4943 
    4935     4997     5063     5066     5023     4988     4999     5058 
    5125     5146     5105     5053     5036     5036     5034     5046 
    5054     5049     5067     5125     5188     5228     5225     5171 
    5103     5074     5119     5209     5256     5212     5107     4982 
    4912     4951     5070     5171     5205     5198     5173     5124 
    5082     5071     5058     5038     5043     5073     5101     5125 
    5139     5148     5143     5104     5055     5005     4958     4953 
    4986     5023     5066     5101     5092     5040     4990     4982 
    5013     5071     5159     5221     5196     5124     5070     5042 
    5050     5094     5151     5200     5213     5177     5125     5108 
    5140     5186     5157     5034     4915     4873     4932     5054 
    5161     5198     5181     5161     5163     5161     5125     5069 
    5008     4984     5007     5046     5115     5220     5269     5208 
    5094     5005     4981     5007     5049     5059     5016     4982 
    5022     5066     5055     5040     5053     5088     5169     5255 
    5265     5198     5101     4997     4928     4915     4934     4965 
    5013     5077     5134     5152     5111     5035     4974     4949 
    4970     5054     5166     5228     5216     5179     5163     5179 
    5206     5198     5136     5058     5024     5049     5066     5049 
    5036     5027     5001     4988     4995     4995     5001     5026 
    5063     5116     5162     5188     5170     5090     5000     4962 
    4989     5084     5217     5306     5319     5263     5152     5040 
    4997     5032     5109     5169     5158     5101     5080     5120 
    5166     5174     5162     5144     5107     5059     5026     5031 
    5084     5152     5197     5167     5058     4966     4969     5004 
    5007     5000     4986     4963     4949     4950     4980     5032 
    5057     5051     5065     5116     5202     5273     5294     5294 
    5287     5279     5282     5260     5198     5127     5065     5034 
    5040     5050     5054     5067     5073     5055     5020     4995 
    5005     5044     5094     5120     5107     5103     5134     5150 
    5139     5117     5090     5071     5059     5030     5005     5026 
    5086     5132     5125     5082     5040     5024     5038     5078 
    5130     5161     5152     5116     5080     5074     5092     5096 
    5080     5054     5042     5071     5120     5130     5074     4993 
    4950     4955     4992     5034     5038     5028     5046     5058 
    5055     5077     5123     5170     5192     5173     5150     5163 
    5184     5169     5134     5109     5094     5082     5094     5125 
    5146     5146     5128     5101     5093     5116     5131     5107 
    5049     4972     4901     4891     4961     5058     5096     5050 
    4980     4932     4934     5012     5147     5266     5310     5238 
    5082     4954     4922     4992     5109     5185     5175     5103 
    4993     4916     4922     4974     5036     5115     5198     5224 
    5166     5119     5148     5198     5229     5246     5208     5119 
    5049     5036     5053     5076     5113     5136     5100     5051 
    5051     5063     5044     5032     5047     5071     5111     5167 
    5211     5197     5119     5053     5055     5084     5090     5074 
    5067     5124     5202     5227     5217     5215     5211     5193 
    5163     5146     5147     5130     5097     5067     5013     4953 
    4945     4988     5038     5039     5000     4993     5035     5094 
    5143     5143     5109     5077     5036     5008     5031     5093 
    5144     5167     5165     5134     5082     5054     5059     5053 
    5007     4961     4974     5058     5138     5142     5112     5108 
    5092     5055     5058     5105     5162     5208     5194     5111 
    5038     5023     5043     5069     5073     5059     5047     5058 
    5082     5088     5067     5042     5020     5022     5063     5128 
    5188     5202     5159     5116     5097     5086     5104     5131 
    5104     5035     4976     4953     4980     5027     5050     5036 
    5000     5005     5077     5130     5119     5090     5059     5039 
    5070     5136     5205     5251     5247     5198     5139     5092 
    5069     5076     5109     5159     5197     5208     5186     5136 
    5081     5047     5032     5032     5049     5071     5090     5081 
    5054     5058     5076     5057     5013     4976     4961     4974 
    4997     5050     5136     5177     5148     5098     5031     4958 
    4934     4977     5065     5155     5204     5198     5171     5179 
    5224     5238     5219     5205     5194     5170     5139     5097 
    5051     5023     5032     5084     5158     5201     5189     5139 
    5080     5031     5008     5023     5063     5108     5140     5157 
    5135     5097     5088     5098     5101     5089     5059     5038 
    5022     4993     4986     5003     5007     5013     5031     5054 
    5084     5080     5046     5042     5055     5054     5063     5089 
    5092     5053     5015     5031     5062     5049     5009     4972 
    4957     4993     5062     5125     5165     5154     5100     5046 
    5035     5093     5186     5244     5248     5216     5146     5057 
    5003     5020     5105     5201     5254     5267     5224     5120 
    5031     5005     5008     5005     4992     4996     5030     5058 
    5074     5089     5076     5051     5062     5100     5123     5125 
    5123     5119     5123     5148     5165     5144     5131     5161 
    5197     5213     5229     5231     5193     5131     5085     5109 
    5184     5220     5212     5211     5229     5236     5182     5078 
    4978     4904     4881     4927     4982     5003     5009     5013 
    5024     5054     5073     5067     5047     5013     4981     4984 
    5032     5093     5119     5098     5073     5069     5078     5082 
    5055     4992     4949     4989     5103     5217     5266     5224 
    5134     5067     5050     5047     5031     5007     5008     5059 
    5123     5150     5144     5115     5049     4981     4986     5076 
    5192     5273     5281     5221     5127     5027     4963     4966 
    5015     5057     5069     5065     5036     4988     4961     4966 
    4984     4995     4997     4995     4999     5030     5094     5165 
    5196     5194     5200     5211     5239     5302     5346     5319 
    5248     5194     5186     5201     5192     5143     5059     4974 
    4955     5004     5046     5047     5020     4973     4932     4935 
    4992     5074     5128     5136     5128     5127     5140     5167 
    5169     5125     5059     4989     4957     4984     5031     5066 
    5093     5117     5138     5148     5151     5166     5192     5220 
    5246     5251     5225     5181     5119     5069     5061     5071 
    5065     5038     5020     5035     5049     5040     5023     4990 
    4969     4995     5031     5040     5022     4993     5011     5088 
    5159     5200     5221     5215     5189     5158     5127     5115 
    5128     5151     5148     5105     5067     5066     5061     5050 
    5059     5073     5090     5124     5147     5138     5101     5066 
    5074     5104     5123     5136     5128     5071     4985     4911 
    4904     4966     5019     5013     4969     4919     4923     4990 
    5066     5107     5101     5074     5066     5086     5120     5162 
    5197     5209     5193     5157     5116     5081     5065     5082 
    5109     5131     5158     5165     5123     5062     5030     5042 
    5078     5097     5088     5090     5113     5119     5104     5080 
    5059     5057     5063     5080     5104     5116     5119     5125 
    5132     5150     5169     5154     5116     5076     5040     5022 
    5019     5039     5082     5121     5144     5159     5157     5150 
    5161     5179     5206     5248     5273     5254     5219     5184 
    5155     5130     5096     5062     5035     4997     4955     4931 
    4914     4900     4896     4903     4926     4965     5009     5040 
    5039     5028     5030     5017     5003     5027     5076     5108 
    5117     5120     5130     5135     5131     5132     5132     5134 
    5136     5120     5089     5078     5089     5086     5066     5057 
    5067     5066     5057     5080     5112     5107     5094     5101 
    5105     5124     5162     5175     5154     5120     5100     5101 
    5117     5144     5155     5117     5081     5093     5138     5190 
    5227     5239     5231     5200     5163     5125     5069     5007 
    4972     4958     4966     5009     5070     5116     5144     5144 
    5123     5096     5063     5044     5051     5059     5058     5047 
    5031     5023     5024     5047     5084     5090     5070     5058 
    5049     5050     5063     5055     5040     5046     5069     5113 
    5159     5169     5148     5111     5076     5067     5071     5082 
    5109     5130     5135     5131     5123     5127     5128     5105 
    5074     5043     5015     5034     5076     5093     5092     5081 
    5074     5084     5081     5065     5074     5101     5113     5100 
    5073     5061     5065     5082     5117     5155     5192     5212 
    5167     5093     5057     5054     5078     5128     5154     5134 
    5105     5086     5069     5046     5013     4990     5003     5028 
    5026     4992     4977     5007     5040     5054     5070     5094 
    5109     5107     5090     5071     5070     5086     5107     5117 
    5124     5155     5198     5211     5193     5157     5104     5073 
    5088     5124     5138     5103     5063     5053     5053     5085 
    5147     5177     5174     5171     5174     5186     5201     5201 
    5169     5101     5039     5030     5062     5089     5090     5057 
    5004     4961     4930     4916     4920     4934     4951     4963 
    4986     5034     5067     5062     5055     5073     5098     5112 
    5120     5134     5147     5151     5151     5146     5123     5096 
    5092     5117     5154     5154     5115     5089     5082     5080 
    5104     5140     5144     5130     5123     5134     5170     5209 
    5223     5205     5169     5140     5132     5130     5131     5130 
    5128     5143     5167     5175     5163     5120     5065     5053 
    5089     5127     5109     5034     4966     4927     4900     4916 
    4970     4985     4947     4915     4914     4936     4963     4973 
    4970     4959     4950     4968     5000     5013     5017     5013 
    5005     5019     5069     5132     5171     5182     5185     5181 
    5148     5104     5073     5061     5082     5127     5157     5161 
    5158     5169     5197     5216     5213     5200     5194     5217 
    5248     5246     5225     5211     5186     5162     5166     5182 
    5201     5206     5169     5107     5071     5071     5092     5098 
    5082     5073     5085     5123     5147     5113     5058     5027 
    5026     5053     5078     5071     5049     5024     5007     5003 
    5001     4999     4996     4985     4970     4959     4961     4985 
    5011     5019     5043     5081     5111     5142     5159     5147 
    5147     5173     5190     5182     5159     5146     5128     5094 
    5074     5066     5057     5065     5089     5103     5109     5108 
    5092     5080     5062     5054     5082     5112     5121     5142 
    5152     5120     5093     5107     5134     5152     5151     5136 
    5120     5104     5092     5094     5105     5116     5120     5113 
    5108     5108     5109     5108     5098     5088     5073     5042 
    5016     5001     4988     4999     5032     5065     5084     5084 
    5077     5073     5053     5016     5008     5047     5098     5140 
    5177     5208     5223     5216     5201     5184     5144     5104 
    5081     5061     5049     5047     5042     5047     5077     5098 
    5097     5077     5054     5053     5055     5036     5013     4999 
    5001     5023     5043     5066     5093     5090     5066     5054 
    5051     5065     5088     5100     5103     5113     5135     5154 
    5135     5081     5031     5013     5043     5086     5103     5096 
