Origin Time       2025/06/03 22:18:00
Lat.              41.7
Long.             143.6
Depth. (km)       30
Mag.              5.2
Station Code      AOMH13
Station Lat.      40.5794
Station Long.     141.4451
Station Height(m) 10
Record Time       2025/06/03 22:19:25
Sampling Freq(Hz) 100Hz
Duration Time(s)  120
Dir.              5
Scale Factor      7845(gal)/8223790
Max. Acc. (gal)   0.802
Last Correction   2025/06/03 22:19:26
Memo.             
[...]
   37598    37590    37608    37644    37705    37781    37860    37940 
   38009    38056    38068    38040    37993    37944    37901    37876 
   37882    37902    37920    37933    37936    37924    37903    37875 
   37845    37818    37787    37751    37708    37665    37647    37659 
   37693    37744    37795    37829    37841    37825    37787    37751 
   37724    37702    37697    37710    37729    37746    37768    37793 
   37812    37824    37832    37839    37845    37844    37829    37805 
   37778    37755    37740    37741    37760    37793    37835    37874 
   37895    37891    37862    37812    37759    37716    37677    37655 
   37662    37683    37714    37752    37786    37817    37855    37894 
   37921    37939    37949    37949    37947    37949    37952    37947 
   37937    37918    37894    37874    37858    37843    37828    37813 
   37789    37760    37746    37739    37728    37714    37706    37701 
   37692    37689    37697    37702    37704    37700    37689    37685 
   37698    37731    37777    37824    37859    37879    37879    37868 
   37871    37882    37886    37889    37887    37876    37858    37835 
   37814    37801    37786    37770    37760    37740    37709    37686 
   37679    37690    37720    37763    37809    37847    37876    37887 
   37876    37859    37836    37820    37816    37817    37817    37821 
   37821    37817    37824    37835    37843    37847    37832    37800 
   37767    37737    37716    37709    37719    37741    37768    37793 
   37812    37831    37845    37840    37827    37817    37808    37800 
   37793    37779    37759    37747    37748    37755    37762    37773 
   37785    37787    37793    37806    37817    37828    37849    37879 
   37899    37902    37895    37889    37872    37845    37817    37802 
   37801    37801    37795    37794    37800    37806    37809    37806 
   37810    37818    37825    37836    37856    37878    37882    37863 
   37836    37806    37768    37739    37723    37716    37720    37725 
   37731    37744    37760    37783    37810    37831    37844    37848 
   37835    37810    37779    37748    37724    37714    37727    37755 
   37791    37825    37841    37839    37818    37785    37760    37752 
   37754    37754    37759    37773    37789    37808    37835    37864 
   37883    37889    37876    37849    37821    37801    37783    37767 
   37760    37759    37750    37740    37746    37766    37797    37828 
   37843    37832    37797    37744    37685    37642    37623    37619 
   37631    37660    37700    37748    37797    37837    37872    37891 
   37887    37872    37855    37844    37859    37899    37940    37971 
   37978    37949    37901    37859    37829    37814    37820    37835 
   37849    37858    37855    37839    37814    37791    37771    37752 
   37743    37751    37770    37782    37786    37787    37789    37783 
   37771    37750    37725    37714    37731    37771    37828    37894 
   37951    37990    38002    37984    37941    37886    37836    37814 
   37820    37845    37882    37913    37920    37898    37862    37828 
   37806    37802    37809    37820    37818    37804    37783    37760 
   37736    37709    37685    37669    37666    37678    37701    37735 
   37770    37790    37779    37740    37689    37646    37620    37609 
   37611    37621    37631    37646    37673    37705    37735    37763 
   37787    37798    37802    37810    37825    37840    37854    37863 
   37874    37895    37922    37943    37951    37949    37937    37912 
   37876    37844    37816    37791    37774    37782    37816    37858 
   37895    37924    37935    37921    37886    37835    37778    37728 
   37696    37685    37696    37732    37787    37848    37897    37917 
   37912    37890    37854    37816    37797    37795    37797    37798 
   37794    37774    37740    37702    37666    37636    37616    37613 
   37625    37647    37678    37716    37748    37764    37764    37754 
   37737    37723    37712    37705    37698    37698    37710    37732 
   37752    37767    37783    37801    37825    37858    37890    37906 
   37905    37897    37886    37876    37864    37844    37821    37809 
   37812    37825    37836    37832    37818    37798    37777    37764 
   37763    37775    37798    37833    37867    37881    37879    37866 
   37839    37817    37813    37824    37839    37845    37844    37840 
   37833    37822    37804    37786    37778    37777    37777    37777 
   37763    37743    37740    37755    37789    37832    37872    37906 
   37935    37949    37944    37917    37879    37841    37802    37778 
   37777    37790    37814    37837    37851    37851    37832    37806 
   37789    37782    37782    37787    37798    37814    37827    37829 
   37835    37851    37864    37855    37828    37789    37747    37712 
   37685    37667    37669    37686    37704    37719    37731    37739 
   37748    37756    37759    37752    37733    37706    37697    37706 
   37725    37748    37766    37775    37787    37794    37798    37814 
   37843    37872    37898    37920    37933    37936    37932    37920 
   37901    37885    37864    37844    37839    37844    37854    37874 
   37897    37908    37898    37871    37831    37779    37725    37692 
   37683    37683    37690    37702    37704    37701    37704    37704 
   37708    37725    37741    37766    37802    37835    37851    37854 
   37844    37825    37800    37771    37739    37710    37701    37713 
   37741    37770    37786    37786    37774    37770    37774    37781 
   37793    37804    37809    37818    37825    37824    37818    37806 
   37791    37782    37785    37795    37795    37786    37789    37806 
   37832    37855    37863    37856    37841    37818    37791    37774 
   37775    37795    37829    37862    37879    37885    37885    37878 
   37867    37848    37818    37791    37778    37774    37775    37783 
   37790    37791    37794    37802    37813    37836    37864    37886 
   37902    37922    37940    37953    37957    37952    37948    37948 
   37940    37924    37908    37898    37891    37883    37870    37848 
   37824    37795    37763    37739    37732    37741    37760    37791 
   37831    37856    37870    37875    37868    37855    37844    37844 
   37848    37841    37820    37785    37740    37701    37681    37679 
   37692    37705    37709    37704    37694    37693    37706    37736 
   37774    37813    37848    37882    37906    37914    37910    37895 
   37867    37831    37793    37744    37700    37670    37654    37650 
   37650    37646    37638    37631    37636    37655    37689    37743 
   37798    37837    37859    37854    37822    37779    37746    37723 
   37712    37721    37750    37783    37817    37841    37845    37847 
   37852    37845    37828    37822    37835    37864    37912    37968 
   38016    38049    38061    38051    38025    37990    37932    37855 
   37785    37737    37713    37713    37732    37759    37789    37809 
   37816    37808    37789    37774    37781    37806    37833    37848 
   37852    37843    37817    37785    37747    37709    37683    37667 
   37648    37621    37594    37574    37561    37557    37574    37613 
   37665    37721    37774    37808    37820    37820    37809    37786 
   37763    37750    37748    37762    37786    37808    37820    37814 
   37785    37741    37716    37719    37740    37774    37821    37878 
   37930    37964    37970    37947    37906    37863    37839    37843 
   37849    37837    37808    37775    37752    37741    37750    37777 
   37812    37843    37860    37856    37841    37827    37809    37783 
   37754    37728    37712    37716    37758    37832    37912    37983 
   38034    38047    38010    37944    37866    37795    37747    37735 
   37756    37794    37839    37879    37912    37935    37939    37922 
   37902    37889    37879    37874    37868    37854    37835    37813 
   37778    37717    37642    37550    37443    37354    37320    37342 
   37408    37507    37615    37706    37773    37805    37810    37818 
   37851    37898    37955    38013    38048    38051    38024    37971 
   37901    37833    37791    37781    37794    37818    37847    37894 
   37966    38043    38105    38129    38098    38024    37936    37858 
   37797    37752    37719    37686    37647    37604    37579    37586 
   37620    37669    37712    37728    37720    37706    37701    37701 
   37708    37717    37727    37733    37746    37756    37759    37764 
   37775    37782    37778    37760    37716    37660    37616    37596 
   37627    37719    37844    37968    38055    38090    38083    38044 
   37990    37944    37910    37890    37894    37922    37963    38003 
   38032    38034    38007    37968    37930    37899    37881    37870 
   37851    37812    37750    37665    37567    37477    37417    37396 
   37412    37457    37511    37563    37609    37644    37674    37710 
   37759    37817    37878    37929    37953    37947    37929    37910 
   37895    37886    37882    37878    37875    37870    37852    37820 
   37783    37741    37705    37701    37731    37783    37849    37912 
   37943    37948    37940    37926    37913    37903    37886    37856 
   37818    37775    37733    37705    37697    37716    37762    37829 
   37899    37939    37939    37912    37859    37789    37728    37677 
   37625    37584    37578    37613    37670    37739    37817    37898 
   37964    37991    37974    37924    37862    37802    37775    37793 
   37829    37854    37852    37828    37789    37747    37719    37716 
   37741    37789    37837    37879    37914    37930    37926    37909 
   37879    37841    37798    37752    37724    37713    37706    37701 
   37690    37669    37635    37590    37530    37462    37408    37382 
   37401    37458    37532    37601    37658    37705    37756    37837 
   37943    38043    38114    38133    38091    38005    37912    37836 
   37777    37748    37767    37821    37895    37970    38016    38037 
   38037    38011    37967    37906    37837    37789    37781    37814 
   37883    37964    38036    38080    38088    38060    38017    37978 
   37939    37894    37854    37813    37773    37739    37720    37716 
   37724    37731    37733    37750    37783    37829    37879    37913 
   37910    37871    37806    37735    37685    37674    37701    37746 
   37797    37843    37864    37851    37812    37760    37716    37690 
   37683    37689    37706    37732    37754    37764    37770    37763 
   37735    37687    37635    37593    37577    37582    37612    37663 
   37709    37728    37713    37673    37624    37581    37552    37552 
   37577    37615    37660    37712    37764    37816    37863    37895 
   37908    37894    37856    37801    37747    37714    37714    37755 
   37828    37914    38003    38080    38126    38140    38124    38079 
   38026    37991    37991    38026    38083    38148    38198    38206 
   38159    38060    37928    37801    37704    37647    37625    37629 
   37648    37675    37713    37775    37858    37941    38013    38057 
   38061    38021    37960    37899    37852    37835    37852    37897 
   37936    37948    37932    37889    37822    37750    37690    37659 
   37652    37658    37665    37655    37617    37552    37481    37424 
   37381    37365    37390    37443    37507    37571    37616    37625 
   37605    37579    37575    37604    37667    37751    37827    37874 
   37883    37845    37778    37709    37665    37652    37662    37674 
   37667    37629    37570    37509    37462    37450    37478    37540 
   37625    37725    37816    37889    37939    37957    37955    37955 
   37966    37982    38013    38052    38083    38105    38128    38136 
   38106    38041    37968    37906    37860    37835    37827    37821 
   37816    37816    37827    37855    37899    37948    37990    38020 
   38037    38041    38036    38024    38024    38036    38038    38018 
   37979    37935    37893    37863    37858    37883    37935    38003 
   38067    38098    38092    38053    37987    37905    37816    37725 
   37639    37563    37512    37493    37498    37513    37534    37559 
   37584    37608    37636    37666    37692    37719    37740    37739 
   37716    37692    37678    37683    37693    37685    37636    37542 
   37424    37318    37255    37262    37349    37497    37662    37797 
   37878    37901    37874    37816    37767    37770    37837    37948 
   38080    38202    38269    38264    38188    38063    37924    37810 
   37758    37786    37883    38006    38122    38198    38203    38149 
   38078    38028    38007    38003    37991    37968    37943    37920 
   37902    37882    37844    37797    37760    37733    37716    37713 
   37719    37729    37739    37737    37728    37723    37720    37723 
   37735    37752    37774    37800    37841    37895    37941    37974 
   37989    37968    37925    37872    37812    37752    37709    37694 
   37708    37741    37790    37837    37855    37831    37768    37673 
   37557    37442    37354    37307    37296    37312    37343    37378 
   37413    37450    37482    37517    37555    37601    37659    37720 
   37782    37844    37882    37887    37856    37794    37712    37617 
   37523    37451    37423    37446    37513    37609    37706    37774 
   37802    37798    37781    37777    37806    37879    38001    38155 
   38315    38460    38568    38627    38642    38605    38533    38453 
   38379    38315    38264    38213    38159    38097    38014    37926 
   37854    37808    37800    37829    37868    37887    37867    37794 
   37670    37534    37426    37362    37355    37401    37470    37538 
   37584    37597    37585    37554    37512    37484    37486    37523 
   37573    37616    37654    37693    37723    37737    37743    37740 
   37740    37748    37763    37775    37779    37762    37717    37665 
   37619    37593    37586    37586    37592    37613    37648    37689 
   37739    37798    37858    37906    37936    37943    37930    37903 
   37874    37847    37827    37832    37867    37932    38022    38115 
   38191    38250    38279    38263    38207    38125    38037    37962 
   37905    37868    37847    37822    37781    37724    37667    37620 
   37598    37616    37656    37705    37758    37793    37794    37770 
   37724    37670    37631    37612    37619    37666    37735    37801 
   37855    37881    37875    37848    37812    37775    37744    37723 
   37712    37708    37701    37685    37652    37613    37577    37557 
   37558    37586    37648    37728    37795    37843    37871    37876 
   37872    37874    37886    37908    37928    37926    37902    37863 
   37809    37751    37708    37686    37673    37658    37635    37602 
   37573    37558    37562    37585    37636    37709    37779    37831 
   37854    37847    37812    37750    37683    37644    37639    37670 
   37727    37800    37875    37930    37956    37970    37991    38024 
   38068    38133    38207    38263    38284    38269    38225    38168 
   38126    38111    38125    38163    38206    38215    38180    38109 
   38010    37914    37858    37855    37893    37953    38016    38064 
   38086    38071    38028    37964    37891    37817    37736    37652 
   37585    37535    37501    37492    37508    37540    37569    37581 
   37562    37515    37461    37417    37407    37436    37498    37590 
   37696    37779    37824    37828    37798    37747    37687    37632 
   37594    37579    37585    37613    37651    37675    37685    37678 
   37660    37638    37627    37639    37670    37714    37771    37836 
   37893    37930    37952    37970    37982    37995    38011    38026 
   38034    38028    38003    37967    37926    37901    37894    37889 
   37867    37821    37760    37705    37669    37663    37698    37770 
   37863    37957    38043    38105    38136    38145    38144    38144 
   38152    38165    38167    38144    38091    38013    37924    37845 
   37783    37740    37712    37697    37692    37710    37754    37798 
   37817    37795    37729    37633    37530    37435    37369    37334 
   37318    37316    37319    37316    37308    37293    37288    37299 
   37331    37392    37476    37569    37670    37774    37867    37933 
   37976    38002    38006    37991    37971    37952    37940    37936 
   37932    37920    37897    37859    37810    37760    37712    37666 
   37625    37597    37586    37590    37617    37665    37721    37771 
   37798    37804    37802    37802    37802    37812    37835    37859 
   37871    37878    37891    37910    37929    37949    37960    37962 
   37959    37964    37982    38014    38043    38049    38022    37970 
   37908    37851    37816    37812    37831    37862    37910    37975 
   38052    38133    38209    38259    38267    38233    38164    38075 
   37995    37943    37930    37945    37974    38006    38029    38025 
   37997    37960    37918    37876    37840    37814    37795    37773 
   37752    37741    37723    37689    37646    37593    37528    37470 
   37431    37412    37411    37420    37427    37426    37424    37430 
   37440    37458    37488    37531    37582    37625    37658    37687 
   37701    37696    37683    37671    37655    37633    37608    37584 
   37562    37547    37542    37540    37542    37544    37554    37586 
   37647    37719    37786    37837    37860    37851    37820    37786 
   37773    37786    37817    37852    37893    37926    37933    37908 
   37872    37844    37839    37874    37943    38029    38111    38160 
   38157    38105    38018    37933    37878    37872    37916    37986 
   38060    38117    38149    38167    38164    38148    38133    38129 
   38134    38145    38159    38165    38157    38133    38087    38020 
   37945    37881    37831    37800    37783    37770    37768    37774 
   37781    37795    37816    37829    37836    37832    37808    37777 
   37748    37728    37719    37719    37713    37687    37650    37612 
   37588    37585    37601    37620    37632    37629    37611    37575 
   37532    37484    37430    37373    37326    37299    37292    37309 
   37346    37388    37432    37478    37520    37561    37604    37656 
   37717    37778    37839    37889    37909    37893    37852    37789 
   37717    37659    37623    37608    37619    37642    37654    37656 
   37663    37678    37705    37754    37820    37895    37976    38057 
   38126    38179    38205    38200    38176    38141    38106    38079 
   38070    38082    38111    38146    38171    38175    38165    38155 
   38136    38106    38083    38064    38037    38002    37966    37930 
   37893    37852    37829    37825    37835    37858    37889    37898 
   37883    37855    37809    37754    37702    37660    37640    37633 
   37623    37602    37578    37547    37525    37534    37571    37628 
   37686    37732    37766    37790    37797    37778    37729    37643 
   37523    37389    37272    37184    37141    37146    37193    37272 
   37363    37443    37504    37539    37546    37540    37538    37546 
   37588    37673    37787    37912    38033    38136    38205    38232 
   38218    38168    38097    38022    37967    37944    37956    37991 
