Origin Time       2025/06/03 22:18:00
Lat.              41.7
Long.             143.6
Depth. (km)       30
Mag.              5.2
Station Code      AOMH13
Station Lat.      40.5794
Station Long.     141.4451
Station Height(m) -140
Record Time       2025/06/03 22:19:25
Sampling Freq(Hz) 100Hz
Duration Time(s)  120
Dir.              3
Scale Factor      2942(gal)/8224139
Max. Acc. (gal)   0.111
Last Correction   2025/06/03 22:19:26
Memo.             
[...]
  161142   161152   161184   161225   161256   161273   161281   161291 
  161298   161303   161315   161341   161366   161369   161360   161357 
  161357   161369   161397   161431   161460   161474   161481   161488 
  161480   161455   161424   161381   161341   161316   161303   161302 
  161311   161325   161345   161364   161369   161369   161370   161364 
  161346   161319   161295   161277   161268   161266   161265   161276 
  161307   161334   161339   161339   161338   161334   161320   161296 
  161266   161229   161195   161175   161163   161156   161158   161157 
  161148   161136   161122   161121   161127   161126   161118   161109 
  161099   161099   161107   161114   161129   161150   161165   161180 
  161206   161234   161262   161284   161295   161306   161330   161356 
  161377   161403   161424   161434   161434   161428   161415   161395 
  161374   161361   161354   161341   161330   161326   161322   161320 
  161314   161289   161266   161254   161231   161191   161149   161133 
  161131   161123   161119   161138   161161   161172   161185   161207 
  161235   161271   161300   161310   161306   161298   161289   161287 
  161291   161304   161320   161331   161339   161347   161345   161335 
  161337   161342   161335   161326   161323   161320   161315   161308 
  161304   161300   161293   161289   161285   161275   161258   161242 
  161230   161217   161207   161218   161239   161248   161244   161248 
  161268   161293   161298   161284   161276   161275   161272   161283 
  161311   161337   161347   161347   161339   161326   161320   161319 
  161315   161306   161302   161302   161296   161288   161273   161250 
  161234   161221   161198   161173   161158   161142   161126   161122 
  161133   161152   161168   161179   161194   161214   161226   161231 
  161239   161248   161253   161254   161256   161256   161248   161237 
  161239   161246   161249   161261   161283   161307   161334   161350 
  161353   161353   161349   161334   161318   161307   161298   161295 
  161296   161300   161300   161293   161281   161269   161268   161277 
  161284   161284   161283   161283   161287   161295   161310   161322 
  161325   161329   161331   161327   161316   161310   161318   161330 
  161331   161329   161330   161345   161369   161383   161379   161362 
  161342   161325   161304   161275   161250   161250   161249   161239 
  161235   161246   161261   161273   161280   161273   161258   161248 
  161242   161244   161250   161265   161285   161296   161287   161264 
  161238   161217   161206   161210   161219   161227   161235   161239 
  161241   161246   161252   161261   161268   161271   161280   161295 
  161307   161315   161312   161307   161318   161337   161353   161356 
  161356   161353   161339   161325   161315   161304   161298   161292 
  161276   161261   161254   161254   161258   161272   161293   161316 
  161334   161347   161358   161354   161337   161316   161298   161280 
  161268   161258   161242   161223   161206   161192   161191   161200 
  161210   161219   161234   161254   161275   161291   161312   161330 
  161343   161361   161372   161374   161384   161395   161396   161391 
  161381   161365   161343   161319   161291   161257   161233   161230 
  161241   161249   161249   161252   161260   161272   161277   161276 
  161279   161289   161304   161318   161326   161329   161329   161327 
  161327   161319   161302   161276   161246   161221   161198   161185 
  161183   161184   161187   161194   161206   161210   161204   161207 
  161217   161219   161208   161190   161180   161177   161180   161196 
  161221   161245   161272   161303   161338   161369   161393   161415 
  161430   161431   161428   161433   161437   161433   161427   161418 
  161406   161403   161404   161404   161400   161388   161366   161342 
  161320   161308   161298   161272   161233   161199   161175   161150 
  161134   161126   161117   161099   161079   161056   161040   161037 
  161042   161044   161036   161026   161026   161036   161049   161056 
  161063   161079   161099   161109   161104   161111   161141   161161 
  161167   161179   161194   161207   161227   161252   161275   161292 
  161304   161316   161320   161326   161341   161360   161377   161385 
  161385   161389   161403   161415   161419   161414   161400   161383 
  161362   161346   161343   161343   161333   161315   161308   161315 
  161319   161315   161314   161318   161316   161316   161318   161318 
  161316   161315   161316   161329   161352   161370   161383   161397 
  161415   161433   161447   161450   161443   161434   161424   161414 
  161400   161383   161372   161368   161360   161356   161368   161385 
  161396   161406   161412   161404   161389   161381   161365   161338 
  161320   161307   161287   161257   161227   161203   161191   161191 
  161195   161200   161211   161225   161227   161211   161192   161184 
  161194   161207   161208   161203   161203   161208   161214   161223 
  161248   161277   161299   161316   161331   161333   161330   161334 
  161339   161337   161337   161343   161339   161329   161318   161315 
  161325   161335   161343   161345   161331   161316   161303   161283 
  161257   161235   161208   161177   161160   161149   161137   161121 
  161100   161080   161075   161077   161088   161109   161123   161127 
  161127   161125   161114   161098   161083   161075   161075   161096 
  161138   161179   161200   161217   161242   161271   161292   161308 
  161322   161338   161353   161362   161366   161372   161381   161389 
  161392   161389   161374   161352   161327   161303   161279   161262 
  161257   161262   161266   161260   161252   161256   161266   161276 
  161281   161281   161279   161277   161285   161298   161302   161298 
  161296   161298   161302   161310   161326   161356   161377   161384 
  161387   161391   161389   161385   161380   161374   161372   161380 
  161387   161381   161373   161366   161350   161325   161304   161298 
  161288   161268   161242   161223   161206   161191   161184   161172 
  161150   161133   161122   161110   161106   161111   161115   161114 
  161110   161107   161110   161122   161138   161146   161152   161160 
  161168   161175   161183   161188   161199   161215   161234   161250 
  161261   161265   161266   161269   161265   161257   161253   161252 
  161245   161235   161229   161229   161234   161241   161241   161238 
  161239   161246   161261   161275   161280   161287   161299   161307 
  161302   161295   161298   161315   161346   161380   161410   161437 
  161455   161460   161450   161441   161438   161441   161443   161443 
  161438   161426   161414   161411   161404   161399   161406   161416 
  161426   161423   161404   161381   161370   161361   161346   161341 
  161353   161361   161357   161346   161330   161319   161319   161316 
  161310   161314   161323   161333   161341   161341   161331   161315 
  161295   161269   161250   161241   161238   161245   161249   161257 
  161277   161295   161299   161296   161299   161302   161302   161303 
  161310   161312   161308   161304   161307   161304   161295   161285 
  161271   161260   161252   161235   161212   161191   161180   161183 
  161184   161180   161179   161185   161198   161210   161207   161196 
  161191   161191   161190   161184   161180   161184   161187   161187 
  161190   161196   161207   161215   161223   161234   161244   161246 
  161249   161252   161250   161253   161256   161250   161238   161230 
  161225   161225   161233   161239   161237   161234   161233   161223 
  161206   161196   161199   161200   161203   161211   161219   161229 
  161245   161266   161285   161300   161314   161327   161338   161342 
  161342   161343   161342   161339   161339   161339   161339   161337 
  161330   161327   161331   161330   161319   161308   161307   161310 
  161308   161304   161300   161296   161296   161292   161280   161264 
  161245   161227   161217   161215   161218   161219   161227   161237 
  161239   161246   161261   161261   161256   161266   161291   161314 
  161342   161372   161387   161392   161397   161397   161401   161403 
  161393   161376   161364   161360   161356   161339   161306   161272 
  161252   161241   161231   161227   161237   161250   161254   161246 
  161235   161237   161246   161253   161264   161273   161283   161291 
  161289   161277   161271   161272   161275   161283   161293   161308 
  161331   161353   161366   161384   161407   161423   161431   161435 
  161438   161435   161427   161422   161416   161404   161384   161361 
  161337   161311   161293   161277   161256   161230   161210   161196 
  161184   161168   161153   161140   161129   161121   161110   161096 
  161087   161080   161069   161064   161067   161077   161100   161129 
  161154   161175   161185   161191   161198   161206   161210   161212 
  161221   161227   161233   161237   161235   161227   161212   161194 
  161172   161156   161149   161149   161148   161144   161134   161125 
  161121   161125   161137   161156   161181   161203   161215   161219 
  161218   161222   161234   161250   161265   161273   161276   161272 
  161258   161245   161239   161235   161237   161249   161268   161283 
  161296   161312   161331   161345   161357   161370   161370   161357 
  161345   161338   161335   161337   161345   161358   161365   161366 
  161374   161392   161415   161441   161462   161482   161500   161512 
  161519   161515   161503   161485   161472   161461   161447   161430 
  161422   161419   161418   161418   161416   161416   161416   161406 
  161389   161374   161356   161335   161316   161298   161285   161279 
  161272   161269   161275   161281   161287   161288   161289   161292 
  161293   161296   161302   161302   161299   161300   161300   161298 
  161296   161302   161300   161289   161277   161269   161254   161237 
  161230   161223   161211   161203   161198   161191   161185   161176 
  161164   161156   161153   161150   161149   161149   161138   161122 
  161110   161114   161131   161149   161160   161168   161180   161198 
  161204   161192   161179   161172   161172   161179   161195   161217 
  161239   161266   161289   161307   161327   161345   161352   161357 
  161365   161374   161384   161391   161389   161388   161399   161411 
  161415   161415   161414   161410   161397   161384   161374   161368 
  161352   161327   161300   161268   161239   161219   161200   161179 
  161168   161163   161149   161136   161126   161114   161100   161092 
  161086   161082   161084   161084   161077   161079   161095   161117 
  161137   161157   161180   161194   161195   161195   161192   161184 
  161185   161194   161194   161195   161203   161208   161211   161221 
  161231   161244   161257   161271   161280   161279   161277   161280 
  161273   161269   161280   161287   161285   161288   161299   161314 
  161322   161329   161341   161357   161379   161401   161415   161424 
  161437   161451   161460   161455   161446   161445   161443   161437 
  161427   161427   161435   161442   161446   161449   161445   161433 
  161420   161408   161391   161376   161370   161364   161346   161325 
  161310   161303   161300   161303   161312   161319   161319   161322 
  161325   161331   161343   161350   161354   161362   161366   161366 
  161370   161376   161379   161379   161369   161357   161342   161327 
  161318   161307   161296   161295   161298   161298   161291   161276 
  161256   161231   161206   161187   161179   161169   161144   161115 
  161098   161086   161075   161064   161061   161065   161072   161082 
  161095   161109   161115   161115   161114   161118   161119   161121 
  161123   161126   161130   161133   161142   161161   161171   161177 
  161200   161222   161237   161254   161277   161302   161325   161345 
  161360   161372   161379   161380   161379   161377   161373   161366 
  161361   161364   161362   161352   161345   161346   161341   161330 
  161319   161311   161295   161268   161245   161238   161230   161214 
  161199   161196   161198   161198   161203   161212   161215   161215 
  161219   161225   161227   161231   161233   161227   161227   161234 
  161237   161242   161246   161239   161234   161242   161252   161258 
  161271   161281   161293   161304   161310   161312   161316   161320 
  161322   161325   161334   161341   161346   161347   161347   161350 
  161357   161361   161361   161369   161383   161395   161404   161406 
  161393   161380   161370   161362   161358   161360   161362   161366 
  161364   161356   161352   161345   161337   161333   161331   161335 
  161339   161343   161349   161354   161358   161366   161374   161379 
  161383   161388   161388   161380   161373   161365   161352   161337 
  161330   161329   161335   161343   161345   161343   161346   161343 
  161326   161304   161288   161272   161252   161237   161221   161198 
  161172   161146   161127   161121   161121   161123   161123   161113 
  161104   161104   161100   161090   161079   161069   161061   161056 
  161052   161046   161041   161037   161036   161032   161026   161030 
  161032   161028   161022   161017   161018   161025   161033   161042 
  161057   161082   161100   161111   161127   161148   161163   161175 
  161191   161217   161246   161271   161284   161291   161300   161311 
  161314   161319   161341   161365   161388   161418   161447   161464 
  161474   161485   161499   161523   161546   161566   161584   161588 
  161580   161570   161562   161554   161542   161524   161514   161512 
  161514   161516   161515   161507   161492   161477   161465   161451 
  161439   161434   161426   161414   161406   161401   161395   161388 
  161383   161376   161374   161376   161370   161364   161358   161352 
  161345   161335   161329   161322   161314   161303   161293   161285 
  161279   161272   161258   161244   161234   161230   161229   161226 
  161222   161227   161239   161245   161242   161237   161230   161227 
  161225   161215   161204   161198   161191   161185   161185   161190 
  161195   161192   161183   161181   161181   161173   161164   161153 
  161140   161131   161127   161122   161115   161113   161111   161111 
  161111   161110   161109   161107   161104   161102   161102   161103 
  161100   161104   161114   161118   161118   161119   161125   161131 
  161134   161138   161148   161161   161177   161194   161211   161231 
  161248   161258   161272   161287   161295   161307   161331   161360 
  161377   161387   161392   161393   161397   161407   161415   161426 
  161434   161434   161439   161453   161462   161464   161465   161468 
  161468   161466   161465   161466   161468   161466   161464   161464 
  161460   161449   161439   161437   161438   161434   161434   161437 
  161433   161420   161410   161397   161379   161356   161334   161312 
  161292   161279   161264   161245   161227   161214   161208   161208 
  161198   161177   161161   161152   161146   161141   161137   161137 
  161129   161113   161106   161109   161114   161114   161109   161106 
  161113   161121   161127   161131   161141   161154   161169   161180 
  161191   161206   161219   161234   161248   161257   161269   161284 
  161291   161289   161292   161300   161302   161299   161298   161300 
  161303   161307   161312   161315   161315   161314   161310   161296 
  161276   161265   161260   161256   161258   161253   161239   161229 
  161219   161212   161212   161214   161212   161218   161226   161227 
  161227   161233   161241   161249   161260   161275   161288   161302 
  161315   161326   161337   161346   161350   161352   161354   161356 
  161354   161352   161349   161346   161345   161346   161353   161356 
  161356   161356   161356   161350   161333   161308   161281   161260 
  161244   161229   161215   161207   161208   161215   161218   161215 
  161210   161200   161191   161191   161191   161187   161187   161190 
  161190   161187   161194   161211   161223   161231   161244   161258 
  161280   161300   161316   161325   161330   161343   161361   161365 
  161364   161364   161360   161362   161366   161364   161365   161373 
  161379   161372   161362   161358   161353   161341   161333   161334 
  161342   161349   161346   161339   161334   161335   161335   161329 
  161318   161312   161310   161295   161280   161277   161280   161283 
  161285   161285   161287   161289   161285   161276   161268   161268 
  161269   161271   161266   161256   161246   161234   161223   161218 
  161217   161215   161217   161221   161217   161215   161227   161242 
  161253   161266   161279   161292   161304   161312   161323   161330 
  161327   161326   161325   161318   161306   161291   161272   161254 
  161237   161226   161222   161218   161215   161219   161219   161214 
  161208   161203   161198   161194   161184   161177   161179   161173 
  161163   161161   161169   161175   161177   161185   161196   161202 
  161208   161217   161226   161235   161242   161246   161246   161249 
  161250   161252   161261   161269   161272   161275   161280   161283 
  161281   161279   161283   161287   161287   161284   161277   161269 
  161264   161258   161250   161244   161238   161233   161233   161235 
  161233   161227   161226   161226   161226   161229   161238   161250 
  161256   161261   161272   161281   161289   161296   161298   161298 
  161299   161302   161303   161306   161316   161327   161334   161335 
  161333   161330   161329   161331   161339   161346   161353   161361 
  161366   161366   161365   161366   161374   161389   161404   161412 
  161416   161423   161431   161438   161441   161438   161437   161441 
  161439   161428   161426   161426   161415   161401   161392   161385 
  161379   161372   161364   161352   161338   161331   161329   161327 
  161319   161310   161306   161303   161292   161279   161269   161261 
  161256   161253   161250   161241   161230   161226   161225   161222 
  161222   161227   161238   161249   161252   161252   161256   161258 
  161258   161260   161262   161271   161276   161275   161273   161268 
  161257   161249   161246   161244   161239   161237   161235   161233 
  161229   161227   161223   161214   161200   161187   161179   161183 
  161196   161208   161217   161226   161238   161250   161268   161285 
  161298   161307   161316   161327   161335   161337   161335   161333 
  161329   161325   161322   161319   161315   161310   161300   161284 
  161269   161258   161256   161258   161260   161257   161256   161258 
  161265   161271   161271   161271   161273   161272   161266   161266 
  161271   161266   161258   161260   161260   161254   161254   161261 
  161272   161285   161295   161303   161308   161308   161310   161312 
  161307   161299   161291   161277   161262   161244   161221   161200 
  161183   161165   161149   161133   161115   161095   161073   161059 
  161052   161049   161048   161049   161049   161045   161044   161055 
  161073   161098   161122   161144   161167   161190   161211   161226 
  161241   161257   161269   161276   161279   161284   161293   161300 
  161300   161304   161315   161319   161320   161326   161322   161311 
  161303   161302   161300   161295   161291   161291   161293   161295 
