Origin Time       2025/06/03 22:18:00
Lat.              41.7
Long.             143.6
Depth. (km)       30
Mag.              5.2
Station Code      AOMH05
Station Lat.      40.8564
Station Long.     141.1033
Station Height(m) -267
Record Time       2025/06/03 22:19:32
Sampling Freq(Hz) 100Hz
Duration Time(s)  120
Dir.              1
Scale Factor      2940(gal)/6170270
Max. Acc. (gal)   0.205
Last Correction   2025/06/03 22:19:17
Memo.             
[...]
  -86765   -86767   -86769   -86756   -86729   -86706   -86695   -86687 
  -86682   -86686   -86693   -86695   -86704   -86715   -86721   -86723 
  -86724   -86723   -86716   -86705   -86702   -86705   -86704   -86708 
  -86728   -86753   -86770   -86763   -86727   -86697   -86700   -86712 
  -86719   -86726   -86728   -86729   -86737   -86739   -86728   -86710 
  -86693   -86675   -86656   -86649   -86654   -86668   -86687   -86689 
  -86679   -86672   -86668   -86670   -86679   -86689   -86694   -86700 
  -86717   -86729   -86731   -86742   -86753   -86754   -86763   -86763 
  -86750   -86751   -86757   -86744   -86723   -86714   -86711   -86708 
  -86702   -86693   -86701   -86714   -86706   -86699   -86708   -86719 
  -86714   -86693   -86697   -86734   -86748   -86741   -86745   -86749 
  -86745   -86739   -86735   -86736   -86740   -86743   -86741   -86733 
  -86726   -86726   -86724   -86715   -86704   -86701   -86713   -86723 
  -86722   -86725   -86736   -86748   -86756   -86760   -86761   -86759 
  -86747   -86730   -86721   -86726   -86735   -86734   -86719   -86700 
  -86693   -86689   -86678   -86660   -86642   -86651   -86679   -86697 
  -86700   -86697   -86688   -86685   -86689   -86697   -86702   -86705 
  -86709   -86714   -86722   -86727   -86732   -86750   -86763   -86757 
  -86751   -86752   -86759   -86772   -86775   -86774   -86777   -86769 
  -86754   -86747   -86738   -86719   -86711   -86713   -86703   -86698 
  -86701   -86691   -86677   -86671   -86671   -86678   -86683   -86676 
  -86669   -86679   -86702   -86730   -86748   -86752   -86753   -86749 
  -86722   -86692   -86687   -86693   -86687   -86682   -86690   -86694 
  -86690   -86693   -86696   -86695   -86701   -86718   -86725   -86722 
  -86719   -86710   -86699   -86697   -86703   -86701   -86678   -86655 
  -86666   -86703   -86740   -86756   -86741   -86728   -86725   -86715 
  -86712   -86726   -86743   -86761   -86767   -86756   -86749   -86753 
  -86748   -86727   -86705   -86686   -86678   -86676   -86673   -86681 
  -86698   -86712   -86727   -86732   -86723   -86712   -86711   -86716 
  -86722   -86730   -86742   -86754   -86749   -86732   -86726   -86733 
  -86736   -86737   -86735   -86723   -86701   -86679   -86677   -86701 
  -86741   -86770   -86773   -86782   -86792   -86763   -86721   -86700 
  -86690   -86690   -86698   -86695   -86673   -86654   -86662   -86692 
  -86712   -86709   -86701   -86702   -86708   -86714   -86715   -86712 
  -86709   -86712   -86722   -86723   -86713   -86707   -86711   -86714 
  -86700   -86686   -86681   -86672   -86658   -86654   -86668   -86692 
  -86712   -86727   -86739   -86749   -86749   -86734   -86719   -86719 
  -86729   -86738   -86745   -86745   -86741   -86743   -86748   -86740 
  -86716   -86692   -86690   -86699   -86710   -86721   -86730   -86736 
  -86728   -86706   -86686   -86668   -86654   -86644   -86633   -86636 
  -86653   -86654   -86642   -86646   -86673   -86699   -86707   -86707 
  -86704   -86707   -86718   -86718   -86722   -86745   -86772   -86802 
  -86815   -86797   -86778   -86771   -86760   -86745   -86733   -86725 
  -86726   -86735   -86742   -86744   -86743   -86724   -86702   -86695 
  -86699   -86702   -86695   -86681   -86679   -86676   -86654   -86634 
  -86639   -86655   -86682   -86720   -86727   -86704   -86697   -86701 
  -86694   -86679   -86667   -86676   -86691   -86695   -86701   -86712 
  -86728   -86738   -86728   -86703   -86672   -86646   -86644   -86660 
  -86679   -86695   -86718   -86754   -86787   -86799   -86797   -86790 
  -86773   -86753   -86747   -86759   -86772   -86761   -86739   -86730 
  -86729   -86736   -86737   -86720   -86711   -86718   -86722   -86722 
  -86717   -86701   -86684   -86679   -86676   -86668   -86670   -86685 
  -86700   -86700   -86693   -86700   -86722   -86735   -86729   -86717 
  -86712   -86717   -86733   -86748   -86748   -86740   -86736   -86747 
  -86768   -86774   -86762   -86763   -86773   -86768   -86760   -86762 
  -86772   -86785   -86782   -86758   -86737   -86738   -86745   -86725 
  -86697   -86696   -86700   -86702   -86711   -86701   -86676   -86678 
  -86711   -86745   -86750   -86737   -86732   -86738   -86743   -86740 
  -86732   -86733   -86752   -86769   -86776   -86780   -86768   -86736 
  -86718   -86717   -86717   -86714   -86706   -86699   -86696   -86692 
  -86683   -86677   -86682   -86705   -86748   -86776   -86768   -86733 
  -86691   -86671   -86677   -86690   -86700   -86709   -86720   -86742 
  -86767   -86778   -86780   -86796   -86820   -86822   -86799   -86776 
  -86752   -86726   -86715   -86723   -86741   -86769   -86795   -86804 
  -86805   -86806   -86802   -86777   -86729   -86683   -86664   -86676 
  -86700   -86697   -86658   -86620   -86608   -86621   -86644   -86641 
  -86617   -86610   -86630   -86668   -86700   -86698   -86679   -86676 
  -86678   -86680   -86717   -86779   -86819   -86843   -86850   -86827 
  -86797   -86770   -86725   -86662   -86603   -86577   -86594   -86625 
  -86654   -86673   -86661   -86637   -86617   -86596   -86592   -86593 
  -86588   -86601   -86629   -86652   -86682   -86721   -86748   -86750 
  -86743   -86740   -86746   -86761   -86776   -86795   -86829   -86870 
  -86901   -86913   -86901   -86863   -86822   -86791   -86746   -86676 
  -86603   -86548   -86529   -86533   -86533   -86540   -86572   -86612 
  -86623   -86611   -86607   -86610   -86620   -86648   -86693   -86745 
  -86793   -86830   -86849   -86842   -86813   -86774   -86744   -86736 
  -86746   -86760   -86769   -86773   -86774   -86777   -86786   -86790 
  -86772   -86732   -86671   -86599   -86542   -86517   -86526   -86562 
  -86610   -86660   -86700   -86730   -86755   -86765   -86773   -86783 
  -86771   -86748   -86766   -86810   -86831   -86828   -86797   -86727 
  -86650   -86609   -86621   -86669   -86694   -86707   -86752   -86796 
  -86801   -86773   -86729   -86715   -86742   -86764   -86753   -86740 
  -86744   -86730   -86710   -86743   -86798   -86826   -86839   -86840 
  -86821   -86789   -86749   -86701   -86660   -86628   -86589   -86559 
  -86568   -86613   -86678   -86759   -86850   -86921   -86935   -86890 
  -86817   -86753   -86716   -86702   -86702   -86706   -86706   -86723 
  -86766   -86800   -86803   -86784   -86728   -86631   -86544   -86520 
  -86560   -86632   -86693   -86727   -86757   -86789   -86804   -86814 
  -86827   -86820   -86803   -86797   -86787   -86774   -86769   -86760 
  -86760   -86772   -86757   -86719   -86699   -86695   -86697   -86692 
  -86660   -86633   -86644   -86662   -86662   -86626   -86556   -86502 
  -86492   -86511   -86564   -86641   -86712   -86758   -86771   -86768 
  -86776   -86795   -86790   -86757   -86740   -86768   -86807   -86809 
  -86784   -86763   -86741   -86720   -86738   -86780   -86808   -86838 
  -86857   -86845   -86842   -86856   -86844   -86805   -86751   -86693 
  -86641   -86608   -86612   -86623   -86611   -86600   -86598   -86599 
  -86596   -86581   -86565   -86564   -86579   -86623   -86677   -86703 
  -86701   -86672   -86630   -86623   -86655   -86690   -86728   -86778 
  -86826   -86862   -86873   -86858   -86839   -86818   -86784   -86755 
  -86733   -86715   -86720   -86745   -86749   -86713   -86662   -86620 
  -86595   -86598   -86629   -86675   -86728   -86785   -86841   -86890 
  -86919   -86935   -86925   -86867   -86793   -86744   -86702   -86661 
  -86631   -86623   -86650   -86695   -86726   -86727   -86671   -86572 
  -86502   -86501   -86552   -86618   -86689   -86763   -86819   -86839 
  -86816   -86772   -86741   -86726   -86729   -86751   -86762   -86765 
  -86783   -86819   -86860   -86889   -86905   -86912   -86885   -86822 
  -86763   -86717   -86680   -86661   -86650   -86648   -86661   -86680 
  -86708   -86743   -86760   -86736   -86691   -86659   -86656   -86662 
  -86655   -86646   -86653   -86676   -86722   -86761   -86747   -86695 
  -86645   -86616   -86606   -86604   -86626   -86657   -86669   -86684 
  -86703   -86688   -86658   -86660   -86711   -86794   -86864   -86907 
  -86949   -86983   -86982   -86956   -86922   -86878   -86830   -86791 
  -86741   -86668   -86614   -86599   -86588   -86576   -86569   -86554 
  -86549   -86576   -86609   -86625   -86619   -86588   -86548   -86529 
  -86547   -86585   -86630   -86692   -86750   -86783   -86816   -86847 
  -86853   -86830   -86785   -86727   -86688   -86704   -86768   -86833 
  -86855   -86822   -86742   -86663   -86640   -86662   -86663   -86626 
  -86588   -86564   -86544   -86539   -86559   -86596   -86642   -86702 
  -86768   -86826   -86861   -86848   -86819   -86824   -86853   -86856 
  -86808   -86750   -86718   -86683   -86636   -86605   -86574   -86521 
  -86477   -86466   -86468   -86488   -86540   -86609   -86682   -86736 
  -86745   -86748   -86784   -86822   -86842   -86873   -86900   -86892 
  -86843   -86766   -86692   -86647   -86637   -86656   -86694   -86741 
  -86772   -86770   -86765   -86767   -86749   -86711   -86665   -86608 
  -86567   -86557   -86554   -86574   -86643   -86725   -86792   -86854 
  -86899   -86924   -86930   -86920   -86910   -86913   -86921   -86914 
  -86874   -86823   -86771   -86706   -86637   -86578   -86539   -86526 
  -86545   -86585   -86607   -86601   -86617   -86669   -86720   -86783 
  -86865   -86906   -86885   -86827   -86750   -86691   -86677   -86693 
  -86717   -86721   -86704   -86697   -86680   -86638   -86615   -86639 
  -86697   -86759   -86785   -86759   -86721   -86717   -86738   -86761 
  -86787   -86791   -86745   -86672   -86611   -86569   -86541   -86548 
  -86602   -86668   -86705   -86695   -86662   -86636   -86614   -86610 
  -86648   -86704   -86738   -86753   -86773   -86796   -86814   -86829 
  -86842   -86851   -86856   -86841   -86791   -86719   -86651   -86630 
  -86684   -86763   -86808   -86822   -86816   -86784   -86730   -86671 
  -86630   -86597   -86571   -86589   -86644   -86701   -86749   -86783 
  -86803   -86846   -86920   -86982   -86998   -86971   -86924   -86889 
  -86893   -86914   -86886   -86799   -86727   -86699   -86678   -86647 
  -86609   -86567   -86538   -86526   -86509   -86483   -86470   -86492 
  -86554   -86622   -86676   -86735   -86783   -86816   -86861   -86900 
  -86893   -86859   -86810   -86746   -86703   -86701   -86713   -86714 
  -86713   -86717   -86736   -86767   -86792   -86819   -86859   -86880 
  -86870   -86854   -86835   -86796   -86748   -86707   -86682   -86681 
  -86675   -86624   -86557   -86540   -86571   -86589   -86572   -86541 
  -86507   -86475   -86476   -86502   -86522   -86537   -86535   -86505 
  -86489   -86525   -86602   -86685   -86760   -86823   -86872   -86905 
  -86916   -86917   -86934   -86956   -86948   -86928   -86942   -86972 
  -86956   -86891   -86814   -86744   -86697   -86681   -86665   -86649 
  -86674   -86740   -86814   -86875   -86922   -86965   -87000   -86998 
  -86942   -86861   -86787   -86716   -86650   -86599   -86557   -86530 
  -86500   -86437   -86370   -86334   -86326   -86339   -86356   -86367 
  -86392   -86445   -86510   -86569   -86615   -86644   -86652   -86639 
  -86629   -86641   -86661   -86681   -86715   -86753   -86768   -86757 
  -86747   -86767   -86824   -86891   -86927   -86923   -86901   -86866 
  -86824   -86794   -86761   -86717   -86684   -86662   -86629   -86584 
  -86546   -86535   -86565   -86618   -86673   -86712   -86731   -86743 
  -86753   -86736   -86677   -86616   -86585   -86571   -86576   -86622 
  -86684   -86740   -86790   -86812   -86805   -86805   -86815   -86810 
  -86791   -86766   -86717   -86640   -86560   -86494   -86454   -86447 
  -86473   -86523   -86589   -86667   -86736   -86785   -86842   -86910 
  -86954   -86970   -86985   -87006   -87014   -87000   -86964   -86904 
  -86844   -86818   -86822   -86837   -86875   -86938   -87010   -87070 
  -87092   -87069   -87023   -86969   -86900   -86814   -86742   -86689 
  -86615   -86536   -86488   -86463   -86455   -86449   -86435   -86434 
  -86448   -86464   -86481   -86498   -86521   -86553   -86578   -86595 
  -86607   -86586   -86533   -86496   -86496   -86528   -86585   -86652 
  -86724   -86802   -86893   -86988   -87052   -87068   -87049   -86990 
  -86898   -86805   -86737   -86712   -86715   -86722   -86725   -86698 
  -86638   -86572   -86530   -86548   -86632   -86727   -86797   -86848 
  -86882   -86898   -86900   -86883   -86849   -86826   -86806   -86759 
  -86710   -86684   -86661   -86630   -86610   -86630   -86692   -86750 
  -86769   -86734   -86660   -86579   -86515   -86466   -86428   -86397 
  -86383   -86409   -86473   -86551   -86624   -86682   -86730   -86765 
  -86792   -86833   -86875   -86892   -86886   -86867   -86843   -86839 
  -86875   -86930   -86971   -86992   -86996   -86986   -86972   -86944 
  -86887   -86816   -86755   -86683   -86599   -86554   -86567   -86607 
  -86648   -86671   -86685   -86710   -86724   -86707   -86685   -86684 
  -86708   -86735   -86746   -86746   -86731   -86699   -86654   -86588 
  -86497   -86402   -86353   -86380   -86434   -86459   -86473   -86514 
  -86585   -86677   -86774   -86839   -86866   -86892   -86930   -86968 
  -86998   -86998   -86966   -86933   -86902   -86869   -86850   -86841 
  -86831   -86826   -86807   -86766   -86721   -86679   -86650   -86645 
  -86661   -86701   -86754   -86800   -86831   -86834   -86802   -86766 
  -86751   -86759   -86785   -86822   -86877   -86927   -86941   -86925 
  -86880   -86806   -86734   -86684   -86638   -86585   -86525   -86454 
  -86382   -86325   -86291   -86282   -86305   -86360   -86417   -86446 
  -86470   -86515   -86559   -86576   -86573   -86561   -86548   -86550 
  -86569   -86606   -86675   -86765   -86842   -86895   -86934   -86975 
  -87016   -87031   -87006   -86964   -86928   -86888   -86827   -86763 
  -86719   -86688   -86658   -86632   -86620   -86606   -86564   -86510 
  -86484   -86485   -86507   -86547   -86578   -86597   -86629   -86659 
  -86679   -86709   -86741   -86763   -86765   -86740   -86735   -86777 
  -86824   -86854   -86880   -86895   -86899   -86909   -86908   -86874 
  -86830   -86796   -86765   -86735   -86713   -86713   -86725   -86705 
  -86658   -86630   -86630   -86654   -86688   -86718   -86744   -86769 
  -86795   -86821   -86844   -86860   -86843   -86781   -86711   -86662 
  -86627   -86597   -86569   -86546   -86535   -86546   -86565   -86579 
  -86609   -86659   -86699   -86712   -86713   -86733   -86794   -86885 
  -86963   -87008   -87020   -86997   -86946   -86886   -86843   -86811 
  -86780   -86754   -86723   -86688   -86675   -86673   -86657   -86635 
  -86616   -86593   -86551   -86507   -86488   -86497   -86533   -86577 
  -86594   -86592   -86594   -86587   -86576   -86588   -86627   -86675 
  -86701   -86693   -86687   -86716   -86759   -86791   -86819   -86839 
  -86846   -86846   -86825   -86786   -86758   -86737   -86695   -86652 
  -86652   -86684   -86730   -86796   -86862   -86894   -86888   -86865 
  -86830   -86789   -86764   -86751   -86723   -86681   -86634   -86598 
  -86593   -86610   -86613   -86605   -86618   -86644   -86662   -86662 
  -86625   -86593   -86609   -86628   -86629   -86639   -86654   -86672 
  -86696   -86706   -86695   -86674   -86644   -86612   -86591   -86582 
  -86595   -86638   -86693   -86742   -86777   -86808   -86844   -86862 
  -86850   -86828   -86815   -86816   -86811   -86784   -86757   -86746 
  -86735   -86710   -86698   -86708   -86721   -86737   -86751   -86752 
  -86752   -86743   -86722   -86704   -86679   -86646   -86612   -86597 
  -86610   -86623   -86622   -86612   -86602   -86605   -86629   -86663 
  -86692   -86714   -86733   -86751   -86771   -86794   -86819   -86839 
  -86846   -86834   -86803   -86769   -86741   -86722   -86722   -86726 
  -86720   -86717   -86726   -86741   -86764   -86797   -86838   -86885 
  -86919   -86925   -86930   -86951   -86958   -86949   -86949   -86941 
  -86913   -86891   -86881   -86870   -86854   -86841   -86848   -86857 
  -86839   -86808   -86792   -86785   -86771   -86756   -86739   -86706 
  -86679   -86673   -86670   -86662   -86671   -86699   -86727   -86753 
  -86780   -86784   -86759   -86720   -86675   -86623   -86576   -86539 
  -86515   -86519   -86533   -86534   -86515   -86484   -86478   -86501 
  -86514   -86533   -86581   -86629   -86669   -86709   -86741   -86755 
  -86756   -86766   -86796   -86815   -86799   -86766   -86738   -86712 
  -86675   -86640   -86633   -86646   -86651   -86660   -86684   -86711 
  -86737   -86777   -86811   -86813   -86803   -86804   -86808   -86808 
  -86810   -86812   -86809   -86806   -86795   -86778   -86773   -86781 
  -86781   -86766   -86739   -86705   -86673   -86659   -86661   -86655 
  -86638   -86628   -86625   -86624   -86626   -86616   -86588   -86563 
  -86550   -86546   -86562   -86584   -86588   -86588   -86596   -86606 
  -86626   -86665   -86707   -86736   -86760   -86771   -86766   -86763 
  -86749   -86705   -86668   -86656   -86653   -86656   -86651   -86634 
  -86632   -86651   -86683   -86725   -86760   -86769   -86756   -86739 
  -86742   -86761   -86776   -86786   -86782   -86740   -86668   -86598 
  -86553   -86533   -86527   -86529   -86541   -86566   -86600   -86632 
  -86658   -86687   -86727   -86766   -86784   -86782   -86787   -86823 
  -86877   -86909   -86897   -86851   -86795   -86755   -86740   -86738 
  -86739   -86737   -86737   -86745   -86759   -86778   -86796   -86819 
  -86857   -86880   -86873   -86848   -86797   -86726   -86673   -86642 
  -86601   -86551   -86526   -86533   -86550   -86550   -86548   -86563 
  -86578   -86602   -86634   -86639   -86626   -86623   -86625   -86636 
  -86661   -86685   -86705   -86730   -86761   -86777   -86773   -86763 
  -86759   -86769   -86788   -86792   -86780   -86760   -86739   -86727 
  -86730   -86723   -86691   -86673   -86690   -86696   -86695   -86713 
  -86720   -86718   -86734   -86749   -86758   -86763   -86762   -86781 
  -86814   -86829   -86840   -86852   -86847   -86834   -86821   -86816 
  -86825   -86827   -86811   -86788   -86773   -86769   -86772   -86779 
  -86770   -86743   -86740   -86758   -86764   -86769   -86790   -86812 
  -86817   -86797   -86757   -86725   -86714   -86707   -86699   -86681 
  -86650   -86635   -86627   -86608   -86594   -86597   -86614   -86642 
  -86661   -86666   -86671   -86692   -86722   -86738   -86746   -86763 
  -86784   -86809   -86831   -86830   -86818   -86810   -86803   -86790 
  -86764   -86742   -86746   -86736   -86709   -86713   -86730   -86736 
  -86755   -86778   -86791   -86800   -86802   -86809   -86826   -86836 
  -86834   -86821   -86795   -86760   -86731   -86718   -86722   -86746 
  -86769   -86771   -86761   -86747   -86721   -86702   -86700   -86685 
  -86653   -86634   -86639   -86658   -86690   -86704   -86676   -86625 
  -86583   -86556   -86543   -86545   -86554   -86557   -86556   -86563 
  -86576   -86586   -86584   -86573   -86568   -86587   -86623   -86649 
  -86661   -86673   -86689   -86710   -86733   -86751   -86763   -86767 
  -86766   -86774   -86791   -86805   -86812   -86821   -86837   -86860 
  -86875   -86861   -86830   -86803   -86769   -86720   -86675   -86641 
  -86615   -86606   -86608   -86611   -86611   -86599   -86590   -86597 
  -86610   -86640   -86686   -86713   -86709   -86709   -86722   -86719 
  -86700   -86681   -86667   -86667   -86684   -86700   -86706   -86713 
