Origin Time       2025/06/03 22:18:00
Lat.              41.7
Long.             143.6
Depth. (km)       30
Mag.              5.2
Station Code      AOMH06
Station Lat.      40.9664
Station Long.     141.3738
Station Height(m) 5
Record Time       2025/06/03 22:19:25
Sampling Freq(Hz) 100Hz
Duration Time(s)  120
Dir.              5
Scale Factor      7845(gal)/8223790
Max. Acc. (gal)   0.577
Last Correction   2025/06/03 22:19:26
Memo.             
[...]
  -26056   -26001   -25960   -25936   -25921   -25924   -25937   -25936 
  -25909   -25886   -25888   -25917   -25972   -26026   -26042   -26029 
  -25994   -25936   -25886   -25874   -25906   -25991   -26098   -26188 
  -26246   -26249   -26188   -26114   -26064   -26040   -26046   -26063 
  -26055   -26036   -26022   -25998   -25979   -25982   -25995   -26010 
  -26023   -26033   -26034   -26014   -25965   -25920   -25897   -25893 
  -25895   -25913   -25942   -25972   -26011   -26067   -26117   -26140 
  -26133   -26088   -26026   -25983   -25953   -25928   -25934   -25976 
  -26018   -26067   -26111   -26109   -26067   -26018   -25956   -25887 
  -25820   -25778   -25803   -25890   -26007   -26145   -26269   -26334 
  -26329   -26261   -26145   -26026   -25951   -25933   -25969   -26029 
  -26072   -26072   -26032   -25996   -25990   -26001   -26038   -26087 
  -26107   -26099   -26059   -25990   -25928   -25884   -25867   -25894 
  -25941   -25975   -25992   -25996   -25998   -26010   -26040   -26091 
  -26145   -26163   -26140   -26114   -26103   -26086   -26052   -26010 
  -25961   -25921   -25909   -25924   -25964   -26021   -26056   -26055 
  -26049   -26052   -26034   -25998   -25984   -26005   -26037   -26055 
  -26037   -25979   -25909   -25890   -25930   -25994   -26048   -26064 
  -26037   -25996   -25952   -25902   -25878   -25898   -25941   -25998 
  -26068   -26107   -26075   -26002   -25928   -25876   -25856   -25868 
  -25918   -25992   -26061   -26102   -26110   -26091   -26073   -26068 
  -26080   -26104   -26109   -26091   -26072   -26045   -25999   -25951 
  -25926   -25914   -25899   -25920   -25994   -26077   -26150   -26190 
  -26179   -26144   -26082   -26015   -25988   -25979   -25972   -25982 
  -25988   -25980   -25969   -25957   -25949   -25964   -26002   -26050 
  -26099   -26125   -26114   -26073   -26025   -25982   -25944   -25924 
  -25934   -25956   -25992   -26034   -26056   -26065   -26055   -26007 
  -25965   -25964   -25987   -26022   -26042   -26034   -26019   -26007 
  -25986   -25984   -26014   -26038   -26049   -26063   -26061   -26050 
  -26053   -26065   -26068   -26063   -26060   -26056   -26044   -26034 
  -26037   -26040   -26021   -25979   -25932   -25890   -25870   -25868 
  -25872   -25897   -25959   -26034   -26090   -26117   -26102   -26044 
  -25983   -25953   -25959   -26006   -26061   -26106   -26133   -26113 
  -26065   -26044   -26036   -26033   -26056   -26087   -26111   -26106 
  -26046   -25975   -25928   -25890   -25884   -25910   -25921   -25918 
  -25915   -25902   -25907   -25928   -25936   -25956   -25991   -26023 
  -26077   -26130   -26119   -26069   -26042   -26036   -26033   -26029 
  -26021   -26015   -26021   -26036   -26044   -26028   -25982   -25925 
  -25890   -25888   -25918   -25975   -26037   -26100   -26154   -26183 
  -26188   -26164   -26095   -26007   -25928   -25880   -25897   -25964 
  -26038   -26086   -26091   -26072   -26061   -26053   -26044   -26052 
  -26067   -26065   -26059   -26052   -26021   -25974   -25948   -25955 
  -25987   -26048   -26113   -26144   -26145   -26129   -26082   -26028 
  -25990   -25956   -25929   -25941   -25992   -26045   -26082   -26094 
  -26065   -26007   -25957   -25917   -25891   -25898   -25945   -26037 
  -26141   -26191   -26172   -26114   -26049   -25991   -25933   -25897 
  -25906   -25928   -25930   -25941   -25978   -26007   -26001   -25984 
  -25992   -26002   -25990   -25986   -25992   -25984   -25975   -25982 
  -25992   -25996   -25982   -25956   -25955   -25971   -25995   -26049 
  -26102   -26113   -26094   -26063   -26022   -25983   -25959   -25963 
  -26003   -26056   -26104   -26137   -26129   -26073   -26002   -25944 
  -25918   -25934   -25968   -26006   -26052   -26087   -26099   -26111 
  -26118   -26110   -26099   -26083   -26067   -26069   -26079   -26063 
  -26014   -25953   -25913   -25925   -25975   -26041   -26114   -26169 
  -26175   -26127   -26049   -25968   -25884   -25821   -25816   -25851 
  -25910   -25994   -26052   -26076   -26092   -26087   -26057   -26018 
  -25968   -25915   -25886   -25888   -25910   -25956   -26010   -26041 
  -26044   -26017   -25995   -26001   -26006   -26013   -26038   -26061 
  -26087   -26104   -26071   -25996   -25925   -25868   -25826   -25829 
  -25870   -25903   -25941   -25988   -26013   -26025   -26025   -26003 
  -25998   -26034   -26091   -26138   -26163   -26172   -26169   -26149 
  -26118   -26095   -26084   -26069   -26049   -26037   -26037   -26025 
  -26013   -26025   -26026   -25995   -25952   -25913   -25887   -25872 
  -25887   -25941   -25986   -26015   -26055   -26064   -26041   -26014 
  -25961   -25907   -25906   -25937   -25976   -26021   -26059   -26092 
  -26107   -26082   -26038   -25994   -25949   -25933   -25964   -26030 
  -26098   -26142   -26160   -26138   -26084   -26033   -25982   -25938 
  -25948   -26011   -26086   -26142   -26154   -26118   -26061   -25987 
  -25920   -25894   -25909   -25937   -25971   -26007   -26034   -26045 
  -26040   -26019   -25994   -25983   -26001   -26019   -26030   -26053 
  -26065   -26052   -26036   -26026   -26026   -26040   -26038   -26036 
  -26069   -26107   -26117   -26117   -26090   -26021   -25953   -25917 
  -25905   -25910   -25937   -25991   -26045   -26063   -26090   -26142 
  -26154   -26119   -26065   -25984   -25907   -25875   -25872   -25888 
  -25930   -25971   -25994   -26026   -26067   -26086   -26077   -26059 
  -26034   -26014   -25999   -25992   -26005   -26023   -26038   -26073 
  -26118   -26141   -26145   -26129   -26083   -26019   -25955   -25893 
  -25852   -25853   -25878   -25906   -25941   -25979   -26001   -26019 
  -26036   -26040   -26068   -26119   -26146   -26161   -26175   -26153 
  -26102   -26055   -26029   -26030   -26041   -26044   -26033   -25996 
  -25940   -25898   -25893   -25934   -26002   -26061   -26117   -26157 
  -26150   -26095   -26018   -25945   -25901   -25910   -25964   -26009 
  -26026   -26030   -26007   -25968   -25948   -25933   -25936   -25959 
  -25971   -25964   -25941   -25893   -25852   -25847   -25876   -25929 
  -25967   -25963   -25951   -25968   -26013   -26065   -26117   -26144 
  -26129   -26103   -26082   -26057   -26032   -26017   -26003   -26009 
  -26052   -26096   -26107   -26086   -26046   -26033   -26049   -26052 
  -26044   -26023   -25971   -25929   -25913   -25914   -25936   -25961 
  -25974   -25983   -25980   -25957   -25944   -25942   -25955   -25994 
  -26028   -26037   -26060   -26063   -26037   -26052   -26083   -26077 
  -26090   -26104   -26061   -26010   -25995   -25996   -26038   -26115 
  -26169   -26184   -26145   -26041   -25921   -25843   -25814   -25824 
  -25874   -25945   -25994   -26017   -26036   -26060   -26077   -26075 
  -26079   -26096   -26091   -26064   -26019   -25952   -25894   -25879 
  -25913   -25983   -26053   -26106   -26141   -26129   -26060   -25979 
  -25918   -25866   -25817   -25798   -25829   -25890   -25965   -26057 
  -26117   -26122   -26126   -26125   -26088   -26065   -26077   -26099 
  -26115   -26121   -26134   -26161   -26167   -26144   -26106   -26059 
  -26015   -25986   -25953   -25942   -25963   -25975   -25976   -25990 
  -26014   -26055   -26096   -26109   -26095   -26068   -26023   -25969 
  -25932   -25928   -25959   -26025   -26099   -26144   -26172   -26181 
  -26149   -26107   -26076   -26034   -25999   -25975   -25917   -25848 
  -25830   -25845   -25872   -25945   -26034   -26073   -26068   -26045 
  -25980   -25894   -25851   -25848   -25848   -25841   -25844   -25874 
  -25918   -25967   -26044   -26134   -26179   -26179   -26161   -26119 
  -26064   -26032   -26032   -26040   -26048   -26076   -26098   -26077 
  -26050   -26038   -26023   -26007   -26003   -26005   -25982   -25926 
  -25878   -25848   -25844   -25895   -25992   -26091   -26148   -26115 
  -26044   -25986   -25915   -25851   -25845   -25875   -25918   -25975 
  -26014   -26028   -26050   -26067   -26069   -26092   -26141   -26206 
  -26262   -26275   -26256   -26223   -26152   -26055   -25980   -25948 
  -25951   -25995   -26053   -26092   -26113   -26104   -26033   -25913 
  -25802   -25725   -25681   -25695   -25762   -25839   -25911   -25967 
  -25988   -25996   -26015   -26028   -26025   -26026   -26057   -26121 
  -26167   -26176   -26176   -26177   -26184   -26181   -26142   -26090 
  -26060   -26040   -26022   -26025   -26037   -26030   -25996   -25942 
  -25863   -25794   -25790   -25844   -25936   -26042   -26109   -26099 
  -26025   -25914   -25812   -25739   -25739   -25826   -25915   -25961 
  -25991   -25975   -25933   -25941   -26001   -26077   -26163   -26222 
  -26222   -26183   -26140   -26100   -26088   -26110   -26125   -26113 
  -26098   -26073   -26038   -26017   -26015   -26033   -26077   -26106 
  -26069   -25980   -25882   -25795   -25763   -25814   -25907   -26002 
  -26065   -26063   -26028   -25971   -25878   -25822   -25841   -25898 
  -25980   -26055   -26067   -26030   -25994   -25999   -26072   -26175 
  -26271   -26361   -26388   -26306   -26163   -26050   -26023   -26071 
  -26150   -26226   -26261   -26210   -26075   -25928   -25851   -25864 
  -25929   -26022   -26109   -26130   -26083   -25986   -25879   -25829 
  -25844   -25874   -25894   -25894   -25870   -25851   -25836   -25810 
  -25818   -25863   -25917   -25975   -25996   -25968   -25945   -25937 
  -25933   -25965   -26019   -26055   -26067   -26064   -26055   -26048 
  -26045   -26030   -26007   -25998   -26021   -26079   -26157   -26223 
  -26256   -26256   -26211   -26127   -26038   -25979   -25956   -25964 
  -26009   -26114   -26250   -26335   -26341   -26258   -26083   -25874 
  -25698   -25590   -25585   -25693   -25861   -26036   -26180   -26265 
  -26291   -26257   -26136   -25953   -25801   -25732   -25744   -25859 
  -26046   -26185   -26226   -26196   -26094   -25955   -25899   -25949 
  -26032   -26113   -26158   -26118   -26018   -25922   -25861   -25864 
  -25940   -26057   -26168   -26239   -26253   -26192   -26069   -25926 
  -25791   -25683   -25639   -25667   -25743   -25855   -26001   -26167 
  -26302   -26383   -26400   -26325   -26172   -26003   -25871   -25839 
  -25934   -26102   -26262   -26370   -26418   -26377   -26208   -25956 
  -25712   -25532   -25459   -25533   -25701   -25848   -25922   -25924 
  -25872   -25821   -25825   -25890   -25999   -26130   -26223   -26218 
  -26130   -26006   -25901   -25874   -25932   -26042   -26168   -26256 
  -26271   -26200   -26076   -25949   -25828   -25749   -25775   -25872 
  -25995   -26141   -26256   -26283   -26258   -26219   -26164   -26123 
  -26148   -26229   -26303   -26316   -26248   -26095   -25883   -25689 
  -25573   -25542   -25605   -25764   -25976   -26163   -26260   -26239 
  -26119   -25978   -25921   -25948   -26010   -26114   -26210   -26235 
  -26223   -26179   -26067   -25952   -25894   -25884   -25933   -26017 
  -26052   -26032   -25984   -25914   -25849   -25818   -25828   -25901 
  -26007   -26084   -26131   -26138   -26083   -26028   -26021   -26046 
  -26100   -26176   -26231   -26254   -26239   -26171   -26080   -26002 
  -25942   -25911   -25891   -25857   -25822   -25799   -25783   -25790 
  -25825   -25872   -25940   -26023   -26111   -26204   -26260   -26245 
  -26190   -26092   -25968   -25898   -25898   -25920   -25953   -25998 
  -26021   -26014   -25998   -25960   -25886   -25805   -25739   -25698 
  -25716   -25797   -25905   -26005   -26061   -26040   -25945   -25839 
  -25771   -25766   -25849   -26026   -26222   -26354   -26427   -26460 
  -26439   -26370   -26284   -26179   -26052   -25964   -25953   -25967 
  -25979   -26005   -26022   -26028   -26040   -26067   -26107   -26149 
  -26169   -26163   -26125   -26069   -26029   -26018   -26038   -26091 
  -26161   -26200   -26206   -26176   -26082   -25948   -25820   -25714 
  -25659   -25662   -25701   -25770   -25853   -25895   -25910   -25926 
  -25917   -25883   -25870   -25895   -25944   -25994   -26040   -26068 
  -26052   -26013   -25991   -26001   -26068   -26206   -26354   -26464 
  -26496   -26416   -26258   -26080   -25949   -25918   -25963   -26036 
  -26102   -26099   -26019   -25936   -25898   -25913   -25978   -26055 
  -26090   -26060   -25972   -25852   -25737   -25660   -25632   -25662 
  -25766   -25925   -26084   -26184   -26195   -26144   -26109   -26107 
  -26118   -26131   -26114   -26037   -25926   -25812   -25724   -25691 
  -25720   -25814   -25934   -26045   -26156   -26249   -26302   -26325 
  -26312   -26252   -26152   -26041   -25955   -25915   -25907   -25905 
  -25882   -25829   -25752   -25663   -25608   -25644   -25790   -26019 
  -26279   -26480   -26554   -26499   -26362   -26198   -26069   -26011 
  -26019   -26094   -26199   -26261   -26242   -26173   -26079   -26001 
  -25980   -26014   -26076   -26137   -26167   -26144   -26063   -25945 
  -25821   -25729   -25694   -25687   -25698   -25763   -25847   -25883 
  -25907   -25929   -25902   -25849   -25816   -25803   -25849   -25975 
  -26118   -26219   -26266   -26246   -26140   -26006   -25913   -25880 
  -25914   -25998   -26094   -26152   -26150   -26121   -26094   -26076 
  -26088   -26148   -26227   -26266   -26253   -26192   -26082   -25940 
  -25809   -25733   -25735   -25798   -25872   -25914   -25921   -25914 
  -25905   -25894   -25913   -25982   -26057   -26095   -26096   -26076 
  -26050   -26038   -26050   -26086   -26130   -26181   -26229   -26245 
  -26237   -26234   -26235   -26233   -26225   -26211   -26188   -26148 
  -26082   -25996   -25893   -25753   -25597   -25473   -25411   -25447 
  -25590   -25794   -26009   -26185   -26277   -26265   -26168   -26046 
  -25980   -26019   -26146   -26287   -26377   -26379   -26258   -26045 
  -25847   -25745   -25763   -25882   -26044   -26165   -26195   -26115 
  -25948   -25785   -25717   -25749   -25856   -26003   -26130   -26185 
  -26142   -26019   -25898   -25852   -25910   -26041   -26173   -26266 
  -26280   -26175   -25986   -25795   -25662   -25652   -25771   -25936 
  -26086   -26198   -26238   -26185   -26090   -26022   -25988   -25972 
  -25955   -25907   -25837   -25755   -25670   -25635   -25691   -25830 
  -26015   -26175   -26261   -26262   -26198   -26114   -26056   -26046 
  -26077   -26118   -26129   -26103   -26038   -25933   -25844   -25824 
  -25875   -25980   -26110   -26199   -26218   -26202   -26169   -26130 
  -26130   -26165   -26183   -26185   -26157   -26069   -25964   -25888 
  -25863   -25895   -25968   -26052   -26111   -26136   -26134   -26107 
  -26087   -26092   -26099   -26091   -26061   -26018   -25986   -25965 
  -25963   -26011   -26102   -26176   -26203   -26176   -26103   -26022 
  -25959   -25932   -25959   -25984   -25980   -25975   -25967   -25945 
  -25957   -26003   -26046   -26082   -26104   -26082   -26001   -25871 
  -25714   -25562   -25473   -25496   -25627   -25809   -25972   -26086 
  -26142   -26140   -26103   -26053   -25987   -25920   -25868   -25863 
  -25951   -26098   -26223   -26319   -26393   -26414   -26352   -26223 
  -26056   -25879   -25736   -25675   -25722   -25849   -25984   -26098 
  -26168   -26163   -26118   -26068   -26014   -25979   -25947   -25917 
  -25930   -25961   -25971   -25967   -25942   -25905   -25905   -25975 
  -26109   -26276   -26412   -26461   -26416   -26281   -26100   -25944 
  -25849   -25866   -26011   -26206   -26357   -26408   -26339   -26192 
  -26038   -25932   -25910   -25974   -26068   -26113   -26063   -25955 
  -25821   -25654   -25513   -25479   -25536   -25655   -25807   -25974 
  -26144   -26283   -26362   -26393   -26346   -26199   -26018   -25851 
  -25691   -25589   -25591   -25651   -25739   -25852   -25953   -26040 
  -26136   -26241   -26353   -26455   -26508   -26477   -26346   -26136 
  -25914   -25748   -25675   -25705   -25828   -26013   -26204   -26339 
  -26397   -26381   -26300   -26183   -26065   -25965   -25894   -25868 
  -25893   -25937   -25960   -25933   -25845   -25713   -25594   -25537 
  -25551   -25632   -25782   -25951   -26077   -26154   -26185   -26148 
  -26080   -26046   -26042   -26030   -26013   -26009   -26015   -26021 
  -26055   -26126   -26212   -26292   -26323   -26283   -26210   -26133 
  -26065   -26025   -25996   -25963   -25911   -25833   -25741   -25662 
  -25625   -25659   -25776   -25961   -26160   -26307   -26383   -26384 
  -26327   -26262   -26211   -26163   -26122   -26094   -26059   -26014 
  -25955   -25883   -25817   -25774   -25767   -25805   -25880   -25968 
  -26040   -26052   -25986   -25878   -25770   -25697   -25698   -25772 
  -25890   -26013   -26114   -26171   -26177   -26131   -26063   -26022 
  -26059   -26171   -26299   -26395   -26433   -26385   -26272   -26136 
  -26029   -26002   -26044   -26123   -26206   -26225   -26167   -26077 
  -25952   -25824   -25768   -25795   -25882   -26002   -26119   -26206 
  -26238   -26195   -26117   -26059   -26005   -25953   -25929   -25929 
  -25934   -25952   -25979   -25998   -25987   -25940   -25874   -25805 
  -25751   -25729   -25739   -25772   -25825   -25871   -25880   -25880 
  -25905   -25968   -26048   -26109   -26131   -26104   -26034   -25972 
  -25960   -25991   -26067   -26181   -26287   -26333   -26318   -26261 
  -26184   -26123   -26114   -26164   -26256   -26307   -26266   -26165 
  -26022   -25853   -25706   -25618   -25593   -25596   -25609   -25659 
  -25741   -25820   -25890   -25938   -25949   -25947   -25949   -25956 
  -25987   -26055   -26144   -26229   -26264   -26223   -26125   -25978 
  -25828   -25762   -25790   -25893   -26056   -26188   -26212   -26153 
  -26036   -25893   -25820   -25856   -25953   -26071   -26173   -26219 
  -26192   -26133   -26099   -26095   -26107   -26134   -26156   -26144 
  -26100   -26060   -26044   -26046   -26073   -26113   -26102   -26026 
  -25938   -25855   -25774   -25735   -25745   -25791   -25874   -25956 
  -26011   -26037   -26028   -26026   -26049   -26040   -26001   -25978 
  -25960   -25965   -26015   -26084   -26137   -26167   -26176   -26158 
  -26110   -26049   -25994   -25949   -25913   -25895   -25903   -25930 
  -25968   -26019   -26103   -26204   -26264   -26252   -26183   -26084 
  -25983   -25915   -25934   -26022   -26119   -26204   -26246   -26199 
  -26080   -25959   -25867   -25814   -25841   -25959   -26107   -26229 
  -26311   -26346   -26319   -26260   -26206   -26136   -26042   -25952 
  -25861   -25767   -25704   -25690   -25725   -25805   -25894   -25955 
  -25999   -26030   -26026   -26007   -25991   -25964   -25938   -25933 
  -25967   -26056   -26156   -26225   -26265   -26254   -26173   -26053 
  -25928   -25828   -25783   -25793   -25851   -25926   -25991   -26040 
  -26067   -26073   -26071   -26053   -26017   -25975   -25915   -25843 
  -25801   -25814   -25866   -25937   -26026   -26115   -26171   -26172 
  -26122   -26030   -25926   -25860   -25863   -25917   -25984   -26015 
  -25980   -25921   -25883   -25866   -25902   -25996   -26098   -26202 
  -26295   -26335   -26339   -26314   -26257   -26211   -26196   -26196 
  -26195   -26149   -26038   -25905   -25780   -25679   -25632   -25644 
  -25709   -25814   -25947   -26077   -26171   -26244   -26296   -26296 
  -26266   -26226   -26156   -26091   -26049   -26011   -25967   -25914 
  -25874   -25864   -25875   -25910   -25975   -26052   -26130   -26208 
  -26273   -26316   -26331   -26303   -26252   -26211   -26156   -26072 
