Origin Time       2025/06/03 22:18:00
Lat.              41.7
Long.             143.6
Depth. (km)       30
Mag.              5.2
Station Code      AOMH17
Station Lat.      40.4492
Station Long.     141.3374
Station Height(m) 65
Record Time       2025/06/03 22:19:33
Sampling Freq(Hz) 100Hz
Duration Time(s)  120
Dir.              4
Scale Factor      7845(gal)/8223790
Max. Acc. (gal)   0.734
Last Correction   2025/06/03 22:19:34
Memo.             
[...]
  -22324   -22315   -22261   -22196   -22168   -22169   -22173   -22169 
  -22160   -22150   -22149   -22158   -22177   -22195   -22216   -22243 
  -22272   -22297   -22319   -22329   -22333   -22335   -22314   -22257 
  -22194   -22156   -22149   -22165   -22195   -22221   -22233   -22230 
  -22219   -22225   -22257   -22293   -22304   -22293   -22281   -22266 
  -22239   -22221   -22230   -22261   -22283   -22257   -22203   -22167 
  -22164   -22192   -22257   -22324   -22360   -22361   -22333   -22277 
  -22212   -22160   -22131   -22133   -22172   -22230   -22276   -22292 
  -22292   -22291   -22270   -22215   -22145   -22084   -22042   -22038 
  -22088   -22173   -22260   -22327   -22366   -22376   -22358   -22308 
  -22258   -22253   -22272   -22276   -22257   -22243   -22235   -22215 
  -22202   -22234   -22285   -22314   -22323   -22326   -22322   -22289 
  -22215   -22134   -22090   -22086   -22107   -22158   -22230   -22291 
  -22310   -22295   -22281   -22261   -22229   -22226   -22248   -22237 
  -22189   -22169   -22210   -22280   -22329   -22339   -22318   -22260 
  -22189   -22156   -22168   -22191   -22208   -22218   -22202   -22171 
  -22173   -22211   -22237   -22245   -22253   -22249   -22227   -22223 
  -22262   -22327   -22380   -22389   -22358   -22322   -22299   -22295 
  -22320   -22374   -22407   -22374   -22293   -22200   -22103   -22042 
  -22053   -22103   -22154   -22218   -22289   -22330   -22312   -22277 
  -22264   -22264   -22256   -22234   -22216   -22203   -22185   -22171 
  -22158   -22150   -22162   -22215   -22287   -22330   -22312   -22254 
  -22198   -22167   -22161   -22175   -22194   -22219   -22256   -22289 
  -22302   -22291   -22266   -22239   -22226   -22248   -22295   -22324 
  -22312   -22279   -22250   -22230   -22206   -22184   -22187   -22216 
  -22246   -22249   -22208   -22152   -22125   -22141   -22183   -22223 
  -22241   -22246   -22254   -22269   -22280   -22266   -22235   -22208 
  -22206   -22230   -22256   -22268   -22270   -22266   -22253   -22241 
  -22243   -22272   -22320   -22346   -22315   -22230   -22137   -22088 
  -22088   -22121   -22179   -22243   -22281   -22295   -22308   -22315 
  -22308   -22323   -22361   -22376   -22356   -22339   -22353   -22362 
  -22342   -22306   -22266   -22216   -22171   -22150   -22153   -22167 
  -22181   -22175   -22145   -22135   -22185   -22258   -22314   -22350 
  -22368   -22345   -22303   -22275   -22261   -22246   -22233   -22230 
  -22222   -22189   -22148   -22126   -22130   -22153   -22177   -22194 
  -22219   -22252   -22273   -22285   -22295   -22300   -22310   -22329 
  -22335   -22304   -22241   -22177   -22137   -22129   -22157   -22211 
  -22264   -22289   -22284   -22268   -22243   -22206   -22164   -22134 
  -22118   -22117   -22141   -22180   -22199   -22194   -22196   -22219 
  -22246   -22265   -22276   -22268   -22241   -22216   -22216   -22234 
  -22246   -22262   -22316   -22404   -22478   -22497   -22462   -22393 
  -22302   -22198   -22104   -22050   -22049   -22088   -22152   -22230 
  -22303   -22335   -22329   -22303   -22269   -22231   -22199   -22180 
  -22180   -22187   -22192   -22207   -22233   -22257   -22280   -22300 
  -22291   -22234   -22165   -22122   -22122   -22153   -22183   -22198 
  -22212   -22231   -22248   -22270   -22299   -22306   -22276   -22242 
  -22234   -22241   -22241   -22234   -22222   -22211   -22207   -22199 
  -22196   -22214   -22233   -22249   -22287   -22329   -22350   -22370 
  -22399   -22431   -22457   -22465   -22445   -22400   -22341   -22277 
  -22226   -22189   -22157   -22138   -22154   -22212   -22289   -22345 
  -22360   -22342   -22291   -22204   -22103   -22010   -21937   -21906 
  -21942   -22023   -22106   -22179   -22256   -22337   -22401   -22420 
  -22387   -22331   -22281   -22231   -22172   -22115   -22076   -22057 
  -22065   -22104   -22164   -22221   -22241   -22219   -22176   -22145 
  -22137   -22133   -22125   -22130   -22148   -22175   -22225   -22289 
  -22351   -22401   -22432   -22439   -22419   -22380   -22318   -22250 
  -22210   -22200   -22202   -22203   -22187   -22142   -22106   -22123 
  -22181   -22238   -22288   -22329   -22347   -22358   -22366   -22353 
  -22315   -22277   -22250   -22218   -22185   -22173   -22180   -22195 
  -22223   -22266   -22300   -22308   -22318   -22334   -22334   -22315 
  -22285   -22250   -22234   -22261   -22289   -22279   -22266   -22280 
  -22285   -22276   -22287   -22316   -22334   -22327   -22300   -22254 
  -22210   -22184   -22184   -22212   -22257   -22288   -22291   -22265 
  -22214   -22173   -22183   -22229   -22270   -22296   -22306   -22304 
  -22306   -22300   -22270   -22229   -22196   -22175   -22141   -22100 
  -22077   -22081   -22103   -22133   -22168   -22202   -22234   -22277 
  -22330   -22368   -22373   -22362   -22346   -22319   -22287   -22256 
  -22227   -22200   -22184   -22184   -22191   -22195   -22198   -22192 
  -22189   -22202   -22208   -22180   -22129   -22108   -22144   -22216 
  -22307   -22385   -22412   -22393   -22366   -22335   -22279   -22196 
  -22133   -22119   -22152   -22199   -22239   -22260   -22250   -22216 
  -22185   -22175   -22181   -22199   -22223   -22250   -22279   -22303 
  -22310   -22280   -22221   -22164   -22141   -22165   -22214   -22257 
  -22299   -22347   -22384   -22395   -22387   -22366   -22343   -22323 
  -22302   -22276   -22242   -22188   -22135   -22125   -22165   -22230 
  -22293   -22339   -22349   -22312   -22248   -22180   -22140   -22141 
  -22161   -22176   -22180   -22171   -22165   -22184   -22218   -22241 
  -22241   -22221   -22208   -22233   -22279   -22323   -22356   -22362 
  -22364   -22387   -22411   -22388   -22329   -22283   -22249   -22203 
  -22156   -22119   -22087   -22073   -22102   -22153   -22194   -22215 
  -22227   -22227   -22214   -22204   -22223   -22260   -22288   -22306 
  -22310   -22306   -22279   -22214   -22154   -22141   -22154   -22177 
  -22216   -22264   -22300   -22330   -22365   -22374   -22334   -22262 
  -22189   -22135   -22117   -22154   -22222   -22261   -22268   -22275 
  -22275   -22262   -22269   -22285   -22269   -22218   -22176   -22164 
  -22185   -22231   -22280   -22295   -22256   -22187   -22149   -22171 
  -22229   -22280   -22291   -22261   -22208   -22161   -22126   -22098 
  -22095   -22142   -22207   -22231   -22212   -22208   -22254   -22316 
  -22342   -22329   -22308   -22288   -22249   -22185   -22118   -22064 
  -22046   -22104   -22238   -22401   -22535   -22577   -22503   -22358 
  -22222   -22141   -22125   -22175   -22264   -22350   -22404   -22415 
  -22395   -22377   -22372   -22364   -22350   -22314   -22218   -22065 
  -21903   -21790   -21775   -21870   -22025   -22185   -22318   -22414 
  -22484   -22534   -22550   -22503   -22385   -22246   -22140   -22072 
  -22017   -21972   -21953   -21972   -22044   -22165   -22303   -22404 
  -22450   -22454   -22437   -22396   -22342   -22291   -22256   -22221 
  -22165   -22113   -22096   -22127   -22192   -22254   -22288   -22303 
  -22326   -22372   -22418   -22435   -22423   -22389   -22326   -22239 
  -22169   -22133   -22125   -22146   -22194   -22233   -22246   -22258 
  -22291   -22318   -22297   -22221   -22142   -22118   -22134   -22164 
  -22195   -22203   -22162   -22104   -22084   -22123   -22211   -22327 
  -22439   -22507   -22505   -22455   -22383   -22311   -22261   -22222 
  -22175   -22123   -22077   -22061   -22111   -22206   -22304   -22396 
  -22476   -22522   -22522   -22454   -22315   -22140   -21988   -21910 
  -21921   -21991   -22067   -22118   -22149   -22180   -22214   -22235 
  -22248   -22269   -22302   -22327   -22339   -22349   -22343   -22316 
  -22292   -22280   -22258   -22230   -22221   -22237   -22265   -22287 
  -22300   -22311   -22307   -22272   -22206   -22134   -22076   -22014 
  -21955   -21936   -21975   -22052   -22157   -22287   -22401   -22439 
  -22396   -22338   -22319   -22354   -22426   -22476   -22441   -22314 
  -22133   -21963   -21891   -21973   -22175   -22387   -22522   -22546 
  -22473   -22354   -22254   -22189   -22144   -22114   -22103   -22098 
  -22108   -22154   -22226   -22289   -22331   -22350   -22324   -22250 
  -22179   -22148   -22144   -22160   -22198   -22243   -22296   -22377 
  -22481   -22553   -22527   -22400   -22246   -22125   -22041   -21987 
  -21976   -22014   -22092   -22187   -22270   -22343   -22401   -22416 
  -22389   -22346   -22304   -22281   -22284   -22283   -22245   -22176 
  -22115   -22086   -22094   -22131   -22184   -22230   -22258   -22284 
  -22319   -22366   -22407   -22418   -22376   -22281   -22187   -22140 
  -22123   -22117   -22153   -22264   -22389   -22430   -22369   -22272 
  -22185   -22119   -22086   -22090   -22111   -22127   -22133   -22121 
  -22095   -22088   -22134   -22223   -22303   -22339   -22334   -22303 
  -22243   -22160   -22080   -22053   -22092   -22162   -22242   -22343 
  -22482   -22640   -22774   -22825   -22752   -22576   -22372   -22198 
  -22053   -21937   -21884   -21910   -21982   -22083   -22204   -22307 
  -22354   -22333   -22264   -22188   -22140   -22110   -22103   -22152 
  -22258   -22370   -22423   -22395   -22307   -22195   -22094   -22038 
  -22023   -22015   -22003   -22014   -22054   -22123   -22219   -22329 
  -22415   -22454   -22434   -22357   -22257   -22171   -22146   -22223 
  -22353   -22445   -22488   -22519   -22530   -22485   -22383   -22249 
  -22125   -22023   -21959   -21963   -22025   -22099   -22177   -22277 
  -22395   -22495   -22536   -22507   -22434   -22341   -22234   -22133 
  -22068   -22050   -22091   -22185   -22303   -22411   -22484   -22500 
  -22439   -22329   -22223   -22152   -22103   -22059   -22032   -22053 
  -22115   -22198   -22284   -22333   -22308   -22239   -22177   -22131 
  -22087   -22040   -21994   -21957   -21942   -21960   -22023   -22125 
  -22234   -22299   -22297   -22270   -22283   -22345   -22408   -22389 
  -22262   -22087   -21944   -21883   -21924   -22052   -22226   -22389 
  -22499   -22531   -22485   -22393   -22318   -22295   -22318   -22370 
  -22414   -22410   -22366   -22327   -22330   -22391   -22466   -22497 
  -22451   -22330   -22152   -21967   -21830   -21789   -21840   -21949 
  -22079   -22204   -22296   -22345   -22368   -22385   -22396   -22377 
  -22311   -22211   -22111   -22040   -22015   -22064   -22183   -22303 
  -22356   -22357   -22360   -22364   -22330   -22260   -22195   -22154 
  -22146   -22184   -22254   -22338   -22450   -22601   -22744   -22802 
  -22744   -22596   -22407   -22234   -22121   -22077   -22069   -22068 
  -22072   -22103   -22162   -22241   -22337   -22455   -22557   -22569 
  -22491   -22368   -22223   -22073   -21975   -21963   -22014   -22073 
  -22108   -22114   -22114   -22135   -22165   -22175   -22184   -22237 
  -22312   -22362   -22384   -22408   -22430   -22415   -22365   -22303 
  -22230   -22169   -22157   -22160   -22141   -22125   -22142   -22189 
  -22248   -22280   -22257   -22175   -22073   -22013   -22022   -22103 
  -22222   -22331   -22399   -22424   -22414   -22374   -22329   -22273 
  -22207   -22161   -22140   -22103   -22049   -22019   -22032   -22075 
  -22126   -22165   -22179   -22169   -22161   -22171   -22188   -22204 
  -22222   -22262   -22334   -22420   -22512   -22593   -22627   -22580 
  -22473   -22360   -22270   -22198   -22131   -22079   -22056   -22049 
  -22044   -22052   -22086   -22130   -22171   -22176   -22122   -22033 
  -21951   -21903   -21911   -21984   -22086   -22172   -22238   -22291 
  -22346   -22428   -22519   -22554   -22512   -22437   -22360   -22289 
  -22227   -22176   -22146   -22135   -22119   -22076   -22034   -22032 
  -22061   -22084   -22119   -22202   -22316   -22439   -22574   -22702 
  -22783   -22808   -22785   -22716   -22601   -22441   -22258   -22104 
  -22038   -22080   -22185   -22289   -22356   -22366   -22300   -22177 
  -22067   -22021   -22036   -22077   -22121   -22150   -22144   -22107 
  -22090   -22102   -22123   -22171   -22262   -22376   -22464   -22486 
  -22446   -22373   -22297   -22239   -22189   -22140   -22096   -22073 
  -22068   -22081   -22131   -22252   -22443   -22650   -22797   -22840 
  -22759   -22551   -22281   -22042   -21894   -21861   -21940   -22088 
  -22246   -22376   -22472   -22508   -22462   -22346   -22195   -22029 
  -21871   -21763   -21736   -21807   -21976   -22200   -22400   -22526 
  -22582   -22590   -22553   -22454   -22306   -22172   -22099   -22071 
  -22065   -22086   -22118   -22153   -22202   -22280   -22354   -22374 
  -22330   -22253   -22164   -22079   -22033   -22022   -22011   -22007 
  -22045   -22119   -22188   -22226   -22246   -22260   -22265   -22262 
  -22257   -22239   -22192   -22134   -22106   -22119   -22150   -22180 
  -22210   -22231   -22230   -22206   -22171   -22146   -22154   -22188 
  -22198   -22176   -22167   -22185   -22216   -22254   -22315   -22405 
  -22482   -22495   -22451   -22400   -22369   -22353   -22334   -22303 
  -22262   -22202   -22104   -21991   -21910   -21895   -21938   -22005 
  -22061   -22106   -22156   -22212   -22256   -22303   -22392   -22501 
  -22563   -22559   -22543   -22569   -22623   -22642   -22599   -22504 
  -22370   -22227   -22123   -22076   -22077   -22108   -22148   -22179 
  -22196   -22196   -22188   -22185   -22187   -22161   -22088   -21982 
  -21897   -21857   -21857   -21898   -21982   -22100   -22250   -22420 
  -22592   -22756   -22902   -22993   -22981   -22852   -22639   -22397 
  -22160   -21926   -21697   -21527   -21471   -21520   -21636   -21806 
  -22015   -22256   -22503   -22698   -22790   -22775   -22700   -22608 
  -22513   -22422   -22346   -22296   -22277   -22295   -22343   -22391 
  -22420   -22438   -22432   -22377   -22279   -22176   -22106   -22090 
  -22119   -22160   -22179   -22179   -22181   -22214   -22283   -22357 
  -22388   -22360   -22293   -22219   -22149   -22069   -21982   -21913 
  -21903   -21965   -22069   -22184   -22308   -22459   -22624   -22752 
  -22793   -22729   -22585   -22397   -22195   -21992   -21817   -21693 
  -21621   -21608   -21663   -21763   -21882   -22017   -22141   -22202 
  -22208   -22207   -22198   -22181   -22175   -22184   -22215   -22258 
  -22284   -22299   -22335   -22380   -22392   -22377   -22368   -22362 
  -22346   -22327   -22314   -22283   -22229   -22162   -22079   -21976 
  -21878   -21822   -21826   -21887   -21990   -22118   -22246   -22368 
  -22493   -22612   -22689   -22700   -22663   -22630   -22623   -22607 
  -22546   -22450   -22342   -22230   -22129   -22065   -22044   -22037 
  -22034   -22060   -22104   -22140   -22175   -22223   -22265   -22306 
  -22366   -22434   -22478   -22492   -22469   -22426   -22385   -22351 
  -22327   -22324   -22345   -22358   -22327   -22265   -22215   -22202 
  -22227   -22285   -22349   -22374   -22356   -22310   -22256   -22200 
  -22158   -22146   -22150   -22126   -22090   -22087   -22111   -22148 
  -22192   -22226   -22225   -22191   -22149   -22127   -22134   -22169 
  -22234   -22299   -22342   -22372   -22387   -22377   -22341   -22276 
  -22198   -22114   -22026   -21948   -21903   -21898   -21919   -21964 
  -22037   -22129   -22199   -22234   -22256   -22279   -22289   -22269 
  -22221   -22162   -22129   -22133   -22153   -22161   -22176   -22245 
  -22393   -22586   -22765   -22874   -22877   -22783   -22630   -22453 
  -22292   -22176   -22106   -22065   -22049   -22038   -22011   -21975 
  -21955   -21963   -22014   -22100   -22189   -22246   -22275   -22293 
  -22300   -22281   -22246   -22226   -22223   -22222   -22211   -22189 
  -22171   -22185   -22253   -22342   -22414   -22439   -22420   -22374 
  -22326   -22293   -22264   -22231   -22203   -22183   -22176   -22189 
  -22222   -22265   -22304   -22327   -22316   -22258   -22184   -22127 
  -22094   -22081   -22095   -22127   -22168   -22212   -22253   -22289 
  -22316   -22326   -22303   -22252   -22183   -22107   -22041   -21984 
  -21932   -21894   -21892   -21932   -22013   -22121   -22234   -22343 
  -22432   -22488   -22519   -22524   -22481   -22381   -22246   -22121 
  -22048   -22033   -22054   -22096   -22145   -22188   -22221   -22248 
  -22277   -22319   -22384   -22453   -22477   -22415   -22283   -22156 
  -22104   -22146   -22257   -22392   -22504   -22551   -22527   -22459 
  -22392   -22350   -22341   -22364   -22401   -22430   -22432   -22414 
  -22387   -22374   -22370   -22338   -22272   -22219   -22214   -22237 
  -22256   -22256   -22245   -22250   -22276   -22304   -22318   -22312 
  -22289   -22264   -22241   -22216   -22192   -22164   -22127   -22103 
  -22092   -22081   -22086   -22123   -22172   -22214   -22268   -22331 
  -22383   -22415   -22431   -22422   -22378   -22304   -22216   -22144 
  -22118   -22150   -22222   -22299   -22339   -22324   -22276   -22233 
  -22223   -22243   -22252   -22223   -22173   -22126   -22092   -22077 
  -22088   -22113   -22117   -22086   -22041   -22010   -21988   -21969 
  -21964   -21980   -22017   -22060   -22094   -22122   -22158   -22206 
  -22260   -22307   -22320   -22304   -22287   -22297   -22338   -22392 
  -22435   -22454   -22432   -22380   -22314   -22234   -22149   -22076 
  -22010   -21933   -21859   -21816   -21820   -21879   -22005   -22162 
  -22289   -22347   -22356   -22349   -22349   -22370   -22410   -22450 
  -22480   -22518   -22573   -22611   -22596   -22539   -22476   -22418 
  -22360   -22302   -22248   -22214   -22226   -22285   -22347   -22376 
  -22377   -22357   -22318   -22280   -22246   -22200   -22146   -22099 
  -22053   -22018   -22036   -22104   -22171   -22196   -22198   -22189 
  -22169   -22121   -22048   -21965   -21884   -21825   -21811   -21849 
  -21932   -22049   -22183   -22302   -22395   -22473   -22532   -22534 
  -22461   -22357   -22264   -22189   -22153   -22176   -22248   -22345 
  -22439   -22492   -22485   -22445   -22397   -22354   -22314   -22266 
  -22234   -22249   -22315   -22393   -22446   -22468   -22478   -22486 
  -22454   -22366   -22268   -22198   -22142   -22076   -22000   -21945 
  -21926   -21928   -21941   -21984   -22064   -22160   -22252   -22330 
  -22383   -22404   -22399   -22388   -22374   -22346   -22314   -22283 
  -22243   -22204   -22185   -22199   -22233   -22258   -22254   -22219 
  -22181   -22171   -22191   -22230   -22283   -22349   -22431   -22523 
  -22607   -22673   -22711   -22713   -22678   -22615   -22546   -22497 
  -22459   -22412   -22345   -22256   -22154   -22061   -21984   -21921 
  -21870   -21822   -21780   -21756   -21771   -21829   -21917   -22018 
  -22119   -22196   -22222   -22202   -22162   -22110   -22052   -22013 
  -21996   -21987   -21980   -21980   -21991   -22011   -22045   -22088 
  -22131   -22167   -22199   -22233   -22253   -22245   -22216   -22196 
  -22212   -22270   -22356   -22441   -22511   -22557   -22577   -22584 
  -22577   -22535   -22435   -22293   -22167   -22096   -22075   -22064 
  -22040   -22013   -21998   -22003   -22030   -22069   -22100   -22121 
  -22149   -22216   -22334   -22489   -22635   -22729   -22756   -22727 
  -22644   -22513   -22366   -22261   -22214   -22187   -22145   -22095 
  -22076   -22096   -22141   -22191   -22241   -22287   -22326   -22353 
  -22360   -22339   -22304   -22303   -22347   -22397   -22427   -22434 
  -22411   -22361   -22318   -22293   -22269   -22242   -22235   -22252 
