Origin Time       2025/06/03 22:18:00
Lat.              41.7
Long.             143.6
Depth. (km)       30
Mag.              5.2
Station Code      AOMH13
Station Lat.      40.5794
Station Long.     141.4451
Station Height(m) 10
Record Time       2025/06/03 22:19:25
Sampling Freq(Hz) 100Hz
Duration Time(s)  120
Dir.              6
Scale Factor      7845(gal)/8223790
Max. Acc. (gal)   0.293
Last Correction   2025/06/03 22:19:26
Memo.             
[...]
  -27024   -27010   -26981   -26959   -26944   -26929   -26931   -26951 
  -26970   -26978   -26987   -27005   -27027   -27040   -27040   -27037 
  -27039   -27039   -27040   -27052   -27070   -27076   -27086   -27099 
  -27103   -27108   -27121   -27140   -27156   -27156   -27139   -27125 
  -27126   -27136   -27136   -27136   -27141   -27145   -27141   -27136 
  -27135   -27140   -27140   -27130   -27117   -27112   -27114   -27121 
  -27120   -27110   -27103   -27103   -27106   -27106   -27095   -27091 
  -27102   -27114   -27120   -27122   -27128   -27140   -27141   -27126 
  -27126   -27140   -27143   -27137   -27125   -27108   -27091   -27072 
  -27063   -27078   -27105   -27114   -27118   -27135   -27155   -27176 
  -27199   -27221   -27222   -27210   -27199   -27197   -27194   -27191 
  -27178   -27153   -27125   -27110   -27108   -27102   -27108   -27129 
  -27129   -27103   -27076   -27067   -27078   -27086   -27082   -27083 
  -27089   -27090   -27095   -27098   -27099   -27102   -27099   -27093 
  -27082   -27060   -27043   -27033   -27021   -27008   -26995   -26987 
  -26990   -27012   -27041   -27062   -27085   -27114   -27139   -27159 
  -27171   -27171   -27172   -27182   -27199   -27216   -27214   -27199 
  -27190   -27182   -27172   -27172   -27166   -27145   -27132   -27139 
  -27153   -27162   -27163   -27168   -27187   -27206   -27201   -27186 
  -27191   -27194   -27172   -27152   -27145   -27147   -27151   -27147 
  -27132   -27116   -27112   -27112   -27087   -27047   -27014   -26989 
  -26968   -26951   -26936   -26933   -26933   -26925   -26925   -26933 
  -26929   -26924   -26916   -26898   -26893   -26897   -26904   -26931 
  -26979   -27031   -27075   -27116   -27159   -27197   -27222   -27237 
  -27244   -27247   -27244   -27247   -27263   -27274   -27272   -27274 
  -27272   -27265   -27267   -27267   -27261   -27257   -27247   -27233 
  -27214   -27186   -27172   -27167   -27148   -27130   -27113   -27094 
  -27085   -27079   -27074   -27074   -27067   -27059   -27062   -27067 
  -27078   -27095   -27116   -27122   -27116   -27110   -27116   -27124 
  -27128   -27129   -27133   -27140   -27132   -27110   -27091   -27090 
  -27108   -27114   -27079   -27028   -27000   -26991   -26975   -26947 
  -26933   -26936   -26927   -26910   -26905   -26908   -26929   -26971 
  -27022   -27066   -27090   -27103   -27116   -27124   -27135   -27156 
  -27186   -27217   -27232   -27230   -27211   -27184   -27171   -27176 
  -27184   -27183   -27171   -27155   -27147   -27151   -27162   -27184 
  -27209   -27217   -27222   -27237   -27257   -27274   -27272   -27256 
  -27243   -27228   -27206   -27190   -27180   -27159   -27122   -27091 
  -27072   -27064   -27063   -27062   -27055   -27049   -27047   -27044 
  -27039   -27039   -27040   -27032   -27013   -27001   -26995   -26990 
  -26987   -26981   -26962   -26940   -26932   -26939   -26944   -26948 
  -26952   -26951   -26954   -26968   -26987   -27004   -27016   -27022 
  -27037   -27060   -27072   -27079   -27089   -27103   -27126   -27152 
  -27184   -27218   -27233   -27232   -27232   -27236   -27243   -27248 
  -27245   -27240   -27233   -27232   -27234   -27222   -27191   -27149 
  -27114   -27101   -27099   -27093   -27082   -27071   -27068   -27071 
  -27068   -27064   -27063   -27056   -27044   -27032   -27017   -27016 
  -27031   -27040   -27041   -27035   -27021   -27017   -27025   -27049 
  -27081   -27094   -27094   -27103   -27132   -27170   -27195   -27205 
  -27206   -27195   -27184   -27186   -27197   -27210   -27221   -27222 
  -27226   -27241   -27265   -27298   -27325   -27329   -27319   -27301 
  -27282   -27265   -27257   -27256   -27245   -27221   -27193   -27166 
  -27140   -27113   -27082   -27054   -27031   -27016   -27013   -27010 
  -27001   -26993   -26987   -26982   -26979   -26981   -26989   -27000 
  -27010   -27025   -27040   -27055   -27072   -27089   -27105   -27121 
  -27130   -27149   -27171   -27175   -27172   -27180   -27198   -27205 
  -27198   -27190   -27187   -27182   -27179   -27179   -27168   -27144 
  -27112   -27087   -27070   -27056   -27056   -27056   -27048   -27049 
  -27059   -27063   -27075   -27089   -27090   -27079   -27067   -27060 
  -27062   -27068   -27079   -27086   -27078   -27067   -27063   -27062 
  -27056   -27045   -27031   -27022   -27016   -27013   -27021   -27029 
  -27029   -27025   -27016   -27009   -27008   -27004   -26995   -26993 
  -26997   -26997   -26985   -26967   -26948   -26937   -26951   -26978 
  -27005   -27035   -27067   -27099   -27122   -27140   -27151   -27159 
  -27164   -27164   -27160   -27153   -27148   -27147   -27143   -27133 
  -27130   -27148   -27170   -27182   -27198   -27221   -27243   -27252 
  -27244   -27232   -27230   -27229   -27226   -27225   -27222   -27226 
  -27224   -27206   -27182   -27167   -27170   -27179   -27178   -27160 
  -27137   -27121   -27116   -27112   -27113   -27116   -27109   -27093 
  -27070   -27043   -27025   -27022   -27021   -27013   -27001   -26991 
  -26989   -26990   -26994   -26994   -27001   -27024   -27051   -27067 
  -27078   -27099   -27132   -27166   -27197   -27214   -27206   -27184 
  -27179   -27187   -27194   -27189   -27174   -27166   -27162   -27151 
  -27144   -27144   -27135   -27132   -27137   -27147   -27164   -27189 
  -27207   -27209   -27203   -27205   -27209   -27206   -27194   -27174 
  -27153   -27143   -27130   -27118   -27113   -27105   -27097   -27089 
  -27078   -27067   -27058   -27052   -27059   -27072   -27085   -27093 
  -27099   -27102   -27093   -27076   -27072   -27083   -27093   -27090 
  -27068   -27039   -27021   -27021   -27021   -27016   -27002   -26989 
  -26978   -26971   -26974   -26986   -27002   -27010   -27005   -27002 
  -27014   -27045   -27094   -27143   -27172   -27186   -27195   -27205 
  -27220   -27238   -27252   -27252   -27244   -27237   -27244   -27257 
  -27263   -27259   -27255   -27251   -27238   -27228   -27221   -27210 
  -27198   -27183   -27163   -27143   -27126   -27112   -27095   -27074 
  -27045   -27028   -27028   -27027   -27024   -27022   -27020   -27016 
  -27016   -27017   -27010   -27002   -27002   -27004   -27006   -27008 
  -27008   -27014   -27025   -27039   -27054   -27066   -27076   -27091 
  -27103   -27110   -27118   -27130   -27141   -27143   -27141   -27151 
  -27164   -27175   -27182   -27178   -27170   -27167   -27164   -27167 
  -27170   -27168   -27162   -27147   -27128   -27114   -27103   -27091 
  -27087   -27090   -27097   -27110   -27128   -27144   -27151   -27144 
  -27140   -27140   -27143   -27149   -27148   -27141   -27132   -27122 
  -27120   -27113   -27106   -27109   -27109   -27093   -27072   -27060 
  -27068   -27086   -27090   -27090   -27095   -27087   -27064   -27032 
  -26997   -26978   -26974   -26963   -26955   -26955   -26950   -26944 
  -26955   -26975   -26986   -26982   -26979   -26982   -26989   -27000 
  -27014   -27032   -27051   -27066   -27081   -27097   -27105   -27114 
  -27132   -27147   -27145   -27140   -27145   -27160   -27170   -27180 
  -27190   -27198   -27217   -27236   -27248   -27268   -27290   -27301 
  -27291   -27263   -27240   -27226   -27206   -27180   -27152   -27130 
  -27121   -27113   -27102   -27087   -27079   -27086   -27091   -27091 
  -27099   -27109   -27118   -27129   -27128   -27117   -27105   -27095 
  -27095   -27095   -27086   -27078   -27071   -27062   -27059   -27059 
  -27055   -27045   -27049   -27068   -27087   -27105   -27124   -27136 
  -27147   -27160   -27180   -27202   -27201   -27186   -27184   -27193 
  -27197   -27198   -27197   -27190   -27180   -27168   -27153   -27136 
  -27118   -27110   -27110   -27109   -27106   -27105   -27101   -27095 
  -27095   -27090   -27078   -27068   -27064   -27066   -27081   -27098 
  -27099   -27093   -27091   -27102   -27116   -27120   -27120   -27122 
  -27125   -27129   -27137   -27144   -27148   -27144   -27132   -27122 
  -27117   -27109   -27101   -27091   -27083   -27082   -27075   -27060 
  -27041   -27018   -26994   -26979   -26978   -26985   -26990   -26990 
  -26985   -26975   -26981   -27002   -27013   -27013   -27018   -27035 
  -27063   -27082   -27090   -27101   -27103   -27098   -27094   -27089 
  -27095   -27118   -27136   -27144   -27148   -27152   -27166   -27176 
  -27174   -27174   -27184   -27194   -27203   -27210   -27205   -27189 
  -27167   -27135   -27094   -27063   -27047   -27035   -27028   -27027 
  -27022   -27017   -27018   -27020   -27028   -27044   -27070   -27099 
  -27122   -27141   -27157   -27167   -27179   -27194   -27201   -27202 
  -27201   -27191   -27178   -27174   -27182   -27190   -27190   -27189 
  -27182   -27171   -27157   -27140   -27133   -27143   -27144   -27143 
  -27141   -27133   -27126   -27122   -27124   -27129   -27125   -27121 
  -27128   -27139   -27155   -27171   -27176   -27187   -27207   -27225 
  -27247   -27267   -27276   -27276   -27270   -27264   -27264   -27264 
  -27261   -27255   -27238   -27209   -27172   -27136   -27098   -27056 
  -27027   -27012   -26995   -26977   -26951   -26924   -26906   -26896 
  -26890   -26900   -26913   -26919   -26924   -26931   -26941   -26954 
  -26966   -26989   -27014   -27031   -27041   -27055   -27071   -27086 
  -27095   -27108   -27116   -27121   -27125   -27118   -27110   -27113 
  -27121   -27129   -27140   -27143   -27147   -27155   -27160   -27176 
  -27197   -27197   -27180   -27167   -27156   -27153   -27153   -27152 
  -27157   -27163   -27155   -27137   -27117   -27097   -27076   -27060 
  -27051   -27045   -27045   -27048   -27055   -27066   -27075   -27081 
  -27083   -27072   -27051   -27033   -27017   -27005   -26995   -26989 
  -26990   -27001   -27012   -27018   -27020   -27022   -27025   -27027 
  -27036   -27048   -27052   -27054   -27058   -27067   -27083   -27094 
  -27097   -27098   -27102   -27114   -27133   -27147   -27163   -27180 
  -27194   -27216   -27238   -27264   -27292   -27305   -27305   -27309 
  -27313   -27311   -27302   -27272   -27233   -27203   -27179   -27157 
  -27132   -27112   -27105   -27105   -27105   -27097   -27076   -27056 
  -27049   -27044   -27035   -27027   -27024   -27025   -27033   -27051 
  -27074   -27085   -27090   -27103   -27120   -27139   -27155   -27163 
  -27170   -27175   -27189   -27206   -27209   -27210   -27216   -27210 
  -27191   -27172   -27160   -27155   -27151   -27147   -27137   -27121 
  -27099   -27072   -27047   -27028   -27024   -27028   -27033   -27040 
  -27055   -27075   -27094   -27114   -27132   -27143   -27145   -27137 
  -27129   -27125   -27122   -27117   -27112   -27106   -27108   -27110 
  -27106   -27103   -27108   -27114   -27118   -27114   -27110   -27118 
  -27132   -27137   -27143   -27151   -27148   -27135   -27130   -27143 
  -27152   -27155   -27156   -27148   -27129   -27110   -27099   -27106 
  -27113   -27110   -27112   -27118   -27129   -27139   -27140   -27140 
  -27133   -27121   -27109   -27087   -27063   -27048   -27035   -27025 
  -27013   -26990   -26971   -26952   -26921   -26902   -26900   -26901 
  -26901   -26901   -26901   -26913   -26928   -26948   -26966   -26974 
  -26989   -27014   -27039   -27068   -27101   -27126   -27151   -27179 
  -27216   -27252   -27268   -27271   -27272   -27270   -27271   -27282 
  -27299   -27315   -27313   -27291   -27267   -27243   -27218   -27197 
  -27168   -27133   -27102   -27083   -27070   -27047   -27025   -27010 
  -26995   -26990   -26993   -26994   -26998   -27001   -27000   -27001 
  -27010   -27027   -27040   -27049   -27060   -27072   -27076   -27082 
  -27095   -27116   -27136   -27151   -27166   -27183   -27193   -27201 
  -27211   -27224   -27232   -27238   -27248   -27252   -27244   -27238 
  -27238   -27236   -27228   -27216   -27205   -27202   -27199   -27190 
  -27180   -27171   -27164   -27156   -27145   -27136   -27128   -27116 
  -27105   -27099   -27094   -27087   -27083   -27085   -27087   -27082 
  -27075   -27072   -27070   -27071   -27076   -27087   -27098   -27090 
  -27075   -27060   -27041   -27025   -27016   -27004   -26994   -26989 
  -26989   -27000   -27010   -27012   -27013   -27018   -27028   -27040 
  -27051   -27067   -27087   -27102   -27112   -27125   -27135   -27136 
  -27139   -27139   -27137   -27141   -27143   -27140   -27139   -27141 
  -27139   -27139   -27143   -27141   -27136   -27128   -27116   -27116 
  -27124   -27121   -27108   -27097   -27090   -27079   -27068   -27062 
  -27058   -27052   -27059   -27066   -27056   -27044   -27036   -27031 
  -27031   -27033   -27036   -27039   -27039   -27040   -27044   -27054 
  -27075   -27093   -27103   -27118   -27129   -27139   -27149   -27151 
  -27149   -27151   -27153   -27163   -27170   -27172   -27176   -27172 
  -27171   -27180   -27187   -27182   -27172   -27167   -27171   -27172 
  -27174   -27180   -27183   -27186   -27193   -27197   -27202   -27206 
  -27203   -27202   -27198   -27190   -27183   -27166   -27145   -27137 
  -27141   -27147   -27141   -27125   -27113   -27098   -27071   -27049 
  -27033   -27020   -27012   -26998   -26981   -26963   -26948   -26941 
  -26947   -26948   -26948   -26947   -26954   -26974   -26990   -26998 
  -27009   -27017   -27031   -27051   -27074   -27102   -27130   -27157 
  -27184   -27206   -27226   -27245   -27263   -27282   -27301   -27319 
  -27337   -27351   -27363   -27375   -27378   -27369   -27359   -27342 
  -27317   -27290   -27268   -27249   -27218   -27176   -27136   -27095 
  -27058   -27025   -27000   -26977   -26955   -26931   -26912   -26898 
  -26883   -26866   -26846   -26828   -26813   -26801   -26802   -26812 
  -26825   -26847   -26871   -26893   -26925   -26959   -26981   -27002 
  -27036   -27074   -27108   -27139   -27166   -27186   -27205   -27221 
  -27230   -27230   -27225   -27224   -27220   -27206   -27194   -27190 
  -27184   -27180   -27183   -27180   -27175   -27178   -27178   -27168 
  -27159   -27153   -27148   -27137   -27121   -27103   -27087   -27082 
  -27082   -27076   -27068   -27062   -27062   -27071   -27079   -27082 
  -27086   -27091   -27094   -27103   -27121   -27132   -27135   -27137 
  -27151   -27162   -27164   -27164   -27162   -27162   -27168   -27171 
  -27167   -27163   -27159   -27157   -27157   -27155   -27149   -27141 
  -27140   -27145   -27141   -27128   -27117   -27101   -27085   -27070 
  -27047   -27031   -27025   -27021   -27024   -27031   -27037   -27043 
  -27049   -27060   -27070   -27078   -27090   -27103   -27116   -27124 
  -27124   -27121   -27121   -27128   -27147   -27164   -27170   -27168 
  -27160   -27157   -27164   -27170   -27172   -27175   -27171   -27168 
  -27162   -27149   -27139   -27132   -27132   -27132   -27116   -27091 
  -27067   -27043   -27029   -27022   -27012   -27005   -26993   -26977 
  -26970   -26964   -26962   -26964   -26963   -26963   -26964   -26963 
  -26975   -26993   -27010   -27032   -27051   -27071   -27101   -27125 
  -27144   -27167   -27194   -27224   -27238   -27237   -27240   -27245 
  -27251   -27256   -27263   -27271   -27265   -27247   -27229   -27214 
  -27203   -27199   -27191   -27182   -27183   -27186   -27189   -27184 
  -27179   -27182   -27179   -27167   -27157   -27151   -27148   -27155 
  -27163   -27159   -27148   -27135   -27121   -27112   -27114   -27124 
  -27125   -27122   -27117   -27106   -27097   -27085   -27070   -27059 
  -27048   -27036   -27032   -27022   -27009   -27008   -27009   -27008 
  -27013   -27014   -27013   -27016   -27021   -27031   -27040   -27044 
  -27048   -27054   -27064   -27075   -27078   -27079   -27076   -27060 
  -27045   -27039   -27036   -27039   -27040   -27043   -27052   -27056 
  -27054   -27056   -27059   -27062   -27070   -27078   -27082   -27086 
  -27089   -27099   -27120   -27140   -27151   -27159   -27175   -27194 
  -27207   -27218   -27221   -27222   -27236   -27249   -27251   -27243 
  -27238   -27238   -27240   -27238   -27225   -27203   -27187   -27179 
  -27170   -27156   -27140   -27129   -27124   -27110   -27095   -27090 
  -27087   -27081   -27076   -27074   -27070   -27070   -27067   -27059 
  -27049   -27047   -27055   -27058   -27049   -27039   -27033   -27031 
  -27031   -27036   -27044   -27044   -27045   -27049   -27054   -27054 
  -27051   -27041   -27040   -27048   -27054   -27058   -27060   -27060 
  -27064   -27068   -27070   -27074   -27075   -27082   -27095   -27098 
  -27102   -27114   -27125   -27140   -27155   -27160   -27163   -27163 
  -27164   -27172   -27182   -27198   -27211   -27216   -27222   -27229 
  -27229   -27229   -27228   -27220   -27211   -27207   -27206   -27199 
  -27184   -27171   -27159   -27144   -27133   -27130   -27121   -27102 
  -27083   -27078   -27074   -27068   -27072   -27082   -27086   -27089 
  -27086   -27079   -27075   -27060   -27044   -27032   -27017   -27005 
  -27001   -27002   -27001   -26994   -26986   -26986   -26993   -26997 
  -26997   -27000   -27012   -27025   -27040   -27064   -27083   -27094 
  -27109   -27118   -27124   -27136   -27152   -27170   -27182   -27186 
  -27190   -27201   -27206   -27205   -27203   -27205   -27207   -27209 
  -27209   -27205   -27198   -27195   -27191   -27182   -27174   -27162 
  -27147   -27136   -27122   -27112   -27105   -27093   -27079   -27071 
  -27059   -27049   -27045   -27040   -27029   -27018   -27014   -27009 
  -27009   -27017   -27028   -27037   -27048   -27058   -27066   -27074 
  -27081   -27094   -27109   -27117   -27129   -27143   -27153   -27164 
  -27168   -27166   -27172   -27179   -27174   -27164   -27153   -27143 
  -27136   -27130   -27129   -27132   -27140   -27141   -27132   -27122 
  -27113   -27103   -27101   -27098   -27089   -27076   -27068   -27068 
  -27071   -27067   -27059   -27052   -27045   -27044   -27047   -27044 
  -27040   -27041   -27047   -27054   -27059   -27068   -27078   -27075 
  -27072   -27071   -27070   -27072   -27075   -27075   -27081   -27089 
  -27091   -27091   -27089   -27087   -27086   -27085   -27090   -27098 
  -27105   -27116   -27125   -27130   -27126   -27121   -27118   -27118 
  -27120   -27122   -27130   -27141   -27149   -27153   -27155   -27155 
  -27153   -27159   -27166   -27171   -27171   -27166   -27164   -27166 
  -27156   -27145   -27136   -27126   -27118   -27106   -27094   -27090 
  -27091   -27086   -27074   -27059   -27052   -27052   -27052   -27056 
  -27056   -27052   -27054   -27055   -27060   -27070   -27076   -27085 
  -27098   -27105   -27110   -27116   -27116   -27124   -27133   -27137 
  -27147   -27153   -27159   -27170   -27178   -27180   -27180   -27179 
  -27180   -27178   -27166   -27149   -27132   -27110   -27087   -27060 
  -27033   -27009   -26985   -26964   -26952   -26954   -26964   -26970 
  -26974   -26983   -26998   -27014   -27037   -27064   -27097   -27129 
  -27155   -27179   -27207   -27238   -27271   -27298   -27313   -27319 
  -27314   -27310   -27309   -27306   -27305   -27303   -27298   -27290 
  -27276   -27260   -27245   -27230   -27221   -27210   -27194   -27183 
  -27170   -27148   -27130   -27117   -27108   -27102   -27099   -27103 
  -27105   -27102   -27106   -27112   -27116   -27128   -27132   -27122 
  -27114   -27108   -27103   -27095   -27082   -27070   -27059   -27045 
  -27036   -27031   -27021   -27010   -26998   -26991   -26987   -26983 
  -26979   -26977   -26963   -26950   -26944   -26941   -26939   -26940 
  -26946   -26958   -26967   -26967   -26964   -26970   -26985   -27000 
