Origin Time       2025/06/03 22:18:00
Lat.              41.7
Long.             143.6
Depth. (km)       30
Mag.              5.2
Station Code      AOMH12
Station Lat.      40.5846
Station Long.     141.1547
Station Height(m) -15
Record Time       2025/06/03 22:19:42
Sampling Freq(Hz) 100Hz
Duration Time(s)  120
Dir.              2
Scale Factor      2942(gal)/8224139
Max. Acc. (gal)   0.174
Last Correction   2025/06/03 22:19:43
Memo.             
  134222   134229   134233   134226   134219   134217   134207   134208 
  134238   134257   134261   134272   134271   134257   134246   134235 
  134222   134214   134218   134215   134200   134181   134160   134144 
  134131   134131   134130   134127   134141   134146   134140   134136 
  134136   134142   134152   134168   134200   134223   134227   134214 
  134185   134167   134169   134177   134183   134185   134183   134179 
  134179   134179   134171   134167   134180   134194   134191   134208 
  134242   134237   134206   134196   134191   134168   134157   134152 
  134140   134156   134180   134180   134195   134210   134196   134184 
  134192   134200   134198   134188   134185   134195   134210   134217 
  134221   134223   134221   134212   134190   134180   134169   134130 
  134107   134115   134123   134121   134114   134106   134104   134131 
  134154   134142   134136   134125   134100   134100   134110   134114 
  134129   134144   134148   134149   134149   134149   134152   134126 
  134080   134064   134065   134073   134107   134136   134134   134126 
  134111   134092   134091   134100   134110   134121   134137   134154 
  134169   134171   134154   134145   134154   134154   134134   134115 
  134117   134119   134107   134094   134094   134104   134114   134125 
  134140   134141   134142   134158   134158   134152   134163   134173 
  134179   134183   134180   134179   134184   134194   134204   134206 
  134204   134202   134196   134198   134202   134194   134173   134156 
  134149   134161   134188   134210   134221   134227   134237   134261 
  134280   134281   134289   134295   134293   134299   134304   134292 
  134277   134272   134261   134248   134250   134257   134238   134207 
  134208   134218   134207   134217   134245   134241   134227   134217 
  134195   134204   134223   134207   134217   134248   134252   134246 
  134239   134233   134221   134204   134206   134207   134203   134204 
  134208   134211   134211   134215   134223   134221   134215   134225 
  134239   134253   134265   134262   134252   134245   134233   134222 
  134219   134217   134202   134183   134167   134160   134161   134160 
  134158   134165   134165   134154   134148   134152   134161   134167 
  134168   134171   134153   134121   134107   134104   134106   134129 
  134156   134165   134176   134183   134177   134175   134176   134168 
  134161   134168   134173   134173   134169   134160   134153   134149 
  134141   134140   134145   134154   134160   134150   134141   134142 
  134152   134169   134200   134238   134264   134273   134279   134283 
  134277   134271   134262   134245   134227   134215   134200   134177 
  134154   134136   134129   134141   134158   134161   134154   134142 
  134138   134149   134163   134176   134192   134198   134195   134195 
  134196   134204   134212   134214   134215   134226   134244   134264 
  134273   134256   134229   134217   134211   134188   134158   134140 
  134131   134138   134165   134183   134168   134141   134133   134149 
  134173   134185   134180   134173   134175   134180   134183   134176 
  134165   134157   134161   134173   134180   134180   134185   134204 
  134217   134208   134200   134210   134212   134211   134219   134212 
  134202   134200   134187   134179   134176   134165   134175   134196 
  134198   134194   134185   134177   134183   134183   134161   134148 
  134145   134142   134156   134176   134179   134161   134136   134118 
  134114   134122   134134   134136   134126   134110   134096   134096 
  134113   134129   134130   134136   134160   134190   134203   134206 
  134212   134199   134161   134142   134144   134137   134126   134125 
  134131   134118   134092   134102   134098   134067   134084   134122 
  134121   134111   134113   134119   134117   134117   134123   134121 
  134140   134190   134231   134245   134244   134245   134241   134203 
  134177   134200   134208   134207   134253   134298   134312   134325 
  134339   134357   134364   134365   134361   134345   134331   134322 
  134293   134260   134238   134212   134172   134134   134099   134060 
  134037   134029   134017   134009   134021   134044   134065   134065 
  134063   134088   134119   134141   134167   134169   134163   134188 
  134230   134265   134292   134310   134314   134306   134300   134299 
  134285   134245   134183   134137   134123   134127   134138   134145 
  134140   134133   134148   134196   134241   134246   134248   134258 
  134250   134237   134234   134230   134212   134167   134114   134092 
  134100   134119   134129   134114   134082   134067   134083   134110 
  134133   134142   134137   134148   134157   134137   134122   134141 
  134177   134210   134233   134248   134238   134211   134191   134192 
  134199   134194   134187   134188   134176   134152   134138   134137 
  134142   134144   134161   134183   134175   134157   134134   134113 
  134126   134136   134114   134109   134104   134088   134110   134157 
  134184   134188   134160   134134   134150   134176   134191   134211 
  134227   134238   134252   134246   134246   134277   134302   134304 
  134312   134310   134304   134323   134331   134306   134264   134212 
  134167   134150   134163   134183   134210   134241   134256   134257 
  134260   134269   134248   134176   134134   134131   134114   134109 
  134113   134106   134109   134123   134157   134207   134239   134249 
  134244   134219   134211   134239   134256   134249   134250   134241 
  134212   134191   134168   134137   134107   134080   134067   134073 
  134087   134109   134133   134142   134152   134165   134164   134154 
  134150   134146   134152   134176   134199   134190   134171   134173 
  134173   134173   134196   134229   134252   134266   134271   134271 
  134257   134229   134198   134161   134125   134109   134096   134091 
  134122   134167   134184   134181   134175   134153   134109   134069 
  134059   134052   134029   134023   134048   134077   134102   134123 
  134156   134188   134194   134181   134160   134126   134103   134090 
  134056   134007   133983   133978   133979   134005   134029   134040 
  134065   134094   134110   134129   134161   134190   134198   134206 
  134242   134269   134253   134250   134284   134314   134338   134352 
  134334   134320   134320   134327   134347   134346   134326   134315 
  134298   134271   134241   134200   134176   134179   134177   134164 
  134146   134104   134061   134064   134102   134144   134176   134191 
  134199   134199   134217   134265   134302   134311   134322   134331 
  134341   134360   134373   134360   134339   134347   134370   134377 
  134387   134388   134354   134318   134302   134287   134287   134314 
  134331   134330   134319   134302   134279   134235   134165   134103 
  134072   134057   134036   134018   134025   134015   133982   134003 
  134072   134118   134165   134223   134253   134266   134296   134315 
  134310   134311   134315   134303   134288   134280   134284   134298 
  134288   134257   134241   134233   134202   134165   134148   134125 
  134096   134109   134130   134109   134077   134041   133992   133964 
  133944   133933   133938   133936   133957   134005   134048   134076 
  134080   134072   134090   134123   134142   134149   134158   134172 
  134175   134177   134192   134198   134204   134229   134246   134233 
  134194   134163   134148   134131   134102   134049   134010   134005 
  134017   134046   134090   134119   134115   134109   134114   134090 
  134037   134005   133998   133991   133980   133975   133971   133980 
  134013   134056   134111   134177   134219   134238   134281   134329 
  134353   134376   134396   134408   134412   134418   134422   134410 
  134403   134396   134352   134300   134266   134221   134163   134138 
  134134   134109   134076   134057   134042   134033   134036   134042 
  134042   134044   134053   134068   134094   134117   134127   134127 
  134123   134123   134118   134095   134071   134069   134102   134158 
  134208   134261   134322   134349   134360   134404   134461   134504 
  134532   134538   134515   134480   134442   134393   134358   134339 
  134303   134276   134292   134311   134300   134271   134226   134202 
  134226   134257   134257   134229   134179   134131   134113   134114 
  134100   134069   134052   134077   134133   134172   134183   134183 
  134180   134181   134192   134196   134175   134146   134146   134171 
  134195   134207   134214   134234   134276   134325   134369   134389 
  134364   134322   134289   134264   134254   134266   134266   134241 
  134202   134156   134119   134092   134071   134056   134055   134060 
  134060   134040   133998   133963   133961   133988   134023   134050 
  134072   134096   134118   134129   134133   134125   134104   134098 
  134109   134118   134145   134202   134254   134268   134266   134283 
  134296   134283   134265   134277   134292   134283   134291   134311 
  134296   134266   134266   134262   134229   134198   134161   134106 
  134063   134044   134044   134057   134057   134046   134036   134015 
  134013   134021   134017   134034   134063   134071   134065   134038 
  134032   134063   134098   134138   134160   134146   134157   134194 
  134230   134268   134288   134293   134312   134349   134385   134389 
  134372   134365   134364   134349   134347   134373   134404   134427 
  134435   134423   134411   134407   134407   134401   134369   134338 
  134318   134272   134225   134203   134167   134122   134104   134109 
  134125   134130   134098   134060   134055   134036   133980   133932 
  133882   133847   133871   133913   133933   133951   133967   133980 
  134003   134022   134018   134009   134018   134049   134111   134163 
  134163   134144   134137   134141   134149   134145   134113   134069 
  134040   134013   133996   134009   134014   134011   134028   134028 
  134015   134022   134022   134025   134065   134129   134194   134234 
  134250   134261   134256   134244   134239   134219   134198   134190 
  134168   134156   134183   134195   134176   134163   134150   134117 
  134094   134098   134102   134106   134109   134109   134133   134171 
  134190   134207   134234   134248   134257   134271   134268   134265 
  134275   134242   134190   134175   134163   134150   134161   134140 
  134103   134103   134109   134126   134167   134196   134225   134283 
  134349   134380   134403   134434   134434   134428   134443   134435 
  134423   134420   134379   134330   134311   134276   134233   134230 
  134244   134256   134283   134303   134307   134306   134288   134260 
  134227   134185   134142   134100   134056   134018   133983   133953 
  133947   133936   133920   133934   133956   133980   134036   134080 
  134096   134109   134110   134122   134146   134173   134221   134272 
  134300   134330   134365   134399   134438   134488   134527   134551 
  134573   134584   134576   134561   134542   134505   134447   134381 
  134315   134254   134203   134160   134125   134096   134064   134019 
  133972   133928   133872   133807   133753   133726   133731   133753 
  133785   133798   133783   133778   133789   133801   133844   133913 
  133948   133969   134019   134072   134096   134121   134181   134244 
  134271   134304   134356   134389   134423   134461   134462   134438 
  134423   134410   134369   134316   134269   134214   134164   134148 
  134126   134087   134061   134052   134061   134079   134090   134100 
  134098   134104   134141   134179   134235   134310   134343   134352 
  134352   134338   134338   134354   134360   134345   134320   134311 
  134300   134268   134253   134266   134272   134293   134352   134388 
  134396   134428   134447   134422   134388   134335   134271   134233 
  134217   134204   134167   134119   134104   134099   134095   134087 
  134065   134060   134072   134092   134126   134158   134179   134198 
  134226   134264   134295   134316   134358   134400   134416   134415 
  134408   134404   134396   134373   134353   134329   134310   134307 
  134276   134238   134221   134194   134171   134150   134129   134158 
  134183   134161   134179   134225   134257   134307   134325   134288 
  134258   134227   134172   134104   134033   133982   133967   133971 
  133987   133994   134009   134044   134080   134130   134190   134233 
  134266   134289   134295   134289   134279   134277   134275   134261 
  134252   134248   134237   134226   134217   134207   134188   134160 
  134126   134091   134069   134064   134064   134061   134057   134067 
  134100   134125   134140   134160   134154   134129   134099   134063 
  134052   134064   134056   134040   134033   134026   134032   134059 
  134082   134098   134130   134165   134212   134264   134269   134244 
  134229   134210   134171   134130   134114   134113   134095   134077 
  134077   134106   134145   134149   134140   134167   134222   134283 
  134326   134364   134395   134396   134404   134410   134364   134316 
  134276   134230   134184   134109   134029   133959   133878   133822 
  133785   133739   133718   133713   133695   133699   133732   133767 
  133806   133864   133929   133984   134030   134064   134103   134164 
  134211   134231   134254   134293   134335   134379   134414   134423 
  134439   134476   134495   134516   134553   134568   134559   134539 
  134501   134446   134392   134335   134271   134211   134168   134134 
  134104   134086   134071   134057   134056   134073   134090   134088 
  134069   134041   134022   134009   133991   133979   133983   134003 
  134026   134045   134068   134099   134125   134150   134187   134214 
  134221   134238   134260   134258   134246   134241   134252   134275 
  134299   134326   134345   134335   134337   134341   134325   134318 
  134312   134292   134257   134191   134126   134087   134034   133975 
  133941   133902   133856   133834   133829   133844   133871   133886 
  133902   133942   133986   134023   134069   134121   134157   134191 
  134226   134238   134242   134258   134277   134307   134327   134325 
  134316   134304   134289   134281   134272   134246   134212   134185 
  134167   134146   134133   134144   134167   134179   134196   134241 
  134285   134304   134323   134356   134380   134393   134396   134374 
  134345   134316   134279   134253   134241   134229   134230   134227 
  134210   134217   134238   134234   134244   134284   134304   134312 
  134362   134403   134387   134379   134365   134300   134261   134262 
  134238   134195   134169   134154   134136   134096   134046   134011 
  133992   133984   133984   133995   134023   134049   134064   134077 
  134072   134056   134061   134080   134080   134082   134130   134172 
  134169   134192   134235   134249   134281   134326   134343   134343 
  134319   134283   134264   134250   134231   134210   134185   134176 
  134167   134131   134117   134130   134122   134119   134148   134163 
  134154   134164   134191   134202   134206   134208   134202   134195 
  134181   134168   134172   134172   134160   134142   134111   134096 
  134118   134130   134110   134102   134113   134114   134110   134121 
  134134   134127   134114   134115   134118   134118   134100   134075 
  134079   134082   134079   134094   134110   134133   134184   134254 
  134306   134312   134315   134318   134298   134283   134287   134279 
  134249   134229   134242   134239   134218   134229   134242   134245 
  134260   134277   134303   134337   134349   134335   134296   134231 
  134168   134100   134032   133990   133976   133986   134005   134022 
  134049   134076   134106   134137   134157   134163   134160   134150 
  134144   134146   134148   134136   134123   134114   134098   134084 
  134080   134076   134056   134032   134032   134040   134034   134036 
  134053   134082   134123   134161   134169   134167   134165   134145 
  134117   134095   134069   134060   134075   134090   134125   134188 
  134249   134296   134337   134370   134397   134426   134446   134461 
  134489   134515   134523   134522   134520   134526   134524   134508 
  134487   134470   134458   134450   134437   134401   134358   134319 
  134284   134250   134210   134157   134103   134065   134048   134056 
  134071   134079   134102   134122   134130   134150   134173   134187 
  134195   134194   134202   134208   134195   134184   134165   134137 
  134114   134080   134056   134061   134073   134099   134134   134160 
  134194   134235   134262   134272   134283   134299   134304   134287 
  134248   134210   134185   134140   134090   134069   134046   134011 
  133994   133999   134025   134049   134038   134038   134075   134092 
  134082   134086   134082   134049   134026   133996   133961   133955 
  133949   133940   133952   133972   133992   134005   134015   134040 
  134079   134123   134175   134219   134234   134229   134234   134242 
  134231   134214   134219   134218   134195   134190   134176   134145 
  134141   134145   134137   134134   134145   134158   134167   134192 
  134223   134227   134212   134187   134150   134127   134107   134086 
  134090   134106   134113   134134   134150   134130   134119   134152 
  134191   134211   134226   134238   134231   134215   134226   134226 
  134200   134199   134208   134227   134254   134265   134284   134318 
  134338   134362   134385   134374   134366   134377   134385   134400 
  134418   134419   134407   134395   134407   134437   134430   134407 
  134401   134383   134362   134333   134276   134238   134226   134212 
  134208   134212   134218   134230   134248   134265   134285   134307 
  134315   134320   134330   134341   134349   134343   134339   134337 
  134323   134325   134335   134330   134329   134338   134333   134316 
  134296   134280   134262   134221   134152   134092   134052   134022 
  134009   134003   133991   133986   133991   134010   134048   134092 
  134113   134117   134114   134091   134060   134034   133996   133964 
  133948   133940   133930   133915   133944   133995   133987   133984 
  134042   134083   134102   134131   134145   134167   134210   134226 
  134233   134253   134249   134248   134269   134253   134202   134169 
  134131   134080   134060   134060   134042   134033   134017   133984 
  133979   133968   133938   133934   133926   133897   133886   133893 
  133895   133888   133884   133879   133866   133870   133888   133910 
  133953   134002   134048   134109   134168   134204   134231   134261 
  134291   134323   134370   134406   134423   134441   134462   134476 
  134472   134476   134487   134473   134453   134442   134427   134397 
  134369   134366   134361   134327   134288   134254   134226   134202 
  134191   134183   134161   134154   134148   134129   134137   134148 
  134127   134123   134150   134149   134119   134109   134107   134104 
  134099   134091   134109   134140   134154   134172   134188   134185 
  134191   134206   134202   134196   134223   134271   134284   134272 
  134272   134275   134275   134284   134288   134292   134300   134289 
  134265   134264   134269   134253   134242   134252   134248   134229 
  134215   134208   134206   134219   134244   134264   134289   134318 
  134326   134327   134338   134334   134312   134308   134318   134315 
