Origin Time       2025/06/03 22:18:00
Lat.              41.7
Long.             143.6
Depth. (km)       30
Mag.              5.2
Station Code      HDKH01
Station Lat.      42.7031
Station Long.     142.2296
Station Height(m) -18
Record Time       2025/06/03 22:19:13
Sampling Freq(Hz) 100Hz
Duration Time(s)  120
Dir.              1
Scale Factor      2942(gal)/8224139
Max. Acc. (gal)   0.306
Last Correction   2025/06/03 22:19:15
Memo.             
[...]
   41173    41150    41133    41126    41126    41127    41129    41133 
   41141    41148    41148    41143    41141    41138    41130    41116 
   41108    41098    41084    41076    41072    41061    41050    41046 
   41045    41052    41068    41089    41111    41137    41158    41173 
   41188    41204    41220    41238    41253    41266    41281    41296 
   41315    41332    41342    41350    41359    41368    41380    41389 
   41393    41393    41388    41382    41376    41366    41361    41357 
   41349    41339    41331    41320    41308    41297    41284    41273 
   41273    41280    41292    41312    41332    41351    41366    41372 
   41372    41365    41354    41341    41328    41319    41310    41301 
   41295    41296    41299    41305    41322    41334    41345    41358 
   41370    41384    41393    41397    41397    41392    41380    41368 
   41354    41339    41326    41310    41295    41287    41280    41276 
   41273    41269    41268    41273    41280    41285    41289    41291 
   41292    41288    41274    41256    41230    41199    41164    41129 
   41099    41079    41069    41068    41072    41079    41085    41089 
   41095    41103    41116    41134    41154    41177    41196    41210 
   41216    41215    41207    41192    41176    41162    41158    41168 
   41187    41208    41229    41247    41262    41276    41281    41280 
   41276    41264    41250    41241    41233    41229    41229    41230 
   41241    41262    41287    41311    41337    41359    41373    41377 
   41377    41377    41378    41385    41396    41404    41411    41415 
   41413    41407    41399    41389    41378    41373    41373    41370 
   41365    41361    41357    41351    41347    41346    41342    41331 
   41319    41304    41288    41276    41265    41257    41258    41260 
   41257    41260    41265    41266    41268    41273    41280    41285 
   41288    41291    41296    41307    41319    41332    41353    41369 
   41373    41374    41370    41358    41347    41334    41318    41300 
   41285    41273    41266    41260    41257    41258    41260    41261 
   41266    41268    41264    41253    41231    41203    41180    41165 
   41153    41148    41149    41150    41154    41164    41173    41183 
   41196    41211    41227    41249    41272    41295    41315    41330 
   41339    41342    41342    41343    41338    41332    41330    41323 
   41319    41318    41314    41311    41308    41304    41301    41301 
   41307    41315    41323    41334    41342    41342    41339    41334 
   41330    41327    41322    41318    41312    41299    41283    41265 
   41250    41241    41237    41241    41251    41264    41273    41277 
   41278    41278    41278    41273    41266    41258    41251    41243 
   41237    41229    41216    41204    41192    41185    41187    41188 
   41191    41197    41208    41215    41219    41218    41208    41193 
   41176    41157    41139    41122    41111    41106    41108    41121 
   41138    41158    41179    41192    41206    41226    41247    41270 
   41288    41299    41304    41305    41305    41299    41284    41266 
   41249    41229    41215    41208    41210    41215    41220    41227 
   41233    41233    41230    41220    41210    41207    41208    41211 
   41215    41216    41219    41227    41238    41253    41268    41277 
   41291    41310    41330    41342    41349    41351    41357    41359 
   41357    41359    41366    41368    41365    41361    41354    41343 
   41328    41315    41304    41296    41289    41292    41300    41308 
   41314    41320    41327    41331    41332    41334    41332    41327 
   41324    41320    41315    41312    41312    41316    41322    41326 
   41331    41335    41337    41335    41331    41326    41319    41310 
   41301    41297    41295    41291    41285    41276    41266    41258 
   41246    41234    41219    41203    41187    41173    41157    41141 
   41129    41116    41108    41108    41112    41115    41126    41145 
   41166    41191    41214    41233    41243    41245    41237    41224 
   41211    41197    41187    41185    41192    41197    41200    41203 
   41207    41208    41212    41222    41238    41256    41269    41278 
   41288    41299    41305    41310    41312    41316    41320    41322 
   41328    41338    41347    41358    41369    41381    41389    41391 
   41388    41381    41369    41355    41346    41337    41330    41328 
   41332    41342    41357    41373    41385    41393    41393    41388 
   41380    41372    41364    41355    41343    41330    41319    41304 
   41285    41266    41246    41229    41214    41204    41200    41202 
   41211    41223    41238    41256    41270    41281    41288    41291 
   41285    41277    41266    41251    41237    41226    41223    41224 
   41230    41241    41256    41270    41278    41284    41289    41289 
   41287    41288    41289    41288    41284    41284    41288    41293 
   41295    41292    41284    41273    41265    41258    41245    41229 
   41215    41203    41197    41199    41208    41223    41242    41265 
   41289    41308    41320    41331    41338    41341    41341    41339 
   41337    41337    41339    41343    41347    41349    41345    41345 
   41342    41335    41331    41328    41326    41322    41312    41300 
   41285    41270    41260    41257    41251    41242    41237    41233 
   41227    41223    41218    41212    41207    41197    41185    41176 
   41170    41168    41172    41183    41193    41206    41219    41237 
   41253    41270    41291    41316    41343    41369    41395    41413 
   41428    41442    41446    41440    41431    41413    41392    41378 
   41369    41359    41355    41351    41343    41335    41328    41320 
   41312    41305    41308    41314    41319    41326    41331    41332 
   41334    41331    41324    41323    41323    41324    41326    41326 
   41323    41316    41308    41299    41297    41299    41299    41296 
   41291    41285    41281    41274    41269    41270    41274    41284 
   41297    41310    41319    41323    41318    41303    41284    41260 
   41231    41208    41192    41180    41175    41173    41179    41187 
   41199    41212    41226    41239    41258    41273    41284    41295 
   41299    41292    41288    41280    41264    41254    41247    41241 
   41237    41238    41241    41246    41251    41256    41254    41246 
   41234    41216    41192    41175    41160    41145    41133    41127 
   41125    41126    41134    41141    41145    41145    41143    41142 
   41138    41134    41133    41127    41114    41099    41089    41081 
   41076    41079    41088    41098    41111    41123    41134    41142 
   41150    41157    41162    41173    41188    41196    41203    41206 
   41204    41203    41197    41196    41203    41214    41227    41242 
   41257    41274    41292    41304    41314    41323    41330    41332 
   41328    41323    41316    41301    41283    41264    41247    41239 
   41242    41243    41243    41247    41251    41251    41250    41250 
   41251    41251    41253    41256    41260    41265    41266    41264 
   41256    41249    41246    41242    41239    41239    41235    41229 
   41224    41219    41211    41203    41192    41185    41184    41181 
   41180    41183    41183    41180    41179    41181    41185    41189 
   41196    41212    41227    41241    41250    41260    41266    41273 
   41277    41278    41280    41285    41289    41293    41297    41300 
   41301    41308    41315    41320    41327    41332    41334    41332 
   41328    41318    41307    41297    41283    41269    41260    41256 
   41251    41251    41253    41260    41268    41274    41281    41289 
   41296    41307    41322    41338    41355    41370    41381    41389 
   41397    41403    41411    41420    41428    41445    41467    41490 
   41516    41536    41553    41565    41571    41561    41546    41531 
   41508    41480    41455    41434    41418    41413    41420    41431 
   41449    41469    41486    41505    41523    41535    41542    41544 
   41543    41539    41534    41528    41523    41521    41524    41520 
   41513    41512    41513    41516    41521    41532    41547    41561 
   41575    41586    41594    41596    41596    41596    41601    41609 
   41619    41627    41624    41612    41588    41547    41497    41442 
   41380    41316    41268    41239    41227    41229    41234    41239 
   41246    41246    41237    41226    41211    41193    41180    41170 
   41165    41166    41169    41169    41162    41150    41131    41106 
   41075    41045    41015    40983    40957    40944    40940    40937 
   40937    40938    40930    40914    40892    40865    40837    40810 
   40791    40786    40788    40803    40824    40845    40865    40883 
   40896    40905    40909    40911    40909    40906    40903    40894 
   40884    40882    40884    40892    40909    40929    40948    40965 
   40980    40988    40994    41000    41013    41034    41058    41085 
   41114    41139    41158    41169    41179    41187    41187    41184 
   41187    41188    41189    41192    41197    41203    41206    41208 
   41207    41200    41184    41164    41146    41125    41098    41072 
   41048    41021    41000    40991    40987    40994    41010    41031 
   41058    41091    41126    41161    41197    41235    41268    41296 
   41322    41342    41362    41376    41384    41393    41408    41426 
   41449    41474    41500    41520    41534    41540    41542    41538 
   41532    41528    41524    41520    41523    41527    41530    41536 
   41551    41570    41596    41627    41659    41688    41708    41725 
   41740    41743    41740    41742    41742    41740    41735    41728 
   41720    41704    41679    41661    41643    41619    41607    41602 
   41592    41582    41578    41567    41554    41544    41530    41509 
   41489    41469    41450    41439    41438    41442    41450    41466 
   41480    41488    41489    41485    41473    41453    41427    41397 
   41366    41337    41310    41287    41276    41273    41278    41288 
   41299    41307    41311    41307    41297    41283    41264    41241 
   41212    41180    41146    41106    41069    41037    41006    40981 
   40969    40964    40957    40948    40933    40911    40884    40851 
   40814    40779    40745    40713    40687    40671    40656    40641 
   40626    40614    40613    40622    40652    40701    40761    40830 
   40902    40964    41011    41041    41052    41050    41041    41025 
   41013    41002    40992    40983    40967    40945    40923    40898 
   40872    40859    40861    40872    40895    40932    40979    41031 
   41091    41162    41239    41314    41385    41453    41512    41563 
   41607    41650    41696    41744    41794    41840    41882    41917 
   41941    41962    41978    41994    42012    42028    42041    42059 
   42079    42095    42102    42095    42072    42028    41960    41870 
   41760    41643    41523    41408    41312    41231    41168    41126 
   41102    41088    41088    41100    41122    41154    41196    41247 
   41310    41374    41435    41492    41542    41574    41590    41598 
   41590    41570    41551    41532    41515    41501    41503    41515 
   41532    41554    41585    41620    41651    41677    41690    41686 
   41669    41638    41597    41553    41503    41446    41382    41315 
   41235    41142    41050    40964    40886    40825    40788    40774 
   40779    40794    40811    40825    40826    40815    40799    40774 
   40747    40725    40713    40713    40732    40765    40810    40860 
   40910    40959    41002    41037    41062    41079    41089    41096 
   41104    41119    41141    41165    41193    41219    41235    41247 
   41251    41249    41242    41233    41223    41220    41222    41230 
   41246    41269    41297    41323    41341    41351    41353    41345 
   41332    41322    41315    41320    41342    41380    41431    41486 
   41543    41592    41625    41646    41654    41647    41629    41604 
   41573    41534    41486    41438    41391    41342    41301    41274 
   41254    41243    41246    41250    41250    41247    41239    41222 
   41192    41153    41114    41075    41037    41010    40991    40979 
   40977    40977    40971    40964    40953    40940    40930    40925 
   40930    40949    40986    41040    41103    41169    41235    41297 
   41350    41395    41427    41446    41453    41450    41442    41424 
   41404    41388    41372    41349    41326    41301    41274    41247 
   41219    41188    41158    41125    41083    41038    40994    40952 
   40915    40894    40888    40899    40927    40975    41030    41091 
   41154    41216    41270    41316    41355    41386    41407    41424 
   41438    41443    41447    41458    41476    41496    41528    41571 
   41616    41663    41709    41746    41774    41789    41786    41777 
   41755    41710    41655    41588    41507    41424    41346    41276 
   41215    41166    41133    41116    41104    41095    41087    41076 
   41058    41044    41033    41027    41026    41034    41050    41067 
   41085    41108    41135    41161    41188    41220    41258    41296 
   41338    41381    41418    41451    41485    41517    41546    41566 
   41573    41569    41551    41517    41473    41428    41385    41339 
   41296    41258    41219    41175    41126    41072    41011    40946 
   40882    40818    40757    40703    40655    40614    40586    40566 
   40545    40529    40512    40491    40471    40450    40428    40416 
   40416    40428    40459    40504    40556    40616    40678    40737 
   40797    40859    40919    40979    41042    41107    41168    41224 
   41278    41327    41366    41399    41428    41450    41463    41478 
   41497    41520    41546    41580    41619    41654    41686    41720 
   41746    41764    41771    41769    41767    41769    41770    41774 
   41783    41791    41797    41798    41800    41804    41809    41820 
   41837    41854    41875    41899    41920    41932    41944    41952 
   41956    41960    41967    41970    41971    41968    41956    41933 
   41898    41847    41779    41698    41611    41517    41428    41345 
   41269    41200    41143    41095    41058    41035    41021    41008 
   40996    40986    40975    40968    40964    40968    40986    41013 
   41048    41089    41137    41180    41219    41257    41292    41328 
   41366    41404    41442    41481    41516    41543    41561    41559 
   41540    41515    41477    41432    41386    41338    41292    41257 
   41230    41210    41199    41192    41187    41183    41175    41162 
   41145    41123    41100    41075    41049    41030    41021    41018 
   41025    41040    41060    41083    41111    41139    41162    41177 
   41196    41215    41235    41258    41283    41311    41337    41357 
   41369    41373    41368    41353    41330    41301    41266    41231 
   41197    41170    41152    41141    41135    41134    41135    41137 
   41139    41141    41137    41133    41131    41126    41115    41102 
   41083    41061    41038    41015    40992    40973    40959    40949 
   40942    40940    40941    40941    40938    40934    40929    40918 
   40902    40880    40855    40828    40799    40776    40763    40756 
   40759    40767    40783    40807    40833    40857    40882    40900 
   40914    40919    40922    40921    40914    40909    40910    40914 
   40925    40950    40988    41030    41079    41131    41187    41247 
   41316    41386    41458    41532    41602    41666    41725    41773 
   41806    41835    41858    41872    41879    41881    41877    41864 
   41845    41817    41786    41762    41739    41717    41706    41708 
   41721    41746    41777    41814    41855    41894    41924    41940 
   41940    41920    41885    41837    41779    41719    41666    41621 
   41586    41557    41532    41509    41485    41465    41445    41423 
   41408    41397    41392    41393    41401    41416    41431    41443 
   41451    41447    41432    41408    41377    41343    41314    41289 
   41270    41258    41253    41249    41241    41231    41219    41197 
   41169    41145    41122    41100    41081    41067    41057    41057 
   41061    41067    41075    41091    41108    41121    41133    41149 
   41164    41176    41187    41193    41195    41191    41181    41169 
   41158    41146    41141    41139    41139    41148    41160    41175 
   41196    41220    41242    41261    41281    41293    41296    41296 
   41289    41269    41243    41218    41193    41166    41142    41121 
   41100    41080    41064    41050    41033    41014    40995    40977 
   40967    40956    40945    40938    40933    40926    40921    40913 
   40895    40871    40844    40815    40787    40757    40730    40706 
   40686    40668    40657    40655    40666    40682    40703    40736 
   40765    40788    40811    40834    40855    40871    40887    40910 
   40938    40969    41002    41041    41088    41138    41191    41245 
   41292    41339    41384    41423    41459    41496    41530    41563 
   41592    41613    41631    41647    41662    41675    41689    41705 
   41727    41750    41770    41790    41814    41837    41858    41882 
   41904    41914    41917    41921    41918    41908    41897    41891 
   41886    41877    41868    41860    41850    41833    41814    41797 
   41779    41758    41736    41717    41696    41671    41648    41627 
   41604    41580    41553    41526    41499    41474    41453    41434 
   41418    41403    41388    41370    41351    41328    41307    41291 
   41272    41254    41243    41233    41214    41196    41181    41164 
   41146    41139    41143    41152    41166    41184    41199    41215 
   41227    41233    41229    41219    41196    41161    41123    41079 
   41022    40965    40911    40857    40805    40755    40706    40660 
   40618    40578    40540    40508    40482    40467    40460    40463 
   40475    40502    40547    40595    40643    40697    40752    40806 
   40860    40909    40956    41008    41058    41107    41161    41215 
   41266    41316    41365    41407    41445    41481    41515    41538 
   41558    41575    41590    41604    41612    41617    41615    41604 
   41588    41573    41557    41543    41534    41534    41543    41563 
   41588    41613    41634    41646    41650    41647    41631    41608 
   41581    41553    41527    41503    41481    41466    41449    41431 
   41420    41411    41401    41395    41395    41393    41391    41386 
   41377    41366    41350    41330    41305    41280    41254    41222 
   41185    41152    41116    41087    41065    41048    41035    41033 
   41035    41041    41053    41068    41079    41089    41104    41118 
   41133    41153    41176    41202    41230    41253    41272    41288 
   41293    41293    41291    41284    41277    41277    41280    41283 
   41287    41296    41301    41303    41304    41303    41297    41292 
   41287    41277    41269    41258    41249    41247    41250    41256 
   41268    41284    41300    41316    41327    41338    41349    41355 
   41355    41357    41355    41351    41345    41334    41322    41316 
   41315    41319    41326    41339    41358    41373    41392    41415 
   41435    41454    41473    41486    41496    41501    41504    41503 
