Origin Time       2025/06/03 22:18:00
Lat.              41.7
Long.             143.6
Depth. (km)       30
Mag.              5.2
Station Code      HDKH05
Station Lat.      42.5977
Station Long.     142.5446
Station Height(m) 305
Record Time       2025/06/03 22:19:04
Sampling Freq(Hz) 100Hz
Duration Time(s)  120
Dir.              4
Scale Factor      3920(gal)/6170801
Max. Acc. (gal)   0.594
Last Correction   2025/06/03 22:18:48
Memo.             
[...]
   -4189    -4188    -4200    -4230    -4277    -4322    -4336    -4312 
   -4254    -4176    -4104    -4064    -4063    -4103    -4163    -4200 
   -4191    -4155    -4123    -4120    -4141    -4167    -4179    -4171 
   -4160    -4173    -4217    -4266    -4286    -4248    -4151    -4038 
   -3974    -3992    -4069    -4164    -4247    -4308    -4351    -4385 
   -4415    -4433    -4433    -4416    -4377    -4311    -4223    -4126 
   -4042    -3992    -3985    -4028    -4116    -4220    -4303    -4339 
   -4326    -4294    -4283    -4309    -4356    -4389    -4385    -4343 
   -4293    -4258    -4251    -4268    -4288    -4284    -4250    -4198 
   -4159    -4147    -4147    -4139    -4114    -4082    -4068    -4079 
   -4102    -4121    -4131    -4140    -4157    -4182    -4203    -4200 
   -4173    -4129    -4077    -4035    -4016    -4023    -4043    -4064 
   -4087    -4127    -4181    -4230    -4253    -4246    -4220    -4181 
   -4137    -4098    -4066    -4046    -4052    -4081    -4116    -4148 
   -4180    -4210    -4233    -4240    -4215    -4150    -4050    -3947 
   -3886    -3894    -3965    -4065    -4158    -4229    -4279    -4310 
   -4321    -4303    -4255    -4195    -4154    -4144    -4151    -4158 
   -4156    -4152    -4158    -4189    -4248    -4318    -4364    -4363 
   -4319    -4249    -4171    -4100    -4060    -4069    -4117    -4189 
   -4270    -4331    -4350    -4333    -4300    -4269    -4257    -4268 
   -4293    -4316    -4324    -4316    -4293    -4261    -4227    -4196 
   -4172    -4155    -4148    -4156    -4178    -4209    -4248    -4284 
   -4302    -4299    -4277    -4243    -4207    -4177    -4158    -4150 
   -4150    -4152    -4143    -4124    -4106    -4097    -4103    -4119 
   -4136    -4154    -4171    -4185    -4204    -4224    -4238    -4241 
   -4230    -4203    -4171    -4150    -4163    -4211    -4264    -4303 
   -4327    -4336    -4327    -4303    -4268    -4229    -4183    -4128 
   -4074    -4026    -3984    -3954    -3949    -3978    -4043    -4131 
   -4218    -4275    -4291    -4268    -4222    -4174    -4130    -4082 
   -4025    -3959    -3901    -3880    -3913    -3981    -4041    -4072 
   -4091    -4123    -4188    -4282    -4376    -4443    -4476    -4476 
   -4447    -4394    -4325    -4248    -4173    -4119    -4104    -4130 
   -4178    -4221    -4235    -4225    -4216    -4230    -4276    -4332 
   -4362    -4345    -4287    -4212    -4157    -4141    -4152    -4168 
   -4171    -4153    -4118    -4078    -4045    -4030    -4042    -4082 
   -4136    -4191    -4239    -4273    -4296    -4307    -4298    -4260 
   -4216    -4198    -4216    -4256    -4290    -4283    -4230    -4143 
   -4050    -3977    -3940    -3938    -3967    -4016    -4069    -4129 
   -4196    -4247    -4262    -4242    -4192    -4128    -4080    -4065 
   -4079    -4105    -4127    -4141    -4151    -4156    -4169    -4196 
   -4235    -4269    -4278    -4256    -4218    -4185    -4178    -4203 
   -4244    -4277    -4288    -4282    -4278    -4285    -4295    -4295 
   -4284    -4258    -4212    -4161    -4125    -4106    -4095    -4083 
   -4067    -4054    -4054    -4065    -4083    -4104    -4124    -4147 
   -4176    -4210    -4246    -4275    -4285    -4277    -4259    -4241 
   -4230    -4221    -4207    -4187    -4165    -4152    -4162    -4199 
   -4257    -4320    -4367    -4373    -4327    -4248    -4176    -4141 
   -4146    -4173    -4200    -4211    -4193    -4144    -4082    -4025 
   -3997    -4012    -4055    -4099    -4130    -4144    -4153    -4168 
   -4174    -4171    -4182    -4220    -4271    -4315    -4335    -4322 
   -4285    -4237    -4191    -4159    -4139    -4133    -4145    -4173 
   -4207    -4233    -4239    -4217    -4180    -4150    -4133    -4130 
   -4148    -4184    -4220    -4239    -4241    -4240    -4245    -4242 
   -4218    -4177    -4133    -4104    -4106    -4128    -4149    -4162 
   -4175    -4191    -4210    -4229    -4248    -4273    -4296    -4299 
   -4284    -4259    -4223    -4179    -4136    -4099    -4086    -4106 
   -4148    -4191    -4220    -4229    -4226    -4213    -4187    -4155 
   -4130    -4121    -4137    -4181    -4242    -4303    -4346    -4351 
   -4313    -4249    -4175    -4104    -4047    -4013    -4004    -4016 
   -4051    -4112    -4191    -4268    -4320    -4324    -4274    -4196 
   -4128    -4096    -4096    -4107    -4115    -4126    -4155    -4203 
   -4253    -4287    -4294    -4279    -4255    -4228    -4199    -4172 
   -4149    -4137    -4135    -4138    -4138    -4143    -4157    -4172 
   -4185    -4187    -4170    -4142    -4113    -4093    -4093    -4117 
   -4162    -4218    -4267    -4300    -4318    -4323    -4317    -4302 
   -4281    -4255    -4233    -4226    -4244    -4278    -4314    -4333 
   -4328    -4306    -4275    -4235    -4193    -4156    -4134    -4141 
   -4171    -4198    -4208    -4199    -4179    -4157    -4138    -4125 
   -4120    -4120    -4125    -4132    -4137    -4135    -4129    -4126 
   -4131    -4158    -4203    -4241    -4256    -4249    -4224    -4196 
   -4181    -4180    -4179    -4170    -4153    -4130    -4099    -4067 
   -4051    -4061    -4098    -4150    -4201    -4235    -4235    -4207 
   -4168    -4138    -4122    -4116    -4114    -4112    -4110    -4119 
   -4148    -4193    -4234    -4254    -4248    -4221    -4196    -4196 
   -4219    -4247    -4269    -4278    -4269    -4237    -4192    -4146 
   -4116    -4111    -4133    -4170    -4209    -4245    -4274    -4286 
   -4283    -4262    -4221    -4170    -4118    -4069    -4031    -4010 
   -4011    -4039    -4087    -4138    -4178    -4193    -4183    -4160 
   -4146    -4160    -4204    -4267    -4338    -4403    -4444    -4438 
   -4382    -4291    -4192    -4110    -4058    -4043    -4056    -4086 
   -4127    -4164    -4192    -4212    -4225    -4240    -4257    -4267 
   -4263    -4246    -4219    -4193    -4176    -4167    -4164    -4163 
   -4158    -4154    -4162    -4178    -4207    -4244    -4264    -4252 
   -4209    -4147    -4099    -4087    -4107    -4145    -4188    -4227 
   -4261    -4290    -4309    -4309    -4286    -4247    -4194    -4131 
   -4069    -4026    -4008    -4020    -4056    -4110    -4167    -4210 
   -4228    -4222    -4197    -4168    -4165    -4199    -4259    -4325 
   -4363    -4367    -4354    -4333    -4311    -4294    -4277    -4264 
   -4269    -4296    -4340    -4387    -4410    -4396    -4352    -4294 
   -4230    -4173    -4133    -4110    -4102    -4107    -4120    -4134 
   -4141    -4135    -4116    -4090    -4065    -4045    -4030    -4024 
   -4038    -4073    -4110    -4145    -4174    -4188    -4198    -4220 
   -4252    -4281    -4292    -4280    -4254    -4226    -4203    -4182 
   -4156    -4124    -4095    -4071    -4055    -4045    -4035    -4038 
   -4066    -4109    -4157    -4191    -4192    -4162    -4116    -4062 
   -4012    -3988    -4004    -4054    -4120    -4176    -4217    -4253 
   -4279    -4290    -4295    -4295    -4297    -4299    -4288    -4264 
   -4239    -4217    -4188    -4144    -4088    -4033    -4001    -4004 
   -4035    -4080    -4120    -4134    -4124    -4102    -4089    -4114 
   -4183    -4277    -4370    -4446    -4497    -4517    -4502    -4452 
   -4378    -4311    -4268    -4248    -4240    -4227    -4198    -4153 
   -4105    -4071    -4064    -4086    -4122    -4143    -4139    -4117 
   -4088    -4068    -4068    -4089    -4121    -4153    -4181    -4209 
   -4242    -4280    -4312    -4324    -4304    -4260    -4217    -4192 
   -4193    -4220    -4265    -4311    -4345    -4364    -4362    -4343 
   -4315    -4278    -4231    -4172    -4104    -4039    -3993    -3974 
   -3989    -4035    -4090    -4139    -4168    -4171    -4155    -4138 
   -4133    -4147    -4172    -4193    -4201    -4200    -4204    -4230 
   -4276    -4323    -4354    -4352    -4313    -4255    -4202    -4172 
   -4162    -4164    -4165    -4156    -4144    -4144    -4155    -4167 
   -4171    -4166    -4150    -4124    -4084    -4024    -3951    -3891 
   -3877    -3924    -4021    -4139    -4242    -4299    -4313    -4300 
   -4274    -4243    -4209    -4171    -4141    -4140    -4179    -4246 
   -4314    -4361    -4376    -4350    -4298    -4248    -4209    -4174 
   -4138    -4106    -4086    -4072    -4059    -4053    -4058    -4074 
   -4109    -4160    -4216    -4266    -4296    -4298    -4273    -4226 
   -4165    -4107    -4064    -4038    -4032    -4045    -4077    -4126 
   -4193    -4274    -4344    -4380    -4382    -4360    -4321    -4277 
   -4244    -4232    -4240    -4262    -4288    -4304    -4295    -4258 
   -4206    -4158    -4128    -4125    -4145    -4170    -4184    -4186 
   -4182    -4171    -4151    -4121    -4079    -4035    -4015    -4029 
   -4072    -4129    -4168    -4177    -4166    -4148    -4137    -4135 
   -4138    -4150    -4175    -4213    -4264    -4320    -4363    -4375 
   -4341    -4268    -4184    -4116    -4077    -4067    -4076    -4094 
   -4112    -4123    -4131    -4141    -4156    -4172    -4171    -4139 
   -4088    -4037    -4011    -4022    -4059    -4106    -4153    -4188 
   -4199    -4189    -4174    -4161    -4152    -4146    -4135    -4121 
   -4115    -4115    -4112    -4099    -4077    -4060    -4065    -4093 
   -4124    -4139    -4139    -4125    -4107    -4096    -4098    -4115 
   -4142    -4178    -4215    -4248    -4278    -4309    -4347    -4395 
   -4441    -4475    -4497    -4498    -4468    -4417    -4365    -4325 
   -4310    -4325    -4360    -4400    -4432    -4452    -4461    -4465 
   -4461    -4443    -4421    -4394    -4354    -4305    -4254    -4217 
   -4206    -4219    -4242    -4265    -4290    -4315    -4336    -4342 
   -4322    -4275    -4207    -4135    -4076    -4043    -4038    -4062 
   -4108    -4164    -4220    -4273    -4313    -4326    -4301    -4243 
   -4176    -4133    -4135    -4190    -4276    -4362    -4425    -4459 
   -4469    -4464    -4451    -4435    -4420    -4405    -4389    -4370 
   -4344    -4313    -4279    -4240    -4193    -4135    -4066    -3995 
   -3934    -3899    -3898    -3920    -3950    -3992    -4041    -4083 
   -4101    -4074    -3987    -3855    -3707    -3575    -3481    -3424 
   -3388    -3372    -3373    -3394    -3437    -3494    -3551    -3620 
   -3705    -3800    -3892    -3974    -4043    -4095    -4126    -4130 
   -4107    -4077    -4071    -4107    -4195    -4323    -4468    -4604 
   -4700    -4731    -4691    -4591    -4455    -4307    -4171    -4069 
   -4022    -4034    -4091    -4170    -4245    -4297    -4327    -4338 
   -4329    -4314    -4311    -4339    -4414    -4525    -4636    -4709 
   -4723    -4681    -4606    -4521    -4435    -4356    -4301    -4286 
   -4329    -4432    -4577    -4720    -4805    -4797    -4695    -4522 
   -4320    -4125    -3962    -3846    -3785    -3788    -3851    -3956 
   -4086    -4217    -4319    -4369    -4359    -4306    -4235    -4165 
   -4101    -4040    -3975    -3903    -3827    -3755    -3693    -3646 
   -3613    -3602    -3618    -3658    -3709    -3756    -3787    -3804 
   -3826    -3888    -4000    -4137    -4252    -4301    -4269    -4174 
   -4044    -3906    -3779    -3672    -3598    -3576    -3614    -3702 
   -3830    -3992    -4178    -4359    -4512    -4617    -4662    -4656 
   -4622    -4588    -4574    -4594    -4642    -4700    -4746    -4761 
   -4748    -4730    -4731    -4758    -4805    -4849    -4878    -4882 
   -4858    -4809    -4739    -4639    -4508    -4353    -4191    -4046 
   -3946    -3910    -3939    -4030    -4183    -4395    -4633    -4839 
   -4963    -4970    -4865    -4691    -4502    -4338    -4223    -4152 
   -4100    -4051    -4010    -4001    -4040    -4121    -4219    -4296 
   -4333    -4336    -4328    -4333    -4357    -4375    -4362    -4298 
   -4171    -3993    -3803    -3642    -3542    -3519    -3566    -3657 
   -3772    -3902    -4036    -4153    -4236    -4273    -4235    -4113 
   -3929    -3726    -3555    -3464    -3477    -3589    -3762    -3953 
   -4129    -4267    -4351    -4380    -4349    -4259    -4126    -3982 
   -3852    -3745    -3661    -3594    -3548    -3538    -3578    -3663 
   -3774    -3878    -3948    -3988    -4021    -4065    -4125    -4189 
   -4243    -4273    -4278    -4269    -4245    -4208    -4160    -4112 
   -4090    -4115    -4201    -4345    -4515    -4672    -4780    -4814 
   -4760    -4623    -4433    -4237    -4078    -3988    -3980    -4044 
   -4146    -4246    -4320    -4360    -4377    -4378    -4357    -4312 
   -4253    -4191    -4151    -4147    -4170    -4190    -4182    -4135 
   -4052    -3962    -3896    -3888    -3968    -4143    -4383    -4636 
   -4848    -4969    -4981    -4900    -4761    -4605    -4461    -4335 
   -4232    -4164    -4141    -4175    -4253    -4338    -4396    -4404 
   -4352    -4250    -4116    -3970    -3818    -3667    -3533    -3444 
   -3423    -3482    -3614    -3791    -3971    -4131    -4248    -4300 
   -4286    -4220    -4127    -4032    -3954    -3915    -3937    -4025 
   -4159    -4321    -4492    -4651    -4773    -4839    -4839    -4783 
   -4684    -4554    -4415    -4286    -4181    -4127    -4133    -4167 
   -4198    -4208    -4184    -4123    -4035    -3939    -3852    -3782 
   -3728    -3694    -3691    -3740    -3863    -4059    -4288    -4496 
   -4656    -4759    -4806    -4805    -4757    -4667    -4538    -4384 
   -4219    -4057    -3913    -3814    -3789    -3850    -3991    -4167 
   -4305    -4341    -4247    -4031    -3755    -3502    -3326    -3252 
   -3277    -3374    -3522    -3711    -3931    -4168    -4393    -4575 
   -4700    -4765    -4788    -4793    -4789    -4784    -4779    -4774 
   -4765    -4757    -4743    -4714    -4662    -4585    -4481    -4355 
   -4217    -4069    -3918    -3782    -3693    -3677    -3738    -3852 
   -3976    -4067    -4099    -4068    -4001    -3937    -3906    -3910 
   -3944    -3988    -4028    -4059    -4084    -4100    -4105    -4099 
   -4086    -4080    -4089    -4109    -4141    -4174    -4189    -4178 
   -4148    -4111    -4091    -4095    -4115    -4164    -4245    -4348 
   -4453    -4526    -4531    -4466    -4357    -4239    -4137    -4070 
   -4037    -4029    -4036    -4052    -4070    -4093    -4122    -4141 
   -4129    -4079    -4004    -3932    -3892    -3903    -3967    -4073 
   -4197    -4319    -4426    -4507    -4555    -4567    -4552    -4523 
   -4495    -4485    -4498    -4535    -4592    -4649    -4688    -4700 
   -4667    -4582    -4456    -4309    -4163    -4030    -3920    -3852 
   -3848    -3909    -4021    -4148    -4239    -4256    -4197    -4081 
   -3944    -3834    -3793    -3829    -3913    -3994    -4038    -4046 
   -4029    -4014    -4037    -4105    -4204    -4317    -4426    -4520 
   -4599    -4667    -4725    -4770    -4789    -4764    -4687    -4573 
   -4445    -4332    -4262    -4246    -4260    -4272    -4256    -4204 
   -4123    -4030    -3946    -3877    -3810    -3731    -3638    -3545 
   -3472    -3440    -3468    -3557    -3692    -3859    -4036    -4191 
   -4295    -4328    -4290    -4201    -4092    -4000    -3954    -3968 
   -4029    -4117    -4218    -4315    -4396    -4452    -4473    -4443 
   -4360    -4244    -4135    -4056    -4020    -4039    -4109    -4210 
   -4314    -4384    -4400    -4361    -4290    -4219    -4168    -4146 
   -4154    -4179    -4205    -4221    -4226    -4225    -4226    -4240 
   -4281    -4355    -4450    -4543    -4607    -4625    -4600    -4549 
   -4495    -4456    -4447    -4475    -4533    -4603    -4668    -4712 
   -4711    -4659    -4568    -4460    -4363    -4298    -4268    -4257 
   -4246    -4229    -4208    -4173    -4105    -4003    -3880    -3757 
   -3655    -3584    -3547    -3544    -3572    -3625    -3690    -3753 
   -3804    -3837    -3854    -3860    -3865    -3877    -3897    -3916 
   -3931    -3950    -3993    -4077    -4192    -4306    -4390    -4413 
   -4375    -4307    -4248    -4220    -4221    -4230    -4224    -4200 
   -4168    -4138    -4117    -4106    -4095    -4084    -4081    -4092 
   -4121    -4162    -4201    -4230    -4249    -4265    -4280    -4287 
   -4279    -4253    -4213    -4176    -4166    -4201    -4278    -4376 
   -4468    -4536    -4574    -4578    -4555    -4513    -4465    -4417 
   -4382    -4357    -4323    -4262    -4177    -4075    -3970    -3882 
   -3829    -3825    -3879    -3983    -4118    -4256    -4371    -4450 
   -4478    -4447    -4365    -4250    -4118    -3987    -3871    -3790 
   -3762    -3790    -3861    -3956    -4053    -4139    -4213    -4276 
   -4321    -4328    -4290    -4220    -4131    -4038    -3958    -3905 
   -3895    -3933    -4022    -4154    -4300    -4421    -4489    -4485 
   -4414    -4300    -4173    -4062    -3982    -3934    -3909    -3895 
   -3882    -3867    -3851    -3845    -3857    -3888    -3941    -4014 
   -4103    -4201    -4291    -4363    -4415    -4449    -4471    -4484 
   -4476    -4438    -4375    -4300    -4229    -4175    -4148    -4161 
   -4222    -4327    -4464    -4602    -4705    -4743    -4695    -4568 
   -4402    -4231    -4087    -4003    -3994    -4059    -4180    -4320 
   -4431    -4493    -4506    -4482    -4456    -4447    -4446    -4442 
   -4420    -4370    -4298    -4215    -4131    -4062    -4024    -4021 
   -4049    -4101    -4169    -4238    -4289    -4306    -4283    -4229 
   -4159    -4079    -3987    -3891    -3803    -3737    -3710    -3725 
   -3771    -3828    -3877    -3911    -3926    -3932    -3945    -3976 
   -4017    -4053    -4072    -4075    -4072    -4075    -4101    -4156 
   -4225    -4286    -4324    -4324    -4291    -4250    -4221    -4217 
   -4236    -4268    -4299    -4329    -4359    -4390    -4414    -4429 
   -4436    -4432    -4420    -4407    -4396    -4385    -4372    -4359 
   -4352    -4347    -4337    -4317    -4282    -4235    -4192    -4173 
   -4182    -4218    -4269    -4324    -4368    -4396    -4407    -4407 
   -4392    -4367    -4344    -4332    -4330    -4326    -4310    -4276 
   -4223    -4161    -4108    -4085    -4105    -4154    -4211    -4259 
   -4287    -4289    -4266    -4225    -4172    -4121    -4080    -4060 
   -4064    -4090    -4129    -4178    -4233    -4283    -4324    -4345 
   -4336    -4298    -4233    -4146    -4052    -3960    -3880    -3827 
   -3808    -3813    -3836    -3871    -3905    -3921    -3917    -3900 
   -3878    -3861    -3850    -3838    -3826    -3826    -3846    -3887 
   -3937    -3984    -4023    -4046    -4045    -4017    -3967    -3905 
   -3845    -3803    -3784    -3788    -3808    -3841    -3893    -3968 
   -4072    -4201    -4331    -4438    -4507    -4530    -4518    -4492 
   -4469    -4455    -4454    -4471    -4511    -4564    -4613    -4636 
   -4625    -4574    -4485    -4380    -4274    -4184    -4127    -4107 
   -4109    -4117    -4121    -4132    -4170    -4236    -4315    -4390 
   -4442    -4464    -4461    -4437    -4400    -4369    -4364    -4391 
   -4438    -4475    -4476    -4444    -4400    -4360    -4324    -4286 
   -4241    -4189    -4129    -4055    -3972    -3900    -3861    -3855 
   -3870    -3892    -3914    -3937    -3965    -4008    -4063    -4123 
   -4183    -4235    -4265    -4265    -4235    -4188    -4142    -4108 
   -4096    -4109    -4147    -4213    -4298    -4395    -4492    -4572 
