Origin Time       2025/06/03 22:18:00
Lat.              41.7
Long.             143.6
Depth. (km)       30
Mag.              5.2
Station Code      HDKH02
Station Lat.      42.7061
Station Long.     142.4054
Station Height(m) 230
Record Time       2025/06/03 22:19:03
Sampling Freq(Hz) 100Hz
Duration Time(s)  120
Dir.              6
Scale Factor      3920(gal)/6170801
Max. Acc. (gal)   0.594
Last Correction   2025/06/03 22:18:48
Memo.             
[...]
    5681     5672     5708     5778     5850     5892     5902     5899 
    5881     5846     5807     5782     5780     5803     5846     5883 
    5892     5875     5854     5847     5850     5846     5832     5815 
    5803     5789     5770     5750     5745     5768     5812     5847 
    5846     5813     5780     5772     5790     5823     5855     5869 
    5864     5859     5873     5895     5902     5889     5875     5882 
    5926     5983     5995     5936     5839     5779     5808     5909 
    6004     6024     5966     5882     5838     5848     5873     5862 
    5798     5733     5740     5826     5936     5991     5963     5893 
    5848     5875     5963     6038     6036     5958     5850     5774 
    5748     5741     5718     5670     5618     5588     5589     5619 
    5668     5730     5790     5823     5810     5754     5690     5661 
    5686     5750     5808     5813     5765     5699     5667     5712 
    5815     5901     5910     5856     5803     5786     5796     5807 
    5804     5798     5811     5849     5893     5908     5875     5814 
    5763     5740     5740     5745     5744     5744     5760     5791 
    5827     5849     5845     5820     5792     5776     5772     5771 
    5781     5805     5833     5850     5840     5816     5801     5799 
    5796     5786     5775     5777     5801     5836     5856     5831 
    5767     5713     5716     5775     5846     5888     5898     5914 
    5959     6009     6027     6008     5987     6000     6050     6101 
    6114     6074     5999     5926     5883     5882     5906     5908 
    5889     5899     5955     6025     6070     6067     6022     5959 
    5899     5856     5842     5846     5840     5815     5797     5812 
    5858     5915     5947     5936     5897     5850     5819     5812 
    5812     5794     5751     5692     5645     5641     5692     5765 
    5802     5774     5701     5628     5603     5637     5696     5735 
    5743     5739     5752     5794     5827     5816     5770     5712 
    5675     5683     5724     5768     5800     5816     5832     5862 
    5896     5911     5892     5858     5834     5824     5822     5822 
    5825     5837     5854     5869     5876     5877     5879     5881 
    5874     5846     5803     5762     5750     5769     5795     5801 
    5782     5761     5758     5776     5810     5844     5858     5850 
    5841     5842     5856     5873     5877     5858     5834     5840 
    5884     5922     5913     5847     5755     5690     5681     5716 
    5753     5763     5757     5770     5819     5886     5934     5934 
    5883     5820     5784     5788     5820     5862     5900     5931 
    5951     5942     5894     5827     5780     5781     5832     5901 
    5942     5942     5922     5900     5875     5843     5809     5790 
    5789     5808     5843     5875     5884     5869     5839     5804 
    5770     5754     5769     5809     5852     5864     5835     5788 
    5744     5717     5708     5700     5690     5690     5693     5704 
    5732     5759     5773     5792     5822     5849     5853     5816 
    5739     5668     5652     5705     5803     5908     5986     6021 
    6026     6023     6033     6050     6048     6023     5993     5978 
    5978     5973     5954     5933     5904     5852     5784     5723 
    5687     5680     5697     5715     5706     5671     5638     5644 
    5700     5772     5812     5798     5734     5654     5590     5558 
    5562     5598     5651     5717     5793     5864     5916     5948 
    5977     6019     6069     6096     6083     6035     5961     5887 
    5837     5815     5818     5841     5872     5893     5887     5855 
    5819     5799     5796     5792     5789     5803     5826     5845 
    5856     5853     5829     5791     5754     5734     5737     5755 
    5774     5792     5808     5812     5802     5789     5777     5766 
    5758     5761     5785     5832     5885     5910     5885     5817 
    5735     5670     5653     5683     5729     5767     5801     5847 
    5909     5965     5986     5948     5868     5804     5789     5813 
    5836     5820     5764     5711     5699     5733     5788     5817 
    5793     5746     5730     5767     5837     5891     5893     5856 
    5824     5814     5815     5815     5810     5803     5806     5837 
    5890     5923     5915     5874     5820     5786     5787     5807 
    5821     5820     5807     5790     5769     5745     5713     5683 
    5689     5745     5825     5908     5981     6033     6061     6061 
    6041     6022     6022     6050     6106     6159     6168     6123 
    6058     6007     5988     5992     5982     5927     5847     5785 
    5770     5796     5821     5815     5794     5793     5816     5842 
    5848     5832     5801     5771     5752     5751     5761     5756 
    5724     5687     5672     5694     5753     5828     5897     5935 
    5926     5880     5830     5809     5821     5844     5862     5875 
    5877     5870     5872     5888     5898     5876     5810     5720 
    5645     5612     5616     5633     5641     5621     5572     5532 
    5535     5579     5644     5707     5752     5780     5790     5788 
    5784     5789     5812     5844     5859     5849     5833     5831 
    5853     5900     5954     5981     5959     5904     5857     5846 
    5860     5866     5849     5825     5812     5804     5793     5781 
    5773     5764     5736     5697     5664     5643     5643     5680 
    5737     5788     5818     5823     5813     5814     5835     5854 
    5865     5875     5882     5886     5895     5905     5902     5882 
    5847     5812     5798     5813     5832     5840     5842     5839 
    5831     5842     5880     5928     5964     5973     5956     5941 
    5947     5961     5957     5923     5858     5784     5737     5743 
    5780     5810     5822     5821     5828     5861     5914     5958 
    5967     5951     5933     5922     5931     5964     5991     5976 
    5917     5830     5759     5742     5773     5823     5854     5838 
    5795     5774     5799     5866     5934     5936     5863     5771 
    5709     5681     5670     5662     5646     5636     5653     5691 
    5731     5780     5850     5921     5974     6008     6013     5985 
    5949     5924     5906     5877     5836     5799     5781     5792 
    5831     5877     5900     5884     5843     5807     5802     5831 
    5874     5915     5941     5933     5884     5814     5746     5689 
    5637     5586     5555     5557     5578     5594     5609     5628 
    5657     5710     5784     5839     5840     5789     5719     5672 
    5671     5705     5754     5808     5854     5879     5878     5850 
    5801     5755     5722     5703     5698     5701     5707     5719 
    5737     5750     5757     5762     5771     5796     5835     5859 
    5859     5848     5839     5842     5861     5875     5863     5836 
    5820     5827     5855     5890     5913     5913     5891     5861 
    5842     5830     5815     5814     5849     5918     5998     6067 
    6096     6073     6027     6007     6030     6061     6061     6018 
    5955     5922     5948     6007     6052     6054     6016     5963 
    5937     5946     5951     5928     5890     5848     5810     5798 
    5821     5858     5875     5865     5838     5800     5757     5721 
    5703     5705     5726     5748     5755     5747     5735     5731 
    5740     5769     5806     5827     5825     5810     5794     5786 
    5790     5803     5814     5827     5860     5919     5981     6021 
    6026     5998     5953     5912     5881     5853     5831     5822 
    5824     5818     5787     5742     5714     5710     5715     5713 
    5694     5663     5644     5664     5705     5729     5715     5672 
    5621     5589     5583     5601     5628     5651     5670     5684 
    5695     5711     5735     5767     5803     5833     5853     5873 
    5904     5944     5983     6004     5993     5957     5907     5850 
    5804     5791     5815     5861     5906     5933     5935     5912 
    5875     5838     5805     5782     5778     5792     5816     5835 
    5841     5842     5844     5843     5837     5824     5813     5831 
    5876     5907     5903     5878     5856     5847     5851     5854 
    5845     5827     5814     5819     5840     5856     5849     5825 
    5809     5811     5823     5833     5840     5844     5847     5849 
    5851     5860     5869     5868     5863     5854     5825     5778 
    5737     5729     5759     5811     5861     5897     5909     5884 
    5836     5797     5781     5783     5795     5810     5813     5793 
    5764     5757     5777     5803     5824     5829     5812     5806 
    5836     5867     5859     5811     5760     5738     5753     5785 
    5804     5793     5761     5731     5711     5713     5734     5763 
    5807     5872     5933     5958     5935     5881     5839     5832 
    5842     5841     5825     5801     5780     5764     5746     5726 
    5713     5715     5734     5773     5820     5859     5877     5866 
    5814     5735     5672     5664     5704     5757     5788     5781 
    5752     5748     5802     5891     5949     5926     5841     5758 
    5734     5785     5869     5924     5916     5874     5852     5870 
    5905     5920     5888     5818     5754     5730     5740     5764 
    5779     5772     5764     5788     5844     5902     5932     5929 
    5912     5896     5897     5914     5927     5935     5940     5951 
    5978     6015     6029     6001     5929     5844     5785     5767 
    5771     5783     5798     5804     5793     5774     5763     5762 
    5768     5780     5784     5775     5761     5745     5718     5681 
    5638     5599     5586     5612     5677     5769     5858     5912 
    5918     5886     5842     5808     5788     5780     5780     5779 
    5779     5789     5816     5850     5870     5869     5861     5861 
    5868     5877     5885     5884     5867     5854     5855     5857 
    5859     5874     5898     5912     5907     5879     5837     5797 
    5772     5753     5732     5714     5704     5706     5721     5740 
    5769     5818     5876     5910     5892     5825     5743     5691 
    5701     5760     5820     5849     5848     5834     5831     5854 
    5886     5893     5862     5819     5800     5816     5860     5914 
    5957     5981     5998     6012     6012     5985     5939     5891 
    5853     5828     5805     5776     5749     5738     5752     5793 
    5846     5873     5864     5833     5800     5777     5766     5763 
    5759     5759     5785     5844     5916     5970     5988     5969 
    5929     5890     5862     5846     5841     5838     5833     5832 
    5847     5883     5920     5927     5903     5870     5859     5874 
    5875     5826     5732     5625     5555     5557     5610     5659 
    5677     5681     5697     5729     5743     5708     5643     5601 
    5624     5709     5810     5876     5894     5897     5908     5929 
    5947     5960     5979     6005     6025     6036     6034     6016 
    5992     5987     6020     6079     6128     6144     6131     6109 
    6092     6081     6073     6073     6083     6084     6066     6046 
    6044     6060     6083     6104     6124     6138     6131     6100 
    6066     6037     6010     5986     5963     5924     5870     5830 
    5831     5873     5922     5922     5862     5777     5702     5651 
    5620     5596     5577     5570     5572     5568     5551     5529 
    5510     5508     5520     5540     5557     5559     5537     5506 
    5488     5481     5475     5474     5475     5468     5458     5451 
    5455     5489     5542     5580     5583     5570     5582     5640 
    5730     5827     5892     5905     5903     5909     5909     5895 
    5860     5810     5774     5775     5815     5885     5955     6004 
    6028     6022     5995     5959     5919     5882     5866     5874 
    5897     5927     5959     5981     5998     6022     6045     6057 
    6075     6113     6168     6226     6282     6326     6353     6382 
    6417     6426     6387     6314     6238     6187     6170     6165 
    6142     6102     6057     6013     5985     5971     5946     5887 
    5790     5672     5574     5522     5499     5475     5433     5380 
    5343     5334     5338     5325     5276     5219     5206     5237 
    5277     5290     5268     5236     5243     5315     5435     5549 
    5629     5680     5714     5742     5764     5770     5757     5737 
    5724     5727     5730     5725     5729     5746     5756     5743 
    5718     5706     5730     5786     5846     5880     5866     5796 
    5703     5630     5596     5598     5618     5636     5661     5722 
    5821     5920     5977     5980     5949     5913     5899     5912 
    5928     5928     5920     5929     5965     6009     6029     6024 
    6019     6032     6064     6100     6122     6131     6135     6137 
    6128     6088     5999     5885     5807     5790     5812     5847 
    5876     5900     5924     5946     5951     5938     5919     5918 
    5948     5995     6030     6046     6069     6117     6185     6244 
    6265     6245     6202     6160     6134     6122     6113     6099 
    6079     6052     6012     5951     5861     5751     5649     5563 
    5477     5392     5315     5240     5169     5126     5112     5104 
    5080     5028     4962     4911     4892     4897     4922     4962 
    5009     5048     5090     5168     5289     5428     5554     5650 
    5714     5769     5850     5969     6108     6232     6307     6332 
    6328     6329     6357     6416     6483     6527     6541     6537 
    6517     6498     6494     6502     6514     6523     6518     6493 
    6452     6402     6359     6337     6331     6313     6263     6185 
    6087     5995     5939     5924     5927     5917     5874     5806 
    5747     5729     5756     5803     5830     5805     5727     5651 
    5632     5661     5691     5683     5630     5566     5544     5583 
    5653     5694     5675     5616     5555     5513     5493     5491 
    5490     5483     5474     5457     5429     5400     5375     5358 
    5353     5351     5341     5316     5291     5290     5311     5349 
    5409     5490     5582     5681     5773     5845     5902     5966 
    6046     6131     6206     6250     6264     6265     6264     6260 
    6260     6265     6270     6270     6251     6226     6225     6246 
    6260     6246     6193     6108     6025     5975     5955     5939 
    5904     5845     5773     5711     5657     5590     5508     5436 
    5404     5441     5528     5614     5665     5692     5729     5780 
    5807     5794     5759     5720     5699     5727     5805     5891 
    5945     5963     5954     5934     5921     5917     5916     5916 
    5918     5912     5894     5872     5851     5842     5842     5837 
    5830     5830     5845     5874     5901     5896     5849     5781 
    5723     5701     5722     5776     5850     5930     6003     6057 
    6078     6067     6032     5989     5963     5971     6002     6033 
    6051     6045     6020     5983     5936     5877     5797     5686 
    5568     5485     5461     5496     5567     5640     5689     5712 
    5723     5740     5772     5796     5788     5753     5710     5683 
    5697     5748     5811     5876     5937     5992     6040     6072 
    6073     6045     6002     5973     5981     6010     6021     5987 
    5919     5861     5850     5876     5900     5887     5823     5731 
    5661     5654     5689     5705     5677     5632     5611     5639 
    5703     5761     5776     5749     5699     5651     5622     5603 
    5579     5561     5573     5617     5666     5694     5687     5650 
    5608     5593     5618     5652     5654     5606     5525     5461 
    5459     5516     5600     5666     5688     5683     5696     5745 
    5808     5854     5872     5877     5891     5920     5956     5985 
    5992     5982     5964     5945     5955     6004     6056     6075 
    6057     6013     5967     5948     5958     5960     5923     5849 
    5770     5716     5686     5667     5653     5652     5674     5716 
    5754     5767     5750     5723     5719     5741     5767     5771 
    5745     5711     5702     5731     5784     5842     5887     5911 
    5924     5946     5986     6027     6041     6032     6024     6029 
    6045     6066     6081     6084     6080     6069     6046     6012 
    5978     5948     5934     5944     5966     5981     5977     5968 
    5977     6004     6033     6055     6079     6103     6113     6102 
    6079     6057     6035     6002     5958     5921     5912     5934 
    5973     6006     6015     5996     5959     5920     5886     5848 
    5797     5742     5696     5672     5680     5714     5754     5785 
    5802     5804     5794     5777     5758     5737     5712     5673 
    5613     5550     5513     5521     5570     5642     5709     5754 
    5783     5806     5835     5873     5907     5918     5897     5851 
    5796     5743     5697     5662     5648     5655     5675     5701 
    5735     5785     5843     5888     5913     5916     5912     5928 
    5965     6006     6033     6025     5977     5898     5808     5730 
    5680     5659     5661     5680     5710     5752     5790     5799 
    5769     5715     5668     5647     5639     5618     5572     5511 
    5443     5383     5346     5335     5343     5374     5433     5504 
    5571     5622     5660     5695     5729     5747     5728     5673 
    5618     5605     5655     5743     5815     5843     5843     5848 
    5878     5921     5943     5936     5925     5935     5981     6060 
    6136     6180     6198     6210     6227     6247     6255     6236 
    6195     6156     6127     6108     6101     6102     6107     6123 
    6139     6132     6098     6043     5977     5911     5854     5804 
    5759     5704     5627     5554     5520     5536     5588     5643 
    5670     5675     5687     5724     5775     5811     5811     5784 
    5755     5738     5736     5735     5728     5736     5781     5856 
    5933     5984     5995     5977     5953     5935     5914     5886 
    5858     5838     5825     5816     5805     5788     5771     5765 
    5765     5764     5764     5765     5772     5792     5826     5867 
    5906     5948     6003     6063     6101     6099     6063     6015 
    5969     5941     5946     5979     6017     6043     6052     6040 
    6015     5988     5954     5908     5857     5811     5772     5747 
    5741     5750     5756     5744     5715     5678     5638     5605 
    5596     5610     5627     5629     5620     5609     5610     5634 
    5664     5677     5667     5644     5629     5645     5693     5755 
    5800     5810     5790     5764     5755     5778     5828     5893 
    5952     5988     6001     5999     5998     6001     5999     5987 
    5961     5905     5830     5764     5724     5719     5748     5799 
    5854     5895     5918     5945     5989     6044     6096     6122 
    6110     6076     6040     6010     5979     5938     5892     5845 
    5799     5761     5726     5689     5652     5620     5595     5572 
