Origin Time       2025/06/03 22:18:00
Lat.              41.7
Long.             143.6
Depth. (km)       30
Mag.              5.2
Station Code      HDKH06
Station Lat.      42.3498
Station Long.     142.3572
Station Height(m) 10
Record Time       2025/06/03 22:18:50
Sampling Freq(Hz) 100Hz
Duration Time(s)  120
Dir.              5
Scale Factor      7845(gal)/8223790
Max. Acc. (gal)   2.825
Last Correction   2025/06/03 22:18:50
Memo.             
[...]
  -34465   -34393   -34321   -34254   -34195   -34137   -34080   -34020 
  -33955   -33891   -33841   -33813   -33813   -33845   -33901   -33972 
  -34047   -34113   -34172   -34219   -34246   -34260   -34268   -34271 
  -34272   -34279   -34295   -34325   -34364   -34408   -34457   -34503 
  -34543   -34580   -34616   -34658   -34704   -34751   -34790   -34815 
  -34819   -34808   -34785   -34751   -34712   -34678   -34650   -34624 
  -34607   -34593   -34587   -34591   -34605   -34626   -34653   -34686 
  -34723   -34761   -34801   -34838   -34858   -34863   -34859   -34839 
  -34803   -34753   -34699   -34641   -34581   -34523   -34468   -34418 
  -34375   -34341   -34312   -34287   -34260   -34233   -34204   -34176 
  -34149   -34130   -34115   -34105   -34094   -34083   -34071   -34053 
  -34030   -34001   -33967   -33934   -33909   -33886   -33874   -33882 
  -33909   -33952   -34011   -34080   -34160   -34245   -34329   -34399 
  -34461   -34515   -34553   -34581   -34611   -34639   -34666   -34693 
  -34723   -34753   -34781   -34809   -34834   -34852   -34862   -34862 
  -34857   -34839   -34807   -34770   -34731   -34690   -34651   -34619 
  -34591   -34568   -34543   -34518   -34488   -34449   -34403   -34345 
  -34283   -34221   -34164   -34117   -34083   -34060   -34051   -34052 
  -34057   -34061   -34071   -34082   -34087   -34090   -34091   -34095 
  -34107   -34130   -34163   -34203   -34248   -34299   -34352   -34403 
  -34453   -34504   -34553   -34596   -34636   -34673   -34704   -34726 
  -34743   -34765   -34796   -34838   -34888   -34942   -34986   -35013 
  -35019   -35005   -34979   -34939   -34892   -34838   -34776   -34712 
  -34654   -34599   -34545   -34497   -34457   -34419   -34384   -34349 
  -34321   -34299   -34280   -34264   -34242   -34217   -34188   -34159 
  -34136   -34129   -34136   -34160   -34202   -34252   -34306   -34360 
  -34406   -34438   -34462   -34474   -34480   -34481   -34476   -34468 
  -34465   -34462   -34462   -34457   -34447   -34442   -34438   -34433 
  -34426   -34412   -34393   -34373   -34352   -34334   -34326   -34329 
  -34334   -34341   -34349   -34358   -34366   -34381   -34407   -34434 
  -34461   -34491   -34514   -34530   -34543   -34560   -34580   -34608 
  -34634   -34651   -34658   -34651   -34634   -34619   -34607   -34593 
  -34587   -34582   -34570   -34547   -34522   -34489   -34453   -34412 
  -34369   -34326   -34277   -34217   -34149   -34076   -34003   -33937 
  -33885   -33851   -33843   -33863   -33907   -33974   -34047   -34119 
  -34186   -34240   -34277   -34302   -34317   -34331   -34354   -34393 
  -34449   -34515   -34591   -34674   -34755   -34828   -34894   -34942 
  -34971   -34992   -35004   -35013   -35029   -35048   -35071   -35093 
  -35102   -35094   -35066   -35019   -34952   -34865   -34759   -34655 
  -34554   -34456   -34368   -34292   -34219   -34149   -34080   -34013 
  -33945   -33886   -33841   -33813   -33801   -33809   -33829   -33859 
  -33895   -33929   -33953   -33963   -33960   -33953   -33945   -33944 
  -33968   -34021   -34103   -34218   -34352   -34492   -34634   -34759 
  -34861   -34946   -35013   -35064   -35105   -35139   -35158   -35168 
  -35175   -35172   -35163   -35151   -35128   -35091   -35044   -34979 
  -34901   -34813   -34717   -34620   -34527   -34435   -34349   -34269 
  -34191   -34113   -34042   -33974   -33901   -33829   -33764   -33708 
  -33667   -33647   -33650   -33677   -33731   -33809   -33906   -34011 
  -34122   -34236   -34345   -34449   -34538   -34608   -34666   -34709 
  -34742   -34777   -34819   -34861   -34904   -34950   -34989   -35012 
  -35023   -35020   -35005   -34979   -34942   -34894   -34842   -34777 
  -34708   -34645   -34582   -34519   -34457   -34398   -34335   -34273 
  -34206   -34130   -34055   -33983   -33921   -33874   -33844   -33829 
  -33828   -33841   -33870   -33910   -33957   -34011   -34067   -34122 
  -34175   -34226   -34277   -34334   -34392   -34454   -34518   -34578 
  -34632   -34680   -34716   -34746   -34773   -34797   -34824   -34851 
  -34873   -34890   -34906   -34924   -34938   -34947   -34948   -34932 
  -34890   -34821   -34734   -34631   -34519   -34404   -34290   -34188 
  -34106   -34044   -34009   -33998   -34002   -34018   -34040   -34056 
  -34067   -34072   -34071   -34067   -34064   -34067   -34074   -34084 
  -34099   -34117   -34137   -34164   -34198   -34236   -34275   -34319 
  -34375   -34430   -34479   -34523   -34566   -34599   -34623   -34642 
  -34651   -34654   -34655   -34654   -34651   -34654   -34655   -34659 
  -34663   -34669   -34676   -34685   -34697   -34712   -34730   -34751 
  -34776   -34801   -34827   -34851   -34866   -34863   -34843   -34808 
  -34758   -34699   -34634   -34570   -34511   -34456   -34410   -34373 
  -34346   -34330   -34325   -34331   -34345   -34362   -34384   -34407 
  -34422   -34430   -34433   -34425   -34406   -34377   -34337   -34285 
  -34234   -34180   -34126   -34083   -34051   -34026   -34018   -34029 
  -34057   -34102   -34161   -34226   -34294   -34357   -34407   -34439 
  -34460   -34472   -34481   -34496   -34519   -34557   -34603   -34642 
  -34677   -34707   -34726   -34736   -34744   -34746   -34743   -34740 
  -34739   -34736   -34728   -34717   -34704   -34688   -34672   -34653 
  -34627   -34596   -34555   -34506   -34454   -34398   -34344   -34299 
  -34267   -34246   -34238   -34241   -34250   -34267   -34280   -34288 
  -34294   -34290   -34268   -34231   -34187   -34134   -34083   -34049 
  -34038   -34048   -34083   -34138   -34204   -34276   -34344   -34406 
  -34456   -34487   -34499   -34491   -34465   -34429   -34389   -34356 
  -34338   -34342   -34364   -34391   -34418   -34442   -34454   -34458 
  -34460   -34462   -34469   -34485   -34508   -34533   -34568   -34607 
  -34645   -34684   -34715   -34739   -34758   -34766   -34759   -34739 
  -34705   -34658   -34601   -34549   -34506   -34473   -34457   -34456 
  -34466   -34488   -34511   -34534   -34558   -34577   -34582   -34577 
  -34555   -34519   -34468   -34407   -34341   -34277   -34222   -34177 
  -34146   -34130   -34126   -34130   -34144   -34160   -34171   -34180 
  -34191   -34203   -34222   -34249   -34288   -34344   -34412   -34487 
  -34560   -34628   -34684   -34720   -34735   -34731   -34709   -34669 
  -34614   -34557   -34501   -34456   -34425   -34406   -34403   -34412 
  -34429   -34446   -34460   -34465   -34461   -34443   -34416   -34384 
  -34349   -34315   -34290   -34267   -34249   -34237   -34229   -34229 
  -34230   -34238   -34257   -34294   -34350   -34426   -34512   -34600 
  -34680   -34743   -34789   -34811   -34812   -34801   -34781   -34753 
  -34720   -34681   -34635   -34585   -34531   -34474   -34422   -34377 
  -34335   -34306   -34296   -34303   -34318   -34345   -34381   -34410 
  -34431   -34445   -34452   -34457   -34462   -34466   -34473   -34483 
  -34493   -34508   -34528   -34551   -34576   -34596   -34605   -34603 
  -34593   -34584   -34582   -34599   -34632   -34678   -34727   -34765 
  -34782   -34773   -34736   -34684   -34618   -34542   -34468   -34399 
  -34330   -34269   -34219   -34176   -34146   -34133   -34126   -34126 
  -34129   -34128   -34119   -34103   -34079   -34057   -34041   -34033 
  -34036   -34057   -34094   -34150   -34227   -34317   -34404   -34491 
  -34578   -34657   -34717   -34759   -34785   -34798   -34805   -34809 
  -34820   -34840   -34870   -34906   -34944   -34979   -35002   -35005 
  -34989   -34952   -34897   -34832   -34758   -34678   -34599   -34526 
  -34458   -34396   -34338   -34281   -34225   -34164   -34101   -34040 
  -33978   -33920   -33878   -33849   -33832   -33829   -33835   -33847 
  -33867   -33889   -33912   -33937   -33970   -34009   -34055   -34103 
  -34153   -34195   -34226   -34248   -34265   -34283   -34311   -34354 
  -34408   -34472   -34538   -34605   -34670   -34724   -34762   -34788 
  -34797   -34785   -34757   -34720   -34680   -34635   -34591   -34554 
  -34530   -34515   -34510   -34512   -34519   -34522   -34514   -34496 
  -34468   -34429   -34381   -34329   -34279   -34233   -34200   -34182 
  -34179   -34184   -34192   -34204   -34214   -34223   -34244   -34269 
  -34302   -34338   -34373   -34406   -34437   -34462   -34487   -34510 
  -34524   -34534   -34539   -34542   -34542   -34535   -34526   -34519 
  -34519   -34526   -34541   -34561   -34589   -34624   -34657   -34680 
  -34693   -34700   -34697   -34681   -34661   -34638   -34609   -34581 
  -34554   -34531   -34510   -34485   -34454   -34423   -34393   -34365 
  -34342   -34327   -34319   -34318   -34323   -34337   -34358   -34373 
  -34380   -34380   -34372   -34354   -34334   -34317   -34299   -34280 
  -34263   -34248   -34233   -34219   -34211   -34209   -34211   -34219 
  -34233   -34253   -34283   -34321   -34358   -34393   -34425   -34446 
  -34460   -34465   -34458   -34443   -34426   -34404   -34384   -34369 
  -34371   -34383   -34398   -34419   -34446   -34469   -34489   -34507 
  -34520   -34537   -34557   -34580   -34609   -34643   -34682   -34720 
  -34754   -34784   -34801   -34805   -34797   -34773   -34731   -34678 
  -34627   -34580   -34545   -34526   -34516   -34512   -34516   -34527 
  -34546   -34580   -34622   -34670   -34723   -34773   -34816   -34850 
  -34866   -34874   -34871   -34857   -34832   -34794   -34747   -34695 
  -34641   -34582   -34520   -34456   -34387   -34321   -34263   -34217 
  -34188   -34183   -34195   -34225   -34265   -34314   -34361   -34402 
  -34438   -34469   -34491   -34507   -34522   -34530   -34534   -34538 
  -34545   -34560   -34587   -34624   -34676   -34742   -34813   -34884 
  -34944   -34985   -35000   -34986   -34939   -34867   -34780   -34678 
  -34565   -34443   -34319   -34196   -34072   -33943   -33813   -33691 
  -33585   -33500   -33438   -33409   -33413   -33448   -33521   -33620 
  -33732   -33855   -33972   -34075   -34161   -34237   -34298   -34346 
  -34393   -34453   -34526   -34619   -34736   -34875   -35028   -35182 
  -35318   -35428   -35505   -35548   -35556   -35530   -35471   -35383 
  -35275   -35162   -35048   -34939   -34844   -34765   -34689   -34618 
  -34545   -34464   -34380   -34290   -34186   -34072   -33953   -33831 
  -33704   -33578   -33454   -33331   -33215   -33103   -33003   -32926 
  -32880   -32872   -32907   -32989   -33115   -33274   -33463   -33670 
  -33880   -34094   -34306   -34510   -34709   -34906   -35093   -35267 
  -35429   -35572   -35691   -35785   -35854   -35903   -35932   -35947 
  -35947   -35927   -35888   -35833   -35760   -35664   -35542   -35388 
  -35195   -34965   -34700   -34412   -34118   -33835   -33569   -33327 
  -33123   -32960   -32832   -32732   -32657   -32609   -32576   -32559 
  -32564   -32589   -32628   -32692   -32786   -32904   -33053   -33228 
  -33428   -33643   -33867   -34096   -34326   -34547   -34758   -34955 
  -35141   -35313   -35473   -35622   -35758   -35874   -35965   -36023 
  -36047   -36030   -35974   -35891   -35785   -35667   -35546   -35433 
  -35325   -35224   -35131   -35048   -34973   -34897   -34817   -34736 
  -34647   -34545   -34435   -34321   -34203   -34095   -33998   -33914 
  -33845   -33794   -33763   -33750   -33760   -33790   -33837   -33906 
  -33993   -34092   -34206   -34326   -34441   -34541   -34612   -34649 
  -34649   -34615   -34554   -34480   -34402   -34329   -34261   -34207 
  -34169   -34142   -34130   -34129   -34129   -34130   -34132   -34129 
  -34121   -34118   -34129   -34157   -34199   -34257   -34337   -34431 
  -34541   -34663   -34794   -34928   -35067   -35209   -35340   -35452 
  -35541   -35604   -35635   -35635   -35608   -35554   -35483   -35392 
  -35279   -35139   -34973   -34785   -34577   -34354   -34122   -33876 
  -33621   -33363   -33110   -32873   -32668   -32505   -32391   -32329 
  -32324   -32371   -32458   -32583   -32748   -32944   -33172   -33431 
  -33716   -34018   -34330   -34650   -34969   -35274   -35556   -35810 
  -36035   -36242   -36424   -36574   -36693   -36788   -36864   -36917 
  -36950   -36958   -36936   -36872   -36765   -36613   -36412   -36154 
  -35841   -35482   -35090   -34677   -34258   -33853   -33469   -33116 
  -32806   -32535   -32298   -32097   -31932   -31797   -31699   -31639 
  -31608   -31611   -31661   -31768   -31934   -32159   -32432   -32734 
  -33057   -33378   -33693   -33997   -34290   -34573   -34847   -35108 
  -35356   -35581   -35772   -35931   -36066   -36181   -36279   -36358 
  -36414   -36455   -36485   -36504   -36513   -36508   -36479   -36417 
  -36316   -36174   -35985   -35752   -35483   -35186   -34869   -34551 
  -34252   -33982   -33751   -33559   -33409   -33297   -33211   -33138 
  -33068   -32987   -32892   -32787   -32678   -32578   -32516   -32505 
  -32551   -32651   -32796   -32975   -33173   -33376   -33566   -33740 
  -33891   -34021   -34137   -34244   -34348   -34460   -34589   -34740 
  -34912   -35095   -35284   -35473   -35648   -35792   -35907   -35995 
  -36062   -36119   -36169   -36202   -36220   -36228   -36228   -36216 
  -36185   -36126   -36036   -35907   -35739   -35533   -35293   -35020 
  -34717   -34393   -34059   -33720   -33389   -33081   -32805   -32572 
  -32383   -32231   -32103   -31989   -31892   -31815   -31769   -31764 
  -31803   -31895   -32044   -32258   -32522   -32826   -33157   -33497 
  -33833   -34156   -34460   -34744   -35009   -35248   -35459   -35635 
  -35788   -35934   -36097   -36286   -36491   -36703   -36906   -37084 
  -37237   -37349   -37405   -37397   -37315   -37161   -36941   -36655 
  -36316   -35943   -35553   -35151   -34747   -34360   -33994   -33651 
  -33338   -33057   -32815   -32613   -32448   -32317   -32212   -32134 
  -32088   -32082   -32121   -32205   -32333   -32508   -32719   -32957 
  -33211   -33469   -33731   -34010   -34299   -34593   -34893   -35186 
  -35467   -35725   -35945   -36124   -36267   -36377   -36452   -36491 
  -36490   -36455   -36386   -36289   -36165   -36012   -35839   -35652 
  -35448   -35243   -35036   -34824   -34604   -34376   -34137   -33880 
  -33613   -33350   -33107   -32894   -32725   -32609   -32537   -32506 
  -32505   -32518   -32544   -32582   -32629   -32682   -32740   -32807 
  -32894   -32996   -33115   -33268   -33458   -33689   -33955   -34253 
  -34572   -34896   -35213   -35506   -35758   -35965   -36124   -36243 
  -36329   -36383   -36408   -36401   -36366   -36298   -36190   -36031 
  -35827   -35590   -35329   -35059   -34794   -34542   -34307   -34092 
  -33899   -33720   -33544   -33372   -33200   -33034   -32880   -32749 
  -32657   -32613   -32625   -32702   -32838   -33030   -33274   -33547 
  -33828   -34103   -34357   -34566   -34724   -34842   -34924   -34979 
  -35027   -35085   -35167   -35278   -35419   -35587   -35769   -35955 
  -36136   -36296   -36428   -36531   -36601   -36633   -36618   -36552 
  -36431   -36255   -36030   -35768   -35479   -35181   -34884   -34599 
  -34337   -34101   -33894   -33718   -33571   -33455   -33363   -33291 
  -33234   -33188   -33150   -33110   -33062   -33004   -32930   -32842 
  -32757   -32680   -32616   -32572   -32548   -32545   -32571   -32625 
  -32706   -32825   -32983   -33173   -33389   -33629   -33875   -34117 
  -34348   -34565   -34771   -34966   -35149   -35316   -35463   -35592 
  -35711   -35818   -35908   -35977   -36013   -36018   -35997   -35954 
  -35891   -35818   -35735   -35644   -35541   -35429   -35307   -35174 
  -35036   -34896   -34749   -34597   -34447   -34296   -34145   -33994 
  -33848   -33716   -33600   -33501   -33424   -33370   -33338   -33331 
  -33353   -33393   -33450   -33527   -33617   -33720   -33837   -33967 
  -34102   -34242   -34384   -34519   -34643   -34753   -34844   -34916 
  -34960   -34983   -34983   -34959   -34912   -34850   -34780   -34717 
  -34662   -34607   -34555   -34511   -34469   -34423   -34373   -34319 
  -34261   -34191   -34103   -33999   -33887   -33775   -33674   -33588 
  -33516   -33467   -33442   -33428   -33431   -33448   -33484   -33543 
  -33628   -33739   -33875   -34042   -34233   -34437   -34645   -34842 
  -35013   -35155   -35270   -35355   -35413   -35459   -35494   -35521 
  -35545   -35567   -35583   -35599   -35613   -35622   -35621   -35614 
  -35590   -35537   -35461   -35363   -35245   -35120   -34996   -34881 
  -34785   -34715   -34677   -34669   -34688   -34719   -34747   -34767 
  -34771   -34754   -34719   -34672   -34612   -34542   -34469   -34396 
  -34329   -34268   -34219   -34182   -34150   -34129   -34122   -34128 
  -34144   -34173   -34215   -34264   -34312   -34358   -34400   -34425 
  -34430   -34418   -34387   -34333   -34264   -34191   -34117   -34045 
  -33987   -33945   -33917   -33909   -33924   -33959   -34014   -34094 
  -34195   -34308   -34423   -34530   -34624   -34701   -34755   -34784 
  -34780   -34744   -34682   -34597   -34499   -34399   -34300   -34206 
  -34119   -34047   -33990   -33943   -33907   -33879   -33851   -33820 
  -33782   -33735   -33682   -33628   -33573   -33519   -33478   -33450 
  -33432   -33434   -33455   -33490   -33538   -33596   -33669   -33766 
  -33893   -34047   -34223   -34423   -34639   -34857   -35060   -35243 
  -35399   -35525   -35617   -35673   -35703   -35707   -35689   -35656 
  -35614   -35572   -35537   -35511   -35490   -35469   -35448   -35421 
  -35375   -35311   -35230   -35135   -35028   -34917   -34809   -34709 
  -34623   -34553   -34504   -34472   -34453   -34443   -34439   -34434 
  -34419   -34398   -34361   -34304   -34238   -34172   -34103   -34040 
  -33987   -33941   -33901   -33866   -33832   -33790   -33744   -33701 
  -33656   -33613   -33578   -33550   -33524   -33509   -33507   -33512 
  -33524   -33546   -33577   -33615   -33662   -33718   -33779   -33853 
  -33941   -34036   -34140   -34250   -34357   -34457   -34543   -34609 
  -34651   -34669   -34666   -34646   -34619   -34599   -34588   -34588 
  -34599   -34619   -34641   -34654   -34663   -34666   -34654   -34627 
  -34595   -34558   -34522   -34484   -34452   -34430   -34420   -34420 
  -34434   -34453   -34474   -34500   -34526   -34551   -34576   -34597 
  -34612   -34620   -34615   -34597   -34577   -34553   -34527   -34512 
  -34515   -34530   -34555   -34592   -34636   -34686   -34736   -34785 
  -34830   -34866   -34894   -34912   -34925   -34935   -34944   -34959 
  -34981   -35001   -35020   -35040   -35058   -35064   -35055   -35036 
  -35005   -34963   -34912   -34854   -34792   -34736   -34689   -34653 
  -34626   -34604   -34582   -34562   -34534   -34500   -34460   -34407 
  -34345   -34276   -34198   -34111   -34022   -33933   -33847   -33772 
  -33713   -33664   -33629   -33610   -33608   -33624   -33659   -33710 
  -33778   -33858   -33952   -34064   -34186   -34311   -34439   -34564 
  -34684   -34800   -34908   -35005   -35093   -35167   -35225   -35264 
  -35280   -35276   -35248   -35202   -35147   -35083   -35012   -34939 
  -34865   -34784   -34700   -34614   -34523   -34433   -34337   -34229 
  -34110   -33986   -33863   -33752   -33658   -33582   -33528   -33498 
  -33486   -33488   -33490   -33490   -33486   -33478   -33471   -33474 
  -33484   -33498   -33527   -33563   -33602   -33644   -33690   -33741 
  -33799   -33862   -33933   -34015   -34111   -34221   -34345   -34485 
  -34638   -34800   -34973   -35147   -35309   -35455   -35583   -35672 
