Origin Time       2025/06/03 22:18:00
Lat.              41.7
Long.             143.6
Depth. (km)       30
Mag.              5.2
Station Code      HDKH06
Station Lat.      42.3498
Station Long.     142.3572
Station Height(m) 10
Record Time       2025/06/03 22:18:50
Sampling Freq(Hz) 100Hz
Duration Time(s)  120
Dir.              6
Scale Factor      7845(gal)/8223790
Max. Acc. (gal)   1.210
Last Correction   2025/06/03 22:18:50
Memo.             
[...]
   -5989    -5962    -5914    -5850    -5776    -5701    -5643    -5607 
   -5598    -5609    -5634    -5672    -5722    -5772    -5817    -5856 
   -5886    -5891    -5867    -5817    -5740    -5644    -5544    -5451 
   -5385    -5352    -5350    -5377    -5428    -5491    -5566    -5643 
   -5710    -5767    -5809    -5829    -5833    -5829    -5822    -5813 
   -5805    -5802    -5802    -5805    -5810    -5818    -5823    -5833 
   -5848    -5868    -5892    -5921    -5942    -5953    -5952    -5941 
   -5925    -5910    -5898    -5880    -5850    -5806    -5746    -5679 
   -5616    -5567    -5543    -5552    -5595    -5656    -5728    -5799 
   -5857    -5890    -5902    -5896    -5875    -5841    -5803    -5764 
   -5721    -5684    -5660    -5651    -5653    -5670    -5698    -5730 
   -5765    -5798    -5821    -5829    -5817    -5788    -5761    -5736 
   -5711    -5701    -5701    -5707    -5722    -5741    -5765    -5794 
   -5823    -5854    -5886    -5913    -5933    -5946    -5952    -5944 
   -5923    -5895    -5865    -5837    -5819    -5814    -5811    -5806 
   -5796    -5776    -5749    -5725    -5707    -5701    -5702    -5717 
   -5740    -5761    -5787    -5821    -5853    -5880    -5903    -5913 
   -5910    -5899    -5890    -5879    -5864    -5849    -5836    -5817 
   -5796    -5782    -5771    -5767    -5776    -5796    -5814    -5823 
   -5829    -5829    -5819    -5799    -5776    -5745    -5705    -5660 
   -5610    -5559    -5510    -5468    -5440    -5435    -5452    -5486 
   -5541    -5616    -5702    -5790    -5868    -5931    -5976    -5995 
   -5985    -5946    -5880    -5799    -5715    -5637    -5576    -5541 
   -5532    -5539    -5555    -5574    -5593    -5611    -5632    -5656 
   -5688    -5728    -5769    -5814    -5857    -5892    -5923    -5952 
   -5969    -5971    -5954    -5918    -5864    -5802    -5744    -5694 
   -5663    -5651    -5651    -5660    -5679    -5709    -5736    -5756 
   -5772    -5784    -5787    -5782    -5769    -5755    -5737    -5725 
   -5721    -5728    -5748    -5779    -5818    -5861    -5899    -5927 
   -5949    -5964    -5972    -5977    -5983    -5989    -6000    -6019 
   -6039    -6058    -6064    -6057    -6039    -6011    -5977    -5944 
   -5914    -5890    -5867    -5849    -5834    -5815    -5792    -5771 
   -5753    -5742    -5734    -5725    -5703    -5674    -5637    -5598 
   -5562    -5528    -5501    -5483    -5475    -5481    -5508    -5552 
   -5607    -5671    -5730    -5778    -5811    -5823    -5813    -5790 
   -5761    -5725    -5690    -5664    -5649    -5647    -5660    -5690 
   -5730    -5780    -5830    -5872    -5904    -5926    -5940    -5953 
   -5964    -5973    -5983    -5983    -5965    -5933    -5891    -5834 
   -5771    -5714    -5665    -5632    -5626    -5644    -5672    -5711 
   -5753    -5784    -5803    -5815    -5819    -5809    -5784    -5749 
   -5706    -5665    -5641    -5632    -5634    -5648    -5664    -5680 
   -5698    -5721    -5746    -5775    -5806    -5834    -5854    -5871 
   -5881    -5887    -5887    -5887    -5887    -5894    -5910    -5934 
   -5962    -5989    -6007    -6011    -6006    -5991    -5972    -5953 
   -5930    -5903    -5873    -5844    -5811    -5776    -5742    -5707 
   -5670    -5633    -5605    -5582    -5567    -5563    -5562    -5567 
   -5582    -5598    -5611    -5624    -5625    -5610    -5584    -5551 
   -5510    -5474    -5445    -5425    -5409    -5406    -5421    -5447 
   -5481    -5522    -5571    -5625    -5680    -5729    -5772    -5814 
   -5846    -5873    -5899    -5917    -5929    -5940    -5946    -5950 
   -5957    -5969    -5987    -6006    -6022    -6031    -6030    -6021 
   -6007    -6000    -6002    -6014    -6041    -6073    -6102    -6122 
   -6129    -6115    -6088    -6050    -6000    -5938    -5869    -5799 
   -5729    -5664    -5611    -5580    -5570    -5572    -5587    -5606 
   -5622    -5636    -5643    -5640    -5628    -5605    -5575    -5547 
   -5528    -5520    -5526    -5549    -5584    -5629    -5679    -5725 
   -5767    -5803    -5837    -5872    -5908    -5933    -5954    -5976 
   -5992    -6002    -6011    -6018    -6018    -6011    -6003    -5989 
   -5965    -5931    -5892    -5852    -5818    -5796    -5784    -5778 
   -5772    -5765    -5753    -5732    -5703    -5678    -5660    -5651 
   -5652    -5657    -5659    -5652    -5634    -5607    -5574    -5537 
   -5501    -5468    -5443    -5427    -5425    -5437    -5466    -5506 
   -5552    -5589    -5618    -5640    -5655    -5665    -5687    -5718 
   -5751    -5780    -5806    -5818    -5821    -5821    -5829    -5849 
   -5880    -5919    -5961    -6003    -6046    -6088    -6130    -6172 
   -6210    -6231    -6228    -6207    -6166    -6108    -6042    -5976 
   -5908    -5845    -5788    -5737    -5694    -5660    -5643    -5645 
   -5659    -5679    -5705    -5726    -5737    -5738    -5730    -5715 
   -5703    -5688    -5664    -5637    -5607    -5578    -5559    -5552 
   -5555    -5564    -5584    -5613    -5652    -5697    -5742    -5787 
   -5823    -5849    -5864    -5872    -5868    -5853    -5834    -5814 
   -5791    -5771    -5757    -5748    -5742    -5744    -5757    -5780 
   -5813    -5844    -5863    -5860    -5837    -5798    -5748    -5703 
   -5674    -5659    -5655    -5657    -5668    -5688    -5707    -5726 
   -5751    -5768    -5772    -5764    -5748    -5726    -5702    -5683 
   -5680    -5697    -5726    -5767    -5810    -5849    -5884    -5906 
   -5915    -5918    -5911    -5894    -5871    -5845    -5818    -5795 
   -5786    -5786    -5794    -5810    -5829    -5849    -5873    -5900 
   -5931    -5969    -6004    -6030    -6048    -6054    -6046    -6033 
   -6008    -5972    -5925    -5868    -5802    -5737    -5684    -5645 
   -5625    -5633    -5668    -5724    -5787    -5849    -5895    -5922 
   -5927    -5919    -5896    -5860    -5815    -5759    -5688    -5614 
   -5543    -5482    -5447    -5440    -5464    -5516    -5580    -5647 
   -5702    -5737    -5746    -5737    -5711    -5672    -5633    -5603 
   -5589    -5591    -5616    -5652    -5695    -5740    -5787    -5827 
   -5863    -5892    -5907    -5903    -5875    -5819    -5752    -5684 
   -5629    -5601    -5599    -5625    -5676    -5740    -5807    -5881 
   -5945    -5988    -6010    -6010    -5989    -5956    -5913    -5868 
   -5822    -5780    -5745    -5721    -5710    -5705    -5707    -5711 
   -5715    -5717    -5718    -5717    -5714    -5717    -5722    -5724 
   -5728    -5737    -5745    -5753    -5764    -5783    -5811    -5849 
   -5890    -5930    -5961    -5972    -5961    -5933    -5898    -5869 
   -5854    -5848    -5845    -5846    -5848    -5844    -5837    -5823 
   -5809    -5803    -5805    -5814    -5826    -5832    -5819    -5790 
   -5751    -5713    -5679    -5659    -5649    -5640    -5625    -5607 
   -5595    -5594    -5610    -5649    -5709    -5780    -5852    -5911 
   -5948    -5958    -5940    -5898    -5842    -5779    -5725    -5684 
   -5655    -5638    -5636    -5648    -5672    -5697    -5718    -5741 
   -5763    -5776    -5787    -5802    -5821    -5837    -5845    -5838 
   -5819    -5788    -5752    -5719    -5695    -5687    -5694    -5718 
   -5755    -5799    -5848    -5892    -5923    -5945    -5954    -5952 
   -5941    -5922    -5899    -5871    -5836    -5796    -5761    -5734 
   -5722    -5717    -5722    -5732    -5734    -5728    -5709    -5672 
   -5628    -5583    -5545    -5522    -5516    -5522    -5541    -5563 
   -5579    -5595    -5606    -5607    -5605    -5613    -5630    -5656 
   -5691    -5734    -5772    -5799    -5815    -5823    -5823    -5827 
   -5837    -5853    -5869    -5884    -5903    -5922    -5940    -5958 
   -5980    -5998    -6007    -6004    -5987    -5952    -5907    -5864 
   -5832    -5813    -5806    -5807    -5810    -5805    -5792    -5780 
   -5771    -5767    -5776    -5800    -5837    -5881    -5927    -5969 
   -6002    -6018    -6010    -5981    -5929    -5861    -5791    -5725 
   -5675    -5652    -5655    -5680    -5724    -5779    -5834    -5890 
   -5944    -5992    -6030    -6053    -6053    -6023    -5971    -5899 
   -5818    -5740    -5664    -5594    -5539    -5502    -5479    -5478 
   -5495    -5525    -5567    -5621    -5672    -5722    -5773    -5818 
   -5859    -5896    -5929    -5953    -5965    -5971    -5964    -5945 
   -5925    -5902    -5877    -5856    -5838    -5823    -5825    -5840 
   -5864    -5898    -5937    -5971    -5989    -5988    -5967    -5927 
   -5872    -5806    -5733    -5659    -5594    -5540    -5501    -5483 
   -5489    -5510    -5545    -5595    -5655    -5719    -5786    -5848 
   -5898    -5934    -5950    -5948    -5930    -5900    -5861    -5822 
   -5782    -5741    -5707    -5675    -5645    -5624    -5610    -5601 
   -5595    -5603    -5626    -5652    -5679    -5707    -5719    -5719 
   -5715    -5705    -5692    -5690    -5699    -5714    -5725    -5736 
   -5751    -5761    -5773    -5791    -5817    -5849    -5876    -5886 
   -5876    -5841    -5778    -5701    -5614    -5524    -5447    -5389 
   -5348    -5335    -5356    -5405    -5475    -5560    -5644    -5713 
   -5759    -5780    -5786    -5783    -5778    -5779    -5792    -5813 
   -5830    -5845    -5852    -5850    -5837    -5819    -5800    -5786 
   -5779    -5780    -5786    -5791    -5790    -5780    -5765    -5742 
   -5715    -5688    -5663    -5647    -5633    -5628    -5630    -5636 
   -5638    -5634    -5621    -5605    -5594    -5590    -5599    -5630 
   -5675    -5728    -5790    -5854    -5913    -5968    -6011    -6030 
   -6018    -5979    -5926    -5861    -5796    -5746    -5715    -5702 
   -5707    -5722    -5740    -5753    -5760    -5765    -5778    -5796 
   -5821    -5846    -5861    -5860    -5844    -5814    -5779    -5742 
   -5714    -5698    -5692    -5695    -5702    -5702    -5692    -5665 
   -5625    -5582    -5549    -5539    -5556    -5601    -5664    -5737 
   -5809    -5868    -5910    -5929    -5918    -5886    -5840    -5786 
   -5740    -5705    -5679    -5670    -5674    -5683    -5706    -5745 
   -5795    -5850    -5900    -5935    -5954    -5956    -5941    -5913 
   -5877    -5838    -5794    -5752    -5724    -5711    -5715    -5741 
   -5787    -5841    -5899    -5949    -5984    -6004    -6004    -5984 
   -5944    -5892    -5834    -5780    -5744    -5725    -5724    -5733 
   -5745    -5757    -5772    -5790    -5813    -5837    -5860    -5869 
   -5863    -5844    -5815    -5782    -5753    -5736    -5724    -5719 
   -5719    -5715    -5711    -5717    -5728    -5741    -5764    -5790 
   -5811    -5829    -5844    -5859    -5876    -5894    -5914    -5937 
   -5957    -5977    -5998    -6015    -6029    -6038    -6041    -6042 
   -6045    -6043    -6035    -6018    -5985    -5938    -5876    -5811 
   -5746    -5686    -5633    -5587    -5547    -5514    -5487    -5474 
   -5479    -5498    -5528    -5570    -5621    -5675    -5732    -5799 
   -5867    -5933    -5995    -6042    -6068    -6073    -6062    -6053 
   -6054    -6072    -6107    -6149    -6183    -6205    -6216    -6212 
   -6199    -6187    -6178    -6173    -6169    -6166    -6154    -6127 
   -6089    -6038    -5983    -5926    -5873    -5822    -5768    -5710 
   -5644    -5568    -5489    -5410    -5336    -5277    -5232    -5204 
   -5196    -5200    -5209    -5229    -5256    -5281    -5302    -5327 
   -5344    -5355    -5363    -5377    -5409    -5466    -5547    -5651 
   -5771    -5894    -6007    -6104    -6180    -6230    -6257    -6273 
   -6280    -6274    -6265    -6250    -6219    -6173    -6122    -6064 
   -6003    -5950    -5896    -5840    -5791    -5751    -5715    -5687 
   -5665    -5638    -5603    -5551    -5482    -5408    -5336    -5271 
   -5221    -5192    -5181    -5192    -5213    -5242    -5273    -5306 
   -5346    -5387    -5435    -5487    -5548    -5618    -5692    -5772 
   -5845    -5903    -5945    -5971    -5980    -5987    -5994    -5999 
   -6002    -6000    -5988    -5964    -5931    -5894    -5856    -5825 
   -5799    -5775    -5757    -5742    -5722    -5697    -5664    -5625 
   -5576    -5526    -5481    -5440    -5406    -5386    -5381    -5395 
   -5433    -5491    -5562    -5638    -5714    -5783    -5844    -5894 
   -5926    -5944    -5946    -5934    -5907    -5867    -5815    -5759 
   -5711    -5680    -5665    -5668    -5679    -5690    -5694    -5688 
   -5674    -5649    -5626    -5603    -5583    -5570    -5570    -5584 
   -5613    -5657    -5713    -5775    -5845    -5930    -6037    -6158 
   -6274    -6374    -6444    -6477    -6474    -6434    -6357    -6253 
   -6133    -6002    -5873    -5757    -5653    -5578    -5533    -5516 
   -5522    -5551    -5591    -5632    -5661    -5674    -5659    -5614 
   -5540    -5439    -5320    -5194    -5074    -4973    -4900    -4864 
   -4866    -4905    -4981    -5093    -5229    -5386    -5563    -5755 
   -5953    -6156    -6351    -6528    -6678    -6787    -6849    -6868 
   -6858    -6828    -6793    -6759    -6729    -6706    -6697    -6693 
   -6687    -6686    -6675    -6643    -6589    -6502    -6378    -6224 
   -6054    -5876    -5699    -5533    -5386    -5262    -5165    -5093 
   -5054    -5046    -5062    -5096    -5143    -5197    -5247    -5293 
   -5329    -5354    -5374    -5391    -5406    -5436    -5489    -5571 
   -5690    -5845    -6025    -6224    -6426    -6612    -6774    -6906 
   -6998    -7044    -7036    -6971    -6859    -6700    -6507    -6304 
   -6118    -5965    -5853    -5790    -5775    -5795    -5836    -5872 
   -5877    -5846    -5778    -5667    -5524    -5368    -5215    -5071 
   -4949    -4849    -4770    -4708    -4664    -4644    -4652    -4685 
   -4743    -4826    -4914    -4996    -5073    -5134    -5158    -5150 
   -5124    -5089    -5059    -5054    -5076    -5123    -5190    -5275 
   -5375    -5490    -5614    -5746    -5880    -6003    -6112    -6200 
   -6262    -6299    -6313    -6305    -6284    -6259    -6245    -6251 
   -6286    -6347    -6434    -6540    -6646    -6739    -6810    -6849 
   -6851    -6810    -6729    -6623    -6501    -6377    -6257    -6146 
   -6043    -5949    -5860    -5776    -5691    -5597    -5494    -5389 
   -5275    -5158    -5040    -4927    -4826    -4743    -4679    -4637 
   -4626    -4642    -4677    -4737    -4826    -4949    -5105    -5285 
   -5482    -5683    -5875    -6053    -6205    -6322    -6404    -6444 
   -6439    -6401    -6335    -6249    -6153    -6066    -6004    -5977 
   -5987    -6031    -6100    -6177    -6246    -6286    -6286    -6238 
   -6131    -5972    -5779    -5568    -5358    -5169    -5016    -4908 
   -4854    -4855    -4908    -4997    -5112    -5240    -5368    -5491 
   -5598    -5682    -5729    -5737    -5715    -5674    -5613    -5552 
   -5514    -5513    -5548    -5621    -5728    -5854    -5992    -6134 
   -6278    -6419    -6552    -6673    -6775    -6853    -6903    -6926 
   -6921    -6879    -6804    -6700    -6574    -6435    -6301    -6181 
   -6079    -5998    -5935    -5881    -5830    -5787    -5744    -5690 
   -5624    -5548    -5458    -5358    -5267    -5194    -5142    -5116 
   -5128    -5171    -5240    -5331    -5428    -5521    -5605    -5678 
   -5730    -5760    -5765    -5738    -5680    -5605    -5520    -5431 
   -5358    -5319    -5319    -5364    -5460    -5595    -5757    -5940 
   -6129    -6301    -6442    -6544    -6602    -6617    -6594    -6539 
   -6458    -6363    -6254    -6146    -6052    -5975    -5917    -5877 
   -5850    -5827    -5798    -5763    -5717    -5660    -5597    -5532 
   -5475    -5424    -5375    -5336    -5298    -5250    -5189    -5119 
   -5040    -4963    -4901    -4857    -4842    -4860    -4908    -4985 
   -5081    -5186    -5293    -5393    -5483    -5559    -5622    -5687 
   -5764    -5853    -5956    -6079    -6212    -6338    -6454    -6551 
   -6612    -6633    -6610    -6543    -6446    -6331    -6212    -6104 
   -6015    -5953    -5919    -5908    -5914    -5921    -5919    -5906 
   -5880    -5837    -5775    -5698    -5613    -5524    -5433    -5354 
   -5292    -5255    -5252    -5271    -5301    -5333    -5358    -5368 
   -5370    -5358    -5340    -5323    -5314    -5331    -5382    -5472 
   -5599    -5755    -5930    -6115    -6293    -6451    -6588    -6693 
   -6759    -6785    -6770    -6723    -6647    -6547    -6436    -6322 
   -6211    -6115    -6039    -5988    -5968    -5975    -6003    -6049 
   -6088    -6103    -6081    -6015    -5896    -5733    -5540    -5335 
   -5132    -4951    -4806    -4708    -4660    -4658    -4706    -4792 
   -4901    -5028    -5158    -5283    -5398    -5498    -5574    -5629 
   -5665    -5682    -5683    -5672    -5655    -5643    -5649    -5675 
   -5718    -5787    -5873    -5975    -6084    -6185    -6272    -6343 
   -6388    -6397    -6378    -6330    -6250    -6143    -6022    -5895 
   -5775    -5674    -5597    -5549    -5529    -5525    -5525    -5525 
   -5522    -5513    -5508    -5512    -5524    -5541    -5563    -5583 
   -5594    -5597    -5586    -5564    -5536    -5512    -5505    -5525 
   -5575    -5655    -5756    -5868    -5983    -6088    -6173    -6227 
   -6250    -6242    -6211    -6162    -6102    -6037    -5984    -5952 
   -5950    -5985    -6056    -6150    -6255    -6361    -6457    -6528 
   -6565    -6565    -6529    -6462    -6367    -6255    -6137    -6021 
   -5915    -5822    -5740    -5667    -5601    -5541    -5495    -5459 
   -5431    -5414    -5402    -5386    -5367    -5347    -5323    -5293 
   -5263    -5236    -5212    -5197    -5197    -5211    -5239    -5273 
   -5312    -5360    -5416    -5486    -5575    -5680    -5795    -5922 
   -6053    -6181    -6300    -6407    -6493    -6550    -6574    -6569 
   -6534    -6490    -6448    -6413    -6392    -6377    -6362    -6349 
   -6334    -6308    -6272    -6226    -6170    -6099    -6012    -5914 
   -5807    -5697    -5586    -5474    -5364    -5258    -5159    -5069 
   -4985    -4911    -4854    -4811    -4783    -4776    -4787    -4820 
   -4884    -4976    -5088    -5217    -5354    -5486    -5605    -5694 
   -5755    -5790    -5800    -5794    -5782    -5773    -5771    -5784 
   -5821    -5877    -5956    -6045    -6137    -6222    -6291    -6336 
   -6353    -6336    -6293    -6226    -6139    -6049    -5960    -5877 
   -5810    -5751    -5699    -5665    -5649    -5641    -5643    -5653 
   -5659    -5661    -5661    -5648    -5632    -5613    -5593    -5578 
   -5570    -5571    -5589    -5611    -5636    -5659    -5682    -5707 
   -5734    -5759    -5787    -5821    -5859    -5899    -5946    -5998 
   -6043    -6081    -6106    -6111    -6093    -6050    -5988    -5917 
   -5845    -5780    -5728    -5691    -5670    -5664    -5664    -5659 
   -5651    -5634    -5603    -5559    -5510    -5460    -5414    -5381 
   -5363    -5363    -5383    -5421    -5472    -5533    -5594    -5655 
   -5715    -5775    -5833    -5886    -5923    -5942    -5938    -5911 
   -5861    -5802    -5740    -5675    -5620    -5584    -5574    -5586 
   -5626    -5692    -5763    -5829    -5891    -5934    -5957    -5962 
   -5949    -5914    -5865    -5802    -5734    -5674    -5624    -5593 
   -5586    -5602    -5638    -5690    -5749    -5806    -5849    -5875 
