Origin Time       2025/06/03 22:18:00
Lat.              41.7
Long.             143.6
Depth. (km)       30
Mag.              5.2
Station Code      HDKH07
Station Lat.      42.1330
Station Long.     142.9164
Station Height(m) -61
Record Time       2025/06/03 22:18:41
Sampling Freq(Hz) 100Hz
Duration Time(s)  120
Dir.              1
Scale Factor      2942(gal)/8224139
Max. Acc. (gal)   1.386
Last Correction   2025/06/03 22:18:41
Memo.             
[...]
   10866    10617    10669    10971    11295    11434    11329    11063 
   10768    10588    10635    10862    11043    10990    10704    10369 
   10201    10280    10519    10783    10979    11068    11047    10928 
   10773    10694    10755    10899    11022    11072    11087    11128 
   11191    11226    11195    11128    11071    10993    10863    10781 
   10859    11076    11288    11371    11300    11107    10875    10743 
   10797    10970    11115    11165    11141    11075    11009    11001 
   11045    11059    10993    10917    10964    11142    11321    11372 
   11281    11130    10995    10909    10878    10901    10994    11180 
   11395    11502    11437    11268    11124    11064    11053    11037 
   10993    10894    10732    10573    10528    10623    10740    10750 
   10669    10660    10858    11194    11462    11529    11407    11203 
   11024    10912    10843    10777    10681    10570    10540    10666 
   10890    11090    11188    11186    11118    11011    10886    10793 
   10762    10752    10706    10611    10523    10489    10490    10500 
   10542    10623    10717    10808    10903    10995    11014    10916 
   10756    10624    10539    10490    10490    10562    10679    10773 
   10798    10770    10719    10666    10623    10589    10563    10543 
   10524    10508    10505    10536    10617    10750    10912    11060 
   11148    11156    11094    10998    10908    10858    10864    10918 
   10972    10997    11002    11003    10974    10886    10763    10667 
   10644    10673    10694    10671    10598    10507    10465    10521 
   10663    10852    11059    11248    11388    11477    11515    11514 
   11480    11387    11241    11106    11032    11021    11061    11148 
   11260    11333    11310    11200    11090    11064    11141    11263 
   11333    11291    11153    11002    10909    10874    10871    10895 
   10951    11032    11125    11188    11199    11192    11214    11257 
   11257    11159    10970    10760    10628    10613    10679    10764 
   10822    10854    10902    11003    11140    11256    11314    11302 
   11236    11151    11076    11006    10943    10913    10929    10975 
   11036    11102    11151    11156    11103    10991    10848    10737 
   10690    10698    10729    10727    10652    10542    10476    10509 
   10632    10775    10856    10829    10724    10608    10524    10485 
   10477    10461    10413    10384    10447    10615    10831    11013 
   11097    11079    11011    10949    10918    10925    10953    10964 
   10933    10870    10802    10763    10768    10795    10802    10777 
   10737    10729    10785    10917    11101    11275    11384    11425 
   11419    11373    11307    11263    11241    11179    11052    10897 
   10748    10629    10567    10570    10604    10633    10651    10674 
   10739    10858    10987    11087    11140    11129    11075    11038 
   11047    11072    11080    11064    11040    11029    11049    11102 
   11183    11290    11403    11489    11519    11462    11326    11157 
   11005    10899    10859    10862    10870    10862    10833    10795 
   10756    10713    10670    10644    10647    10690    10778    10882 
   10955    10995    11034    11079    11092    11049    10953    10831 
   10736    10717    10766    10856    10966    11057    11109    11111 
   11063    10982    10906    10863    10854    10856    10862    10859 
   10837    10801    10746    10675    10606    10558    10535    10536 
   10577    10673    10795    10901    10978    11049    11109    11119 
   11063    10948    10791    10623    10488    10427    10440    10512 
   10631    10781    10933    11057    11130    11146    11124    11086 
   11059    11049    11037    10994    10918    10828    10732    10642 
   10571    10513    10466    10438    10428    10443    10485    10538 
   10596    10650    10690    10714    10725    10736    10752    10760 
   10744    10700    10625    10525    10435    10403    10457    10594 
   10785    10979    11138    11242    11307    11350    11362    11327 
   11261    11180    11088    10994    10922    10901    10932    10993 
   11059    11109    11137    11149    11146    11134    11133    11159 
   11213    11288    11375    11453    11510    11535    11529    11510 
   11506    11518    11530    11530    11518    11487    11433    11358 
   11279    11199    11115    11029    10959    10930    10955    11010 
   11070    11105    11105    11079    11057    11061    11082    11099 
   11111    11111    11083    11020    10941    10866    10793    10717 
   10655    10639    10663    10692    10701    10701    10716    10759 
   10829    10913    10966    10957    10908    10844    10771    10686 
   10597    10517    10470    10492    10590    10725    10829    10867 
   10858    10855    10893    10962    11007    10987    10902    10773 
   10627    10515    10485    10536    10636    10747    10841    10922 
   10984    11009    10993    10949    10895    10828    10754    10709 
   10714    10770    10862    10959    11024    11049    11056    11061 
   11074    11084    11094    11099    11105    11110    11107    11079 
   11040    11013    10999    10999    11006    11005    10982    10945 
   10918    10918    10937    10952    10939    10885    10809    10750 
   10727    10729    10737    10736    10714    10682    10662    10651 
   10632    10584    10503    10408    10326    10265    10239    10254 
   10301    10363    10444    10531    10604    10655    10683    10698 
   10717    10737    10760    10806    10879    10963    11038    11097 
   11130    11128    11075    10983    10891    10832    10793    10754 
   10709    10670    10643    10625    10623    10650    10712    10790 
   10868    10939    10991    11025    11034    11018    10987    10964 
   10963    10983    11006    11024    11049    11106    11192    11280 
   11335    11348    11327    11299    11269    11244    11218    11186 
   11153    11126    11097    11082    11115    11200    11308    11403 
   11452    11446    11419    11402    11396    11392    11377    11358 
   11345    11334    11323    11306    11279    11248    11225    11221 
   11229    11241    11254    11263    11254    11238    11232    11245 
   11271    11284    11252    11184    11118    11072    11045    11025 
   10999    10962    10918    10887    10879    10893    10913    10920 
   10890    10820    10709    10566    10409    10266    10172    10157 
   10216    10319    10435    10552    10659    10755    10839    10899 
   10935    10963    10998    11033    11040    10999    10914    10818 
   10751    10744    10802    10893    10983    11063    11122    11159 
   11178    11176    11144    11074    10978    10885    10822    10812 
   10858    10937    11017    11061    11047    10979    10899    10822 
   10748    10690    10662    10665    10675    10674    10655    10620 
   10590    10584    10590    10608    10646    10701    10771    10851 
   10932    11005    11049    11033    10964    10893    10844    10813 
   10783    10750    10720    10706    10714    10737    10751    10744 
   10724    10692    10654    10624    10593    10546    10470    10357 
   10234    10156    10152    10222    10328    10427    10500    10562 
   10631    10719    10824    10941    11056    11134    11156    11141 
   11130    11136    11148    11159    11173    11199    11237    11279 
   11298    11286    11268    11256    11252    11265    11298    11352 
   11426    11500    11573    11650    11718    11763    11784    11761 
   11707    11654    11608    11553    11479    11385    11279    11171 
   11072    11002    10993    11047    11144    11250    11330    11371 
   11373    11330    11245    11144    11068    11045    11063    11090 
   11107    11117    11121    11126    11152    11199    11253    11286 
   11276    11219    11128    11020    10898    10760    10624    10501 
   10393    10308    10247    10212    10212    10249    10311    10389 
   10485    10605    10746    10890    11011    11086    11103    11061 
   10966    10837    10697    10551    10416    10315    10265    10272 
   10318    10370    10393    10374    10338    10319    10334    10380 
   10446    10520    10593    10662    10728    10782    10805    10793 
   10755    10697    10633    10596    10608    10665    10748    10824 
   10862    10864    10864    10882    10920    10967    11018    11074 
   11129    11183    11233    11283    11341    11395    11430    11433 
   11389    11329    11281    11263    11287    11356    11438    11489 
   11477    11402    11290    11172    11061    10962    10875    10798 
   10737    10714    10736    10798    10886    10975    11043    11086 
   11097    11091    11101    11140    11200    11273    11338    11387 
   11431    11476    11515    11551    11578    11595    11614    11635 
   11654    11655    11638    11616    11601    11580    11523    11410 
   11245    11067    10905    10775    10690    10633    10573    10496 
   10405    10322    10258    10218    10193    10173    10143    10099 
   10039     9968     9891     9809     9726     9664     9645     9676 
    9755     9867     9984    10079    10123    10123    10111    10104 
   10096    10083    10068    10062    10077    10110    10158    10222 
   10293    10355    10385    10368    10295    10180    10045     9910 
    9795     9711     9663     9661     9702     9769     9849     9938 
   10034    10127    10207    10269    10308    10324    10332    10354 
   10404    10493    10623    10781    10947    11097    11205    11288 
   11385    11518    11691    11894    12090    12258    12397    12515 
   12617    12700    12769    12816    12834    12819    12781    12734 
   12676    12591    12463    12278    12042    11776    11502    11254 
   11057    10906    10789    10692    10608    10552    10534    10555 
   10631    10766    10933    11105    11271    11416    11518    11562 
   11569    11566    11577    11607    11650    11697    11743    11796 
   11865    11948    12028    12064    12028    11902    11681    11377 
   11018    10651    10323    10060     9861     9705     9564     9440 
    9351     9315     9342     9425     9559     9725     9899    10076 
   10257    10428    10571    10670    10721    10747    10785    10863 
   10984    11133    11288    11449    11616    11797    11994    12190 
   12370    12529    12668    12791    12908    13024    13120    13170 
   13163    13109    13022    12896    12731    12528    12293    12066 
   11878    11746    11676    11647    11632    11623    11623    11646 
   11711    11828    12001    12212    12437    12649    12815    12910 
   12922    12850    12714    12534    12324    12087    11836    11584 
   11345    11115    10898    10701    10528    10382    10251    10120 
    9984     9845     9699     9536     9340     9107     8838     8554 
    8284     8058     7906     7840     7859     7947     8077     8206 
    8294     8313     8262     8156     8017     7869     7738     7646 
    7619     7680     7820     8009     8208     8383     8526     8660 
    8819     9039     9325     9663    10026    10373    10675    10917 
   11095    11221    11308    11379    11449    11524    11593    11642 
   11654    11605    11485    11298    11051    10774    10500    10249 
   10018     9807     9625     9478     9371     9317     9327     9398 
    9521     9694     9923    10227    10602    11028    11461    11844 
   12137    12333    12451    12519    12573    12648    12745    12850 
   12951    13032    13084    13097    13053    12927    12715    12433 
   12112    11789    11499    11268    11102    10994    10941    10930 
   10936    10936    10914    10867    10805    10746    10708    10708 
   10746    10809    10882    10947    10995    11040    11097    11182 
   11300    11457    11645    11851    12050    12209    12313    12347 
   12301    12183    12017    11828    11653    11514    11411    11337 
   11267    11188    11107    11026    10956    10909    10881    10868 
   10874    10889    10891    10868    10820    10756    10697    10648 
   10616    10617    10658    10721    10790    10849    10879    10875 
   10848    10816    10785    10771    10783    10817    10864    10908 
   10935    10948    10963    11007    11095    11230    11403    11601 
   11815    12027    12218    12372    12469    12496    12457    12367 
   12243    12101    11952    11797    11642    11507    11403    11327 
   11273    11229    11175    11080    10922    10702    10427    10123 
    9837     9605     9445     9358     9312     9265     9196     9107 
    9013     8937     8908     8953     9069     9254     9493     9765 
   10065    10388    10721    11040    11307    11497    11611    11669 
   11707    11766    11853    11954    12054    12129    12159    12141 
   12081    11990    11890    11786    11682    11588    11507    11441 
   11375    11284    11156    10976    10750    10498    10261    10076 
    9973     9975    10069    10238    10455    10690    10910    11101 
   11261    11404    11546    11703    11875    12055    12218    12344 
   12415    12436    12430    12425    12444    12498    12580    12669 
   12752    12819    12857    12850    12789    12663    12475    12252 
   12020    11811    11658    11565    11520    11506    11477    11387 
   11207    10939    10613    10280     9969     9695     9450     9215 
    8966     8691     8391     8082     7789     7535     7331     7180 
    7083     7044     7067     7155     7300     7483     7676     7852 
    8004     8139     8278     8433     8610     8802     9007     9225 
    9456     9703     9960    10192    10374    10503    10579    10620 
   10648    10669    10673    10656    10624    10588    10561    10548 
   10551    10566    10584    10594    10605    10621    10654    10723 
   10829    10967    11132    11304    11462    11608    11747    11884 
   12005    12091    12128    12114    12055    11958    11839    11719 
   11615    11531    11468    11430    11414    11410    11406    11398 
   11389    11391    11400    11435    11515    11637    11797    12005 
   12252    12511    12758    12974    13136    13254    13342    13393 
   13406    13389    13336    13257    13173    13095    13026    12972 
   12938    12908    12870    12819    12735    12604    12422    12189 
   11911    11605    11296    11001    10739    10538    10422    10397 
   10451    10563    10705    10852    10995    11132    11254    11365 
   11462    11538    11588    11619    11635    11624    11585    11526 
   11453    11384    11334    11300    11269    11225    11156    11052 
   10912    10747    10566    10378    10185     9988     9790     9599 
    9421     9256     9107     8973     8860     8775     8730     8737 
    8781     8846     8907     8945     8964     8985     9027     9100 
    9208     9343     9497     9670     9861    10065    10273    10477 
   10669    10847    11018    11187    11341    11472    11562    11597 
   11570    11481    11349    11205    11064    10941    10840    10756 
   10683    10621    10567    10524    10496    10485    10490    10505 
   10516    10513    10501    10478    10439    10396    10361    10343 
   10359    10422    10530    10681    10863    11057    11234    11365 
   11450    11506    11547    11589    11631    11664    11680    11672 
   11638    11583    11502    11388    11236    11044    10822    10594 
   10384    10204    10068     9968     9899     9859     9850     9886 
    9971    10104    10266    10432    10585    10713    10828    10948 
   11088    11253    11445    11658    11875    12082    12264    12426 
   12571    12690    12772    12808    12795    12731    12613    12455 
   12271    12071    11869    11673    11491    11327    11191    11082 
   10991    10912    10844    10791    10764    10773    10816    10883 
   10976    11091    11211    11317    11391    11419    11403    11354 
   11284    11213    11155    11109    11076    11048    11002    10928 
   10825    10692    10532    10361    10193    10042     9906     9780 
    9679     9609     9562     9532     9518     9521     9544     9587 
    9660     9778     9946    10164    10417    10697    10994    11299 
   11588    11842    12055    12220    12340    12424    12475    12498 
   12496    12471    12420    12336    12213    12048    11848    11626 
   11391    11160    10947    10758    10593    10466    10381    10335 
   10319    10326    10342    10361    10377    10388    10395    10389 
   10368    10331    10276    10197    10106    10012     9940     9898 
    9879     9880     9899     9919     9937     9949     9946     9934 
    9915     9884     9846     9813     9784     9757     9730     9703 
    9678     9659     9649     9647     9649     9648     9640     9633 
    9637     9667     9732     9832     9961    10118    10292    10473 
   10650    10822    10987    11140    11287    11431    11564    11680 
   11776    11851    11919    11981    12029    12056    12067    12067 
   12058    12046    12043    12050    12062    12078    12090    12097 
   12097    12086    12066    12037    12000    11965    11935    11919 
   11919    11929    11942    11954    11961    11951    11915    11844 
   11745    11616    11470    11314    11155    10999    10870    10787 
   10767    10808    10890    10999    11113    11218    11308    11372 
   11411    11433    11430    11396    11329    11230    11111    10978 
   10832    10692    10571    10478    10422    10404    10428    10478 
   10536    10602    10669    10720    10756    10775    10775    10770 
   10766    10771    10790    10821    10854    10882    10910    10933 
   10947    10951    10947    10933    10903    10858    10798    10728 
   10648    10563    10480    10396    10320    10269    10246    10255 
   10299    10361    10434    10513    10579    10620    10652    10689 
   10733    10801    10893    11007    11140    11286    11443    11601 
   11746    11873    11979    12066    12133    12177    12190    12178 
   12145    12097    12033    11956    11869    11766    11651    11545 
   11462    11407    11384    11385    11396    11406    11416    11429 
   11441    11448    11443    11431    11412    11395    11396    11426 
   11477    11535    11576    11583    11550    11475    11365    11234 
   11094    10960    10839    10723    10615    10517    10424    10330 
   10237    10150    10079    10026     9995     9987    10002    10037 
   10085    10142    10203    10250    10281    10303    10316    10320 
   10322    10323    10327    10330    10330    10330    10332    10335 
   10339    10347    10358    10373    10388    10401    10408    10403 
   10388    10366    10328    10278    10220    10153    10081    10014 
    9952     9903     9865     9837     9823     9840     9887     9952 
   10029    10114    10201    10281    10345    10395    10428    10447 
   10459    10462    10461    10466    10477    10488    10494    10490 
   10474    10451    10424    10411    10416    10435    10462    10489 
   10512    10538    10565    10594    10633    10677    10728    10794 
   10875    10968    11076    11200    11330    11457    11572    11662 
   11730    11786    11834    11863    11880    11885    11884    11880 
   11870    11846    11809    11763    11708    11643    11576    11508 
