Origin Time       2025/06/03 22:18:00
Lat.              41.7
Long.             143.6
Depth. (km)       30
Mag.              5.2
Station Code      HDKH05
Station Lat.      42.5977
Station Long.     142.5446
Station Height(m) 305
Record Time       2025/06/03 22:19:04
Sampling Freq(Hz) 100Hz
Duration Time(s)  120
Dir.              5
Scale Factor      3920(gal)/6170801
Max. Acc. (gal)   0.460
Last Correction   2025/06/03 22:18:48
Memo.             
[...]
   -7716    -7731    -7716    -7677    -7630    -7592    -7567    -7556 
   -7563    -7598    -7658    -7721    -7756    -7745    -7678    -7579 
   -7497    -7464    -7476    -7503    -7525    -7536    -7543    -7550 
   -7547    -7525    -7495    -7479    -7493    -7535    -7588    -7633 
   -7660    -7663    -7646    -7618    -7595    -7580    -7568    -7561 
   -7569    -7598    -7638    -7674    -7688    -7671    -7645    -7631 
   -7625    -7616    -7612    -7618    -7635    -7654    -7674    -7692 
   -7688    -7654    -7611    -7586    -7583    -7598    -7626    -7662 
   -7698    -7726    -7730    -7704    -7661    -7624    -7607    -7615 
   -7652    -7706    -7743    -7744    -7724    -7701    -7686    -7694 
   -7722    -7750    -7752    -7708    -7619    -7514    -7427    -7377 
   -7376    -7419    -7478    -7517    -7519    -7492    -7465    -7473 
   -7519    -7594    -7675    -7730    -7738    -7703    -7647    -7605 
   -7591    -7594    -7601    -7597    -7575    -7552    -7553    -7585 
   -7629    -7659    -7659    -7632    -7594    -7562    -7561    -7591 
   -7629    -7663    -7687    -7704    -7714    -7708    -7671    -7600 
   -7518    -7452    -7421    -7423    -7453    -7494    -7532    -7560 
   -7581    -7591    -7587    -7575    -7560    -7546    -7557    -7604 
   -7673    -7736    -7776    -7787    -7773    -7739    -7697    -7654 
   -7611    -7571    -7538    -7522    -7547    -7606    -7661    -7677 
   -7654    -7625    -7610    -7609    -7617    -7621    -7610    -7589 
   -7571    -7560    -7558    -7564    -7571    -7581    -7606    -7654 
   -7710    -7756    -7776    -7764    -7724    -7662    -7600    -7557 
   -7544    -7554    -7579    -7608    -7629    -7625    -7599    -7582 
   -7600    -7652    -7710    -7738    -7716    -7640    -7541    -7460 
   -7410    -7386    -7389    -7426    -7500    -7617    -7752    -7866 
   -7922    -7906    -7828    -7715    -7599    -7506    -7449    -7437 
   -7471    -7531    -7589    -7634    -7662    -7672    -7670    -7666 
   -7658    -7651    -7652    -7658    -7670    -7690    -7708    -7706 
   -7671    -7616    -7570    -7546    -7537    -7533    -7536    -7537 
   -7529    -7519    -7524    -7542    -7559    -7564    -7558    -7550 
   -7547    -7546    -7552    -7569    -7591    -7616    -7647    -7689 
   -7739    -7775    -7777    -7739    -7677    -7614    -7577    -7585 
   -7638    -7714    -7780    -7805    -7775    -7696    -7593    -7495 
   -7422    -7391    -7399    -7426    -7453    -7473    -7483    -7484 
   -7487    -7503    -7542    -7598    -7663    -7721    -7742    -7719 
   -7680    -7643    -7601    -7549    -7504    -7476    -7466    -7488 
   -7548    -7620    -7675    -7704    -7699    -7662    -7607    -7564 
   -7560    -7595    -7639    -7667    -7664    -7628    -7577    -7526 
   -7481    -7462    -7493    -7566    -7658    -7736    -7768    -7751 
   -7708    -7659    -7629    -7628    -7633    -7620    -7595    -7575 
   -7575    -7598    -7632    -7660    -7675    -7681    -7688    -7701 
   -7718    -7729    -7723    -7701    -7673    -7651    -7656    -7687 
   -7719    -7735    -7737    -7726    -7698    -7656    -7604    -7552 
   -7507    -7482    -7478    -7486    -7501    -7530    -7566    -7593 
   -7610    -7621    -7630    -7638    -7639    -7633    -7621    -7602 
   -7572    -7527    -7476    -7437    -7421    -7424    -7450    -7506 
   -7581    -7646    -7685    -7689    -7654    -7586    -7511    -7457 
   -7429    -7423    -7436    -7469    -7516    -7571    -7630    -7672 
   -7674    -7642    -7600    -7565    -7552    -7579    -7643    -7712 
   -7766    -7794    -7787    -7749    -7695    -7641    -7600    -7570 
   -7541    -7518    -7519    -7564    -7643    -7719    -7761    -7758 
   -7708    -7640    -7603    -7610    -7648    -7696    -7737    -7759 
   -7751    -7722    -7689    -7663    -7645    -7633    -7613    -7577 
   -7529    -7487    -7463    -7460    -7473    -7488    -7493    -7490 
   -7498    -7535    -7600    -7672    -7728    -7750    -7733    -7685 
   -7633    -7600    -7587    -7586    -7591    -7598    -7606    -7616 
   -7619    -7602    -7566    -7532    -7515    -7516    -7535    -7565 
   -7588    -7598    -7598    -7599    -7605    -7606    -7597    -7580 
   -7558    -7543    -7550    -7585    -7633    -7679    -7715    -7738 
   -7736    -7705    -7657    -7608    -7578    -7577    -7600    -7636 
   -7675    -7698    -7705    -7706    -7711    -7725    -7738    -7751 
   -7771    -7789    -7784    -7747    -7681    -7598    -7511    -7439 
   -7402    -7406    -7441    -7492    -7546    -7597    -7648    -7690 
   -7711    -7716    -7706    -7678    -7637    -7589    -7542    -7498 
   -7468    -7467    -7497    -7553    -7616    -7671    -7708    -7719 
   -7702    -7676    -7663    -7663    -7668    -7674    -7668    -7636 
   -7578    -7510    -7454    -7432    -7449    -7492    -7542    -7589 
   -7621    -7634    -7630    -7609    -7570    -7523    -7476    -7440 
   -7433    -7465    -7537    -7640    -7751    -7833    -7866    -7855 
   -7808    -7740    -7663    -7581    -7504    -7445    -7411    -7405 
   -7422    -7455    -7506    -7569    -7632    -7684    -7713    -7711 
   -7678    -7622    -7569    -7543    -7547    -7564    -7577    -7566 
   -7522    -7464    -7428    -7441    -7503    -7585    -7654    -7692 
   -7699    -7673    -7627    -7587    -7570    -7567    -7563    -7554 
   -7542    -7537    -7544    -7560    -7586    -7617    -7641    -7649 
   -7642    -7627    -7621    -7641    -7686    -7734    -7771    -7784 
   -7766    -7734    -7714    -7715    -7736    -7756    -7757    -7733 
   -7691    -7638    -7586    -7547    -7527    -7527    -7543    -7572 
   -7609    -7643    -7663    -7663    -7648    -7627    -7611    -7600 
   -7594    -7588    -7580    -7573    -7575    -7590    -7614    -7630 
   -7632    -7623    -7606    -7580    -7553    -7545    -7564    -7608 
   -7659    -7689    -7683    -7651    -7617    -7603    -7610    -7615 
   -7608    -7592    -7573    -7568    -7587    -7625    -7665    -7692 
   -7693    -7661    -7600    -7532    -7472    -7429    -7416    -7437 
   -7474    -7517    -7563    -7613    -7656    -7682    -7680    -7638 
   -7555    -7456    -7379    -7352    -7378    -7433    -7488    -7529 
   -7548    -7544    -7534    -7533    -7544    -7563    -7588    -7616 
   -7645    -7669    -7690    -7707    -7707    -7681    -7642    -7612 
   -7600    -7603    -7610    -7613    -7623    -7641    -7654    -7665 
   -7688    -7720    -7754    -7781    -7793    -7781    -7748    -7696 
   -7633    -7581    -7557    -7570    -7622    -7691    -7758    -7811 
   -7834    -7822    -7786    -7746    -7712    -7672    -7624    -7578 
   -7536    -7502    -7488    -7497    -7519    -7552    -7596    -7634 
   -7653    -7644    -7605    -7552    -7508    -7487    -7505    -7558 
   -7620    -7668    -7684    -7659    -7621    -7597    -7593    -7604 
   -7620    -7634    -7647    -7666    -7696    -7732    -7757    -7761 
   -7745    -7718    -7683    -7634    -7571    -7501    -7435    -7393 
   -7387    -7415    -7473    -7554    -7628    -7679    -7715    -7740 
   -7743    -7724    -7688    -7638    -7590    -7563    -7560    -7563 
   -7556    -7544    -7539    -7550    -7572    -7584    -7566    -7520 
   -7470    -7435    -7423    -7441    -7480    -7509    -7512    -7499 
   -7487    -7477    -7472    -7478    -7497    -7528    -7569    -7622 
   -7682    -7734    -7761    -7757    -7732    -7689    -7637    -7587 
   -7551    -7539    -7552    -7576    -7593    -7593    -7573    -7539 
   -7502    -7471    -7463    -7487    -7538    -7608    -7689    -7767 
   -7826    -7848    -7831    -7783    -7710    -7621    -7542    -7494 
   -7486    -7519    -7576    -7639    -7696    -7734    -7743    -7724 
   -7688    -7650    -7611    -7573    -7549    -7551    -7573    -7603 
   -7635    -7665    -7687    -7705    -7721    -7729    -7732    -7741 
   -7760    -7793    -7833    -7871    -7895    -7891    -7860    -7807 
   -7741    -7676    -7622    -7586    -7578    -7593    -7607    -7603 
   -7583    -7551    -7504    -7447    -7388    -7341    -7321    -7336 
   -7395    -7490    -7589    -7659    -7680    -7648    -7582    -7506 
   -7447    -7420    -7418    -7434    -7468    -7513    -7555    -7581 
   -7587    -7581    -7573    -7569    -7578    -7604    -7649    -7704 
   -7750    -7781    -7795    -7783    -7742    -7677    -7607    -7560 
   -7544    -7549    -7569    -7596    -7629    -7662    -7686    -7688 
   -7668    -7635    -7611    -7624    -7679    -7752    -7812    -7845 
   -7852    -7837    -7813    -7793    -7773    -7739    -7685    -7617 
   -7546    -7497    -7488    -7504    -7518    -7516    -7496    -7470 
   -7462    -7482    -7524    -7582    -7639    -7683    -7710    -7721 
   -7713    -7692    -7669    -7645    -7616    -7582    -7556    -7551 
   -7571    -7606    -7645    -7676    -7694    -7712    -7739    -7766 
   -7788    -7799    -7788    -7753    -7700    -7647    -7605    -7569 
   -7542    -7522    -7505    -7497    -7511    -7540    -7568    -7599 
   -7642    -7695    -7756    -7821    -7869    -7875    -7830    -7744 
   -7636    -7527    -7445    -7410    -7424    -7478    -7552    -7613 
   -7642    -7640    -7615    -7580    -7543    -7501    -7453    -7403 
   -7360    -7345    -7367    -7425    -7502    -7583    -7661    -7727 
   -7756    -7734    -7675    -7611    -7571    -7569    -7602    -7649 
   -7686    -7704    -7715    -7725    -7726    -7709    -7672    -7621 
   -7569    -7521    -7482    -7457    -7451    -7470    -7511    -7574 
   -7651    -7722    -7777    -7809    -7814    -7808    -7795    -7762 
   -7705    -7634    -7567    -7526    -7517    -7538    -7574    -7600 
   -7605    -7581    -7516    -7426    -7352    -7330    -7383    -7503 
   -7640    -7727    -7730    -7653    -7521    -7368    -7222    -7103 
   -7022    -6977    -6977    -7031    -7126    -7233    -7336    -7426 
   -7492    -7538    -7573    -7594    -7592    -7562    -7516    -7466 
   -7432    -7432    -7463    -7509    -7544    -7537    -7476    -7381 
   -7299    -7261    -7276    -7333    -7418    -7517    -7615    -7709 
   -7790    -7830    -7816    -7772    -7726    -7697    -7700    -7739 
   -7789    -7824    -7826    -7795    -7735    -7659    -7589    -7539 
   -7528    -7581    -7699    -7850    -7988    -8072    -8087    -8045 
   -7981    -7920    -7871    -7837    -7825    -7833    -7855    -7887 
   -7925    -7954    -7959    -7926    -7851    -7746    -7637    -7552 
   -7510    -7515    -7551    -7586    -7596    -7581    -7553    -7526 
   -7514    -7539    -7601    -7686    -7778    -7856    -7903    -7904 
   -7857    -7781    -7708    -7658    -7641    -7657    -7697    -7750 
   -7815    -7883    -7929    -7929    -7889    -7826    -7739    -7641 
   -7557    -7498    -7466    -7458    -7466    -7481    -7501    -7506 
   -7473    -7399    -7305    -7225    -7203    -7262    -7395    -7580 
   -7780    -7952    -8069    -8112    -8062    -7931    -7763    -7602 
   -7475    -7392    -7353    -7346    -7350    -7352    -7359    -7379 
   -7403    -7418    -7418    -7405    -7392    -7393    -7408    -7417 
   -7396    -7341    -7267    -7201    -7169    -7177    -7201    -7218 
   -7214    -7194    -7184    -7209    -7273    -7370    -7485    -7597 
   -7692    -7754    -7763    -7719    -7638    -7546    -7471    -7438 
   -7451    -7503    -7580    -7666    -7746    -7811    -7842    -7831 
   -7795    -7767    -7784    -7863    -7994    -8131    -8228    -8267 
   -8255    -8216    -8170    -8115    -8035    -7930    -7811    -7701 
   -7619    -7569    -7524    -7462    -7376    -7278    -7203    -7189 
   -7243    -7351    -7495    -7642    -7751    -7796    -7766    -7671 
   -7539    -7408    -7321    -7307    -7359    -7446    -7543    -7634 
   -7696    -7718    -7701    -7668    -7654    -7696    -7804    -7949 
   -8086    -8166    -8141    -8003    -7806    -7620    -7483    -7416 
   -7417    -7452    -7485    -7502    -7495    -7463    -7421    -7391 
   -7388    -7408    -7423    -7416    -7377    -7303    -7217    -7160 
   -7168    -7242    -7364    -7506    -7639    -7736    -7780    -7777 
   -7748    -7704    -7670    -7675    -7729    -7801    -7858    -7873 
   -7832    -7740    -7625    -7527    -7454    -7386    -7323    -7285 
   -7283    -7325    -7412    -7530    -7658    -7783    -7894    -7981 
   -8033    -8037    -7982    -7862    -7698    -7540    -7432    -7399 
   -7434    -7511    -7604    -7706    -7814    -7906    -7941    -7889 
   -7749    -7555    -7362    -7231    -7193    -7242    -7352    -7485 
   -7599    -7672    -7703    -7705    -7696    -7700    -7732    -7797 
   -7904    -8037    -8153    -8220    -8246    -8254    -8253    -8247 
   -8236    -8197    -8117    -8005    -7875    -7755    -7682    -7681 
   -7739    -7823    -7900    -7954    -7966    -7926    -7839    -7720 
   -7577    -7435    -7335    -7297    -7315    -7366    -7417    -7445 
   -7440    -7406    -7350    -7292    -7252    -7236    -7241    -7263 
   -7292    -7314    -7314    -7290    -7264    -7251    -7263    -7301 
   -7339    -7349    -7324    -7274    -7215    -7171    -7159    -7191 
   -7258    -7343    -7423    -7475    -7486    -7446    -7359    -7239 
   -7110    -7006    -6959    -6984    -7072    -7198    -7328    -7435 
   -7489    -7478    -7428    -7384    -7379    -7433    -7545    -7690 
   -7838    -7967    -8072    -8156    -8222    -8273    -8313    -8334 
   -8329    -8294    -8241    -8184    -8130    -8085    -8048    -8004 
   -7947    -7888    -7839    -7801    -7769    -7740    -7722    -7727 
   -7759    -7808    -7853    -7864    -7829    -7754    -7655    -7554 
   -7465    -7397    -7356    -7349    -7383    -7447    -7515    -7560 
   -7563    -7513    -7420    -7323    -7273    -7303    -7419    -7602 
   -7813    -7998    -8114    -8133    -8049    -7887    -7700    -7549 
   -7479    -7505    -7605    -7731    -7845    -7923    -7947    -7911 
   -7824    -7696    -7546    -7407    -7322    -7310    -7358    -7431 
   -7490    -7513    -7490    -7425    -7341    -7262    -7197    -7155 
   -7146    -7170    -7214    -7267    -7309    -7322    -7296    -7236 
   -7164    -7112    -7106    -7163    -7294    -7485    -7703    -7911 
   -8073    -8159    -8160    -8091    -7986    -7874    -7778    -7721 
   -7711    -7731    -7765    -7807    -7865    -7946    -8032    -8089 
   -8090    -8019    -7874    -7681    -7486    -7336    -7268    -7287 
   -7358    -7442    -7513    -7550    -7551    -7543    -7549    -7575 
   -7618    -7659    -7672    -7649    -7597    -7534    -7481    -7453 
   -7457    -7498    -7560    -7610    -7639    -7650    -7643    -7629 
   -7621    -7613    -7591    -7555    -7510    -7455    -7397    -7335 
   -7269    -7220    -7209    -7256    -7372    -7540    -7711    -7828 
   -7855    -7799    -7694    -7582    -7493    -7431    -7388    -7363 
   -7368    -7409    -7488    -7603    -7729    -7833    -7904    -7939 
   -7941    -7922    -7886    -7833    -7773    -7725    -7698    -7700 
   -7742    -7824    -7927    -8029    -8110    -8153    -8150    -8111 
   -8059    -8009    -7968    -7939    -7910    -7860    -7788    -7708 
   -7640    -7590    -7546    -7501    -7449    -7389    -7330    -7288 
   -7274    -7290    -7327    -7371    -7409    -7431    -7427    -7398 
   -7340    -7250    -7141    -7036    -6961    -6940    -6983    -7087 
   -7243    -7440    -7643    -7795    -7861    -7842    -7757    -7638 
   -7519    -7421    -7348    -7280    -7203    -7136    -7098    -7089 
   -7107    -7159    -7241    -7343    -7455    -7573    -7682    -7766 
   -7815    -7830    -7824    -7809    -7793    -7784    -7788    -7800 
   -7821    -7855    -7904    -7956    -8007    -8068    -8142    -8215 
   -8279    -8319    -8321    -8283    -8214    -8125    -8032    -7943 
   -7860    -7785    -7708    -7619    -7520    -7414    -7317    -7249 
   -7224    -7248    -7319    -7423    -7533    -7616    -7655    -7647 
   -7597    -7518    -7441    -7388    -7372    -7398    -7454    -7516 
   -7569    -7597    -7584    -7539    -7490    -7469    -7499    -7583 
   -7703    -7823    -7906    -7930    -7893    -7808    -7704    -7613 
   -7566    -7577    -7637    -7719    -7783    -7791    -7720    -7579 
   -7409    -7263    -7179    -7173    -7248    -7387    -7553    -7713 
   -7843    -7921    -7940    -7915    -7866    -7821    -7798    -7793 
   -7796    -7790    -7755    -7686    -7598    -7514    -7448    -7405 
   -7377    -7349    -7309    -7251    -7184    -7143    -7147    -7195 
   -7277    -7369    -7437    -7458    -7434    -7387    -7348    -7334 
   -7351    -7388    -7433    -7483    -7529    -7578    -7642    -7724 
   -7815    -7898    -7957    -7990    -7997    -7989    -7982    -7982 
   -7980    -7973    -7953    -7904    -7831    -7759    -7702    -7657 
   -7619    -7587    -7558    -7534    -7520    -7517    -7521    -7521 
   -7509    -7486    -7462    -7448    -7451    -7471    -7504    -7543 
   -7594    -7657    -7712    -7743    -7754    -7754    -7754    -7775 
   -7831    -7904    -7956    -7960    -7897    -7780    -7648    -7537 
   -7474    -7461    -7485    -7527    -7567    -7598    -7623    -7628 
   -7603    -7553    -7483    -7400    -7325    -7281    -7282    -7326 
   -7404    -7503    -7601    -7670    -7702    -7712    -7706    -7687 
   -7663    -7643    -7633    -7633    -7643    -7678    -7736    -7788 
   -7819    -7822    -7790    -7731    -7663    -7596    -7534    -7478 
   -7434    -7401    -7373    -7355    -7346    -7339    -7337    -7344 
   -7368    -7414    -7465    -7501    -7510    -7492    -7456    -7411 
   -7369    -7344    -7342    -7369    -7426    -7507    -7611    -7729 
   -7840    -7926    -7980    -7990    -7951    -7878    -7797    -7726 
   -7681    -7668    -7673    -7678    -7668    -7644    -7619    -7592 
   -7562    -7532    -7507    -7490    -7490    -7517    -7559    -7600 
   -7630    -7649    -7663    -7672    -7673    -7668    -7655    -7637 
   -7617    -7600    -7612    -7678    -7792    -7924    -8036    -8101 
   -8108    -8058    -7966    -7859    -7761    -7683    -7631    -7608 
   -7604    -7602    -7596    -7589    -7586    -7585    -7586    -7582 
   -7575    -7574    -7577    -7574    -7561    -7533    -7487    -7437 
   -7395    -7380    -7401    -7443    -7482    -7512    -7530    -7541 
   -7563    -7601    -7647    -7685    -7703    -7694    -7662    -7612 
   -7548    -7484    -7434    -7402    -7392    -7407    -7445    -7495 
   -7542    -7582    -7614    -7637    -7654    -7671    -7692    -7723 
   -7766    -7812    -7841    -7828    -7769    -7688    -7602    -7528 
   -7482    -7477    -7514    -7585    -7685    -7799    -7900    -7954 
   -7947    -7882    -7782    -7682    -7609    -7570    -7552    -7539 
   -7516    -7474    -7417    -7354    -7292    -7244    -7215    -7213 
   -7255    -7341    -7440    -7532    -7609    -7669    -7713    -7753 
   -7793    -7830    -7867    -7899    -7922    -7932    -7929    -7912 
   -7884    -7847    -7805    -7759    -7701    -7623    -7533    -7440 
   -7350    -7281    -7255    -7276    -7336    -7424    -7517    -7597 
   -7648    -7660    -7644    -7620    -7600    -7586    -7583    -7588 
