Origin Time       2025/06/03 22:18:00
Lat.              41.7
Long.             143.6
Depth. (km)       30
Mag.              5.2
Station Code      HDKH03
Station Lat.      42.5934
Station Long.     142.3521
Station Height(m) 54
Record Time       2025/06/03 22:19:10
Sampling Freq(Hz) 100Hz
Duration Time(s)  120
Dir.              2
Scale Factor      2942(gal)/8224139
Max. Acc. (gal)   0.265
Last Correction   2025/06/03 22:18:54
Memo.             
[...]
   70298    70305    70305    70317    70332    70335    70337    70345 
   70349    70348    70347    70357    70368    70376    70395    70401 
   70378    70374    70382    70374    70378    70390    70402    70413 
   70417    70424    70437    70440    70440    70455    70471    70476 
   70479    70486    70480    70465    70460    70451    70429    70426 
   70424    70391    70360    70341    70329    70318    70309    70303 
   70302    70305    70316    70314    70298    70293    70281    70251 
   70236    70231    70221    70224    70233    70248    70258    70264 
   70282    70293    70294    70301    70318    70330    70326    70328 
   70339    70336    70330    70333    70345    70372    70401    70430 
   70467    70497    70513    70532    70548    70552    70549    70545 
   70542    70534    70514    70503    70497    70474    70471    70486 
   70487    70490    70486    70486    70492    70475    70448    70436 
   70432    70424    70401    70383    70374    70355    70335    70313 
   70276    70239    70204    70168    70141    70124    70109    70100 
   70100    70097    70090    70083    70070    70058    70058    70055 
   70055    70069    70083    70102    70116    70132    70156    70163 
   70160    70168    70171    70168    70178    70191    70195    70200 
   70216    70222    70220    70235    70247    70260    70298    70329 
   70349    70386    70410    70417    70433    70443    70436    70428 
   70421    70414    70411    70406    70399    70398    70397    70383 
   70366    70348    70328    70314    70314    70314    70306    70302 
   70303    70298    70291    70294    70295    70308    70326    70328 
   70316    70310    70316    70321    70322    70328    70347    70366 
   70375    70386    70410    70432    70438    70448    70451    70438 
   70441    70449    70443    70441    70449    70460    70465    70461 
   70459    70464    70467    70467    70476    70484    70487    70490 
   70488    70483    70484    70488    70488    70494    70503    70524 
   70540    70528    70519    70528    70515    70495    70488    70480 
   70476    70479    70487    70492    70488    70487    70480    70455 
   70434    70426    70406    70393    70398    70402    70401    70403 
   70401    70399    70389    70355    70329    70318    70291    70260 
   70236    70214    70198    70177    70148    70136    70124    70097 
   70077    70066    70042    70009    69975    69947    69939    69938 
   69939    69957    69965    69958    69975    70009    70019    70020 
   70040    70070    70083    70081    70094    70121    70136    70166 
   70212    70244    70270    70302    70329    70347    70363    70390 
   70413    70413    70426    70468    70490    70487    70506    70525 
   70522    70521    70511    70495    70491    70490    70480    70474 
   70472    70463    70459    70470    70460    70437    70433    70426 
   70410    70395    70374    70352    70336    70333    70335    70333 
   70332    70326    70318    70322    70329    70340    70359    70375 
   70379    70367    70352    70345    70336    70313    70303    70313 
   70313    70306    70301    70297    70286    70271    70275    70286 
   70282    70271    70259    70251    70247    70244    70244    70245 
   70255    70268    70281    70290    70297    70309    70332    70360 
   70386    70403    70420    70433    70438    70448    70453    70459 
   70471    70464    70447    70441    70430    70410    70397    70395 
   70393    70386    70394    70399    70401    70411    70407    70391 
   70390    70379    70357    70343    70335    70326    70318    70310 
   70310    70316    70309    70297    70289    70274    70263    70262 
   70259    70266    70291    70308    70312    70330    70347    70343 
   70343    70347    70344    70343    70351    70357    70356    70363 
   70374    70386    70397    70403    70416    70437    70452    70456 
   70449    70434    70418    70403    70383    70355    70326    70306 
   70290    70275    70259    70252    70247    70233    70241    70251 
   70240    70236    70236    70229    70235    70232    70217    70224 
   70236    70229    70228    70243    70249    70252    70255    70254 
   70266    70282    70290    70301    70308    70316    70325    70333 
   70344    70352    70359    70370    70370    70360    70360    70360 
   70352    70347    70351    70356    70355    70356    70353    70343 
   70336    70328    70320    70316    70305    70302    70302    70283 
   70267    70270    70267    70270    70289    70299    70306    70310 
   70299    70298    70298    70289    70287    70275    70264    70274 
   70274    70271    70291    70305    70306    70313    70317    70321 
   70326    70326    70336    70356    70375    70397    70409    70394 
   70382    70376    70351    70321    70306    70287    70267    70268 
   70276    70272    70271    70279    70286    70295    70310    70320 
   70328    70341    70351    70357    70360    70359    70366    70372 
   70376    70376    70371    70367    70356    70349    70359    70364 
   70360    70363    70370    70371    70379    70391    70403    70413 
   70410    70422    70437    70436    70447    70452    70436    70433 
   70421    70383    70352    70329    70310    70301    70303    70305 
   70310    70330    70348    70352    70355    70363    70372    70371 
   70355    70339    70332    70318    70298    70285    70270    70264 
   70270    70255    70240    70231    70205    70194    70200    70185 
   70171    70189    70208    70220    70237    70258    70276    70286 
   70287    70285    70274    70256    70245    70236    70227    70225 
   70222    70225    70236    70239    70245    70255    70249    70252 
   70279    70298    70308    70328    70339    70344    70367    70379 
   70389    70413    70420    70414    70410    70393    70382    70386 
   70379    70372    70368    70352    70332    70303    70267    70254 
   70245    70224    70217    70227    70217    70200    70191    70186 
   70185    70193    70205    70212    70225    70247    70248    70229 
   70212    70197    70168    70127    70102    70098    70093    70096 
   70101    70104    70116    70128    70137    70150    70166    70187 
   70214    70240    70271    70305    70329    70352    70386    70411 
   70428    70451    70474    70490    70503    70509    70514    70517 
   70521    70528    70529    70544    70573    70603    70629    70657 
   70692    70734    70764    70779    70799    70822    70833    70852 
   70875    70872    70854    70841    70818    70787    70764    70741 
   70710    70680    70667    70664    70657    70646    70642    70637 
   70633    70633    70621    70596    70582    70564    70530    70494 
   70459    70424    70391    70367    70352    70339    70333    70333 
   70329    70324    70306    70276    70247    70213    70175    70144 
   70128    70119    70112    70123    70147    70159    70162    70175 
   70186    70178    70173    70181    70191    70197    70217    70249 
   70262    70266    70290    70302    70297    70306    70309    70302 
   70309    70303    70301    70312    70293    70267    70267    70259 
   70235    70225    70217    70195    70191    70200    70186    70179 
   70200    70220    70232    70244    70270    70299    70308    70306 
   70325    70343    70341    70355    70378    70384    70394    70414 
   70434    70448    70465    70482    70483    70478    70483    70490 
   70490    70484    70478    70468    70447    70422    70390    70337 
   70285    70243    70205    70156    70109    70083    70059    70031 
   70002    69979    69965    69951    69931    69911    69897    69886 
   69877    69870    69877    69897    69907    69916    69939    69954 
   69966    69989    70009    70029    70058    70090    70133    70191 
   70245    70291    70325    70344    70357    70359    70360    70370 
   70371    70371    70376    70370    70363    70357    70339    70325 
   70321    70314    70318    70328    70333    70348    70357    70356 
   70359    70360    70359    70367    70387    70406    70420    70448 
   70468    70467    70461    70444    70420    70402    70384    70370 
   70364    70360    70362    70372    70380    70378    70375    70364 
   70343    70333    70325    70301    70283    70270    70241    70210 
   70177    70141    70113    70083    70052    70029    70012    70005 
   70002    70005    70040    70098    70150    70200    70262    70321 
   70360    70395    70432    70438    70436    70447    70455    70464 
   70476    70479    70498    70532    70551    70568    70592    70602 
   70610    70619    70615    70613    70613    70611    70629    70644 
   70652    70673    70699    70710    70706    70698    70681    70654 
   70630    70619    70605    70582    70560    70540    70519    70505 
   70488    70479    70480    70476    70472    70486    70510    70529 
   70537    70560    70592    70605    70607    70607    70592    70561 
   70517    70472    70433    70390    70345    70326    70317    70295 
   70275    70264    70248    70231    70209    70187    70175    70163 
   70151    70147    70144    70148    70148    70133    70125    70124 
   70109    70094    70086    70069    70048    70033    70012    69992 
   69986    69990    70004    70028    70059    70083    70097    70116 
   70143    70156    70166    70193    70220    70254    70305    70362 
   70414    70476    70544    70603    70652    70690    70711    70726 
   70730    70718    70699    70673    70649    70614    70573    70544 
   70501    70440    70406    70383    70330    70283    70264    70244 
   70216    70195    70166    70124    70096    70073    70031    69997 
   69990    69993    70006    70033    70060    70087    70110    70120 
   70124    70136    70155    70170    70189    70221    70254    70291 
   70341    70383    70411    70443    70478    70499    70505    70506 
   70511    70514    70505    70486    70465    70456    70453    70452 
   70461    70470    70464    70470    70490    70491    70501    70532 
   70537    70532    70536    70529    70521    70517    70519    70533 
   70533    70536    70544    70534    70522    70513    70479    70451 
   70447    70433    70426    70424    70402    70393    70376    70326 
   70282    70247    70195    70136    70077    70013    69958    69917 
   69880    69855    69847    69839    69830    69816    69795    69766 
   69746    69746    69747    69750    69793    69858    69928    70012 
   70089    70162    70241    70302    70351    70389    70406    70425 
   70432    70407    70384    70378    70370    70349    70333    70336 
   70344    70352    70376    70401    70406    70411    70409    70403 
   70399    70383    70367    70362    70368    70375    70366    70374 
   70403    70402    70389    70401    70407    70401    70409    70426 
   70440    70472    70509    70529    70567    70611    70619    70621 
   70626    70602    70568    70548    70521    70503    70501    70501 
   70497    70472    70441    70422    70401    70379    70351    70321 
   70322    70330    70316    70297    70274    70245    70220    70198 
   70190    70181    70175    70198    70225    70251    70287    70312 
   70322    70325    70321    70308    70286    70271    70256    70228 
   70202    70189    70177    70185    70210    70216    70222    70240 
   70236    70227    70232    70225    70218    70233    70251    70266 
   70279    70283    70294    70293    70268    70247    70235    70213 
   70193    70178    70164    70162    70163    70159    70154    70137 
   70124    70128    70127    70129    70147    70158    70171    70191 
   70206    70216    70228    70247    70270    70287    70305    70339 
   70380    70421    70465    70514    70553    70578    70600    70627 
   70644    70644    70636    70632    70627    70621    70607    70603 
   70611    70598    70579    70583    70575    70551    70544    70540 
   70522    70529    70538    70534    70544    70544    70518    70495 
   70482    70467    70452    70448    70459    70475    70492    70506 
   70515    70521    70524    70533    70526    70499    70487    70475 
   70444    70418    70397    70357    70303    70248    70193    70141 
   70100    70067    70044    70033    70031    70027    70027    70044 
   70075    70098    70119    70148    70167    70171    70168    70154 
   70147    70152    70150    70150    70159    70160    70163    70186 
   70213    70239    70263    70282    70305    70333    70353    70370 
   70383    70390    70401    70418    70429    70430    70429    70429 
   70432    70432    70418    70393    70367    70348    70324    70287 
   70251    70208    70159    70113    70073    70046    70042    70054 
   70070    70083    70108    70146    70173    70186    70216    70256 
   70283    70309    70357    70416    70467    70509    70549    70592 
   70629    70646    70652    70649    70642    70633    70622    70605 
   70586    70587    70599    70603    70623    70649    70663    70673 
   70679    70676    70669    70672    70675    70665    70669    70669 
   70657    70659    70654    70638    70634    70621    70588    70560 
   70541    70519    70501    70499    70514    70536    70555    70568 
   70578    70590    70598    70600    70599    70598    70598    70598 
   70580    70561    70551    70524    70482    70440    70393    70337 
   70282    70216    70150    70090    70035    69988    69931    69869 
   69823    69786    69743    69695    69651    69634    69614    69591 
   69606    69639    69674    69715    69755    69796    69826    69827 
   69822    69819    69807    69785    69766    69757    69758    69765 
   69782    69817    69854    69905    69985    70073    70170    70264 
   70355    70451    70524    70563    70600    70642    70654    70652 
   70657    70649    70642    70671    70698    70715    70749    70787 
   70812    70845    70889    70912    70918    70915    70881    70835 
   70806    70760    70690    70626    70564    70491    70418    70360 
   70320    70275    70233    70214    70198    70191    70194    70185 
   70175    70175    70168    70158    70154    70160    70168    70174 
   70178    70187    70201    70202    70195    70191    70186    70182 
   70187    70186    70171    70162    70170    70174    70166    70164 
   70168    70168    70174    70171    70160    70159    70163    70163 
   70160    70166    70174    70177    70191    70221    70245    70251 
   70276    70324    70356    70391    70438    70471    70499    70522 
   70526    70538    70549    70545    70553    70565    70563    70561 
   70573    70576    70563    70552    70545    70537    70533    70529 
   70524    70521    70517    70494    70476    70474    70457    70437 
   70430    70429    70422    70432    70456    70470    70478    70497 
   70518    70529    70532    70536    70540    70533    70528    70529 
   70530    70538    70540    70519    70495    70461    70418    70372 
   70322    70278    70232    70182    70140    70090    70031    69979 
   69927    69874    69835    69800    69780    69786    69793    69808 
   69851    69896    69935    69990    70050    70094    70133    70181 
   70225    70249    70259    70270    70271    70258    70244    70228 
   70205    70181    70148    70113    70085    70065    70056    70075 
   70124    70181    70249    70337    70407    70456    70506    70537 
   70542    70545    70542    70533    70524    70513    70505    70511 
   70515    70506    70514    70540    70541    70533    70541    70548 
   70544    70544    70556    70573    70578    70587    70615    70633 
   70640    70657    70677    70692    70708    70725    70741    70753 
   70756    70757    70753    70735    70710    70677    70640    70588 
   70526    70475    70432    70382    70326    70267    70208    70170 
   70139    70094    70062    70039    70008    69990    69984    69967 
   69962    69981    70001    70009    70024    70055    70078    70081 
   70090    70123    70141    70154    70179    70198    70213    70245 
   70274    70291    70316    70348    70383    70421    70452    70476 
   70492    70501    70501    70487    70464    70440    70417    70394 
   70370    70345    70314    70275    70243    70210    70170    70124 
   70077    70033    69989    69940    69904    69878    69858    69853 
   69854    69863    69888    69903    69904    69919    69927    69915 
   69916    69931    69943    69963    69994    70025    70059    70104 
   70141    70175    70221    70275    70337    70409    70465    70521 
   70584    70623    70649    70657    70648    70656    70650    70622 
   70619    70630    70636    70652    70665    70671    70671    70656 
   70638    70626    70615    70613    70607    70584    70563    70544 
   70513    70482    70453    70422    70386    70353    70333    70320 
   70316    70328    70356    70393    70418    70445    70482    70487 
   70463    70452    70436    70398    70366    70339    70309    70293 
   70286    70268    70249    70243    70232    70217    70205    70201 
   70198    70187    70174    70164    70151    70143    70143    70136 
   70125    70114    70106    70104    70100    70093    70086    70079 
   70079    70082    70083    70092    70116    70152    70190    70218 
   70255    70301    70340    70383    70426    70459    70501    70538 
   70556    70568    70583    70594    70602    70603    70609    70618 
   70609    70584    70573    70565    70548    70545    70556    70561 
   70568    70579    70592    70611    70632    70654    70675    70694 
   70708    70715    70723    70740    70750    70758    70764    70758 
   70753    70752    70737    70722    70722    70715    70699    70687 
   70667    70637    70603    70569    70529    70480    70441    70399 
   70348    70308    70266    70224    70204    70181    70146    70121 
   70104    70094    70090    70074    70059    70058    70050    70031 
   70021    70021    69998    69970    69970    69982    69985    69993 
   70021    70066    70110    70152    70201    70255    70309    70356 
   70394    70437    70491    70534    70551    70563    70583    70587 
   70565    70541    70518    70487    70456    70426    70390    70357 
   70329    70303    70270    70229    70190    70154    70123    70097 
   70075    70051    70038    70058    70079    70078    70093    70128 
   70162    70197    70228    70267    70313    70343    70370    70410 
   70438    70445    70457    70472    70475    70467    70455    70440 
   70417    70397    70389    70389    70384    70378    70376    70376 
   70368    70364    70367    70362    70335    70305    70278    70233 
   70186    70141    70074    70019    69992    69961    69938    69930 
   69927    69943    69969    69985    69998    70024    70047    70075 
   70121    70163    70202    70245    70278    70299    70324    70328 
   70309    70294    70278    70259    70249    70248    70252    70270 
   70299    70329    70349    70382    70426    70451    70468    70505 
   70533    70532    70529    70532    70514    70499    70494    70470 
   70448    70447    70443    70430    70417    70401    70384    70370 
   70362    70363    70359    70355    70356    70335    70308    70299 
   70274    70225    70182    70144    70105    70073    70059    70042 
