Origin Time       2025/06/03 22:18:00
Lat.              41.7
Long.             143.6
Depth. (km)       30
Mag.              5.2
Station Code      HDKH02
Station Lat.      42.7061
Station Long.     142.4054
Station Height(m) 120
Record Time       2025/06/03 22:19:03
Sampling Freq(Hz) 100Hz
Duration Time(s)  120
Dir.              1
Scale Factor      2940(gal)/6170270
Max. Acc. (gal)   0.466
Last Correction   2025/06/03 22:18:48
Memo.             
[...]
  110292   110285   110271   110253   110243   110239   110235   110234 
  110235   110232   110225   110220   110220   110222   110221   110213 
  110207   110202   110192   110184   110184   110180   110175   110180 
  110189   110199   110212   110226   110240   110251   110259   110264 
  110269   110271   110266   110257   110244   110229   110213   110195 
  110178   110168   110167   110172   110180   110190   110196   110199 
  110197   110190   110185   110178   110164   110150   110133   110118 
  110120   110135   110159   110184   110199   110207   110207   110198 
  110194   110198   110202   110204   110202   110187   110173   110169 
  110170   110173   110172   110169   110168   110163   110158   110162 
  110169   110188   110214   110236   110253   110263   110264   110260 
  110263   110268   110267   110262   110263   110265   110270   110285 
  110298   110303   110308   110306   110297   110291   110290   110290 
  110289   110285   110279   110270   110257   110247   110238   110228 
  110223   110224   110227   110231   110231   110232   110239   110246 
  110248   110247   110244   110235   110226   110229   110239   110246 
  110255   110259   110250   110238   110228   110216   110205   110192 
  110176   110163   110157   110153   110146   110138   110133   110125 
  110120   110131   110153   110175   110193   110201   110199   110193 
  110182   110171   110164   110153   110142   110142   110139   110128 
  110121   110111   110097   110093   110100   110111   110118   110119 
  110122   110131   110147   110163   110172   110170   110169   110170 
  110169   110169   110170   110166   110162   110169   110180   110181 
  110180   110180   110174   110170   110182   110200   110213   110224 
  110233   110235   110240   110250   110261   110270   110277   110280 
  110285   110288   110282   110273   110265   110250   110231   110219 
  110210   110204   110205   110208   110209   110208   110210   110221 
  110234   110248   110271   110294   110309   110318   110318   110306 
  110288   110268   110250   110232   110217   110206   110197   110196 
  110206   110215   110226   110237   110242   110247   110251   110249 
  110246   110241   110234   110229   110220   110218   110226   110231 
  110237   110250   110256   110249   110242   110231   110221   110221 
  110223   110225   110229   110231   110232   110232   110231   110223 
  110206   110188   110167   110138   110113   110101   110100   110110 
  110123   110130   110137   110145   110155   110165   110172   110182 
  110199   110210   110221   110236   110247   110254   110253   110243 
  110234   110228   110218   110207   110195   110185   110183   110182 
  110186   110208   110230   110243   110254   110261   110262   110263 
  110263   110262   110253   110239   110228   110219   110223   110246 
  110263   110264   110261   110257   110251   110247   110251   110255 
  110257   110259   110253   110237   110219   110203   110186   110174 
  110164   110155   110153   110155   110155   110158   110156   110146 
  110140   110136   110135   110138   110143   110150   110154   110157 
  110166   110178   110190   110207   110219   110223   110231   110235 
  110220   110207   110201   110188   110169   110149   110129   110112 
  110107   110120   110138   110155   110172   110181   110184   110185 
  110179   110172   110168   110164   110160   110162   110167   110173 
  110182   110202   110228   110249   110266   110283   110294   110296 
  110288   110269   110256   110255   110248   110242   110242   110242 
  110240   110236   110235   110237   110244   110258   110269   110279 
  110295   110308   110319   110335   110343   110339   110333   110322 
  110306   110290   110278   110270   110260   110249   110248   110256 
  110268   110277   110283   110288   110285   110281   110282   110279 
  110273   110261   110240   110218   110197   110175   110158   110142 
  110125   110118   110125   110141   110159   110175   110186   110187 
  110182   110171   110154   110141   110134   110136   110150   110157 
  110153   110152   110154   110150   110153   110160   110155   110149 
  110153   110162   110177   110202   110226   110240   110250   110260 
  110270   110283   110302   110322   110340   110357   110368   110372 
  110369   110353   110328   110305   110290   110278   110263   110250 
  110245   110239   110231   110223   110213   110198   110183   110170 
  110154   110141   110131   110119   110107   110107   110115   110117 
  110119   110124   110125   110125   110123   110123   110132   110144 
  110154   110165   110177   110191   110203   110208   110212   110212 
  110199   110191   110193   110190   110186   110185   110175   110165 
  110158   110148   110142   110141   110140   110139   110139   110141 
  110150   110162   110176   110192   110195   110188   110178   110163 
  110159   110171   110186   110210   110241   110260   110273   110289 
  110306   110327   110352   110371   110388   110398   110395   110387 
  110372   110350   110326   110300   110276   110258   110241   110221 
  110205   110189   110172   110166   110168   110170   110178   110184 
  110184   110185   110189   110187   110178   110167   110154   110138 
  110124   110120   110121   110126   110135   110139   110136   110132 
  110131   110136   110143   110155   110166   110172   110186   110201 
  110205   110210   110219   110225   110232   110236   110229   110226 
  110229   110235   110250   110263   110271   110280   110280   110270 
  110257   110245   110238   110231   110223   110219   110219   110224 
  110233   110246   110254   110251   110248   110255   110260   110259 
  110263   110271   110277   110284   110285   110278   110272   110264 
  110256   110258   110263   110265   110271   110277   110274   110267 
  110259   110248   110232   110221   110212   110207   110210   110213 
  110212   110215   110222   110227   110225   110219   110216   110214 
  110213   110219   110225   110227   110238   110250   110250   110246 
  110238   110223   110209   110196   110187   110184   110177   110169 
  110164   110159   110159   110162   110163   110172   110183   110183 
  110176   110165   110151   110137   110128   110122   110121   110127 
  110131   110131   110134   110135   110133   110135   110139   110144 
  110156   110168   110175   110183   110197   110213   110227   110242 
  110258   110270   110281   110287   110288   110291   110293   110290 
  110287   110281   110269   110257   110247   110245   110246   110245 
  110246   110255   110270   110282   110293   110307   110308   110293 
  110278   110261   110243   110232   110224   110214   110210   110208 
  110199   110194   110194   110192   110190   110196   110206   110211 
  110216   110221   110224   110233   110245   110252   110256   110252 
  110238   110225   110212   110192   110174   110162   110150   110143 
  110145   110150   110155   110167   110184   110199   110212   110222 
  110224   110216   110202   110190   110184   110176   110163   110156 
  110163   110173   110182   110194   110199   110196   110192   110181 
  110160   110147   110140   110130   110132   110148   110163   110183 
  110212   110231   110236   110228   110213   110200   110189   110178 
  110174   110175   110175   110177   110184   110189   110204   110229 
  110246   110260   110273   110273   110268   110256   110234   110216 
  110210   110213   110221   110237   110260   110276   110286   110303 
  110316   110322   110331   110329   110314   110304   110295   110280 
  110261   110240   110216   110190   110169   110145   110109   110076 
  110059   110052   110052   110061   110072   110078   110084   110096 
  110106   110113   110123   110125   110117   110113   110110   110104 
  110098   110091   110076   110056   110041   110038   110037   110039 
  110053   110075   110089   110098   110111   110128   110153   110186 
  110218   110247   110276   110301   110319   110331   110335   110336 
  110336   110338   110347   110366   110389   110419   110453   110476 
  110490   110501   110508   110517   110529   110545   110568   110591 
  110605   110611   110614   110620   110618   110611   110607   110602 
  110593   110578   110557   110532   110502   110467   110439   110417 
  110392   110358   110321   110286   110246   110208   110179   110149 
  110125   110116   110114   110111   110109   110105   110095   110079 
  110058   110031   109995   109953   109917   109879   109838   109811 
  109792   109768   109743   109719   109696   109683   109677   109668 
  109659   109654   109650   109639   109620   109600   109583   109571 
  109568   109575   109583   109596   109611   109615   109609   109601 
  109594   109590   109595   109620   109660   109707   109761   109811 
  109849   109887   109925   109956   109989   110030   110077   110122 
  110159   110191   110214   110229   110239   110254   110277   110309 
  110356   110417   110489   110561   110623   110676   110721   110749 
  110764   110776   110789   110808   110831   110857   110881   110898 
  110900   110895   110892   110888   110883   110892   110914   110935 
  110949   110960   110961   110952   110940   110925   110913   110907 
  110894   110870   110846   110824   110795   110755   110708   110653 
  110594   110531   110458   110382   110315   110254   110198   110153 
  110111   110069   110036   110008   109982   109956   109928   109905 
  109886   109863   109836   109807   109780   109755   109741   109740 
  109744   109754   109777   109801   109820   109840   109852   109848 
  109835   109827   109831   109847   109882   109936   109995   110057 
  110120   110172   110217   110256   110288   110316   110342   110370 
  110409   110457   110508   110562   110617   110659   110689   110708 
  110709   110692   110663   110627   110594   110563   110530   110493 
  110465   110446   110431   110422   110415   110409   110416   110434 
  110451   110466   110476   110478   110474   110462   110442   110413 
  110380   110347   110313   110281   110248   110210   110176   110152 
  110133   110113   110097   110085   110077   110071   110058   110039 
  110018   109996   109981   109978   109980   109978   109971   109966 
  109969   109980   109992   110003   110010   110006   109995   109986 
  109985   109993   110002   110013   110024   110027   110018   110006 
  109994   109987   109995   110015   110039   110059   110066   110056 
  110028   109984   109938   109893   109853   109822   109798   109785 
  109782   109781   109780   109776   109764   109740   109714   109695 
  109683   109674   109679   109703   109740   109782   109833   109883 
  109920   109949   109969   109968   109955   109940   109923   109904 
  109886   109877   109886   109903   109928   109969   110022   110079 
  110138   110194   110238   110266   110285   110298   110310   110318 
  110326   110341   110354   110364   110385   110416   110454   110495 
  110533   110568   110602   110634   110673   110721   110776   110829 
  110877   110914   110934   110942   110940   110929   110912   110890 
  110858   110823   110785   110742   110697   110645   110589   110540 
  110502   110475   110453   110441   110438   110435   110433   110431 
  110416   110397   110389   110383   110370   110356   110352   110360 
  110374   110393   110429   110470   110504   110526   110529   110515 
  110500   110483   110461   110435   110392   110329   110256   110180 
  110106   110044   109992   109949   109909   109875   109848   109827 
  109818   109821   109828   109839   109865   109897   109921   109946 
  109972   109989   109994   109999   110004   110006   110014   110021 
  110024   110028   110033   110038   110045   110054   110062   110070 
  110088   110114   110139   110161   110185   110208   110223   110239 
  110260   110273   110279   110278   110261   110227   110182   110137 
  110103   110090   110096   110116   110144   110177   110211   110249 
  110288   110315   110330   110341   110350   110361   110382   110405 
  110428   110448   110459   110458   110436   110394   110350   110302 
  110252   110213   110183   110163   110156   110158   110163   110163 
  110156   110141   110117   110094   110069   110041   110017   109991 
  109959   109925   109890   109862   109846   109847   109858   109867 
  109886   109921   109962   110011   110069   110123   110172   110218 
  110257   110283   110298   110307   110312   110309   110301   110299 
  110297   110296   110300   110313   110334   110356   110372   110386 
  110391   110392   110401   110409   110417   110427   110432   110427 
  110408   110378   110340   110290   110234   110178   110119   110064 
  110021   109989   109965   109948   109942   109947   109957   109980 
  110019   110063   110117   110177   110231   110277   110315   110337 
  110333   110310   110275   110235   110192   110149   110113   110095 
  110087   110076   110060   110041   110021   110003   109999   110011 
  110035   110067   110103   110136   110166   110194   110216   110237 
  110261   110285   110307   110327   110341   110354   110374   110392 
  110404   110419   110434   110454   110490   110529   110571   110620 
  110665   110707   110740   110746   110732   110705   110660   110608 
  110561   110516   110474   110435   110391   110352   110324   110299 
  110278   110260   110241   110217   110182   110142   110095   110036 
  109969   109889   109793   109689   109576   109464   109369   109296 
  109250   109235   109244   109276   109322   109378   109445   109512 
  109572   109626   109670   109711   109752   109800   109861   109938 
  110023   110101   110170   110233   110280   110309   110331   110346 
  110357   110371   110381   110393   110413   110439   110476   110535 
  110612   110697   110785   110868   110927   110962   110981   110982 
  110966   110951   110943   110934   110931   110935   110933   110919 
  110897   110860   110807   110737   110648   110543   110437   110341 
  110260   110203   110169   110155   110162   110180   110201   110218 
  110222   110212   110193   110168   110135   110091   110038   109993 
  109958   109927   109906   109895   109885   109871   109857   109843 
  109826   109814   109815   109828   109857   109898   109949   110008 
  110059   110095   110121   110139   110149   110150   110148   110145 
  110132   110108   110084   110070   110067   110074   110099   110145 
  110203   110264   110324   110378   110415   110441   110469   110500 
  110532   110564   110594   110619   110635   110642   110637   110613 
  110567   110504   110430   110355   110284   110227   110176   110125 
  110078   110039   110000   109967   109945   109927   109915   109923 
  109938   109949   109966   109990   110004   110013   110025   110032 
  110036   110040   110043   110043   110037   110017   109984   109939 
  109889   109849   109827   109829   109859   109909   109967   110023 
  110072   110113   110152   110190   110228   110266   110305   110345 
  110381   110406   110425   110442   110449   110440   110428   110419 
  110410   110412   110431   110454   110467   110473   110468   110453 
  110436   110416   110390   110368   110353   110338   110323   110318 
  110320   110320   110319   110314   110298   110280   110272   110263 
  110252   110254   110262   110267   110272   110274   110265   110239 
  110205   110172   110137   110100   110060   110017   109979   109954 
  109942   109944   109965   109997   110030   110067   110110   110155 
  110198   110242   110291   110345   110386   110408   110421   110422 
  110408   110393   110384   110380   110376   110375   110374   110358 
  110328   110282   110218   110151   110091   110036   109990   109958 
  109938   109926   109924   109937   109964   109988   110005   110013 
  110010   109999   109984   109969   109958   109960   109973   109983 
  109993   110010   110026   110043   110068   110097   110128   110166 
  110209   110256   110299   110341   110389   110433   110473   110511 
  110540   110562   110577   110572   110553   110521   110478   110439 
  110404   110369   110334   110295   110259   110227   110198   110179 
  110174   110180   110201   110239   110279   110315   110349   110373 
  110391   110406   110412   110413   110407   110389   110360   110322 
  110274   110219   110152   110068   109968   109867   109779   109701 
  109634   109586   109553   109538   109538   109548   109566   109592 
  109626   109664   109703   109744   109788   109838   109898   109963 
  110021   110071   110115   110148   110174   110208   110250   110297 
  110357   110423   110481   110526   110565   110593   110610   110623 
  110631   110628   110620   110607   110584   110556   110526   110492 
  110454   110419   110392   110377   110375   110378   110385   110401 
  110411   110411   110406   110395   110380   110366   110350   110334 
  110331   110344   110363   110392   110423   110440   110443   110435 
  110408   110369   110331   110293   110262   110243   110234   110240 
  110257   110290   110338   110393   110454   110513   110555   110582 
  110592   110579   110554   110523   110492   110472   110458   110447 
  110447   110451   110446   110437   110417   110379   110332   110282 
  110232   110191   110167   110161   110170   110190   110223   110260 
  110289   110309   110327   110339   110345   110339   110322   110301 
  110272   110234   110190   110139   110080   110021   109962   109907 
  109866   109841   109826   109818   109817   109816   109811   109804 
  109798   109797   109800   109809   109822   109837   109849   109862 
  109878   109891   109905   109918   109924   109925   109917   109906 
  109903   109905   109910   109924   109939   109962   109994   110035 
  110085   110135   110177   110217   110251   110279   110311   110345 
  110378   110408   110429   110445   110454   110456   110460   110467 
  110473   110474   110470   110464   110451   110423   110380   110328 
  110277   110231   110184   110137   110101   110066   110027   109992 
  109962   109939   109923   109913   109903   109899   109904   109914 
  109924   109939   109957   109968   109975   109979   109979   109982 
  109991   110001   110020   110046   110063   110075   110092   110106 
  110116   110128   110146   110172   110206   110242   110284   110334 
  110388   110442   110490   110535   110574   110604   110635   110664 
  110687   110707   110715   110712   110700   110679   110654   110633 
  110608   110588   110579   110566   110545   110526   110511   110496 
  110485   110475   110459   110440   110414   110390   110380   110375 
  110367   110364   110368   110374   110380   110388   110390   110381 
  110360   110326   110290   110258   110225   110195   110167   110136 
  110101   110060   110018   109978   109936   109904   109882   109865 
  109854   109854   109849   109837   109829   109823   109812   109801 
  109795   109796   109803   109818   109842   109877   109914   109947 
  109972   109991   110009   110022   110031   110044   110058   110070 
  110090   110123   110159   110196   110235   110276   110309   110330 
  110341   110337   110323   110311   110301   110290   110281   110272 
  110257   110238   110219   110205   110199   110193   110186   110181 
  110175   110162   110149   110145   110141   110136   110144   110162 
