Origin Time       2025/06/03 22:18:00
Lat.              41.7
Long.             143.6
Depth. (km)       30
Mag.              5.2
Station Code      HDKH07
Station Lat.      42.1330
Station Long.     142.9164
Station Height(m) 40
Record Time       2025/06/03 22:18:41
Sampling Freq(Hz) 100Hz
Duration Time(s)  120
Dir.              6
Scale Factor      7845(gal)/8223790
Max. Acc. (gal)   2.189
Last Correction   2025/06/03 22:18:41
Memo.             
[...]
    6544     6542     6542     6546     6547     6547     6546     6544 
    6546     6546     6544     6544     6546     6543     6543     6544 
    6544     6546     6546     6540     6542     6546     6543     6544 
    6546     6543     6544     6544     6540     6540     6543     6544 
    6546     6543     6544     6548     6546     6543     6546     6544 
    6544     6544     6544     6546     6546     6544     6544     6544 
    6543     6543     6542     6543     6544     6544     6544     6542 
    6540     6543     6543     6542     6543     6544     6543     6542 
    6542     6543     6546     6546     6546     6544     6543     6544 
    6543     6540     6544     6546     6543     6543     6544     6544 
    6544     6544     6542     6543     6546     6546     6546     6543 
    6543     6544     6542     6540     6540     6536     6536     6539 
    6536     6532     6534     6535     6536     6538     6539     6539 
    6536     6538     6538     6531     6529     6534     6534     6528 
    6527     6528     6528     6524     6516     6507     6500     6494 
    6488     6482     6480     6482     6484     6482     6482     6481 
    6481     6485     6494     6507     6509     6505     6501     6494 
    6484     6478     6473     6470     6477     6494     6516     6534 
    6543     6546     6544     6551     6563     6566     6566     6570 
    6571     6569     6565     6559     6561     6570     6575     6567 
    6542     6505     6477     6467     6488     6542     6594     6620 
    6627     6629     6621     6594     6562     6554     6592     6655 
    6696     6675     6583     6448     6343     6362     6534     6743 
    6824     6727     6542     6396     6354     6404     6501     6588 
    6631     6651     6673     6673     6627     6540     6451     6405 
    6423     6493     6586     6659     6656     6563     6434     6365 
    6412     6540     6687     6825     6910     6897     6787     6652 
    6583     6631     6787     6980     7068     6961     6754     6654 
    6763     6975     7068     6913     6579     6264     6115     6118 
    6141     6131     6149     6253     6423     6561     6569     6421 
    6189     6003     5991     6174     6421     6544     6458     6281 
    6224     6381     6670     6903     6918     6704     6413     6210 
    6158     6274     6566     6960     7279     7385     7300     7117 
    6903     6741     6724     6794     6731     6421     6049     5865 
    5881     5891     5757     5582     5564     5740     5964     6160 
    6399     6700     6889     6775     6451     6309     6601     7105 
    7383     7283     7007     6720     6384     6006     5780     5883 
    6269     6712     7020     7194     7350     7516     7572     7389 
    7020     6691     6585     6669     6833     6998     7069     6955 
    6652     6268     5926     5722     5676     5734     5869     6154 
    6624     7152     7508     7534     7265     6894     6615     6535 
    6605     6655     6601     6507     6434     6328     6130     5922 
    5826     5790     5728     5749     6019     6498     6983     7346 
    7601     7719     7577     7163     6678     6366     6307     6389 
    6444     6397     6331     6369     6489     6509     6312     6015 
    5852     5953     6265     6647     6955     7088     7059     6968 
    6889     6822     6748     6612     6394     6184     6075     6046 
    6018     5979     5999     6104     6237     6332     6389     6473 
    6660     6912     7040     6928     6678     6488     6454     6524 
    6616     6666     6639     6569     6555     6640     6774     6875 
    6887     6825     6760     6732     6720     6693     6652     6647 
    6701     6771     6778     6681     6477     6183     5871     5670 
    5641     5722     5830     5950     6129     6426     6790     7028 
    6995     6731     6377     6064     5868     5826     5948     6184 
    6463     6706     6847     6909     6984     7096     7168     7161 
    7130     7134     7122     7006     6790     6513     6199     5913 
    5726     5645     5653     5733     5863     6007     6137     6262 
    6377     6434     6408     6359     6401     6601     6894     7140 
    7260     7283     7272     7217     7017     6644     6230     5945 
    5865     5929     6046     6212     6439     6675     6848     6937 
    6960     6928     6875     6862     6909     6971     7006     7028 
    7048     7014     6875     6658     6431     6238     6111     6100 
    6214     6396     6604     6804     6934     6960     6898     6794 
    6714     6714     6794     6880     6878     6733     6502     6309 
    6227     6196     6129     6015     5876     5745     5684     5732 
    5869     6081     6366     6693     6959     7075     7064     7020 
    7009     7055     7141     7240     7308     7298     7196     7034 
    6836     6619     6407     6235     6154     6187     6299     6427 
    6547     6660     6763     6841     6856     6770     6592     6346 
    6079     5879     5833     5935     6114     6295     6426     6462 
    6427     6396     6415     6462     6504     6521     6539     6579 
    6636     6701     6768     6828     6856     6824     6724     6600 
    6498     6421     6345     6257     6201     6216     6291     6399 
    6515     6605     6659     6681     6647     6563     6475     6428 
    6446     6505     6539     6521     6488     6497     6558     6613 
    6621     6592     6535     6486     6459     6408     6322     6289 
    6374     6539     6693     6772     6770     6720     6670     6664 
    6712     6781     6824     6818     6790     6763     6725     6674 
    6616     6534     6438     6389     6421     6500     6574     6598 
    6544     6417     6278     6204     6207     6241     6281     6334 
    6394     6465     6555     6673     6786     6860     6895     6893 
    6810     6616     6369     6196     6193     6355     6602     6829 
    6939     6894     6745     6566     6397     6273     6223     6237 
    6269     6280     6266     6259     6282     6330     6377     6412 
    6443     6470     6492     6513     6525     6524     6528     6550 
    6567     6563     6538     6484     6401     6328     6305     6340 
    6411     6494     6586     6673     6723     6710     6654     6594 
    6574     6609     6675     6716     6705     6662     6616     6609 
    6670     6759     6818     6856     6918     7022     7134     7206 
    7202     7115     6980     6849     6758     6718     6696     6631 
    6527     6434     6377     6359     6354     6326     6273     6210 
    6149     6119     6143     6220     6346     6512     6696     6837 
    6875     6817     6725     6650     6601     6559     6513     6496 
    6535     6588     6590     6534     6453     6389     6331     6266 
    6227     6243     6322     6434     6534     6598     6605     6540 
    6438     6351     6299     6284     6296     6308     6299     6285 
    6322     6432     6574     6658     6619     6467     6301     6214 
    6230     6343     6538     6750     6886     6879     6737     6544 
    6408     6386     6462     6583     6714     6808     6818     6740 
    6632     6566     6561     6581     6606     6643     6687     6716 
    6731     6748     6758     6748     6705     6623     6523     6428 
    6343     6255     6164     6077     6025     6026     6079     6177 
    6307     6448     6588     6710     6820     6929     7030     7096 
    7103     7052     6956     6818     6655     6504     6396     6347 
    6350     6343     6276     6173     6108     6118     6184     6247 
    6281     6311     6370     6467     6589     6704     6775     6777 
    6679     6490     6278     6138     6129     6232     6384     6543 
    6701     6855     6974     7022     6994     6907     6805     6720 
    6664     6643     6663     6700     6717     6717     6701     6664 
    6617     6562     6496     6438     6415     6451     6532     6608 
    6652     6664     6616     6496     6335     6197     6130     6142 
    6208     6289     6362     6442     6548     6674     6775     6812 
    6783     6735     6702     6704     6739     6786     6814     6829 
    6843     6847     6817     6732     6608     6470     6326     6199 
    6135     6170     6297     6450     6554     6593     6597     6608 
    6629     6633     6610     6585     6575     6581     6589     6571 
    6544     6543     6581     6648     6733     6839     6964     7088 
    7179     7226     7222     7155     7026     6849     6652     6478 
    6351     6262     6185     6099     6012     5956     5929     5913 
    5903     5919     5973     6039     6091     6133     6192     6292 
    6442     6596     6685     6705     6691     6662     6608     6542 
    6492     6473     6511     6637     6821     6979     7041     6987 
    6845     6677     6539     6467     6473     6523     6570     6589 
    6578     6543     6505     6480     6439     6355     6262     6223 
    6251     6327     6424     6507     6538     6521     6489     6477 
    6515     6613     6747     6853     6875     6814     6725     6646 
    6581     6521     6466     6430     6432     6457     6474     6475 
    6454     6409     6353     6322     6346     6421     6502     6538 
    6513     6474     6489     6570     6670     6724     6702     6597 
    6409     6192     6052     6066     6250     6565     6913     7191 
    7334     7326     7194     6988     6767     6582     6481     6498 
    6620     6768     6859     6845     6739     6593     6463     6367 
    6309     6303     6346     6407     6435     6400     6331     6285 
    6301     6370     6457     6520     6555     6569     6570     6575 
    6601     6644     6694     6743     6809     6918     7061     7180 
    7207     7123     6959     6759     6570     6439     6377     6369 
    6403     6480     6605     6754     6843     6806     6639     6367 
    6065     5822     5687     5697     5861     6124     6404     6621 
    6732     6740     6706     6686     6685     6663     6601     6528 
    6482     6463     6438     6392     6336     6299     6281     6276 
    6284     6300     6299     6243     6124     5995     5937     5994 
    6137     6286     6380     6424     6436     6396     6284     6133 
    6006     5950     5977     6060     6174     6305     6432     6528 
    6575     6571     6543     6513     6505     6551     6677     6858 
    7028     7122     7092     6933     6691     6453     6292     6255 
    6334     6481     6632     6733     6778     6787     6772     6731 
    6685     6654     6647     6663     6705     6763     6817     6833 
    6797     6713     6586     6431     6293     6237     6292     6439 
    6621     6787     6898     6951     6964     6943     6883     6801 
    6714     6647     6609     6589     6571     6563     6569     6579 
    6579     6563     6561     6589     6635     6677     6686     6654 
    6612     6583     6567     6547     6523     6508     6497     6485 
    6490     6517     6561     6619     6683     6737     6789     6848 
    6916     6980     7028     7048     7037     6980     6875     6747 
    6625     6528     6446     6380     6357     6403     6500     6598 
    6633     6563     6394     6172     5962     5827     5807     5898 
    6060     6249     6416     6523     6562     6558     6540     6548 
    6600     6666     6721     6755     6754     6728     6700     6655 
    6586     6511     6444     6412     6403     6394     6386     6381 
    6376     6362     6311     6207     6085     5994     5952     5967 
    6023     6089     6150     6219     6312     6404     6465     6515 
    6602     6739     6889     6988     7010     6975     6903     6812 
    6716     6625     6577     6579     6597     6613     6627     6631 
    6635     6654     6694     6756     6809     6820     6793     6744 
    6706     6698     6694     6655     6582     6493     6412     6340 
    6261     6178     6127     6133     6207     6342     6513     6687 
    6831     6916     6948     6940     6895     6825     6752     6702 
    6690     6714     6766     6841     6930     7011     7056     7041 
    6957     6828     6702     6631     6616     6642     6697     6744 
    6731     6640     6494     6339     6211     6122     6077     6079 
    6112     6170     6232     6268     6281     6295     6312     6343 
    6404     6488     6606     6770     6953     7119     7245     7337 
    7419     7503     7597     7697     7767     7773     7692     7519 
    7285     7036     6791     6551     6308     6064     5829     5599 
    5383     5184     4997     4842     4762     4772     4850     4969 
    5094     5206     5301     5363     5395     5412     5439     5503 
    5611     5764     5965     6196     6435     6679     6907     7102 
    7279     7450     7620     7778     7909     8023     8131     8217 
    8262     8233     8101     7857     7531     7175     6840     6561 
    6361     6254     6231     6277     6355     6421     6474     6528 
    6581     6629     6662     6683     6723     6791     6876     6976 
    7078     7141     7153     7122     7074     7034     7014     7009 
    7034     7107     7230     7376     7506     7596     7657     7697 
    7730     7751     7757     7746     7716     7647     7524     7346 
    7140     6922     6701     6490     6296     6096     5886     5661 
    5427     5200     4982     4776     4596     4449     4330     4257 
    4248     4305     4414     4564     4743     4942     5147     5355 
    5549     5709     5823     5908     5988     6107     6293     6548 
    6864     7226     7597     7911     8105     8179     8160     8066 
    7912     7713     7496     7291     7114     6961     6817     6652 
    6457     6251     6068     5921     5829     5794     5788     5771 
    5710     5613     5489     5359     5254     5178     5123     5104 
    5130     5182     5252     5331     5424     5560     5756     6012 
    6330     6679     7022     7322     7546     7663     7658     7535 
    7326     7083     6860     6687     6558     6462     6415     6426 
    6505     6650     6826     6998     7130     7207     7240     7241 
    7221     7180     7119     7041     6944     6828     6690     6543 
    6394     6249     6124     6050     6050     6131     6280     6465 
    6646     6806     6960     7134     7317     7472     7581     7647 
    7670     7649     7589     7512     7434     7354     7277     7210 
    7171     7186     7261     7372     7487     7569     7593     7562 
    7495     7419     7333     7211     7048     6849     6636     6442 
    6270     6102     5921     5718     5498     5285     5109     4992 
    4924     4888     4877     4889     4923     4978     5035     5073 
    5108     5151     5208     5305     5467     5694     5964     6239 
    6480     6652     6747     6774     6764     6741     6723     6706 
    6677     6655     6655     6690     6766     6853     6899     6886 
    6818     6723     6633     6563     6509     6471     6444     6424 
    6405     6365     6308     6247     6197     6172     6166     6180 
    6204     6232     6265     6307     6361     6430     6511     6616 
    6758     6909     7025     7074     7036     6924     6767     6585 
    6403     6262     6188     6185     6247     6357     6500     6667 
    6828     6960     7068     7160     7237     7288     7308     7318 
    7311     7248     7123     6972     6833     6727     6662     6640 
    6654     6682     6716     6762     6806     6844     6876     6883 
    6845     6766     6648     6515     6384     6274     6216     6226 
    6289     6396     6534     6706     6906     7110     7300     7456 
    7550     7573     7531     7446     7353     7271     7199     7145 
    7122     7128     7155     7186     7206     7210     7187     7118 
    7009     6875     6732     6600     6489     6408     6365     6346 
    6346     6354     6355     6345     6312     6257     6189     6102 
    5995     5891     5798     5709     5641     5595     5572     5571 
    5589     5621     5670     5729     5796     5864     5934     6012 
    6107     6216     6331     6434     6519     6594     6660     6712 
    6747     6752     6733     6721     6723     6729     6739     6754 
    6777     6799     6804     6786     6762     6743     6740     6750 
    6758     6762     6762     6763     6777     6809     6847     6868 
    6852     6805     6741     6675     6629     6616     6617     6620 
    6621     6613     6589     6531     6428     6299     6166     6045 
    5944     5872     5845     5873     5950     6060     6178     6286 
    6384     6465     6527     6569     6573     6536     6485     6435 
    6393     6370     6366     6377     6394     6401     6397     6389 
    6377     6369     6381     6416     6482     6563     6646     6733 
    6814     6871     6889     6859     6782     6674     6555     6438 
    6336     6261     6231     6254     6312     6392     6480     6555 
    6605     6629     6627     6594     6532     6446     6336     6219 
    6129     6073     6039     6019     6012     6039     6119     6242 
    6396     6582     6806     7072     7357     7612     7812     7959 
    8054     8090     8067     7996     7921     7875     7844     7823 
    7793     7724     7609     7452     7261     7057     6847     6637 
    6440     6261     6112     6000     5911     5840     5792     5773 
    5787     5826     5876     5930     5971     5988     5979     5937 
    5873     5817     5795     5837     5931     6052     6189     6331 
    6458     6575     6690     6797     6893     6975     7045     7103 
    7129     7109     7029     6897     6733     6565     6419     6323 
    6269     6242     6238     6249     6268     6303     6342     6376 
    6403     6420     6424     6419     6385     6324     6270     6232 
    6212     6211     6211     6201     6178     6142     6115     6123 
    6160     6208     6255     6284     6297     6305     6308     6297 
    6269     6223     6176     6143     6126     6124     6142     6174 
    6212     6257     6319     6394     6478     6561     6613     6615 
    6566     6481     6380     6296     6250     6245     6276     6320 
    6354     6369     6363     6350     6346     6359     6397     6462 
    6548     6650     6752     6847     6937     7028     7111     7180 
    7217     7207     7153     7051     6903     6732     6559     6409 
    6292     6204     6158     6157     6200     6278     6369     6444 
    6494     6520     6521     6508     6482     6450     6413     6363 
    6300     6235     6188     6172     6189     6235     6305     6400 
    6525     6679     6845     6999     7114     7191     7236     7242 
    7211     7169     7128     7082     7036     7005     6998     7026 
    7087     7172     7272     7361     7414     7423     7393     7331 
    7260     7196     7142     7106     7076     7042     7001     6936 
    6840     6717     6588     6477     6390     6324     6274     6231 
    6184     6133     6070     5992     5910     5841     5803     5794 
    5805     5833     5868     5903     5942     5987     6049     6133 
    6223     6311     6392     6466     6534     6592     6644     6691 
    6733     6779     6822     6839     6821     6781     6733     6681 
