Origin Time       2025/06/03 22:18:00
Lat.              41.7
Long.             143.6
Depth. (km)       30
Mag.              5.2
Station Code      HDKH02
Station Lat.      42.7061
Station Long.     142.4054
Station Height(m) 120
Record Time       2025/06/03 22:19:03
Sampling Freq(Hz) 100Hz
Duration Time(s)  120
Dir.              3
Scale Factor      2940(gal)/6170270
Max. Acc. (gal)   0.366
Last Correction   2025/06/03 22:18:48
Memo.             
[...]
   52379    52369    52357    52341    52335    52341    52356    52377 
   52399    52411    52399    52367    52330    52304    52291    52288 
   52291    52297    52300    52298    52298    52303    52307    52312 
   52327    52345    52357    52365    52375    52388    52401    52413 
   52429    52442    52452    52464    52475    52475    52466    52451 
   52432    52422    52429    52441    52444    52432    52409    52394 
   52401    52426    52453    52467    52471    52471    52467    52463 
   52457    52446    52439    52442    52453    52467    52472    52466 
   52451    52428    52408    52397    52392    52390    52385    52380 
   52383    52388    52386    52375    52361    52346    52332    52326 
   52325    52322    52320    52318    52312    52303    52288    52266 
   52246    52240    52249    52266    52277    52275    52265    52255 
   52249    52254    52271    52290    52299    52303    52303    52299 
   52288    52274    52268    52279    52307    52347    52382    52397 
   52391    52372    52352    52332    52317    52315    52325    52344 
   52363    52374    52377    52373    52362    52347    52332    52323 
   52327    52338    52351    52368    52387    52389    52369    52348 
   52329    52306    52284    52271    52270    52282    52307    52331 
   52339    52327    52308    52304    52324    52353    52382    52406 
   52426    52444    52452    52448    52437    52426    52430    52454 
   52487    52520    52547    52562    52566    52563    52555    52553 
   52558    52560    52560    52570    52588    52595    52587    52568 
   52541    52509    52481    52464    52465    52476    52485    52488 
   52490    52491    52489    52484    52474    52457    52438    52421 
   52407    52396    52384    52371    52358    52341    52321    52310 
   52318    52338    52349    52339    52313    52278    52244    52225 
   52220    52220    52229    52247    52267    52284    52289    52277 
   52258    52241    52232    52231    52239    52258    52287    52316 
   52337    52350    52356    52349    52334    52324    52320    52319 
   52321    52331    52347    52366    52384    52398    52405    52408 
   52415    52421    52415    52400    52384    52374    52374    52382 
   52391    52394    52387    52372    52353    52331    52311    52300 
   52300    52312    52334    52359    52382    52402    52408    52402 
   52398    52405    52416    52423    52421    52412    52395    52378 
   52371    52370    52360    52349    52343    52343    52350    52356 
   52357    52353    52348    52344    52343    52343    52346    52359 
   52380    52403    52418    52420    52403    52380    52369    52375 
   52395    52423    52448    52467    52480    52482    52466    52435 
   52409    52393    52389    52399    52423    52445    52454    52453 
   52440    52413    52384    52365    52362    52373    52378    52372 
   52360    52338    52307    52278    52260    52250    52248    52250 
   52252    52248    52237    52226    52223    52228    52243    52265 
   52281    52286    52284    52283    52292    52312    52343    52380 
   52418    52456    52482    52494    52501    52502    52495    52493 
   52504    52521    52536    52543    52546    52552    52558    52548 
   52526    52497    52463    52431    52403    52377    52352    52326 
   52302    52290    52283    52273    52265    52255    52241    52222 
   52197    52166    52149    52151    52168    52198    52236    52268 
   52288    52297    52303    52319    52342    52366    52399    52431 
   52446    52452    52455    52455    52460    52475    52494    52506 
   52502    52480    52451    52429    52415    52403    52401    52413 
   52426    52427    52418    52405    52386    52362    52340    52324 
   52317    52321    52332    52342    52352    52356    52350    52337 
   52320    52298    52281    52273    52279    52301    52333    52355 
   52358    52342    52315    52289    52275    52275    52287    52307 
   52333    52361    52386    52401    52398    52380    52355    52340 
   52344    52359    52369    52371    52367    52356    52347    52348 
   52351    52352    52348    52342    52342    52349    52363    52376 
   52376    52373    52378    52384    52383    52380    52379    52380 
   52385    52399    52411    52411    52401    52383    52363    52353 
   52349    52346    52349    52357    52360    52351    52342    52333 
   52309    52286    52282    52289    52301    52323    52354    52385 
   52408    52423    52432    52442    52458    52484    52521    52560 
   52590    52611    52621    52622    52621    52618    52611    52602 
   52594    52588    52581    52569    52547    52515    52486    52466 
   52452    52436    52417    52404    52399    52391    52378    52364 
   52356    52352    52347    52348    52355    52363    52372    52384 
   52392    52388    52376    52358    52335    52322    52325    52336 
   52348    52365    52377    52381    52382    52386    52388    52385 
   52378    52362    52340    52317    52297    52282    52268    52252 
   52231    52206    52184    52166    52149    52137    52135    52139 
   52144    52150    52156    52165    52187    52217    52245    52268 
   52292    52315    52342    52380    52424    52452    52463    52467 
   52461    52449    52437    52418    52398    52387    52381    52374 
   52363    52355    52355    52353    52346    52337    52329    52322 
   52318    52325    52332    52331    52327    52323    52315    52306 
   52299    52299    52310    52328    52348    52368    52382    52390 
   52397    52400    52398    52398    52406    52419    52430    52432 
   52428    52418    52406    52397    52396    52400    52407    52417 
   52432    52449    52457    52458    52458    52457    52455    52454 
   52458    52471    52479    52475    52470    52463    52450    52433 
   52414    52398    52382    52369    52366    52376    52394    52416 
   52438    52454    52460    52456    52455    52465    52484    52499 
   52500    52484    52460    52437    52417    52398    52377    52354 
   52331    52311    52299    52287    52270    52254    52246    52249 
   52258    52271    52283    52296    52313    52333    52349    52366 
   52381    52389    52395    52404    52411    52414    52420    52431 
   52442    52446    52451    52456    52451    52436    52419    52405 
   52399    52401    52409    52418    52427    52433    52424    52407 
   52388    52363    52334    52306    52284    52271    52261    52244 
   52224    52202    52176    52159    52160    52164    52169    52183 
   52201    52220    52240    52264    52298    52337    52373    52396 
   52398    52386    52368    52342    52317    52303    52296    52289 
   52281    52276    52271    52260    52250    52247    52250    52260 
   52270    52275    52281    52290    52294    52293    52295    52300 
   52297    52296    52307    52322    52342    52366    52389    52407 
   52421    52430    52439    52443    52438    52433    52444    52467 
   52490    52510    52524    52523    52511    52508    52520    52538 
   52553    52563    52574    52590    52607    52620    52625    52620 
   52607    52595    52591    52585    52568    52551    52544    52540 
   52530    52524    52520    52511    52492    52472    52454    52429 
   52398    52371    52347    52329    52319    52313    52306    52292 
   52272    52251    52239    52246    52270    52304    52339    52364 
   52377    52379    52374    52368    52361    52360    52374    52399 
   52427    52449    52458    52455    52446    52436    52425    52420 
   52424    52436    52452    52459    52451    52431    52403    52373 
   52345    52314    52291    52279    52277    52285    52289    52272 
   52244    52219    52194    52176    52171    52177    52194    52216 
   52232    52238    52233    52222    52214    52211    52217    52229 
   52243    52258    52275    52292    52301    52302    52307    52318 
   52326    52329    52332    52339    52357    52387    52418    52441 
   52456    52456    52445    52426    52404    52387    52381    52385 
   52398    52408    52413    52419    52415    52398    52382    52371 
   52364    52374    52399    52418    52421    52422    52424    52419 
   52409    52403    52398    52396    52403    52416    52422    52418 
   52408    52400    52395    52392    52392    52393    52397    52404 
   52412    52419    52424    52426    52419    52407    52407    52410 
   52400    52384    52370    52361    52357    52355    52355    52361 
   52368    52368    52361    52357    52359    52364    52378    52402 
   52424    52429    52416    52398    52382    52368    52359    52356 
   52353    52355    52366    52370    52355    52339    52334    52334 
   52339    52346    52351    52359    52366    52365    52361    52351 
   52334    52321    52320    52330    52342    52340    52322    52300 
   52280    52267    52260    52256    52260    52271    52284    52291 
   52285    52276    52273    52279    52294    52315    52339    52363 
   52383    52395    52388    52361    52331    52312    52305    52302 
   52299    52293    52289    52285    52288    52300    52308    52312 
   52313    52319    52340    52374    52406    52429    52436    52441 
   52453    52466    52471    52471    52465    52452    52433    52415 
   52401    52394    52395    52400    52410    52427    52443    52446 
   52436    52420    52402    52389    52383    52386    52396    52409 
   52423    52443    52467    52487    52496    52488    52469    52451 
   52442    52435    52425    52417    52412    52404    52388    52369 
   52347    52326    52310    52297    52287    52282    52280    52281 
   52280    52273    52263    52256    52251    52250    52257    52269 
   52287    52307    52316    52314    52307    52301    52299    52304 
   52315    52330    52344    52357    52365    52361    52351    52342 
   52337    52337    52339    52341    52346    52353    52362    52378 
   52398    52414    52429    52445    52460    52471    52481    52483 
   52470    52453    52436    52415    52394    52376    52360    52344 
   52328    52311    52303    52310    52325    52332    52327    52314 
   52301    52292    52296    52315    52338    52361    52382    52390 
   52382    52368    52356    52349    52349    52354    52361    52367 
   52370    52373    52381    52391    52403    52420    52435    52437 
   52432    52434    52440    52441    52438    52430    52416    52397 
   52376    52364    52358    52357    52362    52371    52379    52385 
   52389    52391    52394    52396    52404    52421    52440    52451 
   52450    52440    52426    52406    52384    52364    52351    52351 
   52361    52375    52395    52417    52429    52433    52436    52438 
   52447    52464    52474    52466    52447    52428    52412    52402 
   52389    52363    52333    52315    52308    52300    52278    52245 
   52215    52200    52204    52223    52246    52264    52280    52298 
   52315    52326    52330    52341    52368    52401    52431    52467 
   52500    52518    52528    52541    52562    52588    52618    52643 
   52662    52675    52683    52686    52694    52710    52727    52738 
   52739    52741    52746    52747    52746    52752    52760    52763 
   52758    52744    52728    52711    52687    52659    52631    52597 
   52557    52522    52506    52504    52501    52482    52449    52410 
   52364    52313    52261    52217    52190    52178    52171    52159 
   52140    52115    52084    52054    52029    52015    52009    52005 
   51997    51987    51974    51960    51948    51940    51939    51942 
   51944    51945    51949    51956    51964    51964    51953    51949 
   51961    51981    52014    52058    52099    52137    52181    52220 
   52243    52257    52272    52292    52320    52355    52393    52429 
   52457    52481    52501    52515    52524    52529    52536    52550 
   52565    52580    52600    52623    52639    52649    52655    52660 
   52667    52673    52681    52700    52723    52747    52781    52820 
   52852    52886    52920    52938    52935    52916    52893    52869 
   52845    52819    52787    52751    52714    52674    52634    52591 
   52544    52495    52442    52390    52350    52322    52297    52275 
   52254    52232    52210    52185    52146    52090    52019    51950 
   51905    51881    51859    51836    51813    51789    51771    51758 
   51750    51752    51759    51772    51788    51801    51810    51822 
   51843    51872    51907    51943    51976    52004    52035    52068 
   52093    52104    52116    52135    52164    52202    52240    52274 
   52301    52315    52315    52310    52305    52302    52309    52324 
   52349    52388    52431    52461    52476    52481    52487    52503 
   52527    52558    52588    52609    52625    52646    52665    52667 
   52648    52623    52599    52579    52567    52562    52563    52569 
   52579    52593    52605    52610    52604    52592    52595    52611 
   52622    52627    52632    52635    52630    52613    52587    52555 
   52524    52510    52517    52536    52555    52573    52595    52622 
   52646    52660    52665    52667    52670    52674    52676    52675 
   52668    52658    52646    52627    52595    52555    52504    52445 
   52387    52331    52271    52208    52143    52071    51991    51915 
   51851    51791    51735    51684    51645    51622    51610    51605 
   51604    51608    51613    51609    51605    51614    51633    51660 
   51694    51735    51777    51823    51885    51959    52035    52110 
   52189    52270    52350    52426    52503    52584    52668    52747 
   52814    52872    52915    52939    52958    52981    53005    53030 
   53055    53073    53080    53073    53058    53044    53034    53020 
   52995    52965    52928    52892    52870    52862    52855    52844 
   52828    52808    52789    52763    52731    52702    52673    52636 
   52593    52555    52529    52502    52464    52420    52374    52328 
   52287    52258    52233    52201    52166    52139    52116    52089 
   52063    52043    52028    52014    51996    51974    51948    51923 
   51906    51896    51892    51893    51892    51886    51880    51877 
   51871    51867    51875    51894    51918    51945    51969    51994 
   52025    52070    52130    52198    52267    52333    52392    52443 
   52481    52512    52543    52583    52631    52670    52693    52709 
   52720    52719    52701    52675    52646    52616    52596    52592 
   52595    52597    52600    52596    52587    52578    52564    52539 
   52509    52477    52450    52436    52426    52413    52394    52369 
   52342    52312    52272    52228    52192    52164    52145    52143 
   52161    52180    52194    52208    52221    52230    52241    52260 
   52287    52326    52374    52421    52461    52492    52511    52523 
   52529    52528    52525    52524    52528    52539    52548    52547 
   52539    52526    52518    52519    52523    52530    52546    52565 
   52577    52582    52579    52565    52546    52534    52532    52540 
   52555    52572    52585    52587    52581    52567    52550    52534 
   52514    52489    52465    52451    52446    52443    52434    52423 
   52409    52386    52356    52323    52287    52248    52207    52167 
   52134    52112    52100    52098    52101    52105    52117    52134 
   52155    52175    52184    52184    52190    52202    52223    52254 
   52281    52293    52298    52302    52307    52320    52337    52349 
   52357    52362    52371    52391    52410    52412    52403    52398 
   52399    52405    52416    52426    52430    52423    52402    52377 
   52354    52321    52284    52259    52248    52243    52240    52238 
   52236    52237    52240    52251    52272    52294    52303    52295 
   52267    52229    52194    52169    52154    52149    52152    52166 
   52193    52229    52264    52289    52309    52331    52347    52359 
   52364    52358    52348    52332    52309    52293    52294    52312 
   52335    52350    52354    52350    52340    52335    52339    52341 
   52336    52332    52331    52329    52321    52306    52290    52284 
   52287    52294    52299    52298    52294    52295    52300    52306 
   52308    52303    52297    52294    52299    52305    52310    52317 
   52327    52337    52343    52349    52362    52373    52376    52382 
   52400    52424    52450    52478    52504    52527    52549    52568 
   52578    52578    52572    52571    52580    52599    52628    52663 
   52698    52732    52762    52786    52803    52819    52834    52848 
   52860    52864    52859    52850    52834    52811    52789    52766 
   52746    52729    52703    52663    52619    52578    52543    52517 
   52493    52464    52435    52408    52382    52360    52337    52310 
   52289    52272    52254    52236    52224    52218    52215    52218 
   52229    52239    52241    52239    52240    52243    52246    52254 
   52263    52270    52282    52295    52304    52307    52304    52296 
   52277    52252    52227    52203    52187    52182    52187    52207 
   52234    52261    52291    52322    52347    52362    52359    52342 
   52319    52296    52284    52285    52293    52306    52323    52333 
   52337    52343    52350    52364    52386    52409    52427    52443 
   52446    52430    52398    52358    52319    52291    52267    52246 
   52228    52210    52190    52171    52153    52136    52126    52128 
   52138    52143    52137    52122    52103    52085    52072    52063 
   52054    52045    52046    52064    52093    52122    52144    52162 
   52180    52200    52224    52248    52269    52290    52317    52352 
   52385    52412    52432    52447    52464    52487    52513    52544 
   52586    52626    52664    52699    52721    52731    52731    52717 
   52698    52684    52672    52657    52645    52632    52611    52585 
   52559    52529    52495    52458    52422    52393    52374    52364 
   52365    52363    52347    52328    52315    52305    52296    52282 
   52266    52257    52258    52264    52271    52278    52291    52320 
   52363    52409    52443    52466    52477    52481    52480    52470 
   52450    52427    52410    52400    52393    52392    52400    52414 
   52431    52451    52476    52495    52503    52503    52495    52482 
   52464    52448    52437    52426    52414    52401    52382    52361 
   52350    52349    52359    52383    52418    52454    52489    52519 
   52538    52546    52546    52539    52526    52510    52490    52467 
   52450    52443    52442    52447    52455    52454    52444    52429 
   52412    52391    52375    52364    52354    52339    52320    52293 
   52263    52234    52200    52164    52130    52102    52079    52063 
   52057    52058    52069    52088    52111    52136    52168    52209 
   52259    52317    52374    52424    52460    52477    52479    52471 
   52448    52426    52415    52406    52402    52409    52424    52441 
   52457    52472    52485    52490    52492    52494    52495    52498 
   52502    52502    52504    52511    52521    52532    52541    52540 
   52535    52530    52523    52513    52499    52477    52441    52398 
   52352    52302    52254    52211    52173    52147    52145    52165 
