Origin Time       2025/06/03 22:18:00
Lat.              41.7
Long.             143.6
Depth. (km)       30
Mag.              5.2
Station Code      HDKH04
Station Lat.      42.5126
Station Long.     142.0381
Station Height(m) 10
Record Time       2025/06/03 22:19:15
Sampling Freq(Hz) 100Hz
Duration Time(s)  120
Dir.              6
Scale Factor      7845(gal)/8223790
Max. Acc. (gal)   0.450
Last Correction   2025/06/03 22:19:16
Memo.             
[...]
   -8777    -8799    -8822    -8845    -8868    -8895    -8923    -8954 
   -8992    -9031    -9067    -9092    -9094    -9084    -9069    -9047 
   -9023    -9013    -9013    -9018    -9023    -9023    -9032    -9039 
   -9020    -9003    -8984    -8939    -8897    -8874    -8858    -8837 
   -8807    -8784    -8779    -8783    -8784    -8775    -8762    -8757 
   -8753    -8734    -8714    -8715    -8737    -8768    -8807    -8850 
   -8884    -8915    -8946    -8958    -8964    -8977    -8997    -9012 
   -9022    -9028    -9032    -9027    -9016    -9011    -9005    -8993 
   -8992    -9007    -9016    -9030    -9057    -9084    -9104    -9123 
   -9140    -9157    -9169    -9169    -9157    -9134    -9093    -9032 
   -8973    -8922    -8872    -8827    -8791    -8749    -8704    -8685 
   -8695    -8698    -8689    -8700    -8739    -8789    -8831    -8847 
   -8858    -8880    -8889    -8877    -8860    -8847    -8842    -8835 
   -8819    -8791    -8757    -8730    -8712    -8708    -8742    -8800 
   -8856    -8910    -8969    -9023    -9059    -9090    -9127    -9163 
   -9189    -9211    -9224    -9225    -9220    -9209    -9178    -9121 
   -9074    -9046    -9015    -8988    -8972    -8950    -8903    -8849 
   -8812    -8791    -8768    -8738    -8703    -8684    -8683    -8676 
   -8661    -8642    -8618    -8603    -8608    -8629    -8654    -8667 
   -8664    -8668    -8676    -8672    -8664    -8661    -8671    -8699 
   -8723    -8729    -8734    -8752    -8768    -8785    -8810    -8833 
   -8850    -8876    -8907    -8932    -8941    -8939    -8943    -8955 
   -8965    -8968    -8969    -8976    -8984    -9003    -9035    -9067 
   -9097    -9117    -9112    -9097    -9094    -9099    -9094    -9074 
   -9043    -9023    -9004    -8973    -8941    -8919    -8900    -8881 
   -8861    -8839    -8820    -8807    -8804    -8815    -8833    -8856 
   -8874    -8877    -8872    -8866    -8861    -8864    -8877    -8888 
   -8897    -8916    -8945    -8972    -8988    -8989    -8970    -8938 
   -8916    -8903    -8883    -8861    -8854    -8860    -8861    -8851 
   -8839    -8837    -8847    -8862    -8878    -8893    -8899    -8883 
   -8846    -8812    -8804    -8808    -8806    -8792    -8777    -8770 
   -8772    -8779    -8788    -8807    -8834    -8864    -8885    -8908 
   -8949    -8991    -9009    -8999    -8966    -8924    -8888    -8853 
   -8819    -8788    -8754    -8729    -8716    -8706    -8703    -8722 
   -8738    -8743    -8758    -8787    -8824    -8868    -8901    -8919 
   -8932    -8958    -8993    -9030    -9062    -9082    -9093    -9109 
   -9131    -9142    -9142    -9142    -9139    -9128    -9107    -9092 
   -9082    -9053    -9004    -8951    -8901    -8860    -8822    -8788 
   -8765    -8750    -8750    -8766    -8781    -8787    -8784    -8772 
   -8764    -8775    -8796    -8823    -8850    -8866    -8865    -8853 
   -8838    -8822    -8793    -8752    -8714    -8706    -8734    -8781 
   -8823    -8847    -8865    -8884    -8903    -8910    -8896    -8874 
   -8861    -8862    -8870    -8878    -8880    -8880    -8883    -8895 
   -8916    -8939    -8962    -8984    -9003    -9024    -9047    -9058 
   -9055    -9055    -9063    -9055    -9016    -8972    -8939    -8923 
   -8918    -8904    -8893    -8907    -8923    -8926    -8922    -8916 
   -8912    -8903    -8881    -8853    -8831    -8814    -8793    -8768 
   -8745    -8735    -8739    -8746    -8743    -8737    -8741    -8756 
   -8762    -8766    -8792    -8834    -8870    -8900    -8937    -8973 
   -9003    -9034    -9057    -9072    -9084    -9092    -9088    -9080 
   -9069    -9049    -9034    -9036    -9043    -9036    -9007    -8966 
   -8935    -8907    -8893    -8897    -8900    -8908    -8924    -8939 
   -8953    -8959    -8958    -8961    -8961    -8955    -8950    -8942 
   -8928    -8916    -8899    -8883    -8874    -8874    -8878    -8877 
   -8866    -8854    -8841    -8823    -8802    -8776    -8752    -8738 
   -8734    -8741    -8754    -8770    -8799    -8834    -8856    -8865 
   -8862    -8850    -8845    -8849    -8857    -8873    -8889    -8915 
   -8946    -8965    -8969    -8970    -8972    -8970    -8959    -8943 
   -8930    -8908    -8877    -8845    -8818    -8804    -8797    -8791 
   -8795    -8808    -8811    -8797    -8784    -8785    -8795    -8800 
   -8785    -8760    -8735    -8719    -8716    -8726    -8746    -8775 
   -8797    -8826    -8868    -8912    -8959    -9022    -9082    -9126 
   -9155    -9173    -9180    -9189    -9202    -9202    -9175    -9148 
   -9139    -9130    -9124    -9140    -9155    -9151    -9144    -9140 
   -9124    -9109    -9103    -9089    -9066    -9042    -9026    -9008 
   -8981    -8957    -8943    -8927    -8899    -8860    -8823    -8803 
   -8795    -8779    -8754    -8734    -8729    -8726    -8708    -8681 
   -8656    -8630    -8617    -8611    -8591    -8564    -8556    -8573 
   -8604    -8630    -8660    -8699    -8721    -8730    -8746    -8761 
   -8779    -8811    -8839    -8854    -8870    -8888    -8903    -8910 
   -8903    -8893    -8880    -8850    -8816    -8787    -8764    -8752 
   -8748    -8753    -8766    -8780    -8797    -8822    -8843    -8860 
   -8872    -8876    -8877    -8878    -8873    -8865    -8858    -8860 
   -8873    -8893    -8920    -8951    -8982    -9018    -9057    -9099 
   -9140    -9174    -9181    -9174    -9170    -9162    -9153    -9140 
   -9105    -9061    -9032    -9011    -8996    -8993    -8991    -8982 
   -8977    -8973    -8974    -8986    -9004    -9008    -8992    -8969 
   -8955    -8958    -8970    -8980    -8973    -8957    -8949    -8947 
   -8939    -8919    -8892    -8870    -8857    -8851    -8849    -8849 
   -8860    -8873    -8877    -8872    -8857    -8831    -8811    -8793 
   -8766    -8730    -8688    -8653    -8635    -8638    -8657    -8689 
   -8734    -8795    -8861    -8920    -8966    -9000    -9027    -9043 
   -9049    -9043    -9023    -8993    -8972    -8959    -8935    -8903 
   -8888    -8892    -8914    -8945    -8964    -8976    -8984    -8986 
   -8989    -8993    -8991    -8978    -8970    -8973    -8972    -8953 
   -8928    -8915    -8910    -8899    -8880    -8854    -8833    -8826 
   -8823    -8814    -8804    -8796    -8791    -8787    -8780    -8773 
   -8768    -8758    -8748    -8749    -8758    -8766    -8766    -8769 
   -8785    -8803    -8812    -8811    -8806    -8799    -8797    -8803 
   -8807    -8796    -8777    -8775    -8784    -8793    -8803    -8810 
   -8811    -8814    -8829    -8858    -8908    -8959    -8991    -9001 
   -9007    -9032    -9078    -9105    -9108    -9113    -9132    -9155 
   -9186    -9225    -9267    -9296    -9310    -9320    -9323    -9324 
   -9336    -9337    -9316    -9282    -9223    -9154    -9090    -9027 
   -8974    -8938    -8899    -8861    -8830    -8806    -8808    -8831 
   -8856    -8873    -8881    -8893    -8922    -8946    -8951    -8935 
   -8903    -8873    -8851    -8826    -8799    -8770    -8741    -8716 
   -8695    -8673    -8652    -8623    -8590    -8576    -8565    -8538 
   -8514    -8505    -8503    -8507    -8511    -8518    -8541    -8579 
   -8607    -8640    -8684    -8719    -8752    -8791    -8822    -8854 
   -8897    -8930    -8950    -8978    -9007    -9020    -9020    -9012 
   -8997    -8976    -8958    -8955    -8959    -8954    -8930    -8885 
   -8835    -8806    -8792    -8784    -8777    -8773    -8772    -8780 
   -8797    -8818    -8839    -8870    -8903    -8934    -8964    -8986 
   -9001    -9012    -9027    -9054    -9082    -9097    -9103    -9097 
   -9099    -9100    -9081    -9054    -9047    -9053    -9053    -9050 
   -9042    -9032    -9028    -9023    -9011    -9001    -8989    -8976 
   -8973    -8973    -8972    -8977    -8981    -8978    -8973    -8964 
   -8954    -8943    -8932    -8920    -8914    -8916    -8914    -8896 
   -8873    -8847    -8819    -8784    -8746    -8716    -8710    -8718 
   -8719    -8714    -8721    -8742    -8766    -8792    -8823    -8843 
   -8860    -8885    -8907    -8923    -8946    -8966    -8978    -8985 
   -8988    -8989    -8992    -8992    -8976    -8946    -8915    -8887 
   -8853    -8814    -8784    -8769    -8758    -8746    -8748    -8765 
   -8793    -8816    -8830    -8843    -8856    -8862    -8866    -8866 
   -8865    -8865    -8857    -8853    -8860    -8869    -8880    -8883 
   -8868    -8847    -8830    -8812    -8803    -8799    -8800    -8804 
   -8806    -8808    -8826    -8846    -8869    -8892    -8903    -8912 
   -8931    -8946    -8951    -8935    -8899    -8866    -8839    -8819 
   -8812    -8810    -8810    -8811    -8803    -8800    -8819    -8849 
   -8878    -8907    -8938    -8978    -9020    -9054    -9088    -9124 
   -9162    -9205    -9243    -9262    -9270    -9279    -9271    -9252 
   -9229    -9198    -9177    -9154    -9112    -9074    -9036    -8995 
   -8968    -8942    -8908    -8877    -8843    -8808    -8781    -8769 
   -8769    -8772    -8775    -8788    -8808    -8827    -8846    -8857 
   -8861    -8869    -8874    -8873    -8869    -8866    -8868    -8870 
   -8862    -8846    -8820    -8793    -8777    -8775    -8776    -8780 
   -8789    -8806    -8827    -8850    -8870    -8884    -8893    -8912 
   -8938    -8947    -8939    -8928    -8930    -8945    -8962    -8974 
   -8986    -9000    -9007    -9012    -9013    -9011    -9013    -9015 
   -9000    -8980    -8964    -8942    -8912    -8881    -8856    -8845 
   -8830    -8799    -8760    -8722    -8702    -8700    -8706    -8718 
   -8738    -8753    -8761    -8775    -8797    -8822    -8845    -8866 
   -8880    -8878    -8869    -8866    -8877    -8891    -8895    -8889 
   -8878    -8873    -8877    -8881    -8877    -8874    -8876    -8870 
   -8854    -8830    -8792    -8748    -8711    -8684    -8654    -8615 
   -8580    -8571    -8575    -8581    -8603    -8630    -8644    -8658 
   -8691    -8737    -8788    -8837    -8880    -8927    -8977    -9039 
   -9111    -9163    -9198    -9223    -9223    -9219    -9223    -9215 
   -9200    -9190    -9165    -9134    -9107    -9061    -9009    -8980 
   -8957    -8928    -8901    -8880    -8854    -8826    -8810    -8804 
   -8796    -8781    -8760    -8742    -8748    -8776    -8804    -8816 
   -8819    -8831    -8857    -8893    -8932    -8966    -8993    -9015 
   -9024    -9028    -9040    -9054    -9063    -9081    -9092    -9088 
   -9089    -9089    -9080    -9076    -9078    -9077    -9069    -9050 
   -9032    -9027    -9026    -9019    -9011    -9003    -8989    -8988 
   -9003    -9013    -9015    -9013    -9013    -9005    -8999    -9004 
   -9005    -8995    -8982    -8974    -8954    -8922    -8893    -8878 
   -8872    -8864    -8850    -8829    -8802    -8775    -8750    -8722 
   -8695    -8673    -8661    -8661    -8673    -8695    -8726    -8760 
   -8783    -8797    -8812    -8818    -8818    -8822    -8826    -8834 
   -8838    -8834    -8824    -8815    -8818    -8823    -8827    -8830 
   -8833    -8841    -8857    -8872    -8887    -8907    -8931    -8965 
   -8993    -9013    -9030    -9042    -9040    -9024    -9004    -9000 
   -9003    -9000    -8996    -8980    -8943    -8905    -8883    -8866 
   -8860    -8860    -8854    -8843    -8839    -8843    -8849    -8847 
   -8838    -8834    -8831    -8820    -8796    -8769    -8754    -8749 
   -8749    -8750    -8757    -8776    -8803    -8822    -8841    -8868 
   -8895    -8922    -8954    -8986    -9013    -9034    -9051    -9065 
   -9072    -9067    -9054    -9031    -9004    -8974    -8930    -8883 
   -8850    -8831    -8822    -8820    -8814    -8803    -8799    -8795 
   -8791    -8799    -8807    -8807    -8803    -8791    -8775    -8754 
   -8727    -8689    -8649    -8615    -8600    -8592    -8587    -8602 
   -8630    -8649    -8675    -8718    -8758    -8791    -8826    -8861 
   -8896    -8935    -8988    -9042    -9074    -9096    -9127    -9162 
   -9188    -9194    -9190    -9184    -9167    -9146    -9126    -9092 
   -9051    -9020    -8989    -8943    -8900    -8865    -8829    -8797 
   -8761    -8716    -8688    -8677    -8672    -8671    -8661    -8652 
   -8658    -8685    -8719    -8745    -8764    -8792    -8818    -8841 
   -8878    -8912    -8924    -8938    -8950    -8950    -8947    -8943 
   -8926    -8899    -8870    -8843    -8822    -8802    -8787    -8784 
   -8792    -8803    -8810    -8818    -8833    -8853    -8876    -8899 
   -8905    -8903    -8904    -8911    -8915    -8916    -8915    -8911 
   -8912    -8910    -8900    -8891    -8884    -8877    -8874    -8869 
   -8854    -8839    -8835    -8847    -8873    -8899    -8922    -8945 
   -8974    -9003    -9023    -9034    -9047    -9069    -9089    -9101 
   -9113    -9124    -9128    -9135    -9134    -9117    -9112    -9112 
   -9096    -9080    -9080    -9081    -9082    -9089    -9101    -9127 
   -9158    -9174    -9181    -9186    -9186    -9193    -9215    -9232 
   -9232    -9229    -9234    -9232    -9232    -9236    -9234    -9227 
   -9223    -9215    -9207    -9193    -9180    -9174    -9165    -9158 
   -9157    -9140    -9126    -9124    -9117    -9099    -9082    -9072 
   -9053    -9031    -9019    -9012    -9004    -8985    -8957    -8934 
   -8911    -8887    -8864    -8833    -8799    -8769    -8737    -8710 
   -8685    -8654    -8627    -8611    -8590    -8563    -8549    -8532 
   -8509    -8495    -8482    -8461    -8455    -8460    -8457    -8453 
   -8449    -8440    -8430    -8425    -8424    -8429    -8438    -8446 
   -8451    -8451    -8455    -8465    -8482    -8500    -8519    -8538 
   -8556    -8579    -8608    -8633    -8654    -8691    -8726    -8762 
   -8808    -8846    -8866    -8888    -8912    -8931    -8950    -8974 
   -8999    -9023    -9039    -9038    -9031    -9035    -9043    -9035 
   -9020    -9001    -8976    -8962    -8957    -8935    -8910    -8891 
   -8870    -8853    -8838    -8822    -8812    -8810    -8811    -8815 
   -8815    -8812    -8822    -8845    -8869    -8888    -8897    -8897 
   -8895    -8892    -8887    -8873    -8850    -8829    -8816    -8804 
   -8789    -8769    -8750    -8739    -8733    -8725    -8715    -8711 
   -8718    -8731    -8745    -8770    -8802    -8823    -8850    -8885 
   -8912    -8934    -8955    -8985    -9028    -9066    -9093    -9115 
   -9134    -9158    -9185    -9198    -9207    -9219    -9209    -9192 
   -9185    -9171    -9150    -9130    -9096    -9061    -9043    -9028 
   -9005    -8985    -8959    -8938    -8935    -8937    -8935    -8938 
   -8943    -8946    -8946    -8954    -8965    -8970    -8977    -8984 
   -8993    -9018    -9039    -9046    -9053    -9061    -9067    -9080 
   -9097    -9100    -9093    -9094    -9107    -9117    -9116    -9112 
   -9123    -9128    -9120    -9108    -9099    -9090    -9072    -9051 
   -9042    -9035    -9020    -8999    -8977    -8961    -8947    -8945 
   -8957    -8977    -9000    -9026    -9053    -9067    -9062    -9053 
   -9049    -9039    -9013    -8984    -8946    -8900    -8861    -8820 
   -8775    -8743    -8719    -8689    -8661    -8641    -8633    -8634 
   -8642    -8653    -8668    -8695    -8716    -8725    -8727    -8734 
   -8735    -8734    -8742    -8746    -8745    -8760    -8787    -8802 
   -8808    -8812    -8814    -8822    -8838    -8846    -8849    -8847 
   -8843    -8839    -8835    -8829    -8824    -8814    -8792    -8777 
   -8770    -8768    -8764    -8756    -8754    -8758    -8758    -8757 
   -8765    -8777    -8788    -8795    -8797    -8803    -8812    -8819 
   -8824    -8834    -8846    -8854    -8860    -8862    -8858    -8850 
   -8841    -8824    -8802    -8784    -8769    -8753    -8739    -8737 
   -8748    -8762    -8770    -8784    -8807    -8834    -8861    -8892 
   -8924    -8955    -8980    -8996    -9007    -9008    -8997    -8993 
   -8999    -9003    -9004    -9008    -9007    -8993    -8977    -8974 
   -8982    -8989    -8986    -8988    -8992    -8996    -8996    -8992 
   -8993    -8991    -8977    -8969    -8964    -8951    -8937    -8918 
   -8896    -8885    -8883    -8883    -8885    -8888    -8889    -8895 
   -8905    -8923    -8949    -8966    -8972    -8980    -8995    -9018 
   -9043    -9059    -9073    -9092    -9096    -9081    -9069    -9058 
   -9047    -9036    -9018    -9000    -8985    -8966    -8951    -8927 
   -8896    -8866    -8837    -8814    -8803    -8795    -8795    -8796 
   -8793    -8806    -8831    -8850    -8858    -8864    -8865    -8869 
   -8877    -8880    -8874    -8868    -8870    -8877    -8880    -8884 
   -8891    -8895    -8897    -8895    -8884    -8873    -8862    -8849 
   -8837    -8822    -8797    -8769    -8745    -8734    -8730    -8721 
   -8715    -8725    -8738    -8749    -8761    -8772    -8775    -8775 
   -8777    -8784    -8793    -8800    -8802    -8802    -8804    -8806 
   -8811    -8816    -8812    -8806    -8803    -8800    -8797    -8802 
   -8812    -8824    -8834    -8842    -8851    -8865    -8880    -8897 
   -8920    -8939    -8959    -8973    -8969    -8966    -8974    -8980 
   -8977    -8966    -8950    -8934    -8918    -8900    -8891    -8883 
   -8873    -8870    -8868    -8866    -8870    -8876    -8883    -8896 
   -8916    -8934    -8942    -8950    -8972    -9008    -9043    -9073 
   -9093    -9107    -9123    -9140    -9150    -9143    -9134    -9131 
   -9120    -9097    -9078    -9073    -9059    -9038    -9016    -8996 
   -8988    -8982    -8974    -8981    -8988    -8977    -8965    -8958 
   -8961    -8969    -8973    -8973    -8977    -8976    -8969    -8959 
   -8953    -8957    -8970    -8982    -8993    -9005    -9015    -9026 
   -9026    -9013    -9013    -9022    -9011    -8996    -8992    -8978 
   -8949    -8920    -8893    -8862    -8831    -8802    -8775    -8746 
   -8718    -8689    -8668    -8657    -8652    -8649    -8650    -8646 
   -8648    -8672    -8696    -8710    -8727    -8749    -8775    -8811 
   -8845    -8862    -8872    -8889    -8914    -8931    -8945    -8958 
   -8974    -8991    -8997    -8988    -8978    -8978    -8974    -8962 
   -8943    -8926    -8910    -8891    -8865    -8842    -8823    -8802 
   -8785    -8777    -8766    -8757    -8748    -8743    -8748    -8752 
   -8752    -8760    -8775    -8784    -8789    -8795    -8804    -8810 
   -8808    -8806    -8802    -8797    -8799    -8802    -8806    -8814 
   -8820    -8823    -8833    -8850    -8868    -8883    -8892    -8903 
   -8916    -8927    -8932    -8935    -8931    -8926    -8924    -8926 
   -8927    -8928    -8924    -8920    -8918    -8914    -8911    -8908 
   -8900    -8895    -8891    -8888    -8888    -8887    -8883    -8878 
   -8870    -8861    -8853    -8850    -8846    -8835    -8823    -8816 
   -8806    -8797    -8795    -8788    -8784    -8789    -8800    -8811 
   -8820    -8831    -8851    -8876    -8895    -8912    -8923    -8926 
   -8930    -8934    -8935    -8935    -8934    -8930    -8926    -8923 
   -8920    -8914    -8899    -8887    -8880    -8876    -8873    -8872 
   -8872    -8885    -8899    -8908    -8920    -8931    -8946    -8962 
   -8968    -8970    -8982    -9001    -9027    -9049    -9063    -9088 
   -9115    -9131    -9153    -9171    -9175    -9185    -9196    -9184 
   -9170    -9174    -9173    -9159    -9147    -9132    -9105    -9088 
