Origin Time       2025/06/03 22:18:00
Lat.              41.7
Long.             143.6
Depth. (km)       30
Mag.              5.2
Station Code      HDKH05
Station Lat.      42.5977
Station Long.     142.5446
Station Height(m) 205
Record Time       2025/06/03 22:19:04
Sampling Freq(Hz) 100Hz
Duration Time(s)  120
Dir.              1
Scale Factor      3920(gal)/6170801
Max. Acc. (gal)   0.301
Last Correction   2025/06/03 22:18:48
Memo.             
[...]
   37843    37830    37816    37808    37802    37798    37800    37805 
   37810    37819    37830    37839    37843    37836    37818    37799 
   37786    37777    37765    37756    37755    37759    37766    37778 
   37797    37810    37811    37807    37805    37804    37806    37809 
   37808    37804    37793    37790    37800    37814    37828    37838 
   37847    37861    37872    37870    37857    37839    37824    37822 
   37831    37837    37831    37814    37795    37790    37801    37817 
   37830    37834    37832    37832    37836    37839    37832    37811 
   37781    37755    37741    37743    37751    37751    37753    37758 
   37756    37752    37746    37738    37732    37728    37726    37733 
   37751    37767    37778    37785    37788    37794    37802    37805 
   37798    37790    37796    37814    37830    37839    37847    37852 
   37854    37857    37863    37865    37861    37854    37845    37838 
   37844    37856    37859    37859    37864    37871    37881    37888 
   37891    37898    37907    37907    37901    37892    37884    37881 
   37880    37884    37894    37900    37897    37889    37881    37872 
   37866    37864    37868    37867    37853    37837    37825    37815 
   37808    37804    37803    37804    37806    37811    37814    37817 
   37816    37803    37781    37759    37741    37729    37722    37720 
   37721    37725    37742    37759    37768    37776    37774    37764 
   37763    37776    37795    37813    37823    37828    37828    37822 
   37812    37806    37808    37813    37819    37833    37851    37863 
   37869    37868    37863    37858    37847    37825    37798    37768 
   37736    37712    37701    37700    37709    37722    37731    37739 
   37744    37742    37734    37723    37711    37711    37722    37735 
   37747    37753    37751    37755    37772    37787    37791    37784 
   37771    37763    37765    37772    37781    37789    37791    37781 
   37760    37743    37745    37765    37789    37806    37813    37817 
   37826    37839    37853    37866    37872    37871    37871    37875 
   37879    37884    37895    37901    37898    37890    37881    37869 
   37855    37842    37836    37845    37862    37875    37881    37875 
   37859    37845    37838    37837    37847    37861    37867    37863 
   37852    37842    37836    37841    37856    37872    37885    37897 
   37904    37910    37913    37903    37885    37865    37847    37834 
   37832    37837    37848    37856    37861    37868    37875    37877 
   37876    37869    37853    37836    37827    37818    37803    37792 
   37788    37785    37786    37788    37787    37781    37767    37752 
   37741    37732    37727    37726    37725    37728    37733    37735 
   37739    37746    37749    37747    37741    37732    37729    37728 
   37724    37724    37731    37735    37742    37751    37753    37749 
   37745    37739    37740    37749    37757    37765    37779    37797 
   37814    37830    37843    37851    37855    37853    37841    37825 
   37814    37812    37819    37832    37840    37844    37850    37850 
   37844    37843    37842    37837    37828    37815    37799    37783 
   37769    37765    37777    37795    37811    37823    37828    37829 
   37832    37834    37839    37842    37837    37825    37816    37812 
   37813    37818    37827    37838    37849    37863    37880    37896 
   37914    37936    37949    37952    37955    37951    37933    37907 
   37881    37858    37837    37823    37821    37823    37822    37823 
   37827    37829    37824    37817    37806    37789    37771    37760 
   37749    37740    37731    37715    37702    37700    37706    37714 
   37724    37739    37754    37763    37768    37776    37786    37796 
   37806    37811    37811    37810    37811    37811    37811    37813 
   37821    37832    37837    37830    37822    37815    37810    37804 
   37805    37813    37818    37820    37830    37840    37846    37846 
   37841    37835    37833    37834    37831    37823    37819    37819 
   37828    37844    37856    37862    37862    37853    37841    37836 
   37839    37844    37847    37846    37837    37825    37818    37810 
   37808    37811    37812    37815    37820    37821    37822    37822 
   37814    37801    37788    37778    37774    37774    37774    37769 
   37763    37758    37761    37772    37785    37795    37802    37814 
   37831    37844    37854    37861    37860    37852    37841    37837 
   37839    37845    37848    37843    37837    37828    37823    37826 
   37826    37820    37815    37811    37810    37815    37818    37812 
   37802    37798    37804    37811    37815    37814    37809    37798 
   37787    37782    37787    37794    37802    37814    37828    37836 
   37836    37834    37839    37845    37845    37840    37833    37826 
   37824    37828    37832    37832    37827    37818    37811    37808 
   37799    37790    37793    37803    37813    37824    37830    37827 
   37817    37805    37800    37803    37806    37805    37802    37798 
   37798    37803    37805    37804    37806    37810    37814    37825 
   37837    37839    37834    37824    37810    37797    37789    37787 
   37784    37784    37792    37800    37799    37788    37771    37755 
   37752    37757    37762    37767    37773    37779    37782    37784 
   37787    37786    37784    37785    37791    37798    37807    37813 
   37813    37813    37810    37805    37802    37805    37815    37828 
   37843    37853    37854    37851    37848    37844    37839    37834 
   37832    37833    37836    37841    37847    37848    37851    37862 
   37872    37878    37880    37877    37866    37850    37838    37831 
   37829    37827    37820    37811    37805    37802    37803    37807 
   37814    37824    37835    37844    37850    37846    37833    37822 
   37814    37808    37812    37819    37820    37822    37821    37812 
   37802    37793    37783    37781    37780    37776    37774    37775 
   37771    37759    37748    37739    37733    37726    37722    37727 
   37735    37742    37748    37753    37751    37745    37745    37751 
   37762    37778    37796    37810    37820    37826    37830    37838 
   37848    37859    37861    37856    37849    37844    37846    37852 
   37853    37853    37849    37839    37833    37834    37838    37842 
   37842    37842    37841    37839    37839    37839    37839    37842 
   37848    37848    37840    37831    37824    37820    37821    37824 
   37823    37824    37833    37837    37836    37837    37836    37827 
   37812    37796    37787    37783    37781    37780    37781    37783 
   37781    37776    37769    37763    37767    37776    37782    37788 
   37791    37793    37794    37792    37785    37777    37770    37771 
   37783    37801    37819    37837    37851    37859    37865    37869 
   37869    37868    37868    37869    37873    37873    37867    37854 
   37838    37818    37798    37788    37787    37788    37787    37787 
   37790    37795    37798    37800    37801    37803    37804    37800 
   37802    37812    37819    37819    37817    37815    37812    37809 
   37810    37817    37821    37822    37827    37831    37829    37826 
   37823    37820    37817    37815    37817    37818    37818    37820 
   37818    37810    37804    37797    37786    37779    37781    37784 
   37790    37799    37804    37807    37817    37828    37840    37852 
   37857    37852    37837    37818    37806    37806    37809    37817 
   37832    37846    37853    37858    37856    37853    37850    37841 
   37830    37822    37821    37820    37821    37817    37804    37791 
   37775    37757    37741    37718    37694    37685    37684    37683 
   37692    37704    37712    37720    37723    37718    37716    37722 
   37731    37749    37774    37791    37804    37816    37824    37837 
   37852    37862    37867    37872    37868    37853    37840    37837 
   37834    37829    37826    37822    37818    37817    37818    37821 
   37828    37834    37831    37821    37818    37821    37826    37838 
   37849    37850    37842    37836    37835    37841    37850    37863 
   37877    37885    37888    37888    37884    37879    37873    37869 
   37867    37865    37860    37853    37846    37837    37827    37823 
   37825    37828    37837    37851    37863    37876    37885    37885 
   37885    37889    37887    37879    37873    37871    37868    37862 
   37855    37847    37836    37827    37824    37822    37819    37810 
   37795    37783    37772    37756    37750    37753    37755    37760 
   37761    37755    37748    37742    37739    37743    37749    37755 
   37766    37779    37791    37808    37822    37824    37821    37815 
   37802    37793    37791    37788    37792    37794    37782    37769 
   37756    37737    37722    37719    37724    37733    37743    37745 
   37742    37740    37740    37740    37742    37743    37748    37763 
   37784    37803    37819    37832    37842    37849    37851    37852 
   37855    37853    37850    37845    37838    37835    37837    37834 
   37830    37826    37814    37799    37793    37793    37787    37781 
   37776    37774    37782    37793    37803    37811    37815    37813 
   37813    37820    37831    37839    37843    37845    37849    37857 
   37864    37870    37873    37871    37863    37856    37852    37847 
   37845    37846    37847    37850    37856    37855    37847    37839 
   37836    37833    37830    37833    37839    37844    37852    37861 
   37867    37870    37869    37867    37869    37871    37870    37868 
   37859    37842    37829    37822    37821    37827    37836    37847 
   37855    37857    37858    37859    37857    37856    37857    37855 
   37846    37828    37807    37789    37776    37769    37770    37776 
   37780    37784    37787    37783    37778    37776    37773    37762 
   37745    37731    37723    37718    37716    37715    37714    37716 
   37722    37735    37755    37779    37801    37817    37824    37828 
   37834    37839    37846    37857    37858    37853    37852    37855 
   37855    37850    37839    37823    37804    37788    37779    37776 
   37775    37779    37787    37786    37780    37776    37771    37766 
   37769    37779    37790    37802    37814    37820    37824    37831 
   37843    37857    37873    37888    37899    37906    37910    37909 
   37910    37912    37917    37926    37931    37927    37924    37918 
   37909    37905    37907    37907    37905    37899    37891    37886 
   37880    37876    37874    37875    37879    37881    37877    37868 
   37854    37839    37824    37809    37793    37777    37761    37743 
   37727    37709    37690    37681    37681    37683    37683    37674 
   37655    37640    37630    37618    37611    37608    37605    37605 
   37605    37606    37611    37619    37632    37649    37662    37664 
   37657    37657    37661    37666    37674    37686    37698    37712 
   37724    37733    37744    37757    37772    37789    37805    37814 
   37814    37806    37791    37770    37753    37743    37743    37749 
   37756    37759    37758    37756    37752    37743    37733    37723 
   37713    37702    37686    37667    37652    37640    37634    37635 
   37636    37639    37651    37665    37686    37719    37754    37783 
   37807    37822    37828    37835    37844    37854    37869    37894 
   37924    37955    37984    38016    38052    38092    38133    38172 
   38202    38220    38225    38224    38227    38239    38249    38253 
   38254    38254    38251    38240    38227    38210    38189    38165 
   38135    38102    38062    38017    37974    37932    37893    37858 
   37832    37813    37797    37784    37779    37779    37773    37764 
   37752    37734    37715    37697    37677    37657    37645    37642 
   37644    37644    37639    37632    37625    37618    37609    37603 
   37609    37621    37635    37647    37647    37636    37622    37602 
   37577    37558    37554    37567    37599    37642    37687    37734 
   37781    37819    37846    37865    37877    37881    37883    37884 
   37883    37886    37896    37912    37932    37951    37965    37979 
   37993    38005    38012    38018    38026    38037    38051    38061 
   38063    38061    38065    38077    38096    38121    38146    38163 
   38166    38153    38134    38111    38085    38067    38056    38048 
   38042    38038    38035    38030    38019    38004    37982    37958 
   37936    37918    37899    37878    37850    37821    37788    37750 
   37711    37669    37624    37579    37534    37488    37449    37417 
   37396    37387    37382    37382    37387    37385    37375    37368 
   37363    37361    37365    37375    37394    37419    37451    37486 
   37517    37543    37558    37560    37554    37540    37526    37521 
   37528    37546    37563    37575    37586    37596    37604    37607 
   37601    37586    37566    37546    37532    37528    37539    37561 
   37587    37615    37644    37675    37711    37746    37777    37809 
   37838    37860    37880    37899    37913    37922    37922    37920 
   37920    37929    37945    37963    37980    37993    38005    38023 
   38041    38058    38073    38080    38076    38063    38039    38011 
   37979    37951    37939    37938    37946    37969    37998    38026 
   38058    38096    38141    38190    38235    38262    38274    38276 
   38275    38281    38287    38286    38285    38278    38259    38232 
   38195    38156    38123    38088    38056    38030    38007    37983 
   37946    37899    37854    37811    37769    37737    37714    37697 
   37686    37679    37678    37677    37669    37656    37642    37623 
   37606    37592    37576    37565    37560    37560    37573    37607 
   37652    37698    37742    37780    37809    37826    37824    37811 
   37799    37784    37768    37754    37737    37713    37694    37683 
   37679    37684    37697    37705    37702    37696    37687    37680 
   37674    37670    37665    37655    37639    37619    37602    37598 
   37610    37637    37676    37728    37784    37835    37878    37911 
   37924    37926    37925    37917    37905    37897    37897    37904 
   37915    37930    37947    37968    37982    37983    37979    37971 
   37955    37929    37894    37861    37835    37814    37799    37790 
   37783    37777    37768    37753    37737    37718    37694    37679 
   37675    37679    37700    37734    37773    37810    37836    37859 
   37878    37881    37872    37858    37836    37810    37790    37778 
   37770    37763    37758    37756    37757    37759    37763    37770 
   37774    37771    37759    37740    37723    37721    37732    37750 
   37784    37828    37874    37927    37979    38026    38072    38111 
   38140    38163    38172    38163    38139    38099    38043    37971 
   37883    37790    37703    37618    37539    37476    37428    37397 
   37380    37369    37363    37358    37354    37360    37373    37390 
   37414    37444    37475    37504    37534    37573    37617    37665 
   37716    37766    37816    37861    37890    37906    37922    37938 
   37948    37956    37969    37979    37987    37999    38014    38025 
   38033    38038    38036    38033    38027    38027    38040    38064 
   38086    38101    38105    38098    38080    38062    38045    38029 
   38015    38003    37995    37983    37967    37956    37948    37939 
   37934    37932    37927    37924    37923    37931    37948    37965 
   37980    37991    37995    37990    37979    37964    37945    37920 
   37888    37851    37811    37769    37733    37708    37685    37658 
   37634    37610    37581    37546    37509    37480    37464    37452 
   37450    37461    37472    37479    37486    37484    37470    37456 
   37446    37444    37455    37484    37533    37593    37658    37721 
   37777    37828    37869    37899    37923    37945    37967    37985 
   37991    37985    37971    37949    37921    37890    37864    37840 
   37818    37802    37789    37775    37764    37753    37737    37718 
   37693    37663    37637    37619    37608    37606    37609    37624 
   37651    37684    37720    37757    37794    37835    37871    37900 
   37935    37971    37998    38019    38034    38044    38057    38071 
   38084    38103    38118    38122    38122    38118    38108    38100 
   38093    38085    38075    38051    38014    37969    37927    37897 
   37875    37856    37841    37829    37816    37802    37786    37763 
   37737    37713    37691    37671    37658    37657    37664    37673 
   37681    37692    37707    37722    37735    37742    37739    37726 
   37703    37669    37631    37602    37585    37579    37581    37591 
   37605    37613    37609    37595    37577    37560    37545    37537 
   37538    37549    37568    37584    37595    37608    37624    37644 
   37669    37700    37736    37778    37828    37884    37945    38010 
   38068    38109    38130    38137    38137    38131    38126    38130 
   38142    38153    38163    38174    38188    38197    38199    38192 
   38171    38136    38094    38050    38007    37970    37937    37905 
   37876    37852    37832    37812    37793    37774    37752    37733 
   37717    37701    37687    37676    37666    37662    37663    37662 
   37656    37649    37642    37634    37627    37622    37616    37612 
   37614    37621    37638    37665    37686    37701    37716    37722 
   37719    37715    37708    37704    37706    37717    37737    37762 
   37792    37826    37856    37883    37905    37925    37945    37960 
   37965    37957    37939    37918    37895    37877    37876    37888 
   37904    37927    37957    37988    38014    38042    38066    38078 
   38079    38070    38051    38025    37998    37972    37953    37942 
   37937    37940    37944    37941    37939    37939    37933    37918 
   37894    37865    37828    37783    37737    37694    37655    37624 
   37605    37594    37589    37593    37604    37620    37637    37656 
   37670    37681    37698    37717    37730    37745    37764    37775 
   37781    37792    37801    37803    37803    37807    37818    37832 
   37847    37862    37873    37879    37881    37877    37868    37850 
   37825    37796    37761    37731    37715    37711    37714    37722 
   37732    37738    37740    37734    37721    37706    37689    37673 
   37657    37644    37634    37627    37630    37639    37654    37682 
   37714    37741    37764    37780    37785    37781    37770    37758 
   37750    37747    37750    37758    37766    37773    37782    37797 
   37816    37838    37861    37886    37909    37922    37927    37932 
   37939    37946    37956    37967    37977    37979    37981    37989 
   38000    38013    38032    38052    38065    38072    38079    38082 
   38078    38070    38055    38027    37995    37960    37922    37893 
   37869    37835    37803    37778    37748    37724    37700    37668 
   37639    37609    37572    37548    37534    37524    37531    37543 
   37549    37562    37582    37600    37621    37645    37667    37684 
   37695    37704    37715    37726    37735    37739    37739    37746 
   37754    37758    37762    37765    37766    37766    37762    37758 
