Origin Time       2025/06/03 22:18:00
Lat.              41.7
Long.             143.6
Depth. (km)       30
Mag.              5.2
Station Code      HDKH01
Station Lat.      42.7031
Station Long.     142.2296
Station Height(m) 82
Record Time       2025/06/03 22:19:13
Sampling Freq(Hz) 100Hz
Duration Time(s)  120
Dir.              5
Scale Factor      7845(gal)/8223790
Max. Acc. (gal)   0.894
Last Correction   2025/06/03 22:19:15
Memo.             
[...]
    7776     7769     7743     7704     7654     7599     7557     7534 
    7531     7547     7566     7580     7588     7581     7555     7512 
    7457     7400     7358     7342     7352     7376     7414     7456 
    7491     7516     7528     7527     7522     7520     7534     7561 
    7589     7620     7645     7645     7626     7592     7554     7524 
    7508     7512     7531     7545     7554     7560     7551     7535 
    7515     7495     7484     7481     7491     7504     7508     7508 
    7500     7484     7469     7454     7447     7454     7466     7483 
    7503     7520     7543     7574     7608     7646     7676     7697 
    7709     7707     7690     7658     7622     7592     7569     7558 
    7560     7570     7589     7616     7635     7642     7630     7596 
    7549     7497     7443     7404     7389     7396     7420     7456 
    7493     7528     7549     7561     7568     7566     7566     7574 
    7584     7588     7582     7564     7530     7488     7449     7416 
    7398     7398     7416     7456     7512     7569     7619     7655 
    7677     7680     7666     7645     7620     7604     7605     7615 
    7626     7642     7646     7634     7615     7585     7554     7531 
    7514     7512     7531     7558     7591     7624     7646     7666 
    7678     7677     7668     7653     7635     7614     7585     7555 
    7527     7501     7483     7472     7470     7473     7479     7493 
    7515     7535     7561     7589     7615     7638     7649     7649 
    7642     7623     7600     7576     7541     7499     7450     7399 
    7352     7311     7288     7295     7326     7385     7460     7535 
    7611     7677     7715     7724     7707     7668     7612     7547 
    7485     7434     7404     7404     7431     7481     7541     7593 
    7645     7689     7712     7726     7726     7703     7674     7641 
    7599     7561     7531     7511     7503     7506     7522     7546 
    7576     7609     7634     7645     7641     7615     7581     7545 
    7508     7481     7461     7445     7435     7429     7426     7435 
    7449     7469     7492     7507     7515     7519     7508     7487 
    7460     7438     7425     7425     7439     7461     7479     7497 
    7511     7514     7512     7501     7487     7466     7443     7430 
    7420     7410     7412     7427     7461     7516     7581     7645 
    7696     7731     7754     7759     7750     7730     7696     7649 
    7599     7549     7512     7495     7496     7518     7553     7604 
    7657     7690     7705     7704     7676     7630     7580     7531 
    7496     7481     7484     7501     7524     7549     7562     7558 
    7547     7527     7501     7487     7480     7484     7500     7516 
    7534     7553     7560     7562     7573     7580     7585     7589 
    7585     7570     7553     7527     7495     7464     7439     7426 
    7422     7431     7449     7473     7500     7518     7533     7550 
    7560     7570     7587     7605     7628     7649     7665     7673 
    7666     7645     7609     7558     7511     7470     7442     7439 
    7464     7511     7578     7649     7708     7747     7757     7742 
    7703     7651     7597     7547     7503     7469     7445     7439 
    7453     7480     7520     7569     7624     7685     7742     7789 
    7820     7821     7797     7753     7692     7627     7566     7519 
    7487     7461     7449     7456     7476     7510     7551     7595 
    7635     7661     7665     7647     7607     7551     7493     7441 
    7404     7393     7404     7437     7483     7531     7580     7616 
    7645     7665     7669     7655     7626     7578     7520     7458 
    7402     7357     7330     7323     7337     7369     7414     7453 
    7483     7504     7506     7495     7483     7465     7452     7443 
    7429     7414     7400     7391     7388     7392     7408     7434 
    7458     7488     7524     7553     7577     7600     7614     7622 
    7626     7628     7632     7643     7663     7692     7724     7757 
    7778     7780     7757     7709     7649     7581     7512     7461 
    7437     7433     7452     7488     7528     7565     7593     7612 
    7611     7595     7573     7547     7522     7506     7496     7496 
    7501     7507     7519     7527     7530     7546     7566     7581 
    7596     7601     7595     7585     7568     7551     7539     7526 
    7516     7508     7501     7497     7484     7466     7461     7462 
    7476     7501     7530     7560     7584     7592     7591     7578 
    7566     7566     7574     7592     7612     7622     7623     7611 
    7584     7560     7541     7534     7541     7554     7572     7585 
    7588     7592     7595     7595     7595     7595     7593     7592 
    7593     7595     7596     7595     7597     7593     7585     7570 
    7547     7527     7510     7492     7484     7488     7493     7504 
    7511     7507     7500     7489     7476     7469     7468     7476 
    7488     7496     7506     7518     7528     7547     7578     7615 
    7653     7686     7708     7708     7685     7647     7597     7546 
    7501     7466     7452     7456     7470     7499     7528     7553 
    7569     7569     7558     7546     7523     7497     7479     7464 
    7462     7474     7492     7520     7554     7582     7611     7636 
    7653     7661     7659     7653     7641     7627     7620     7608 
    7592     7581     7574     7570     7573     7573     7572     7565 
    7550     7530     7503     7468     7433     7399     7376     7361 
    7350     7350     7360     7375     7393     7420     7460     7504 
    7543     7585     7620     7641     7651     7650     7635     7615 
    7592     7572     7560     7555     7565     7574     7584     7593 
    7597     7592     7577     7553     7523     7492     7464     7443 
    7431     7427     7426     7416     7407     7410     7419     7437 
    7465     7499     7541     7577     7600     7614     7623     7638 
    7661     7686     7716     7743     7762     7769     7759     7742 
    7726     7712     7709     7712     7705     7693     7674     7645 
    7612     7577     7542     7514     7487     7465     7450     7435 
    7427     7431     7447     7481     7519     7558     7599     7632 
    7658     7676     7680     7677     7662     7632     7600     7564 
    7530     7506     7488     7488     7504     7527     7561     7605 
    7639     7662     7668     7659     7647     7638     7628     7618 
    7604     7595     7582     7569     7561     7555     7549     7541 
    7534     7526     7514     7500     7491     7474     7456     7433 
    7399     7364     7329     7300     7292     7302     7321     7357 
    7400     7445     7495     7545     7592     7636     7669     7686 
    7684     7651     7597     7524     7446     7369     7302     7254 
    7234     7244     7291     7358     7431     7507     7573     7626 
    7659     7663     7649     7624     7585     7549     7523     7508 
    7514     7537     7572     7611     7646     7677     7701     7711 
    7709     7699     7681     7665     7646     7627     7615     7600 
    7582     7560     7533     7514     7495     7477     7473     7481 
    7495     7516     7539     7568     7597     7619     7636     7647 
    7650     7646     7626     7600     7576     7550     7528     7516 
    7516     7523     7531     7541     7545     7538     7526     7515 
    7507     7507     7519     7541     7573     7609     7643     7674 
    7693     7700     7700     7689     7670     7643     7607     7568 
    7528     7493     7468     7441     7419     7406     7396     7399 
    7411     7427     7453     7483     7516     7549     7565     7558 
    7541     7514     7484     7460     7443     7433     7431     7437 
    7446     7457     7476     7493     7501     7507     7503     7488 
    7469     7441     7414     7391     7369     7361     7360     7361 
    7376     7396     7423     7457     7485     7514     7535     7539 
    7530     7504     7464     7429     7404     7391     7399     7420 
    7452     7487     7518     7549     7576     7592     7603     7604 
    7607     7612     7607     7595     7580     7557     7533     7516 
    7506     7501     7504     7518     7539     7566     7596     7628 
    7653     7669     7678     7677     7672     7661     7647     7632 
    7623     7622     7623     7623     7628     7634     7631     7631 
    7628     7623     7618     7608     7597     7584     7566     7551 
    7537     7524     7516     7512     7515     7527     7539     7558 
    7585     7615     7650     7680     7707     7739     7759     7762 
    7754     7735     7715     7695     7677     7670     7672     7677 
    7695     7715     7732     7743     7747     7744     7735     7724 
    7722     7722     7726     7731     7727     7716     7701     7676 
    7646     7618     7591     7570     7557     7553     7560     7572 
    7589     7611     7635     7666     7700     7740     7789     7824 
    7843     7848     7827     7786     7743     7701     7668     7649 
    7642     7647     7654     7662     7665     7651     7627     7591 
    7543     7500     7470     7460     7468     7492     7528     7565 
    7585     7589     7576     7547     7526     7516     7522     7545 
    7572     7596     7615     7609     7588     7558     7522     7487 
    7458     7442     7443     7452     7460     7468     7472     7479 
    7489     7495     7499     7491     7476     7456     7427     7398 
    7368     7335     7311     7296     7294     7308     7333     7365 
    7407     7446     7481     7501     7500     7479     7435     7381 
    7323     7268     7234     7230     7256     7304     7368     7437 
    7504     7553     7576     7574     7545     7499     7442     7373 
    7306     7245     7191     7156     7141     7148     7188     7254 
    7337     7425     7511     7585     7634     7649     7634     7593 
    7541     7485     7434     7398     7380     7373     7383     7407 
    7442     7483     7520     7557     7591     7609     7615     7611 
    7592     7569     7549     7530     7519     7524     7541     7566 
    7596     7631     7663     7688     7712     7734     7747     7757 
    7758     7751     7739     7716     7690     7666     7642     7626 
    7616     7607     7607     7616     7626     7641     7661     7680 
    7697     7703     7692     7665     7620     7566     7510     7460 
    7426     7408     7408     7429     7464     7507     7546     7570 
    7584     7577     7550     7512     7465     7414     7369     7342 
    7333     7331     7334     7342     7339     7330     7317     7290 
    7265     7261     7268     7294     7337     7387     7438     7479 
    7503     7507     7500     7493     7495     7512     7557     7622 
    7693     7766     7830     7874     7889     7874     7838     7782 
    7720     7663     7618     7597     7614     7647     7701     7767 
    7821     7855     7862     7828     7759     7663     7555     7462 
    7388     7341     7337     7371     7427     7501     7580     7646 
    7686     7696     7673     7619     7550     7480     7419     7384 
    7380     7400     7438     7476     7501     7508     7493     7465 
    7434     7408     7407     7434     7496     7591     7704     7830 
    7947     8039     8101     8118     8081     8008     7905     7776 
    7638     7506     7389     7310     7271     7273     7311     7379 
    7468     7550     7612     7650     7654     7630     7591     7534 
    7474     7416     7360     7314     7275     7240     7222     7214 
    7214     7233     7263     7302     7352     7408     7462     7514 
    7566     7616     7661     7707     7744     7767     7782     7784 
    7762     7730     7693     7665     7649     7646     7662     7696 
    7734     7774     7808     7823     7825     7819     7812     7821 
    7852     7908     7982     8064     8144     8197     8206     8164 
    8064     7917     7742     7561     7410     7300     7238     7231 
    7265     7321     7383     7419     7418     7380     7296     7184 
    7068     6956     6868     6826     6839     6897     6994     7115 
    7241     7360     7464     7546     7605     7647     7666     7665 
    7641     7588     7516     7439     7358     7294     7254     7240 
    7256     7298     7353     7411     7458     7493     7516     7526 
    7523     7516     7507     7499     7488     7476     7468     7461 
    7452     7443     7438     7443     7458     7484     7520     7557 
    7591     7620     7636     7650     7666     7682     7711     7759 
    7830     7919     8005     8079     8121     8110     8052     7951 
    7825     7712     7628     7584     7597     7653     7740     7854 
    7965     8052     8100     8097     8055     7979     7889     7801 
    7728     7677     7658     7666     7696     7730     7753     7755 
    7731     7680     7618     7553     7499     7464     7439     7434 
    7435     7430     7419     7395     7358     7317     7269     7225 
    7195     7177     7179     7204     7246     7296     7344     7376 
    7391     7381     7357     7327     7302     7304     7344     7408 
    7500     7600     7684     7734     7735     7681     7581     7450 
    7318     7211     7155     7161     7233     7366     7541     7716 
    7871     7978     8009     7958     7825     7620     7377     7129 
    6907     6741     6640     6612     6652     6745     6872     7007 
    7136     7258     7368     7473     7585     7692     7794     7893 
    7966     8009     8023     8002     7960     7904     7844     7793 
    7757     7740     7744     7759     7784     7808     7821     7828 
    7824     7809     7781     7742     7700     7655     7612     7578 
    7555     7545     7554     7572     7599     7636     7676     7715 
    7763     7815     7861     7893     7902     7885     7827     7735 
    7616     7473     7333     7217     7133     7090     7092     7138 
    7215     7307     7402     7481     7518     7511     7461     7377 
    7287     7221     7199     7238     7338     7495     7677     7844 
    7975     8041     8035     7967     7844     7692     7546     7426 
    7353     7329     7341     7376     7418     7445     7442     7404 
    7338     7244     7134     7034     6961     6932     6967     7060 
    7207     7399     7605     7796     7946     8025     8028     7951 
    7808     7631     7446     7284     7177     7141     7182     7306 
    7492     7723     7965     8176     8329     8402     8383     8283 
    8124     7929     7731     7554     7423     7341     7306     7303 
    7308     7307     7299     7283     7260     7234     7210     7192 
    7184     7182     7194     7223     7265     7321     7385     7458 
    7534     7600     7646     7665     7661     7635     7587     7526 
    7461     7388     7317     7254     7203     7173     7167     7180 
    7213     7258     7318     7399     7493     7603     7717     7825 
    7916     7977     8005     8004     7971     7921     7862     7793 
    7735     7696     7673     7674     7699     7742     7801     7866 
    7931     7989     8027     8035     8006     7943     7847     7723 
    7588     7465     7364     7298     7276     7290     7344     7427 
    7516     7608     7695     7761     7797     7803     7774     7711 
    7622     7520     7418     7330     7280     7273     7307     7384 
    7492     7612     7727     7821     7888     7919     7915     7892 
    7855     7820     7796     7774     7762     7757     7739     7711 
    7666     7600     7522     7442     7376     7322     7276     7249 
    7240     7240     7256     7290     7344     7429     7533     7653 
    7788     7920     8037     8125     8168     8166     8106     7996 
    7846     7658     7460     7275     7110     6987     6920     6905 
    6940     7010     7103     7210     7312     7400     7464     7495 
    7488     7445     7364     7254     7125     6998     6897     6837 
    6837     6903     7029     7202     7396     7589     7759     7889 
    7973     8006     7993     7950     7886     7804     7722     7650 
    7595     7569     7577     7614     7670     7739     7815     7884 
    7936     7966     7962     7931     7886     7825     7761     7711 
    7680     7668     7681     7708     7746     7785     7823     7857 
    7881     7900     7911     7904     7884     7844     7773     7682 
    7572     7452     7337     7237     7161     7125     7114     7128 
    7159     7195     7238     7276     7298     7306     7294     7258 
    7217     7176     7146     7136     7148     7190     7256     7331 
    7412     7480     7523     7543     7537     7503     7453     7395 
    7338     7294     7275     7283     7307     7348     7398     7427 
    7438     7427     7387     7335     7288     7250     7236     7245 
    7276     7325     7379     7425     7456     7469     7470     7468 
    7466     7472     7488     7524     7572     7624     7686     7750 
    7796     7825     7834     7819     7786     7740     7690     7643 
    7604     7584     7580     7585     7601     7612     7618     7624 
    7622     7614     7612     7618     7632     7657     7684     7713 
    7744     7777     7804     7821     7839     7855     7859     7854 
    7836     7801     7753     7693     7632     7581     7545     7528 
    7533     7549     7574     7601     7626     7658     7697     7742 
    7797     7858     7920     7977     8013     8031     8019     7974 
    7905     7808     7699     7589     7481     7387     7306     7240 
    7202     7188     7191     7215     7256     7312     7381     7449 
    7518     7587     7642     7689     7735     7770     7797     7816 
    7830     7839     7838     7831     7812     7781     7734     7669 
    7593     7515     7434     7365     7310     7267     7242     7236 
    7237     7254     7287     7326     7368     7412     7461     7510 
    7555     7599     7631     7654     7670     7670     7658     7641 
    7619     7597     7577     7557     7539     7514     7483     7450 
    7404     7349     7292     7223     7159     7105     7057     7037 
    7052     7087     7145     7221     7306     7396     7481     7565 
    7646     7712     7766     7808     7832     7839     7821     7780 
    7717     7636     7551     7473     7410     7380     7385     7425 
    7493     7576     7654     7713     7734     7719     7678     7609 
    7533     7462     7411     7384     7384     7411     7450     7492 
    7531     7558     7574     7584     7589     7597     7607     7620 
    7638     7654     7670     7684     7686     7678     7665     7639 
    7607     7573     7530     7476     7420     7360     7300     7245 
    7204     7192     7202     7234     7292     7365     7450     7537 
    7607     7655     7682     7677     7647     7600     7539     7483 
    7430     7391     7371     7365     7369     7379     7387     7398 
    7403     7403     7404     7400     7404     7422     7438     7458 
    7487     7518     7549     7576     7603     7631     7653     7669 
    7686     7701     7722     7740     7751     7753     7742     7720 
    7693     7663     7639     7627     7623     7626     7627     7623 
