Origin Time       2025/06/03 22:18:00
Lat.              41.7
Long.             143.6
Depth. (km)       30
Mag.              5.2
Station Code      HDKH06
Station Lat.      42.3498
Station Long.     142.3572
Station Height(m) -105
Record Time       2025/06/03 22:18:50
Sampling Freq(Hz) 100Hz
Duration Time(s)  120
Dir.              1
Scale Factor      2942(gal)/8224139
Max. Acc. (gal)   0.438
Last Correction   2025/06/03 22:18:50
Memo.             
[...]
  107100   107094   107090   107084   107080   107084   107094   107102 
  107107   107102   107082   107053   107025   106995   106972   106956 
  106944   106937   106941   106952   106968   106986   106998   106999 
  106990   106979   106965   106955   106953   106960   106972   106983 
  106994   107010   107033   107057   107073   107087   107100   107115 
  107136   107158   107180   107194   107200   107196   107185   107175 
  107168   107167   107169   107175   107179   107184   107187   107187 
  107192   107203   107221   107242   107265   107284   107296   107299 
  107291   107271   107245   107217   107184   107152   107126   107102 
  107084   107077   107077   107084   107094   107103   107110   107115 
  107123   107131   107141   107152   107164   107179   107196   107208 
  107222   107238   107249   107258   107268   107273   107273   107268 
  107254   107244   107237   107234   107235   107235   107231   107226 
  107221   107211   107195   107171   107145   107114   107080   107049 
  107022   107001   106986   106976   106976   106990   107011   107036 
  107065   107098   107129   107156   107177   107194   107202   107206 
  107202   107191   107177   107157   107134   107113   107095   107084 
  107080   107084   107098   107115   107127   107131   107126   107117 
  107103   107083   107060   107034   107006   106974   106944   106924 
  106911   106903   106905   106914   106930   106957   106995   107029 
  107055   107073   107079   107073   107063   107050   107036   107022 
  107011   107005   107002   107002   107015   107042   107082   107130 
  107179   107222   107250   107265   107272   107272   107268   107261 
  107254   107256   107266   107276   107281   107287   107291   107295 
  107299   107296   107285   107276   107269   107261   107254   107241 
  107225   107210   107195   107181   107172   107164   107163   107164 
  107160   107153   107142   107126   107111   107099   107091   107086 
  107082   107079   107077   107077   107083   107090   107090   107083 
  107075   107067   107067   107071   107071   107067   107055   107040 
  107022   107003   106990   106987   106991   107003   107023   107044 
  107057   107073   107091   107104   107122   107148   107172   107188 
  107196   107198   107192   107177   107153   107125   107099   107079 
  107061   107044   107028   107010   106991   106978   106974   106975 
  106984   106998   107014   107032   107050   107076   107106   107134 
  107167   107202   107233   107262   107289   107308   107316   107314 
  107302   107280   107254   107233   107219   107214   107210   107208 
  107210   107217   107230   107244   107250   107248   107241   107227 
  107211   107191   107169   107148   107130   107115   107106   107099 
  107098   107103   107117   107134   107153   107167   107177   107195 
  107218   107239   107258   107271   107272   107271   107269   107265 
  107260   107252   107233   107207   107183   107160   107144   107136 
  107133   107134   107138   107141   107137   107131   107126   107121 
  107110   107095   107075   107052   107029   107005   106976   106944 
  106913   106886   106870   106855   106841   106834   106826   106818 
  106816   106814   106805   106793   106775   106755   106745   106745 
  106756   106779   106812   106851   106894   106937   106978   107010 
  107040   107072   107106   107136   107164   107183   107196   107207 
  107215   107221   107227   107239   107257   107284   107319   107347 
  107368   107377   107374   107362   107346   107331   107319   107303 
  107283   107265   107250   107230   107217   107208   107203   107206 
  107214   107221   107235   107249   107252   107253   107253   107248 
  107239   107233   107217   107198   107181   107171   107167   107172 
  107180   107190   107202   107214   107219   107221   107219   107215 
  107206   107190   107168   107146   107122   107098   107084   107076 
  107069   107063   107055   107046   107040   107036   107029   107018 
  107005   106995   106994   106999   107009   107025   107046   107069 
  107090   107109   107119   107125   107129   107126   107114   107099 
  107080   107057   107038   107030   107032   107040   107053   107060 
  107057   107059   107063   107061   107059   107053   107042   107028 
  107018   107018   107026   107040   107055   107067   107080   107095 
  107107   107117   107117   107109   107095   107076   107053   107036 
  107022   107013   107007   107009   107010   107013   107021   107030 
  107038   107050   107065   107072   107076   107077   107077   107083 
  107090   107099   107119   107149   107181   107218   107256   107288 
  107315   107338   107356   107366   107369   107362   107350   107333 
  107311   107288   107266   107246   107234   107230   107225   107219 
  107215   107204   107184   107160   107136   107117   107107   107106 
  107109   107114   107123   107129   107126   107125   107121   107113 
  107102   107091   107082   107075   107072   107069   107061   107052 
  107046   107042   107040   107041   107050   107068   107087   107110 
  107131   107144   107153   107163   107173   107184   107187   107181 
  107168   107150   107129   107110   107100   107098   107095   107095 
  107091   107080   107068   107052   107032   107013   106994   106982 
  106975   106967   106960   106960   106963   106964   106967   106969 
  106979   106996   107018   107041   107061   107072   107080   107090 
  107099   107114   107129   107145   107164   107183   107194   107198 
  107200   107203   107203   107208   107221   107234   107245   107254 
  107260   107258   107254   107256   107257   107256   107254   107253 
  107254   107258   107262   107258   107246   107233   107218   107202 
  107184   107169   107160   107153   107150   107148   107141   107136 
  107138   107148   107161   107176   107191   107202   107212   107226 
  107235   107237   107230   107225   107221   107221   107225   107230 
  107230   107223   107212   107194   107175   107160   107149   107138 
  107129   107115   107099   107083   107061   107034   107002   106972 
  106951   106934   106932   106941   106953   106969   106987   107002 
  107018   107030   107034   107036   107040   107053   107071   107087 
  107096   107099   107096   107096   107106   107123   107146   107175 
  107203   107226   107237   107238   107229   107211   107194   107176 
  107156   107137   107123   107113   107106   107099   107088   107079 
  107072   107063   107055   107050   107052   107055   107063   107075 
  107087   107100   107111   107117   107121   107130   107140   107148 
  107160   107167   107161   107148   107133   107118   107098   107072 
  107048   107023   106996   106974   106956   106942   106944   106960 
  106982   107006   107028   107044   107053   107061   107073   107086 
  107096   107107   107122   107137   107153   107175   107196   107212 
  107222   107229   107233   107231   107223   107217   107215   107217 
  107215   107212   107210   107208   107204   107192   107180   107169 
  107163   107158   107158   107163   107168   107168   107161   107153 
  107146   107142   107145   107149   107156   107168   107179   107190 
  107203   107217   107226   107229   107222   107211   107192   107169 
  107144   107115   107088   107060   107034   107017   107011   107017 
  107029   107040   107049   107059   107067   107072   107077   107082 
  107077   107069   107057   107038   107014   106988   106963   106942 
  106933   106934   106941   106959   106983   107013   107045   107075 
  107100   107118   107126   107126   107118   107102   107086   107072 
  107067   107072   107087   107110   107136   107160   107176   107184 
  107191   107202   107211   107221   107237   107256   107266   107273 
  107279   107276   107265   107248   107225   107192   107160   107126 
  107095   107069   107044   107019   107005   107002   107011   107037 
  107072   107109   107138   107161   107168   107165   107157   107145 
  107129   107109   107082   107053   107021   106991   106967   106949 
  106938   106933   106933   106937   106947   106961   106982   107001 
  107017   107030   107040   107049   107055   107055   107053   107053 
  107052   107050   107056   107064   107071   107083   107098   107114 
  107127   107138   107145   107152   107158   107164   107171   107185 
  107200   107210   107214   107215   107214   107207   107199   107195 
  107198   107206   107221   107245   107275   107302   107323   107342 
  107350   107352   107356   107360   107360   107365   107372   107374 
  107372   107364   107352   107335   107312   107287   107262   107248 
  107242   107242   107246   107242   107238   107239   107239   107242 
  107249   107256   107258   107258   107258   107261   107258   107249 
  107233   107214   107195   107175   107145   107110   107079   107057 
  107044   107041   107049   107063   107076   107091   107107   107122 
  107133   107131   107118   107096   107068   107046   107040   107044 
  107050   107059   107067   107071   107069   107060   107044   107026 
  107010   106996   106987   106974   106956   106942   106929   106918 
  106922   106937   106956   106984   107021   107056   107086   107110 
  107131   107154   107173   107191   107204   107214   107222   107233 
  107238   107237   107229   107217   107203   107188   107171   107150 
  107134   107121   107110   107104   107098   107090   107080   107075 
  107069   107067   107065   107053   107033   107007   106978   106945 
  106915   106887   106857   106830   106816   106809   106807   106806 
  106806   106809   106813   106821   106830   106837   106847   106859 
  106874   106891   106907   106914   106913   106910   106903   106895 
  106887   106878   106866   106855   106851   106851   106856   106874 
  106891   106901   106905   106907   106902   106893   106883   106874 
  106870   106866   106855   106844   106833   106824   106818   106820 
  106832   106855   106887   106932   106984   107040   107095   107149 
  107200   107246   107287   107319   107343   107361   107372   107381 
  107396   107416   107441   107468   107493   107515   107528   107536 
  107538   107536   107536   107536   107535   107532   107534   107541 
  107550   107562   107576   107590   107604   107616   107627   107631 
  107626   107619   107617   107616   107615   107616   107615   107611 
  107605   107593   107572   107546   107522   107495   107468   107447 
  107434   107423   107414   107408   107407   107408   107403   107392 
  107381   107369   107361   107356   107353   107352   107352   107350 
  107350   107353   107354   107347   107335   107318   107293   107268 
  107238   107211   107181   107148   107114   107094   107076   107059 
  107045   107026   106999   106969   106940   106911   106887   106868 
  106859   106855   106851   106847   106840   106829   106820   106810 
  106799   106789   106778   106774   106779   106794   106817   106843 
  106867   106897   106925   106945   106960   106971   106979   106987 
  106992   106995   107002   107007   107015   107033   107052   107067 
  107080   107090   107095   107099   107102   107103   107106   107110 
  107114   107115   107117   107118   107114   107103   107092   107079 
  107064   107046   107028   107005   106980   106956   106932   106899 
  106861   106826   106791   106759   106735   106717   106710   106712 
  106714   106726   106759   106807   106866   106933   107003   107060 
  107098   107127   107144   107148   107142   107129   107111   107098 
  107086   107079   107076   107079   107084   107086   107082   107071 
  107053   107036   107021   107005   106986   106961   106933   106903 
  106872   106845   106829   106820   106824   106844   106871   106906 
  106955   107007   107061   107115   107167   107212   107256   107296 
  107334   107366   107389   107397   107389   107366   107327   107272 
  107214   107156   107100   107063   107041   107036   107049   107076 
  107111   107150   107184   107207   107221   107221   107210   107195 
  107187   107181   107175   107172   107177   107188   107206   107230 
  107265   107298   107322   107339   107349   107349   107342   107320 
  107285   107246   107204   107164   107127   107098   107082   107082 
  107095   107114   107134   107157   107176   107187   107199   107200 
  107194   107181   107165   107150   107140   107129   107115   107099 
  107075   107045   107015   106984   106961   106949   106944   106945 
  106952   106961   106972   106987   107006   107026   107045   107060 
  107069   107076   107082   107086   107092   107113   107150   107199 
  107249   107298   107339   107376   107403   107419   107423   107420 
  107414   107414   107420   107433   107446   107461   107472   107480 
  107488   107493   107492   107480   107457   107426   107389   107346 
  107295   107248   107200   107146   107092   107042   106996   106955 
  106914   106878   106837   106787   106735   106677   106612   106546 
  106486   106438   106405   106393   106407   106447   106510   106596 
  106690   106786   106886   106979   107059   107123   107173   107203 
  107218   107221   107214   107200   107185   107172   107163   107154 
  107148   107144   107140   107130   107115   107099   107080   107059 
  107038   107014   106991   106976   106969   106969   106979   107003 
  107041   107087   107137   107188   107235   107277   107323   107373 
  107428   107496   107573   107654   107739   107825   107909   107991 
  108067   108135   108198   108253   108295   108325   108345   108348 
  108336   108305   108256   108191   108112   108016   107901   107778 
  107655   107538   107424   107322   107229   107148   107083   107030 
  106983   106945   106917   106893   106872   106861   106859   106864 
  106883   106907   106942   106990   107037   107080   107122   107160 
  107188   107202   107202   107190   107160   107114   107063   107007 
  106952   106903   106859   106813   106770   106728   106690   106656 
  106625   106601   106581   106554   106525   106490   106447   106404 
  106362   106319   106285   106269   106262   106270   106299   106338 
  106388   106450   106516   106586   106660   106737   106813   106883 
  106942   106994   107038   107071   107099   107121   107134   107140 
  107137   107126   107110   107082   107045   107010   106982   106964 
  106963   106972   106983   106995   107005   107006   107002   106992 
  106984   106979   106975   106974   106979   106991   107006   107025 
  107048   107076   107104   107130   107160   107192   107217   107226 
  107218   107196   107165   107131   107100   107075   107053   107038 
  107023   107003   106976   106941   106902   106863   106814   106759 
  106701   106631   106554   106474   106392   106312   106240   106181 
  106142   106130   106142   106180   106249   106344   106458   106587 
  106731   106880   107030   107172   107292   107379   107438   107474 
  107488   107484   107470   107461   107460   107466   107493   107532 
  107574   107622   107670   107708   107738   107759   107767   107763 
  107747   107712   107665   107611   107553   107499   107457   107434 
  107431   107453   107496   107559   107636   107713   107779   107840 
  107897   107946   107989   108024   108049   108066   108071   108064 
  108045   108016   107977   107927   107867   107804   107746   107696 
  107657   107632   107611   107599   107596   107592   107585   107576 
  107557   107524   107481   107420   107343   107257   107165   107069 
  106975   106887   106813   106753   106713   106686   106670   106660 
  106652   106643   106633   106620   106604   106589   106582   106585 
  106596   106614   106636   106668   106718   106782   106851   106922 
  106987   107032   107059   107071   107069   107059   107044   107025 
  107005   106990   106980   106971   106961   106949   106937   106933 
  106936   106937   106940   106940   106932   106922   106914   106905 
  106890   106871   106852   106837   106828   106829   106841   106868 
  106910   106957   107003   107041   107065   107077   107084   107086 
  107082   107077   107071   107056   107034   107007   106976   106948 
  106926   106913   106909   106909   106914   106926   106942   106960 
  106984   107018   107060   107104   107154   107204   107252   107300 
  107343   107374   107391   107393   107383   107362   107339   107316 
  107298   107281   107269   107266   107273   107287   107306   107330 
  107362   107399   107430   107457   107485   107507   107526   107541 
  107550   107565   107584   107613   107654   107707   107769   107835 
  107894   107939   107967   107975   107960   107924   107873   107817 
  107763   107705   107653   107609   107573   107538   107503   107462 
  107407   107339   107260   107163   107059   106952   106847   106748 
  106666   106602   106558   106532   106520   106517   106516   106520 
  106528   106536   106544   106555   106567   106578   106589   106600 
  106605   106600   106583   106558   106529   106502   106475   106451 
  106427   106401   106371   106340   106315   106293   106276   106259 
  106246   106235   106227   106223   106215   106204   106192   106182 
  106181   106186   106197   106218   106251   106299   106361   106435 
  106523   106620   106724   106826   106928   107022   107109   107188 
  107257   107314   107362   107406   107445   107485   107527   107562 
  107600   107649   107701   107759   107831   107910   107993   108079 
  108160   108233   108290   108325   108340   108329   108287   108221 
  108139   108048   107959   107877   107806   107747   107701   107662 
  107624   107592   107557   107518   107477   107431   107379   107322 
  107265   107215   107169   107122   107079   107041   107005   106976 
  106959   106949   106944   106940   106932   106921   106905   106883 
  106861   106843   106828   106820   106812   106801   106783   106756 
  106724   106697   106675   106658   106647   106640   106637   106639 
  106650   106663   106679   106693   106694   106694   106693   106686 
  106678   106666   106647   106631   106621   106623   106639   106671 
  106718   106782   106856   106938   107028   107117   107198   107271 
  107325   107357   107376   107385   107392   107400   107408   107418 
  107431   107441   107445   107443   107437   107427   107416   107401 
  107384   107365   107343   107311   107271   107231   107190   107141 
  107091   107046   107006   106967   106934   106906   106880   106864 
  106861   106868   106886   106914   106949   106994   107046   107102 
  107152   107191   107208   107207   107195   107172   107142   107113 
  107080   107048   107022   107014   107023   107046   107082   107129 
  107180   107229   107273   107311   107339   107356   107357   107341 
  107314   107279   107238   107200   107172   107157   107156   107167 
  107184   107207   107234   107261   107284   107306   107327   107343 
  107352   107358   107365   107369   107373   107383   107399   107427 
  107462   107499   107543   107592   107643   107703   107758   107802 
  107838   107858   107866   107862   107842   107805   107752   107684 
  107605   107527   107455   107392   107339   107298   107266   107242 
  107223   107199   107172   107141   107107   107075   107045   107021 
  107010   107010   107015   107029   107053   107073   107083   107088 
