Origin Time       2025/06/03 22:18:00
Lat.              41.7
Long.             143.6
Depth. (km)       30
Mag.              5.2
Station Code      HDKH03
Station Lat.      42.5934
Station Long.     142.3521
Station Height(m) 160
Record Time       2025/06/03 22:19:10
Sampling Freq(Hz) 100Hz
Duration Time(s)  120
Dir.              4
Scale Factor      7845(gal)/8223790
Max. Acc. (gal)   1.180
Last Correction   2025/06/03 22:18:54
Memo.             
[...]
   41179    41125    41096    41098    41127    41175    41227    41269 
   41291    41280    41247    41200    41143    41091    41050    41023 
   41007    41002    41014    41046    41099    41170    41250    41327 
   41385    41413    41400    41343    41251    41135    41022    40934 
   40886    40879    40915    40983    41057    41127    41183    41212 
   41218    41210    41197    41193    41207    41241    41284    41326 
   41359    41374    41370    41361    41350    41341    41331    41316 
   41299    41276    41256    41247    41264    41308    41377    41454 
   41517    41550    41544    41500    41418    41315    41216    41130 
   41071    41046    41053    41079    41112    41145    41165    41177 
   41188    41206    41243    41305    41381    41461    41532    41575 
   41577    41542    41481    41407    41330    41264    41208    41161 
   41115    41061    41006    40967    40946    40948    40981    41044 
   41118    41195    41270    41327    41365    41386    41393    41389 
   41378    41358    41327    41277    41207    41116    41018    40927 
   40868    40853    40891    40976    41098    41233    41361    41459 
   41513    41521    41490    41427    41347    41261    41177    41100 
   41027    40967    40927    40910    40923    40973    41049    41143 
   41249    41346    41430    41493    41526    41530    41504    41454 
   41396    41343    41304    41284    41277    41285    41310    41339 
   41373    41409    41431    41432    41412    41365    41292    41207 
   41125    41054    41008    40991    40999    41033    41084    41143 
   41206    41260    41295    41316    41324    41315    41293    41273 
   41246    41218    41202    41197    41202    41220    41246    41268 
   41283    41284    41273    41253    41235    41230    41239    41265 
   41300    41334    41359    41369    41365    41347    41323    41301 
   41280    41256    41230    41203    41175    41148    41129    41129 
   41148    41175    41197    41219    41234    41238    41231    41224 
   41229    41237    41243    41249    41250    41238    41216    41187 
   41154    41126    41112    41115    41138    41175    41216    41254 
   41281    41291    41280    41251    41206    41148    41091    41050 
   41035    41056    41116    41206    41308    41408    41484    41519 
   41508    41458    41369    41251    41127    41011    40917    40861 
   40860    40905    40990    41115    41262    41411    41551    41667 
   41748    41785    41766    41697    41593    41462    41326    41207 
   41116    41064    41046    41060    41095    41143    41203    41266 
   41331    41392    41442    41467    41463    41432    41369    41277 
   41168    41045    40925    40828    40764    40744    40776    40853 
   40960    41085    41208    41308    41381    41420    41418    41378 
   41320    41256    41204    41179    41184    41212    41258    41312 
   41359    41396    41411    41407    41391    41362    41324    41287 
   41246    41210    41184    41166    41161    41165    41172    41180 
   41189    41199    41200    41192    41176    41153    41131    41125 
   41131    41153    41191    41239    41292    41342    41384    41415 
   41434    41446    41451    41446    41428    41397    41347    41287 
   41216    41138    41065    41014    40994    41011    41069    41166 
   41289    41413    41524    41615    41666    41682    41663    41608 
   41521    41415    41289    41157    41038    40950    40898    40887 
   40918    40986    41076    41180    41273    41339    41369    41364 
   41326    41260    41179    41098    41019    40946    40879    40825 
   40788    40775    40784    40818    40875    40960    41069    41197 
   41339    41486    41619    41717    41774    41786    41752    41685 
   41596    41493    41388    41296    41229    41184    41160    41157 
   41169    41181    41193    41206    41211    41212    41218    41229 
   41241    41257    41281    41310    41337    41358    41364    41349 
   41314    41268    41218    41168    41127    41107    41108    41130 
   41173    41230    41284    41327    41357    41368    41361    41339 
   41307    41272    41233    41185    41134    41081    41022    40964 
   40925    40915    40940    40994    41075    41170    41260    41324 
   41359    41359    41326    41268    41203    41142    41094    41065 
   41053    41058    41083    41121    41172    41237    41307    41373 
   41424    41453    41455    41432    41385    41320    41253    41188 
   41135    41108    41112    41145    41195    41257    41318    41365 
   41393    41399    41381    41350    41310    41269    41237    41212 
   41193    41187    41193    41211    41247    41303    41365    41430 
   41490    41530    41542    41526    41478    41409    41330    41250 
   41181    41133    41107    41102    41116    41148    41188    41230 
   41283    41343    41397    41438    41461    41453    41412    41357 
   41295    41239    41199    41170    41152    41134    41108    41076 
   41044    41022    41017    41033    41069    41125    41191    41260 
   41322    41374    41419    41450    41461    41459    41442    41404 
   41346    41269    41177    41080    40980    40894    40829    40788 
   40779    40805    40864    40949    41048    41142    41224    41289 
   41337    41370    41393    41405    41405    41393    41361    41305 
   41234    41160    41095    41050    41037    41057    41107    41176 
   41250    41319    41373    41400    41400    41378    41337    41281 
   41218    41150    41083    41027    40990    40986    41019    41085 
   41184    41300    41413    41515    41590    41623    41619    41590 
   41539    41480    41422    41369    41327    41292    41264    41253 
   41257    41266    41287    41316    41355    41407    41473    41536 
   41584    41605    41585    41516    41408    41272    41123    40992 
   40892    40834    40819    40844    40894    40963    41037    41115 
   41191    41257    41312    41353    41370    41365    41346    41322 
   41289    41253    41218    41184    41156    41137    41126    41127 
   41145    41172    41208    41250    41288    41320    41339    41341 
   41323    41292    41254    41216    41188    41172    41165    41161 
   41160    41153    41139    41122    41108    41110    41131    41172 
   41226    41289    41349    41389    41405    41397    41368    41324 
   41280    41246    41238    41253    41289    41345    41399    41428 
   41427    41391    41322    41235    41153    41084    41040    41025 
   41038    41073    41130    41199    41272    41342    41404    41458 
   41503    41528    41532    41504    41443    41355    41249    41138 
   41049    41000    40995    41026    41089    41173    41260    41330 
   41380    41405    41400    41372    41326    41268    41210    41157 
   41111    41081    41072    41085    41125    41187    41273    41374 
   41478    41574    41642    41662    41634    41554    41432    41292 
   41153    41035    40956    40921    40927    40971    41038    41123 
   41215    41300    41366    41411    41430    41424    41401    41364 
   41318    41268    41214    41157    41094    41022    40944    40865 
   40794    40741    40718    40724    40761    40824    40896    40981 
   41072    41166    41266    41365    41451    41517    41547    41535 
   41480    41386    41269    41146    41035    40956    40913    40909 
   40938    40991    41057    41126    41196    41266    41334    41397 
   41454    41494    41516    41515    41478    41418    41343    41264 
   41189    41137    41111    41111    41127    41139    41129    41092 
   41041    40988    40960    40971    41018    41091    41172    41241 
   41281    41297    41297    41292    41289    41299    41314    41318 
   41303    41264    41200    41123    41049    40987    40945    40923 
   40917    40919    40927    40944    40972    41018    41083    41164 
   41256    41345    41415    41457    41466    41434    41365    41273 
   41176    41098    41062    41084    41166    41301    41462    41620 
   41747    41821    41829    41767    41648    41500    41347    41212 
   41122    41091    41122    41211    41346    41507    41674    41817 
   41909    41935    41889    41773    41608    41427    41256    41119 
   41034    41010    41048    41137    41258    41401    41542    41665 
   41763    41824    41847    41835    41791    41728    41654    41570 
   41477    41370    41247    41111    40961    40805    40663    40552 
   40489    40485    40543    40649    40790    40938    41076    41183 
   41241    41250    41211    41130    41025    40919    40826    40760 
   40733    40734    40760    40811    40876    40957    41052    41152 
   41257    41364    41453    41516    41555    41566    41557    41539 
   41516    41481    41428    41361    41276    41168    41045    40926 
   40822    40749    40728    40763    40845    40961    41092    41216 
   41319    41399    41457    41504    41547    41588    41628    41671 
   41702    41708    41685    41638    41569    41497    41436    41397 
   41385    41400    41430    41469    41512    41548    41570    41578 
   41570    41543    41501    41445    41369    41273    41158    41030 
   40899    40780    40699    40672    40710    40819    40991    41200 
   41420    41617    41770    41867    41902    41883    41820    41720 
   41593    41450    41292    41135    40995    40880    40807    40787 
   40817    40888    40990    41103    41207    41287    41324    41308 
   41235    41115    40954    40775    40606    40462    40359    40313 
   40329    40405    40528    40687    40864    41034    41176    41273 
   41319    41319    41283    41230    41184    41158    41162    41192 
   41242    41304    41359    41396    41422    41439    41455    41485 
   41536    41602    41679    41755    41816    41854    41870    41863 
   41835    41794    41739    41671    41604    41530    41454    41392 
   41346    41318    41320    41354    41403    41466    41536    41598 
   41644    41674    41683    41678    41661    41640    41611    41562 
   41489    41389    41258    41106    40950    40811    40705    40639 
   40620    40653    40728    40830    40950    41072    41180    41260 
   41303    41304    41261    41184    41087    40984    40890    40815 
   40761    40718    40682    40653    40628    40605    40597    40608 
   40647    40720    40824    40953    41091    41222    41328    41393 
   41415    41404    41372    41331    41305    41299    41315    41355 
   41419    41494    41570    41639    41696    41731    41742    41729 
   41696    41640    41574    41509    41451    41403    41368    41342 
   41323    41307    41281    41234    41164    41067    40941    40799 
   40653    40508    40383    40296    40255    40271    40350    40486 
   40662    40856    41054    41239    41403    41546    41671    41782 
   41878    41949    41987    41980    41921    41816    41677    41517 
   41368    41243    41152    41088    41046    41030    41035    41060 
   41104    41172    41254    41346    41430    41484    41493    41454 
   41365    41229    41067    40903    40767    40687    40683    40760 
   40914    41125    41362    41605    41831    42021    42168    42267 
   42299    42269    42186    42049    41878    41696    41511    41337 
   41179    41035    40909    40801    40706    40630    40575    40532 
   40497    40475    40471    40485    40522    40587    40675    40784 
   40905    41033    41162    41278    41372    41435    41462    41457 
   41428    41386    41343    41315    41315    41342    41391    41453 
   41513    41563    41586    41575    41538    41477    41401    41322 
   41257    41211    41195    41211    41256    41324    41405    41482 
   41551    41597    41608    41584    41519    41409    41270    41116 
   40959    40813    40699    40624    40593    40610    40667    40760 
   40887    41042    41211    41373    41505    41588    41602    41554 
   41459    41337    41216    41126    41084    41091    41135    41208 
   41289    41361    41419    41454    41462    41447    41411    41350 
   41266    41164    41049    40938    40842    40775    40745    40759 
   40809    40887    40990    41107    41230    41349    41461    41565 
   41659    41750    41833    41905    41953    41970    41944    41871 
   41750    41589    41408    41226    41067    40949    40888    40890 
   40952    41061    41197    41342    41480    41598    41693    41760 
   41802    41820    41809    41770    41704    41609    41480    41326 
   41170    41035    40941    40905    40925    40987    41062    41131 
   41179    41192    41169    41119    41052    40976    40906    40856 
   40836    40857    40919    41011    41131    41270    41404    41519 
   41602    41635    41604    41512    41369    41202    41035    40906 
   40837    40826    40861    40926    40991    41038    41058    41048 
   41023    41004    41006    41037    41096    41172    41239    41285 
   41307    41308    41299    41287    41277    41264    41242    41207 
   41150    41084    41017    40959    40919    40911    40934    40983 
   41048    41108    41154    41177    41180    41179    41181    41203 
   41247    41311    41376    41430    41459    41469    41466    41465 
   41477    41504    41538    41563    41562    41517    41432    41328 
   41227    41154    41138    41180    41269    41389    41497    41558 
   41548    41459    41299    41084    40842    40599    40381    40203 
   40074    40004    40004    40082    40243    40483    40791    41139 
   41490    41805    42059    42230    42304    42287    42192    42047 
   41883    41727    41596    41509    41472    41470    41505    41571 
   41650    41731    41802    41845    41847    41804    41716    41586 
   41426    41250    41077    40927    40815    40757    40760    40821 
   40927    41057    41184    41292    41366    41392    41372    41318 
   41245    41177    41131    41122    41152    41208    41277    41330 
   41345    41308    41220    41095    40949    40813    40707    40640 
   40620    40637    40683    40752    40837    40930    41029    41133 
   41237    41331    41413    41474    41505    41504    41462    41376 
   41257    41114    40949    40787    40653    40555    40505    40512 
   40571    40674    40814    40987    41179    41374    41569    41737 
   41858    41918    41899    41794    41609    41364    41094    40842 
   40653    40563    40578    40693    40883    41114    41346    41544 
   41696    41797    41848    41855    41829    41782    41710    41624 
   41532    41446    41382    41351    41362    41416    41500    41590 
   41669    41708    41692    41625    41520    41399    41297    41249 
   41261    41327    41434    41550    41640    41677    41644    41538 
   41377    41181    40968    40774    40625    40543    40533    40599 
   40733    40919    41122    41312    41472    41577    41619    41602 
   41543    41454    41345    41223    41103    40999    40913    40859 
   40849    40880    40949    41048    41161    41273    41376    41454 
   41501    41515    41499    41459    41405    41355    41318    41301 
   41307    41331    41368    41408    41446    41473    41482    41467 
   41428    41370    41288    41173    41037    40899    40771    40672 
   40622    40620    40663    40747    40848    40953    41056    41139 
   41193    41216    41208    41177    41137    41091    41053    41038 
   41045    41080    41152    41256    41392    41551    41717    41874 
   41995    42063    42064    41990    41851    41669    41472    41285 
   41130    41022    40967    40961    40991    41048    41122    41203 
   41281    41358    41426    41476    41500    41490    41447    41374 
   41277    41165    41058    40969    40898    40851    40833    40833 
   40840    40851    40860    40868    40880    40905    40957    41046 
   41170    41318    41477    41628    41750    41828    41855    41827 
   41742    41612    41449    41264    41076    40902    40756    40655 
   40603    40605    40666    40779    40934    41119    41311    41486 
   41636    41744    41805    41821    41798    41742    41665    41581 
   41489    41392    41293    41191    41081    40975    40882    40802 
   40744    40721    40729    40764    40832    40922    41021    41123 
   41222    41301    41359    41395    41407    41404    41393    41378 
   41366    41354    41339    41326    41319    41320    41330    41354 
   41391    41428    41458    41470    41454    41405    41324    41216 
   41089    40952    40819    40707    40625    40586    40609    40695 
   40841    41040    41277    41527    41762    41960    42094    42141 
   42107    41997    41820    41602    41376    41158    40972    40832 
   40736    40689    40693    40744    40834    40952    41071    41170 
   41241    41277    41280    41261    41241    41241    41272    41338 
   41430    41527    41607    41655    41665    41638    41590    41536 
   41492    41459    41430    41389    41324    41226    41096    40954 
   40817    40705    40644    40643    40697    40801    40932    41060 
   41166    41237    41257    41233    41176    41099    41017    40948 
   40900    40884    40913    40980    41080    41212    41357    41482 
   41575    41621    41608    41536    41426    41300    41177    41073 
   41003    40965    40960    40988    41044    41125    41227    41342 
   41454    41547    41604    41623    41602    41551    41488    41431 
   41386    41362    41351    41349    41342    41315    41258    41176 
   41077    40975    40887    40829    40809    40822    40861    40923 
   41004    41102    41222    41362    41515    41667    41800    41885 
   41912    41875    41785    41654    41501    41351    41216    41110 
   41034    40987    40965    40963    40973    40998    41034    41089 
   41168    41261    41357    41443    41496    41503    41454    41359 
   41245    41135    41053    41023    41058    41149    41281    41432 
   41577    41698    41782    41813    41791    41725    41615    41470 
   41308    41141    40988    40867    40792    40780    40838    40963 
   41134    41332    41535    41702    41814    41856    41816    41696 
   41526    41322    41107    40914    40771    40690    40674    40720 
   40822    40961    41119    41277    41415    41520    41580    41580 
   41526    41426    41289    41138    40995    40888    40840    40852 
   40919    41030    41153    41262    41343    41374    41345    41260 
   41130    40980    40836    40714    40635    40606    40626    40689 
   40778    40882    40990    41103    41219    41338    41461    41575 
   41677    41755    41801    41805    41766    41689    41589    41472 
   41354    41254    41179    41133    41122    41139    41170    41214 
   41265    41316    41374    41443    41520    41594    41661    41709 
   41727    41706    41648    41551    41419    41268    41115    40972 
   40853    40761    40706    40693    40710    40752    40815    40894 
   40977    41067    41156    41243    41322    41384    41424    41439 
   41436    41416    41385    41358    41330    41303    41284    41269 
   41260    41250    41243    41249    41268    41293    41334    41386 
   41436    41473    41490    41480    41439    41374    41301    41242 
   41203    41187    41200    41234    41284    41342    41397    41451 
