Origin Time       2025/06/03 22:18:00
Lat.              41.7
Long.             143.6
Depth. (km)       30
Mag.              5.2
Station Code      HDKH03
Station Lat.      42.5934
Station Long.     142.3521
Station Height(m) 160
Record Time       2025/06/03 22:19:10
Sampling Freq(Hz) 100Hz
Duration Time(s)  120
Dir.              5
Scale Factor      7845(gal)/8223790
Max. Acc. (gal)   1.734
Last Correction   2025/06/03 22:18:54
Memo.             
[...]
   -1499    -1517    -1553    -1605    -1667    -1733    -1788    -1826 
   -1845    -1842    -1821    -1784    -1734    -1678    -1615    -1540 
   -1455    -1370    -1291    -1225    -1182    -1166    -1169    -1183 
   -1201    -1216    -1224    -1227    -1228    -1237    -1256    -1289 
   -1336    -1389    -1440    -1489    -1528    -1556    -1578    -1588 
   -1591    -1587    -1575    -1556    -1529    -1494    -1462    -1440 
   -1432    -1435    -1447    -1460    -1470    -1466    -1444    -1408 
   -1356    -1294    -1235    -1189    -1166    -1175    -1217    -1283 
   -1367    -1455    -1540    -1609    -1651    -1667    -1661    -1633 
   -1588    -1534    -1476    -1425    -1379    -1339    -1300    -1264 
   -1236    -1216    -1205    -1212    -1235    -1273    -1325    -1386 
   -1448    -1505    -1548    -1571    -1572    -1552    -1507    -1443 
   -1374    -1309    -1256    -1216    -1190    -1185    -1188    -1200 
   -1223    -1254    -1293    -1340    -1390    -1433    -1460    -1467 
   -1455    -1426    -1383    -1343    -1314    -1305    -1312    -1332 
   -1358    -1383    -1405    -1421    -1436    -1455    -1482    -1521 
   -1571    -1624    -1675    -1721    -1748    -1752    -1734    -1692 
   -1625    -1544    -1460    -1386    -1329    -1296    -1290    -1306 
   -1343    -1397    -1468    -1556    -1649    -1744    -1833    -1906 
   -1953    -1961    -1930    -1869    -1780    -1669    -1560    -1456 
   -1363    -1283    -1223    -1175    -1140    -1124    -1134    -1169 
   -1227    -1305    -1393    -1468    -1525    -1551    -1544    -1506 
   -1440    -1356    -1270    -1193    -1136    -1113    -1125    -1177 
   -1264    -1375    -1489    -1595    -1676    -1722    -1733    -1706 
   -1648    -1578    -1507    -1449    -1409    -1385    -1374    -1371 
   -1371    -1366    -1356    -1340    -1317    -1298    -1286    -1283 
   -1301    -1336    -1379    -1429    -1478    -1512    -1530    -1530 
   -1513    -1486    -1455    -1420    -1382    -1352    -1331    -1323 
   -1331    -1356    -1398    -1453    -1513    -1571    -1622    -1656 
   -1669    -1656    -1617    -1561    -1493    -1418    -1343    -1275 
   -1223    -1188    -1178    -1205    -1263    -1344    -1435    -1514 
   -1568    -1587    -1563    -1509    -1441    -1370    -1308    -1262 
   -1233    -1220    -1215    -1220    -1242    -1279    -1327    -1387 
   -1453    -1513    -1561    -1599    -1630    -1655    -1682    -1707 
   -1718    -1713    -1682    -1615    -1525    -1421    -1314    -1224 
   -1169    -1152    -1174    -1225    -1297    -1372    -1443    -1501 
   -1543    -1563    -1566    -1552    -1526    -1501    -1483    -1476 
   -1476    -1479    -1479    -1467    -1440    -1405    -1371    -1343 
   -1335    -1344    -1364    -1397    -1429    -1447    -1448    -1435 
   -1414    -1398    -1393    -1399    -1414    -1428    -1435    -1431 
   -1413    -1386    -1363    -1355    -1367    -1408    -1474    -1552 
   -1633    -1706    -1755    -1767    -1741    -1674    -1572    -1455 
   -1335    -1228    -1155    -1124    -1135    -1186    -1264    -1354 
   -1441    -1518    -1570    -1594    -1590    -1559    -1509    -1443 
   -1370    -1297    -1233    -1190    -1171    -1181    -1216    -1277 
   -1358    -1447    -1534    -1611    -1672    -1707    -1713    -1699 
   -1674    -1638    -1606    -1582    -1563    -1549    -1536    -1512 
   -1479    -1443    -1398    -1351    -1309    -1275    -1263    -1279 
   -1325    -1398    -1491    -1582    -1656    -1701    -1703    -1661 
   -1582    -1476    -1360    -1256    -1179    -1140    -1143    -1189 
   -1275    -1393    -1525    -1657    -1767    -1834    -1846    -1800 
   -1696    -1555    -1401    -1250    -1120    -1032    -1004    -1030 
   -1105    -1219    -1352    -1485    -1595    -1661    -1675    -1633 
   -1552    -1456    -1374    -1323    -1313    -1348    -1405    -1466 
   -1514    -1532    -1518    -1479    -1424    -1370    -1328    -1297 
   -1281    -1277    -1286    -1306    -1337    -1382    -1439    -1493 
   -1536    -1559    -1559    -1541    -1505    -1456    -1408    -1359 
   -1312    -1274    -1250    -1239    -1251    -1285    -1340    -1412 
   -1487    -1564    -1634    -1684    -1719    -1737    -1728    -1694 
   -1636    -1549    -1447    -1343    -1254    -1190    -1170    -1194 
   -1251    -1333    -1426    -1503    -1556    -1588    -1602    -1601 
   -1594    -1587    -1578    -1564    -1545    -1524    -1501    -1482 
   -1472    -1468    -1471    -1479    -1485    -1482    -1467    -1444 
   -1417    -1386    -1362    -1360    -1385    -1426    -1482    -1537 
   -1582    -1602    -1595    -1561    -1501    -1424    -1350    -1290 
   -1250    -1240    -1260    -1304    -1360    -1416    -1462    -1498 
   -1518    -1520    -1503    -1474    -1435    -1386    -1336    -1296 
   -1275    -1278    -1316    -1395    -1506    -1638    -1777    -1894 
   -1969    -1993    -1954    -1863    -1732    -1586    -1443    -1318 
   -1224    -1167    -1146    -1147    -1161    -1185    -1213    -1243 
   -1274    -1310    -1358    -1418    -1491    -1566    -1633    -1683 
   -1703    -1688    -1645    -1578    -1498    -1421    -1360    -1325 
   -1320    -1335    -1360    -1381    -1389    -1372    -1327    -1259 
   -1182    -1105    -1046    -1013    -1012    -1042    -1094    -1159 
   -1229    -1293    -1345    -1382    -1393    -1382    -1350    -1296 
   -1233    -1177    -1135    -1119    -1138    -1190    -1266    -1350 
   -1422    -1462    -1460    -1420    -1345    -1250    -1150    -1066 
   -1015     -999    -1016    -1066    -1150    -1258    -1378    -1503 
   -1611    -1690    -1733    -1734    -1696    -1633    -1552    -1474 
   -1418    -1385    -1379    -1404    -1441    -1485    -1525    -1549 
   -1557    -1553    -1545    -1544    -1556    -1590    -1640    -1705 
   -1773    -1826    -1852    -1842    -1792    -1710    -1610    -1510 
   -1425    -1367    -1335    -1325    -1339    -1363    -1391    -1420 
   -1441    -1458    -1467    -1467    -1464    -1462    -1459    -1462 
   -1474    -1501    -1537    -1576    -1617    -1652    -1680    -1698 
   -1703    -1694    -1668    -1625    -1571    -1502    -1424    -1345 
   -1275    -1213    -1163    -1123    -1089    -1069    -1058    -1058 
   -1073    -1104    -1148    -1206    -1281    -1359    -1432    -1495 
   -1544    -1572    -1574    -1548    -1501    -1445    -1386    -1335 
   -1305    -1300    -1320    -1367    -1437    -1524    -1614    -1702 
   -1776    -1831    -1863    -1863    -1833    -1779    -1705    -1621 
   -1537    -1468    -1431    -1428    -1459    -1517    -1587    -1656 
   -1715    -1759    -1780    -1783    -1772    -1742    -1696    -1637 
   -1563    -1478    -1390    -1305    -1232    -1177    -1146    -1142 
   -1156    -1188    -1227    -1263    -1291    -1318    -1354    -1397 
   -1451    -1520    -1595    -1669    -1733    -1773    -1786    -1768 
   -1718    -1641    -1547    -1440    -1328    -1223    -1131    -1063 
   -1019    -1007    -1030    -1084    -1165    -1264    -1370    -1464 
   -1540    -1586    -1599    -1587    -1560    -1539    -1530    -1551 
   -1594    -1653    -1710    -1736    -1717    -1648    -1532    -1391 
   -1259    -1158    -1109    -1129    -1213    -1348    -1512    -1665 
   -1790    -1863    -1875    -1834    -1749    -1626    -1491    -1363 
   -1252    -1166    -1107    -1071    -1054    -1048    -1054    -1066 
   -1088    -1124    -1167    -1215    -1267    -1320    -1366    -1406 
   -1439    -1467    -1486    -1497    -1497    -1491    -1476    -1459 
   -1447    -1445    -1460    -1494    -1541    -1594    -1638    -1652 
   -1632    -1574    -1472    -1337    -1185    -1038     -916     -838 
    -811     -837     -915    -1032    -1174    -1331    -1486    -1625 
   -1734    -1798    -1810    -1767    -1678    -1561    -1437    -1327 
   -1242    -1189    -1177    -1194    -1221    -1247    -1269    -1286 
   -1302    -1323    -1350    -1389    -1432    -1463    -1482    -1501 
   -1514    -1529    -1560    -1613    -1680    -1757    -1826    -1871 
   -1872    -1823    -1730    -1606    -1472    -1362    -1296    -1290 
   -1359    -1486    -1651    -1833    -2004    -2139    -2222    -2239 
   -2188    -2069    -1894    -1674    -1425    -1167     -928     -735 
    -607     -554     -581     -675     -808     -953    -1078    -1162 
   -1202    -1201    -1163    -1111    -1063    -1034    -1036    -1078 
   -1165    -1290    -1448    -1628    -1807    -1966    -2089    -2155 
   -2157    -2100    -1996    -1861    -1715    -1578    -1471    -1399 
   -1363    -1364    -1401    -1455    -1517    -1572    -1609    -1617 
   -1582    -1497    -1367    -1200    -1011     -830     -687     -612 
    -634     -756     -973    -1254    -1552    -1819    -2008    -2095 
   -2070    -1948    -1757    -1530    -1309    -1128    -1011     -966 
   -1000    -1104    -1264    -1459    -1664    -1860    -2018    -2111 
   -2130    -2072    -1942    -1767    -1571    -1375    -1205    -1077 
    -990     -940     -920     -918     -919     -915     -900     -873 
    -835     -804     -793     -823     -911    -1061    -1275    -1534 
   -1817    -2093    -2331    -2509    -2613    -2637    -2596    -2500 
   -2370    -2227    -2087    -1957    -1841    -1734    -1637    -1541 
   -1444    -1343    -1236    -1131    -1036     -965     -924     -922 
    -958    -1034    -1138    -1255    -1377    -1490    -1583    -1647 
   -1676    -1671    -1632    -1561    -1462    -1348    -1242    -1151 
   -1096    -1089    -1131    -1216    -1335    -1463    -1576    -1660 
   -1703    -1701    -1656    -1574    -1467    -1351    -1246    -1167 
   -1132    -1156    -1242    -1375    -1543    -1711    -1848    -1930 
   -1935    -1852    -1687    -1460    -1196     -928     -699     -542 
    -473     -504     -627     -819    -1054    -1302    -1532    -1717 
   -1842    -1895    -1873    -1790    -1653    -1480    -1297    -1129 
   -1004     -947     -984    -1124    -1360    -1664    -1988    -2284 
   -2497    -2582    -2531    -2351    -2077    -1757    -1445    -1185 
   -1003     -912     -908     -972    -1084    -1220    -1367    -1501 
   -1601    -1663    -1688    -1675    -1630    -1568    -1499    -1440 
   -1405    -1398    -1421    -1466    -1512    -1537    -1526    -1467 
   -1370    -1247    -1127    -1043    -1019    -1065    -1179    -1348 
   -1552    -1768    -1971    -2141    -2265    -2330    -2332    -2269 
   -2139    -1948    -1711    -1452    -1200     -981     -823     -741 
    -738     -801     -905    -1027    -1142    -1232    -1297    -1335 
   -1356    -1374    -1395    -1418    -1445    -1467    -1474    -1459 
   -1421    -1360    -1285    -1206    -1134    -1070    -1020     -988 
    -976     -990    -1034    -1109    -1215    -1337    -1464    -1575 
   -1651    -1678    -1653    -1572    -1449    -1304    -1161    -1040 
    -957     -915     -918     -958    -1035    -1150    -1305    -1493 
   -1703    -1927    -2139    -2297    -2363    -2316    -2142    -1853 
   -1495    -1124     -797     -572     -486     -548     -739    -1020 
   -1344    -1665    -1941    -2143    -2263    -2308    -2284    -2203 
   -2080    -1927    -1763    -1603    -1470    -1366    -1300    -1269 
   -1258    -1250    -1233    -1202    -1154    -1104    -1067    -1066 
   -1120    -1237    -1398    -1574    -1740    -1858    -1898    -1854 
   -1736    -1561    -1366    -1182    -1042     -974     -992    -1096 
   -1273    -1498    -1744    -1976    -2164    -2289    -2336    -2303 
   -2189    -2011    -1783    -1529    -1278    -1059     -896     -812 
    -816     -903    -1053    -1239    -1422    -1571    -1664    -1690 
   -1647    -1545    -1406    -1251    -1097     -962     -864     -804 
    -788     -810     -851     -905     -961    -1009    -1047    -1075 
   -1102    -1138    -1186    -1256    -1347    -1455    -1576    -1695 
   -1802    -1887    -1930    -1926    -1875    -1783    -1656    -1512 
   -1372    -1250    -1158    -1107    -1088    -1089    -1108    -1131 
   -1152    -1170    -1183    -1198    -1216    -1227    -1237    -1254 
   -1269    -1282    -1291    -1286    -1258    -1209    -1140    -1059 
    -990     -961     -988    -1084    -1242    -1444    -1661    -1860 
   -2015    -2118    -2165    -2170    -2153    -2128    -2107    -2091 
   -2080    -2073    -2066    -2062    -2064    -2074    -2092    -2116 
   -2141    -2142    -2107    -2033    -1922    -1782    -1629    -1479 
   -1343    -1220    -1107    -1000     -893     -791     -708     -668 
    -691     -800    -1001    -1277    -1595    -1908    -2165    -2328 
   -2367    -2281    -2089    -1814    -1485    -1143     -827     -567 
    -387     -306     -329     -459     -677     -947    -1236    -1505 
   -1707    -1825    -1850    -1783    -1644    -1463    -1277    -1116 
   -1000     -945     -961    -1036    -1155    -1304    -1458    -1599 
   -1719    -1806    -1852    -1860    -1844    -1811    -1776    -1756 
   -1753    -1759    -1759    -1734    -1664    -1539    -1366    -1166 
    -972     -818     -734     -739     -834     -999    -1200    -1409 
   -1597    -1744    -1845    -1904    -1933    -1935    -1914    -1865 
   -1776    -1649    -1494    -1320    -1151    -1023     -962     -989 
   -1117    -1339    -1626    -1944    -2251    -2502    -2662    -2702 
   -2612    -2396    -2065    -1645    -1175     -696     -253       97 
     317      382      279       29     -332     -758    -1194    -1597 
   -1929    -2161    -2285    -2305    -2230    -2074    -1861    -1621 
   -1385    -1182    -1036     -961     -963    -1040    -1173    -1340 
   -1524    -1699    -1840    -1929    -1946    -1888    -1756    -1561 
   -1327    -1088     -874     -714     -629     -621     -681     -795 
    -946    -1115    -1285    -1448    -1602    -1748    -1881    -1991 
   -2064    -2093    -2077    -2010    -1899    -1767    -1630    -1506 
   -1413    -1359    -1340    -1355    -1402    -1474    -1568    -1682 
   -1802    -1915    -2012    -2076    -2089    -2045    -1939    -1782 
   -1588    -1379    -1182    -1020     -903     -834     -815     -845 
    -916    -1019    -1154    -1309    -1482    -1667    -1845    -1995 
   -2100    -2149    -2133    -2054    -1929    -1776    -1614    -1456 
   -1302    -1150     -993     -827     -660     -519     -433     -425 
    -522     -727    -1012    -1339    -1663    -1929    -2103    -2166 
   -2110    -1942    -1699    -1412    -1120     -865     -681     -591 
    -606     -720     -913    -1152    -1393    -1593    -1722    -1765 
   -1723    -1610    -1449    -1267    -1092     -950     -861     -837 
    -880     -993    -1165    -1371    -1593    -1819    -2031    -2208 
   -2342    -2430    -2459    -2430    -2343    -2205    -2027    -1825 
   -1611    -1405    -1220    -1065     -945     -861     -815     -816 
    -868     -958    -1080    -1220    -1355    -1467    -1541    -1576 
   -1582    -1567    -1544    -1529    -1525    -1528    -1532    -1530 
   -1512    -1471    -1408    -1323    -1229    -1134    -1039     -970 
    -940     -958    -1031    -1169    -1359    -1590    -1836    -2070 
   -2266    -2405    -2477    -2482    -2428    -2322    -2181    -2030 
   -1880    -1748    -1648    -1583    -1548    -1534    -1529    -1509 
   -1453    -1355    -1219    -1061     -905     -789     -738     -762 
    -865    -1035    -1240    -1452    -1634    -1756    -1803    -1777 
   -1684    -1548    -1390    -1235    -1105    -1017     -977     -988 
   -1047    -1144    -1263    -1385    -1491    -1563    -1587    -1557 
   -1478    -1358    -1215    -1074     -963     -905     -908     -974 
   -1093    -1244    -1404    -1553    -1676    -1767    -1826    -1852 
   -1849    -1833    -1806    -1764    -1715    -1671    -1629    -1587 
   -1543    -1483    -1399    -1290    -1155    -1012     -889     -816 
    -818     -911    -1093    -1345    -1634    -1914    -2146    -2300 
   -2358    -2317    -2199    -2020    -1813    -1605    -1417    -1273 
   -1186    -1165    -1210    -1317    -1476    -1667    -1856    -2015 
   -2107    -2106    -2002    -1800    -1521    -1204     -891     -629 
    -452     -375     -399     -502     -652     -815     -962    -1080 
   -1169    -1235    -1298    -1374    -1466    -1576    -1698    -1807 
   -1887    -1930    -1925    -1867    -1760    -1611    -1432    -1239 
   -1055     -899     -785     -730     -737     -801     -915    -1059 
   -1219    -1374    -1516    -1632    -1717    -1764    -1767    -1730 
   -1656    -1545    -1417    -1287    -1169    -1075    -1021    -1008 
   -1026    -1070    -1134    -1202    -1270    -1327    -1367    -1391 
   -1410    -1428    -1444    -1466    -1502    -1551    -1610    -1676 
   -1748    -1822    -1900    -1984    -2064    -2128    -2170    -2176 
   -2126    -2019    -1864    -1669    -1460    -1266    -1104     -994 
    -949     -958    -1013    -1098    -1192    -1279    -1355    -1410 
   -1435    -1426    -1389    -1323    -1240    -1158    -1086    -1053 
   -1067    -1128    -1231    -1367    -1507    -1633    -1733    -1798 
   -1827    -1837    -1837    -1831    -1823    -1810    -1792    -1764 
   -1718    -1668    -1620    -1570    -1529    -1502    -1478    -1449 
   -1417    -1378    -1331    -1278    -1228    -1190    -1173    -1175 
   -1197    -1233    -1273    -1300    -1306    -1290    -1250    -1193 
   -1136    -1098    -1089    -1119    -1193    -1305    -1444    -1590 
   -1725    -1841    -1923    -1958    -1937    -1860    -1733    -1566 
   -1383    -1202    -1046     -939     -895     -919    -1016    -1174 
   -1378    -1610    -1854    -2081    -2265    -2386    -2431    -2378 
   -2235    -2018    -1746    -1453    -1179     -951     -796     -722 
    -722     -781     -880     -989    -1092    -1185    -1270    -1354 
   -1444    -1545    -1656    -1769    -1871    -1934    -1938    -1883 
   -1765    -1597    -1397    -1193    -1011     -874     -793     -776 
    -824     -927    -1069    -1237    -1421    -1598    -1755    -1880 
   -1953    -1964    -1918    -1821    -1682    -1536    -1416    -1344 
   -1339    -1395    -1501    -1637    -1772    -1872    -1925    -1923 
   -1872    -1784    -1680    -1578    -1486    -1414    -1362    -1324 
   -1296    -1269    -1237    -1197    -1147    -1097    -1057    -1042 
   -1061    -1117    -1215    -1350    -1503    -1657    -1788    -1876 
   -1914    -1900    -1833    -1728    -1605    -1478    -1363    -1278 
   -1221    -1194    -1200    -1228    -1273    -1329    -1391    -1452 
   -1503    -1544    -1570    -1574    -1549    -1494    -1409    -1297 
   -1170    -1038     -912     -810     -743     -722     -750     -822 
    -934    -1075    -1237    -1417    -1603    -1788    -1957    -2100 
   -2204    -2253    -2241    -2161    -2016    -1829    -1622    -1421 
   -1254    -1143    -1094    -1113    -1193    -1308    -1428    -1540 
   -1625    -1668    -1667    -1632    -1567    -1489    -1414    -1352 
   -1301    -1258    -1224    -1198    -1178    -1165    -1163    -1175 
   -1202    -1243    -1291    -1344    -1399    -1451    -1499    -1544 
   -1579    -1602    -1610    -1591    -1537    -1448    -1332    -1205 
   -1082     -985     -927     -919     -959    -1051    -1186    -1347 
