Origin Time       2025/06/03 22:18:00
Lat.              41.7
Long.             143.6
Depth. (km)       30
Mag.              5.2
Station Code      HDKH01
Station Lat.      42.7031
Station Long.     142.2296
Station Height(m) 82
Record Time       2025/06/03 22:19:13
Sampling Freq(Hz) 100Hz
Duration Time(s)  120
Dir.              4
Scale Factor      7845(gal)/8223790
Max. Acc. (gal)   0.776
Last Correction   2025/06/03 22:19:15
Memo.             
[...]
   23957    23950    23936    23924    23915    23904    23893    23874 
   23850    23824    23797    23769    23743    23726    23718    23718 
   23730    23754    23781    23812    23838    23849    23851    23847 
   23834    23823    23816    23815    23822    23827    23830    23834 
   23839    23841    23841    23845    23854    23865    23880    23900 
   23926    23954    23977    23992    23996    23984    23965    23949 
   23934    23931    23940    23950    23966    23982    23986    23981 
   23959    23922    23886    23859    23846    23850    23866    23892 
   23911    23920    23913    23889    23855    23822    23792    23777 
   23776    23791    23828    23884    23951    24023    24079    24117 
   24128    24109    24063    24004    23942    23882    23830    23788 
   23762    23747    23743    23758    23781    23808    23838    23866 
   23899    23934    23963    23990    24011    24020    24020    24017 
   24015    24016    24021    24023    24017    24008    23981    23936 
   23890    23845    23805    23784    23777    23782    23803    23826 
   23845    23859    23863    23863    23861    23849    23831    23815 
   23799    23787    23778    23773    23770    23772    23774    23782 
   23797    23822    23851    23890    23936    23978    24017    24042 
   24036    24008    23966    23909    23847    23796    23760    23743 
   23742    23760    23785    23812    23849    23892    23938    23980 
   24009    24019    24005    23958    23893    23826    23762    23720 
   23716    23745    23804    23884    23965    24035    24086    24117 
   24117    24088    24046    23992    23939    23905    23890    23897 
   23924    23953    23977    23992    23986    23963    23931    23893 
   23853    23815    23789    23780    23781    23795    23820    23847 
   23874    23899    23912    23920    23920    23912    23900    23895 
   23895    23901    23912    23926    23932    23934    23936    23935 
   23932    23932    23934    23942    23953    23961    23967    23970 
   23965    23958    23949    23938    23931    23922    23909    23896 
   23880    23855    23824    23800    23780    23765    23761    23769 
   23789    23822    23855    23889    23919    23936    23938    23930 
   23907    23874    23839    23804    23772    23749    23745    23765 
   23807    23865    23932    23992    24034    24054    24052    24040 
   24024    24007    24004    24009    24015    24016    24004    23981 
   23947    23903    23850    23797    23757    23737    23733    23745 
   23772    23808    23851    23889    23916    23938    23954    23967 
   23980    23984    23982    23976    23957    23927    23889    23850 
   23816    23787    23776    23795    23836    23896    23961    24015 
   24050    24054    24027    23973    23895    23808    23733    23668 
   23629    23627    23656    23714    23787    23855    23916    23958 
   23978    23977    23961    23935    23907    23878    23855    23838 
   23827    23823    23824    23828    23835    23834    23834    23842 
   23857    23884    23922    23955    23984    24001    24000    23982 
   23951    23909    23868    23835    23818    23814    23818    23831 
   23839    23839    23828    23808    23787    23765    23755    23774 
   23816    23873    23942    24000    24035    24043    24016    23967 
   23905    23842    23799    23782    23797    23839    23889    23935 
   23965    23974    23970    23950    23926    23911    23903    23908 
   23924    23940    23950    23947    23936    23926    23915    23912 
   23924    23943    23969    23994    24003    23997    23980    23943 
   23901    23862    23831    23822    23827    23847    23884    23922 
   23955    23986    23998    23990    23966    23927    23890    23862 
   23845    23841    23851    23873    23899    23920    23938    23940 
   23923    23890    23843    23799    23769    23754    23768    23804 
   23851    23907    23951    23973    23970    23940    23895    23843 
   23791    23747    23724    23716    23723    23741    23768    23809 
   23855    23899    23938    23965    23976    23967    23938    23895 
   23846    23800    23770    23753    23755    23778    23812    23854 
   23903    23950    23989    24015    24034    24043    24035    24013 
   23982    23943    23909    23885    23873    23877    23893    23916 
   23931    23936    23930    23907    23877    23857    23847    23858 
   23896    23942    23982    24012    24020    24008    23977    23938 
   23901    23873    23859    23865    23885    23915    23944    23965 
   23974    23967    23943    23911    23881    23858    23847    23846 
   23855    23861    23858    23850    23828    23797    23781    23773 
   23778    23808    23849    23890    23936    23971    23996    24007 
   24001    23985    23965    23942    23919    23904    23896    23892 
   23885    23877    23862    23845    23835    23838    23854    23874 
   23899    23923    23938    23936    23926    23908    23889    23877 
   23868    23869    23877    23881    23885    23881    23868    23851 
   23834    23822    23814    23805    23807    23816    23830    23849 
   23873    23901    23935    23966    23994    24020    24035    24038 
   24028    24009    23990    23971    23953    23942    23936    23931 
   23927    23919    23904    23888    23870    23854    23838    23824 
   23820    23822    23826    23827    23820    23811    23803    23796 
   23793    23804    23823    23850    23880    23913    23942    23958 
   23966    23966    23955    23942    23923    23905    23892    23878 
   23873    23878    23888    23911    23935    23954    23977    23998 
   24019    24036    24050    24057    24051    24025    23982    23924 
   23863    23815    23778    23760    23768    23797    23839    23885 
   23919    23935    23935    23917    23888    23855    23832    23823 
   23824    23846    23884    23924    23967    24003    24011    24001 
   23974    23936    23905    23886    23884    23900    23924    23951 
   23970    23967    23943    23904    23858    23816    23784    23769 
   23776    23799    23843    23900    23953    23994    24020    24025 
   24009    23974    23927    23870    23812    23769    23742    23739 
   23757    23785    23822    23859    23890    23912    23923    23928 
   23928    23923    23916    23909    23900    23895    23892    23882 
   23870    23859    23842    23827    23814    23808    23820    23841 
   23868    23903    23934    23953    23954    23932    23889    23839 
   23792    23747    23715    23710    23722    23745    23788    23835 
   23874    23909    23931    23935    23928    23909    23890    23878 
   23865    23853    23838    23818    23799    23776    23755    23746 
   23749    23766    23803    23851    23901    23938    23959    23966 
   23953    23924    23893    23863    23843    23836    23841    23854 
   23869    23881    23892    23903    23911    23920    23934    23953 
   23969    23976    23977    23965    23938    23907    23874    23841 
   23816    23808    23808    23812    23820    23834    23851    23870 
   23884    23889    23895    23896    23892    23886    23884    23882 
   23886    23897    23915    23930    23938    23940    23939    23927 
   23905    23882    23866    23855    23845    23846    23859    23868 
   23874    23877    23863    23842    23816    23789    23773    23765 
   23768    23787    23812    23849    23895    23943    23993    24038 
   24067    24079    24069    24040    24000    23951    23904    23865 
   23836    23828    23830    23838    23858    23881    23901    23916 
   23923    23926    23919    23904    23886    23863    23842    23822 
   23801    23792    23795    23807    23832    23865    23901    23942 
   23974    23998    24019    24032    24040    24044    24046    24051 
   24047    24030    24011    23985    23957    23934    23907    23890 
   23888    23890    23905    23931    23962    24001    24036    24055 
   24059    24042    24003    23947    23889    23836    23797    23782 
   23793    23827    23881    23940    23994    24044    24078    24094 
   24105    24102    24088    24075    24062    24051    24046    24039 
   24036    24034    24030    24027    24023    24017    24013    24007 
   24003    23998    23989    23976    23962    23949    23935    23920 
   23915    23924    23944    23981    24028    24071    24102    24113 
   24094    24047    23971    23878    23785    23695    23630    23603 
   23612    23657    23726    23804    23880    23932    23954    23946 
   23913    23873    23836    23814    23814    23835    23872    23915 
   23944    23949    23926    23876    23805    23727    23654    23599 
   23565    23554    23568    23598    23642    23689    23724    23742 
   23742    23715    23670    23620    23573    23539    23527    23544 
   23588    23646    23720    23800    23863    23911    23938    23938 
   23922    23892    23853    23816    23788    23773    23770    23778 
   23791    23796    23789    23776    23760    23749    23747    23760 
   23791    23830    23866    23893    23904    23905    23901    23890 
   23878    23873    23869    23870    23872    23876    23885    23897 
   23917    23940    23954    23962    23953    23917    23865    23796 
   23719    23653    23607    23593    23618    23673    23758    23857 
   23943    24013    24059    24073    24063    24030    23989    23958 
   23938    23935    23951    23981    24019    24050    24070    24089 
   24097    24093    24089    24081    24074    24074    24071    24071 
   24070    24062    24050    24025    23990    23955    23915    23880 
   23857    23850    23866    23897    23940    23990    24039    24078 
   24108    24120    24120    24113    24111    24121    24139    24160 
   24186    24202    24202    24185    24143    24081    24008    23931 
   23862    23811    23787    23801    23847    23904    23962    24005 
   24013    23980    23917    23845    23774    23731    23726    23755 
   23818    23896    23971    24031    24058    24047    24001    23934 
   23858    23792    23751    23749    23782    23841    23915    23980 
   24017    24028    24008    23965    23915    23872    23847    23843 
   23843    23845    23838    23801    23742    23664    23576    23496 
   23438    23410    23422    23475    23566    23681    23800    23913 
   23997    24040    24043    24004    23939    23865    23789    23730 
   23689    23666    23664    23669    23673    23673    23669    23662 
   23660    23665    23680    23707    23747    23796    23836    23868 
   23885    23877    23847    23800    23745    23691    23649    23629 
   23626    23637    23662    23681    23691    23700    23707    23720 
   23760    23824    23916    24039    24170    24291    24386    24433 
   24435    24393    24322    24255    24213    24209    24252    24328 
   24413    24486    24517    24490    24399    24258    24088    23920 
   23777    23683    23650    23680    23760    23866    23976    24067 
   24131    24158    24140    24088    24009    23912    23807    23701 
   23602    23527    23484    23476    23514    23599    23720    23870 
   24028    24170    24282    24356    24393    24391    24371    24347 
   24320    24297    24270    24225    24167    24088    23985    23877 
   23781    23708    23680    23689    23735    23816    23911    23998 
   24069    24105    24113    24100    24067    24025    23980    23932 
   23881    23823    23760    23692    23620    23548    23471    23394 
   23325    23272    23251    23264    23314    23403    23511    23616 
   23708    23768    23784    23754    23693    23627    23577    23569 
   23625    23742    23908    24105    24293    24436    24505    24480 
   24374    24201    23989    23791    23641    23566    23584    23676 
   23814    23962    24078    24129    24112    24039    23934    23823 
   23734    23687    23685    23723    23791    23868    23934    23982 
   24007    24005    23985    23955    23920    23885    23857    23843 
   23846    23876    23932    24016    24125    24247    24362    24453 
   24502    24494    24432    24322    24181    24017    23853    23700 
   23571    23475    23415    23394    23414    23468    23538    23622 
   23704    23772    23816    23835    23831    23814    23784    23753 
   23727    23706    23695    23691    23688    23688    23689    23691 
   23699    23722    23762    23820    23892    23974    24055    24128 
   24192    24233    24256    24259    24235    24185    24109    24016 
   23924    23835    23757    23706    23680    23683    23703    23726 
   23749    23765    23766    23749    23712    23662    23611    23566 
   23538    23531    23554    23603    23672    23755    23851    23951 
   24054    24155    24241    24316    24372    24395    24383    24327 
   24231    24116    23997    23895    23835    23824    23854    23917 
   23986    24038    24059    24052    24021    23977    23939    23931 
   23954    24004    24067    24124    24158    24162    24128    24062 
   23969    23861    23753    23653    23576    23531    23514    23533 
   23583    23652    23733    23808    23865    23893    23893    23874 
   23849    23830    23828    23855    23909    23974    24036    24089 
   24115    24106    24078    24036    23997    23982    23996    24038 
   24106    24179    24233    24259    24244    24183    24089    23980 
   23868    23774    23711    23676    23656    23639    23614    23562 
   23479    23373    23263    23164    23099    23078    23098    23159 
   23248    23341    23425    23495    23545    23576    23596    23606 
   23616    23642    23684    23741    23809    23882    23963    24038 
   24098    24152    24185    24196    24192    24177    24158    24147 
   24147    24158    24178    24201    24219    24220    24201    24156 
   24081    23977    23862    23747    23653    23587    23554    23560 
   23596    23657    23735    23818    23901    23988    24070    24148 
   24221    24286    24336    24371    24389    24386    24367    24339 
   24304    24267    24246    24244    24264    24302    24340    24367 
   24376    24354    24295    24212    24108    24001    23907    23832 
   23795    23789    23807    23838    23872    23890    23886    23854 
   23793    23714    23627    23554    23507    23487    23503    23550 
   23619    23693    23768    23828    23865    23876    23862    23839 
   23826    23830    23859    23924    24016    24124    24233    24317 
   24363    24362    24304    24198    24066    23931    23820    23749 
   23728    23754    23808    23873    23927    23955    23950    23909 
   23839    23754    23666    23596    23553    23544    23571    23635 
   23731    23850    23963    24052    24108    24117    24075    23993 
   23889    23784    23708    23674    23697    23768    23863    23969 
   24055    24101    24104    24061    23989    23911    23839    23799 
   23799    23826    23876    23936    23984    24004    23984    23924 
   23828    23711    23596    23504    23448    23442    23484    23564 
   23668    23778    23880    23962    24017    24046    24052    24046 
   24031    24007    23977    23940    23899    23846    23787    23722 
   23665    23626    23604    23610    23639    23684    23738    23788 
   23823    23835    23816    23770    23703    23625    23548    23477 
   23426    23403    23402    23427    23477    23542    23618    23693 
   23766    23839    23903    23957    24011    24057    24100    24136 
   24158    24163    24152    24125    24090    24046    24001    23962 
   23927    23899    23884    23880    23892    23920    23963    24030 
   24115    24212    24312    24395    24448    24457    24421    24344 
   24241    24125    24021    23944    23901    23886    23892    23909 
   23920    23916    23904    23890    23890    23916    23976    24074 
   24196    24313    24410    24460    24447    24376    24256    24100 
   23943    23814    23731    23708    23741    23818    23907    23981 
   24024    24019    23969    23895    23812    23747    23720    23737 
   23787    23861    23938    23998    24027    24013    23963    23889 
   23804    23723    23666    23641    23646    23680    23738    23805 
   23873    23930    23963    23977    23970    23939    23900    23855 
   23814    23793    23787    23796    23826    23859    23892    23924 
   23944    23958    23959    23943    23916    23878    23827    23772 
   23712    23661    23625    23602    23596    23612    23646    23700 
   23764    23834    23904    23957    23996    24020    24028    24028 
   24024    24019    24019    24020    24019    24008    23981    23935 
   23874    23804    23741    23692    23660    23649    23652    23665 
   23685    23703    23710    23707    23692    23674    23653    23631 
   23623    23620    23627    23646    23670    23691    23700    23691 
   23669    23638    23599    23569    23552    23556    23584    23623 
   23672    23726    23778    23838    23897    23944    23984    24004 
   24000    23981    23951    23917    23890    23884    23904    23949 
   24011    24086    24156    24210    24237    24232    24201    24150 
   24085    24023    23974    23944    23938    23946    23967    23998 
   24028    24058    24088    24117    24152    24194    24237    24275 
   24304    24316    24306    24279    24250    24225    24212    24213 
   24227    24246    24260    24255    24227    24178    24108    24028 
   23949    23876    23816    23776    23753    23742    23739    23742 
   23743    23743    23745    23751    23764    23784    23814    23846 
   23881    23915    23946    23966    23978    23981    23971    23957 
   23940    23922    23900    23881    23861    23845    23832    23824 
   23827    23834    23842    23858    23868    23866    23861    23847 
   23830    23816    23808    23818    23842    23865    23881    23888 
   23872    23830    23765    23689    23607    23527    23469    23430 
   23407    23399    23395    23388    23375    23350    23329    23315 
   23321    23360    23433    23535    23660    23793    23924    24036 
   24120    24183    24228    24255    24266    24266    24264    24262 
   24251    24235    24213    24179    24136    24086    24032    23982 
   23939    23908    23897    23896    23904    23920    23931    23934 
   23931    23919    23896    23866    23842    23828    23826    23843 
   23878    23927    23993    24062    24127    24182    24224    24241 
   24235    24202    24148    24079    24008    23943    23888    23846 
   23823    23818    23820    23831    23845    23850    23843    23830 
   23807    23777    23750    23735    23731    23750    23791    23841 
   23892    23939    23966    23973    23962    23935    23900    23865 
   23841    23828    23830    23846    23868    23892    23917    23935 
   23942    23940    23926    23900    23872    23838    23807    23785 
   23777    23778    23785    23792    23801    23809    23811    23805 
   23801    23809    23830    23862    23909    23963    24017    24065 
   24094    24102    24090    24062    24023    23974    23930    23900 
   23881    23869    23866    23865    23862    23859    23849    23836 
   23826    23814    23809    23811    23816    23824    23831    23836 
   23841    23842    23846    23861    23885    23920    23962    24012 
