Origin Time       2025/06/03 22:18:00
Lat.              41.7
Long.             143.6
Depth. (km)       30
Mag.              5.2
Station Code      HDKH05
Station Lat.      42.5977
Station Long.     142.5446
Station Height(m) 205
Record Time       2025/06/03 22:19:04
Sampling Freq(Hz) 100Hz
Duration Time(s)  120
Dir.              2
Scale Factor      3920(gal)/6170801
Max. Acc. (gal)   0.225
Last Correction   2025/06/03 22:18:48
Memo.             
[...]
  -29884   -29870   -29859   -29854   -29848   -29836   -29828   -29827 
  -29826   -29824   -29825   -29830   -29839   -29847   -29849   -29849 
  -29854   -29862   -29864   -29862   -29859   -29853   -29853   -29856 
  -29855   -29861   -29874   -29883   -29881   -29874   -29866   -29859 
  -29855   -29861   -29871   -29873   -29869   -29863   -29857   -29863 
  -29876   -29885   -29892   -29898   -29897   -29895   -29895   -29899 
  -29904   -29906   -29909   -29909   -29901   -29896   -29891   -29881 
  -29877   -29882   -29893   -29903   -29906   -29905   -29906   -29907 
  -29910   -29917   -29923   -29920   -29910   -29900   -29897   -29904 
  -29917   -29930   -29941   -29946   -29947   -29944   -29942   -29937 
  -29931   -29926   -29916   -29906   -29905   -29903   -29893   -29885 
  -29880   -29882   -29887   -29879   -29865   -29855   -29849   -29847 
  -29842   -29829   -29818   -29812   -29805   -29804   -29808   -29818 
  -29827   -29829   -29831   -29833   -29831   -29834   -29837   -29835 
  -29838   -29845   -29853   -29865   -29874   -29878   -29880   -29872 
  -29856   -29844   -29838   -29835   -29839   -29848   -29853   -29860 
  -29872   -29889   -29902   -29910   -29914   -29912   -29907   -29902 
  -29903   -29905   -29902   -29902   -29907   -29907   -29904   -29900 
  -29894   -29901   -29917   -29929   -29940   -29945   -29938   -29929 
  -29931   -29939   -29943   -29934   -29913   -29891   -29877   -29869 
  -29862   -29861   -29858   -29851   -29845   -29837   -29825   -29821 
  -29823   -29824   -29827   -29831   -29836   -29840   -29849   -29860 
  -29869   -29876   -29880   -29884   -29890   -29902   -29913   -29913 
  -29902   -29890   -29877   -29863   -29857   -29861   -29868   -29876 
  -29882   -29879   -29874   -29872   -29869   -29870   -29876   -29883 
  -29883   -29880   -29878   -29875   -29878   -29887   -29889   -29888 
  -29891   -29893   -29893   -29894   -29899   -29911   -29920   -29926 
  -29927   -29922   -29916   -29909   -29904   -29911   -29928   -29947 
  -29960   -29959   -29948   -29935   -29923   -29908   -29898   -29897 
  -29903   -29912   -29920   -29923   -29919   -29909   -29897   -29885 
  -29875   -29870   -29871   -29870   -29867   -29868   -29867   -29864 
  -29869   -29876   -29883   -29885   -29882   -29888   -29902   -29914 
  -29921   -29926   -29930   -29925   -29915   -29908   -29900   -29890 
  -29886   -29880   -29872   -29865   -29853   -29842   -29841   -29847 
  -29856   -29862   -29859   -29853   -29848   -29842   -29839   -29836 
  -29829   -29826   -29834   -29850   -29866   -29881   -29892   -29895 
  -29894   -29891   -29884   -29870   -29855   -29843   -29831   -29823 
  -29826   -29835   -29853   -29876   -29892   -29896   -29891   -29886 
  -29885   -29879   -29871   -29866   -29860   -29850   -29841   -29834 
  -29825   -29818   -29823   -29837   -29850   -29856   -29851   -29840 
  -29839   -29850   -29864   -29875   -29876   -29867   -29858   -29847 
  -29832   -29823   -29824   -29825   -29826   -29832   -29842   -29851 
  -29862   -29868   -29860   -29848   -29841   -29831   -29827   -29839 
  -29854   -29870   -29890   -29901   -29907   -29914   -29916   -29917 
  -29922   -29922   -29925   -29935   -29941   -29942   -29950   -29964 
  -29975   -29976   -29962   -29943   -29924   -29910   -29906   -29906 
  -29905   -29902   -29895   -29888   -29887   -29895   -29903   -29910 
  -29915   -29914   -29906   -29896   -29885   -29875   -29873   -29880 
  -29890   -29899   -29900   -29897   -29900   -29903   -29907   -29918 
  -29929   -29933   -29937   -29944   -29952   -29958   -29959   -29957 
  -29953   -29942   -29923   -29895   -29874   -29860   -29845   -29835 
  -29840   -29853   -29866   -29873   -29873   -29873   -29864   -29847 
  -29833   -29820   -29811   -29812   -29810   -29801   -29796   -29797 
  -29800   -29806   -29812   -29808   -29793   -29777   -29776   -29790 
  -29806   -29819   -29823   -29819   -29815   -29819   -29830   -29837 
  -29838   -29840   -29852   -29868   -29880   -29886   -29892   -29905 
  -29926   -29948   -29962   -29966   -29963   -29957   -29948   -29939 
  -29929   -29919   -29914   -29916   -29927   -29939   -29948   -29957 
  -29964   -29961   -29953   -29943   -29931   -29918   -29904   -29890 
  -29878   -29872   -29874   -29881   -29889   -29894   -29891   -29883 
  -29876   -29871   -29874   -29881   -29887   -29895   -29899   -29892 
  -29878   -29868   -29869   -29879   -29896   -29911   -29914   -29909 
  -29905   -29901   -29901   -29902   -29899   -29893   -29888   -29885 
  -29883   -29883   -29886   -29888   -29881   -29867   -29861   -29866 
  -29873   -29879   -29881   -29881   -29887   -29904   -29929   -29948 
  -29953   -29950   -29943   -29935   -29927   -29917   -29909   -29905 
  -29906   -29914   -29921   -29923   -29920   -29911   -29896   -29877 
  -29857   -29841   -29828   -29816   -29809   -29805   -29798   -29782 
  -29768   -29764   -29764   -29765   -29770   -29773   -29774   -29780 
  -29795   -29815   -29826   -29831   -29832   -29832   -29842   -29858 
  -29870   -29876   -29882   -29884   -29886   -29892   -29890   -29880 
  -29875   -29873   -29871   -29874   -29876   -29877   -29886   -29897 
  -29908   -29917   -29914   -29900   -29884   -29861   -29837   -29830 
  -29840   -29858   -29876   -29887   -29893   -29892   -29888   -29889 
  -29893   -29898   -29904   -29906   -29909   -29918   -29930   -29938 
  -29941   -29939   -29935   -29938   -29947   -29957   -29966   -29981 
  -29993   -30003   -30013   -30015   -30006   -29993   -29986   -29983 
  -29979   -29984   -29989   -29983   -29969   -29953   -29941   -29936 
  -29933   -29931   -29926   -29910   -29888   -29872   -29862   -29857 
  -29860   -29865   -29866   -29871   -29872   -29861   -29850   -29846 
  -29843   -29840   -29839   -29836   -29834   -29837   -29838   -29837 
  -29840   -29844   -29847   -29854   -29862   -29871   -29883   -29895 
  -29904   -29904   -29902   -29907   -29916   -29920   -29919   -29917 
  -29912   -29910   -29917   -29927   -29941   -29951   -29945   -29922 
  -29895   -29870   -29851   -29844   -29845   -29849   -29856   -29860 
  -29866   -29875   -29879   -29879   -29879   -29873   -29861   -29854 
  -29845   -29825   -29809   -29802   -29793   -29781   -29772   -29767 
  -29765   -29763   -29759   -29759   -29767   -29780   -29792   -29801 
  -29805   -29804   -29801   -29803   -29819   -29844   -29863   -29878 
  -29889   -29898   -29903   -29905   -29909   -29909   -29906   -29911 
  -29917   -29917   -29909   -29896   -29885   -29873   -29860   -29853 
  -29845   -29835   -29827   -29822   -29818   -29813   -29808   -29804 
  -29802   -29811   -29831   -29854   -29875   -29891   -29901   -29908 
  -29916   -29929   -29942   -29949   -29957   -29966   -29973   -29981 
  -29992   -29997   -30001   -30014   -30033   -30054   -30070   -30076 
  -30083   -30093   -30107   -30125   -30142   -30148   -30145   -30137 
  -30134   -30139   -30143   -30139   -30129   -30109   -30091   -30083 
  -30075   -30062   -30049   -30031   -30009   -29981   -29937   -29889 
  -29846   -29803   -29769   -29754   -29752   -29757   -29770   -29784 
  -29794   -29807   -29819   -29824   -29826   -29829   -29834   -29840 
  -29848   -29850   -29839   -29821   -29805   -29794   -29786   -29775 
  -29759   -29742   -29729   -29725   -29730   -29737   -29742   -29742 
  -29734   -29715   -29688   -29655   -29622   -29591   -29566   -29553 
  -29548   -29546   -29551   -29567   -29585   -29602   -29617   -29627 
  -29636   -29643   -29654   -29667   -29674   -29678   -29684   -29689 
  -29696   -29709   -29727   -29750   -29777   -29810   -29840   -29860 
  -29879   -29898   -29922   -29954   -29991   -30032   -30066   -30080 
  -30075   -30062   -30039   -30013   -30002   -30006   -30016   -30032 
  -30056   -30077   -30091   -30100   -30105   -30106   -30105   -30104 
  -30102   -30099   -30095   -30091   -30082   -30073   -30067   -30062 
  -30058   -30043   -30012   -29980   -29950   -29924   -29909   -29903 
  -29894   -29875   -29850   -29818   -29785   -29761   -29748   -29742 
  -29741   -29742   -29747   -29754   -29761   -29770   -29783   -29798 
  -29814   -29831   -29846   -29851   -29844   -29832   -29816   -29796 
  -29782   -29775   -29770   -29777   -29796   -29814   -29838   -29872 
  -29907   -29938   -29965   -29977   -29975   -29964   -29945   -29922 
  -29899   -29875   -29854   -29836   -29817   -29805   -29801   -29799 
  -29800   -29804   -29807   -29817   -29836   -29864   -29896   -29929 
  -29963   -29991   -30006   -30008   -30001   -29993   -29986   -29989 
  -30007   -30031   -30054   -30070   -30074   -30062   -30038   -30007 
  -29971   -29930   -29896   -29871   -29847   -29827   -29810   -29790 
  -29778   -29775   -29778   -29789   -29802   -29810   -29813   -29813 
  -29811   -29809   -29813   -29826   -29840   -29850   -29860   -29864 
  -29861   -29856   -29847   -29839   -29835   -29830   -29823   -29823 
  -29828   -29836   -29847   -29855   -29854   -29845   -29830   -29816 
  -29816   -29832   -29859   -29889   -29917   -29944   -29968   -29990 
  -30007   -30023   -30038   -30047   -30052   -30058   -30066   -30073 
  -30075   -30067   -30055   -30037   -30021   -30016   -30018   -30021 
  -30024   -30025   -30018   -29998   -29966   -29918   -29857   -29795 
  -29735   -29684   -29650   -29627   -29614   -29613   -29623   -29637 
  -29652   -29670   -29689   -29715   -29751   -29786   -29816   -29843 
  -29864   -29884   -29905   -29929   -29961   -29999   -30029   -30054 
  -30072   -30077   -30070   -30056   -30038   -30019   -30003   -29994 
  -29988   -29980   -29965   -29937   -29903   -29874   -29847   -29819 
  -29790   -29760   -29735   -29721   -29711   -29702   -29693   -29689 
  -29690   -29701   -29724   -29752   -29774   -29785   -29786   -29782 
  -29774   -29768   -29769   -29775   -29781   -29793   -29811   -29830 
  -29849   -29865   -29876   -29887   -29903   -29929   -29952   -29958 
  -29943   -29907   -29861   -29823   -29797   -29788   -29795   -29813 
  -29838   -29873   -29918   -29961   -29985   -29989   -29986   -29978 
  -29969   -29965   -29966   -29979   -30008   -30039   -30066   -30091 
  -30105   -30108   -30108   -30102   -30092   -30083   -30067   -30045 
  -30030   -30018   -30000   -29985   -29974   -29968   -29967   -29970 
  -29972   -29971   -29965   -29957   -29952   -29955   -29968   -29991 
  -30017   -30049   -30089   -30127   -30154   -30169   -30165   -30149 
  -30127   -30102   -30075   -30047   -30020   -29997   -29978   -29965 
  -29956   -29941   -29917   -29885   -29850   -29815   -29778   -29742 
  -29707   -29675   -29651   -29639   -29638   -29650   -29669   -29683 
  -29691   -29700   -29709   -29714   -29724   -29734   -29730   -29720 
  -29707   -29690   -29671   -29653   -29636   -29622   -29605   -29591 
  -29584   -29582   -29588   -29600   -29607   -29608   -29608   -29609 
  -29614   -29625   -29642   -29661   -29689   -29721   -29751   -29778 
  -29804   -29824   -29841   -29861   -29884   -29913   -29942   -29967 
  -29987   -30002   -30011   -30020   -30024   -30027   -30033   -30032 
  -30020   -30002   -29981   -29967   -29967   -29974   -29988   -30003 
  -30019   -30037   -30050   -30054   -30054   -30048   -30043   -30044 
  -30045   -30046   -30042   -30032   -30019   -30005   -29993   -29986 
  -29986   -29991   -29993   -29990   -29988   -29989   -29988   -29986 
  -29980   -29962   -29934   -29898   -29861   -29829   -29807   -29794 
  -29788   -29787   -29791   -29797   -29805   -29817   -29834   -29858 
  -29880   -29900   -29922   -29941   -29957   -29979   -30003   -30019 
  -30030   -30037   -30031   -30019   -30003   -29974   -29937   -29903 
  -29870   -29843   -29828   -29813   -29793   -29769   -29739   -29710 
  -29684   -29657   -29632   -29615   -29612   -29622   -29642   -29667 
  -29691   -29718   -29749   -29781   -29807   -29820   -29827   -29837 
  -29853   -29876   -29907   -29943   -29978   -30009   -30031   -30048 
  -30055   -30043   -30018   -29995   -29976   -29959   -29948   -29940 
  -29927   -29907   -29885   -29860   -29834   -29811   -29789   -29770 
  -29760   -29745   -29717   -29683   -29655   -29637   -29628   -29628 
  -29636   -29649   -29664   -29679   -29696   -29717   -29738   -29758 
  -29774   -29778   -29776   -29782   -29793   -29806   -29821   -29826 
  -29825   -29831   -29846   -29872   -29909   -29946   -29975   -29995 
  -30008   -30016   -30017   -30008   -29993   -29980   -29972   -29969 
  -29971   -29977   -29993   -30015   -30032   -30048   -30067   -30071 
  -30064   -30050   -30029   -30003   -29983   -29974   -29977   -29990 
  -30009   -30036   -30072   -30109   -30138   -30152   -30154   -30150 
  -30148   -30146   -30141   -30132   -30121   -30109   -30102   -30100 
  -30091   -30080   -30066   -30040   -30007   -29973   -29933   -29892 
  -29850   -29807   -29771   -29743   -29721   -29702   -29675   -29643 
  -29612   -29581   -29555   -29542   -29541   -29553   -29580   -29615 
  -29656   -29695   -29720   -29733   -29742   -29747   -29741   -29731 
  -29715   -29694   -29677   -29663   -29653   -29656   -29667   -29683 
  -29700   -29713   -29721   -29731   -29745   -29756   -29766   -29773 
  -29776   -29778   -29788   -29806   -29830   -29860   -29891   -29922 
  -29957   -29993   -30020   -30042   -30062   -30077   -30091   -30107 
  -30126   -30145   -30160   -30175   -30189   -30200   -30210   -30221 
  -30232   -30236   -30224   -30204   -30180   -30149   -30118   -30088 
  -30060   -30037   -30018   -29997   -29974   -29949   -29923   -29894 
  -29865   -29836   -29813   -29799   -29792   -29788   -29783   -29771 
  -29757   -29741   -29725   -29718   -29715   -29714   -29719   -29731 
  -29750   -29769   -29785   -29797   -29801   -29800   -29800   -29807 
  -29822   -29835   -29845   -29852   -29848   -29831   -29810   -29788 
  -29771   -29768   -29773   -29778   -29785   -29797   -29807   -29817 
  -29828   -29836   -29850   -29871   -29891   -29907   -29922   -29934 
  -29945   -29958   -29973   -29987   -30002   -30015   -30025   -30035 
  -30040   -30036   -30028   -30015   -29998   -29982   -29966   -29949 
  -29932   -29913   -29893   -29870   -29841   -29815   -29792   -29771 
  -29750   -29733   -29724   -29719   -29716   -29718   -29724   -29731 
  -29746   -29762   -29773   -29790   -29815   -29842   -29871   -29896 
  -29916   -29934   -29947   -29955   -29964   -29971   -29966   -29953 
  -29941   -29933   -29928   -29926   -29920   -29911   -29903   -29892 
  -29873   -29850   -29823   -29793   -29769   -29749   -29733   -29722 
  -29717   -29715   -29716   -29722   -29736   -29755   -29781   -29814 
  -29848   -29879   -29901   -29908   -29906   -29902   -29900   -29902 
  -29908   -29913   -29917   -29927   -29941   -29957   -29973   -29984 
  -29984   -29975   -29954   -29923   -29887   -29858   -29840   -29829 
  -29823   -29826   -29838   -29855   -29871   -29888   -29902   -29907 
  -29904   -29899   -29898   -29910   -29940   -29976   -30008   -30037 
  -30070   -30103   -30121   -30127   -30128   -30116   -30096   -30070 
  -30036   -30006   -29984   -29963   -29948   -29941   -29935   -29927 
  -29921   -29921   -29920   -29914   -29914   -29908   -29894   -29880 
  -29862   -29842   -29821   -29800   -29788   -29791   -29800   -29814 
  -29833   -29850   -29853   -29846   -29837   -29829   -29822   -29817 
  -29811   -29806   -29806   -29808   -29808   -29806   -29802   -29797 
  -29792   -29792   -29796   -29799   -29800   -29801   -29804   -29808 
  -29812   -29816   -29821   -29825   -29824   -29821   -29822   -29825 
  -29825   -29829   -29839   -29852   -29869   -29888   -29905   -29920 
  -29933   -29942   -29953   -29969   -29985   -29997   -30005   -30009 
  -30016   -30022   -30025   -30030   -30028   -30019   -30013   -30008 
  -29998   -29989   -29982   -29971   -29957   -29948   -29936   -29915 
  -29893   -29872   -29847   -29825   -29805   -29784   -29765   -29751 
  -29747   -29756   -29769   -29781   -29792   -29801   -29799   -29790 
  -29783   -29777   -29771   -29770   -29769   -29766   -29767   -29778 
  -29792   -29807   -29826   -29847   -29869   -29891   -29914   -29936 
  -29957   -29976   -29996   -30012   -30021   -30028   -30031   -30025 
  -30021   -30019   -30017   -30024   -30040   -30057   -30068   -30073 
  -30075   -30064   -30047   -30033   -30022   -30013   -30001   -29986 
  -29973   -29958   -29935   -29909   -29882   -29850   -29811   -29770 
  -29734   -29705   -29683   -29668   -29658   -29659   -29668   -29684 
  -29703   -29723   -29747   -29772   -29799   -29832   -29865   -29897 
  -29930   -29955   -29967   -29972   -29971   -29962   -29942   -29915 
  -29890   -29869   -29856   -29851   -29852   -29856   -29865   -29866 
  -29865   -29866   -29858   -29846   -29840   -29837   -29835   -29840 
  -29848   -29853   -29853   -29848   -29842   -29837   -29831   -29824 
  -29821   -29816   -29807   -29800   -29792   -29781   -29773   -29770 
  -29764   -29761   -29759   -29757   -29760   -29768   -29778   -29790 
  -29796   -29798   -29806   -29819   -29833   -29848   -29865   -29879 
  -29883   -29882   -29888   -29900   -29908   -29914   -29920   -29920 
  -29916   -29911   -29902   -29888   -29874   -29858   -29842   -29828 
  -29816   -29807   -29799   -29795   -29798   -29806   -29814   -29818 
  -29825   -29835   -29841   -29846   -29851   -29850   -29841   -29832 
  -29820   -29805   -29793   -29789   -29780   -29769   -29766   -29764 
  -29764   -29771   -29782   -29794   -29809   -29826   -29846   -29865 
  -29881   -29897   -29915   -29932   -29947   -29965   -29986   -30003 
  -30016   -30029   -30036   -30040   -30049   -30053   -30057   -30068 
  -30080   -30088   -30098   -30110   -30119   -30121   -30116   -30108 
  -30099   -30088   -30072   -30054   -30032   -30005   -29981   -29958 
  -29938   -29928   -29920   -29910   -29905   -29904   -29905   -29906 
  -29904   -29896   -29886   -29877   -29862   -29842   -29822   -29809 
  -29804   -29810   -29819   -29831   -29846   -29860   -29868   -29873 
  -29874   -29869   -29859   -29848   -29836   -29825   -29817   -29810 
  -29806   -29806   -29799   -29788   -29774   -29762   -29752   -29748 
  -29750   -29754   -29758   -29761   -29767   -29778   -29795   -29818 
  -29839   -29855   -29871   -29886   -29901   -29918   -29931   -29945 
  -29966   -29991   -30020   -30056   -30091   -30115   -30129   -30140 
  -30145   -30144   -30147   -30152   -30152   -30149   -30145   -30130 
  -30105   -30079   -30056   -30032   -30005   -29978   -29957   -29938 
  -29923   -29912   -29895   -29872   -29850   -29825   -29802   -29785 
  -29768   -29757   -29754   -29755   -29760   -29766   -29769   -29775 
  -29786   -29795   -29804   -29816   -29830   -29848   -29867   -29883 
  -29893   -29900   -29906   -29912   -29919   -29923   -29920   -29913 
  -29900   -29880   -29859   -29839   -29822   -29805   -29784   -29762 
  -29744   -29730   -29715   -29700   -29691   -29688   -29687   -29687 
  -29690   -29698   -29706   -29714   -29729   -29741   -29749   -29763 
  -29778   -29791   -29806   -29820   -29834   -29849   -29859   -29869 
  -29887   -29910   -29933   -29957   -29980   -30001   -30020   -30036 
  -30050   -30063   -30071   -30073   -30069   -30061   -30053   -30047 
