Origin Time       2025/06/03 22:18:00
Lat.              41.7
Long.             143.6
Depth. (km)       30
Mag.              5.2
Station Code      HDKH07
Station Lat.      42.1330
Station Long.     142.9164
Station Height(m) 40
Record Time       2025/06/03 22:18:41
Sampling Freq(Hz) 100Hz
Duration Time(s)  120
Dir.              4
Scale Factor      7845(gal)/8223790
Max. Acc. (gal)   3.977
Last Correction   2025/06/03 22:18:41
Memo.             
[...]
    1447     1449     1449     1449     1448     1448     1449     1449 
    1449     1448     1449     1451     1449     1445     1447     1448 
    1449     1449     1448     1447     1447     1449     1451     1451 
    1449     1449     1451     1451     1449     1448     1448     1447 
    1447     1448     1451     1451     1448     1448     1448     1449 
    1451     1449     1448     1447     1448     1449     1449     1449 
    1449     1448     1449     1449     1448     1451     1449     1447 
    1448     1451     1448     1448     1451     1451     1448     1451 
    1452     1448     1445     1449     1449     1447     1449     1452 
    1451     1449     1448     1447     1449     1451     1451     1449 
    1449     1452     1449     1448     1449     1448     1448     1448 
    1448     1448     1448     1448     1448     1449     1449     1448 
    1445     1447     1448     1447     1448     1449     1445     1441 
    1443     1444     1441     1437     1439     1443     1441     1437 
    1436     1436     1435     1433     1431     1432     1436     1439 
    1440     1443     1443     1439     1436     1433     1428     1425 
    1426     1431     1432     1432     1431     1422     1414     1417 
    1421     1421     1425     1435     1440     1441     1441     1436 
    1431     1428     1429     1436     1443     1447     1448     1444 
    1440     1440     1443     1447     1449     1451     1445     1440 
    1445     1462     1486     1512     1521     1510     1495     1478 
    1455     1431     1412     1408     1428     1471     1514     1533 
    1506     1436     1370     1350     1393     1479     1557     1580 
    1533     1453     1389     1367     1395     1458     1520     1556 
    1552     1495     1410     1339     1313     1339     1389     1425 
    1424     1394     1375     1383     1416     1451     1459     1444 
    1432     1436     1453     1471     1482     1476     1462     1451 
    1441     1428     1412     1401     1416     1472     1563     1647 
    1671     1605     1468     1329     1262     1308     1443     1614 
    1759     1827     1796     1683     1528     1389     1316     1327 
    1406     1512     1582     1575     1486     1354     1235     1177 
    1192     1256     1345     1426     1455     1405     1298     1212 
    1217     1332     1501     1636     1659     1556     1383     1243 
    1223     1336     1514     1656     1690     1617     1482     1352 
    1285     1302     1399     1543     1695     1852     2012     2146 
    2170     2000     1645     1240      949      861      957     1140 
    1294     1341     1278     1167     1102     1140     1258     1393 
    1491     1541     1556     1559     1555     1522     1441     1316 
    1181     1098     1131     1278     1435     1475     1368     1217 
    1173     1309     1567     1810     1927     1902     1810     1749 
    1773     1833     1815     1655     1374     1065      849      811 
     945     1148     1327     1432     1490     1567     1714     1917 
    2108     2208     2184     2077     1958     1863     1756     1578 
    1305      976      642      341      128       87      276      689 
    1221     1698     1964     1992     1884     1794     1821     1944 
    2068     2126     2103     2019     1908     1806     1722     1641 
    1537     1374     1148      938      872     1043     1429     1900 
    2270     2405     2273     1949     1598     1350     1228     1181 
    1151     1109     1073     1071     1108     1167     1208     1181 
    1067      931      900     1081     1479     1969     2354     2486 
    2328     1962     1543     1212     1042     1034     1117     1206 
    1237     1197     1107     1027     1013     1090     1235     1397 
    1521     1586     1605     1602     1593     1566     1510     1417 
    1301     1196     1139     1152     1232     1340     1418     1432 
    1390     1336     1312     1312     1308     1282     1258     1275 
    1358     1468     1532     1475     1296     1073      901      849 
     918     1070     1260     1453     1622     1737     1779     1742 
    1633     1482     1350     1290     1331     1445     1578     1674 
    1736     1798     1881     1972     2026     1984     1815     1553 
    1283     1088     1007     1032     1124     1237     1341     1410 
    1449     1489     1561     1709     1921     2131     2251     2216 
    2019     1726     1428     1206     1104     1102     1158     1233 
    1309     1370     1418     1460     1490     1507     1534     1580 
    1632     1668     1674     1633     1555     1466     1409     1416 
    1480     1570     1640     1657     1609     1522     1462     1480 
    1584     1703     1737     1636     1421     1192     1055     1042 
    1090     1123     1111     1082     1098     1198     1366     1543 
    1669     1740     1796     1877     1966     2022     2002     1890 
    1691     1436     1169      934      778      743      831     1003 
    1202     1390     1525     1576     1537     1417     1263     1146 
    1119     1197     1351     1514     1632     1682     1656     1561 
    1418     1243     1073      970      986     1120     1320     1501 
    1603     1620     1584     1543     1525     1537     1571     1611 
    1657     1709     1745     1745     1698     1603     1458     1271 
    1078      922      845      893     1082     1386     1746     2092 
    2361     2508     2513     2398     2211     2008     1827     1680 
    1557     1436     1287     1098      880      650      454      330 
     301      368      514      710      924     1142     1363     1591 
    1825     2043     2216     2313     2323     2254     2145     2022 
    1894     1765     1624     1466     1328     1240     1209     1233 
    1304     1405     1522     1629     1686     1667     1575     1448 
    1339     1289     1312     1383     1464     1517     1526     1493 
    1417     1297     1150     1023      966     1004     1138     1340 
    1572     1791     1945     1998     1945     1809     1641     1503 
    1416     1351     1269     1150     1019      930      919      988 
    1105     1213     1273     1285     1279     1269     1263     1278 
    1313     1364     1429     1497     1557     1618     1679     1730 
    1764     1765     1726     1648     1553     1467     1426     1448 
    1501     1543     1543     1498     1437     1389     1362     1350 
    1333     1302     1271     1254     1250     1255     1260     1260 
    1254     1224     1165     1080      989      924      903      913 
     935      954      978     1032     1131     1259     1390     1501 
    1580     1642     1696     1745     1775     1782     1779     1776 
    1783     1802     1840     1904     1991     2079     2135     2119 
    2022     1868     1706     1578     1501     1472     1482     1514 
    1561     1622     1680     1717     1723     1722     1726     1750 
    1795     1848     1881     1865     1780     1633     1445     1267 
    1148     1111     1131     1150     1115     1016      881      777 
     770      876     1066     1282     1458     1549     1556     1507 
    1451     1432     1462     1528     1620     1734     1865     2003 
    2123     2188     2155     2011     1783     1529     1320     1206 
    1193     1242     1313     1378     1422     1466     1516     1564 
    1593     1580     1503     1368     1201     1035      884      756 
     660      614      627      702      814      931     1023     1081 
    1115     1150     1215     1320     1455     1588     1705     1795 
    1845     1849     1822     1784     1763     1764     1773     1763 
    1713     1640     1584     1571     1607     1687     1799     1918 
    2015     2069     2072     2025     1941     1837     1719     1593 
    1467     1356     1266     1193     1125     1053      980      924 
     911      951     1024     1100     1159     1179     1143     1059 
     954      865      855      951     1144     1387     1610     1752 
    1798     1760     1661     1526     1377     1242     1155     1131 
    1156     1192     1197     1163     1108     1067     1070     1115 
    1189     1279     1362     1425     1470     1491     1501     1518 
    1553     1617     1690     1736     1749     1737     1718     1726 
    1776     1863     1969     2058     2084     2008     1826     1564 
    1270     1009      837      762      769      823      893      973 
    1058     1131     1186     1220     1228     1232     1260     1327 
    1429     1559     1702     1834     1930     1972     1957     1910 
    1868     1857     1891     1960     2022     2046     2022     1958 
    1881     1818     1771     1738     1713     1692     1684     1696 
    1725     1769     1818     1849     1853     1830     1783     1732 
    1688     1644     1582     1485     1340     1165      997      880 
     837      868      949     1048     1143     1221     1287     1364 
    1474     1618     1771     1879     1892     1804     1642     1468 
    1354     1327     1358     1391     1386     1333     1258     1206 
    1204     1248     1312     1354     1352     1300     1212     1116 
    1039      997      990     1004     1024     1043     1057     1080 
    1135     1232     1368     1525     1665     1756     1780     1745 
    1678     1624     1609     1641     1707     1764     1777     1733 
    1641     1539     1459     1424     1439     1494     1570     1640 
    1686     1695     1667     1609     1534     1460     1398     1372 
    1395     1453     1517     1553     1552     1516     1455     1389 
    1327     1259     1189     1124     1077     1062     1094     1166 
    1255     1344     1416     1453     1458     1439     1405     1363 
    1323     1278     1219     1148     1070      985      899      816 
     730      648      591      587      657      804     1017     1270 
    1526     1753     1933     2053     2100     2066     1965     1833 
    1728     1699     1760     1887     2031     2128     2146     2080 
    1954     1809     1674     1570     1507     1490     1505     1545 
    1606     1668     1705     1705     1675     1618     1557     1518 
    1507     1526     1576     1634     1676     1695     1696     1687 
    1683     1694     1722     1760     1784     1769     1701     1579 
    1417     1229     1039      882      785      774      851      982 
    1139     1297     1432     1551     1680     1838     2034     2251 
    2440     2551     2547     2413     2178     1900     1644     1453 
    1335     1258     1181     1077      932      764      610      499 
     450      481      596      776      990     1200     1359     1437 
    1421     1318     1173     1028      927      899      940     1028 
    1124     1193     1219     1210     1198     1208     1248     1306 
    1367     1410     1435     1452     1478     1526     1591     1653 
    1701     1734     1756     1773     1786     1786     1768     1732 
    1696     1682     1690     1719     1759     1802     1841     1861 
    1846     1796     1721     1637     1557     1485     1406     1306 
    1192     1086     1019     1015     1077     1190     1333     1472 
    1571     1609     1588     1537     1490     1478     1494     1505 
    1487     1439     1370     1310     1293     1327     1406     1517 
    1634     1726     1788     1827     1861     1908     1984     2081 
    2172     2227     2231     2188     2104     1992     1864     1725 
    1588     1476     1398     1355     1350     1371     1404     1425 
    1418     1379     1320     1258     1202     1173     1177     1201 
    1215     1189     1113     1004      889      789      706      639 
     579      518      473      459      469      504      553      602 
     648      699      772      868      977     1092     1192     1266 
    1324     1390     1491     1625     1753     1834     1845     1790 
    1701     1605     1522     1467     1439     1432     1425     1386 
    1291     1135      940      746      599      529      546      627 
     730      820      870      858      792      712      654      656 
     750      945     1208     1491     1753     1958     2074     2119 
    2131     2141     2166     2212     2276     2350     2419     2463 
    2471     2432     2350     2242     2135     2061     2045     2100 
    2232     2427     2641     2836     2971     3024     3009     2955 
    2890     2818     2729     2596     2384     2073     1668     1201 
     745      376      147       75      137      292      496      715 
     927     1115     1259     1352     1393     1378     1320     1247 
    1185     1162     1201     1300     1429     1549     1615     1599 
    1510     1390     1283     1223     1208     1206     1170     1073 
     920      747      592      476      392      298      157      -37 
    -276     -510     -675     -699     -519     -116      477     1202 
    1983     2737     3407     3950     4329     4525     4552     4455 
    4305     4160     4048     3971     3901     3797     3639     3426 
    3172     2894     2620     2380     2181     2022     1894     1777 
    1648     1502     1337     1140      907      629      303      -41 
    -371     -634     -772     -739     -521     -118      433     1075 
    1738     2363     2928     3429     3873     4263     4596     4855 
    5017     5055     4938     4631     4121     3412     2532     1541 
     525     -437    -1279    -1950    -2417    -2670    -2720    -2604 
   -2377    -2093    -1804    -1559    -1370    -1242    -1185    -1186 
   -1217    -1252    -1252    -1193    -1063     -850     -546     -156 
     306      811     1313     1775     2166     2458     2624     2655 
    2575     2440     2326     2293     2349     2446     2504     2459 
    2300     2068     1837     1682     1633     1671     1738     1763 
    1691     1520     1286     1054      885      815      846      951 
    1084     1197     1260     1264     1217     1139     1050      955 
     850      737      610      477      367      309      311      382 
     526      754     1086     1528     2052     2601     3110     3522 
    3804     3946     3958     3869     3727     3586     3489     3451 
    3447     3422     3325     3134     2840     2452     1995     1495 
     986      518      124     -166     -319     -345     -267     -105 
     112      344      560      743      877      957     1013     1086 
    1215     1422     1701     2020     2336     2604     2797     2921 
    2995     3044     3082     3109     3115     3087     3007     2856 
    2628     2335     1999     1644     1305      994      715      467 
     237       13     -207     -411     -562     -627     -583     -415 
    -152      163      492      808     1086     1328     1549     1772 
    2010     2268     2548     2835     3100     3322     3464     3489 
    3391     3164     2832     2443     2058     1732     1491     1337 
    1258     1237     1264     1335     1431     1536     1618     1640 
    1575     1428     1231     1028      865      762      733      769 
     846      924      969      950      876      787      724      730 
     826      980     1144     1267     1309     1251     1115      930 
     727      545      422      382      434      567      751      955 
    1143     1300     1425     1543     1684     1875     2118     2405 
    2702     2968     3177     3304     3333     3271     3140     2955 
    2748     2543     2353     2176     1998     1794     1551     1258 
     915      556      216      -76     -291     -406     -425     -359 
    -232      -67      121      318      510      700      893     1102 
    1345     1640     1992     2390     2790     3129     3350     3420 
    3356     3225     3107     3078     3175     3379     3638     3878 
    4028     4035     3862     3511     3024     2465     1907     1420 
    1048      810      696      676      710      753      757      684 
     525      297       48     -162     -294     -334     -306     -267 
    -272     -346     -481     -638     -769     -841     -851     -816 
    -750     -685     -653     -656     -675     -673     -623     -506 
    -322      -91      149      387      627      880     1143     1418 
    1696     1971     2235     2485     2714     2907     3038     3111 
    3142     3152     3161     3171     3169     3138     3053     2905 
    2690     2407     2066     1702     1341     1005      711      467 
     263       93      -33     -106     -120      -66       52      225 
     437      670      915     1166     1416     1647     1858     2056 
    2236     2401     2556     2706     2841     2944     3005     3024 
    3015     3007     3036     3121     3246     3381     3485     3516 
    3446     3267     2987     2641     2268     1908     1602     1363 
    1196     1082     1012      977      972      985     1017     1069 
    1136     1217     1309     1404     1489     1553     1598     1624 
    1620     1582     1507     1404     1290     1190     1134     1148 
    1229     1352     1487     1606     1687     1732     1750     1755 
    1752     1749     1756     1776     1826     1917     2046     2197 
    2351     2475     2538     2520     2420     2235     1981     1687 
    1374     1062      776      529      337      203      116       60 
      27       -4      -52     -125     -207     -292     -369     -422 
    -440     -421     -378     -328     -260     -157       -1      230 
     538      896     1278     1647     1957     2191     2344     2419 
    2425     2394     2347     2300     2269     2259     2282     2349 
    2467     2635     2832     3026     3187     3295     3329     3283 
    3146     2909     2582     2184     1745     1304      886      508 
     175     -106     -326     -468     -527     -510     -433     -318 
    -194      -85       -2       47       86      139      228      369 
     561      791     1048     1321     1591     1853     2103     2324 
    2500     2624     2706     2764     2820     2886     2964     3040 
    3088     3086     3015     2855     2589     2219     1769     1286 
     822      417       95     -153     -352     -518     -653     -747 
    -778     -712     -517     -180      283      850     1479     2123 
    2751     3322     3794     4137     4336     4395     4337     4203 
    4040     3870     3700     3518     3304     3056     2778     2470 
    2150     1838     1548     1287     1062      865      688      519 
     340      145      -64     -291     -525     -738     -901     -989 
    -984     -862     -614     -249      209      724     1246     1725 
    2128     2444     2678     2835     2914     2928     2874     2756 
    2594     2403     2189     1958     1714     1463     1219      992 
     784      598      442      317      216      152      137      184 
     306      506      776     1097     1440     1773     2072     2331 
    2560     2778     2990     3196     3392     3554     3659     3676 
    3589     3400     3121     2771     2376     1966     1560     1171 
     816      510      256       55      -91     -197     -264     -299 
    -305     -280     -225     -140      -28      109      271      442 
     608      758      865      918      923      895      864      866 
