Origin Time       2025/06/03 22:18:00
Lat.              41.7
Long.             143.6
Depth. (km)       30
Mag.              5.2
Station Code      HDKH07
Station Lat.      42.1330
Station Long.     142.9164
Station Height(m) -61
Record Time       2025/06/03 22:18:41
Sampling Freq(Hz) 100Hz
Duration Time(s)  120
Dir.              2
Scale Factor      2942(gal)/8224139
Max. Acc. (gal)   1.092
Last Correction   2025/06/03 22:18:41
Memo.             
[...]
  133332   133330   133330   133331   133330   133332   133332   133331 
  133332   133332   133331   133332   133331   133330   133330   133330 
  133330   133330   133330   133328   133330   133331   133331   133331 
  133334   133334   133332   133331   133330   133330   133330   133328 
  133331   133334   133332   133331   133331   133332   133331   133332 
  133331   133331   133331   133332   133332   133334   133334   133334 
  133334   133332   133332   133334   133332   133331   133332   133334 
  133332   133332   133331   133331   133332   133331   133328   133330 
  133331   133332   133332   133332   133334   133332   133330   133330 
  133331   133332   133331   133328   133331   133332   133331   133331 
  133332   133331   133330   133332   133332   133331   133331   133331 
  133331   133332   133332   133331   133331   133332   133331   133331 
  133330   133331   133334   133332   133331   133331   133330   133331 
  133334   133332   133328   133328   133331   133332   133331   133330 
  133331   133331   133328   133330   133331   133328   133330   133332 
  133331   133330   133331   133331   133330   133328   133330   133331 
  133331   133331   133330   133331   133331   133330   133330   133330 
  133330   133331   133330   133328   133331   133331   133330   133332 
  133330   133328   133332   133334   133334   133332   133330   133331 
  133332   133331   133331   133331   133330   133332   133335   133334 
  133330   133330   133330   133328   133331   133332   133331   133335 
  133335   133334   133335   133335   133335   133336   133335   133334 
  133335   133336   133335   133335   133336   133338   133340   133342 
  133342   133343   133343   133342   133344   133346   133347   133348 
  133353   133357   133361   133365   133371   133374   133374   133374 
  133373   133374   133374   133375   133373   133366   133365   133370 
  133373   133378   133389   133393   133394   133401   133401   133396 
  133390   133378   133370   133371   133367   133358   133350   133350 
  133357   133370   133381   133386   133389   133384   133371   133357 
  133342   133334   133340   133355   133362   133365   133363   133353 
  133338   133332   133334   133327   133312   133296   133289   133300 
  133316   133309   133270   133226   133218   133278   133386   133454 
  133416   133296   133182   133162   133235   133331   133388   133390 
  133350   133281   133226   133223   133284   133382   133455   133450 
  133377   133296   133251   133245   133263   133304   133357   133396 
  133397   133357   133296   133246   133245   133293   133347   133378 
  133392   133390   133362   133309   133242   133170   133124   133147 
  133242   133334   133335   133242   133131   133080   133135   133290 
  133448   133500   133438   133328   133236   133207   133238   133297 
  133348   133374   133394   133431   133470   133471   133435   133407 
  133419   133454   133465   133386   133219   133051   132985   133077 
  133321   133617   133822   133870   133776   133591   133394   133286 
  133293   133312   133253   133178   133201   133321   133481   133625 
  133706   133713   133716   133766   133795   133701   133498   133317 
  133265   133319   133342   133255   133147   133182   133419   133697 
  133762   133573   133350   133278   133323   133386   133461   133524 
  133455   133180   132835   132678   132791   132983   133034   132945 
  132804   132672   132630   132752   133045   133429   133699   133633 
  133307   133058   133124   133425   133687   133709   133501   133216 
  132991   132881   132887   132943   132916   132757   132567   132474 
  132565   132868   133265   133571   133725   133786   133772   133654 
  133462   133289   133196   133169   133151   133091   132960   132807 
  132746   132819   132930   132964   132931   132906   132918   132976 
  133137   133423   133747   133975   134040   133951   133753   133529 
  133378   133346   133411   133492   133532   133529   133485   133404 
  133340   133328   133336   133327   133301   133288   133324   133458 
  133679   133886   133951   133844   133650   133469   133374   133392 
  133444   133390   133208   133043   133023   133127   133265   133389 
  133532   133683   133708   133512   133238   133103   133128   133189 
  133232   133297   133419   133589   133744   133810   133780   133691 
  133574   133465   133392   133342   133294   133267   133319   133459 
  133614   133699   133712   133709   133717   133726   133725   133682 
  133569   133411   133236   133080   133004   133043   133150   133253 
  133312   133294   133224   133200   133266   133327   133266   133070 
  132838   132688   132651   132673   132744   132903   133131   133344 
  133485   133563   133604   133617   133593   133539   133497   133486 
  133486   133462   133394   133313   133273   133297   133361   133386 
  133335   133243   133153   133073   133016   133014   133073   133197 
  133397   133656   133915   134072   134049   133864   133625   133452 
  133359   133285   133204   133122   133049   133006   133016   133080 
  133182   133315   133454   133540   133527   133420   133278   133215 
  133288   133421   133485   133435   133323   133197   133083   133015 
  133019   133076   133141   133182   133193   133174   133182   133305 
  133527   133718   133771   133691   133575   133483   133424   133420 
  133462   133482   133432   133305   133119   132930   132804   132788 
  132887   133037   133157   133212   133209   133181   133168   133186 
  133228   133276   133309   133334   133361   133404   133501   133660 
  133833   133945   133953   133849   133656   133427   133215   133072 
  133038   133115   133257   133407   133517   133573   133567   133506 
  133392   133243   133101   132985   132880   132796   132791   132912 
  133142   133392   133558   133579   133481   133344   133254   133239 
  133259   133251   133191   133147   133209   133392   133613   133766 
  133797   133721   133581   133429   133315   133266   133299   133390 
  133481   133525   133523   133506   133521   133563   133570   133515 
  133443   133402   133412   133474   133575   133677   133729   133714 
  133637   133508   133354   133228   133151   133087   132999   132896 
  132811   132781   132800   132842   132889   132923   132919   132888 
  132858   132854   132877   132912   132948   132976   133006   133042 
  133083   133123   133123   133050   132927   132800   132715   132726 
  132862   133091   133309   133434   133466   133463   133456   133473 
  133528   133594   133625   133637   133670   133722   133763   133752 
  133670   133535   133400   133312   133274   133274   133296   133320 
  133339   133375   133461   133582   133690   133736   133716   133654 
  133582   133527   133506   133525   133575   133617   133618   133587 
  133559   133567   133625   133717   133797   133837   133849   133830 
  133758   133650   133548   133471   133412   133373   133363   133377 
  133398   133416   133412   133367   133296   133238   133227   133266 
  133331   133384   133378   133311   133231   133196   133219   133270 
  133297   133282   133245   133223   133224   133224   133219   133223 
  133239   133290   133392   133506   133575   133566   133482   133362 
  133249   133147   133046   132943   132868   132844   132883   132968 
  133058   133122   133159   133195   133230   133265   133307   133353 
  133393   133424   133431   133385   133290   133174   133066   132984 
  132930   132898   132899   132957   133077   133230   133359   133431 
  133458   133462   133443   133398   133346   133300   133255   133208 
  133173   133157   133159   133191   133257   133357   133482   133600 
  133672   133687   133654   133596   133543   133496   133447   133401 
  133367   133339   133301   133251   133201   133169   133165   133196 
  133255   133321   133365   133351   133276   133169   133072   133020 
  133043   133139   133255   133328   133340   133307   133257   133234 
  133265   133339   133442   133552   133648   133706   133712   133662 
  133582   133496   133407   133313   133211   133099   133004   132943 
  132914   132939   133024   133139   133254   133351   133425   133486 
  133521   133512   133469   133431   133447   133524   133633   133744 
  133833   133893   133947   134013   134076   134110   134091   133996 
  133841   133686   133585   133539   133520   133496   133461   133401 
  133301   133177   133076   133020   132997   133003   133046   133122 
  133205   133270   133294   133276   133234   133184   133138   133108 
  133100   133118   133173   133266   133378   133470   133521   133525 
  133474   133392   133311   133253   133238   133288   133384   133486 
  133574   133659   133735   133785   133793   133741   133639   133529 
  133461   133454   133485   133515   133527   133519   133498   133470 
  133436   133405   133390   133382   133370   133361   133362   133384 
  133416   133438   133432   133398   133343   133266   133164   133034 
  132911   132819   132763   132763   132830   132956   133115   133272 
  133373   133380   133305   133200   133112   133056   133018   132983 
  132960   132977   133041   133103   133114   133073   133008   132945 
  132904   132895   132908   132946   133006   133062   133096   133101 
  133065   132989   132898   132814   132771   132800   132908   133066 
  133239   133405   133540   133618   133644   133631   133590   133533 
  133470   133415   133385   133393   133425   133446   133421   133355 
  133278   133243   133292   133398   133504   133551   133521   133436 
  133338   133249   133169   133089   133020   132977   132972   133012 
  133080   133159   133251   133339   133408   133458   133496   133532 
  133563   133560   133509   133428   133340   133253   133185   133153 
  133145   133135   133124   133130   133176   133261   133346   133400 
  133419   133404   133369   133336   133316   133297   133272   133262 
  133286   133340   133409   133478   133527   133537   133515   133485 
  133477   133512   133582   133645   133663   133610   133500   133362 
  133231   133139   133107   133135   133215   133319   133424   133524 
  133608   133664   133689   133666   133582   133442   133280   133137 
  133056   133051   133111   133212   133330   133431   133489   133481 
  133404   133290   133188   133122   133105   133135   133201   133307 
  133444   133585   133698   133780   133836   133856   133822   133736 
  133617   133479   133331   133195   133104   133085   133132   133193 
  133220   133226   133238   133281   133351   133417   133461   133489 
  133512   133543   133589   133643   133690   133706   133664   133544 
  133361   133151   132964   132830   132753   132732   132771   132871 
  133004   133151   133285   133381   133419   133369   133240   133092 
  132976   132918   132910   132921   132941   132980   133042   133122 
  133200   133278   133366   133450   133509   133525   133496   133442 
  133378   133319   133280   133266   133261   133251   133245   133253 
  133290   133365   133458   133542   133605   133658   133699   133731 
  133747   133739   133709   133671   133637   133601   133543   133447 
  133319   133172   133027   132918   132852   132808   132761   132707 
  132655   132610   132587   132602   132668   132788   132952   133130 
  133289   133415   133520   133623   133720   133799   133852   133872 
  133849   133785   133685   133569   133465   133396   133365   133363 
  133397   133455   133513   133540   133524   133471   133390   133299 
  133220   133169   133137   133112   133093   133097   133151   133265 
  133419   133582   133722   133825   133895   133920   133883   133787 
  133656   133519   133407   133339   133308   133290   133272   133236 
  133180   133111   133037   132962   132914   132918   132964   133018 
  133068   133111   133139   133165   133199   133230   133228   133176 
  133074   132949   132838   132769   132752   132777   132822   132860 
  132872   132865   132857   132856   132860   132876   132911   132960 
  133014   133078   133176   133294   133401   133466   133485   133461 
  133384   133263   133130   133006   132914   132876   132898   132961 
  133045   133131   133213   133296   133378   133450   133485   133473 
  133412   133312   133188   133070   132981   132925   132896   132884 
  132868   132835   132794   132767   132798   132922   133127   133374 
  133618   133832   133990   134088   134142   134181   134222   134283 
  134362   134445   134520   134584   134620   134627   134611   134570 
  134500   134372   134148   133830   133455   133073   132746   132518 
  132403   132389   132433   132479   132487   132452   132402   132364 
  132359   132393   132464   132572   132718   132894   133074   133246 
  133412   133564   133693   133802   133894   133953   133991   134049 
  134156   134330   134562   134815   135035   135183   135256   135286 
  135301   135333   135410   135542   135710   135878   136008   136070 
  136063   136007   135928   135853   135799   135760   135707   135622 
  135514   135402   135276   135112   134878   134546   134126   133660 
  133197   132786   132456   132192   131976   131807   131674   131573 
  131512   131495   131517   131572   131665   131804   132003   132270 
  132594   132931   133230   133440   133528   133477   133286   132987 
  132632   132263   131900   131562   131282   131080   130958   130901 
  130871   130842   130812   130770   130698   130593   130466   130343 
  130277   130320   130488   130755   131090   131449   131784   132058 
  132264   132417   132551   132710   132912   133159   133442   133735 
  134026   134307   134570   134812   135024   135180   135270   135305 
  135324   135363   135432   135519   135594   135623   135580   135450 
  135245   134995   134738   134519   134368   134272   134199   134126 
  134032   133898   133724   133521   133305   133115   132992   132964 
  133038   133197   133404   133609   133755   133814   133789   133702 
  133577   133443   133331   133259   133240   133261   133282   133261 
  133166   132987   132732   132425   132106   131828   131623   131506 
  131492   131596   131803   132085   132386   132642   132833   132977 
  133089   133184   133285   133412   133570   133747   133905   133990 
  133971   133843   133621   133359   133104   132889   132759   132729 
  132787   132910   133070   133235   133384   133513   133618   133689 
  133709   133682   133618   133524   133394   133230   133031   132814 
  132603   132426   132313   132286   132354   132507   132746   133068 
  133444   133837   134187   134438   134569   134582   134500   134360 
  134196   134048   133942   133880   133849   133824   133774   133691 
  133589   133479   133390   133347   133344   133384   133477   133614 
  133767   133907   134021   134083   134095   134061   133983   133867 
  133726   133581   133447   133335   133232   133127   133011   132865 
  132671   132433   132179   131950   131774   131652   131591   131606 
  131699   131868   132101   132370   132641   132885   133087   133245 
  133388   133555   133783   134071   134357   134572   134653   134580 
  134374   134082   133752   133431   133147   132918   132757   132664 
  132636   132676   132794   132973   133188   133393   133540   133597 
  133573   133486   133365   133238   133134   133076   133068   133097 
  133138   133164   133164   133150   133139   133138   133157   133195 
  133249   133308   133358   133386   133375   133303   133157   132953 
  132711   132460   132229   132058   131976   131990   132102   132285 
  132502   132723   132934   133122   133284   133429   133569   133695 
  133795   133864   133909   133932   133937   133913   133859   133786 
  133704   133621   133542   133456   133361   133249   133122   132985 
  132833   132657   132470   132287   132127   132004   131928   131904 
  131949   132071   132273   132549   132889   133258   133616   133917 
  134123   134230   134252   134204   134106   133974   133830   133699 
  133597   133525   133483   133458   133429   133384   133312   133218 
  133114   133011   132926   132869   132841   132826   132814   132803 
  132806   132841   132939   133111   133347   133631   133924   134188 
  134403   134551   134619   134605   134515   134368   134194   134036 
  133937   133902   133909   133922   133901   133814   133670   133505 
  133362   133261   133216   133246   133344   133497   133662   133787 
  133837   133798   133683   133525   133369   133261   133222   133243 
  133311   133411   133519   133601   133637   133625   133570   133486 
  133393   133305   133242   133216   133232   133288   133363   133429 
  133463   133467   133469   133500   133579   133712   133887   134088 
  134291   134466   134604   134688   134703   134644   134519   134349 
  134179   134063   134014   134026   134084   134167   134265   134372 
  134472   134553   134605   134631   134642   134650   134665   134689 
  134717   134746   134770   134773   134735   134644   134505   134325 
  134114   133897   133697   133524   133380   133262   133161   133065 
  132961   132848   132733   132618   132497   132383   132287   132223 
  132206   132235   132279   132328   132378   132437   132509   132594 
  132698   132821   132952   133073   133161   133199   133201   133182 
  133147   133108   133072   133039   133007   132973   132952   132949 
  132961   132988   133020   133035   133031   133015   132972   132894 
  132791   132675   132547   132410   132268   132124   131986   131872 
  131785   131735   131719   131728   131761   131795   131807   131782 
  131718   131619   131500   131394   131346   131392   131533   131766 
  132096   132507   132960   133417   133841   134195   134466   134661 
  134781   134844   134858   134823   134750   134653   134542   134428 
  134322   134229   134149   134075   133995   133924   133878   133868 
  133903   133979   134079   134181   134268   134316   134323   134298 
  134252   134192   134123   134056   134007   133984   133982   133994 
  134021   134061   134117   134183   134244   134268   134242   134161 
  134026   133856   133677   133502   133336   133176   133027   132896 
  132788   132711   132667   132642   132640   132680   132763   132876 
  133003   133118   133207   133263   133292   133300   133294   133281 
  133272   133276   133300   133347   133408   133466   133515   133539 
  133520   133448   133319   133139   132927   132711   132516   132348 
  132212   132105   132038   132009   132009   132030   132067   132113 
  132162   132208   132251   132289   132310   132313   132298   132273 
  132247   132229   132229   132264   132329   132417   132513   132598 
  132665   132707   132732   132759   132798   132858   132948   133057 
  133176   133304   133435   133555   133652   133713   133739   133745 
  133749   133778   133844   133945   134082   134237   134384   134511 
  134611   134663   134666   134626   134546   134441   134329   134217 
  134103   133976   133826   133663   133497   133335   133191   133072 
  132987   132937   132914   132903   132887   132850   132795   132727 
  132652   132567   132479   132397   132343   132336   132386   132486 
  132628   132802   132993   133191   133367   133513   133623   133699 
  133755   133795   133818   133824   133809   133772   133714   133643 
