Origin Time       2025/06/03 22:18:00
Lat.              41.7
Long.             143.6
Depth. (km)       30
Mag.              5.2
Station Code      HDKH03
Station Lat.      42.5934
Station Long.     142.3521
Station Height(m) 160
Record Time       2025/06/03 22:19:10
Sampling Freq(Hz) 100Hz
Duration Time(s)  120
Dir.              6
Scale Factor      7845(gal)/8223790
Max. Acc. (gal)   0.399
Last Correction   2025/06/03 22:18:54
Memo.             
[...]
   12016    12017    12015    12009    12013    12028    12043    12044 
   12032    12008    11977    11946    11932    11938    11952    11969 
   11982    11986    11973    11946    11917    11892    11870    11857 
   11865    11893    11925    11955    11982    11998    11993    11973 
   11954    11944    11942    11942    11942    11943    11934    11911 
   11886    11869    11862    11863    11869    11882    11900    11911 
   11921    11935    11946    11961    11975    11982    11975    11955 
   11928    11897    11867    11850    11854    11880    11915    11951 
   11986    12021    12052    12075    12091    12101    12100    12086 
   12064    12040    12016    12001    12000    12001    11998    11985 
   11958    11923    11894    11882    11892    11915    11944    11974 
   11994    12002    12001    11993    11994    12008    12023    12033 
   12036    12025    12012    11996    11974    11950    11928    11919 
   11923    11932    11946    11965    11981    11988    11981    11966 
   11951    11935    11916    11904    11904    11911    11916    11920 
   11929    11940    11955    11975    11994    12004    12002    11986 
   11967    11956    11959    11977    11997    12002    11985    11946 
   11896    11855    11840    11859    11907    11954    11988    12006 
   12001    11978    11955    11936    11928    11928    11927    11913 
   11881    11835    11797    11789    11811    11853    11904    11952 
   11983    11986    11975    11965    11962    11969    11978    11982 
   11975    11956    11934    11917    11909    11913    11927    11942 
   11944    11934    11916    11898    11886    11886    11896    11907 
   11915    11924    11936    11958    11989    12023    12051    12069 
   12073    12062    12044    12028    12015    12004    11990    11977 
   11969    11965    11967    11981    12002    12023    12037    12047 
   12046    12027    12001    11977    11962    11959    11961    11969 
   11981    11989    11989    11981    11969    11955    11940    11925 
   11920    11924    11936    11956    11983    12000    11997    11985 
   11967    11946    11923    11902    11888    11878    11877    11885 
   11905    11928    11952    11979    11998    12008    12012    12005 
   11983    11958    11932    11916    11911    11911    11915    11925 
   11938    11947    11958    11962    11959    11959    11956    11943 
   11932    11925    11920    11923    11932    11944    11955    11961 
   11966    11974    11981    11981    11975    11970    11962    11948 
   11936    11934    11940    11951    11965    11970    11956    11932 
   11909    11892    11882    11889    11911    11942    11978    12009 
   12033    12054    12069    12075    12069    12047    12023    11992 
   11954    11915    11875    11842    11830    11846    11884    11935 
   11982    12016    12031    12024    12004    11977    11952    11938 
   11935    11939    11940    11940    11947    11952    11959    11965 
   11962    11947    11923    11900    11888    11896    11925    11971 
   12020    12063    12087    12090    12081    12056    12024    11989 
   11959    11943    11939    11940    11946    11954    11959    11959 
   11958    11944    11920    11893    11871    11863    11865    11880 
   11907    11931    11943    11943    11934    11915    11894    11881 
   11878    11886    11893    11902    11923    11946    11966    11986 
   12004    12017    12021    12017    12015    12019    12029    12040 
   12047    12046    12042    12035    12024    12016    12012    12008 
   12005    11998    11985    11967    11954    11944    11943    11958 
   11979    11994    12004    12006    11997    11971    11940    11908 
   11877    11861    11861    11877    11909    11948    11985    12002 
   12000    11981    11948    11913    11886    11861    11838    11827 
   11824    11830    11840    11853    11869    11886    11897    11902 
   11912    11928    11951    11979    12004    12016    12020    12016 
   12009    12005    12002    12000    11997    11982    11952    11913 
   11877    11858    11859    11882    11927    11978    12009    12020 
   12019    12015    12006    12004    12008    12016    12028    12028 
   12013    11996    11983    11975    11975    11989    12012    12036 
   12052    12054    12043    12020    11988    11958    11931    11901 
   11871    11843    11811    11777    11751    11731    11720    11726 
   11751    11792    11832    11867    11894    11911    11913    11902 
   11888    11873    11857    11847    11844    11844    11851    11862 
   11874    11888    11902    11932    11974    12017    12054    12086 
   12102    12105    12102    12091    12077    12073    12074    12066 
   12050    12032    12019    12009    12000    11993    11985    11971 
   11958    11954    11962    11974    11986    11992    11988    11975 
   11959    11944    11938    11938    11946    11959    11979    12001 
   12019    12029    12032    12028    12021    12010    11997    11983 
   11969    11955    11947    11942    11939    11944    11959    11979 
   11993    11997    11990    11977    11961    11944    11931    11927 
   11924    11921    11917    11911    11902    11898    11900    11905 
   11917    11932    11943    11950    11952    11947    11939    11931 
   11917    11904    11898    11896    11898    11904    11908    11915 
   11924    11932    11938    11942    11947    11951    11954    11958 
   11967    11983    12008    12043    12078    12097    12091    12064 
   12025    11985    11948    11932    11943    11967    11997    12029 
   12052    12058    12051    12043    12028    12013    12008    12006 
   12000    11990    11982    11971    11959    11946    11932    11920 
   11915    11919    11934    11955    11971    11975    11973    11958 
   11932    11907    11892    11890    11900    11913    11929    11947 
   11955    11958    11956    11952    11946    11943    11946    11951 
   11956    11965    11975    11985    11994    12002    12004    11996 
   11978    11952    11935    11929    11929    11939    11948    11946 
   11931    11908    11877    11848    11831    11830    11838    11850 
   11862    11874    11888    11905    11924    11944    11966    11983 
   11994    11990    11966    11935    11912    11898    11901    11923 
   11952    11982    12005    12017    12025    12033    12036    12032 
   12025    12017    11997    11970    11950    11936    11934    11947 
   11965    11983    11997    11994    11981    11965    11947    11934 
   11928    11932    11947    11962    11975    11985    11986    11985 
   11982    11975    11969    11962    11955    11955    11958    11966 
   11981    11990    11994    11997    11998    11994    11997    12008 
   12025    12043    12059    12062    12050    12029    12002    11971 
   11947    11935    11928    11929    11939    11947    11954    11956 
   11955    11951    11943    11935    11935    11934    11927    11920 
   11919    11920    11929    11951    11975    11993    12009    12015 
   12002    11978    11950    11921    11901    11894    11902    11915 
   11924    11928    11924    11916    11913    11921    11935    11943 
   11940    11927    11898    11866    11842    11832    11836    11854 
   11877    11896    11904    11904    11898    11894    11893    11893 
   11893    11896    11893    11885    11874    11870    11873    11888 
   11909    11928    11942    11952    11967    11989    12015    12040 
   12063    12083    12091    12087    12070    12040    12009    11993 
   11989    11992    11996    11997    11989    11971    11955    11950 
   11948    11952    11962    11970    11965    11951    11927    11896 
   11866    11848    11850    11865    11875    11886    11900    11915 
   11934    11959    11989    12023    12054    12077    12085    12077 
   12060    12046    12039    12040    12043    12043    12043    12039 
   12032    12025    12023    12027    12033    12037    12036    12025 
   11997    11962    11931    11904    11884    11873    11869    11869 
   11870    11870    11878    11888    11890    11888    11886    11885 
   11889    11904    11927    11961    12000    12025    12042    12052 
   12048    12035    12015    11988    11959    11938    11921    11916 
   11928    11948    11971    11994    12015    12027    12027    12010 
   11986    11965    11943    11919    11898    11882    11870    11866 
   11871    11884    11904    11934    11965    11992    12005    12005 
   12004    12001    11997    11996    11996    11998    12006    12015 
   12016    12012    12009    12008    11996    11979    11965    11948 
   11934    11920    11913    11915    11925    11942    11955    11955 
   11943    11928    11915    11904    11896    11896    11901    11901 
   11902    11898    11890    11894    11908    11927    11955    11986 
   12005    12012    12009    11998    11988    11983    11988    11985 
   11969    11946    11921    11898    11880    11869    11865    11861 
   11850    11839    11834    11835    11848    11870    11890    11900 
   11897    11885    11870    11854    11843    11839    11843    11850 
   11859    11870    11877    11882    11892    11905    11917    11928 
   11936    11940    11938    11929    11919    11908    11909    11919 
   11932    11954    11975    11989    11993    11986    11966    11942 
   11921    11911    11911    11921    11938    11954    11965    11975 
   11979    11977    11974    11973    11970    11969    11974    11981 
   11997    12020    12042    12059    12075    12089    12098    12109 
   12117    12112    12091    12067    12042    12020    12002    11990 
   11988    11989    11992    11997    12005    12013    12021    12021 
   12012    11996    11978    11961    11951    11956    11974    11994 
   12012    12027    12033    12027    12002    11967    11931    11897 
   11870    11854    11848    11853    11859    11865    11873    11884 
   11898    11915    11925    11931    11929    11927    11927    11932 
   11942    11963    11993    12027    12060    12086    12098    12096 
   12077    12055    12040    12029    12021    12024    12027    12025 
   12028    12043    12069    12100    12124    12136    12129    12101 
   12058    12013    11981    11967    11973    11986    11996    11994 
   11986    11975    11967    11970    11982    11998    12012    12015 
   12009    11998    11974    11944    11923    11919    11923    11928 
   11936    11948    11958    11955    11938    11915    11896    11882 
   11882    11900    11931    11970    12008    12025    12023    12002 
   11966    11928    11898    11877    11870    11875    11889    11911 
   11932    11938    11928    11908    11885    11861    11838    11827 
   11831    11839    11851    11867    11888    11911    11934    11962 
   11989    12004    12002    11989    11962    11925    11894    11875 
   11859    11854    11862    11880    11902    11936    11969    11992 
   12012    12025    12031    12031    12029    12032    12043    12056 
   12067    12078    12079    12067    12048    12032    12024    12028 
   12037    12050    12056    12050    12037    12021    12006    11993 
   11983    11973    11956    11929    11893    11853    11820    11797 
   11782    11774    11766    11758    11750    11743    11743    11758 
   11786    11820    11854    11886    11904    11908    11907    11898 
   11890    11890    11902    11924    11950    11977    11996    12008 
   12020    12032    12037    12039    12036    12027    12012    12000 
   11989    11977    11966    11962    11967    11973    11971    11966 
   11956    11943    11929    11920    11912    11905    11900    11898 
   11902    11913    11929    11952    11978    12000    12013    12013 
   12002    11988    11977    11977    11986    12005    12021    12031 
   12032    12031    12028    12024    12024    12016    11997    11974 
   11952    11925    11896    11874    11865    11869    11888    11915 
   11939    11952    11951    11938    11913    11880    11842    11811 
   11792    11789    11804    11836    11877    11919    11954    11977 
   11993    12006    12012    12012    12010    12008    12013    12023 
   12036    12060    12094    12121    12137    12139    12128    12112 
   12089    12073    12070    12074    12075    12075    12069    12063 
   12060    12067    12079    12091    12094    12081    12055    12024 
   11992    11966    11955    11959    11971    11985    11994    11994 
   11988    11974    11951    11921    11894    11867    11839    11811 
   11785    11757    11728    11704    11686    11680    11682    11686 
   11684    11676    11669    11669    11680    11696    11719    11750 
   11785    11816    11839    11847    11843    11834    11828    11838 
   11866    11900    11925    11938    11939    11928    11907    11889 
   11886    11894    11912    11951    12006    12055    12097    12127 
   12135    12123    12094    12054    12010    11962    11919    11892 
   11875    11878    11909    11963    12031    12102    12170    12225 
   12264    12280    12276    12267    12253    12237    12226    12221 
   12221    12226    12228    12224    12214    12190    12152    12109 
   12073    12040    12009    11982    11952    11921    11894    11859 
   11823    11799    11785    11776    11773    11776    11785    11805 
   11831    11853    11871    11877    11863    11840    11815    11793 
   11784    11780    11788    11804    11815    11819    11815    11799 
   11770    11735    11696    11655    11608    11562    11537    11542 
   11585    11661    11755    11855    11946    12013    12058    12087 
   12108    12116    12108    12093    12077    12059    12048    12042 
   12039    12046    12062    12082    12108    12129    12141    12148 
   12154    12159    12162    12164    12166    12163    12156    12144 
   12123    12089    12047    12002    11967    11946    11934    11921 
   11908    11894    11882    11880    11890    11909    11928    11938 
   11935    11925    11909    11898    11905    11921    11946    11974 
   12000    12015    12021    12020    12019    12029    12056    12090 
   12116    12131    12131    12110    12073    12021    11969    11921 
   11877    11835    11805    11782    11770    11770    11784    11812 
   11851    11892    11925    11943    11938    11916    11885    11848 
   11827    11834    11869    11924    11982    12033    12073    12096 
   12108    12118    12135    12148    12156    12156    12140    12112 
   12078    12047    12020    12004    12012    12042    12090    12143 
   12189    12222    12240    12244    12237    12217    12177    12117 
   12043    11966    11893    11828    11777    11740    11723    11715 
   11716    11736    11772    11805    11836    11861    11862    11839 
   11801    11767    11758    11782    11840    11927    12024    12106 
   12164    12191    12177    12136    12096    12058    12024    12001 
   11989    11982    11973    11962    11956    11955    11955    11948 
   11931    11905    11877    11855    11848    11858    11881    11916 
   11956    11997    12035    12069    12085    12082    12059    12012 
   11946    11878    11831    11804    11800    11821    11865    11916 
   11962    12002    12040    12070    12087    12093    12083    12060 
   12032    12001    11979    11974    11982    12001    12021    12036 
   12040    12035    12020    11993    11956    11912    11865    11816 
   11774    11751    11747    11757    11776    11790    11794    11792 
   11788    11790    11808    11835    11867    11898    11921    11935 
   11939    11935    11923    11909    11893    11878    11871    11870 
   11869    11878    11897    11916    11942    11971    11993    12008 
   12010    11993    11954    11897    11828    11763    11722    11711 
   11735    11792    11874    11965    12039    12093    12131    12145 
   12144    12136    12128    12120    12106    12093    12083    12073 
   12050    12027    12009    11994    11993    12009    12029    12046 
   12055    12054    12040    12021    12006    12001    12005    12015 
   12029    12046    12056    12052    12031    12004    11979    11969 
   11982    12013    12054    12086    12097    12083    12050    12004 
   11958    11920    11888    11866    11846    11824    11805    11789 
   11784    11796    11823    11858    11901    11938    11955    11952 
   11931    11889    11834    11772    11712    11662    11630    11616 
   11624    11657    11704    11757    11815    11877    11934    11978 
   12009    12028    12027    12009    11983    11958    11934    11915 
   11904    11900    11905    11916    11931    11947    11963    11975 
   11982    11986    11986    11982    11977    11974    11971    11971 
   11970    11966    11963    11966    11967    11966    11969    11979 
   11993    12006    12024    12046    12060    12075    12089    12094 
   12096    12096    12085    12062    12035    12012    11994    11986 
   11990    12008    12028    12048    12064    12069    12054    12029 
   12012    12005    12010    12028    12054    12075    12081    12074 
   12069    12067    12070    12077    12081    12069    12042    12005 
   11956    11907    11874    11859    11861    11880    11900    11904 
   11892    11871    11847    11819    11805    11809    11827    11857 
   11884    11897    11896    11877    11836    11777    11704    11638 
   11596    11583    11596    11643    11715    11790    11865    11943 
   12019    12083    12141    12187    12206    12198    12174    12135 
   12096    12067    12055    12060    12070    12066    12051    12025 
   11993    11973    11971    11990    12025    12058    12074    12071 
   12050    12010    11963    11913    11859    11799    11740    11697 
   11681    11695    11726    11776    11839    11905    11969    12035 
   12100    12160    12208    12232    12225    12189    12137    12078 
   12027    12001    12004    12025    12058    12094    12131    12160 
   12179    12194    12205    12209    12212    12212    12201    12171 
   12124    12066    12000    11928    11857    11796    11751    11728 
   11730    11758    11812    11878    11944    11998    12036    12056 
   12066    12059    12036    12005    11974    11940    11909    11888 
   11881    11882    11894    11917    11935    11943    11944    11939 
   11932    11924    11913    11908    11911    11912    11916    11923 
   11925    11924    11921    11925    11934    11942    11951    11956 
   11958    11958    11959    11959    11951    11935    11912    11892 
   11877    11871    11881    11902    11925    11936    11934    11909 
   11863    11812    11763    11722    11697    11691    11692    11700 
   11712    11726    11743    11766    11793    11828    11865    11901 
   11934    11965    11990    12004    12006    12004    11994    11986 
   11983    11982    11983    11988    11988    11985    11983    11985 
   11993    12009    12028    12040    12040    12028    12000    11962 
   11924    11889    11865    11858    11869    11898    11943    11992 
   12050    12106    12152    12194    12232    12264    12287    12297 
   12289    12253    12186    12098    12004    11916    11854    11827 
   11827    11850    11886    11916    11934    11951    11966    11971 
   11978    11979    11965    11935    11888    11831    11785    11759 
