Origin Time       2025/06/03 22:18:00
Lat.              41.7
Long.             143.6
Depth. (km)       30
Mag.              5.2
Station Code      HDKH04
Station Lat.      42.5126
Station Long.     142.0381
Station Height(m) -210
Record Time       2025/06/03 22:19:15
Sampling Freq(Hz) 100Hz
Duration Time(s)  120
Dir.              1
Scale Factor      2942(gal)/8224139
Max. Acc. (gal)   0.290
Last Correction   2025/06/03 22:19:16
Memo.             
[...]
   43938    43941    43934    43914    43889    43862    43833    43806 
   43789    43785    43794    43806    43815    43833    43850    43868 
   43889    43915    43943    43976    44000    44014    44020    44019 
   44005    43989    43981    43977    43974    43981    43984    43973 
   43964    43961    43950    43933    43915    43896    43883    43876 
   43877    43889    43911    43929    43943    43966    43985    43992 
   44005    44015    44005    44000    43997    43991    43996    44005 
   44007    44003    43995    43976    43956    43939    43926    43918 
   43918    43923    43937    43960    43992    44020    44043    44059 
   44059    44045    44027    44003    43974    43950    43931    43918 
   43912    43914    43919    43923    43922    43918    43914    43907 
   43910    43922    43941    43965    43992    44014    44027    44037 
   44039    44034    44026    44020    44016    44016    44023    44032 
   44039    44042    44037    44026    44015    44004    43996    43992 
   43987    43977    43968    43954    43933    43908    43889    43868 
   43843    43827    43829    43834    43835    43833    43819    43807 
   43795    43784    43784    43789    43795    43810    43830    43853 
   43879    43906    43937    43964    43977    43991    44004    44005 
   44001    43997    43991    43983    43978    43980    43980    43974 
   43977    43977    43966    43957    43950    43943    43941    43931 
   43920    43915    43908    43902    43903    43908    43915    43920 
   43927    43937    43945    43953    43968    43981    43996    44015 
   44032    44049    44068    44086    44103    44116    44119    44111 
   44100    44093    44078    44058    44039    44012    43984    43969 
   43957    43945    43935    43923    43904    43884    43870    43869 
   43875    43884    43900    43914    43919    43933    43946    43939 
   43930    43931    43924    43922    43933    43941    43949    43962 
   43978    43991    44000    44012    44023    44031    44045    44062 
   44076    44080    44077    44074    44069    44059    44051    44042 
   44028    44010    43991    43977    43961    43937    43915    43893 
   43866    43842    43821    43806    43806    43807    43807    43815 
   43829    43835    43838    43848    43853    43848    43838    43822 
   43803    43792    43783    43773    43762    43760    43762    43773 
   43787    43794    43799    43815    43835    43853    43881    43914 
   43935    43956    43980    44000    44016    44031    44042    44047 
   44051    44054    44054    44047    44038    44035    44034    44032 
   44030    44034    44032    44022    44008    43996    43985    43970 
   43950    43927    43907    43895    43885    43877    43876    43876 
   43873    43876    43887    43897    43914    43938    43962    43985 
   44005    44018    44030    44042    44045    44037    44024    44007 
   43984    43956    43929    43903    43877    43862    43856    43853 
   43854    43858    43861    43864    43864    43869    43883    43897 
   43915    43938    43956    43964    43972    43972    43965    43961 
   43958    43957    43968    43978    43984    43988    43976    43961 
   43950    43931    43910    43893    43887    43888    43897    43918 
   43941    43957    43958    43950    43947    43950    43941    43930 
   43930    43927    43931    43945    43960    43980    44005    44031 
   44065    44101    44127    44143    44155    44159    44155    44143 
   44132    44122    44113    44113    44109    44089    44077    44069 
   44045    44022    44012    44001    43993    43997    44007    44019 
   44035    44047    44049    44045    44038    44028    44020    44014 
   44004    43996    43997    44001    44008    44012    44008    44005 
   44014    44024    44028    44031    44026    44010    43993    43980 
   43951    43916    43889    43860    43833    43814    43792    43773 
   43764    43757    43750    43744    43737    43729    43731    43746 
   43762    43779    43796    43810    43825    43838    43845    43857 
   43881    43915    43943    43964    43983    43993    43992    43989 
   43992    43999    44003    44003    43991    43968    43945    43929 
   43915    43912    43915    43919    43931    43946    43956    43962 
   43970    43980    43991    43995    43989    43984    43988    43985 
   43978    43989    43999    43996    43992    43978    43960    43945 
   43931    43931    43943    43957    43973    43996    44018    44038 
   44053    44055    44055    44054    44042    44024    44012    44003 
   43991    43978    43964    43947    43935    43923    43918    43922 
   43919    43910    43903    43889    43872    43856    43841    43827 
   43823    43827    43833    43842    43849    43849    43852    43849 
   43848    43857    43869    43879    43888    43902    43912    43919 
   43926    43929    43937    43957    43980    44001    44022    44032 
   44034    44026    44016    44007    43991    43974    43965    43954 
   43946    43946    43943    43935    43927    43923    43922    43919 
   43910    43897    43885    43870    43853    43845    43842    43831 
   43816    43811    43802    43787    43780    43783    43791    43804 
   43821    43839    43853    43862    43876    43892    43908    43923 
   43937    43957    43977    43991    44001    44012    44024    44038 
   44058    44088    44122    44159    44200    44238    44269    44285 
   44292    44296    44282    44257    44231    44204    44176    44149 
   44123    44101    44081    44066    44054    44053    44064    44074 
   44078    44085    44082    44065    44051    44038    44018    44007 
   44000    43989    43976    43965    43964    43962    43956    43949 
   43935    43912    43902    43899    43893    43893    43896    43900 
   43911    43926    43938    43947    43957    43964    43965    43962 
   43956    43942    43918    43884    43849    43821    43806    43798 
   43792    43791    43795    43799    43802    43804    43803    43796 
   43791    43794    43808    43829    43852    43876    43896    43907 
   43920    43935    43945    43949    43951    43954    43950    43943 
   43938    43935    43935    43934    43934    43935    43946    43961 
   43977    43997    44011    44005    43991    43972    43951    43941 
   43934    43924    43920    43920    43923    43930    43935    43935 
   43933    43931    43933    43943    43966    43992    44020    44049 
   44074    44095    44108    44118    44124    44126    44127    44128 
   44128    44119    44105    44101    44103    44103    44105    44108 
   44119    44147    44184    44212    44242    44284    44319    44334 
   44350    44365    44358    44354    44352    44339    44328    44312 
   44282    44257    44228    44190    44149    44101    44059    44038 
   44024    44005    43985    43969    43950    43930    43911    43889 
   43865    43839    43812    43780    43752    43733    43727    43730 
   43735    43742    43744    43740    43733    43723    43711    43706 
   43711    43721    43727    43734    43740    43742    43748    43749 
   43750    43756    43757    43749    43738    43726    43708    43686 
   43661    43646    43644    43645    43642    43637    43641    43656 
   43672    43686    43692    43699    43706    43707    43707    43707 
   43715    43717    43710    43714    43731    43740    43741    43746 
   43741    43718    43691    43664    43633    43603    43583    43568 
   43559    43555    43549    43541    43534    43528    43526    43530 
   43537    43546    43567    43603    43636    43657    43675    43688 
   43690    43698    43710    43719    43733    43753    43772    43795 
   43816    43838    43858    43884    43916    43946    43964    43976 
   43978    43965    43935    43897    43849    43787    43721    43665 
   43629    43609    43595    43591    43595    43609    43634    43672 
   43722    43787    43856    43924    44005    44100    44190    44269 
   44334    44385    44420    44442    44443    44428    44416    44405 
   44390    44386    44397    44413    44429    44446    44458    44473 
   44491    44505    44509    44510    44502    44482    44452    44416 
   44377    44334    44289    44246    44208    44184    44169    44159 
   44155    44153    44145    44139    44134    44127    44126    44128 
   44131    44146    44167    44188    44205    44211    44203    44190 
   44178    44165    44162    44167    44180    44209    44251    44292 
   44338    44386    44425    44460    44494    44512    44514    44512 
   44498    44470    44436    44396    44343    44289    44244    44199 
   44149    44108    44072    44037    44019    44012    44015    44032 
   44054    44078    44097    44105    44111    44103    44077    44046 
   44001    43943    43887    43825    43761    43695    43627    43568 
   43515    43474    43449    43441    43453    43482    43514    43545 
   43583    43619    43641    43654    43668    43680    43692    43706 
   43721    43733    43744    43762    43781    43800    43833    43868 
   43908    43966    44035    44111    44190    44274    44354    44416 
   44459    44489    44496    44474    44437    44389    44320    44238 
   44149    44055    43970    43892    43825    43773    43727    43688 
   43668    43656    43657    43667    43671    43669    43663    43642 
   43622    43607    43594    43578    43567    43557    43545    43541 
   43540    43536    43551    43572    43591    43626    43669    43713 
   43764    43821    43881    43943    43999    44046    44085    44118 
   44140    44162    44185    44207    44223    44224    44215    44204 
   44194    44174    44157    44159    44155    44136    44126    44113 
   44082    44042    44003    43962    43914    43856    43789    43708 
   43613    43515    43422    43330    43259    43212    43189    43191 
   43216    43266    43333    43401    43460    43511    43549    43579 
   43599    43615    43636    43656    43675    43704    43742    43785 
   43839    43900    43958    44020    44095    44176    44243    44298 
   44344    44374    44397    44410    44409    44406    44398    44385 
   44381    44374    44359    44352    44359    44373    44390    44415 
   44433    44444    44448    44439    44421    44392    44339    44274 
   44203    44119    44038    43960    43880    43811    43768    43746 
   43745    43758    43791    43837    43891    43951    44015    44070 
   44109    44140    44161    44161    44149    44132    44104    44051 
   43993    43942    43891    43852    43826    43808    43803    43812 
   43838    43879    43919    43939    43943    43949    43937    43906 
   43876    43839    43800    43765    43731    43710    43703    43699 
   43702    43708    43725    43745    43761    43777    43794    43810 
   43827    43835    43831    43823    43808    43789    43769    43750 
   43726    43702    43687    43676    43661    43646    43634    43618 
   43600    43590    43579    43561    43559    43569    43579    43590 
   43607    43627    43653    43694    43753    43829    43918    44023 
   44135    44246    44348    44433    44494    44529    44551    44551 
   44528    44494    44450    44389    44324    44263    44205    44158 
   44116    44077    44047    44026    44015    44010    43996    43977 
   43958    43942    43923    43907    43893    43872    43838    43800 
   43756    43706    43668    43649    43638    43637    43659    43698 
   43748    43806    43868    43927    43983    44026    44051    44070 
   44078    44070    44057    44041    44023    44011    44005    44012 
   44019    44026    44034    44046    44062    44076    44089    44108 
   44132    44165    44197    44219    44223    44212    44189    44157 
   44120    44086    44061    44045    44039    44046    44064    44082 
   44101    44115    44118    44108    44092    44076    44057    44039 
   44018    43988    43954    43916    43873    43835    43808    43788 
   43784    43798    43814    43829    43845    43845    43833    43819 
   43803    43781    43754    43723    43698    43681    43676    43679 
   43687    43704    43734    43768    43806    43849    43895    43931 
   43958    43985    44011    44035    44065    44099    44134    44166 
   44186    44189    44180    44163    44134    44089    44042    44001 
   43960    43926    43908    43896    43892    43897    43907    43926 
   43942    43954    43970    43980    43983    43995    44005    43999 
   43983    43968    43961    43956    43945    43939    43937    43935 
   43943    43950    43947    43947    43949    43950    43957    43974 
   44007    44045    44078    44118    44150    44166    44174    44173 
   44161    44145    44135    44135    44136    44132    44122    44103 
   44069    44026    43981    43938    43904    43877    43853    43846 
   43850    43846    43850    43862    43865    43869    43872    43858 
   43843    43830    43810    43799    43804    43816    43835    43865 
   43899    43929    43964    44004    44045    44086    44123    44149 
   44167    44181    44185    44189    44193    44200    44216    44228 
   44232    44246    44258    44263    44281    44300    44317    44342 
   44369    44398    44429    44448    44452    44439    44406    44355 
   44298    44234    44155    44080    44010    43933    43860    43794 
   43731    43684    43654    43640    43619    43584    43546    43502 
   43436    43368    43308    43252    43209    43177    43158    43146 
   43139    43146    43156    43168    43189    43208    43237    43289 
   43349    43417    43491    43563    43627    43684    43735    43781 
   43815    43845    43873    43885    43892    43903    43911    43926 
   43942    43949    43976    44030    44082    44136    44190    44231 
   44262    44277    44265    44243    44209    44159    44105    44049 
   43996    43958    43924    43895    43864    43830    43800    43775 
   43749    43726    43710    43699    43695    43698    43704    43719 
   43741    43765    43795    43833    43870    43907    43947    43989 
   44030    44069    44105    44135    44158    44169    44172    44174 
   44178    44184    44178    44177    44186    44176    44154    44140 
   44122    44099    44088    44084    44085    44100    44120    44142 
   44163    44181    44200    44221    44240    44265    44289    44320 
   44358    44386    44415    44447    44469    44493    44525    44554 
   44572    44574    44554    44517    44462    44382    44281    44163 
   44034    43897    43768    43657    43559    43474    43414    43375 
   43355    43355    43372    43409    43463    43525    43594    43661 
   43726    43785    43835    43876    43896    43902    43912    43924 
   43934    43956    43993    44035    44066    44088    44115    44134 
   44143    44157    44165    44165    44159    44147    44127    44096 
   44062    44034    43997    43950    43904    43862    43826    43792 
   43762    43734    43710    43700    43692    43687    43695    43714 
   43735    43754    43771    43776    43762    43742    43722    43692 
   43664    43638    43607    43576    43555    43549    43561    43591 
   43640    43692    43737    43772    43799    43816    43818    43806 
   43792    43788    43792    43798    43807    43822    43839    43852 
   43862    43870    43881    43903    43935    43974    44018    44054 
   44088    44120    44140    44143    44140    44132    44113    44097 
   44086    44076    44069    44070    44068    44066    44061    44046 
   44034    44026    44016    44005    43993    43991    44003    44018 
   44037    44059    44074    44089    44111    44131    44142    44140 
   44135    44131    44123    44105    44086    44068    44046    44020 
   43997    43991    43989    43999    44026    44062    44100    44145 
   44182    44209    44224    44227    44221    44221    44231    44251 
   44281    44311    44323    44316    44311    44307    44285    44265 
   44253    44230    44205    44182    44162    44150    44132    44108 
   44084    44055    44028    44005    43976    43946    43931    43924 
   43924    43935    43962    44000    44041    44080    44112    44135 
   44150    44154    44150    44147    44145    44146    44146    44130 
   44105    44081    44047    44000    43953    43903    43846    43802 
   43771    43757    43762    43771    43776    43784    43799    43810 
   43816    43818    43811    43804    43803    43796    43791    43787 
   43768    43741    43717    43695    43681    43664    43642    43621 
   43599    43575    43545    43515    43490    43472    43464    43474 
   43502    43534    43567    43605    43641    43671    43699    43725 
   43744    43769    43811    43848    43864    43884    43907    43923 
   43941    43953    43957    43960    43957    43951    43939    43922 
   43904    43884    43864    43857    43866    43883    43914    43951 
   43985    44031    44080    44111    44140    44169    44184    44186 
   44186    44176    44149    44101    44042    43988    43934    43883 
   43846    43830    43831    43849    43879    43915    43947    43972 
   43987    43993    43999    44005    44015    44019    44016    44020 
   44032    44041    44049    44058    44057    44054    44053    44051 
   44050    44047    44039    44028    44020    44015    44012    44012 
   44011    44005    43993    43981    43962    43935    43906    43873 
   43839    43804    43771    43749    43744    43757    43788    43823 
   43857    43897    43935    43965    43989    44007    44016    44019 
   44008    43992    43983    43976    43978    43991    44000    44018 
   44041    44058    44069    44077    44085    44089    44078    44064 
   44055    44049    44042    44031    44022    44011    43991    43964 
   43931    43899    43869    43841    43831    43838    43848    43868 
   43902    43939    43976    44016    44058    44099    44146    44193 
   44227    44250    44266    44270    44267    44258    44236    44201 
   44166    44140    44113    44081    44055    44037    44008    43977 
   43949    43910    43865    43823    43784    43752    43730    43713 
   43692    43671    43652    43632    43605    43575    43552    43537 
   43521    43514    43525    43540    43555    43582    43617    43644 
   43664    43688    43710    43729    43746    43762    43775    43785 
   43791    43795    43807    43827    43850    43872    43896    43922 
   43938    43947    43951    43949    43939    43933    43934    43939 
   43949    43962    43978    43993    44008    44028    44046    44057 
   44062    44057    44041    44022    43996    43962    43931    43897 
   43866    43845    43835    43838    43848    43852    43857    43857 
   43849    43837    43823    43808    43803    43806    43816    43842 
   43869    43891    43920    43949    43960    43970    43991    44015 
   44039    44069    44107    44142    44162    44185    44207    44223 
   44244    44277    44311    44339    44370    44405    44435    44466 
   44500    44523    44539    44554    44556    44556    44548    44525 
   44494    44452    44409    44366    44327    44289    44247    44208 
   44172    44124    44070    44024    43974    43910    43853    43812 
   43772    43726    43687    43645    43598    43556    43524    43495 
   43474    43464    43468    43488    43525    43571    43621    43671 
