Origin Time       2025/06/03 22:18:00
Lat.              41.7
Long.             143.6
Depth. (km)       30
Mag.              5.2
Station Code      HDKH04
Station Lat.      42.5126
Station Long.     142.0381
Station Height(m) -210
Record Time       2025/06/03 22:19:15
Sampling Freq(Hz) 100Hz
Duration Time(s)  120
Dir.              3
Scale Factor      2942(gal)/8224139
Max. Acc. (gal)   0.331
Last Correction   2025/06/03 22:19:16
Memo.             
[...]
  -31116   -31137   -31147   -31151   -31156   -31160   -31156   -31141 
  -31122   -31099   -31058   -31004   -30959   -30928   -30905   -30896 
  -30896   -30901   -30912   -30921   -30928   -30931   -30927   -30920 
  -30923   -30940   -30969   -30990   -31002   -31006   -31001   -30987 
  -30955   -30908   -30859   -30820   -30792   -30777   -30774   -30784 
  -30798   -30816   -30839   -30863   -30883   -30898   -30909   -30920 
  -30931   -30942   -30954   -30964   -30974   -30983   -30996   -31001 
  -30993   -30975   -30954   -30933   -30920   -30904   -30889   -30886 
  -30892   -30902   -30919   -30932   -30940   -30946   -30946   -30948 
  -30959   -30969   -30974   -30974   -30967   -30958   -30958   -30964 
  -30970   -30971   -30969   -30966   -30962   -30954   -30943   -30948 
  -30975   -31002   -31020   -31035   -31045   -31043   -31020   -30985 
  -30947   -30904   -30865   -30835   -30815   -30802   -30794   -30782 
  -30773   -30767   -30773   -30789   -30820   -30867   -30921   -30974 
  -31028   -31077   -31108   -31125   -31128   -31122   -31113   -31108 
  -31104   -31105   -31105   -31094   -31081   -31071   -31060   -31051 
  -31041   -31033   -31020   -30997   -30970   -30944   -30920   -30897 
  -30873   -30850   -30832   -30823   -30812   -30790   -30758   -30721 
  -30689   -30662   -30642   -30630   -30620   -30612   -30603   -30588 
  -30572   -30558   -30542   -30534   -30537   -30541   -30543   -30549 
  -30553   -30555   -30555   -30553   -30555   -30565   -30577   -30592 
  -30605   -30608   -30607   -30600   -30592   -30595   -30601   -30605 
  -30615   -30627   -30642   -30661   -30677   -30684   -30689   -30694 
  -30704   -30720   -30743   -30769   -30807   -30856   -30912   -30959 
  -30993   -31020   -31044   -31059   -31062   -31063   -31067   -31072 
  -31083   -31104   -31133   -31164   -31189   -31199   -31194   -31171 
  -31137   -31095   -31041   -30986   -30936   -30896   -30863   -30835 
  -30813   -30800   -30790   -30784   -30775   -30766   -30758   -30755 
  -30766   -30790   -30817   -30840   -30861   -30883   -30913   -30948 
  -30985   -31025   -31056   -31074   -31082   -31081   -31078   -31075 
  -31058   -31029   -30998   -30955   -30894   -30838   -30793   -30759 
  -30739   -30734   -30735   -30747   -30763   -30778   -30790   -30789 
  -30770   -30746   -30717   -30693   -30673   -30662   -30662   -30665 
  -30662   -30658   -30658   -30670   -30689   -30715   -30746   -30788 
  -30829   -30865   -30889   -30897   -30888   -30870   -30851   -30831 
  -30817   -30815   -30825   -30850   -30881   -30912   -30942   -30971 
  -30993   -31001   -31008   -31014   -31020   -31023   -31020   -31013 
  -30996   -30964   -30927   -30883   -30834   -30782   -30743   -30717 
  -30712   -30717   -30728   -30750   -30780   -30813   -30850   -30881 
  -30897   -30902   -30896   -30869   -30835   -30800   -30753   -30699 
  -30650   -30612   -30589   -30585   -30593   -30605   -30619   -30635 
  -30654   -30667   -30681   -30697   -30716   -30743   -30780   -30820 
  -30855   -30885   -30913   -30933   -30944   -30952   -30954   -30952 
  -30955   -30967   -30985   -30993   -30994   -30998   -30996   -30982 
  -30958   -30927   -30892   -30859   -30838   -30821   -30808   -30805 
  -30813   -30829   -30855   -30890   -30929   -30971   -31014   -31056 
  -31094   -31128   -31152   -31160   -31156   -31147   -31129   -31102 
  -31070   -31040   -31010   -30975   -30936   -30897   -30858   -30821 
  -30788   -30754   -30723   -30703   -30696   -30694   -30696   -30700 
  -30704   -30708   -30719   -30739   -30757   -30773   -30793   -30809 
  -30817   -30820   -30819   -30815   -30811   -30808   -30819   -30843 
  -30873   -30900   -30925   -30952   -30975   -30990   -30997   -31002 
  -31016   -31033   -31047   -31060   -31078   -31097   -31118   -31141 
  -31167   -31190   -31217   -31249   -31271   -31279   -31282   -31272 
  -31248   -31217   -31176   -31136   -31102   -31077   -31062   -31054 
  -31045   -31032   -31018   -31002   -30979   -30950   -30924   -30897 
  -30867   -30842   -30823   -30808   -30794   -30788   -30788   -30790 
  -30790   -30785   -30778   -30778   -30781   -30781   -30780   -30780 
  -30781   -30778   -30759   -30731   -30699   -30665   -30634   -30605 
  -30578   -30558   -30547   -30535   -30524   -30512   -30497   -30480 
  -30466   -30456   -30447   -30451   -30464   -30477   -30493   -30512 
  -30537   -30574   -30622   -30674   -30721   -30763   -30807   -30856 
  -30906   -30952   -30991   -31025   -31056   -31089   -31125   -31166 
  -31207   -31241   -31267   -31280   -31283   -31279   -31263   -31241 
  -31221   -31199   -31170   -31133   -31094   -31060   -31033   -31010 
  -30982   -30948   -30919   -30894   -30879   -30873   -30862   -30854 
  -30856   -30854   -30838   -30823   -30813   -30808   -30804   -30797 
  -30796   -30796   -30794   -30792   -30789   -30786   -30786   -30790 
  -30797   -30798   -30798   -30797   -30792   -30781   -30763   -30738 
  -30703   -30662   -30616   -30565   -30515   -30476   -30447   -30427 
  -30416   -30418   -30424   -30431   -30442   -30460   -30480   -30503 
  -30537   -30576   -30613   -30653   -30696   -30742   -30793   -30840 
  -30878   -30910   -30939   -30962   -30977   -30990   -31005   -31018 
  -31035   -31052   -31068   -31082   -31093   -31097   -31095   -31089 
  -31079   -31070   -31063   -31058   -31048   -31036   -31020   -31002 
  -30993   -30996   -31000   -30998   -30996   -30994   -30987   -30979 
  -30979   -30983   -30979   -30974   -30977   -30985   -30996   -31010 
  -31018   -31023   -31033   -31044   -31047   -31048   -31051   -31055 
  -31059   -31064   -31075   -31086   -31097   -31112   -31125   -31126 
  -31114   -31097   -31077   -31047   -31014   -30978   -30932   -30883 
  -30835   -30793   -30754   -30726   -30709   -30699   -30703   -30720 
  -30736   -30753   -30774   -30794   -30812   -30828   -30838   -30839 
  -30836   -30831   -30819   -30807   -30794   -30784   -30789   -30808 
  -30834   -30861   -30892   -30923   -30954   -30978   -30996   -31004 
  -31013   -31021   -31021   -31013   -31002   -30989   -30978   -30969 
  -30954   -30932   -30919   -30913   -30909   -30904   -30901   -30901 
  -30898   -30897   -30904   -30906   -30901   -30882   -30850   -30807 
  -30759   -30708   -30661   -30627   -30604   -30589   -30582   -30577 
  -30568   -30557   -30550   -30547   -30550   -30551   -30555   -30568 
  -30581   -30591   -30603   -30623   -30647   -30677   -30716   -30773 
  -30846   -30919   -30981   -31033   -31081   -31124   -31160   -31183 
  -31191   -31191   -31185   -31168   -31151   -31136   -31121   -31109 
  -31098   -31085   -31071   -31066   -31072   -31086   -31099   -31106 
  -31102   -31090   -31079   -31070   -31068   -31079   -31099   -31120 
  -31129   -31140   -31155   -31166   -31172   -31178   -31180   -31180 
  -31179   -31174   -31163   -31136   -31094   -31048   -31002   -30954 
  -30906   -30859   -30816   -30785   -30766   -30751   -30732   -30705 
  -30673   -30643   -30613   -30585   -30558   -30530   -30508   -30488 
  -30469   -30446   -30424   -30411   -30404   -30402   -30402   -30403 
  -30407   -30411   -30416   -30426   -30431   -30433   -30437   -30443 
  -30451   -30466   -30485   -30508   -30532   -30558   -30588   -30622 
  -30658   -30700   -30739   -30770   -30800   -30828   -30861   -30897 
  -30928   -30952   -30967   -30971   -30966   -30952   -30935   -30923 
  -30917   -30910   -30912   -30928   -30942   -30947   -30956   -30975 
  -31000   -31027   -31056   -31082   -31108   -31129   -31144   -31162 
  -31179   -31194   -31207   -31214   -31214   -31213   -31210   -31201 
  -31186   -31176   -31178   -31183   -31185   -31191   -31199   -31206 
  -31214   -31216   -31205   -31193   -31180   -31170   -31158   -31140 
  -31121   -31105   -31087   -31059   -31023   -30987   -30950   -30904 
  -30851   -30802   -30765   -30739   -30727   -30721   -30723   -30731 
  -30744   -30763   -30785   -30805   -30823   -30840   -30854   -30869 
  -30883   -30893   -30892   -30879   -30855   -30831   -30820   -30823 
  -30831   -30854   -30885   -30904   -30915   -30919   -30912   -30897 
  -30878   -30859   -30850   -30848   -30854   -30858   -30862   -30862 
  -30855   -30840   -30827   -30815   -30801   -30790   -30778   -30763 
  -30748   -30735   -30723   -30709   -30694   -30681   -30674   -30669 
  -30669   -30672   -30666   -30653   -30638   -30618   -30591   -30565 
  -30551   -30545   -30539   -30541   -30549   -30558   -30568   -30573 
  -30574   -30573   -30574   -30572   -30572   -30584   -30605   -30623 
  -30639   -30662   -30689   -30715   -30742   -30774   -30807   -30838 
  -30863   -30882   -30894   -30905   -30913   -30917   -30917   -30910 
  -30904   -30901   -30900   -30905   -30916   -30928   -30940   -30951 
  -30958   -30964   -30970   -30978   -30989   -30998   -31008   -31021 
  -31032   -31045   -31067   -31093   -31117   -31135   -31148   -31162 
  -31168   -31164   -31155   -31140   -31121   -31102   -31081   -31060 
  -31039   -31021   -31016   -31014   -31005   -30991   -30981   -30971 
  -30969   -30970   -30970   -30971   -30973   -30973   -30979   -30989 
  -30994   -31004   -31017   -31029   -31040   -31048   -31050   -31043 
  -31029   -31010   -30986   -30959   -30932   -30908   -30890   -30879 
  -30870   -30861   -30852   -30848   -30844   -30842   -30846   -30848 
  -30851   -30859   -30870   -30885   -30904   -30921   -30940   -30963 
  -30990   -31021   -31050   -31070   -31079   -31074   -31054   -31020 
  -30982   -30942   -30898   -30855   -30813   -30770   -30728   -30694 
  -30667   -30647   -30638   -30634   -30635   -30638   -30646   -30659 
  -30677   -30696   -30717   -30735   -30742   -30746   -30747   -30744 
  -30738   -30728   -30720   -30708   -30692   -30677   -30667   -30670 
  -30685   -30707   -30730   -30751   -30765   -30775   -30788   -30797 
  -30801   -30796   -30785   -30769   -30753   -30736   -30720   -30711 
  -30707   -30707   -30716   -30736   -30766   -30801   -30831   -30854 
  -30871   -30879   -30885   -30897   -30912   -30924   -30937   -30951 
  -30959   -30966   -30978   -30997   -31010   -31014   -31013   -31006 
  -31002   -31006   -31008   -31004   -31001   -30996   -30989   -30985 
  -30979   -30975   -30971   -30962   -30946   -30927   -30901   -30873 
  -30852   -30832   -30815   -30802   -30789   -30778   -30781   -30790 
  -30801   -30824   -30851   -30871   -30889   -30906   -30928   -30951 
  -30974   -30998   -31020   -31036   -31052   -31066   -31068   -31064 
  -31056   -31043   -31023   -31006   -30991   -30973   -30966   -30967 
  -30964   -30964   -30969   -30967   -30973   -30989   -31002   -31014 
  -31029   -31036   -31036   -31031   -31020   -31004   -30989   -30974 
  -30964   -30970   -30982   -30998   -31018   -31039   -31050   -31062 
  -31071   -31070   -31070   -31072   -31074   -31074   -31064   -31044 
  -31017   -30979   -30936   -30893   -30847   -30808   -30774   -30739 
  -30708   -30681   -30657   -30635   -30619   -30605   -30596   -30601 
  -30613   -30624   -30642   -30670   -30700   -30735   -30780   -30823 
  -30856   -30881   -30896   -30908   -30917   -30921   -30928   -30935 
  -30937   -30940   -30943   -30936   -30924   -30915   -30900   -30874 
  -30848   -30829   -30813   -30801   -30798   -30797   -30793   -30785 
  -30774   -30770   -30771   -30777   -30789   -30808   -30825   -30842 
  -30863   -30888   -30909   -30927   -30939   -30942   -30933   -30921 
  -30905   -30882   -30852   -30823   -30790   -30754   -30721   -30692 
  -30665   -30646   -30638   -30631   -30630   -30640   -30651   -30661 
  -30667   -30667   -30667   -30666   -30661   -30647   -30630   -30615 
  -30603   -30591   -30589   -30597   -30612   -30635   -30661   -30676 
  -30684   -30684   -30676   -30665   -30658   -30655   -30655   -30662 
  -30678   -30694   -30713   -30739   -30766   -30792   -30820   -30848 
  -30874   -30897   -30923   -30950   -30971   -30986   -30997   -31002 
  -30998   -30997   -30998   -30994   -30994   -30997   -31001   -31010 
  -31023   -31035   -31047   -31059   -31066   -31077   -31089   -31094 
  -31087   -31068   -31043   -31012   -30974   -30931   -30879   -30829 
  -30782   -30740   -30705   -30676   -30650   -30630   -30613   -30596 
  -30576   -30554   -30535   -30522   -30515   -30518   -30524   -30527 
  -30534   -30550   -30569   -30591   -30612   -30628   -30636   -30639 
  -30639   -30638   -30636   -30638   -30640   -30645   -30649   -30655 
  -30663   -30676   -30694   -30712   -30726   -30734   -30744   -30761 
  -30780   -30804   -30834   -30862   -30889   -30915   -30939   -30966 
  -30997   -31033   -31074   -31118   -31166   -31214   -31257   -31293 
  -31322   -31345   -31361   -31375   -31391   -31406   -31422   -31441 
  -31455   -31465   -31473   -31475   -31477   -31482   -31480   -31482 
  -31490   -31502   -31525   -31557   -31584   -31610   -31633   -31652 
  -31669   -31687   -31702   -31712   -31722   -31730   -31733   -31726 
  -31719   -31710   -31692   -31672   -31645   -31612   -31585   -31564 
  -31546   -31538   -31526   -31504   -31482   -31453   -31421   -31387 
  -31351   -31309   -31264   -31218   -31168   -31114   -31056   -30993 
  -30931   -30870   -30812   -30759   -30715   -30678   -30649   -30623 
  -30600   -30574   -30547   -30515   -30474   -30433   -30389   -30343 
  -30299   -30260   -30229   -30203   -30176   -30150   -30123   -30094 
  -30067   -30045   -30025   -30002   -29983   -29972   -29960   -29948 
  -29948   -29952   -29956   -29967   -29983   -30003   -30029   -30049 
  -30059   -30072   -30088   -30102   -30118   -30140   -30159   -30187 
  -30222   -30256   -30294   -30339   -30385   -30429   -30472   -30512 
  -30547   -30582   -30622   -30662   -30705   -30747   -30788   -30825 
  -30862   -30896   -30927   -30956   -30981   -30994   -30998   -31000 
  -31000   -30997   -30987   -30970   -30950   -30927   -30901   -30878 
  -30863   -30850   -30840   -30838   -30838   -30834   -30825   -30816 
  -30802   -30785   -30767   -30751   -30735   -30721   -30715   -30712 
  -30716   -30727   -30732   -30732   -30735   -30742   -30751   -30763 
  -30769   -30773   -30775   -30775   -30770   -30761   -30750   -30743 
  -30739   -30740   -30746   -30751   -30763   -30780   -30794   -30819 
  -30851   -30879   -30905   -30935   -30966   -30998   -31031   -31059 
  -31085   -31113   -31139   -31163   -31186   -31207   -31229   -31249 
  -31263   -31274   -31279   -31278   -31272   -31261   -31252   -31244 
  -31233   -31220   -31209   -31202   -31202   -31203   -31207   -31212 
  -31212   -31214   -31224   -31233   -31243   -31251   -31261   -31275 
  -31288   -31306   -31329   -31349   -31374   -31402   -31425   -31446 
  -31467   -31482   -31498   -31514   -31522   -31527   -31530   -31530 
  -31525   -31514   -31503   -31490   -31473   -31460   -31446   -31432 
  -31422   -31410   -31388   -31357   -31322   -31282   -31237   -31191 
  -31145   -31098   -31052   -31006   -30963   -30920   -30874   -30828 
  -30788   -30746   -30707   -30676   -30645   -30609   -30578   -30543 
  -30505   -30468   -30429   -30389   -30354   -30321   -30287   -30256 
  -30231   -30214   -30204   -30208   -30218   -30231   -30246   -30262 
  -30275   -30284   -30292   -30302   -30312   -30323   -30333   -30345 
  -30361   -30373   -30385   -30399   -30412   -30427   -30446   -30465 
  -30484   -30500   -30514   -30527   -30543   -30562   -30578   -30593 
  -30609   -30624   -30638   -30653   -30669   -30688   -30720   -30757 
  -30794   -30835   -30875   -30915   -30954   -30986   -31010   -31037 
  -31058   -31074   -31089   -31095   -31101   -31109   -31108   -31099 
  -31090   -31075   -31055   -31035   -31013   -30991   -30973   -30950 
  -30927   -30902   -30877   -30852   -30834   -30819   -30805   -30800 
  -30802   -30809   -30825   -30851   -30882   -30917   -30952   -30986 
  -31017   -31040   -31058   -31072   -31083   -31089   -31093   -31098 
  -31099   -31094   -31090   -31079   -31056   -31032   -31010   -30987 
  -30962   -30937   -30916   -30896   -30878   -30862   -30850   -30842 
  -30834   -30828   -30824   -30821   -30823   -30829   -30838   -30847 
  -30858   -30869   -30878   -30889   -30902   -30916   -30932   -30952 
  -30974   -30997   -31017   -31035   -31047   -31054   -31051   -31045 
  -31045   -31045   -31043   -31039   -31033   -31029   -31025   -31017 
  -31006   -30998   -30991   -30989   -30993   -30994   -30990   -30985 
  -30978   -30970   -30962   -30954   -30946   -30943   -30942   -30943 
  -30939   -30932   -30925   -30916   -30900   -30882   -30859   -30832 
  -30797   -30763   -30732   -30701   -30666   -30632   -30605   -30582 
  -30561   -30542   -30527   -30510   -30488   -30470   -30456   -30442 
  -30427   -30415   -30406   -30404   -30408   -30418   -30431   -30450 
  -30469   -30484   -30495   -30508   -30524   -30543   -30562   -30586 
  -30611   -30638   -30666   -30694   -30721   -30744   -30761   -30769 
  -30767   -30763   -30758   -30746   -30727   -30707   -30684   -30663 
  -30645   -30627   -30622   -30628   -30638   -30658   -30696   -30743 
  -30789   -30839   -30889   -30933   -30974   -31010   -31040   -31063 
  -31083   -31101   -31112   -31122   -31131   -31132   -31128   -31128 
  -31131   -31139   -31149   -31158   -31167   -31180   -31189   -31194 
  -31201   -31206   -31216   -31229   -31237   -31247   -31259   -31267 
  -31271   -31275   -31275   -31272   -31274   -31279   -31286   -31295 
  -31302   -31306   -31306   -31295   -31282   -31271   -31263   -31251 
  -31236   -31221   -31206   -31185   -31163   -31136   -31105   -31074 
  -31041   -31008   -30977   -30954   -30933   -30909   -30886   -30870 
  -30854   -30839   -30829   -30825   -30823   -30821   -30825   -30829 
  -30832   -30838   -30842   -30842   -30838   -30835   -30836   -30834 
  -30831   -30831   -30832   -30835   -30839   -30836   -30831   -30825 
  -30819   -30809   -30800   -30786   -30774   -30765   -30750   -30735 
  -30723   -30713   -30703   -30692   -30678   -30665   -30653   -30638 
  -30627   -30619   -30611   -30611   -30615   -30619   -30626   -30638 
  -30649   -30659   -30667   -30669   -30674   -30681   -30681   -30680 
  -30681   -30684   -30688   -30693   -30697   -30701   -30701   -30701 
  -30701   -30700   -30700   -30697   -30694   -30693   -30694   -30701 
  -30709   -30715   -30721   -30728   -30735   -30748   -30763   -30775 
  -30793   -30812   -30827   -30839   -30850   -30855   -30859   -30858 
  -30851   -30842   -30835   -30827   -30815   -30802   -30790   -30780 
  -30769   -30758   -30751   -30747   -30742   -30740   -30742   -30743 
  -30747   -30754   -30759   -30762   -30759   -30757   -30758   -30757 
  -30757   -30763   -30769   -30771   -30775   -30778   -30777   -30775 
  -30774   -30770   -30765   -30759   -30757   -30754   -30750   -30750 
  -30755   -30757   -30758   -30767   -30777   -30781   -30786   -30798 
  -30815   -30836   -30861   -30890   -30927   -30966   -31006   -31041 
  -31070   -31093   -31110   -31125   -31136   -31149   -31166   -31175 
  -31185   -31195   -31203   -31207   -31209   -31210   -31207   -31202 
  -31197   -31190   -31179   -31164   -31147   -31131   -31116   -31099 
  -31086   -31075   -31066   -31066   -31072   -31079   -31087   -31101 
