Origin Time       2025/06/03 22:18:00
Lat.              41.7
Long.             143.6
Depth. (km)       30
Mag.              5.2
Station Code      HDKH02
Station Lat.      42.7061
Station Long.     142.4054
Station Height(m) 230
Record Time       2025/06/03 22:19:03
Sampling Freq(Hz) 100Hz
Duration Time(s)  120
Dir.              5
Scale Factor      3920(gal)/6170801
Max. Acc. (gal)   0.773
Last Correction   2025/06/03 22:18:48
Memo.             
[...]
   14032    14000    13988    14003    14034    14062    14067    14045 
   14008    13976    13962    13968    13987    14005    14019    14034 
   14050    14057    14051    14026    13980    13918    13845    13768 
   13698    13660    13669    13722    13803    13892    13965    14014 
   14040    14044    14022    13980    13940    13920    13931    13972 
   14022    14057    14059    14024    13966    13896    13821    13762 
   13735    13744    13782    13846    13922    13988    14027    14037 
   14023    13995    13964    13937    13918    13907    13905    13911 
   13922    13937    13969    14026    14106    14192    14251    14253 
   14199    14105    13994    13897    13826    13782    13767    13785 
   13836    13919    14022    14120    14192    14229    14231    14199 
   14134    14046    13954    13874    13808    13759    13739    13754 
   13803    13888    13989    14081    14140    14165    14170    14174 
   14181    14194    14205    14198    14164    14100    14013    13925 
   13856    13820    13819    13843    13879    13921    13963    13993 
   13994    13957    13893    13822    13774    13766    13793    13842 
   13892    13933    13965    13991    14003    13997    13979    13962 
   13959    13973    14003    14031    14040    14027    14000    13970 
   13947    13932    13922    13916    13919    13935    13965    14001 
   14038    14076    14111    14137    14141    14116    14074    14042 
   14039    14071    14125    14172    14192    14177    14128    14052 
   13958    13853    13752    13679    13651    13667    13706    13744 
   13766    13770    13767    13769    13780    13797    13811    13815 
   13810    13814    13838    13876    13914    13935    13934    13922 
   13926    13966    14045    14143    14237    14301    14320    14299 
   14258    14200    14119    14022    13917    13814    13720    13643 
   13589    13572    13601    13667    13755    13852    13948    14035 
   14109    14168    14205    14208    14173    14107    14019    13935 
   13883    13870    13889    13924    13954    13966    13961    13947 
   13923    13889    13851    13822    13820    13862    13945    14044 
   14130    14176    14181    14161    14138    14121    14099    14063 
   14022    14000    14022    14093    14189    14267    14285    14228 
   14114    13980    13856    13759    13691    13659    13670    13715 
   13781    13847    13901    13940    13966    13986    14010    14033 
   14040    14032    14006    13962    13905    13838    13779    13751 
   13767    13827    13919    14013    14088    14139    14164    14164 
   14139    14089    14023    13956    13899    13857    13824    13795 
   13779    13788    13828    13891    13957    14009    14043    14064 
   14083    14098    14093    14053    13990    13920    13865    13839 
   13833    13839    13858    13887    13924    13959    13972    13956 
   13926    13900    13895    13924    13981    14049    14104    14133 
   14131    14108    14070    14028    13998    13987    13984    13984 
   13984    13983    13974    13952    13924    13902    13898    13918 
   13959    14009    14049    14062    14048    14012    13975    13946 
   13923    13907    13898    13895    13902    13922    13945    13961 
   13963    13956    13955    13974    14008    14046    14077    14094 
   14092    14066    14032    14003    13978    13957    13949    13953 
   13965    13978    13980    13970    13954    13928    13888    13834 
   13774    13723    13695    13709    13770    13866    13982    14102 
   14206    14287    14332    14338    14317    14277    14217    14150 
   14086    14032    13998    13990    14001    14025    14055    14084 
   14113    14142    14159    14150    14116    14057    13973    13876 
   13797    13752    13746    13776    13819    13847    13854    13854 
   13860    13880    13915    13951    13971    13975    13958    13920 
   13869    13808    13736    13668    13627    13625    13662    13720 
   13783    13839    13886    13932    13977    14007    14012    13983 
   13917    13836    13764    13722    13722    13769    13843    13913 
   13963    13993    14011    14024    14029    14022    14004    13976 
   13945    13924    13919    13927    13943    13969    13998    14016 
   14017    14010    14001    14009    14044    14097    14146    14176 
   14188    14194    14210    14240    14270    14279    14253    14189 
   14099    13995    13896    13811    13745    13715    13734    13791 
   13858    13912    13939    13940    13930    13921    13919    13929 
   13947    13969    13995    14030    14073    14109    14126    14119 
   14093    14063    14042    14036    14041    14043    14039    14042 
   14068    14118    14179    14229    14247    14228    14182    14120 
   14061    14022    14008    14007    14005    13996    13973    13936 
   13894    13849    13806    13777    13765    13767    13786    13811 
   13826    13822    13795    13753    13717    13702    13717    13761 
   13812    13857    13901    13954    14013    14073    14124    14147 
   14138    14114    14086    14063    14046    14025    13995    13959 
   13920    13879    13837    13792    13748    13717    13704    13705 
   13720    13749    13788    13830    13872    13906    13927    13942 
   13967    14009    14063    14121    14169    14196    14200    14180 
   14139    14084    14028    13979    13937    13901    13873    13858 
   13862    13892    13942    13991    14025    14035    14016    13975 
   13931    13898    13883    13886    13897    13914    13934    13956 
   13982    14021    14069    14114    14148    14166    14164    14141 
   14098    14040    13973    13909    13858    13824    13814    13832 
   13870    13919    13964    13990    13992    13970    13938    13909 
   13889    13890    13918    13968    14026    14067    14068    14034 
   13986    13947    13937    13958    13994    14035    14070    14083 
   14077    14051    14006    13954    13907    13861    13818    13783 
   13762    13760    13779    13810    13841    13864    13880    13892 
   13903    13913    13922    13932    13948    13962    13975    13986 
   13993    13999    14009    14018    14025    14038    14051    14060 
   14062    14052    14030    14008    14002    14021    14065    14126 
   14183    14220    14226    14204    14167    14127    14090    14054 
   14013    13969    13939    13943    13981    14033    14069    14073 
   14044    13999    13963    13941    13932    13929    13921    13903 
   13882    13860    13842    13832    13827    13825    13826    13830 
   13838    13855    13880    13909    13931    13943    13943    13937 
   13933    13930    13929    13932    13941    13955    13972    13984 
   13984    13977    13969    13966    13974    13996    14025    14047 
   14055    14047    14019    13975    13934    13911    13908    13915 
   13917    13904    13882    13863    13859    13863    13861    13854 
   13850    13858    13885    13930    13977    14018    14055    14086 
   14108    14105    14061    13976    13866    13755    13671    13632 
   13634    13679    13762    13865    13965    14046    14099    14122 
   14120    14091    14028    13936    13831    13735    13663    13622 
   13618    13653    13722    13818    13930    14043    14153    14253 
   14334    14390    14409    14377    14302    14205    14109    14032 
   13983    13955    13948    13968    14011    14071    14141    14204 
   14245    14270    14287    14297    14297    14283    14240    14162 
   14056    13939    13835    13763    13731    13744    13800    13889 
   13998    14110    14202    14250    14237    14167    14058    13931 
   13812    13719    13653    13610    13589    13587    13611    13668 
   13753    13851    13936    13990    13997    13960    13895    13826 
   13776    13761    13782    13830    13895    13958    14013    14055 
   14078    14085    14083    14070    14055    14055    14077    14121 
   14175    14215    14224    14201    14149    14077    13999    13927 
   13864    13816    13790    13781    13792    13821    13861    13906 
   13953    13994    14024    14042    14030    13985    13927    13872 
   13824    13792    13772    13755    13745    13747    13763    13788 
   13812    13824    13830    13839    13845    13850    13871    13916 
   13983    14068    14152    14209    14226    14200    14137    14046 
   13940    13832    13739    13683    13672    13702    13766    13839 
   13900    13941    13966    13979    13982    13973    13946    13903 
   13861    13836    13835    13857    13890    13921    13942    13955 
   13965    13977    14000    14034    14073    14111    14142    14155 
   14148    14126    14096    14066    14038    14009    13973    13928 
   13882    13845    13816    13793    13769    13742    13720    13722 
   13758    13826    13914    14007    14087    14147    14180    14193 
   14198    14189    14161    14123    14088    14066    14057    14045 
   14013    13961    13899    13844    13810    13807    13834    13894 
   13985    14092    14184    14227    14195    14100    13975    13846 
   13727    13627    13547    13493    13479    13513    13594    13711 
   13852    14002    14140    14245    14312    14334    14308    14245 
   14159    14061    13973    13917    13898    13918    13976    14059 
   14147    14220    14257    14248    14201    14124    14036    13967 
   13937    13953    14007    14082    14162    14233    14285    14319 
   14337    14334    14311    14274    14230    14188    14163    14168 
   14193    14211    14211    14197    14177    14152    14113    14060 
   13998    13941    13900    13882    13881    13884    13882    13878 
   13876    13878    13877    13866    13841    13804    13768    13742 
   13726    13713    13687    13634    13553    13460    13379    13333 
   13342    13403    13492    13588    13675    13739    13776    13789 
   13786    13777    13779    13805    13854    13908    13950    13967 
   13956    13930    13909    13910    13936    13989    14058    14131 
   14205    14275    14332    14378    14408    14420    14421    14421 
   14423    14421    14405    14372    14329    14291    14279    14310 
   14380    14475    14563    14614    14615    14564    14469    14351 
   14222    14091    13974    13877    13808    13770    13757    13756 
   13755    13750    13747    13749    13764    13804    13866    13944 
   14031    14106    14149    14155    14120    14055    13982    13921 
   13878    13857    13854    13857    13860    13870    13881    13873 
   13844    13804    13762    13726    13696    13669    13650    13637 
   13630    13626    13618    13606    13606    13642    13726    13849 
   13984    14104    14187    14217    14196    14128    14020    13894 
   13776    13681    13622    13605    13618    13637    13653    13660 
   13661    13667    13679    13692    13702    13711    13726    13760 
   13816    13881    13934    13959    13949    13907    13845    13776 
   13712    13663    13637    13642    13676    13734    13807    13881 
   13945    13986    14002    14001    14001    14015    14046    14085 
   14120    14144    14159    14172    14179    14170    14145    14119 
   14110    14136    14193    14260    14312    14332    14305    14240 
   14158    14084    14048    14081    14190    14346    14508    14634 
   14687    14654    14544    14372    14166    13963    13791    13666 
   13600    13590    13618    13663    13706    13727    13718    13688 
   13654    13631    13626    13642    13680    13741    13830    13947 
   14081    14214    14330    14410    14447    14457    14449    14423 
   14381    14328    14276    14240    14216    14190    14149    14080 
   13986    13891    13831    13811    13811    13812    13793    13738 
   13645    13528    13403    13288    13196    13132    13108    13131 
   13207    13331    13489    13656    13811    13930    13996    14002 
   13952    13854    13725    13588    13468    13390    13362    13387 
   13468    13604    13792    14019    14266    14501    14693    14824 
   14895    14916    14891    14823    14720    14596    14471    14362 
   14264    14167    14071    13984    13922    13904    13924    13967 
   14021    14067    14099    14114    14102    14059    13991    13916 
   13852    13813    13809    13843    13908    14006    14134    14283 
   14436    14573    14679    14744    14760    14726    14645    14530 
   14410    14315    14264    14254    14260    14246    14187    14080 
   13933    13769    13620    13506    13432    13397    13397    13429 
   13485    13548    13601    13636    13647    13639    13633    13633 
   13632    13631    13642    13684    13766    13876    13992    14098 
   14179    14229    14247    14225    14155    14040    13905    13782 
   13687    13614    13559    13514    13476    13450    13439    13435 
   13428    13410    13380    13345    13316    13297    13296    13322 
   13383    13484    13621    13779    13947    14123    14299    14459 
   14586    14663    14676    14626    14528    14394    14249    14112 
   13996    13914    13867    13849    13854    13876    13912    13962 
   14022    14080    14130    14176    14217    14254    14283    14286 
   14249    14171    14067    13969    13907    13914    14006    14176 
   14399    14631    14826    14946    14980    14943    14849    14711 
   14541    14341    14105    13834    13552    13288    13065    12899 
   12795    12748    12755    12819    12942    13123    13356    13611 
   13850    14036    14148    14183    14153    14079    13979    13871 
   13773    13702    13677    13704    13785    13907    14051    14199 
   14337    14452    14526    14547    14517    14451    14360    14259 
   14150    14028    13898    13783    13715    13719    13793    13915 
   14060    14208    14344    14454    14517    14510    14434    14313 
   14189    14113    14111    14172    14269    14371    14447    14481 
   14461    14386    14257    14080    13871    13668    13520    13469 
   13531    13700    13952    14245    14531    14766    14909    14931 
   14821    14584    14254    13881    13522    13230    13045    12983 
   13034    13165    13337    13524    13700    13841    13920    13916 
   13828    13670    13476    13299    13178    13140    13197    13344 
   13556    13796    14027    14224    14368    14451    14475    14442 
   14359    14240    14097    13939    13777    13624    13497    13420 
   13401    13438    13518    13620    13718    13800    13861    13905 
   13942    13976    14010    14035    14048    14050    14038    14009 
   13976    13949    13940    13962    14014    14089    14168    14239 
   14289    14312    14306    14279    14240    14198    14169    14168 
   14207    14275    14348    14397    14396    14325    14184    13991 
   13773    13559    13378    13252    13200    13242    13373    13564 
   13776    13968    14116    14214    14268    14287    14277    14243 
   14187    14115    14031    13941    13850    13764    13690    13636 
   13605    13604    13639    13709    13799    13888    13950    13968 
   13950    13915    13897    13921    13975    14032    14065    14052 
   13999    13938    13899    13904    13959    14050    14153    14245 
   14308    14333    14322    14276    14198    14084    13935    13766 
   13602    13466    13370    13314    13296    13312    13363    13453 
   13585    13762    13980    14227    14479    14703    14867    14946 
   14931    14832    14675    14491    14297    14110    13947    13821 
   13745    13736    13799    13925    14091    14274    14442    14566 
   14629    14618    14532    14389    14219    14046    13897    13799 
   13766    13815    13947    14133    14332    14497    14592    14617 
   14589    14528    14449    14352    14240    14124    14015    13916 
   13830    13754    13681    13607    13530    13447    13357    13276 
   13235    13256    13340    13470    13612    13728    13799    13832 
   13848    13865    13884    13895    13891    13865    13814    13748 
   13696    13670    13674    13711    13776    13863    13966    14071 
   14157    14209    14213    14171    14102    14020    13930    13847 
   13773    13703    13633    13573    13535    13536    13583    13668 
   13767    13856    13928    13992    14063    14151    14252    14338 
   14379    14358    14271    14127    13945    13753    13587    13488 
   13474    13543    13689    13886    14095    14286    14441    14536 
   14554    14492    14356    14162    13936    13719    13548    13453 
   13446    13509    13613    13736    13873    14023    14181    14329 
   14444    14510    14526    14497    14433    14345    14248    14153 
   14064    13992    13954    13946    13966    14013    14077    14161 
   14259    14350    14406    14404    14329    14182    13988    13782 
   13596    13445    13331    13254    13202    13171    13168    13203 
   13279    13395    13546    13717    13887    14038    14165    14263 
   14333    14377    14391    14379    14354    14323    14293    14263 
   14216    14141    14035    13910    13783    13669    13582    13539 
   13545    13587    13644    13697    13731    13725    13671    13580 
   13468    13357    13273    13237    13261    13342    13472    13641 
   13838    14047    14248    14423    14552    14616    14613    14551 
   14447    14320    14192    14084    14023    14026    14093    14209 
   14350    14494    14623    14728    14807    14862    14887    14875 
   14815    14704    14551    14367    14177    14005    13863    13764 
   13713    13704    13729    13780    13838    13890    13921    13916 
   13872    13799    13719    13655    13628    13652    13727    13839 
   13959    14069    14154    14194    14181    14123    14026    13908 
   13793    13700    13643    13630    13657    13708    13774    13849 
   13921    13979    14010    14008    13961    13863    13729    13578 
   13433    13323    13267    13277    13359    13490    13647    13816 
   13972    14098    14187    14235    14246    14227    14188    14129 
   14048    13943    13819    13699    13609    13559    13558    13598 
   13665    13753    13850    13942    14025    14104    14178    14244 
   14293    14311    14293    14243    14175    14116    14086    14091 
   14124    14173    14227    14273    14298    14306    14300    14285 
   14275    14280    14296    14314    14325    14317    14285    14222 
   14117    13965    13774    13560    13344    13159    13035    12994 
   13044    13176    13365    13579    13784    13959    14091    14172 
   14194    14165    14105    14048    14020    14027    14065    14128 
   14202    14273    14338    14382    14381    14323    14214    14075 
   13939    13838    13787    13788    13833    13907    13990    14073 
   14147    14203    14243    14273    14287    14281    14254    14196 
   14103    13984    13855    13734    13637    13572    13537    13526 
   13533    13553    13583    13618    13651    13683    13716    13757 
   13813    13881    13952    14023    14091    14149    14194    14221 
   14234    14248    14269    14294    14312    14309    14275    14205 
   14105    13995    13901    13845    13836    13865    13914    13968 
   14005    14010    13990    13952    13903    13850    13793    13737 
