Origin Time       2025/06/03 22:18:00
Lat.              41.7
Long.             143.6
Depth. (km)       30
Mag.              5.2
Station Code      HDKH03
Station Lat.      42.5934
Station Long.     142.3521
Station Height(m) 54
Record Time       2025/06/03 22:19:10
Sampling Freq(Hz) 100Hz
Duration Time(s)  120
Dir.              3
Scale Factor      2942(gal)/8224139
Max. Acc. (gal)   0.272
Last Correction   2025/06/03 22:18:54
Memo.             
[...]
  -67308   -67305   -67296   -67289   -67292   -67290   -67288   -67289 
  -67293   -67297   -67300   -67302   -67298   -67285   -67269   -67254 
  -67239   -67230   -67227   -67228   -67232   -67232   -67227   -67216 
  -67203   -67193   -67188   -67182   -67180   -67181   -67180   -67177 
  -67173   -67167   -67158   -67149   -67135   -67116   -67095   -67070 
  -67046   -67030   -67024   -67020   -67018   -67015   -67005   -66993 
  -66989   -66995   -67007   -67030   -67054   -67069   -67076   -67080 
  -67082   -67092   -67109   -67127   -67146   -67162   -67176   -67186 
  -67201   -67219   -67238   -67257   -67265   -67259   -67254   -67243 
  -67231   -67227   -67225   -67220   -67209   -67196   -67184   -67176 
  -67180   -67200   -67230   -67265   -67302   -67332   -67350   -67359 
  -67363   -67362   -67360   -67363   -67365   -67359   -67350   -67333 
  -67313   -67294   -67279   -67270   -67269   -67274   -67281   -67281 
  -67274   -67266   -67255   -67238   -67215   -67186   -67157   -67127 
  -67101   -67080   -67058   -67041   -67031   -67024   -67014   -67003 
  -66999   -67001   -67015   -67038   -67068   -67099   -67120   -67134 
  -67140   -67143   -67153   -67170   -67189   -67205   -67219   -67223 
  -67215   -67203   -67190   -67178   -67173   -67176   -67181   -67186 
  -67194   -67196   -67190   -67182   -67177   -67173   -67169   -67165 
  -67161   -67158   -67157   -67158   -67159   -67159   -67154   -67144 
  -67134   -67119   -67107   -67103   -67099   -67097   -67105   -67117 
  -67128   -67138   -67146   -67149   -67149   -67146   -67144   -67150 
  -67161   -67181   -67211   -67242   -67267   -67286   -67292   -67288 
  -67285   -67290   -67301   -67317   -67331   -67339   -67339   -67332 
  -67320   -67312   -67311   -67312   -67316   -67315   -67306   -67294 
  -67285   -67277   -67270   -67267   -67265   -67265   -67263   -67255 
  -67244   -67238   -67231   -67227   -67225   -67225   -67220   -67216 
  -67211   -67205   -67211   -67216   -67220   -67234   -67244   -67247 
  -67251   -67258   -67265   -67269   -67271   -67269   -67258   -67242 
  -67228   -67219   -67211   -67204   -67197   -67189   -67180   -67171 
  -67170   -67174   -67174   -67170   -67161   -67143   -67120   -67099 
  -67085   -67080   -67077   -67078   -67081   -67086   -67090   -67088 
  -67086   -67090   -67093   -67095   -67099   -67100   -67099   -67095 
  -67092   -67093   -67099   -67112   -67128   -67140   -67150   -67158 
  -67162   -67167   -67174   -67180   -67186   -67194   -67208   -67223 
  -67231   -67235   -67239   -67238   -67230   -67223   -67216   -67211 
  -67207   -67201   -67193   -67185   -67182   -67182   -67182   -67184 
  -67190   -67197   -67197   -67197   -67197   -67194   -67193   -67196 
  -67201   -67219   -67240   -67252   -67258   -67257   -67244   -67231 
  -67220   -67211   -67207   -67209   -67213   -67215   -67211   -67208 
  -67209   -67209   -67209   -67213   -67217   -67216   -67213   -67212 
  -67215   -67224   -67239   -67252   -67263   -67266   -67263   -67258 
  -67248   -67236   -67223   -67204   -67180   -67155   -67131   -67112 
  -67105   -67109   -67120   -67134   -67147   -67159   -67169   -67176 
  -67180   -67181   -67186   -67192   -67204   -67219   -67230   -67235 
  -67231   -67216   -67200   -67184   -67167   -67159   -67155   -67153 
  -67154   -67154   -67159   -67173   -67190   -67211   -67234   -67247 
  -67255   -67262   -67258   -67242   -67230   -67216   -67198   -67182 
  -67169   -67159   -67154   -67149   -67146   -67149   -67149   -67149 
  -67155   -67166   -67180   -67192   -67204   -67217   -67230   -67243 
  -67251   -67252   -67247   -67238   -67228   -67225   -67232   -67243 
  -67258   -67278   -67289   -67288   -67290   -67296   -67298   -67302 
  -67309   -67311   -67302   -67277   -67236   -67192   -67150   -67115 
  -67086   -67068   -67055   -67046   -67035   -67023   -67008   -66989 
  -66972   -66968   -66976   -66989   -67018   -67050   -67076   -67093 
  -67108   -67119   -67124   -67130   -67132   -67131   -67130   -67134 
  -67140   -67155   -67173   -67189   -67205   -67215   -67217   -67224 
  -67232   -67239   -67250   -67266   -67284   -67302   -67321   -67347 
  -67370   -67386   -67398   -67401   -67393   -67383   -67373   -67365 
  -67359   -67362   -67365   -67362   -67355   -67340   -67319   -67300 
  -67286   -67273   -67255   -67239   -67230   -67217   -67209   -67207 
  -67203   -67204   -67205   -67200   -67193   -67192   -67185   -67173 
  -67161   -67149   -67140   -67132   -67124   -67116   -67108   -67101 
  -67096   -67089   -67086   -67086   -67081   -67069   -67054   -67041 
  -67028   -67016   -67011   -67018   -67027   -67034   -67046   -67063 
  -67081   -67103   -67127   -67159   -67203   -67254   -67302   -67350 
  -67396   -67432   -67462   -67494   -67524   -67554   -67585   -67606 
  -67614   -67614   -67606   -67589   -67567   -67548   -67528   -67509 
  -67494   -67479   -67460   -67444   -67427   -67401   -67369   -67332 
  -67293   -67254   -67212   -67174   -67142   -67113   -67092   -67074 
  -67053   -67032   -67020   -67001   -66976   -66961   -66954   -66951 
  -66958   -66972   -66984   -66999   -67009   -67015   -67019   -67024 
  -67030   -67036   -67047   -67062   -67078   -67093   -67107   -67115 
  -67120   -67123   -67116   -67111   -67111   -67113   -67122   -67135 
  -67146   -67153   -67154   -67151   -67147   -67139   -67130   -67124 
  -67122   -67122   -67130   -67144   -67162   -67177   -67190   -67198 
  -67197   -67200   -67207   -67213   -67223   -67234   -67236   -67234 
  -67236   -67244   -67258   -67275   -67294   -67309   -67319   -67320 
  -67313   -67304   -67296   -67296   -67301   -67304   -67304   -67300 
  -67293   -67282   -67270   -67263   -67261   -67255   -67252   -67251 
  -67244   -67235   -67220   -67207   -67192   -67173   -67149   -67127 
  -67109   -67100   -67097   -67100   -67104   -67103   -67093   -67074 
  -67047   -67020   -67003   -66999   -67004   -67014   -67026   -67038 
  -67045   -67045   -67042   -67042   -67051   -67070   -67097   -67126 
  -67144   -67158   -67178   -67200   -67217   -67231   -67240   -67247 
  -67247   -67247   -67250   -67247   -67246   -67244   -67240   -67240 
  -67250   -67258   -67262   -67261   -67244   -67215   -67193   -67181 
  -67171   -67170   -67177   -67174   -67163   -67157   -67150   -67144 
  -67149   -67157   -67165   -67178   -67193   -67207   -67223   -67232 
  -67232   -67236   -67240   -67243   -67254   -67275   -67302   -67327 
  -67340   -67346   -67347   -67346   -67348   -67354   -67359   -67362 
  -67358   -67350   -67336   -67320   -67301   -67281   -67261   -67242 
  -67227   -67216   -67204   -67192   -67182   -67170   -67159   -67151 
  -67144   -67138   -67136   -67132   -67124   -67123   -67124   -67126 
  -67130   -67138   -67140   -67144   -67151   -67155   -67163   -67171 
  -67178   -67182   -67182   -67181   -67180   -67177   -67173   -67169 
  -67162   -67157   -67154   -67147   -67143   -67142   -67138   -67128 
  -67112   -67093   -67081   -67077   -67080   -67096   -67117   -67132 
  -67139   -67136   -67124   -67112   -67104   -67096   -67096   -67100 
  -67101   -67103   -67109   -67116   -67119   -67123   -67132   -67143 
  -67157   -67174   -67185   -67196   -67209   -67217   -67221   -67228 
  -67228   -67230   -67234   -67228   -67220   -67211   -67197   -67192 
  -67200   -67212   -67217   -67213   -67208   -67200   -67192   -67188 
  -67192   -67203   -67213   -67219   -67220   -67221   -67223   -67234 
  -67251   -67271   -67289   -67304   -67316   -67325   -67336   -67350 
  -67360   -67369   -67377   -67383   -67383   -67382   -67383   -67382 
  -67382   -67383   -67383   -67382   -67378   -67375   -67370   -67365 
  -67356   -67346   -67332   -67316   -67297   -67277   -67252   -67225 
  -67198   -67171   -67147   -67128   -67112   -67103   -67099   -67097 
  -67097   -67093   -67085   -67078   -67076   -67076   -67086   -67108 
  -67132   -67150   -67161   -67166   -67169   -67177   -67193   -67216 
  -67240   -67257   -67269   -67277   -67278   -67277   -67274   -67270 
  -67269   -67266   -67259   -67251   -67242   -67227   -67211   -67190 
  -67161   -67127   -67093   -67063   -67034   -67007   -66989   -66980 
  -66974   -66973   -66973   -66973   -66973   -66973   -66970   -66972 
  -66974   -66981   -66995   -67018   -67049   -67085   -67126   -67166 
  -67203   -67228   -67250   -67269   -67282   -67290   -67301   -67315 
  -67325   -67339   -67355   -67370   -67381   -67381   -67365   -67339 
  -67308   -67274   -67243   -67217   -67198   -67184   -67170   -67162 
  -67162   -67161   -67158   -67154   -67142   -67127   -67120   -67116 
  -67116   -67120   -67128   -67136   -67143   -67153   -67167   -67184 
  -67194   -67200   -67204   -67203   -67200   -67198   -67198   -67196 
  -67190   -67180   -67166   -67153   -67143   -67135   -67128   -67120 
  -67116   -67115   -67115   -67123   -67139   -67151   -67158   -67166 
  -67169   -67167   -67169   -67169   -67176   -67193   -67213   -67224 
  -67234   -67240   -67242   -67244   -67247   -67250   -67257   -67267 
  -67277   -67286   -67294   -67296   -67289   -67275   -67257   -67242 
  -67232   -67220   -67205   -67194   -67181   -67167   -67159   -67154 
  -67149   -67150   -67153   -67159   -67176   -67200   -67225   -67248 
  -67273   -67292   -67309   -67329   -67348   -67375   -67409   -67431 
  -67440   -67454   -67464   -67464   -67467   -67474   -67477   -67478 
  -67479   -67478   -67475   -67468   -67459   -67452   -67448   -67444 
  -67437   -67428   -67414   -67393   -67369   -67348   -67331   -67316 
  -67306   -67297   -67286   -67275   -67265   -67252   -67238   -67228 
  -67225   -67227   -67227   -67227   -67227   -67221   -67213   -67213 
  -67212   -67205   -67200   -67193   -67180   -67165   -67147   -67126 
  -67101   -67084   -67068   -67051   -67038   -67023   -67005   -66995 
  -66989   -66984   -66981   -66972   -66955   -66945   -66938   -66935 
  -66943   -66955   -66965   -66973   -66984   -66996   -67003   -67004 
  -67007   -67015   -67027   -67042   -67057   -67073   -67088   -67096 
  -67093   -67090   -67089   -67088   -67093   -67108   -67126   -67144 
  -67166   -67188   -67209   -67227   -67240   -67247   -67248   -67252 
  -67261   -67275   -67293   -67308   -67311   -67304   -67293   -67279 
  -67261   -67240   -67223   -67200   -67167   -67138   -67111   -67081 
  -67053   -67030   -67007   -66992   -66984   -66981   -66978   -66978 
  -66982   -66988   -66991   -66991   -66981   -66961   -66939   -66926 
  -66924   -66926   -66934   -66945   -66954   -66964   -66970   -66978 
  -67001   -67030   -67058   -67093   -67127   -67150   -67166   -67180 
  -67189   -67194   -67201   -67215   -67228   -67242   -67257   -67271 
  -67282   -67289   -67296   -67297   -67290   -67285   -67285   -67293 
  -67312   -67332   -67344   -67351   -67348   -67336   -67313   -67289 
  -67273   -67259   -67252   -67252   -67254   -67257   -67263   -67271 
  -67277   -67279   -67277   -67274   -67279   -67285   -67286   -67286 
  -67284   -67277   -67269   -67259   -67247   -67240   -67238   -67234 
  -67228   -67224   -67219   -67212   -67205   -67196   -67182   -67170 
  -67161   -67155   -67151   -67150   -67147   -67147   -67142   -67132 
  -67120   -67109   -67109   -67116   -67126   -67136   -67143   -67132 
  -67115   -67099   -67084   -67077   -67080   -67085   -67090   -67093 
  -67092   -67088   -67084   -67086   -67090   -67096   -67107   -67122 
  -67138   -67158   -67180   -67200   -67220   -67242   -67269   -67302 
  -67340   -67379   -67416   -67451   -67481   -67509   -67535   -67562 
  -67585   -67601   -67608   -67602   -67593   -67581   -67563   -67547 
  -67529   -67505   -67475   -67439   -67397   -67354   -67301   -67248 
  -67207   -67176   -67149   -67131   -67122   -67112   -67103   -67090 
  -67077   -67063   -67055   -67050   -67046   -67049   -67061   -67080 
  -67100   -67122   -67142   -67162   -67178   -67185   -67184   -67178 
  -67165   -67149   -67138   -67127   -67117   -67107   -67090   -67068 
  -67041   -67016   -67000   -66992   -67000   -67015   -67027   -67038 
  -67042   -67043   -67054   -67077   -67104   -67132   -67158   -67173 
  -67176   -67177   -67186   -67205   -67235   -67267   -67302   -67335 
  -67359   -67378   -67389   -67394   -67397   -67397   -67394   -67392 
  -67387   -67383   -67381   -67377   -67370   -67360   -67343   -67324 
  -67305   -67289   -67277   -67269   -67262   -67254   -67240   -67219 
  -67194   -67170   -67139   -67100   -67061   -67026   -66995   -66969 
  -66947   -66931   -66916   -66903   -66893   -66887   -66880   -66874 
  -66870   -66872   -66879   -66881   -66881   -66879   -66873   -66869 
  -66873   -66885   -66903   -66923   -66942   -66958   -66970   -66984 
  -67004   -67038   -67078   -67123   -67162   -67190   -67208   -67224 
  -67250   -67285   -67328   -67381   -67436   -67487   -67540   -67586 
  -67621   -67649   -67671   -67690   -67709   -67721   -67730   -67741 
  -67751   -67764   -67783   -67802   -67819   -67834   -67833   -67814 
  -67792   -67774   -67752   -67730   -67709   -67682   -67651   -67613 
  -67572   -67531   -67489   -67450   -67410   -67371   -67332   -67294 
  -67259   -67227   -67194   -67166   -67146   -67127   -67109   -67095 
  -67081   -67069   -67053   -67027   -66989   -66945   -66892   -66837 
  -66789   -66748   -66712   -66685   -66657   -66623   -66586   -66545 
  -66505   -66468   -66444   -66436   -66437   -66449   -66476   -66506 
  -66533   -66567   -66609   -66649   -66692   -66742   -66789   -66837 
  -66891   -66949   -67016   -67092   -67173   -67251   -67325   -67389 
  -67439   -67470   -67483   -67487   -67490   -67495   -67508   -67527 
  -67545   -67556   -67556   -67556   -67555   -67552   -67552   -67560 
  -67568   -67576   -67586   -67610   -67641   -67676   -67717   -67763 
  -67803   -67837   -67865   -67883   -67890   -67886   -67872   -67845 
  -67809   -67764   -67716   -67657   -67590   -67518   -67451   -67386 
  -67327   -67273   -67220   -67167   -67116   -67059   -66996   -66928 
  -66862   -66800   -66749   -66704   -66671   -66652   -66641   -66634 
  -66637   -66649   -66661   -66677   -66698   -66725   -66764   -66814 
  -66873   -66941   -67012   -67078   -67128   -67170   -67209   -67242 
  -67270   -67298   -67324   -67346   -67359   -67359   -67343   -67308 
  -67266   -67217   -67165   -67111   -67055   -67000   -66951   -66914 
  -66884   -66862   -66846   -66829   -66814   -66807   -66807   -66812 
  -66831   -66858   -66893   -66939   -66997   -67065   -67146   -67230 
  -67311   -67383   -67437   -67474   -67498   -67514   -67524   -67541 
  -67560   -67568   -67564   -67545   -67509   -67459   -67406   -67356 
  -67311   -67273   -67235   -67198   -67161   -67116   -67069   -67028 
  -66988   -66947   -66915   -66893   -66883   -66883   -66891   -66901 
  -66901   -66888   -66866   -66843   -66827   -66822   -66825   -66838 
  -66860   -66887   -66916   -66954   -66996   -67038   -67080   -67119 
  -67154   -67193   -67235   -67278   -67320   -67358   -67385   -67405 
  -67420   -67431   -67441   -67450   -67446   -67433   -67413   -67385 
  -67350   -67309   -67269   -67230   -67196   -67165   -67128   -67093 
  -67069   -67050   -67035   -67024   -67022   -67023   -67028   -67045 
  -67063   -67077   -67090   -67107   -67120   -67132   -67147   -67158 
  -67170   -67182   -67193   -67205   -67215   -67223   -67235   -67242 
  -67240   -67234   -67221   -67205   -67192   -67180   -67171   -67169 
  -67163   -67155   -67149   -67142   -67136   -67134   -67132   -67132 
  -67138   -67140   -67140   -67142   -67143   -67142   -67136   -67127 
  -67112   -67097   -67088   -67086   -67096   -67116   -67138   -67154 
  -67169   -67180   -67190   -67203   -67217   -67244   -67282   -67321 
  -67359   -67401   -67444   -67482   -67513   -67544   -67571   -67589 
  -67599   -67603   -67602   -67594   -67587   -67585   -67576   -67564 
  -67556   -67543   -67525   -67509   -67494   -67479   -67468   -67455 
  -67443   -67433   -67423   -67412   -67406   -67401   -67390   -67375 
  -67358   -67336   -67316   -67300   -67285   -67277   -67269   -67257 
  -67246   -67232   -67213   -67188   -67158   -67124   -67092   -67066 
  -67042   -67015   -66984   -66947   -66910   -66872   -66841   -66820 
  -66811   -66808   -66815   -66823   -66826   -66829   -66833   -66835 
  -66842   -66845   -66843   -66838   -66834   -66830   -66830   -66833 
  -66837   -66847   -66864   -66880   -66900   -66923   -66947   -66969 
  -66991   -67012   -67036   -67065   -67095   -67123   -67151   -67181 
  -67209   -67240   -67273   -67308   -67347   -67385   -67410   -67431 
  -67451   -67470   -67487   -67514   -67545   -67575   -67608   -67639 
  -67662   -67678   -67689   -67695   -67699   -67701   -67694   -67683 
  -67668   -67652   -67633   -67608   -67579   -67551   -67524   -67495 
  -67463   -67436   -67416   -67394   -67374   -67360   -67350   -67342 
  -67329   -67313   -67301   -67288   -67277   -67269   -67261   -67250 
  -67240   -67231   -67215   -67193   -67173   -67162   -67158   -67154 
  -67154   -67157   -67151   -67139   -67124   -67104   -67080   -67054 
  -67028   -67007   -66982   -66951   -66922   -66892   -66861   -66839 
  -66826   -66815   -66811   -66814   -66820   -66830   -66841   -66856 
  -66873   -66887   -66903   -66919   -66931   -66943   -66955   -66968 
  -66982   -67004   -67028   -67054   -67076   -67089   -67099   -67105 
  -67111   -67119   -67131   -67143   -67155   -67173   -67192   -67209 
  -67225   -67246   -67266   -67284   -67302   -67323   -67343   -67363 
  -67383   -67401   -67414   -67429   -67448   -67470   -67493   -67520 
  -67551   -67578   -67598   -67610   -67618   -67617   -67606   -67591 
  -67568   -67531   -67481   -67427   -67366   -67304   -67244   -67185 
  -67127   -67072   -67020   -66977   -66943   -66922   -66912   -66918 
  -66928   -66939   -66951   -66962   -66968   -66973   -66980   -66989 
  -67003   -67015   -67035   -67063   -67089   -67111   -67134   -67162 
  -67189   -67220   -67251   -67278   -67300   -67316   -67320   -67313 
  -67298   -67274   -67239   -67198   -67155   -67109   -67063   -67023 
  -66991   -66966   -66951   -66947   -66947   -66946   -66946   -66950 
  -66955   -66961   -66973   -66985   -66992   -66997   -67003   -67005 
  -67004   -67001   -66997   -66995   -66995   -66997   -67001   -67008 
  -67012   -67015   -67019   -67019   -67022   -67031   -67036   -67041 
  -67050   -67055   -67050   -67043   -67038   -67034   -67030   -67028 
  -67030   -67034   -67047   -67069   -67095   -67128   -67169   -67209 
  -67250   -67286   -67321   -67354   -67387   -67417   -67441   -67456 
  -67462   -67456   -67444   -67427   -67406   -67390   -67375   -67356 
  -67335   -67313   -67286   -67261   -67246   -67234   -67223   -67215 
  -67211   -67215   -67221   -67231   -67240   -67255   -67271   -67292 
  -67320   -67358   -67398   -67443   -67491   -67539   -67587   -67636 
  -67678   -67711   -67744   -67765   -67771   -67763   -67751   -67729 
  -67701   -67670   -67628   -67576   -67521   -67464   -67408   -67358 
  -67317   -67286   -67259   -67231   -67203   -67176   -67149   -67124 
  -67109   -67103   -67100   -67099   -67099   -67099   -67096   -67088 
