Origin Time       2025/06/03 22:18:00
Lat.              41.7
Long.             143.6
Depth. (km)       30
Mag.              5.2
Station Code      HDKH01
Station Lat.      42.7031
Station Long.     142.2296
Station Height(m) -18
Record Time       2025/06/03 22:19:13
Sampling Freq(Hz) 100Hz
Duration Time(s)  120
Dir.              2
Scale Factor      2942(gal)/8224139
Max. Acc. (gal)   0.306
Last Correction   2025/06/03 22:19:15
Memo.             
[...]
  130936   130927   130923   130927   130940   130956   130977   130999 
  131018   131037   131052   131060   131070   131086   131107   131134 
  131161   131183   131201   131209   131213   131213   131203   131190 
  131176   131153   131133   131117   131094   131075   131063   131055 
  131051   131047   131043   131041   131043   131044   131049   131056 
  131064   131067   131066   131063   131056   131048   131041   131035 
  131025   131017   131006   130993   130981   130967   130954   130935 
  130923   130916   130916   130928   130945   130963   130981   130990 
  130991   130995   131002   131010   131020   131031   131048   131071 
  131094   131116   131140   131160   131178   131201   131222   131242 
  131257   131265   131268   131264   131251   131232   131207   131174 
  131139   131106   131074   131052   131043   131041   131045   131052 
  131062   131071   131080   131090   131099   131110   131117   131120 
  131116   131103   131085   131060   131037   131014   130995   130986 
  130982   130979   130982   130983   130985   130989   130989   130987 
  130989   130983   130972   130963   130954   130945   130945   130951 
  130959   130966   130971   130977   130979   130986   130995   130999 
  131002   131006   131006   131008   131012   131017   131022   131031 
  131040   131051   131062   131072   131078   131079   131082   131080 
  131080   131080   131080   131090   131099   131107   131120   131132 
  131143   131148   131149   131143   131136   131132   131125   131112 
  131099   131086   131071   131064   131064   131067   131075   131087 
  131090   131085   131078   131062   131039   131012   130986   130966 
  130958   130959   130962   130962   130962   130959   130956   130959 
  130971   130987   131005   131025   131048   131070   131093   131114 
  131130   131139   131143   131141   131133   131120   131106   131094 
  131080   131070   131066   131070   131082   131098   131116   131129 
  131141   131156   131166   131170   131174   131178   131182   131183 
  131180   131174   131164   131151   131132   131112   131093   131076 
  131066   131064   131068   131076   131091   131116   131137   131155 
  131172   131179   131176   131170   131153   131132   131110   131086 
  131062   131040   131018   131001   130989   130975   130966   130959 
  130955   130955   130958   130963   130977   130991   131006   131017 
  131020   131014   131004   130989   130967   130941   130918   130905 
  130905   130912   130928   130956   130987   131013   131039   131064 
  131087   131113   131139   131159   131176   131190   131197   131201 
  131206   131209   131209   131209   131207   131203   131199   131194 
  131187   131182   131172   131157   131139   131118   131099   131082 
  131063   131045   131029   131017   131012   131009   131002   130995 
  130989   130981   130971   130963   130959   130956   130955   130954 
  130950   130943   130932   130916   130900   130885   130870   130856 
  130850   130844   130840   130836   130835   130842   130855   130870 
  130887   130909   130933   130955   130974   130990   130999   131002 
  131005   131001   130995   130994   130999   131009   131024   131040 
  131060   131080   131102   131124   131145   131161   131171   131176 
  131178   131178   131179   131178   131171   131163   131152   131139 
  131124   131116   131112   131110   131106   131099   131097   131095 
  131095   131097   131095   131089   131085   131086   131087   131090 
  131089   131082   131070   131049   131024   130999   130977   130963 
  130958   130955   130954   130956   130956   130958   130958   130962 
  130967   130978   130991   131008   131025   131043   131055   131063 
  131071   131072   131072   131074   131071   131064   131063   131066 
  131062   131055   131049   131043   131044   131060   131076   131095 
  131121   131143   131161   131180   131194   131198   131195   131187 
  131179   131174   131175   131187   131198   131203   131207   131209 
  131211   131217   131218   131221   131228   131238   131244   131244 
  131240   131232   131220   131209   131198   131187   131176   131161 
  131147   131136   131124   131113   131109   131109   131117   131132 
  131147   131161   131167   131159   131151   131140   131120   131103 
  131090   131080   131075   131078   131078   131076   131072   131058 
  131037   131020   131001   130978   130959   130940   130921   130906 
  130897   130887   130879   130873   130869   130870   130878   130890 
  130901   130910   130920   130921   130909   130894   130882   130867 
  130851   130839   130837   130840   130847   130854   130854   130848 
  130847   130851   130860   130878   130904   130936   130968   130998 
  131021   131035   131041   131049   131063   131079   131099   131118 
  131130   131136   131134   131128   131117   131109   131105   131109 
  131124   131143   131161   131180   131194   131194   131187   131175 
  131159   131145   131132   131117   131107   131101   131090   131078 
  131068   131059   131053   131055   131060   131068   131078   131086 
  131089   131082   131074   131063   131047   131033   131022   131009 
  130993   130982   130974   130966   130962   130956   130958   130966 
  130974   130982   130997   131014   131033   131055   131074   131087 
  131097   131102   131101   131098   131093   131087   131083   131076 
  131068   131060   131053   131055   131064   131076   131089   131106 
  131124   131134   131145   131152   131149   131145   131147   131145 
  131140   131134   131129   131116   131103   131101   131099   131097 
  131099   131105   131101   131087   131074   131064   131049   131037 
  131031   131020   131009   131005   131006   131013   131028   131044 
  131059   131067   131074   131078   131074   131066   131058   131045 
  131037   131028   131017   131010   131006   131001   130995   130990 
  130989   130989   130989   130991   130997   130999   131004   131009 
  131016   131024   131033   131041   131053   131067   131082   131102 
  131121   131132   131137   131134   131125   131114   131109   131109 
  131114   131124   131137   131152   131161   131167   131174   131175 
  131167   131159   131147   131125   131106   131089   131070   131053 
  131041   131029   131020   131013   131006   130997   130990   130983 
  130974   130960   130947   130933   130924   130923   130923   130927 
  130932   130937   130944   130952   130958   130960   130958   130954 
  130951   130955   130968   130982   130993   131002   131004   131002 
  130997   130989   130979   130970   130967   130972   130982   130997 
  131010   131017   131020   131016   131012   131009   131006   131002 
  130998   130997   131005   131017   131031   131047   131059   131068 
  131080   131097   131120   131144   131168   131193   131213   131224 
  131229   131233   131236   131242   131251   131253   131252   131251 
  131247   131242   131237   131228   131222   131220   131220   131221 
  131220   131215   131206   131195   131182   131161   131137   131114 
  131089   131062   131036   131013   130994   130990   130995   131010 
  131035   131066   131094   131120   131141   131155   131161   131164 
  131168   131175   131180   131186   131193   131198   131202   131201 
  131194   131188   131182   131166   131147   131128   131112   131094 
  131075   131056   131036   131012   130989   130968   130948   130933 
  130924   130916   130913   130916   130924   130935   130945   130955 
  130960   130959   130954   130945   130932   130914   130896   130873 
  130855   130840   130827   130816   130808   130804   130806   130812 
  130824   130836   130846   130858   130871   130882   130891   130908 
  130928   130947   130967   130982   130991   130997   130999   130998 
  130995   130991   130986   130981   130979   130989   131010   131035 
  131058   131080   131102   131118   131128   131133   131132   131130 
  131129   131128   131129   131140   131155   131167   131183   131199 
  131213   131224   131233   131234   131229   131213   131186   131159 
  131132   131103   131079   131062   131049   131040   131036   131039 
  131045   131052   131059   131063   131068   131078   131086   131094 
  131103   131113   131125   131139   131152   131168   131180   131186 
  131184   131175   131156   131132   131105   131078   131052   131031 
  131014   131006   131008   131016   131021   131028   131037   131043 
  131048   131051   131049   131047   131041   131032   131024   131016 
  130998   130978   130958   130936   130912   130893   130881   130877 
  130882   130890   130897   130904   130904   130893   130879   130862 
  130840   130821   130808   130792   130774   130761   130754   130748 
  130742   130736   130731   130723   130717   130717   130724   130728 
  130731   130736   130746   130758   130773   130793   130817   130833 
  130846   130856   130863   130862   130858   130850   130843   130846 
  130854   130869   130890   130918   130947   130978   131009   131037 
  131066   131095   131121   131143   131166   131184   131202   131215 
  131222   131228   131228   131226   131225   131220   131213   131210 
  131210   131214   131220   131222   131229   131236   131240   131238 
  131230   131221   131211   131203   131197   131187   131179   131171 
  131161   131155   131151   131149   131153   131163   131176   131190 
  131205   131221   131237   131252   131260   131269   131286   131295 
  131302   131310   131315   131322   131330   131338   131345   131346 
  131349   131357   131367   131379   131396   131413   131425   131434 
  131445   131450   131452   131449   131442   131438   131431   131422 
  131415   131414   131418   131429   131442   131450   131456   131463 
  131464   131453   131440   131429   131414   131406   131407   131407 
  131411   131425   131437   131444   131449   131448   131441   131431 
  131425   131419   131414   131407   131395   131377   131360   131340 
  131315   131292   131275   131261   131252   131251   131247   131242 
  131244   131237   131224   131207   131184   131155   131122   131089 
  131053   131020   130991   130970   130956   130948   130948   130956 
  130970   130978   130981   130986   130990   130985   130977   130967 
  130958   130947   130933   130914   130893   130871   130850   130824 
  130801   130781   130765   130750   130735   130720   130709   130700 
  130690   130684   130677   130669   130663   130661   130659   130654 
  130650   130644   130636   130628   130623   130608   130589   130570 
  130550   130531   130515   130507   130501   130504   130515   130530 
  130549   130577   130604   130627   130646   130659   130669   130671 
  130667   130665   130665   130661   130661   130663   130665   130669 
  130670   130671   130675   130680   130685   130692   130694   130701 
  130709   130719   130735   130755   130777   130802   130837   130878 
  130917   130954   130993   131032   131067   131099   131132   131161 
  131182   131199   131220   131236   131248   131256   131255   131249 
  131240   131226   131215   131210   131207   131209   131215   131228 
  131244   131263   131279   131298   131319   131338   131356   131365 
  131369   131369   131363   131356   131345   131326   131306   131287 
  131269   131253   131230   131207   131186   131163   131141   131118 
  131097   131076   131052   131025   130995   130958   130914   130871 
  130829   130786   130746   130719   130697   130680   130669   130659 
  130653   130650   130647   130644   130650   130666   130692   130724 
  130759   130798   130842   130881   130914   130947   130974   130995 
  131009   131018   131025   131035   131049   131068   131093   131129 
  131178   131233   131291   131346   131390   131417   131430   131425 
  131402   131372   131342   131315   131295   131290   131292   131302 
  131314   131318   131314   131303   131287   131267   131234   131195 
  131159   131124   131090   131060   131033   131009   130989   130968 
  130951   130933   130918   130909   130904   130910   130932   130964 
  131012   131074   131144   131221   131296   131360   131407   131431 
  131433   131410   131369   131314   131247   131179   131122   131079 
  131053   131044   131048   131064   131086   131110   131134   131157 
  131180   131190   131187   131175   131147   131107   131068   131028 
  130990   130959   130931   130900   130871   130843   130816   130800 
  130794   130798   130815   130832   130854   130877   130900   130921 
  130937   130947   130950   130952   130956   130963   130977   130998 
  131020   131052   131095   131140   131190   131242   131290   131341 
  131391   131438   131494   131552   131608   131658   131704   131741 
  131757   131750   131726   131679   131623   131569   131512   131467 
  131434   131407   131388   131369   131349   131330   131302   131268 
  131236   131198   131157   131118   131075   131031   130994   130963 
  130935   130912   130893   130871   130844   130812   130778   130738 
  130689   130635   130582   130539   130500   130469   130447   130431 
  130424   130430   130437   130443   130449   130449   130450   130453 
  130465   130500   130549   130607   130678   130755   130824   130877 
  130917   130943   130950   130943   130925   130902   130881   130856 
  130831   130806   130779   130756   130742   130739   130759   130798 
  130851   130912   130972   131032   131090   131139   131174   131206 
  131233   131259   131290   131332   131384   131444   131507   131575 
  131643   131707   131769   131823   131866   131897   131911   131908 
  131889   131861   131826   131788   131753   131726   131703   131688 
  131676   131657   131631   131599   131556   131507   131458   131414 
  131377   131352   131336   131323   131313   131299   131279   131253 
  131228   131210   131195   131179   131163   131143   131114   131074 
  131021   130962   130901   130840   130788   130752   130739   130738 
  130746   130758   130765   130761   130751   130735   130708   130669 
  130632   130603   130577   130565   130574   130600   130636   130685 
  130746   130809   130867   130912   130943   130950   130932   130898 
  130851   130797   130739   130674   130609   130547   130486   130431 
  130392   130372   130365   130374   130400   130435   130477   130532 
  130588   130644   130704   130758   130812   130864   130906   130943 
  130972   130995   131010   131018   131021   131021   131025   131037 
  131056   131086   131128   131176   131225   131269   131305   131332 
  131349   131360   131367   131367   131364   131365   131367   131372 
  131388   131414   131449   131496   131548   131598   131637   131660 
  131657   131633   131593   131544   131484   131426   131373   131328 
  131288   131260   131242   131233   131230   131228   131217   131199 
  131180   131153   131122   131091   131060   131033   131012   130994 
  130983   130977   130975   130979   130985   130986   130977   130954 
  130920   130882   130843   130805   130777   130754   130742   130740 
  130740   130738   130735   130724   130708   130689   130674   130670 
  130678   130696   130728   130767   130809   130844   130870   130889 
  130893   130877   130844   130802   130752   130700   130654   130630 
  130626   130646   130697   130767   130846   130936   131026   131110 
  131190   131265   131326   131371   131400   131413   131406   131384 
  131348   131295   131236   131172   131113   131055   130994   130941 
  130902   130873   130854   130850   130856   130873   130898   130933 
  130975   131020   131056   131082   131093   131079   131051   131008 
  130954   130893   130833   130775   130716   130659   130611   130566 
  130531   130509   130501   130509   130532   130572   130627   130698 
  130781   130874   130964   131055   131143   131220   131286   131340 
  131376   131394   131398   131391   131380   131373   131377   131391 
  131415   131446   131477   131508   131533   131544   131552   131560 
  131569   131579   131595   131610   131629   131649   131668   131680 
  131684   131683   131672   131646   131608   131566   131518   131461 
  131403   131344   131283   131226   131175   131130   131087   131045 
  131006   130967   130932   130905   130890   130890   130906   130941 
  130993   131055   131118   131182   131244   131299   131342   131382 
  131407   131414   131407   131388   131346   131290   131229   131161 
  131091   131029   130978   130944   130931   130936   130959   130998 
  131047   131105   131168   131229   131280   131318   131336   131336 
  131318   131283   131233   131178   131121   131066   131014   130968 
  130931   130897   130871   130858   130855   130862   130873   130882 
  130889   130890   130882   130862   130831   130789   130742   130692 
  130639   130590   130545   130500   130455   130411   130374   130347 
  130327   130319   130322   130338   130366   130405   130454   130508 
  130563   130627   130698   130769   130839   130910   130974   131032 
  131083   131132   131184   131240   131298   131365   131437   131511 
  131588   131660   131722   131777   131823   131857   131880   131896 
  131907   131911   131909   131900   131884   131859   131828   131795 
  131750   131693   131629   131557   131480   131409   131345   131284 
  131226   131175   131134   131098   131062   131032   131004   130971 
  130940   130905   130863   130824   130790   130762   130738   130716 
  130697   130677   130659   130646   130628   130608   130581   130546 
  130507   130461   130415   130378   130349   130331   130327   130331 
  130346   130365   130383   130399   130412   130422   130435   130449 
  130465   130492   130523   130547   130567   130584   130592   130593 
  130590   130592   130597   130611   130631   130658   130689   130729 
  130774   130819   130862   130909   130954   130999   131041   131074 
  131099   131121   131133   131144   131155   131161   131166   131170 
  131175   131180   131183   131186   131188   131190   131188   131186 
  131183   131176   131170   131168   131170   131174   131176   131180 
  131191   131201   131210   131218   131225   131230   131233   131236 
  131240   131244   131249   131260   131276   131299   131330   131369 
  131415   131457   131496   131529   131557   131577   131589   131596 
  131602   131602   131589   131568   131539   131503   131460   131418 
  131373   131333   131301   131275   131259   131252   131257   131272 
  131294   131319   131349   131383   131422   131465   131508   131548 
  131585   131615   131635   131646   131639   131615   131576   131522 
  131457   131387   131313   131237   131168   131106   131053   131012 
  130981   130960   130951   130950   130958   130971   130987   131005 
  131020   131036   131048   131059   131067   131071   131067   131056 
  131043   131022   130993   130960   130927   130893   130858   130825 
  130793   130765   130738   130709   130684   130663   130646   130634 
  130634   130640   130653   130673   130694   130716   130736   130758 
  130782   130805   130825   130843   130860   130875   130887   130893 
  130891   130878   130848   130810   130773   130732   130693   130663 
  130648   130644   130650   130667   130692   130717   130750   130793 
  130837   130889   130943   130986   131018   131043   131058   131064 
  131070   131074   131082   131091   131103   131117   131125   131129 
