Origin Time       2025/06/03 22:18:00
Lat.              41.7
Long.             143.6
Depth. (km)       30
Mag.              5.2
Station Code      HDKH04
Station Lat.      42.5126
Station Long.     142.0381
Station Height(m) -210
Record Time       2025/06/03 22:19:15
Sampling Freq(Hz) 100Hz
Duration Time(s)  120
Dir.              2
Scale Factor      2942(gal)/8224139
Max. Acc. (gal)   0.321
Last Correction   2025/06/03 22:19:16
Memo.             
[...]
  102971   102953   102946   102951   102959   102963   102963   102960 
  102959   102953   102946   102942   102929   102909   102894   102876 
  102849   102818   102780   102732   102683   102637   102593   102551 
  102512   102478   102450   102425   102408   102398   102402   102417 
  102425   102424   102423   102425   102423   102421   102429   102442 
  102458   102486   102521   102564   102614   102664   102713   102762 
  102811   102864   102918   102964   103000   103030   103050   103065 
  103073   103075   103071   103064   103052   103033   103013   102991 
  102969   102952   102937   102925   102917   102910   102894   102870 
  102841   102811   102786   102770   102760   102756   102749   102735 
  102722   102712   102690   102656   102608   102546   102485   102438 
  102398   102355   102315   102276   102231   102186   102153   102130 
  102118   102114   102112   102109   102114   102124   102138   102155 
  102182   102219   102262   102308   102359   102419   102486   102564 
  102654   102745   102840   102932   103018   103100   103180   103258 
  103324   103378   103424   103455   103478   103496   103501   103499 
  103488   103462   103420   103369   103306   103238   103165   103091 
  103029   102973   102918   102868   102822   102778   102740   102710 
  102691   102690   102699   102724   102767   102821   102890   102972 
  103054   103134   103206   103262   103302   103329   103343   103343 
  103322   103280   103226   103162   103092   103021   102956   102894 
  102829   102766   102706   102641   102578   102520   102460   102402 
  102350   102298   102251   102213   102192   102185   102193   102209 
  102235   102265   102292   102316   102338   102358   102385   102425 
  102473   102521   102577   102636   102694   102748   102787   102814 
  102838   102859   102882   102915   102955   102991   103023   103052 
  103065   103063   103040   102999   102949   102897   102838   102780 
  102730   102687   102655   102632   102612   102594   102583   102577 
  102575   102583   102606   102639   102679   102728   102780   102829 
  102868   102898   102918   102926   102926   102932   102940   102951 
  102973   103006   103046   103096   103149   103194   103226   103242 
  103242   103225   103192   103146   103096   103053   103019   102991 
  102964   102942   102918   102891   102864   102844   102830   102818 
  102809   102803   102801   102805   102820   102840   102864   102891 
  102910   102928   102946   102959   102964   102971   102971   102959 
  102946   102937   102929   102928   102938   102951   102967   102983 
  102992   103002   103013   103014   103010   103002   102980   102945 
  102899   102844   102791   102748   102729   102730   102748   102775 
  102811   102852   102891   102926   102956   102980   102999   103018 
  103042   103077   103134   103210   103292   103380   103466   103542 
  103599   103631   103636   103611   103557   103478   103389   103300 
  103215   103138   103068   103009   102957   102906   102856   102801 
  102735   102666   102604   102547   102498   102469   102458   102465 
  102487   102525   102570   102618   102667   102732   102807   102882 
  102957   103034   103106   103173   103234   103280   103312   103331 
  103333   103322   103303   103277   103243   103204   103164   103119 
  103077   103046   103025   103007   102994   102982   102969   102956 
  102942   102933   102932   102930   102919   102894   102857   102810 
  102749   102678   102610   102552   102508   102490   102496   102516 
  102551   102591   102627   102659   102686   102701   102705   102698 
  102689   102686   102687   102695   102717   102749   102787   102821 
  102851   102871   102884   102890   102874   102840   102805   102763 
  102720   102686   102663   102651   102652   102671   102705   102747 
  102786   102817   102840   102853   102855   102845   102832   102820 
  102816   102813   102810   102811   102811   102797   102772   102739 
  102691   102635   102577   102524   102482   102459   102455   102470 
  102498   102535   102567   102595   102614   102622   102627   102632 
  102639   102651   102670   102694   102717   102744   102767   102780 
  102789   102799   102809   102816   102820   102820   102821   102821 
  102820   102822   102825   102828   102834   102848   102870   102892 
  102915   102936   102946   102940   102915   102876   102821   102762 
  102702   102640   102579   102525   102474   102428   102401   102390 
  102400   102428   102471   102520   102567   102616   102663   102712 
  102764   102818   102875   102932   102984   103034   103080   103117 
  103142   103160   103169   103171   103168   103164   103158   103157 
  103153   103142   103121   103081   103033   102986   102946   102922 
  102913   102921   102953   102998   103045   103090   103127   103153 
  103162   103154   103130   103098   103057   103013   102969   102930 
  102899   102870   102837   102799   102753   102713   102682   102660 
  102655   102667   102697   102739   102775   102805   102833   102855 
  102864   102859   102848   102836   102832   102845   102872   102905 
  102937   102960   102967   102957   102932   102901   102870   102836 
  102801   102766   102735   102716   102714   102728   102751   102787 
  102833   102879   102921   102956   102986   103007   103015   103007 
  102979   102936   102882   102822   102768   102729   102708   102708 
  102730   102775   102826   102865   102888   102901   102901   102890 
  102872   102847   102822   102811   102818   102838   102865   102899 
  102936   102969   103006   103045   103081   103106   103117   103119 
  103107   103081   103041   102984   102915   102840   102759   102670 
  102589   102524   102475   102452   102456   102479   102512   102546 
  102578   102606   102631   102647   102659   102668   102675   102679 
  102674   102666   102662   102668   102687   102725   102782   102845 
  102914   102987   103053   103108   103160   103206   103242   103264 
  103268   103261   103246   103226   103200   103172   103140   103104 
  103071   103038   103005   102979   102960   102945   102938   102937 
  102940   102949   102968   102996   103032   103073   103115   103154 
  103189   103212   103227   103243   103256   103262   103269   103270 
  103264   103252   103239   103225   103203   103177   103154   103125 
  103091   103057   103014   102964   102914   102864   102821   102783 
  102751   102726   102722   102735   102756   102787   102817   102838 
  102856   102868   102875   102883   102894   102910   102933   102957 
  102987   103018   103050   103086   103117   103140   103156   103171 
  103187   103206   103227   103254   103285   103312   103329   103326 
  103306   103270   103219   103154   103084   103011   102942   102883 
  102832   102789   102752   102724   102702   102687   102671   102659 
  102647   102637   102624   102605   102585   102571   102566   102560 
  102555   102558   102563   102564   102566   102562   102554   102547 
  102547   102554   102563   102564   102560   102551   102532   102508 
  102485   102463   102443   102429   102427   102432   102446   102465 
  102483   102497   102502   102501   102496   102498   102512   102532 
  102564   102609   102654   102691   102724   102751   102772   102786 
  102803   102833   102874   102922   102975   103025   103061   103091 
  103121   103150   103176   103199   103207   103196   103175   103145 
  103110   103075   103041   103010   102983   102967   102963   102963 
  102964   102964   102959   102948   102933   102907   102868   102825 
  102782   102740   102698   102658   102620   102586   102562   102546 
  102539   102543   102551   102560   102579   102606   102640   102685 
  102740   102806   102871   102934   102994   103044   103080   103106 
  103126   103138   103141   103134   103122   103110   103098   103088 
  103084   103087   103094   103108   103129   103153   103173   103183 
  103177   103158   103126   103079   103029   102979   102929   102887 
  102859   102848   102848   102851   102849   102847   102840   102828 
  102816   102801   102779   102755   102733   102709   102682   102649 
  102616   102585   102563   102551   102548   102554   102577   102602 
  102622   102648   102676   102712   102762   102821   102886   102952 
  103009   103056   103088   103104   103104   103090   103073   103054 
  103033   103019   103018   103017   103017   103018   103013   102999 
  102984   102963   102942   102921   102888   102855   102814   102768 
  102726   102693   102664   102648   102636   102629   102627   102632 
  102652   102681   102710   102741   102762   102771   102789   102813 
  102838   102860   102872   102874   102863   102845   102829   102811 
  102791   102764   102722   102671   102618   102566   102521   102487 
  102459   102435   102417   102411   102416   102431   102455   102482 
  102508   102535   102552   102560   102566   102570   102575   102587 
  102605   102621   102639   102658   102678   102697   102718   102741 
  102755   102757   102752   102735   102708   102671   102624   102573 
  102525   102485   102450   102420   102394   102371   102355   102342 
  102332   102330   102321   102300   102276   102258   102249   102250 
  102262   102293   102339   102392   102452   102521   102591   102655 
  102717   102782   102848   102913   102978   103041   103098   103142 
  103176   103204   103233   103261   103288   103318   103343   103364 
  103383   103408   103432   103449   103459   103454   103427   103389 
  103343   103289   103233   103176   103118   103056   102995   102941 
  102895   102861   102847   102855   102887   102933   102982   103032 
  103076   103111   103135   103156   103171   103189   103208   103225 
  103239   103260   103283   103300   103316   103334   103357   103376 
  103383   103387   103385   103370   103347   103318   103276   103234 
  103199   103172   103154   103144   103135   103134   103137   103133 
  103126   103114   103091   103061   103026   102988   102959   102934 
  102910   102884   102864   102843   102817   102801   102795   102794 
  102801   102816   102833   102848   102868   102890   102913   102941 
  102968   102983   102994   103003   103018   103042   103075   103106 
  103130   103142   103145   103134   103115   103090   103056   103019 
  102992   102978   102964   102951   102942   102936   102928   102919 
  102909   102888   102860   102833   102816   102818   102840   102876 
  102924   102973   103014   103036   103042   103041   103033   103013 
  102987   102968   102946   102921   102891   102856   102820   102776 
  102722   102666   102608   102551   102505   102469   102440   102425 
  102419   102419   102420   102425   102433   102444   102459   102475 
  102489   102505   102528   102558   102595   102637   102687   102744 
  102802   102861   102921   102979   103029   103073   103111   103137 
  103153   103160   103156   103142   103122   103096   103068   103042 
  103018   102995   102972   102944   102909   102867   102820   102770 
  102716   102662   102613   102567   102532   102509   102486   102466 
  102455   102452   102460   102477   102494   102513   102528   102539 
  102547   102554   102559   102559   102558   102562   102571   102586 
  102606   102631   102651   102667   102685   102706   102732   102762 
  102790   102811   102828   102844   102855   102861   102870   102870 
  102860   102848   102828   102805   102790   102779   102774   102770 
  102770   102774   102780   102795   102822   102860   102909   102968 
  103033   103094   103148   103203   103257   103306   103349   103388 
  103420   103443   103454   103455   103447   103437   103420   103399 
  103373   103354   103337   103319   103304   103291   103277   103266 
  103249   103221   103188   103152   103113   103071   103027   102987 
  102952   102924   102901   102878   102857   102840   102817   102790 
  102770   102755   102745   102739   102739   102744   102753   102757 
  102755   102743   102722   102698   102675   102658   102647   102648 
  102656   102672   102699   102736   102778   102825   102876   102929 
  102982   103029   103071   103102   103119   103126   103119   103100 
  103071   103030   102979   102926   102875   102824   102772   102721 
  102679   102637   102594   102556   102514   102475   102444   102413 
  102379   102352   102331   102317   102316   102325   102342   102358 
  102377   102404   102432   102455   102477   102497   102506   102513 
  102520   102525   102533   102544   102550   102548   102539   102531 
  102524   102520   102514   102514   102523   102539   102562   102585 
  102600   102608   102609   102608   102602   102597   102591   102579 
  102563   102548   102541   102548   102567   102605   102663   102730 
  102801   102871   102938   102995   103040   103076   103108   103135 
  103158   103173   103175   103165   103148   103121   103087   103042 
  102991   102940   102887   102836   102790   102745   102699   102654 
  102602   102551   102500   102451   102408   102378   102367   102375 
  102397   102428   102469   102512   102560   102612   102664   102716 
  102767   102817   102870   102926   102979   103023   103060   103094 
  103114   103125   103131   103133   103134   103137   103146   103161 
  103176   103192   103208   103215   103223   103237   103246   103258 
  103284   103316   103357   103407   103458   103501   103546   103585 
  103624   103667   103708   103736   103754   103758   103748   103734 
  103715   103690   103659   103617   103567   103516   103469   103424 
  103381   103334   103288   103242   103192   103144   103098   103052 
  103009   102968   102936   102917   102902   102883   102863   102834 
  102801   102766   102725   102686   102649   102614   102581   102547 
  102514   102482   102455   102435   102421   102417   102421   102429 
  102444   102469   102504   102539   102566   102590   102614   102640 
  102672   102710   102757   102817   102884   102949   103006   103054 
  103098   103133   103156   103164   103161   103158   103153   103141 
  103121   103091   103049   102996   102941   102894   102851   102814 
  102790   102775   102764   102755   102747   102735   102722   102709 
  102691   102670   102649   102631   102614   102606   102608   102613 
  102622   102632   102635   102636   102644   102651   102660   102675 
  102701   102737   102771   102805   102832   102843   102834   102817 
  102790   102755   102716   102671   102628   102587   102548   102510 
  102481   102454   102429   102412   102401   102401   102412   102429 
  102451   102483   102533   102598   102679   102770   102860   102949 
  103033   103102   103154   103191   103211   103219   103223   103227 
  103227   103222   103214   103203   103194   103180   103160   103138 
  103118   103098   103083   103077   103076   103075   103064   103048 
  103032   103006   102973   102945   102915   102882   102849   102821 
  102791   102760   102737   102718   102693   102667   102645   102618 
  102585   102551   102509   102462   102416   102366   102325   102297 
  102276   102262   102257   102257   102261   102263   102263   102267 
  102278   102297   102324   102357   102397   102444   102492   102535 
  102568   102594   102610   102622   102633   102647   102666   102690 
  102714   102743   102770   102793   102814   102832   102845   102856 
  102867   102882   102899   102919   102944   102973   103000   103027 
  103052   103069   103081   103094   103103   103106   103106   103108 
  103115   103114   103110   103110   103106   103098   103095   103095 
  103096   103103   103113   103121   103133   103153   103175   103194 
  103212   103231   103242   103243   103237   103222   103203   103181 
  103154   103129   103103   103080   103060   103040   103015   102992 
  102973   102959   102946   102940   102940   102940   102937   102932 
  102921   102899   102872   102843   102810   102782   102760   102747 
  102741   102745   102759   102782   102811   102849   102894   102940 
  102983   103025   103068   103106   103142   103183   103226   103265 
  103296   103323   103346   103360   103369   103380   103383   103376 
  103364   103343   103315   103289   103266   103246   103227   103211 
  103196   103191   103192   103194   103191   103183   103167   103137 
  103098   103059   103018   102972   102918   102864   102813   102760 
  102705   102652   102606   102567   102535   102509   102490   102473 
  102463   102465   102470   102478   102487   102496   102504   102514 
  102527   102541   102559   102583   102609   102632   102648   102663 
  102686   102712   102737   102767   102798   102821   102841   102857 
  102861   102857   102844   102821   102790   102752   102712   102674 
  102641   102609   102582   102563   102551   102537   102527   102517 
  102505   102489   102481   102478   102471   102467   102469   102474 
  102489   102510   102533   102566   102604   102645   102691   102736 
  102779   102820   102852   102883   102913   102940   102967   102991 
  103014   103038   103057   103077   103098   103110   103118   103123 
  103122   103117   103107   103088   103061   103029   102991   102955 
  102914   102865   102818   102775   102735   102698   102662   102624 
  102590   102562   102535   102508   102479   102458   102439   102421 
  102401   102385   102379   102386   102404   102435   102475   102517 
  102566   102617   102663   102708   102752   102787   102817   102848 
  102882   102914   102946   102975   102994   103005   103010   103005 
  102996   102992   102992   103000   103017   103040   103064   103084 
  103098   103106   103107   103106   103100   103092   103084   103080 
  103083   103086   103090   103098   103114   103130   103138   103144 
  103145   103142   103137   103130   103125   103122   103119   103114 
  103111   103106   103098   103091   103083   103072   103065   103063 
  103067   103076   103090   103103   103113   103121   103129   103134 
  103131   103125   103115   103104   103095   103081   103069   103057 
  103044   103026   103006   102987   102972   102956   102942   102932 
  102925   102919   102917   102917   102921   102925   102928   102924 
  102919   102911   102891   102871   102853   102828   102806   102791 
  102771   102753   102741   102721   102694   102670   102637   102602 
  102573   102544   102517   102494   102475   102460   102450   102436 
  102425   102423   102423   102425   102432   102438   102443   102455 
  102471   102489   102512   102536   102559   102583   102609   102636 
  102668   102702   102740   102779   102817   102847   102868   102886 
  102901   102906   102909   102911   102911   102915   102919   102925 
  102934   102938   102940   102942   102941   102929   102910   102879 
  102840   102799   102755   102712   102670   102629   102595   102571 
  102548   102528   102509   102496   102487   102481   102479   102482 
  102492   102508   102535   102571   102618   102675   102739   102805 
  102870   102930   102983   103023   103050   103068   103083   103091 
  103098   103106   103114   103122   103125   103122   103119   103110 
  103092   103079   103073   103068   103067   103073   103077   103086 
  103096   103106   103119   103138   103158   103177   103196   103208 
