Origin Time       2025/06/03 22:18:00
Lat.              41.7
Long.             143.6
Depth. (km)       30
Mag.              5.2
Station Code      HDKH01
Station Lat.      42.7031
Station Long.     142.2296
Station Height(m) -18
Record Time       2025/06/03 22:19:13
Sampling Freq(Hz) 100Hz
Duration Time(s)  120
Dir.              3
Scale Factor      2942(gal)/8224139
Max. Acc. (gal)   0.276
Last Correction   2025/06/03 22:19:15
Memo.             
[...]
   32058    32069    32084    32103    32124    32140    32147    32148 
   32154    32167    32188    32213    32235    32235    32219    32198 
   32173    32148    32131    32120    32109    32100    32092    32084 
   32078    32081    32088    32092    32092    32085    32067    32044 
   32024    32008    32001    31999    32001    32007    32012    32011 
   32009    32009    32008    32007    32008    32011    32012    32005 
   31990    31972    31946    31919    31897    31878    31861    31843 
   31828    31812    31795    31781    31770    31772    31781    31799 
   31828    31866    31900    31926    31942    31950    31962    31986 
   32015    32044    32077    32100    32112    32117    32119    32116 
   32116    32123    32134    32142    32144    32143    32139    32139 
   32140    32138    32136    32135    32125    32116    32119    32124 
   32130    32132    32124    32108    32096    32092    32093    32107 
   32125    32138    32142    32135    32127    32127    32138    32155 
   32182    32211    32239    32266    32286    32298    32305    32309 
   32302    32286    32271    32262    32252    32244    32242    32242 
   32242    32232    32213    32189    32167    32154    32150    32152 
   32162    32170    32163    32140    32104    32066    32036    32013 
   31993    31973    31951    31927    31907    31889    31873    31866 
   31873    31887    31903    31919    31931    31945    31959    31978 
   31999    32024    32047    32062    32076    32081    32080    32085 
   32097    32108    32119    32124    32117    32107    32096    32086 
   32086    32092    32100    32100    32088    32063    32035    32011 
   31992    31982    31981    31985    31993    32001    32011    32022 
   32027    32030    32035    32036    32034    32036    32040    32042 
   32046    32047    32043    32039    32035    32024    32011    32001 
   31995    31989    31980    31968    31957    31955    31962    31966 
   31968    31974    31985    31997    32011    32022    32028    32028 
   32027    32032    32044    32063    32086    32108    32124    32134 
   32135    32136    32144    32158    32169    32178    32185    32186 
   32181    32174    32169    32167    32165    32163    32166    32165 
   32158    32154    32144    32134    32132    32136    32146    32157 
   32166    32170    32166    32150    32124    32096    32076    32061 
   32049    32036    32015    31989    31970    31955    31945    31939 
   31941    31949    31962    31974    31978    31978    31977    31969 
   31959    31946    31931    31923    31923    31922    31922    31926 
   31930    31935    31943    31949    31954    31959    31954    31947 
   31942    31936    31943    31966    31985    32000    32017    32030 
   32032    32040    32054    32076    32101    32124    32148    32177 
   32204    32227    32242    32246    32240    32229    32223    32219 
   32211    32198    32182    32157    32119    32082    32051    32022 
   31999    31985    31974    31965    31958    31950    31939    31932 
   31928    31922    31919    31924    31935    31957    31984    31997 
   32001    32000    31993    31984    31982    31993    32011    32030 
   32053    32074    32092    32112    32130    32143    32154    32159 
   32161    32163    32165    32169    32177    32181    32179    32174 
   32162    32146    32130    32113    32097    32074    32051    32027 
   32005    31990    31985    31984    31982    31982    31985    31986 
   31981    31972    31959    31939    31918    31904    31899    31899 
   31904    31915    31923    31932    31949    31969    31985    32004 
   32024    32038    32042    32039    32036    32038    32046    32061 
   32073    32077    32076    32066    32054    32043    32040    32049 
   32065    32080    32092    32100    32098    32088    32085    32093 
   32112    32138    32170    32194    32205    32208    32206    32206 
   32211    32209    32201    32188    32167    32144    32124    32105 
   32090    32078    32066    32054    32049    32047    32049    32049 
   32050    32046    32039    32031    32020    32009    32003    31995 
   31988    31986    31986    31981    31974    31965    31951    31942 
   31943    31955    31972    31990    32012    32035    32050    32061 
   32077    32093    32103    32111    32117    32120    32121    32121 
   32120    32116    32117    32125    32140    32162    32193    32225 
   32252    32271    32278    32274    32266    32258    32252    32252 
   32260    32273    32287    32296    32293    32290    32287    32279 
   32271    32262    32248    32233    32223    32211    32202    32193 
   32177    32158    32136    32115    32108    32111    32112    32115 
   32115    32115    32117    32124    32139    32161    32189    32217 
   32240    32255    32263    32263    32269    32278    32290    32306 
   32320    32328    32328    32320    32305    32283    32256    32225 
   32190    32152    32109    32061    32013    31966    31924    31892 
   31872    31865    31862    31865    31874    31884    31895    31911 
   31931    31951    31965    31973    31977    31982    31997    32016 
   32031    32043    32046    32042    32032    32027    32026    32032 
   32040    32050    32059    32067    32070    32067    32055    32034 
   32012    31993    31973    31954    31936    31923    31912    31897 
   31878    31861    31846    31834    31828    31828    31837    31847 
   31855    31862    31866    31866    31866    31866    31864    31858 
   31855    31855    31849    31841    31842    31850    31861    31873 
   31885    31899    31911    31926    31941    31953    31965    31980 
   31995    32005    32013    32016    32015    32013    32012    32012 
   32011    32008    32001    31996    31995    31996    32000    32008 
   32019    32032    32047    32062    32078    32097    32113    32125 
   32138    32142    32143    32142    32131    32113    32100    32092 
   32085    32077    32071    32066    32053    32038    32027    32016 
   32013    32017    32017    32012    32004    31990    31976    31963 
   31954    31951    31953    31954    31957    31959    31951    31939 
   31927    31919    31915    31915    31918    31918    31907    31887 
   31860    31828    31804    31788    31780    31774    31773    31776 
   31777    31781    31788    31795    31806    31828    31857    31892 
   31930    31965    31999    32027    32051    32071    32085    32098 
   32116    32134    32148    32161    32171    32174    32174    32177 
   32174    32167    32165    32161    32158    32165    32173    32184 
   32193    32198    32201    32202    32205    32213    32225    32242 
   32267    32296    32324    32352    32377    32397    32414    32428 
   32437    32441    32443    32444    32443    32437    32429    32418 
   32406    32389    32359    32328    32308    32289    32271    32260 
   32244    32221    32201    32179    32159    32152    32154    32162 
   32173    32184    32192    32200    32208    32219    32238    32254 
   32263    32263    32251    32235    32216    32200    32189    32177 
   32163    32148    32131    32112    32094    32082    32076    32067 
   32055    32040    32019    31996    31977    31957    31942    31938 
   31930    31911    31885    31851    31812    31774    31737    31703 
   31680    31662    31649    31641    31627    31611    31595    31575 
   31554    31540    31529    31522    31527    31544    31569    31607 
   31650    31696    31749    31808    31866    31923    31978    32032 
   32085    32132    32179    32228    32273    32312    32350    32377 
   32391    32402    32405    32408    32416    32425    32439    32449 
   32456    32458    32451    32437    32427    32416    32405    32397 
   32386    32373    32356    32336    32317    32305    32293    32282 
   32271    32256    32239    32217    32201    32194    32194    32198 
   32198    32185    32163    32143    32124    32109    32100    32093 
   32080    32062    32046    32026    32000    31969    31939    31912 
   31888    31873    31865    31854    31839    31818    31785    31752 
   31725    31711    31702    31689    31677    31665    31650    31633 
   31619    31611    31604    31600    31603    31611    31626    31648 
   31672    31702    31735    31770    31807    31845    31882    31920 
   31959    32009    32065    32115    32169    32229    32285    32335 
   32379    32412    32433    32451    32462    32467    32471    32472 
   32468    32454    32433    32410    32385    32356    32328    32296 
   32258    32219    32182    32148    32121    32103    32088    32069 
   32049    32036    32028    32026    32027    32032    32040    32049 
   32057    32066    32078    32088    32096    32100    32094    32078 
   32059    32040    32023    32011    32007    32011    32019    32030 
   32040    32050    32058    32059    32061    32067    32076    32082 
   32094    32104    32115    32132    32148    32162    32175    32182 
   32175    32158    32132    32104    32077    32051    32027    32000 
   31970    31941    31912    31888    31873    31864    31851    31834 
   31812    31789    31768    31754    31756    31774    31803    31842 
   31888    31934    31985    32043    32104    32166    32231    32294 
   32348    32397    32436    32460    32478    32489    32493    32498 
   32506    32510    32512    32509    32502    32485    32455    32413 
   32364    32310    32252    32198    32147    32096    32051    32011 
   31974    31939    31909    31887    31865    31845    31830    31814 
   31796    31783    31779    31784    31800    31824    31850    31876 
   31905    31928    31943    31961    31984    32008    32028    32046 
   32055    32051    32034    32016    31995    31968    31942    31918 
   31889    31857    31816    31772    31727    31679    31627    31579 
   31531    31486    31455    31437    31433    31442    31465    31488 
   31513    31536    31554    31577    31608    31642    31676    31716 
   31758    31792    31822    31853    31881    31908    31938    31963 
   31984    32001    32011    32012    32015    32016    32015    32016 
   32016    32012    32008    32001    31993    31989    31990    31993 
   31997    32005    32016    32024    32030    32038    32046    32057 
   32069    32081    32101    32131    32159    32184    32211    32243 
   32274    32309    32341    32367    32393    32413    32428    32440 
   32449    32455    32459    32463    32468    32476    32489    32502 
   32513    32521    32529    32532    32536    32543    32543    32540 
   32544    32547    32544    32544    32551    32560    32572    32586 
   32597    32601    32597    32587    32575    32556    32537    32525 
   32520    32521    32525    32533    32544    32552    32560    32567 
   32571    32579    32589    32590    32589    32586    32574    32556 
   32539    32518    32495    32466    32432    32402    32374    32343 
   32313    32286    32254    32217    32177    32128    32071    32015 
   31954    31891    31826    31758    31692    31634    31587    31550 
   31529    31517    31507    31507    31515    31526    31536    31548 
   31558    31564    31568    31569    31576    31595    31619    31639 
   31656    31672    31684    31692    31699    31706    31716    31726 
   31743    31773    31803    31831    31862    31889    31911    31927 
   31938    31943    31939    31924    31901    31872    31837    31804 
   31777    31752    31737    31734    31735    31737    31737    31742 
   31752    31760    31774    31795    31811    31824    31841    31851 
   31864    31882    31903    31922    31950    31984    32022    32061 
   32097    32132    32162    32179    32190    32197    32197    32194 
   32188    32171    32146    32119    32090    32067    32047    32032 
   32028    32032    32036    32047    32065    32086    32111    32140 
   32173    32206    32244    32285    32332    32382    32432    32483 
   32533    32579    32616    32637    32645    32645    32640    32626 
   32609    32597    32583    32564    32541    32510    32471    32422 
   32366    32301    32225    32143    32062    31982    31908    31841 
   31776    31712    31657    31617    31584    31568    31572    31588 
   31615    31650    31684    31715    31745    31770    31789    31810 
   31834    31860    31891    31930    31973    32019    32063    32107 
   32148    32186    32223    32262    32296    32324    32341    32348 
   32347    32336    32316    32290    32262    32238    32215    32192 
   32167    32140    32111    32082    32057    32032    32009    31984 
   31962    31942    31924    31912    31908    31914    31924    31932 
   31938    31936    31924    31911    31900    31887    31870    31861 
   31851    31842    31837    31830    31820    31812    31807    31806 
   31810    31812    31814    31814    31810    31793    31770    31741 
   31706    31668    31633    31602    31579    31563    31552    31552 
   31561    31575    31594    31615    31638    31664    31693    31725 
   31754    31780    31807    31831    31850    31872    31895    31916 
   31942    31974    32009    32038    32058    32073    32082    32082 
   32076    32065    32051    32038    32026    32011    32001    31997 
   31993    31995    32000    32005    32016    32031    32046    32067 
   32092    32115    32146    32185    32224    32266    32310    32354 
   32393    32432    32471    32512    32552    32593    32629    32659 
   32684    32713    32745    32776    32800    32817    32830    32832 
   32822    32810    32790    32763    32733    32698    32655    32609 
   32562    32516    32470    32427    32390    32359    32331    32305 
   32283    32258    32231    32211    32198    32188    32177    32166 
   32150    32132    32119    32108    32103    32101    32100    32097 
   32092    32082    32070    32054    32035    32011    31982    31954 
   31922    31888    31855    31826    31799    31773    31752    31729 
   31703    31683    31665    31652    31648    31649    31652    31657 
   31662    31672    31683    31693    31706    31720    31733    31739 
   31749    31756    31758    31761    31766    31770    31780    31797 
   31820    31849    31881    31916    31951    31982    32009    32031 
   32044    32058    32070    32078    32089    32105    32124    32148 
   32174    32200    32224    32243    32260    32278    32290    32302 
   32316    32323    32324    32317    32309    32297    32281    32266 
   32248    32229    32208    32188    32170    32157    32140    32128 
   32124    32121    32124    32136    32147    32154    32159    32166 
   32171    32177    32185    32193    32202    32209    32215    32215 
   32213    32206    32198    32189    32171    32142    32111    32077 
   32036    31992    31949    31911    31874    31841    31815    31793 
   31773    31753    31731    31716    31710    31711    31720    31734 
   31746    31758    31769    31784    31804    31826    31845    31866 
   31888    31908    31932    31959    31982    32005    32032    32051 
   32069    32089    32107    32117    32128    32136    32136    32128 
   32115    32097    32077    32058    32035    32007    31973    31938 
   31903    31872    31851    31839    31828    31819    31818    31822 
   31830    31842    31858    31876    31897    31918    31939    31965 
   31993    32030    32069    32101    32131    32157    32174    32190 
   32206    32221    32239    32255    32267    32273    32271    32266 
   32252    32235    32216    32193    32167    32143    32111    32077 
   32047    32017    31992    31966    31939    31916    31901    31889 
   31882    31889    31904    31919    31936    31955    31985    32030 
   32086    32147    32204    32255    32302    32341    32377    32409 
   32435    32454    32467    32472    32466    32455    32444    32425 
   32400    32367    32324    32278    32229    32171    32115    32069 
   32026    31984    31951    31927    31911    31904    31907    31916 
   31932    31959    31989    32022    32054    32081    32105    32124 
   32140    32157    32167    32177    32185    32185    32175    32161 
   32142    32123    32104    32081    32062    32044    32031    32022 
   32011    31999    31988    31984    31984    31988    31997    32013 
   32031    32047    32065    32084    32105    32128    32146    32159 
   32166    32162    32154    32140    32125    32105    32082    32062 
   32042    32020    32001    31982    31961    31943    31931    31922 
   31915    31908    31908    31909    31905    31904    31899    31891 
   31891    31893    31891    31889    31885    31872    31853    31837 
   31824    31818    31811    31803    31793    31785    31776    31768 
   31761    31752    31741    31735    31741    31750    31760    31768 
   31779    31793    31808    31828    31858    31891    31924    31958 
   31989    32016    32040    32067    32097    32124    32152    32182 
   32209    32231    32247    32263    32277    32290    32310    32331 
   32347    32359    32370    32378    32381    32382    32386    32385 
   32385    32390    32398    32409    32421    32433    32447    32459 
   32468    32476    32482    32482    32479    32474    32463    32452 
   32440    32424    32409    32400    32389    32375    32360    32341 
   32317    32292    32263    32232    32200    32170    32142    32109 
   32077    32044    32013    31989    31970    31949    31934    31928 
   31923    31923    31927    31928    31931    31934    31930    31926 
   31922    31915    31908    31904    31896    31885    31880    31874 
   31869    31870    31876    31878    31887    31901    31919    31938 
   31959    31984    32007    32027    32044    32059    32071    32081 
   32089    32101    32113    32120    32124    32121    32112    32104 
   32098    32093    32093    32096    32098    32101    32105    32105 
   32103    32098    32093    32092    32089    32082    32076    32073 
   32071    32073    32081    32092    32097    32103    32105    32105 
   32105    32103    32094    32085    32073    32055    32039    32022 
   32004    31985    31965    31942    31926    31912    31904    31904 
   31907    31911    31915    31919    31923    31931    31939    31946 
   31958    31968    31978    31992    32004    32017    32036    32050 
   32055    32050    32043    32034    32022    32004    31986    31970 
   31950    31927    31901    31873    31847    31820    31791    31765 
   31743    31723    31707    31695    31687    31684    31688    31693 
   31699    31708    31719    31733    31753    31770    31787    31807 
   31828    31850    31873    31900    31927    31957    31993    32031 
   32062    32086    32109    32124    32128    32132    32140    32143 
   32140    32135    32127    32115    32101    32086    32076    32069 
   32067    32067    32070    32076    32081    32085    32088    32090 
   32089    32085    32085    32086    32090    32097    32103    32105 
   32111    32117    32121    32125    32132    32140    32152    32166 
   32179    32193    32201    32206    32208    32208    32208    32205 
   32197    32188    32179    32171    32166    32159    32155    32157 
   32158    32163    32173    32181    32188    32196    32201    32206 
   32215    32219    32217    32221    32227    32229    32228    32227 
