Origin Time       2025/06/03 22:18:00
Lat.              41.7
Long.             143.6
Depth. (km)       30
Mag.              5.2
Station Code      HDKH05
Station Lat.      42.5977
Station Long.     142.5446
Station Height(m) 305
Record Time       2025/06/03 22:19:04
Sampling Freq(Hz) 100Hz
Duration Time(s)  120
Dir.              6
Scale Factor      3920(gal)/6170801
Max. Acc. (gal)   0.327
Last Correction   2025/06/03 22:18:48
Memo.             
  -35026   -35001   -35010   -35038   -35047   -35033   -35011   -34997 
  -34987   -34957   -34906   -34879   -34893   -34910   -34915   -34918 
  -34922   -34949   -35010   -35066   -35084   -35079   -35058   -35030 
  -35021   -35048   -35088   -35114   -35124   -35121   -35103   -35071 
  -35032   -34997   -34982   -35006   -35062   -35115   -35137   -35145 
  -35167   -35196   -35199   -35169   -35130   -35112   -35105   -35084 
  -35057   -35060   -35101   -35152   -35156   -35076   -34974   -34954 
  -35024   -35117   -35182   -35210   -35232   -35255   -35237   -35169 
  -35099   -35087   -35144   -35208   -35218   -35214   -35252   -35276 
  -35206   -35080   -34994   -34983   -35001   -34980   -34911   -34861 
  -34850   -34808   -34704   -34596   -34566   -34644   -34800   -34974 
  -35134   -35268   -35364   -35395   -35353   -35269   -35202   -35188 
  -35220   -35260   -35256   -35172   -35029   -34880   -34789   -34791 
  -34856   -34935   -35019   -35092   -35137   -35166   -35170   -35135 
  -35105   -35115   -35105   -35025   -34955   -34993   -35122   -35242 
  -35271   -35214   -35157   -35139   -35122   -35096   -35107   -35197 
  -35344   -35445   -35406   -35283   -35183   -35098   -34979   -34874 
  -34862   -34934   -35047   -35177   -35253   -35223   -35159   -35094 
  -35002   -34963   -35050   -35171   -35242   -35249   -35192   -35140 
  -35189   -35281   -35297   -35248   -35212   -35192   -35157   -35089 
  -34962   -34807   -34732   -34772   -34850   -34903   -34939   -34983 
  -35037   -35077   -35093   -35081   -35031   -34980   -34962   -34944 
  -34928   -34977   -35060   -35097   -35107   -35137   -35181   -35231 
  -35278   -35269   -35192   -35114   -35066   -35016   -34956   -34901 
  -34877   -34910   -34996   -35102   -35191   -35229   -35228   -35205 
  -35136   -35031   -34966   -34978   -35033   -35069   -35049   -34992 
  -34976   -35043   -35111   -35097   -35061   -35079   -35109   -35100 
  -35074   -35076   -35143   -35252   -35327   -35338   -35307   -35232 
  -35106   -34965   -34854   -34817   -34872   -34948   -34970   -34962 
  -34983   -35026   -35044   -35017   -35003   -35059   -35138   -35168 
  -35154   -35150   -35195   -35261   -35259   -35151   -35032   -34992 
  -35014   -35063   -35138   -35211   -35246   -35249   -35223   -35134 
  -35006   -34908   -34856   -34836   -34846   -34877   -34927   -35009 
  -35091   -35123   -35104   -35083   -35109   -35159   -35162   -35142 
  -35181   -35255   -35259   -35172   -35059   -34999   -35030   -35094 
  -35106   -35075   -35055   -35059   -35071   -35073   -35051   -35014 
  -34995   -34999   -34993   -34967   -34939   -34946   -35003   -35083 
  -35137   -35148   -35142   -35148   -35164   -35170   -35170   -35177 
  -35179   -35171   -35166   -35162   -35141   -35097   -35053   -35043 
  -35058   -35040   -34998   -35007   -35081   -35160   -35192   -35166 
  -35122   -35123   -35148   -35117   -35035   -34982   -34978   -34981 
  -34963   -34931   -34921   -34974   -35065   -35110   -35094   -35080 
  -35107   -35150   -35152   -35091   -35028   -35033   -35091   -35139 
  -35147   -35133   -35130   -35150   -35163   -35145   -35128   -35153 
  -35193   -35195   -35164   -35133   -35103   -35041   -34956   -34903 
  -34901   -34929   -34967   -35004   -35050   -35121   -35198   -35242 
  -35240   -35212   -35180   -35149   -35122   -35111   -35125   -35140 
  -35136   -35119   -35087   -35050   -35039   -35062   -35106   -35154 
  -35189   -35209   -35213   -35193   -35145   -35074   -35012   -34978 
  -34959   -34953   -34976   -35029   -35089   -35117   -35097   -35061 
  -35036   -35017   -34978   -34935   -34937   -34998   -35085   -35148 
  -35158   -35136   -35110   -35070   -35015   -34973   -34963   -34983 
  -35023   -35069   -35125   -35185   -35210   -35173   -35097   -35034 
  -35005   -34971   -34927   -34921   -34951   -34980   -35004   -35024 
  -35030   -35039   -35061   -35077   -35088   -35108   -35143   -35198 
  -35250   -35270   -35261   -35229   -35180   -35147   -35148   -35137 
  -35095   -35073   -35101   -35151   -35176   -35159   -35130   -35121 
  -35124   -35127   -35128   -35119   -35102   -35083   -35050   -35008 
  -34999   -35033   -35063   -35063   -35055   -35051   -35053   -35061 
  -35041   -34989   -34970   -35005   -35045   -35069   -35090   -35111 
  -35128   -35134   -35099   -35014   -34924   -34870   -34837   -34810 
  -34823   -34900   -34995   -35057   -35094   -35113   -35105   -35084 
  -35059   -35031   -35022   -35047   -35092   -35130   -35140   -35129 
  -35127   -35141   -35161   -35178   -35193   -35195   -35178   -35150 
  -35123   -35101   -35078   -35050   -35021   -35007   -35027   -35080 
  -35142   -35178   -35177   -35163   -35150   -35120   -35080   -35068 
  -35081   -35088   -35083   -35082   -35103   -35130   -35128   -35099 
  -35066   -35043   -35034   -35026   -35010   -35011   -35057   -35128 
  -35172   -35181   -35181   -35168   -35137   -35111   -35099   -35091 
  -35085   -35066   -35022   -34976   -34951   -34942   -34932   -34927 
  -34953   -35025   -35104   -35138   -35124   -35094   -35072   -35068 
  -35086   -35109   -35120   -35125   -35134   -35145   -35171   -35223 
  -35266   -35252   -35194   -35143   -35124   -35117   -35103   -35083 
  -35071   -35098   -35175   -35252   -35272   -35237   -35184   -35129 
  -35073   -35023   -34982   -34951   -34941   -34952   -34968   -34976 
  -34975   -34969   -34975   -34990   -34996   -35000   -35013   -35036 
  -35083   -35146   -35187   -35194   -35173   -35129   -35084   -35063 
  -35058   -35053   -35048   -35047   -35068   -35107   -35126   -35094 
  -35037   -35012   -35036   -35077   -35096   -35083   -35063   -35057 
  -35063   -35062   -35048   -35038   -35042   -35046   -35040   -35035 
  -35044   -35061   -35077   -35100   -35131   -35159   -35175   -35172 
  -35144   -35111   -35098   -35097   -35088   -35082   -35098   -35124 
  -35144   -35157   -35158   -35150   -35149   -35150   -35143   -35135 
  -35130   -35108   -35058   -34996   -34945   -34908   -34894   -34910 
  -34935   -34966   -35011   -35060   -35100   -35130   -35138   -35114 
  -35080   -35057   -35051   -35064   -35084   -35096   -35115   -35170 
  -35250   -35304   -35309   -35281   -35242   -35194   -35134   -35075 
  -35023   -34987   -34988   -35029   -35077   -35096   -35081   -35036 
  -34980   -34939   -34917   -34897   -34878   -34880   -34904   -34939 
  -34979   -35020   -35048   -35054   -35055   -35069   -35090   -35105 
  -35124   -35162   -35206   -35238   -35251   -35238   -35219   -35217 
  -35214   -35186   -35147   -35125   -35116   -35095   -35054   -35012 
  -34988   -34980   -34977   -34977   -34989   -35008   -35022   -35028 
  -35028   -35021   -35013   -35013   -35019   -35031   -35052   -35079 
  -35097   -35098   -35098   -35122   -35162   -35190   -35202   -35204 
  -35201   -35201   -35203   -35207   -35212   -35204   -35170   -35109 
  -35038   -34992   -34983   -34987   -35004   -35038   -35075   -35097 
  -35094   -35066   -35033   -35023   -35025   -35012   -34984   -34965 
  -34971   -34984   -34980   -34968   -34976   -35015   -35072   -35132 
  -35190   -35247   -35297   -35322   -35318   -35299   -35276   -35249 
  -35215   -35182   -35168   -35164   -35137   -35090   -35059   -35057 
  -35073   -35084   -35076   -35062   -35056   -35055   -35047   -35027 
  -34996   -34961   -34931   -34916   -34923   -34945   -34963   -34965 
  -34960   -34968   -34990   -35021   -35061   -35092   -35099   -35094 
  -35095   -35086   -35042   -34983   -34942   -34920   -34923   -34967 
  -35031   -35090   -35148   -35198   -35212   -35198   -35179   -35151 
  -35109   -35073   -35066   -35087   -35114   -35131   -35138   -35124 
  -35087   -35046   -35003   -34950   -34910   -34905   -34934   -34994 
  -35057   -35085   -35086   -35095   -35120   -35161   -35209   -35242 
  -35243   -35218   -35183   -35148   -35107   -35057   -35023   -35027 
  -35044   -35040   -35027   -35018   -35012   -35009   -34997   -34976 
  -34970   -34985   -35000   -35012   -35034   -35064   -35085   -35075 
  -35038   -35003   -34989   -34980   -34965   -34964   -34979   -34985 
  -34989   -35011   -35045   -35095   -35163   -35228   -35281   -35336 
  -35385   -35398   -35370   -35313   -35254   -35234   -35256   -35266 
  -35238   -35203   -35192   -35199   -35199   -35175   -35133   -35093 
  -35075   -35069   -35046   -35002   -34968   -34963   -34975   -34987 
  -35009   -35040   -35065   -35078   -35071   -35048   -35026   -35014 
  -35011   -35014   -35003   -34980   -34968   -34982   -35023   -35082 
  -35121   -35115   -35086   -35065   -35057   -35050   -35038   -35036 
  -35055   -35082   -35100   -35116   -35139   -35155   -35151   -35131 
  -35101   -35076   -35064   -35048   -35017   -34992   -34999   -35034 
  -35075   -35098   -35097   -35088   -35085   -35082   -35073   -35067 
  -35062   -35051   -35026   -34995   -34975   -34985   -35023   -35063 
  -35080   -35089   -35114   -35141   -35154   -35154   -35146   -35139 
  -35141   -35144   -35144   -35147   -35152   -35156   -35160   -35156 
  -35143   -35130   -35109   -35084   -35080   -35089   -35081   -35056 
  -35034   -35019   -35012   -35027   -35052   -35053   -35033   -35024 
  -35043   -35085   -35131   -35162   -35176   -35189   -35202   -35198 
  -35168   -35124   -35098   -35094   -35076   -35037   -35011   -35001 
  -34991   -34985   -34982   -34975   -34979   -34998   -35012   -35020 
  -35032   -35040   -35032   -35022   -35026   -35032   -35033   -35047 
  -35070   -35083   -35099   -35121   -35129   -35135   -35157   -35189 
  -35221   -35240   -35232   -35210   -35189   -35166   -35134   -35105 
  -35096   -35112   -35141   -35162   -35172   -35179   -35180   -35162 
  -35125   -35079   -35043   -35027   -35029   -35042   -35060   -35068 
  -35056   -35030   -35003   -34984   -34987   -35011   -35038   -35071 
  -35111   -35139   -35147   -35134   -35110   -35085   -35063   -35043 
  -35025   -35002   -34984   -34982   -34989   -34989   -34978   -34975 
  -34985   -35005   -35040   -35078   -35098   -35102   -35104   -35114 
  -35137   -35154   -35148   -35133   -35115   -35098   -35083   -35069 
  -35053   -35046   -35049   -35057   -35068   -35089   -35100   -35077 
  -35037   -35010   -34999   -34994   -34997   -35013   -35050   -35101 
  -35133   -35130   -35113   -35094   -35074   -35064   -35058   -35053 
  -35066   -35099   -35119   -35113   -35089   -35058   -35034   -35020 
  -35013   -35009   -35010   -35008   -35000   -34993   -34993   -35004 
  -35020   -35030   -35037   -35051   -35072   -35095   -35118   -35141 
  -35166   -35183   -35179   -35159   -35143   -35135   -35126   -35117 
  -35121   -35130   -35136   -35149   -35165   -35170   -35167   -35151 
  -35130   -35125   -35140   -35163   -35179   -35174   -35151   -35128 
  -35115   -35103   -35084   -35068   -35056   -35051   -35055   -35055 
  -35046   -35043   -35053   -35066   -35075   -35087   -35106   -35126 
  -35137   -35132   -35121   -35124   -35150   -35170   -35160   -35130 
  -35099   -35070   -35050   -35047   -35045   -35028   -35006   -35000 
  -35022   -35067   -35108   -35120   -35108   -35077   -35031   -34985 
  -34957   -34965   -35012   -35072   -35112   -35137   -35159   -35158 
  -35130   -35090   -35040   -34999   -34993   -35009   -35035   -35073 
  -35107   -35121   -35111   -35080   -35037   -34990   -34953   -34938 
  -34951   -34994   -35053   -35102   -35124   -35135   -35156   -35176 
  -35186   -35181   -35162   -35130   -35095   -35070   -35056   -35049 
  -35041   -35035   -35043   -35057   -35068   -35075   -35078   -35068 
  -35047   -35033   -35033   -35035   -35035   -35040   -35057   -35080 
  -35098   -35091   -35053   -35014   -34999   -34996   -34982   -34966 
  -34977   -35034   -35109   -35164   -35197   -35221   -35234   -35234 
  -35214   -35173   -35137   -35126   -35125   -35120   -35124   -35149 
  -35181   -35184   -35152   -35114   -35096   -35094   -35095   -35076 
  -35034   -35001   -34991   -34984   -34966   -34953   -34962   -35003 
  -35057   -35082   -35070   -35062   -35070   -35073   -35072   -35081 
  -35097   -35110   -35118   -35119   -35115   -35114   -35115   -35108 
  -35100   -35103   -35106   -35082   -35039   -35004   -34987   -34988 
  -34992   -34994   -35013   -35048   -35069   -35073   -35076   -35088 
  -35112   -35144   -35162   -35156   -35144   -35139   -35138   -35134 
  -35133   -35145   -35173   -35215   -35266   -35295   -35281   -35245 
  -35206   -35162   -35119   -35093   -35075   -35054   -35043   -35041 
  -35039   -35050   -35080   -35106   -35112   -35100   -35085   -35067 
  -35045   -35032   -35034   -35046   -35065   -35086   -35097   -35089 
  -35067   -35051   -35046   -35047   -35055   -35067   -35068   -35064 
  -35066   -35074   -35081   -35083   -35086   -35096   -35106   -35112 
  -35120   -35113   -35087   -35070   -35071   -35072   -35065   -35053 
  -35028   -34991   -34960   -34936   -34906   -34880   -34879   -34898 
  -34927   -34964   -35005   -35047   -35085   -35107   -35098   -35072 
  -35065   -35092   -35125   -35150   -35183   -35234   -35271   -35283 
  -35288   -35281   -35250   -35208   -35172   -35144   -35120   -35096 
  -35067   -35037   -35022   -35024   -35024   -35020   -35020   -35028 
  -35041   -35060   -35090   -35122   -35139   -35133   -35116   -35107 
  -35109   -35107   -35110   -35130   -35166   -35201   -35220   -35216 
  -35199   -35178   -35157   -35137   -35119   -35106   -35102   -35112 
  -35128   -35132   -35111   -35068   -35014   -34957   -34907   -34862 
  -34828   -34826   -34852   -34871   -34875   -34880   -34898   -34922 
  -34939   -34945   -34953   -34981   -35022   -35052   -35062   -35076 
  -35102   -35120   -35120   -35113   -35113   -35132   -35163   -35192 
  -35222   -35248   -35255   -35231   -35184   -35143   -35123   -35107 
  -35077   -35046   -35030   -35025   -35022   -35017   -35015   -35024 
  -35050   -35082   -35095   -35085   -35079   -35097   -35127   -35149 
  -35166   -35191   -35228   -35257   -35264   -35258   -35245   -35236 
  -35239   -35235   -35214   -35198   -35199   -35203   -35204   -35206 
  -35203   -35194   -35194   -35199   -35186   -35153   -35119   -35089 
  -35067   -35060   -35068   -35082   -35110   -35150   -35174   -35168 
  -35148   -35128   -35109   -35102   -35109   -35115   -35111   -35091 
  -35067   -35057   -35051   -35047   -35059   -35078   -35090   -35095 
  -35088   -35080   -35086   -35100   -35101   -35081   -35057   -35046 
  -35039   -35018   -34987   -34971   -34979   -34989   -34985   -34971 
  -34966   -34979   -35015   -35058   -35092   -35119   -35144   -35159 
  -35156   -35135   -35105   -35081   -35071   -35072   -35074   -35065 
  -35034   -34998   -34978   -34964   -34946   -34930   -34918   -34906 
  -34896   -34888   -34877   -34856   -34824   -34794   -34764   -34744 
  -34758   -34801   -34843   -34866   -34869   -34851   -34814   -34781 
  -34769   -34771   -34782   -34812   -34856   -34907   -34969   -35023 
  -35048   -35055   -35063   -35081   -35111   -35135   -35143   -35135 
  -35124   -35135   -35166   -35196   -35214   -35219   -35231   -35265 
  -35300   -35310   -35304   -35310   -35334   -35355   -35357   -35341 
  -35317   -35299   -35294   -35278   -35240   -35198   -35162   -35126 
  -35102   -35103   -35119   -35133   -35140   -35140   -35132   -35114 
  -35094   -35079   -35066   -35057   -35054   -35056   -35062   -35068 
  -35059   -35034   -35017   -35021   -35034   -35051   -35083   -35130 
  -35181   -35225   -35241   -35214   -35167   -35132   -35107   -35083 
  -35068   -35061   -35059   -35071   -35089   -35104   -35119   -35131 
  -35124   -35094   -35055   -35031   -35020   -34998   -34959   -34923 
  -34905   -34897   -34894   -34898   -34902   -34908   -34920   -34923 
  -34902   -34874   -34857   -34840   -34818   -34809   -34822   -34847 
  -34887   -34943   -35002   -35048   -35077   -35099   -35107   -35101 
  -35107   -35133   -35150   -35159   -35192   -35250   -35299   -35318 
  -35311   -35276   -35223   -35186   -35173   -35161   -35144   -35132 
  -35129   -35140   -35173   -35214   -35243   -35265   -35288   -35311 
  -35316   -35282   -35223   -35172   -35151   -35163   -35199   -35238 
  -35271   -35295   -35297   -35265   -35208   -35163   -35145   -35141 
  -35146   -35170   -35209   -35235   -35231   -35219   -35232   -35271 
  -35307   -35306   -35263   -35207   -35166   -35135   -35107   -35095 
  -35115   -35161   -35208   -35228   -35216   -35191   -35176   -35171 
  -35170   -35172   -35173   -35170   -35163   -35158   -35144   -35113 
  -35082   -35060   -35033   -35011   -35006   -35005   -34991   -34965 
  -34920   -34859   -34811   -34795   -34796   -34793   -34778   -34767 
  -34776   -34800   -34828   -34865   -34904   -34924   -34918   -34918 
  -34941   -34968   -34985   -34996   -34996   -34988   -34982   -34982 
  -34991   -35007   -35016   -35006   -34980   -34947   -34916   -34882 
  -34838   -34800   -34785   -34787   -34801   -34824   -34859   -34895 
  -34924   -34947   -34963   -34980   -34996   -34994   -34980   -34977 
  -34989   -35006   -35017   -35021   -35028   -35047   -35070   -35094 
  -35115   -35127   -35132   -35146   -35165   -35178   -35184   -35175 
  -35155   -35140   -35137   -35137   -35123   -35090   -35043   -34991 
  -34941   -34895   -34849   -34807   -34786   -34788   -34806   -34846 
  -34899   -34949   -34998   -35057   -35128   -35202   -35273   -35339 
  -35393   -35426   -35444   -35459   -35471   -35473   -35453   -35409 
  -35356   -35303   -35244   -35185   -35146   -35129   -35124   -35124 
  -35131   -35143   -35147   -35117   -35053   -34994   -34969   -34968 
  -34978   -35006   -35056   -35117   -35166   -35181   -35152   -35099 
  -35052   -35019   -35012   -35047   -35119   -35197   -35250   -35280 
  -35302   -35319   -35317   -35287   -35253   -35242   -35240   -35228 
  -35208   -35184   -35160   -35138   -35117   -35107   -35123   -35168 
  -35222   -35242   -35217   -35183   -35165   -35155   -35143   -35128 
  -35131   -35165   -35206   -35221   -35214   -35198   -35181   -35186 
  -35209   -35229   -35254   -35290   -35315   -35316   -35301   -35277 
  -35246   -35217   -35186   -35138   -35075   -35015   -34972   -34941 
  -34911   -34875   -34840   -34822   -34827   -34845   -34864   -34877 
  -34883   -34887   -34892   -34895   -34909   -34936   -34961   -34987 
  -35023   -35060   -35090   -35110   -35110   -35103   -35109   -35119 
  -35120   -35115   -35094   -35043   -34971   -34907   -34860   -34828 
  -34817   -34827   -34839   -34850   -34871   -34890   -34901   -34921 
  -34957   -34988   -35008   -35042   -35103   -35163   -35197   -35208 
  -35209   -35214   -35230   -35259   -35296   -35334   -35362   -35363 
  -35346   -35329   -35319   -35313   -35300   -35276   -35257   -35244 
  -35226   -35192   -35145   -35097   -35052   -35004   -34947   -34889 
  -34859   -34872   -34918   -34976   -35037   -35101   -35162   -35204 
  -35221   -35221   -35224   -35246   -35275   -35288   -35279   -35260 
  -35238   -35207   -35166   -35119   -35083   -35083   -35112   -35135 
  -35135   -35119   -35087   -35039   -34976   -34910   -34858   -34827 
  -34814   -34815   -34822   -34837   -34857   -34869   -34863   -34842 
