Origin Time       2025/06/03 22:18:00
Lat.              41.7
Long.             143.6
Depth. (km)       30
Mag.              5.2
Station Code      HDKH04
Station Lat.      42.5126
Station Long.     142.0381
Station Height(m) 10
Record Time       2025/06/03 22:19:15
Sampling Freq(Hz) 100Hz
Duration Time(s)  120
Dir.              5
Scale Factor      7845(gal)/8223790
Max. Acc. (gal)   0.947
Last Correction   2025/06/03 22:19:16
Memo.             
[...]
   -3944    -3923    -3893    -3855    -3811    -3765    -3721    -3680 
   -3638    -3597    -3559    -3534    -3520    -3516    -3519    -3527 
   -3528    -3520    -3511    -3512    -3535    -3574    -3622    -3674 
   -3721    -3754    -3773    -3788    -3807    -3836    -3878    -3919 
   -3955    -3985    -3997    -3993    -3974    -3958    -3954    -3964 
   -3983    -3993    -3983    -3947    -3885    -3813    -3751    -3699 
   -3674    -3682    -3704    -3726    -3736    -3735    -3726    -3712 
   -3697    -3690    -3699    -3715    -3734    -3748    -3757    -3758 
   -3751    -3739    -3727    -3719    -3715    -3712    -3705    -3703 
   -3707    -3715    -3730    -3743    -3746    -3734    -3707    -3673 
   -3653    -3657    -3677    -3708    -3740    -3765    -3767    -3754 
   -3736    -3723    -3720    -3734    -3766    -3812    -3862    -3897 
   -3915    -3919    -3919    -3929    -3955    -3990    -4032    -4066 
   -4081    -4077    -4054    -4020    -3987    -3952    -3906    -3865 
   -3831    -3808    -3797    -3796    -3802    -3813    -3807    -3777 
   -3732    -3678    -3638    -3630    -3651    -3694    -3738    -3765 
   -3778    -3788    -3804    -3840    -3890    -3937    -3981    -4009 
   -4014    -4004    -3983    -3952    -3916    -3886    -3866    -3852 
   -3848    -3862    -3890    -3921    -3955    -3983    -3993    -3983 
   -3962    -3928    -3892    -3858    -3831    -3812    -3798    -3778 
   -3744    -3703    -3665    -3646    -3643    -3653    -3669    -3678 
   -3685    -3697    -3711    -3726    -3743    -3759    -3781    -3805 
   -3829    -3855    -3877    -3885    -3878    -3851    -3811    -3765 
   -3713    -3669    -3639    -3616    -3595    -3574    -3551    -3527 
   -3505    -3492    -3488    -3491    -3500    -3520    -3549    -3576 
   -3608    -3643    -3672    -3690    -3707    -3728    -3761    -3800 
   -3843    -3885    -3925    -3966    -4010    -4052    -4091    -4121 
   -4137    -4145    -4147    -4144    -4140    -4129    -4112    -4093 
   -4071    -4051    -4035    -4018    -3997    -3962    -3913    -3855 
   -3793    -3732    -3678    -3636    -3612    -3600    -3595    -3593 
   -3591    -3585    -3578    -3577    -3585    -3607    -3642    -3681 
   -3720    -3754    -3785    -3815    -3836    -3839    -3827    -3804 
   -3782    -3773    -3775    -3784    -3790    -3789    -3790    -3796 
   -3800    -3816    -3844    -3875    -3900    -3913    -3919    -3919 
   -3919    -3921    -3928    -3939    -3948    -3946    -3927    -3898 
   -3875    -3863    -3866    -3883    -3909    -3928    -3933    -3932 
   -3928    -3917    -3910    -3910    -3919    -3937    -3956    -3964 
   -3964    -3959    -3947    -3940    -3939    -3933    -3925    -3915 
   -3890    -3854    -3815    -3774    -3738    -3704    -3678    -3666 
   -3661    -3647    -3635    -3624    -3608    -3592    -3572    -3550 
   -3531    -3516    -3514    -3524    -3542    -3558    -3569    -3572 
   -3572    -3570    -3576    -3589    -3609    -3634    -3665    -3694 
   -3719    -3743    -3758    -3769    -3794    -3835    -3888    -3947 
   -4000    -4039    -4062    -4066    -4062    -4060    -4068    -4079 
   -4083    -4082    -4077    -4062    -4041    -4021    -3998    -3973 
   -3948    -3924    -3892    -3846    -3785    -3716    -3650    -3600 
   -3573    -3562    -3559    -3566    -3580    -3593    -3609    -3623 
   -3628    -3628    -3624    -3619    -3622    -3632    -3659    -3700 
   -3747    -3794    -3842    -3882    -3915    -3933    -3940    -3942 
   -3937    -3937    -3955    -3975    -4000    -4020    -4028    -4032 
   -4032    -4025    -4017    -4002    -3981    -3960    -3940    -3927 
   -3925    -3925    -3920    -3908    -3890    -3877    -3869    -3855 
   -3835    -3811    -3781    -3750    -3724    -3705    -3688    -3670 
   -3659    -3659    -3667    -3681    -3697    -3720    -3755    -3800 
   -3843    -3877    -3894    -3888    -3870    -3848    -3816    -3778 
   -3739    -3693    -3649    -3608    -3566    -3524    -3491    -3468 
   -3460    -3472    -3507    -3555    -3609    -3654    -3678    -3680 
   -3663    -3634    -3600    -3576    -3565    -3561    -3561    -3566 
   -3574    -3582    -3591    -3600    -3611    -3624    -3643    -3667 
   -3696    -3727    -3758    -3784    -3801    -3801    -3778    -3746 
   -3717    -3700    -3692    -3686    -3682    -3681    -3674    -3662 
   -3646    -3622    -3588    -3545    -3487    -3419    -3350    -3289 
   -3245    -3210    -3175    -3148    -3126    -3106    -3086    -3071 
   -3071    -3092    -3137    -3202    -3276    -3353    -3434    -3514 
   -3593    -3678    -3777    -3883    -3998    -4120    -4236    -4340 
   -4430    -4499    -4552    -4595    -4633    -4666    -4695    -4715 
   -4729    -4733    -4738    -4739    -4730    -4716    -4699    -4680 
   -4671    -4660    -4635    -4603    -4564    -4521    -4483    -4450 
   -4426    -4407    -4387    -4372    -4365    -4360    -4348    -4325 
   -4294    -4259    -4220    -4179    -4147    -4117    -4081    -4035 
   -3979    -3919    -3861    -3811    -3770    -3738    -3711    -3681 
   -3639    -3580    -3505    -3424    -3346    -3277    -3222    -3181 
   -3150    -3127    -3107    -3086    -3065    -3048    -3036    -3034 
   -3044    -3064    -3090    -3117    -3142    -3168    -3206    -3264 
   -3339    -3422    -3495    -3546    -3573    -3574    -3566    -3558 
   -3553    -3564    -3596    -3647    -3715    -3798    -3889    -3966 
   -4024    -4064    -4094    -4122    -4155    -4193    -4233    -4276 
   -4310    -4322    -4318    -4306    -4291    -4280    -4286    -4301 
   -4305    -4294    -4260    -4202    -4129    -4050    -3963    -3867 
   -3762    -3653    -3547    -3460    -3395    -3352    -3323    -3311 
   -3308    -3300    -3285    -3268    -3252    -3244    -3249    -3275 
   -3316    -3364    -3424    -3501    -3595    -3708    -3839    -3979 
   -4118    -4248    -4359    -4445    -4511    -4565    -4604    -4626 
   -4638    -4639    -4630    -4611    -4573    -4510    -4429    -4333 
   -4230    -4129    -4028    -3919    -3804    -3694    -3603    -3534 
   -3491    -3476    -3480    -3497    -3526    -3561    -3599    -3639 
   -3674    -3701    -3717    -3724    -3720    -3711    -3701    -3697 
   -3707    -3734    -3773    -3816    -3862    -3900    -3924    -3940 
   -3950    -3955    -3960    -3969    -3974    -3973    -3966    -3947 
   -3910    -3861    -3798    -3724    -3654    -3597    -3557    -3541 
   -3551    -3580    -3618    -3650    -3669    -3678    -3674    -3669 
   -3678    -3704    -3747    -3802    -3865    -3921    -3960    -3979 
   -3986    -3974    -3947    -3925    -3908    -3890    -3878    -3863 
   -3843    -3824    -3805    -3785    -3767    -3748    -3720    -3688 
   -3658    -3634    -3618    -3615    -3618    -3615    -3600    -3580 
   -3558    -3538    -3512    -3478    -3439    -3402    -3368    -3354 
   -3377    -3431    -3510    -3603    -3701    -3802    -3898    -3986 
   -4070    -4140    -4193    -4233    -4259    -4267    -4256    -4225 
   -4180    -4122    -4052    -3985    -3924    -3863    -3808    -3762 
   -3721    -3686    -3651    -3611    -3566    -3522    -3477    -3439 
   -3419    -3410    -3414    -3430    -3441    -3446    -3446    -3434 
   -3414    -3410    -3430    -3476    -3547    -3643    -3750    -3861 
   -3974    -4079    -4175    -4247    -4275    -4267    -4229    -4160 
   -4081    -4010    -3954    -3912    -3881    -3856    -3836    -3811 
   -3770    -3717    -3658    -3592    -3524    -3454    -3372    -3281 
   -3188    -3113    -3073    -3078    -3127    -3213    -3319    -3431 
   -3535    -3628    -3708    -3773    -3838    -3912    -3996    -4089 
   -4190    -4283    -4368    -4444    -4498    -4527    -4529    -4498 
   -4438    -4352    -4248    -4144    -4043    -3948    -3859    -3761 
   -3646    -3520    -3391    -3268    -3165    -3090    -3052    -3055 
   -3075    -3110    -3164    -3227    -3298    -3375    -3456    -3535 
   -3615    -3689    -3758    -3820    -3879    -3935    -3985    -4035 
   -4090    -4149    -4213    -4282    -4342    -4380    -4396    -4394 
   -4383    -4379    -4392    -4417    -4441    -4446    -4425    -4378 
   -4310    -4241    -4180    -4141    -4129    -4141    -4156    -4168 
   -4172    -4152    -4095    -4000    -3871    -3715    -3546    -3392 
   -3268    -3187    -3163    -3191    -3262    -3360    -3468    -3585 
   -3701    -3805    -3894    -3963    -4009    -4032    -4031    -4012 
   -3978    -3933    -3888    -3842    -3793    -3761    -3746    -3735 
   -3734    -3740    -3742    -3736    -3728    -3728    -3750    -3798 
   -3869    -3952    -4033    -4095    -4131    -4124    -4078    -4005 
   -3919    -3843    -3796    -3782    -3801    -3842    -3883    -3916 
   -3939    -3947    -3937    -3912    -3881    -3848    -3812    -3775 
   -3739    -3705    -3677    -3647    -3626    -3616    -3607    -3591 
   -3574    -3559    -3551    -3554    -3566    -3580    -3591    -3600 
   -3611    -3631    -3665    -3703    -3736    -3763    -3778    -3784 
   -3789    -3807    -3834    -3861    -3881    -3894    -3904    -3916 
   -3932    -3946    -3956    -3959    -3956    -3959    -3971    -3990 
   -4008    -4014    -4006    -3979    -3929    -3870    -3812    -3755 
   -3700    -3651    -3612    -3576    -3537    -3480    -3416    -3358 
   -3311    -3276    -3256    -3244    -3244    -3256    -3288    -3345 
   -3414    -3489    -3553    -3593    -3615    -3634    -3661    -3713 
   -3793    -3894    -4014    -4141    -4255    -4348    -4421    -4469 
   -4502    -4522    -4537    -4549    -4557    -4560    -4558    -4553 
   -4538    -4500    -4433    -4341    -4228    -4104    -3994    -3898 
   -3801    -3701    -3596    -3480    -3372    -3283    -3210    -3161 
   -3146    -3156    -3188    -3230    -3271    -3299    -3312    -3322 
   -3337    -3364    -3415    -3480    -3541    -3593    -3632    -3655 
   -3676    -3708    -3755    -3815    -3885    -3963    -4040    -4106 
   -4153    -4187    -4209    -4228    -4248    -4264    -4272    -4257 
   -4210    -4132    -4028    -3919    -3821    -3744    -3694    -3678 
   -3689    -3715    -3744    -3759    -3759    -3753    -3738    -3711 
   -3669    -3611    -3537    -3457    -3387    -3333    -3311    -3322 
   -3361    -3423    -3501    -3591    -3686    -3793    -3909    -4032 
   -4159    -4267    -4347    -4388    -4382    -4325    -4237    -4132 
   -4032    -3952    -3892    -3851    -3835    -3835    -3850    -3873 
   -3905    -3946    -3987    -4027    -4070    -4105    -4109    -4075 
   -3996    -3879    -3747    -3615    -3493    -3384    -3281    -3184 
   -3096    -3022    -2976    -2961    -2972    -2997    -3025    -3057 
   -3094    -3137    -3195    -3265    -3335    -3397    -3449    -3487 
   -3520    -3553    -3591    -3638    -3699    -3773    -3855    -3931 
   -3996    -4051    -4097    -4133    -4163    -4182    -4185    -4175 
   -4148    -4105    -4045    -3973    -3898    -3836    -3786    -3759 
   -3762    -3786    -3827    -3881    -3939    -3996    -4041    -4064 
   -4067    -4052    -4024    -3994    -3963    -3936    -3915    -3890 
   -3866    -3854    -3848    -3854    -3874    -3897    -3916    -3924 
   -3915    -3892    -3856    -3813    -3774    -3750    -3730    -3716 
   -3704    -3689    -3678    -3674    -3670    -3672    -3674    -3667 
   -3653    -3635    -3623    -3622    -3630    -3646    -3665    -3684 
   -3704    -3732    -3767    -3815    -3863    -3897    -3920    -3933 
   -3937    -3952    -3982    -4029    -4101    -4187    -4270    -4342 
   -4398    -4437    -4464    -4483    -4491    -4477    -4440    -4383 
   -4303    -4201    -4085    -3967    -3858    -3758    -3669    -3591 
   -3523    -3464    -3408    -3354    -3299    -3238    -3181    -3141 
   -3125    -3141    -3186    -3246    -3319    -3392    -3457    -3515 
   -3570    -3620    -3667    -3726    -3797    -3883    -3978    -4075 
   -4160    -4225    -4261    -4261    -4236    -4195    -4152    -4117 
   -4093    -4083    -4079    -4072    -4059    -4036    -4000    -3969 
   -3952    -3943    -3931    -3917    -3893    -3859    -3823    -3784 
   -3736    -3684    -3619    -3549    -3488    -3453    -3449    -3472 
   -3515    -3562    -3601    -3632    -3662    -3693    -3728    -3771 
   -3817    -3863    -3898    -3921    -3928    -3917    -3886    -3840 
   -3785    -3727    -3667    -3608    -3545    -3487    -3445    -3423 
   -3426    -3449    -3488    -3538    -3588    -3628    -3661    -3688 
   -3715    -3742    -3763    -3774    -3767    -3748    -3734    -3734 
   -3758    -3805    -3875    -3956    -4041    -4122    -4194    -4247 
   -4279    -4291    -4284    -4252    -4203    -4136    -4051    -3967 
   -3889    -3808    -3734    -3666    -3605    -3564    -3538    -3530 
   -3542    -3568    -3599    -3624    -3636    -3646    -3649    -3639 
   -3627    -3607    -3570    -3522    -3469    -3424    -3392    -3375 
   -3373    -3389    -3422    -3478    -3559    -3661    -3780    -3900 
   -4010    -4106    -4182    -4232    -4263    -4278    -4282    -4279 
   -4278    -4287    -4311    -4347    -4391    -4450    -4522    -4598 
   -4669    -4726    -4756    -4760    -4738    -4696    -4645    -4587 
   -4518    -4438    -4348    -4237    -4108    -3970    -3835    -3708 
   -3593    -3485    -3375    -3264    -3156    -3056    -2968    -2898 
   -2843    -2809    -2809    -2841    -2901    -2987    -3096    -3219 
   -3346    -3478    -3613    -3742    -3861    -3971    -4062    -4120 
   -4156    -4179    -4205    -4244    -4290    -4332    -4360    -4365 
   -4352    -4329    -4303    -4288    -4280    -4272    -4264    -4247 
   -4213    -4160    -4087    -4005    -3928    -3866    -3827    -3815 
   -3816    -3815    -3797    -3767    -3734    -3711    -3705    -3719 
   -3742    -3763    -3773    -3770    -3763    -3759    -3762    -3777 
   -3796    -3808    -3811    -3801    -3780    -3757    -3738    -3724 
   -3705    -3673    -3626    -3565    -3493    -3418    -3349    -3294 
   -3253    -3225    -3198    -3163    -3110    -3041    -2976    -2928 
   -2903    -2918    -2965    -3041    -3137    -3242    -3354    -3481 
   -3628    -3790    -3948    -4089    -4199    -4274    -4315    -4347 
   -4376    -4407    -4433    -4437    -4407    -4334    -4222    -4085 
   -3940    -3805    -3696    -3611    -3543    -3493    -3446    -3389 
   -3329    -3273    -3230    -3200    -3186    -3171    -3148    -3113 
   -3064    -3025    -3011    -3025    -3068    -3129    -3203    -3287 
   -3377    -3476    -3586    -3708    -3839    -3974    -4109    -4237 
   -4353    -4461    -4558    -4639    -4702    -4739    -4750    -4731 
   -4693    -4646    -4598    -4554    -4523    -4503    -4488    -4460 
   -4410    -4338    -4241    -4126    -4001    -3869    -3732    -3595 
   -3460    -3342    -3245    -3176    -3141    -3127    -3126    -3130 
   -3138    -3146    -3161    -3194    -3245    -3312    -3388    -3465 
   -3537    -3604    -3669    -3726    -3775    -3825    -3874    -3923 
   -3966    -4006    -4051    -4098    -4145    -4179    -4189    -4175 
   -4135    -4071    -4004    -3942    -3888    -3855    -3844    -3842 
   -3852    -3870    -3878    -3875    -3861    -3846    -3838    -3835 
   -3846    -3871    -3898    -3925    -3950    -3962    -3971    -3989 
   -4016    -4051    -4090    -4122    -4143    -4153    -4151    -4147 
   -4147    -4149    -4149    -4147    -4140    -4128    -4101    -4054 
   -3994    -3928    -3862    -3805    -3759    -3728    -3712    -3703 
   -3690    -3676    -3669    -3677    -3701    -3740    -3792    -3847 
   -3896    -3929    -3946    -3943    -3925    -3905    -3896    -3901 
   -3913    -3929    -3944    -3950    -3933    -3898    -3855    -3807 
   -3757    -3712    -3672    -3632    -3589    -3546    -3504    -3462 
   -3424    -3385    -3350    -3327    -3312    -3302    -3295    -3295 
   -3285    -3258    -3222    -3181    -3137    -3091    -3051    -3015 
   -2980    -2948    -2926    -2917    -2921    -2940    -2978    -3034 
   -3111    -3211    -3337    -3484    -3647    -3820    -3987    -4140 
   -4270    -4372    -4457    -4530    -4591    -4642    -4679    -4691 
   -4680    -4639    -4576    -4504    -4430    -4361    -4297    -4224 
   -4145    -4070    -4000    -3944    -3906    -3885    -3873    -3861 
   -3836    -3804    -3761    -3711    -3665    -3619    -3574    -3539 
   -3512    -3500    -3511    -3542    -3596    -3666    -3736    -3802 
   -3861    -3905    -3943    -3973    -4004    -4039    -4078    -4116 
   -4155    -4190    -4212    -4225    -4239    -4255    -4271    -4290 
   -4318    -4353    -4376    -4387    -4376    -4329    -4248    -4139 
   -4008    -3881    -3765    -3661    -3564    -3468    -3365    -3256 
   -3140    -3040    -2968    -2928    -2925    -2965    -3037    -3134 
   -3250    -3366    -3483    -3600    -3707    -3805    -3898    -3985 
   -4066    -4143    -4214    -4278    -4332    -4382    -4429    -4467 
   -4499    -4523    -4536    -4534    -4522    -4503    -4477    -4444 
   -4398    -4334    -4253    -4162    -4071    -3991    -3928    -3885 
   -3862    -3847    -3827    -3802    -3765    -3716    -3674    -3645 
   -3628    -3630    -3642    -3651    -3654    -3655    -3654    -3653 
   -3658    -3670    -3686    -3720    -3771    -3831    -3898    -3963 
   -4012    -4048    -4068    -4068    -4043    -3986    -3896    -3773 
   -3632    -3492    -3366    -3269    -3198    -3150    -3119    -3091 
   -3065    -3048    -3044    -3057    -3084    -3118    -3150    -3180 
   -3204    -3223    -3242    -3267    -3298    -3348    -3418    -3501 
   -3593    -3692    -3796    -3900    -4005    -4108    -4202    -4280 
   -4337    -4371    -4378    -4369    -4351    -4322    -4299    -4284 
   -4268    -4243    -4199    -4136    -4056    -3963    -3866    -3782 
   -3709    -3654    -3618    -3588    -3559    -3537    -3516    -3499 
   -3484    -3474    -3470    -3470    -3481    -3503    -3532    -3564 
   -3596    -3619    -3632    -3638    -3638    -3643    -3655    -3673 
   -3699    -3720    -3721    -3701    -3672    -3645    -3632    -3643 
   -3669    -3700    -3713    -3707    -3690    -3670    -3655    -3657 
   -3674    -3693    -3713    -3731    -3746    -3758    -3765    -3773 
   -3784    -3789    -3790    -3790    -3785    -3774    -3763    -3761 
   -3769    -3781    -3796    -3809    -3813    -3816    -3829    -3846 
   -3873    -3915    -3962    -4013    -4066    -4106    -4131    -4147 
   -4160    -4186    -4221    -4263    -4315    -4368    -4413    -4445 
   -4467    -4473    -4459    -4418    -4357    -4276    -4183    -4090 
   -4008    -3947    -3904    -3870    -3844    -3819    -3785    -3747 
   -3708    -3678    -3669    -3681    -3708    -3742    -3771    -3780 
   -3758    -3719    -3667    -3613    -3561    -3515    -3483    -3462 
   -3449    -3442    -3441    -3438    -3434    -3429    -3420    -3403 
   -3379    -3360    -3348    -3343    -3357    -3385    -3419    -3451 
   -3474    -3492    -3499    -3503    -3516    -3542    -3588    -3647 
   -3709    -3771    -3840    -3908    -3974    -4045    -4125    -4205 
   -4282    -4348    -4398    -4430    -4445    -4446    -4444    -4440 
