Origin Time       2025/06/03 22:18:00
Lat.              41.7
Long.             143.6
Depth. (km)       30
Mag.              5.2
Station Code      HDKH06
Station Lat.      42.3498
Station Long.     142.3572
Station Height(m) -105
Record Time       2025/06/03 22:18:50
Sampling Freq(Hz) 100Hz
Duration Time(s)  120
Dir.              2
Scale Factor      2942(gal)/8224139
Max. Acc. (gal)   0.381
Last Correction   2025/06/03 22:18:50
Memo.             
[...]
   82606    82633    82652    82663    82669    82675    82674    82672 
   82671    82663    82647    82628    82598    82561    82530    82503 
   82480    82468    82460    82447    82432    82410    82385    82360 
   82336    82308    82285    82262    82242    82229    82220    82212 
   82205    82200    82196    82194    82197    82206    82223    82242 
   82263    82283    82301    82321    82341    82358    82372    82385 
   82387    82381    82366    82345    82325    82306    82290    82279 
   82271    82260    82251    82246    82246    82250    82258    82266 
   82273    82275    82278    82281    82285    82290    82302    82321 
   82345    82372    82398    82420    82439    82455    82467    82480 
   82491    82497    82501    82510    82520    82530    82543    82555 
   82564    82571    82576    82576    82568    82556    82537    82510 
   82483    82458    82429    82404    82383    82367    82356    82351 
   82344    82335    82325    82312    82298    82286    82274    82264 
   82259    82263    82283    82310    82336    82362    82390    82416 
   82439    82466    82491    82514    82545    82575    82594    82606 
   82615    82615    82613    82607    82590    82567    82548    82530 
   82522    82521    82524    82533    82557    82588    82621    82655 
   82688    82717    82732    82729    82709    82676    82636    82591 
   82547    82506    82471    82444    82426    82412    82399    82394 
   82393    82389    82383    82378    82371    82363    82363    82370 
   82381    82387    82391    82393    82387    82374    82358    82344 
   82331    82312    82296    82285    82278    82274    82275    82283 
   82296    82304    82305    82304    82304    82306    82308    82312 
   82325    82344    82366    82389    82412    82431    82439    82447 
   82456    82468    82487    82506    82524    82545    82564    82576 
   82590    82599    82607    82618    82620    82615    82613    82602 
   82580    82559    82537    82512    82485    82459    82439    82424 
   82412    82398    82379    82355    82332    82317    82312    82318 
   82336    82355    82374    82394    82409    82418    82421    82417 
   82408    82398    82393    82389    82385    82389    82395    82404 
   82418    82441    82462    82479    82501    82524    82541    82555 
   82563    82557    82534    82503    82470    82435    82401    82371 
   82350    82331    82313    82301    82289    82282    82278    82270 
   82259    82248    82231    82205    82175    82148    82125    82115 
   82116    82127    82147    82173    82201    82229    82254    82271 
   82287    82305    82320    82331    82337    82344    82354    82370 
   82394    82417    82432    82443    82445    82440    82429    82414 
   82401    82389    82375    82359    82348    82340    82336    82343 
   82352    82364    82386    82406    82418    82426    82431    82432 
   82428    82425    82417    82404    82395    82389    82377    82360 
   82347    82339    82333    82328    82317    82302    82291    82290 
   82300    82309    82316    82318    82321    82320    82323    82327 
   82328    82332    82343    82355    82377    82408    82443    82478 
   82514    82543    82559    82570    82574    82572    82567    82566 
   82568    82570    82567    82566    82563    82556    82548    82541 
   82539    82544    82557    82586    82621    82653    82688    82717 
   82737    82753    82757    82756    82753    82749    82746    82741 
   82737    82737    82738    82744    82750    82759    82771    82786 
   82799    82809    82814    82814    82802    82779    82752    82725 
   82695    82665    82637    82611    82590    82572    82557    82543 
   82532    82524    82516    82514    82514    82512    82512    82512 
   82514    82521    82528    82530    82537    82547    82555    82564 
   82575    82584    82587    82583    82572    82553    82526    82491 
   82453    82418    82387    82359    82341    82333    82331    82339 
   82347    82350    82351    82345    82337    82323    82300    82275 
   82254    82233    82216    82208    82208    82217    82236    82262 
   82290    82324    82355    82379    82391    82393    82387    82379 
   82370    82356    82344    82337    82335    82336    82347    82366 
   82386    82408    82431    82455    82480    82506    82528    82547 
   82561    82572    82575    82571    82566    82559    82557    82557 
   82559    82559    82555    82548    82548    82552    82553    82553 
   82552    82553    82555    82552    82549    82544    82539    82534 
   82529    82524    82526    82532    82534    82534    82528    82507 
   82482    82451    82417    82382    82351    82331    82318    82309 
   82300    82290    82282    82273    82262    82255    82255    82254 
   82252    82247    82237    82219    82196    82175    82152    82128 
   82108    82085    82062    82039    82015    81996    81980    81972 
   81977    81989    82008    82032    82054    82069    82078    82078 
   82066    82044    82020    81986    81945    81900    81857    81820 
   81791    81768    81750    81739    81741    81756    81777    81799 
   81828    81861    81889    81918    81946    81970    82000    82036 
   82078    82120    82166    82213    82258    82297    82333    82360 
   82375    82385    82387    82387    82393    82409    82435    82471 
   82516    82561    82606    82645    82672    82683    82684    82675 
   82656    82626    82593    82561    82534    82510    82494    82479 
   82466    82453    82435    82406    82375    82344    82309    82277 
   82252    82237    82236    82251    82286    82344    82422    82518 
   82626    82732    82829    82915    82987    83054    83111    83149 
   83168    83168    83145    83103    83047    82980    82902    82817 
   82732    82648    82568    82498    82441    82394    82356    82333 
   82318    82306    82298    82290    82282    82278    82286    82305 
   82328    82364    82412    82463    82517    82572    82630    82684 
   82728    82767    82804    82838    82872    82906    82933    82945 
   82946    82946    82942    82933    82925    82917    82899    82876 
   82848    82817    82784    82749    82714    82682    82655    82637 
   82629    82629    82632    82633    82630    82626    82618    82605 
   82588    82571    82551    82530    82510    82494    82482    82472 
   82466    82470    82485    82507    82537    82571    82605    82636 
   82661    82683    82701    82709    82709    82698    82682    82665 
   82648    82628    82611    82606    82602    82602    82609    82615 
   82615    82611    82599    82579    82547    82503    82448    82385 
   82314    82239    82167    82101    82043    82001    81973    81961 
   81965    81985    82015    82047    82075    82097    82112    82116 
   82115    82112    82102    82089    82077    82067    82063    82067 
   82081    82108    82135    82156    82173    82177    82167    82154 
   82139    82125    82120    82120    82125    82136    82148    82159 
   82169    82175    82186    82210    82239    82271    82308    82343 
   82378    82413    82444    82467    82482    82489    82487    82478 
   82463    82451    82439    82425    82418    82420    82425    82436 
   82453    82479    82507    82532    82552    82574    82588    82598 
   82605    82609    82609    82613    82622    82637    82659    82683 
   82705    82723    82730    82722    82705    82679    82647    82613 
   82578    82547    82524    82499    82474    82441    82398    82343 
   82282    82221    82165    82117    82080    82047    82019    81989 
   81957    81922    81885    81849    81822    81807    81808    81823 
   81857    81905    81962    82024    82084    82135    82175    82208 
   82236    82267    82298    82337    82387    82445    82510    82580 
   82651    82721    82787    82846    82895    82931    82953    82958 
   82950    82931    82903    82872    82849    82834    82825    82819 
   82814    82807    82795    82776    82757    82744    82741    82744 
   82744    82733    82706    82665    82610    82543    82471    82395 
   82317    82248    82192    82148    82116    82097    82092    82094 
   82100    82105    82107    82097    82082    82063    82042    82024 
   82017    82028    82061    82105    82158    82213    82264    82312 
   82354    82385    82409    82428    82441    82445    82441    82437 
   82432    82425    82417    82416    82420    82431    82444    82459 
   82471    82479    82486    82494    82507    82533    82571    82610 
   82651    82695    82736    82761    82773    82771    82753    82728 
   82696    82664    82637    82620    82610    82613    82632    82657 
   82692    82732    82765    82788    82802    82806    82804    82799 
   82788    82776    82768    82763    82764    82771    82780    82787 
   82790    82788    82782    82765    82736    82684    82614    82534 
   82447    82367    82298    82242    82204    82186    82190    82219 
   82273    82335    82398    82462    82512    82537    82549    82549 
   82528    82489    82443    82395    82351    82316    82293    82278 
   82260    82244    82228    82206    82181    82155    82127    82100 
   82071    82040    82013    81990    81970    81958    81953    81949 
   81950    81957    81957    81946    81931    81919    81904    81889 
   81877    81870    81873    81882    81897    81918    81942    81966 
   81990    82011    82027    82039    82046    82051    82057    82069 
   82088    82112    82142    82178    82212    82244    82278    82313 
   82351    82395    82443    82490    82545    82603    82660    82715 
   82767    82807    82836    82852    82854    82846    82836    82825 
   82813    82796    82777    82759    82737    82710    82680    82651 
   82621    82595    82575    82559    82549    82551    82560    82576 
   82606    82651    82706    82769    82836    82900    82964    83016 
   83050    83069    83070    83057    83034    83003    82969    82933 
   82899    82869    82845    82818    82792    82769    82742    82715 
   82691    82672    82663    82668    82683    82707    82736    82764 
   82786    82794    82791    82769    82730    82671    82594    82505 
   82413    82318    82229    82151    82094    82058    82031    82019 
   82013    82011    82013    82017    82016    82012    82004    81986 
   81966    81940    81904    81862    81815    81761    81704    81649 
   81600    81565    81541    81527    81530    81549    81581    81621 
   81660    81691    81707    81712    81711    81703    81697    81699 
   81708    81734    81774    81827    81886    81947    82007    82065 
   82121    82182    82250    82323    82397    82475    82560    82645 
   82732    82817    82892    82962    83025    83070    83106    83127 
   83141    83155    83176    83199    83227    83265    83309    83347 
   83373    83390    83398    83398    83390    83370    83346    83322 
   83304    83295    83292    83290    83285    83278    83266    83243 
   83207    83158    83093    83011    82914    82804    82694    82583 
   82476    82377    82282    82196    82120    82051    81993    81953 
   81924    81907    81903    81904    81905    81907    81901    81889 
   81874    81857    81849    81850    81855    81866    81885    81908 
   81936    81974    82021    82078    82142    82215    82293    82372 
   82453    82532    82598    82651    82692    82726    82753    82775 
   82792    82806    82813    82815    82815    82815    82823    82840 
   82860    82883    82902    82911    82910    82898    82876    82850 
   82827    82811    82800    82802    82818    82844    82868    82892 
   82915    82933    82939    82939    82931    82914    82883    82841 
   82784    82715    82638    82557    82472    82383    82297    82215 
   82143    82082    82024    81974    81928    81876    81820    81764 
   81706    81648    81594    81548    81510    81479    81461    81457 
   81457    81461    81465    81471    81481    81499    81518    81535 
   81550    81564    81573    81581    81595    81614    81638    81672 
   81711    81750    81792    81835    81873    81904    81920    81920 
   81909    81896    81888    81888    81896    81913    81943    81984 
   82035    82093    82155    82219    82277    82333    82390    82444 
   82495    82547    82601    82653    82707    82761    82815    82868 
   82912    82953    82988    83015    83035    83050    83064    83081 
   83108    83141    83173    83208    83245    83274    83288    83288 
   83276    83255    83230    83197    83155    83106    83049    82992 
   82939    82895    82860    82831    82817    82813    82818    82834 
   82856    82877    82899    82919    82937    82954    82969    82979 
   82981    82976    82962    82939    82908    82869    82827    82777 
   82721    82656    82583    82505    82426    82343    82252    82165 
   82081    82004    81939    81889    81846    81808    81773    81742 
   81710    81681    81661    81646    81637    81637    81642    81649 
   81664    81683    81703    81726    81749    81776    81811    81849 
   81892    81939    81985    82027    82065    82097    82124    82152 
   82185    82221    82259    82301    82344    82390    82440    82491 
   82545    82599    82652    82701    82748    82790    82829    82868 
   82900    82925    82949    82971    82991    83014    83041    83069 
   83100    83138    83177    83215    83253    83290    83327    83366 
   83409    83447    83477    83492    83489    83469    83436    83388 
   83320    83243    83160    83074    82995    82917    82844    82776 
   82707    82640    82575    82507    82440    82381    82327    82282 
   82247    82227    82227    82243    82266    82291    82316    82328 
   82325    82313    82287    82248    82204    82154    82101    82055 
   82017    81982    81950    81922    81895    81865    81837    81808 
   81785    81772    81765    81762    81762    81772    81788    81811 
   81842    81873    81904    81945    81990    82038    82092    82146 
   82194    82235    82258    82259    82244    82215    82173    82127 
   82084    82047    82020    82004    81997    81999    82004    82013 
   82023    82031    82040    82050    82061    82069    82082    82100 
   82123    82150    82179    82209    82240    82267    82287    82308 
   82331    82354    82374    82391    82402    82399    82387    82372 
   82356    82340    82325    82314    82312    82317    82333    82359 
   82390    82428    82467    82501    82532    82555    82572    82590 
   82607    82626    82651    82678    82706    82736    82767    82799 
   82826    82854    82883    82907    82927    82945    82960    82979 
   82996    83006    83014    83016    83012    83007    83000    82991 
   82983    82976    82968    82962    82957    82950    82941    82925 
   82906    82885    82864    82838    82813    82794    82777    82765 
   82757    82756    82757    82753    82746    82740    82726    82707 
   82690    82664    82629    82594    82556    82505    82448    82391 
   82333    82275    82223    82169    82111    82059    82009    81958 
   81912    81870    81831    81799    81770    81749    81742    81747 
   81762    81787    81818    81847    81876    81901    81920    81938 
   81951    81961    81969    81976    81985    81999    82011    82020 
   82030    82040    82047    82054    82059    82063    82069    82078 
   82093    82111    82129    82154    82181    82208    82231    82252 
   82270    82283    82293    82296    82287    82275    82264    82251 
   82240    82237    82237    82246    82269    82304    82352    82416 
   82489    82568    82651    82726    82792    82852    82900    82935 
   82960    82977    82985    82987    82981    82966    82950    82933 
   82911    82891    82873    82854    82833    82806    82777    82750 
   82726    82707    82694    82690    82695    82707    82725    82742 
   82764    82783    82790    82790    82787    82780    82768    82750 
   82733    82715    82701    82687    82671    82653    82641    82632 
   82625    82626    82630    82632    82632    82625    82607    82582 
   82549    82513    82475    82440    82409    82382    82355    82328 
   82301    82274    82250    82221    82194    82170    82147    82131 
   82121    82112    82104    82101    82100    82100    82104    82107 
   82104    82098    82089    82074    82059    82044    82032    82031 
   82044    82069    82101    82139    82179    82220    82256    82287 
   82318    82347    82372    82402    82431    82458    82483    82507 
   82526    82537    82548    82555    82553    82548    82547    82543 
   82536    82528    82516    82501    82489    82474    82455    82436 
   82413    82382    82345    82310    82275    82237    82200    82167 
   82136    82105    82080    82054    82027    82000    81978    81963 
   81951    81946    81950    81955    81963    81974    81988    82001 
   82016    82038    82066    82104    82148    82197    82247    82301 
   82356    82416    82475    82532    82587    82641    82691    82729 
   82760    82782    82798    82817    82833    82848    82863    82871 
   82873    82880    82881    82877    82873    82864    82850    82836 
   82815    82794    82777    82760    82736    82711    82683    82648 
   82609    82563    82513    82466    82424    82386    82358    82333 
   82314    82302    82294    82290    82296    82304    82312    82324 
   82336    82351    82371    82390    82408    82429    82451    82470 
   82490    82510    82532    82549    82563    82570    82568    82560 
   82547    82525    82498    82467    82431    82389    82339    82287 
   82239    82192    82148    82108    82077    82053    82031    82019 
   82015    82016    82026    82039    82051    82063    82081    82098 
   82117    82142    82167    82194    82221    82244    82269    82301 
   82331    82362    82395    82426    82458    82486    82509    82529 
   82548    82563    82571    82572    82567    82555    82541    82526 
   82516    82509    82505    82505    82513    82526    82545    82567 
   82593    82617    82638    82660    82684    82707    82730    82759 
   82784    82804    82827    82852    82875    82900    82927    82949 
   82965    82976    82980    82977    82973    82965    82953    82935 
   82914    82892    82865    82833    82798    82764    82728    82692 
   82667    82642    82617    82595    82576    82561    82557    82557 
   82556    82555    82549    82540    82529    82509    82478    82436 
   82386    82329    82267    82200    82131    82063    82001    81947 
   81903    81865    81839    81828    81828    81834    81846    81861 
   81876    81886    81896    81904    81909    81913    81918    81919 
   81922    81927    81939    81955    81977    82004    82030    82055 
   82075    82088    82094    82098    82096    82092    82088    82080 
   82069    82055    82043    82034    82034    82040    82055    82085 
   82120    82156    82201    82246    82285    82327    82368    82404 
   82435    82463    82489    82517    82545    82579    82621    82665 
   82709    82749    82791    82827    82856    82881    82903    82922 
   82941    82950    82948    82941    82930    82914    82894    82872 
   82850    82829    82807    82788    82772    82761    82753    82745 
