Origin Time       2025/06/03 22:18:00
Lat.              41.7
Long.             143.6
Depth. (km)       30
Mag.              5.2
Station Code      HDKH04
Station Lat.      42.5126
Station Long.     142.0381
Station Height(m) 10
Record Time       2025/06/03 22:19:15
Sampling Freq(Hz) 100Hz
Duration Time(s)  120
Dir.              4
Scale Factor      7845(gal)/8223790
Max. Acc. (gal)   1.381
Last Correction   2025/06/03 22:19:16
Memo.             
[...]
   -9124    -9155    -9166    -9165    -9150    -9127    -9116    -9117 
   -9132    -9158    -9190    -9228    -9259    -9279    -9292    -9293 
   -9288    -9278    -9267    -9262    -9261    -9247    -9217    -9174 
   -9117    -9061    -9019    -9004    -9016    -9050    -9090    -9119 
   -9131    -9130    -9117    -9108    -9107    -9120    -9144    -9173 
   -9205    -9242    -9282    -9319    -9343    -9359    -9363    -9356 
   -9343    -9332    -9325    -9316    -9300    -9273    -9235    -9193 
   -9151    -9113    -9085    -9066    -9049    -9028    -9008    -8992 
   -8991    -9009    -9046    -9086    -9120    -9132    -9117    -9084 
   -9043    -9004    -8978    -8976    -8993    -9035    -9093    -9154 
   -9204    -9239    -9266    -9289    -9309    -9325    -9342    -9351 
   -9347    -9331    -9312    -9292    -9277    -9270    -9267    -9263 
   -9259    -9248    -9229    -9211    -9198    -9192    -9194    -9204 
   -9212    -9212    -9204    -9181    -9154    -9136    -9130    -9139 
   -9161    -9186    -9211    -9232    -9244    -9248    -9254    -9259 
   -9263    -9261    -9255    -9252    -9251    -9255    -9265    -9270 
   -9271    -9275    -9281    -9286    -9288    -9275    -9251    -9228 
   -9208    -9196    -9201    -9211    -9209    -9194    -9163    -9128 
   -9100    -9081    -9076    -9078    -9076    -9065    -9054    -9049 
   -9047    -9053    -9066    -9072    -9067    -9059    -9045    -9031 
   -9027    -9026    -9035    -9061    -9093    -9127    -9155    -9169 
   -9166    -9158    -9157    -9161    -9174    -9198    -9224    -9242 
   -9247    -9238    -9217    -9192    -9166    -9143    -9128    -9132 
   -9151    -9174    -9193    -9211    -9223    -9232    -9242    -9251 
   -9259    -9266    -9267    -9263    -9248    -9229    -9213    -9197 
   -9175    -9163    -9165    -9170    -9178    -9190    -9192    -9181 
   -9159    -9130    -9108    -9104    -9117    -9148    -9188    -9224 
   -9256    -9277    -9283    -9278    -9265    -9252    -9247    -9252 
   -9261    -9275    -9292    -9296    -9290    -9281    -9271    -9263 
   -9261    -9262    -9266    -9273    -9288    -9304    -9312    -9309 
   -9298    -9271    -9239    -9216    -9204    -9202    -9208    -9205 
   -9184    -9150    -9107    -9059    -9023    -9007    -9003    -9005 
   -9011    -9013    -9008    -9003    -9000    -9001    -9011    -9026 
   -9042    -9055    -9067    -9078    -9092    -9119    -9150    -9188 
   -9231    -9271    -9300    -9308    -9297    -9273    -9247    -9225 
   -9212    -9208    -9219    -9235    -9259    -9289    -9315    -9333 
   -9343    -9339    -9323    -9293    -9254    -9215    -9178    -9154 
   -9146    -9153    -9173    -9197    -9220    -9242    -9261    -9274 
   -9285    -9300    -9317    -9333    -9337    -9320    -9282    -9235 
   -9182    -9130    -9090    -9067    -9057    -9055    -9065    -9080 
   -9088    -9082    -9072    -9059    -9050    -9057    -9085    -9131 
   -9184    -9235    -9275    -9298    -9309    -9310    -9304    -9294 
   -9285    -9267    -9242    -9217    -9196    -9175    -9158    -9147 
   -9144    -9154    -9171    -9192    -9208    -9207    -9186    -9151 
   -9097    -9040    -8997    -8968    -8950    -8946    -8953    -8970 
   -8988    -8993    -8992    -8988    -8981    -8988    -9016    -9073 
   -9155    -9234    -9293    -9327    -9331    -9312    -9281    -9256 
   -9244    -9240    -9243    -9247    -9246    -9231    -9207    -9184 
   -9171    -9175    -9196    -9221    -9244    -9262    -9267    -9259 
   -9240    -9213    -9181    -9155    -9135    -9121    -9126    -9139 
   -9157    -9171    -9177    -9174    -9161    -9143    -9126    -9112 
   -9111    -9123    -9136    -9144    -9146    -9132    -9116    -9103 
   -9088    -9077    -9070    -9069    -9085    -9115    -9153    -9194 
   -9228    -9242    -9244    -9244    -9247    -9259    -9288    -9331 
   -9375    -9404    -9417    -9425    -9425    -9425    -9431    -9441 
   -9450    -9450    -9444    -9436    -9417    -9389    -9359    -9327 
   -9298    -9277    -9256    -9234    -9204    -9161    -9108    -9055 
   -9007    -8968    -8941    -8930    -8939    -8966    -9001    -9032 
   -9057    -9073    -9080    -9081    -9084    -9094    -9107    -9116 
   -9117    -9109    -9092    -9076    -9063    -9059    -9065    -9074 
   -9081    -9081    -9081    -9084    -9086    -9090    -9094    -9096 
   -9096    -9101    -9123    -9165    -9224    -9285    -9333    -9359 
   -9352    -9324    -9289    -9255    -9239    -9246    -9263    -9290 
   -9319    -9344    -9369    -9383    -9389    -9391    -9396    -9393 
   -9383    -9364    -9339    -9300    -9252    -9211    -9180    -9161 
   -9158    -9167    -9185    -9208    -9229    -9242    -9240    -9221 
   -9185    -9148    -9126    -9117    -9124    -9136    -9135    -9115 
   -9085    -9051    -9024    -9022    -9042    -9076    -9112    -9132 
   -9124    -9088    -9036    -8986    -8957    -8950    -8969    -9005 
   -9047    -9082    -9111    -9134    -9148    -9162    -9173    -9174 
   -9175    -9180    -9186    -9197    -9212    -9225    -9239    -9247 
   -9251    -9254    -9261    -9277    -9301    -9328    -9355    -9377 
   -9391    -9398    -9400    -9390    -9366    -9328    -9285    -9247 
   -9223    -9216    -9211    -9192    -9153    -9094    -9030    -8981 
   -8959    -8958    -8972    -8992    -9012    -9023    -9019    -9007 
   -8995    -8980    -8969    -8966    -8965    -8968    -8976    -8992 
   -9009    -9030    -9049    -9065    -9082    -9101    -9127    -9165 
   -9209    -9254    -9286    -9297    -9281    -9248    -9211    -9173 
   -9146    -9142    -9163    -9202    -9250    -9296    -9327    -9342 
   -9344    -9336    -9323    -9323    -9335    -9343    -9352    -9360 
   -9363    -9362    -9354    -9340    -9327    -9310    -9306    -9320 
   -9343    -9366    -9383    -9386    -9378    -9370    -9363    -9364 
   -9385    -9414    -9441    -9455    -9439    -9386    -9309    -9224 
   -9146    -9085    -9054    -9040    -9035    -9036    -9035    -9028 
   -9019    -9008    -8995    -8976    -8947    -8919    -8889    -8862 
   -8843    -8842    -8857    -8873    -8901    -8949    -8995    -9039 
   -9088    -9121    -9139    -9150    -9150    -9139    -9131    -9124 
   -9127    -9139    -9159    -9192    -9229    -9263    -9288    -9294 
   -9293    -9288    -9274    -9255    -9231    -9202    -9175    -9155 
   -9139    -9130    -9120    -9109    -9101    -9092    -9074    -9054 
   -9039    -9031    -9030    -9034    -9035    -9042    -9055    -9076 
   -9105    -9138    -9169    -9193    -9209    -9207    -9184    -9144 
   -9090    -9040    -9003    -8980    -8959    -8941    -8923    -8908 
   -8901    -8915    -8946    -9000    -9057    -9100    -9143    -9182 
   -9215    -9258    -9302    -9343    -9389    -9432    -9475    -9526 
   -9578    -9622    -9655    -9682    -9694    -9693    -9687    -9672 
   -9645    -9607    -9560    -9502    -9444    -9389    -9332    -9275 
   -9227    -9193    -9175    -9170    -9169    -9171    -9167    -9153 
   -9130    -9107    -9089    -9074    -9059    -9051    -9055    -9072 
   -9099    -9140    -9198    -9262    -9324    -9377    -9413    -9439 
   -9447    -9440    -9433    -9427    -9417    -9416    -9414    -9414 
   -9418    -9427    -9441    -9467    -9493    -9518    -9540    -9551 
   -9555    -9555    -9553    -9559    -9572    -9587    -9607    -9625 
   -9640    -9651    -9655    -9651    -9636    -9602    -9560    -9518 
   -9475    -9427    -9369    -9310    -9255    -9198    -9146    -9100 
   -9049    -8989    -8930    -8884    -8853    -8837    -8834    -8829 
   -8812    -8810    -8818    -8827    -8843    -8872    -8889    -8881 
   -8861    -8847    -8838    -8834    -8862    -8919    -8980    -9045 
   -9127    -9208    -9270    -9319    -9342    -9329    -9292    -9229 
   -9146    -9050    -8950    -8860    -8783    -8716    -8658    -8600 
   -8529    -8446    -8360    -8278    -8218    -8191    -8187    -8201 
   -8236    -8280    -8333    -8392    -8452    -8523    -8592    -8641 
   -8681    -8731    -8793    -8869    -8953    -9050    -9144    -9229 
   -9305    -9366    -9418    -9462    -9493    -9518    -9532    -9525 
   -9509    -9487    -9463    -9443    -9429    -9418    -9412    -9416 
   -9424    -9433    -9444    -9455    -9470    -9487    -9504    -9517 
   -9531    -9545    -9559    -9579    -9609    -9648    -9687    -9715 
   -9724    -9706    -9667    -9620    -9568    -9514    -9466    -9413 
   -9348    -9275    -9205    -9142    -9090    -9057    -9045    -9054 
   -9078    -9111    -9153    -9193    -9225    -9256    -9285    -9301 
   -9309    -9315    -9304    -9277    -9240    -9197    -9150    -9103 
   -9065    -9045    -9039    -9038    -9036    -9031    -9015    -8992 
   -8965    -8937    -8912    -8892    -8874    -8861    -8841    -8819 
   -8808    -8787    -8762    -8766    -8783    -8793    -8812    -8841 
   -8873    -8914    -8953    -8982    -9018    -9050    -9062    -9073 
   -9076    -9065    -9051    -9039    -9024    -9005    -8973    -8930 
   -8876    -8816    -8764    -8716    -8684    -8696    -8753    -8838 
   -8957    -9096    -9243    -9394    -9541    -9671    -9786    -9873 
   -9926    -9948    -9937    -9909    -9879    -9853    -9833    -9825 
   -9818    -9809    -9806    -9817    -9841    -9882    -9930    -9976 
  -10011   -10027   -10017    -9979    -9934    -9886    -9834    -9788 
   -9748    -9711    -9676    -9637    -9598    -9556    -9509    -9456 
   -9390    -9309    -9217    -9121    -9032    -8957    -8888    -8820 
   -8750    -8676    -8603    -8525    -8457    -8409    -8363    -8320 
   -8283    -8233    -8181    -8156    -8166    -8203    -8282    -8391 
   -8522    -8668    -8802    -8928    -9077    -9227    -9359    -9486 
   -9595    -9670    -9707    -9707    -9668    -9606    -9529    -9454 
   -9391    -9343    -9309    -9290    -9275    -9262    -9255    -9246 
   -9232    -9208    -9157    -9089    -9016    -8935    -8856    -8783 
   -8707    -8645    -8599    -8549    -8513    -8503    -8513    -8554 
   -8633    -8730    -8830    -8915    -8976    -9023    -9063    -9103 
   -9140    -9181    -9220    -9243    -9255    -9265    -9273    -9288 
   -9316    -9359    -9413    -9479    -9567    -9671    -9787    -9907 
  -10017   -10099   -10145   -10143   -10098   -10029    -9938    -9825 
   -9705    -9587    -9477    -9378    -9306    -9265    -9244    -9238 
   -9236    -9234    -9225    -9212    -9188    -9153    -9109    -9049 
   -8969    -8891    -8816    -8745    -8698    -8681    -8679    -8689 
   -8721    -8752    -8792    -8864    -8953    -9028    -9086    -9131 
   -9150    -9142    -9127    -9119    -9117    -9131    -9163    -9204 
   -9251    -9306    -9369    -9439    -9502    -9548    -9571    -9570 
   -9555    -9545    -9552    -9578    -9618    -9664    -9703    -9730 
   -9737    -9728    -9702    -9657    -9598    -9521    -9439    -9363 
   -9289    -9220    -9163    -9111    -9057    -9001    -8942    -8881 
   -8816    -8731    -8625    -8515    -8411    -8311    -8233    -8190 
   -8178    -8203    -8256    -8332    -8430    -8530    -8637    -8754 
   -8866    -8976    -9082    -9175    -9252    -9305    -9332    -9347 
   -9363    -9391    -9445    -9509    -9571    -9624    -9655    -9656 
   -9636    -9595    -9544    -9491    -9443    -9404    -9378    -9360 
   -9339    -9310    -9273    -9221    -9162    -9105    -9051    -8997 
   -8950    -8920    -8927    -8970    -9040    -9132    -9231    -9319 
   -9398    -9463    -9508    -9537    -9547    -9525    -9470    -9389 
   -9300    -9220    -9158    -9119    -9103    -9107    -9116    -9126 
   -9134    -9142    -9143    -9144    -9157    -9175    -9192    -9200 
   -9193    -9161    -9097    -9020    -8950    -8899    -8878    -8897 
   -8943    -9000    -9069    -9142    -9196    -9239    -9261    -9259 
   -9246    -9217    -9178    -9139    -9099    -9053    -8996    -8924 
   -8851    -8787    -8734    -8714    -8727    -8770    -8839    -8926 
   -9024    -9128    -9223    -9324    -9429    -9520    -9606    -9679 
   -9721    -9747    -9761    -9764    -9757    -9744    -9724    -9698 
   -9659    -9603    -9531    -9445    -9358    -9288    -9247    -9240 
   -9259    -9297    -9336    -9359    -9354    -9319    -9251    -9159 
   -9057    -8961    -8878    -8816    -8777    -8766    -8776    -8792 
   -8819    -8857    -8896    -8920    -8939    -8969    -8993    -9007 
   -9012    -8991    -8942    -8889    -8841    -8807    -8795    -8802 
   -8838    -8899    -8950    -8989    -9020    -9034    -9030    -9020 
   -9022    -9036    -9069    -9113    -9159    -9194    -9211    -9220 
   -9227    -9229    -9234    -9239    -9250    -9271    -9297    -9327 
   -9356    -9382    -9394    -9387    -9364    -9329    -9282    -9235 
   -9197    -9171    -9166    -9181    -9212    -9258    -9306    -9347 
   -9375    -9377    -9351    -9310    -9261    -9219    -9201    -9211 
   -9242    -9289    -9342    -9391    -9447    -9502    -9553    -9589 
   -9601    -9590    -9559    -9508    -9452    -9398    -9351    -9300 
   -9231    -9147    -9047    -8922    -8780    -8640    -8503    -8386 
   -8310    -8282    -8295    -8338    -8387    -8430    -8478    -8530 
   -8596    -8679    -8780    -8914    -9077    -9252    -9439    -9634 
   -9823    -9994   -10145   -10274   -10390   -10490   -10566   -10613 
  -10631   -10613   -10562   -10489   -10399   -10297   -10191   -10084 
   -9976    -9871    -9764    -9660    -9558    -9444    -9321    -9193 
   -9066    -8946    -8838    -8745    -8665    -8592    -8541    -8518 
   -8505    -8498    -8499    -8490    -8469    -8463    -8468    -8480 
   -8506    -8548    -8594    -8627    -8646    -8668    -8699    -8742 
   -8810    -8901    -9003    -9100    -9178    -9228    -9250    -9255 
   -9258    -9274    -9309    -9355    -9396    -9423    -9418    -9389 
   -9346    -9298    -9259    -9236    -9224    -9212    -9194    -9174 
   -9151    -9126    -9099    -9069    -9034    -8985    -8926    -8861 
   -8800    -8746    -8700    -8676    -8662    -8650    -8660    -8680 
   -8703    -8741    -8797    -8870    -8965    -9063    -9151    -9238 
   -9309    -9358    -9390    -9397    -9383    -9369    -9352    -9332 
   -9317    -9306    -9285    -9250    -9201    -9142    -9078    -9022 
   -8972    -8927    -8883    -8834    -8785    -8757    -8765    -8806 
   -8884    -9011    -9170    -9339    -9505    -9672    -9822    -9938 
  -10025   -10080   -10108   -10116   -10108   -10092   -10062   -10017 
   -9956    -9877    -9796    -9728    -9682    -9656    -9637    -9621 
   -9599    -9566    -9518    -9463    -9404    -9342    -9271    -9198 
   -9136    -9092    -9063    -9051    -9045    -9034    -9011    -8959 
   -8887    -8804    -8729    -8673    -8637    -8619    -8621    -8633 
   -8649    -8665    -8679    -8700    -8733    -8781    -8847    -8922 
   -8991    -9046    -9077    -9073    -9054    -9028    -9004    -9012 
   -9058    -9139    -9247    -9360    -9464    -9548    -9605    -9628 
   -9624    -9605    -9568    -9512    -9429    -9321    -9208    -9108 
   -9039    -9004    -8995    -9008    -9039    -9076    -9107    -9135 
   -9158    -9169    -9171    -9170    -9163    -9155    -9150    -9140 
   -9123    -9093    -9054    -9011    -8969    -8942    -8935    -8954 
   -8996    -9057    -9132    -9207    -9265    -9316    -9352    -9371 
   -9381    -9370    -9347    -9317    -9278    -9235    -9200    -9163 
   -9123    -9082    -9038    -8986    -8932    -8876    -8819    -8762 
   -8703    -8660    -8652    -8665    -8702    -8769    -8843    -8903 
   -8949    -8986    -9015    -9035    -9066    -9109    -9151    -9201 
   -9254    -9297    -9335    -9367    -9400    -9433    -9459    -9475 
   -9479    -9471    -9445    -9405    -9358    -9317    -9293    -9283 
   -9283    -9290    -9297    -9293    -9278    -9259    -9239    -9220 
   -9209    -9216    -9238    -9262    -9286    -9308    -9319    -9323 
   -9331    -9339    -9343    -9339    -9320    -9289    -9255    -9219 
   -9192    -9178    -9174    -9171    -9167    -9163    -9153    -9142 
   -9142    -9144    -9136    -9117    -9092    -9069    -9061    -9076 
   -9109    -9158    -9213    -9262    -9296    -9312    -9309    -9277 
   -9227    -9175    -9138    -9121    -9134    -9165    -9198    -9228 
   -9251    -9263    -9263    -9252    -9242    -9234    -9217    -9193 
   -9165    -9135    -9109    -9090    -9086    -9096    -9116    -9139 
   -9159    -9170    -9171    -9162    -9142    -9126    -9120    -9120 
   -9124    -9136    -9154    -9181    -9219    -9261    -9301    -9331 
   -9342    -9332    -9308    -9275    -9247    -9238    -9250    -9278 
   -9325    -9383    -9437    -9479    -9513    -9544    -9574    -9601 
   -9624    -9630    -9612    -9570    -9509    -9444    -9394    -9360 
   -9331    -9301    -9267    -9223    -9167    -9112    -9069    -9043 
   -9027    -9022    -9020    -9020    -9019    -9015    -9003    -8978 
   -8939    -8888    -8833    -8783    -8738    -8698    -8684    -8706 
   -8737    -8769    -8815    -8862    -8908    -8961    -9004    -9026 
   -9045    -9055    -9042    -9028    -9020    -9011    -9015    -9035 
   -9067    -9105    -9136    -9155    -9158    -9147    -9136    -9138 
   -9154    -9185    -9232    -9281    -9316    -9342    -9362    -9375 
   -9393    -9412    -9413    -9393    -9351    -9288    -9217    -9165 
   -9140    -9143    -9171    -9208    -9231    -9238    -9232    -9221 
   -9216    -9224    -9244    -9270    -9296    -9324    -9355    -9389 
   -9425    -9464    -9497    -9521    -9537    -9540    -9525    -9498 
   -9464    -9432    -9410    -9396    -9385    -9373    -9350    -9304 
   -9232    -9144    -9055    -8970    -8893    -8823    -8754    -8688 
   -8634    -8583    -8536    -8511    -8510    -8525    -8565    -8630 
   -8706    -8789    -8874    -8953    -9023    -9090    -9155    -9217 
   -9278    -9336    -9394    -9454    -9512    -9572    -9641    -9717 
   -9792    -9872    -9949   -10018   -10068   -10093   -10091   -10058 
  -10006    -9936    -9857    -9780    -9703    -9629    -9559    -9489 
   -9425    -9373    -9327    -9290    -9265    -9248    -9231    -9208 
   -9175    -9130    -9073    -9012    -8950    -8891    -8842    -8807 
   -8784    -8766    -8745    -8730    -8714    -8691    -8677    -8677 
   -8680    -8691    -8708    -8730    -8754    -8766    -8766    -8762 
   -8745    -8722    -8714    -8702    -8679    -8662    -8654    -8649 
   -8656    -8681    -8730    -8800    -8885    -8973    -9054    -9131 
   -9204    -9263    -9310    -9352    -9390    -9436    -9501    -9575 
   -9649    -9711    -9756    -9775    -9765    -9741    -9711    -9672 
   -9628    -9580    -9526    -9456    -9370    -9269    -9153    -9032 
   -8931    -8861    -8820    -8810    -8827    -8847    -8850    -8845 
   -8841    -8835    -8833    -8847    -8880    -8908    -8931    -8966 
   -9008    -9040    -9081    -9130    -9170    -9207    -9252    -9301 
   -9354    -9412    -9472    -9526    -9562    -9580    -9589    -9593 
   -9595    -9601    -9607    -9612    -9610    -9601    -9582    -9560 
   -9540    -9522    -9514    -9517    -9516    -9499    -9471    -9427 
