Origin Time       2025/06/03 22:18:00
Lat.              41.7
Long.             143.6
Depth. (km)       30
Mag.              5.2
Station Code      HDKH01
Station Lat.      42.7031
Station Long.     142.2296
Station Height(m) 82
Record Time       2025/06/03 22:19:13
Sampling Freq(Hz) 100Hz
Duration Time(s)  120
Dir.              6
Scale Factor      7845(gal)/8223790
Max. Acc. (gal)   0.307
Last Correction   2025/06/03 22:19:15
Memo.             
[...]
  -14600   -14593   -14594   -14585   -14571   -14554   -14527   -14517 
  -14519   -14523   -14536   -14542   -14546   -14558   -14569   -14589 
  -14612   -14623   -14628   -14619   -14604   -14597   -14588   -14584 
  -14594   -14605   -14616   -14619   -14607   -14601   -14600   -14600 
  -14613   -14624   -14632   -14639   -14624   -14608   -14593   -14570 
  -14553   -14531   -14513   -14505   -14493   -14490   -14494   -14494 
  -14507   -14528   -14546   -14575   -14600   -14613   -14625   -14625 
  -14629   -14640   -14643   -14650   -14646   -14623   -14604   -14585 
  -14575   -14588   -14600   -14616   -14634   -14635   -14635   -14627 
  -14617   -14627   -14628   -14623   -14634   -14643   -14648   -14644 
  -14620   -14601   -14592   -14586   -14605   -14628   -14650   -14670 
  -14663   -14642   -14619   -14605   -14619   -14628   -14617   -14611 
  -14607   -14611   -14620   -14619   -14621   -14621   -14602   -14581 
  -14555   -14534   -14531   -14524   -14516   -14515   -14515   -14530 
  -14543   -14544   -14557   -14571   -14580   -14585   -14569   -14547 
  -14534   -14516   -14509   -14512   -14516   -14528   -14538   -14554 
  -14582   -14596   -14604   -14613   -14615   -14625   -14636   -14634 
  -14640   -14642   -14627   -14607   -14573   -14553   -14548   -14555 
  -14585   -14620   -14646   -14669   -14678   -14685   -14696   -14693 
  -14686   -14677   -14655   -14647   -14643   -14636   -14643   -14647 
  -14648   -14652   -14639   -14625   -14617   -14604   -14601   -14604 
  -14604   -14608   -14600   -14592   -14592   -14581   -14569   -14551 
  -14521   -14509   -14519   -14538   -14570   -14593   -14600   -14596 
  -14578   -14567   -14571   -14578   -14585   -14578   -14570   -14575 
  -14577   -14578   -14589   -14596   -14611   -14623   -14619   -14609 
  -14593   -14582   -14593   -14608   -14623   -14639   -14644   -14648 
  -14639   -14616   -14602   -14588   -14575   -14577   -14578   -14590 
  -14611   -14623   -14638   -14644   -14640   -14648   -14655   -14665 
  -14681   -14677   -14675   -14690   -14705   -14727   -14737   -14732 
  -14728   -14716   -14696   -14679   -14655   -14634   -14615   -14592 
  -14592   -14602   -14609   -14615   -14601   -14578   -14565   -14550 
  -14546   -14551   -14557   -14581   -14598   -14600   -14597   -14582 
  -14567   -14565   -14565   -14569   -14563   -14551   -14554   -14561 
  -14566   -14580   -14586   -14590   -14590   -14578   -14578   -14586 
  -14590   -14604   -14609   -14601   -14597   -14584   -14575   -14577 
  -14575   -14578   -14566   -14540   -14521   -14499   -14478   -14472 
  -14461   -14459   -14467   -14472   -14485   -14505   -14521   -14542 
  -14550   -14550   -14550   -14535   -14521   -14513   -14511   -14531 
  -14554   -14570   -14589   -14592   -14588   -14586   -14581   -14589 
  -14609   -14629   -14658   -14667   -14662   -14665   -14667   -14673 
  -14678   -14669   -14665   -14663   -14655   -14648   -14639   -14635 
  -14644   -14647   -14652   -14658   -14648   -14636   -14620   -14597 
  -14590   -14586   -14584   -14586   -14573   -14559   -14550   -14536 
  -14546   -14570   -14594   -14620   -14628   -14629   -14635   -14625 
  -14617   -14620   -14624   -14640   -14650   -14639   -14634   -14627 
  -14625   -14631   -14621   -14608   -14600   -14589   -14594   -14602 
  -14605   -14615   -14617   -14615   -14604   -14578   -14563   -14563 
  -14559   -14566   -14580   -14596   -14617   -14627   -14636   -14650 
  -14655   -14661   -14651   -14628   -14617   -14611   -14608   -14611 
  -14598   -14582   -14573   -14565   -14571   -14577   -14573   -14577 
  -14577   -14577   -14585   -14582   -14584   -14592   -14582   -14574 
  -14562   -14542   -14536   -14538   -14540   -14551   -14555   -14563 
  -14570   -14565   -14562   -14559   -14551   -14559   -14569   -14581 
  -14593   -14593   -14596   -14592   -14573   -14559   -14551   -14554 
  -14580   -14604   -14623   -14643   -14650   -14655   -14661   -14658 
  -14665   -14670   -14667   -14669   -14659   -14647   -14640   -14628 
  -14624   -14624   -14623   -14628   -14628   -14625   -14635   -14642 
  -14652   -14667   -14667   -14669   -14663   -14648   -14638   -14623 
  -14611   -14613   -14612   -14620   -14642   -14654   -14661   -14655 
  -14631   -14609   -14589   -14574   -14569   -14561   -14558   -14559 
  -14553   -14550   -14548   -14543   -14540   -14526   -14511   -14515 
  -14519   -14524   -14531   -14531   -14540   -14547   -14553   -14578 
  -14608   -14638   -14669   -14677   -14675   -14673   -14665   -14667 
  -14666   -14658   -14661   -14654   -14640   -14634   -14625   -14625 
  -14625   -14615   -14607   -14594   -14586   -14608   -14634   -14656 
  -14670   -14661   -14647   -14624   -14589   -14565   -14542   -14516 
  -14501   -14484   -14477   -14486   -14494   -14516   -14539   -14550 
  -14571   -14588   -14590   -14601   -14602   -14597   -14596   -14586 
  -14577   -14571   -14569   -14584   -14600   -14615   -14634   -14643 
  -14658   -14679   -14686   -14698   -14704   -14692   -14688   -14682 
  -14674   -14674   -14659   -14642   -14634   -14625   -14632   -14647 
  -14651   -14656   -14652   -14643   -14635   -14616   -14598   -14593 
  -14594   -14604   -14602   -14588   -14582   -14570   -14561   -14571 
  -14588   -14608   -14624   -14624   -14619   -14601   -14575   -14558 
  -14543   -14546   -14561   -14561   -14557   -14543   -14521   -14515 
  -14516   -14521   -14540   -14551   -14555   -14557   -14550   -14562 
  -14581   -14588   -14594   -14596   -14600   -14615   -14621   -14628 
  -14635   -14625   -14613   -14601   -14585   -14589   -14598   -14612 
  -14635   -14652   -14670   -14685   -14681   -14677   -14663   -14643 
  -14632   -14624   -14627   -14639   -14634   -14627   -14623   -14612 
  -14609   -14609   -14602   -14602   -14600   -14590   -14575   -14555 
  -14546   -14543   -14542   -14550   -14561   -14571   -14586   -14588 
  -14586   -14586   -14573   -14558   -14542   -14519   -14515   -14516 
  -14516   -14521   -14515   -14501   -14489   -14465   -14449   -14446 
  -14445   -14458   -14472   -14480   -14493   -14500   -14516   -14544 
  -14561   -14570   -14570   -14559   -14558   -14557   -14562   -14581 
  -14589   -14589   -14586   -14581   -14593   -14605   -14604   -14601 
  -14589   -14566   -14540   -14505   -14481   -14473   -14465   -14469 
  -14476   -14474   -14473   -14462   -14450   -14453   -14458   -14469 
  -14488   -14507   -14536   -14567   -14597   -14632   -14656   -14677 
  -14704   -14719   -14732   -14740   -14727   -14708   -14689   -14670 
  -14659   -14643   -14636   -14643   -14642   -14640   -14640   -14632 
  -14639   -14642   -14629   -14619   -14597   -14580   -14577   -14573 
  -14577   -14589   -14598   -14611   -14611   -14604   -14608   -14605 
  -14596   -14593   -14592   -14608   -14634   -14646   -14658   -14670 
  -14677   -14683   -14674   -14658   -14654   -14656   -14674   -14688 
  -14690   -14698   -14698   -14685   -14674   -14658   -14650   -14655 
  -14658   -14667   -14681   -14693   -14715   -14727   -14733   -14744 
  -14739   -14725   -14698   -14656   -14624   -14600   -14585   -14592 
  -14602   -14617   -14639   -14647   -14652   -14651   -14638   -14631 
  -14624   -14615   -14620   -14624   -14631   -14639   -14636   -14640 
  -14650   -14642   -14625   -14607   -14592   -14596   -14598   -14601 
  -14609   -14607   -14607   -14605   -14590   -14575   -14558   -14543 
  -14544   -14542   -14544   -14555   -14553   -14553   -14562   -14570 
  -14588   -14607   -14627   -14650   -14646   -14628   -14617   -14604 
  -14597   -14605   -14609   -14620   -14632   -14640   -14646   -14636 
  -14628   -14627   -14620   -14628   -14644   -14656   -14667   -14669 
  -14675   -14696   -14704   -14708   -14719   -14725   -14740   -14744 
  -14735   -14732   -14723   -14705   -14693   -14666   -14643   -14634 
  -14623   -14623   -14628   -14631   -14639   -14639   -14632   -14623 
  -14597   -14574   -14562   -14548   -14547   -14543   -14531   -14532 
  -14532   -14534   -14546   -14546   -14548   -14558   -14558   -14565 
  -14571   -14563   -14555   -14540   -14521   -14507   -14493   -14497 
  -14508   -14508   -14511   -14508   -14494   -14484   -14467   -14451 
  -14442   -14432   -14435   -14436   -14431   -14442   -14450   -14453 
  -14461   -14461   -14463   -14474   -14477   -14490   -14515   -14535 
  -14563   -14581   -14580   -14578   -14571   -14571   -14585   -14596 
  -14607   -14611   -14594   -14574   -14550   -14532   -14531   -14524 
  -14526   -14539   -14543   -14551   -14563   -14573   -14597   -14613 
  -14617   -14617   -14602   -14589   -14581   -14574   -14590   -14616 
  -14631   -14647   -14648   -14639   -14635   -14624   -14616   -14615 
  -14611   -14619   -14632   -14642   -14661   -14682   -14705   -14731 
  -14743   -14747   -14748   -14744   -14756   -14774   -14787   -14809 
  -14824   -14831   -14835   -14814   -14791   -14771   -14744   -14733 
  -14727   -14715   -14708   -14694   -14679   -14666   -14638   -14605 
  -14573   -14536   -14512   -14492   -14478   -14480   -14476   -14470 
  -14473   -14467   -14466   -14461   -14450   -14453   -14455   -14458 
  -14465   -14463   -14465   -14472   -14472   -14476   -14474   -14463 
  -14466   -14469   -14466   -14470   -14472   -14478   -14489   -14493 
  -14503   -14517   -14524   -14534   -14538   -14532   -14532   -14534 
  -14539   -14544   -14539   -14534   -14531   -14534   -14550   -14567 
  -14590   -14611   -14611   -14617   -14635   -14656   -14694   -14735 
  -14764   -14800   -14820   -14824   -14821   -14796   -14763   -14732 
  -14708   -14713   -14729   -14744   -14763   -14764   -14752   -14747 
  -14731   -14719   -14708   -14683   -14662   -14648   -14640   -14642 
  -14640   -14643   -14654   -14654   -14659   -14667   -14666   -14667 
  -14659   -14639   -14623   -14600   -14577   -14561   -14535   -14517 
  -14508   -14493   -14481   -14466   -14453   -14453   -14451   -14457 
  -14470   -14477   -14493   -14515   -14530   -14551   -14571   -14584 
  -14593   -14586   -14575   -14574   -14581   -14602   -14623   -14632 
  -14642   -14639   -14628   -14620   -14604   -14586   -14570   -14547 
  -14532   -14519   -14508   -14515   -14528   -14550   -14577   -14590 
  -14607   -14621   -14619   -14612   -14600   -14586   -14586   -14588 
  -14588   -14596   -14608   -14629   -14648   -14656   -14658   -14646 
  -14628   -14623   -14612   -14605   -14613   -14619   -14629   -14636 
  -14620   -14593   -14551   -14508   -14481   -14459   -14457   -14481 
  -14513   -14557   -14600   -14631   -14661   -14682   -14689   -14697 
  -14697   -14689   -14679   -14671   -14679   -14697   -14715   -14744 
  -14767   -14769   -14762   -14737   -14710   -14693   -14667   -14642 
  -14608   -14558   -14500   -14432   -14378   -14354   -14335   -14331 
  -14345   -14358   -14385   -14419   -14449   -14482   -14509   -14528 
  -14540   -14532   -14516   -14494   -14469   -14463   -14463   -14472 
  -14507   -14542   -14581   -14625   -14655   -14679   -14694   -14686 
  -14679   -14670   -14658   -14658   -14656   -14654   -14662   -14665 
  -14670   -14673   -14663   -14663   -14663   -14659   -14666   -14669 
  -14669   -14669   -14656   -14650   -14651   -14647   -14651   -14654 
  -14659   -14678   -14696   -14710   -14723   -14725   -14737   -14755 
  -14769   -14790   -14804   -14808   -14813   -14808   -14802   -14809 
  -14810   -14818   -14818   -14805   -14802   -14797   -14782   -14766 
  -14733   -14702   -14673   -14634   -14615   -14621   -14636   -14662 
  -14681   -14689   -14689   -14671   -14651   -14640   -14627   -14629 
  -14642   -14651   -14669   -14681   -14686   -14694   -14692   -14686 
  -14683   -14666   -14644   -14617   -14588   -14567   -14546   -14528 
  -14520   -14517   -14521   -14523   -14509   -14509   -14508   -14492 
  -14474   -14457   -14447   -14447   -14442   -14442   -14439   -14420 
  -14397   -14369   -14338   -14330   -14338   -14359   -14396   -14431 
  -14473   -14504   -14517   -14526   -14515   -14489   -14474   -14455 
  -14438   -14432   -14423   -14427   -14435   -14438   -14447   -14451 
  -14449   -14451   -14440   -14428   -14422   -14409   -14419   -14440 
  -14451   -14462   -14458   -14445   -14428   -14396   -14362   -14334 
  -14310   -14310   -14323   -14339   -14374   -14412   -14442   -14469 
  -14478   -14485   -14494   -14492   -14489   -14485   -14482   -14492 
  -14505   -14523   -14546   -14559   -14574   -14592   -14601   -14612 
  -14620   -14634   -14665   -14693   -14725   -14763   -14790   -14817 
  -14839   -14840   -14837   -14821   -14796   -14783   -14773   -14769 
  -14775   -14771   -14767   -14763   -14754   -14754   -14747   -14731 
  -14725   -14708   -14688   -14683   -14682   -14686   -14696   -14701 
  -14710   -14709   -14702   -14701   -14689   -14679   -14678   -14666 
  -14666   -14679   -14685   -14692   -14690   -14682   -14679   -14667 
  -14652   -14647   -14643   -14650   -14661   -14670   -14692   -14708 
  -14709   -14709   -14706   -14708   -14710   -14698   -14685   -14674 
  -14663   -14662   -14655   -14647   -14648   -14644   -14643   -14642 
  -14631   -14624   -14609   -14586   -14573   -14555   -14544   -14553 
  -14565   -14586   -14605   -14612   -14627   -14644   -14656   -14670 
  -14675   -14681   -14694   -14696   -14692   -14683   -14667   -14658 
  -14643   -14619   -14596   -14562   -14524   -14490   -14445   -14404 
  -14372   -14337   -14312   -14291   -14277   -14289   -14304   -14322 
  -14345   -14354   -14355   -14354   -14342   -14338   -14342   -14357 
  -14393   -14432   -14481   -14536   -14577   -14617   -14659   -14689 
  -14720   -14743   -14756   -14767   -14763   -14763   -14777   -14781 
  -14783   -14785   -14775   -14769   -14760   -14744   -14728   -14701 
  -14677   -14661   -14643   -14638   -14634   -14623   -14617   -14604 
  -14585   -14575   -14559   -14539   -14524   -14504   -14490   -14473 
  -14447   -14432   -14424   -14423   -14439   -14455   -14481   -14511 
  -14532   -14559   -14582   -14590   -14600   -14608   -14619   -14632 
  -14639   -14654   -14667   -14669   -14683   -14697   -14704   -14716 
  -14720   -14715   -14708   -14692   -14686   -14688   -14689   -14702 
  -14713   -14716   -14725   -14720   -14705   -14698   -14685   -14679 
  -14682   -14683   -14701   -14724   -14737   -14751   -14751   -14746 
  -14743   -14729   -14723   -14723   -14719   -14731   -14744   -14747 
  -14756   -14759   -14759   -14766   -14764   -14769   -14775   -14777 
  -14787   -14791   -14785   -14767   -14728   -14686   -14651   -14611 
  -14584   -14573   -14567   -14574   -14582   -14592   -14604   -14598 
  -14585   -14569   -14543   -14530   -14524   -14520   -14532   -14550 
  -14573   -14608   -14632   -14652   -14670   -14671   -14669   -14661 
  -14642   -14625   -14604   -14581   -14565   -14539   -14517   -14497 
  -14461   -14427   -14400   -14377   -14365   -14354   -14343   -14337 
  -14320   -14312   -14310   -14297   -14304   -14322   -14334   -14350 
  -14358   -14364   -14377   -14389   -14403   -14411   -14415   -14432 
  -14445   -14449   -14470   -14490   -14509   -14532   -14538   -14547 
  -14561   -14558   -14555   -14544   -14532   -14534   -14535   -14538 
  -14547   -14546   -14548   -14555   -14561   -14578   -14593   -14598 
  -14608   -14602   -14596   -14602   -14605   -14619   -14639   -14654 
  -14674   -14689   -14693   -14697   -14694   -14696   -14709   -14712 
  -14716   -14716   -14704   -14701   -14694   -14679   -14677   -14669 
  -14662   -14658   -14652   -14665   -14681   -14689   -14706   -14716 
  -14716   -14720   -14720   -14721   -14725   -14721   -14720   -14712 
  -14696   -14685   -14667   -14651   -14647   -14639   -14635   -14635 
  -14627   -14624   -14615   -14598   -14590   -14574   -14558   -14554 
  -14548   -14548   -14553   -14548   -14546   -14536   -14527   -14528 
  -14519   -14507   -14503   -14488   -14482   -14492   -14500   -14515 
  -14530   -14536   -14543   -14539   -14536   -14547   -14559   -14577 
  -14598   -14609   -14625   -14634   -14632   -14628   -14608   -14590 
  -14585   -14571   -14566   -14566   -14565   -14574   -14578   -14569 
  -14561   -14544   -14534   -14531   -14523   -14531   -14547   -14558 
  -14578   -14597   -14617   -14644   -14661   -14678   -14697   -14706 
  -14721   -14731   -14723   -14724   -14721   -14717   -14728   -14731 
  -14728   -14727   -14717   -14708   -14697   -14681   -14673   -14662 
  -14650   -14647   -14644   -14651   -14662   -14663   -14669   -14666 
  -14654   -14644   -14624   -14601   -14594   -14586   -14582   -14580 
  -14571   -14567   -14559   -14551   -14558   -14561   -14563   -14575 
  -14580   -14590   -14601   -14604   -14617   -14627   -14627   -14631 
  -14619   -14608   -14613   -14609   -14602   -14601   -14600   -14612 
  -14620   -14620   -14625   -14624   -14617   -14615   -14601   -14592 
  -14593   -14589   -14594   -14598   -14597   -14598   -14586   -14569 
  -14558   -14543   -14538   -14535   -14530   -14540   -14555   -14570 
  -14596   -14617   -14644   -14679   -14700   -14719   -14731   -14737 
  -14751   -14758   -14754   -14751   -14735   -14713   -14688   -14650 
  -14625   -14611   -14588   -14562   -14523   -14477   -14446   -14418 
  -14403   -14399   -14392   -14392   -14396   -14395   -14405   -14419 
  -14434   -14458   -14474   -14493   -14512   -14531   -14557   -14580 
  -14597   -14623   -14643   -14661   -14675   -14667   -14659   -14655 
  -14638   -14616   -14590   -14561   -14539   -14517   -14492   -14470 
  -14453   -14449   -14453   -14462   -14486   -14507   -14520   -14538 
  -14543   -14550   -14569   -14582   -14598   -14616   -14623   -14635 
  -14643   -14647   -14656   -14654   -14650   -14650   -14639   -14639 
  -14642   -14634   -14634   -14634   -14625   -14624   -14620   -14617 
  -14617   -14607   -14598   -14592   -14582   -14589   -14597   -14602 
  -14616   -14624   -14631   -14643   -14648   -14655   -14659   -14662 
  -14673   -14675   -14674   -14677   -14669   -14662   -14659   -14651 
  -14648   -14648   -14647   -14652   -14654   -14654   -14662   -14663 
  -14670   -14682   -14694   -14715   -14728   -14729   -14735   -14733 
  -14733   -14736   -14725   -14715   -14708   -14700   -14705   -14705 
  -14697   -14694   -14682   -14669   -14669   -14665   -14661   -14654 
  -14642   -14635   -14623   -14605   -14598   -14586   -14577   -14574 
  -14559   -14540   -14519   -14493   -14480   -14470   -14462   -14462 
  -14461   -14462   -14472   -14470   -14473   -14477   -14478   -14488 
  -14489   -14488   -14492   -14485   -14477   -14476   -14466   -14467 
  -14469   -14461   -14463   -14469   -14473   -14484   -14482   -14480 
  -14484   -14472   -14463   -14459   -14449   -14447   -14446   -14447 
  -14455   -14461   -14473   -14492   -14505   -14530   -14554   -14566 
  -14584   -14596   -14598   -14608   -14613   -14620   -14632   -14638 
  -14650   -14663   -14670   -14681   -14683   -14675   -14673   -14665 
  -14661   -14663   -14659   -14659   -14655   -14644   -14648   -14650 
  -14646   -14651   -14652   -14652   -14651   -14644   -14643   -14636 
  -14629   -14634   -14631   -14624   -14621   -14608   -14601   -14600 
  -14588   -14586   -14588   -14588   -14594   -14592   -14590   -14593 
