Origin Time       2025/06/03 22:18:00
Lat.              41.7
Long.             143.6
Depth. (km)       30
Mag.              5.2
Station Code      HDKH06
Station Lat.      42.3498
Station Long.     142.3572
Station Height(m) 10
Record Time       2025/06/03 22:18:50
Sampling Freq(Hz) 100Hz
Duration Time(s)  120
Dir.              4
Scale Factor      7845(gal)/8223790
Max. Acc. (gal)   2.606
Last Correction   2025/06/03 22:18:50
Memo.             
[...]
   52832    52853    52880    52914    52953    52996    53041    53082 
   53118    53149    53175    53200    53233    53277    53334    53404 
   53487    53566    53636    53694    53728    53738    53731    53709 
   53686    53674    53676    53689    53704    53709    53698    53667 
   53617    53551    53476    53391    53299    53210    53131    53063 
   53014    52986    52969    52964    52968    52980    52999    53018 
   53034    53050    53061    53064    53071    53075    53075    53087 
   53109    53140    53183    53239    53307    53380    53451    53524 
   53599    53671    53747    53825    53902    53974    54039    54090 
   54125    54147    54151    54132    54099    54055    53994    53928 
   53865    53796    53724    53649    53572    53495    53423    53350 
   53275    53192    53102    52998    52890    52779    52675    52585 
   52506    52438    52381    52343    52323    52323    52342    52377 
   52427    52483    52550    52623    52701    52787    52883    52983 
   53087    53195    53298    53401    53508    53605    53694    53782 
   53866    53944    54018    54089    54156    54221    54282    54329 
   54355    54363    54346    54307    54257    54202    54144    54087 
   54024    53943    53846    53730    53596    53453    53304    53160 
   53025    52902    52790    52686    52596    52516    52443    52380 
   52334    52308    52300    52313    52343    52377    52409    52442 
   52479    52523    52573    52635    52709    52794    52893    53009 
   53136    53269    53407    53534    53642    53730    53800    53859 
   53920    53986    54058    54135    54216    54287    54340    54371 
   54380    54364    54332    54291    54245    54197    54151    54112 
   54072    54032    53983    53921    53833    53713    53565    53399 
   53223    53056    52910    52791    52698    52636    52601    52586 
   52582    52581    52574    52560    52546    52532    52525    52536 
   52571    52628    52704    52786    52863    52932    52984    53026 
   53069    53118    53172    53235    53306    53377    53447    53515 
   53573    53620    53665    53709    53757    53815    53881    53947 
   54009    54059    54086    54076    54036    53975    53896    53805 
   53712    53623    53547    53488    53441    53404    53376    53349 
   53320    53288    53249    53202    53152    53104    53061    53021 
   52979    52932    52879    52826    52778    52740    52721    52716 
   52718    52733    52758    52797    52855    52926    53007    53098 
   53187    53273    53357    53433    53503    53569    53627    53677 
   53717    53743    53754    53751    53746    53747    53758    53779 
   53813    53851    53885    53912    53935    53950    53950    53933 
   53905    53862    53805    53740    53669    53596    53519    53445 
   53379    53315    53250    53184    53117    53053    53002    52959 
   52924    52897    52872    52845    52826    52818    52818    52833 
   52857    52876    52888    52898    52907    52922    52947    52987 
   53041    53104    53169    53230    53289    53342    53389    53433 
   53474    53509    53539    53562    53578    53590    53603    53615 
   53635    53663    53694    53720    53734    53734    53723    53705 
   53685    53658    53624    53585    53541    53496    53461    53438 
   53424    53418    53404    53381    53346    53298    53242    53185 
   53125    53068    53021    52979    52942    52920    52914    52928 
   52957    52998    53045    53094    53141    53185    53227    53266 
   53304    53341    53372    53401    53424    53438    53445    53447 
   53445    53439    53435    53428    53424    53431    53449    53478 
   53522    53573    53620    53651    53658    53635    53590    53536 
   53482    53434    53391    53352    53316    53285    53249    53215 
   53190    53167    53148    53138    53136    53137    53140    53148 
   53160    53171    53181    53195    53211    53230    53245    53250 
   53252    53249    53238    53235    53244    53258    53287    53330 
   53376    53423    53466    53505    53535    53554    53566    53572 
   53566    53559    53553    53543    53534    53527    53522    53524 
   53535    53553    53570    53586    53593    53585    53569    53543 
   53499    53441    53374    53295    53208    53129    53059    52999 
   52957    52928    52901    52886    52880    52875    52875    52882 
   52898    52922    52956    52998    53048    53109    53176    53248 
   53316    53377    53422    53454    53482    53501    53514    53530 
   53545    53551    53558    53561    53561    53565    53574    53589 
   53609    53627    53634    53624    53600    53558    53504    53446 
   53393    53346    53314    53303    53311    53330    53356    53377 
   53397    53414    53426    53438    53451    53458    53455    53447 
   53433    53410    53384    53364    53346    53327    53306    53284 
   53260    53233    53206    53187    53171    53161    53157    53153 
   53149    53141    53119    53091    53056    53017    52979    52942 
   52907    52882    52871    52875    52894    52936    52996    53071 
   53156    53246    53337    53422    53499    53563    53612    53642 
   53661    53670    53669    53661    53651    53643    53635    53626 
   53616    53613    53612    53609    53612    53615    53615    53622 
   53627    53624    53616    53607    53586    53561    53531    53499 
   53468    53433    53393    53358    53330    53303    53279    53262 
   53246    53230    53215    53206    53207    53218    53238    53266 
   53302    53339    53376    53401    53418    53424    53416    53397 
   53369    53335    53304    53281    53266    53265    53276    53291 
   53307    53325    53334    53337    53335    53329    53320    53322 
   53331    53345    53360    53372    53373    53361    53338    53307 
   53275    53245    53217    53194    53181    53177    53181    53202 
   53246    53307    53376    53447    53515    53566    53593    53588 
   53549    53477    53385    53288    53187    53091    53014    52964 
   52938    52944    52976    53026    53088    53158    53231    53300 
   53366    53423    53464    53489    53504    53507    53500    53496 
   53492    53485    53472    53446    53410    53369    53331    53300 
   53287    53300    53337    53383    53431    53477    53514    53539 
   53557    53559    53547    53524    53487    53434    53377    53322 
   53271    53227    53188    53153    53115    53077    53042    53014 
   52998    53002    53022    53050    53087    53122    53142    53149 
   53142    53119    53084    53049    53028    53023    53044    53088 
   53149    53219    53281    53331    53369    53387    53383    53368 
   53345    53320    53304    53295    53291    53292    53298    53300 
   53299    53298    53291    53280    53277    53277    53276    53276 
   53279    53277    53273    53265    53253    53241    53231    53225 
   53230    53245    53260    53272    53284    53298    53312    53331 
   53362    53410    53473    53549    53632    53711    53770    53809 
   53824    53819    53801    53773    53743    53727    53721    53727 
   53744    53767    53789    53809    53827    53842    53852    53856 
   53851    53846    53840    53832    53827    53817    53797    53763 
   53716    53655    53590    53518    53441    53364    53291    53223 
   53160    53103    53061    53036    53022    53021    53034    53063 
   53109    53167    53238    53315    53381    53431    53460    53458 
   53431    53388    53327    53269    53230    53211    53212    53237 
   53279    53333    53387    53437    53480    53509    53524    53524 
   53509    53485    53460    53427    53389    53350    53306    53260 
   53214    53172    53138    53109    53079    53052    53028    53003 
   52974    52948    52932    52924    52928    52949    52975    53005 
   53033    53059    53076    53090    53098    53102    53103    53107 
   53117    53127    53145    53171    53204    53239    53280    53320 
   53358    53393    53431    53474    53516    53557    53601    53647 
   53685    53719    53746    53766    53785    53800    53811    53820 
   53823    53817    53804    53777    53738    53689    53631    53576 
   53526    53484    53453    53423    53383    53341    53292    53230 
   53158    53077    52984    52884    52783    52683    52591    52512 
   52444    52392    52353    52332    52339    52366    52407    52461 
   52517    52566    52608    52643    52678    52721    52780    52855 
   52942    53041    53149    53262    53385    53522    53669    53821 
   53975    54118    54247    54361    54460    54538    54595    54627 
   54629    54594    54534    54452    54345    54225    54094    53956 
   53824    53692    53561    53443    53339    53245    53160    53082 
   53002    52914    52824    52732    52641    52556    52478    52413 
   52367    52331    52301    52280    52259    52245    52239    52246 
   52278    52343    52440    52575    52753    52963    53196    53446 
   53701    53947    54171    54355    54494    54589    54642    54652 
   54638    54612    54572    54523    54471    54413    54356    54302 
   54245    54178    54099    54006    53893    53759    53611    53451 
   53283    53110    52945    52797    52659    52535    52427    52334 
   52247    52172    52103    52033    51966    51912    51877    51871 
   51898    51958    52061    52204    52382    52585    52807    53034 
   53260    53480    53689    53878    54048    54201    54333    54445 
   54541    54619    54677    54720    54753    54772    54774    54766 
   54738    54684    54611    54510    54379    54229    54067    53902 
   53743    53592    53454    53335    53238    53161    53098    53045 
   52994    52937    52875    52805    52717    52621    52524    52431 
   52350    52293    52261    52246    52250    52277    52327    52398 
   52489    52597    52713    52826    52936    53036    53123    53203 
   53276    53334    53381    53420    53449    53474    53503    53542 
   53592    53665    53761    53874    53997    54129    54252    54353 
   54423    54453    54430    54355    54226    54058    53867    53674 
   53491    53326    53194    53091    53010    52948    52905    52878 
   52849    52816    52774    52717    52643    52560    52470    52382 
   52313    52276    52282    52334    52432    52577    52759    52971 
   53200    53434    53658    53862    54039    54186    54305    54402 
   54492    54581    54676    54774    54878    54985    55090    55193 
   55281    55344    55379    55375    55318    55216    55067    54878 
   54657    54414    54159    53898    53636    53377    53129    52902 
   52689    52483    52282    52072    51862    51661    51476    51312 
   51174    51061    50973    50922    50908    50932    50994    51096 
   51237    51414    51617    51841    52070    52294    52519    52740 
   52957    53177    53400    53617    53823    54013    54180    54321 
   54436    54529    54606    54668    54715    54742    54751    54739 
   54715    54683    54643    54602    54546    54457    54336    54183 
   54000    53792    53566    53333    53111    52906    52722    52564 
   52429    52315    52230    52182    52172    52193    52236    52292 
   52350    52397    52429    52448    52458    52466    52488    52531 
   52591    52678    52786    52909    53040    53173    53306    53435 
   53569    53703    53838    53974    54101    54207    54288    54338 
   54364    54371    54359    54330    54295    54260    54237    54221 
   54206    54194    54171    54118    54035    53917    53767    53600 
   53427    53253    53086    52936    52802    52685    52591    52521 
   52456    52396    52332    52254    52161    52056    51937    51813 
   51690    51576    51479    51408    51371    51375    51422    51518 
   51668    51867    52105    52381    52678    52990    53306    53617 
   53914    54198    54465    54708    54923    55101    55239    55340 
   55412    55468    55525    55595    55679    55764    55848    55923 
   55972    55983    55944    55848    55692    55485    55232    54950 
   54645    54325    54005    53697    53403    53136    52902    52701 
   52513    52328    52145    51964    51783    51614    51470    51347 
   51250    51190    51166    51182    51243    51333    51456    51614 
   51796    51996    52216    52442    52664    52883    53102    53318 
   53532    53755    53990    54233    54481    54722    54931    55100 
   55213    55256    55232    55152    55030    54878    54720    54569 
   54423    54275    54125    53974    53823    53670    53522    53380 
   53235    53076    52895    52694    52481    52262    52049    51856 
   51691    51557    51457    51397    51378    51395    51444    51518 
   51618    51742    51894    52076    52290    52528    52782    53045 
   53312    53574    53823    54049    54240    54384    54488    54556 
   54584    54583    54562    54531    54502    54483    54484    54506 
   54546    54596    54639    54666    54664    54623    54542    54417 
   54244    54029    53781    53511    53229    52944    52674    52425 
   52204    52012    51846    51698    51576    51487    51435    51417 
   51441    51499    51588    51709    51848    51999    52166    52351 
   52543    52745    52956    53167    53379    53586    53785    53977 
   54166    54348    54525    54697    54862    55024    55192    55367 
   55543    55710    55858    55972    56047    56073    56035    55930 
   55763    55541    55271    54969    54643    54306    53959    53613 
   53289    52995    52728    52492    52292    52122    51984    51876 
   51788    51711    51638    51564    51487    51413    51341    51279 
   51236    51217    51235    51294    51394    51540    51733    51960 
   52207    52467    52732    52991    53245    53492    53725    53947 
   54151    54329    54471    54576    54641    54664    54645    54588 
   54506    54396    54263    54116    53956    53782    53600    53411 
   53217    53026    52847    52670    52498    52334    52176    52026 
   51892    51768    51661    51583    51534    51526    51570    51671 
   51818    52003    52216    52439    52654    52853    53033    53192 
   53338    53480    53632    53804    54000    54224    54463    54710 
   54958    55190    55397    55571    55706    55796    55845    55849 
   55809    55723    55597    55435    55242    55027    54803    54576 
   54352    54132    53920    53720    53531    53357    53199    53053 
   52906    52745    52573    52390    52199    52011    51844    51699 
   51586    51509    51471    51467    51498    51563    51656    51775 
   51914    52072    52243    52424    52613    52810    53015    53226 
   53442    53655    53859    54055    54237    54400    54538    54646 
   54711    54727    54702    54635    54529    54392    54238    54079 
   53925    53789    53669    53576    53505    53442    53373    53289 
   53184    53052    52902    52748    52605    52474    52358    52258 
   52169    52087    52012    51950    51892    51838    51800    51786 
   51799    51849    51935    52065    52238    52440    52670    52925 
   53194    53472    53755    54036    54306    54558    54777    54961 
   55109    55225    55309    55362    55386    55385    55354    55296 
   55217    55117    54996    54858    54710    54552    54387    54224 
   54059    53889    53712    53523    53319    53098    52857    52596 
   52327    52064    51808    51570    51358    51178    51030    50917 
   50838    50796    50791    50824    50900    51021    51190    51398 
   51640    51903    52180    52462    52736    52996    53244    53485 
   53720    53959    54206    54457    54711    54965    55212    55435 
   55618    55759    55854    55906    55918    55896    55837    55742 
   55614    55449    55248    55019    54776    54521    54257    53998 
   53750    53512    53284    53067    52860    52670    52494    52330 
   52181    52050    51939    51853    51796    51763    51754    51773 
   51811    51871    51954    52058    52181    52320    52478    52644 
   52813    52976    53133    53284    53423    53550    53671    53786 
   53890    53987    54078    54162    54238    54302    54351    54390 
   54411    54422    54430    54432    54425    54409    54379    54328 
   54253    54160    54052    53928    53788    53643    53499    53353 
   53217    53099    52992    52901    52832    52776    52732    52701 
   52674    52644    52608    52566    52513    52455    52392    52331 
   52277    52242    52227    52228    52255    52309    52386    52477 
   52574    52675    52779    52875    52955    53022    53076    53113 
   53137    53149    53152    53152    53158    53176    53212    53273 
   53360    53464    53580    53700    53813    53914    54004    54072 
   54125    54162    54184    54193    54184    54159    54114    54047 
   53968    53882    53792    53713    53654    53615    53595    53592 
   53599    53604    53603    53590    53568    53526    53468    53406 
   53341    53275    53212    53160    53119    53091    53076    53067 
   53059    53052    53037    53013    52980    52941    52895    52848 
   52805    52771    52755    52759    52787    52836    52898    52967 
   53036    53095    53134    53152    53144    53113    53071    53029 
   52998    52990    53010    53055    53119    53206    53304    53415 
   53534    53654    53777    53897    54004    54097    54172    54226 
   54263    54290    54310    54330    54359    54390    54413    54419 
   54411    54379    54318    54229    54120    53994    53852    53703 
   53555    53418    53296    53190    53088    52996    52909    52814 
   52714    52612    52513    52429    52361    52309    52284    52282 
   52303    52343    52402    52477    52558    52635    52705    52768 
   52825    52875    52922    52969    53021    53080    53154    53239 
   53339    53451    53572    53698    53829    53962    54082    54197 
   54303    54386    54442    54479    54486    54460    54415    54356 
   54276    54183    54086    53979    53866    53755    53655    53562 
   53469    53372    53261    53127    52969    52791    52600    52409 
   52231    52077    51961    51892    51869    51888    51943    52027 
   52131    52249    52371    52497    52624    52759    52901    53052 
   53212    53379    53538    53685    53825    53952    54054    54143 
   54226    54305    54383    54468    54550    54622    54689    54749 
   54784    54785    54750    54668    54538    54368    54162    53933 
   53694    53449    53207    52980    52766    52571    52400    52246 
   52108    51991    51891    51810    51753    51719    51709    51714 
   51741    51788    51850    51933    52035    52154    52288    52439 
   52606    52787    52980    53184    53388    53592    53789    53978 
   54160    54329    54476    54596    54687    54745    54778    54792 
   54793    54791    54787    54784    54780    54776    54770    54751 
   54712    54654    54572    54465    54333    54178    54004    53820 
   53644    53487    53353    53246    53164    53099    53042    52988 
   52924    52841    52741    52625    52492    52348    52211    52091 
   51993    51929    51908    51926    51983    52072    52177    52292 
