Origin Time       2025/06/03 22:18:00
Lat.              41.7
Long.             143.6
Depth. (km)       30
Mag.              5.2
Station Code      HDKH03
Station Lat.      42.5934
Station Long.     142.3521
Station Height(m) 54
Record Time       2025/06/03 22:19:10
Sampling Freq(Hz) 100Hz
Duration Time(s)  120
Dir.              1
Scale Factor      2942(gal)/8224139
Max. Acc. (gal)   0.322
Last Correction   2025/06/03 22:18:54
Memo.             
[...]
  -35897   -35907   -35922   -35928   -35930   -35931   -35931   -35926 
  -35924   -35920   -35908   -35892   -35873   -35857   -35843   -35829 
  -35818   -35811   -35803   -35800   -35799   -35800   -35800   -35800 
  -35800   -35797   -35793   -35783   -35766   -35746   -35726   -35706 
  -35691   -35681   -35679   -35681   -35683   -35687   -35694   -35695 
  -35698   -35703   -35700   -35699   -35703   -35708   -35721   -35741 
  -35761   -35781   -35795   -35802   -35807   -35810   -35807   -35804 
  -35807   -35812   -35819   -35824   -35824   -35820   -35815   -35810 
  -35804   -35796   -35789   -35781   -35773   -35764   -35756   -35752 
  -35750   -35749   -35750   -35753   -35754   -35758   -35768   -35781 
  -35797   -35811   -35824   -35839   -35849   -35856   -35865   -35873 
  -35874   -35877   -35876   -35868   -35866   -35870   -35872   -35873 
  -35878   -35888   -35889   -35885   -35881   -35877   -35870   -35865 
  -35862   -35860   -35858   -35860   -35864   -35869   -35868   -35864 
  -35858   -35849   -35842   -35839   -35841   -35843   -35847   -35850 
  -35851   -35845   -35835   -35824   -35810   -35800   -35795   -35787 
  -35781   -35779   -35770   -35760   -35748   -35737   -35726   -35714 
  -35702   -35689   -35681   -35683   -35689   -35695   -35703   -35714 
  -35723   -35730   -35735   -35734   -35730   -35718   -35704   -35692 
  -35681   -35672   -35667   -35664   -35665   -35673   -35684   -35692 
  -35703   -35708   -35710   -35714   -35718   -35718   -35725   -35738 
  -35752   -35768   -35785   -35803   -35822   -35837   -35851   -35869 
  -35885   -35897   -35907   -35918   -35926   -35934   -35946   -35955 
  -35961   -35965   -35964   -35957   -35950   -35945   -35937   -35928 
  -35923   -35916   -35905   -35893   -35880   -35869   -35858   -35846 
  -35837   -35826   -35815   -35808   -35804   -35803   -35799   -35796 
  -35791   -35787   -35783   -35779   -35779   -35780   -35783   -35792 
  -35800   -35807   -35815   -35818   -35816   -35819   -35826   -35834 
  -35843   -35856   -35869   -35874   -35873   -35865   -35849   -35827 
  -35810   -35793   -35775   -35758   -35746   -35734   -35725   -35715 
  -35707   -35703   -35696   -35687   -35680   -35673   -35664   -35656 
  -35650   -35644   -35637   -35637   -35642   -35648   -35658   -35669 
  -35683   -35699   -35715   -35739   -35768   -35795   -35823   -35849 
  -35869   -35888   -35907   -35922   -35937   -35949   -35953   -35955 
  -35954   -35947   -35939   -35935   -35928   -35920   -35910   -35900 
  -35889   -35874   -35861   -35847   -35833   -35814   -35795   -35777 
  -35761   -35750   -35743   -35737   -35729   -35722   -35716   -35706 
  -35692   -35683   -35675   -35664   -35657   -35652   -35648   -35648 
  -35652   -35656   -35661   -35665   -35667   -35668   -35672   -35677 
  -35691   -35710   -35730   -35749   -35768   -35784   -35797   -35807 
  -35812   -35822   -35834   -35842   -35850   -35862   -35876   -35888 
  -35899   -35911   -35922   -35922   -35916   -35911   -35901   -35896 
  -35896   -35897   -35903   -35911   -35914   -35915   -35916   -35914 
  -35918   -35920   -35920   -35920   -35920   -35922   -35927   -35938 
  -35946   -35954   -35966   -35977   -35984   -35991   -35992   -35985 
  -35970   -35947   -35919   -35884   -35850   -35822   -35799   -35784 
  -35777   -35776   -35776   -35776   -35779   -35780   -35775   -35768 
  -35761   -35754   -35750   -35742   -35730   -35718   -35703   -35687 
  -35668   -35649   -35635   -35627   -35623   -35625   -35629   -35633 
  -35635   -35638   -35641   -35642   -35641   -35641   -35640   -35635 
  -35633   -35630   -35623   -35615   -35613   -35615   -35619   -35622 
  -35626   -35627   -35625   -35623   -35634   -35650   -35669   -35691 
  -35716   -35741   -35762   -35783   -35800   -35812   -35816   -35819 
  -35820   -35822   -35824   -35827   -35827   -35829   -35829   -35827 
  -35829   -35835   -35846   -35858   -35874   -35885   -35896   -35911 
  -35924   -35935   -35951   -35968   -35978   -35991   -35999   -36000 
  -35995   -35988   -35980   -35973   -35966   -35961   -35954   -35950 
  -35949   -35949   -35950   -35951   -35954   -35954   -35951   -35949 
  -35945   -35942   -35939   -35935   -35931   -35928   -35923   -35916 
  -35914   -35912   -35907   -35900   -35891   -35876   -35860   -35842 
  -35816   -35787   -35764   -35745   -35729   -35716   -35712   -35711 
  -35708   -35704   -35696   -35685   -35669   -35653   -35640   -35622 
  -35606   -35592   -35577   -35567   -35560   -35546   -35537   -35530 
  -35521   -35517   -35515   -35515   -35526   -35542   -35560   -35577 
  -35594   -35611   -35627   -35634   -35638   -35644   -35646   -35649 
  -35661   -35675   -35687   -35704   -35725   -35745   -35762   -35779 
  -35793   -35812   -35834   -35856   -35876   -35897   -35912   -35920 
  -35926   -35926   -35919   -35908   -35897   -35891   -35888   -35887 
  -35888   -35893   -35899   -35903   -35904   -35907   -35914   -35918 
  -35918   -35916   -35910   -35895   -35881   -35870   -35858   -35845 
  -35837   -35827   -35819   -35815   -35808   -35799   -35787   -35776 
  -35764   -35756   -35749   -35743   -35742   -35748   -35757   -35773 
  -35795   -35819   -35839   -35849   -35851   -35847   -35838   -35819 
  -35800   -35780   -35760   -35743   -35729   -35708   -35683   -35661 
  -35648   -35640   -35637   -35641   -35650   -35668   -35685   -35698 
  -35707   -35716   -35722   -35722   -35715   -35710   -35704   -35699 
  -35702   -35711   -35723   -35733   -35742   -35748   -35750   -35748 
  -35745   -35748   -35754   -35762   -35768   -35768   -35765   -35758 
  -35742   -35725   -35711   -35699   -35689   -35688   -35691   -35681 
  -35676   -35677   -35677   -35681   -35691   -35698   -35703   -35707 
  -35710   -35711   -35714   -35722   -35729   -35731   -35734   -35733 
  -35729   -35727   -35727   -35737   -35753   -35777   -35806   -35835 
  -35868   -35897   -35919   -35942   -35968   -35992   -36018   -36038 
  -36050   -36057   -36061   -36066   -36072   -36072   -36076   -36082 
  -36086   -36086   -36086   -36081   -36077   -36070   -36063   -36059 
  -36059   -36065   -36070   -36067   -36059   -36047   -36031   -36013 
  -35991   -35965   -35941   -35920   -35901   -35887   -35878   -35872 
  -35864   -35858   -35857   -35858   -35861   -35868   -35877   -35887 
  -35897   -35911   -35920   -35928   -35938   -35949   -35965   -35980 
  -35989   -35997   -36004   -36007   -36009   -36013   -36026   -36039 
  -36058   -36081   -36104   -36127   -36146   -36162   -36177   -36189 
  -36200   -36200   -36189   -36177   -36159   -36142   -36132   -36128 
  -36119   -36113   -36108   -36094   -36076   -36061   -36050   -36042 
  -36032   -36019   -36003   -35980   -35951   -35923   -35895   -35866 
  -35845   -35824   -35802   -35776   -35748   -35714   -35675   -35629 
  -35579   -35529   -35479   -35430   -35386   -35347   -35311   -35283 
  -35260   -35244   -35232   -35222   -35216   -35212   -35208   -35210 
  -35220   -35229   -35237   -35244   -35244   -35237   -35224   -35203 
  -35182   -35163   -35144   -35135   -35136   -35141   -35154   -35174 
  -35198   -35230   -35271   -35316   -35363   -35413   -35461   -35509 
  -35554   -35590   -35618   -35644   -35672   -35702   -35734   -35766 
  -35796   -35826   -35853   -35883   -35923   -35977   -36042   -36108 
  -36175   -36239   -36300   -36351   -36391   -36420   -36437   -36443 
  -36439   -36425   -36406   -36382   -36356   -36325   -36293   -36266 
  -36238   -36209   -36188   -36166   -36142   -36124   -36112   -36096 
  -36081   -36066   -36040   -36007   -35970   -35928   -35884   -35838 
  -35793   -35753   -35711   -35672   -35638   -35608   -35583   -35557 
  -35540   -35530   -35523   -35521   -35522   -35517   -35514   -35514 
  -35514   -35511   -35506   -35496   -35484   -35473   -35464   -35449 
  -35436   -35428   -35419   -35411   -35410   -35417   -35433   -35455 
  -35476   -35494   -35507   -35517   -35525   -35529   -35529   -35530 
  -35532   -35529   -35529   -35536   -35542   -35548   -35554   -35561 
  -35571   -35580   -35590   -35595   -35600   -35608   -35625   -35650 
  -35683   -35716   -35750   -35777   -35797   -35815   -35835   -35856 
  -35877   -35900   -35922   -35949   -35980   -36008   -36040   -36077 
  -36113   -36147   -36182   -36215   -36246   -36286   -36325   -36359 
  -36398   -36436   -36459   -36472   -36481   -36474   -36459   -36440 
  -36414   -36386   -36355   -36313   -36263   -36211   -36150   -36088 
  -36023   -35959   -35903   -35849   -35799   -35757   -35722   -35691 
  -35664   -35635   -35604   -35575   -35545   -35518   -35495   -35475 
  -35455   -35438   -35424   -35403   -35383   -35365   -35348   -35328 
  -35301   -35268   -35233   -35198   -35166   -35135   -35110   -35093 
  -35079   -35077   -35085   -35102   -35132   -35174   -35221   -35276 
  -35334   -35394   -35455   -35511   -35563   -35617   -35668   -35719 
  -35772   -35823   -35872   -35912   -35943   -35972   -36007   -36045 
  -36081   -36124   -36173   -36220   -36269   -36317   -36356   -36386 
  -36402   -36404   -36396   -36377   -36351   -36329   -36309   -36296 
  -36283   -36273   -36258   -36236   -36207   -36173   -36132   -36094 
  -36066   -36045   -36030   -36028   -36039   -36050   -36057   -36053 
  -36030   -35991   -35939   -35883   -35820   -35750   -35679   -35613 
  -35559   -35511   -35480   -35471   -35478   -35499   -35530   -35569 
  -35618   -35672   -35734   -35807   -35883   -35955   -36023   -36085 
  -36138   -36175   -36196   -36196   -36180   -36154   -36120   -36086 
  -36057   -36039   -36035   -36040   -36053   -36065   -36073   -36074 
  -36065   -36047   -36024   -35993   -35961   -35920   -35870   -35816 
  -35757   -35696   -35638   -35588   -35548   -35513   -35482   -35459 
  -35444   -35442   -35459   -35486   -35517   -35554   -35596   -35635 
  -35677   -35715   -35746   -35770   -35785   -35784   -35770   -35748 
  -35714   -35675   -35633   -35590   -35542   -35500   -35464   -35429 
  -35402   -35386   -35379   -35379   -35388   -35413   -35449   -35498 
  -35559   -35625   -35698   -35776   -35849   -35912   -35962   -35995 
  -36011   -36015   -36009   -35997   -35984   -35970   -35955   -35942 
  -35934   -35927   -35922   -35930   -35949   -35973   -36000   -36023 
  -36047   -36066   -36076   -36082   -36085   -36084   -36081   -36066 
  -36039   -36005   -35961   -35901   -35826   -35741   -35653   -35567 
  -35492   -35432   -35382   -35348   -35328   -35317   -35314   -35317 
  -35329   -35349   -35375   -35407   -35448   -35494   -35550   -35618 
  -35689   -35764   -35839   -35912   -35980   -36038   -36086   -36124 
  -36150   -36163   -36165   -36161   -36144   -36119   -36090   -36062 
  -36028   -36001   -35977   -35957   -35943   -35932   -35926   -35931 
  -35937   -35941   -35949   -35954   -35957   -35961   -35959   -35954 
  -35942   -35928   -35911   -35901   -35900   -35900   -35904   -35910 
  -35904   -35885   -35854   -35812   -35764   -35714   -35662   -35618 
  -35581   -35550   -35529   -35517   -35506   -35498   -35492   -35486 
  -35476   -35465   -35445   -35418   -35387   -35352   -35317   -35290 
  -35274   -35268   -35267   -35275   -35289   -35299   -35310   -35318 
  -35324   -35326   -35332   -35343   -35360   -35388   -35425   -35465 
  -35502   -35534   -35557   -35572   -35584   -35598   -35613   -35629 
  -35652   -35684   -35722   -35762   -35806   -35850   -35891   -35926 
  -35958   -35982   -35997   -36008   -36009   -36003   -35996   -35993 
  -35993   -36001   -36013   -36028   -36046   -36063   -36080   -36092 
  -36097   -36096   -36092   -36082   -36065   -36039   -36012   -35985 
  -35953   -35926   -35912   -35908   -35919   -35949   -35985   -36027 
  -36070   -36104   -36124   -36138   -36142   -36135   -36123   -36113 
  -36111   -36112   -36116   -36120   -36124   -36126   -36124   -36123 
  -36123   -36120   -36120   -36121   -36119   -36112   -36096   -36069 
  -36038   -36008   -35973   -35945   -35920   -35897   -35874   -35843 
  -35802   -35750   -35689   -35623   -35560   -35509   -35475   -35465 
  -35479   -35514   -35567   -35631   -35702   -35779   -35864   -35951 
  -36034   -36105   -36162   -36208   -36242   -36259   -36267   -36269 
  -36259   -36242   -36213   -36178   -36135   -36082   -36026   -35966 
  -35904   -35846   -35788   -35726   -35665   -35604   -35541   -35480 
  -35426   -35376   -35330   -35290   -35251   -35210   -35176   -35147 
  -35122   -35108   -35106   -35116   -35135   -35162   -35195   -35230 
  -35264   -35295   -35322   -35344   -35365   -35394   -35430   -35472 
  -35518   -35565   -35608   -35642   -35668   -35681   -35688   -35694 
  -35702   -35716   -35738   -35761   -35788   -35822   -35856   -35892 
  -35931   -35976   -36022   -36062   -36099   -36128   -36151   -36170 
  -36190   -36211   -36236   -36265   -36294   -36325   -36354   -36381 
  -36409   -36428   -36439   -36447   -36448   -36441   -36435   -36431 
  -36427   -36425   -36431   -36433   -36428   -36413   -36385   -36346 
  -36298   -36247   -36200   -36158   -36128   -36112   -36104   -36104 
  -36105   -36101   -36093   -36086   -36076   -36062   -36047   -36024 
  -35993   -35962   -35928   -35892   -35858   -35824   -35789   -35756 
  -35718   -35675   -35629   -35584   -35534   -35483   -35433   -35390 
  -35353   -35326   -35303   -35283   -35262   -35230   -35189   -35140 
  -35085   -35028   -34978   -34935   -34906   -34900   -34912   -34942 
  -34986   -35035   -35085   -35135   -35175   -35205   -35233   -35262 
  -35286   -35313   -35349   -35390   -35430   -35472   -35506   -35537 
  -35564   -35591   -35625   -35671   -35726   -35792   -35866   -35943 
  -36013   -36073   -36117   -36142   -36144   -36131   -36107   -36077 
  -36045   -36015   -35988   -35964   -35947   -35938   -35934   -35932 
  -35932   -35932   -35935   -35934   -35923   -35910   -35895   -35878 
  -35866   -35858   -35850   -35846   -35846   -35850   -35858   -35866 
  -35877   -35889   -35900   -35910   -35920   -35930   -35934   -35938 
  -35943   -35947   -35950   -35958   -35972   -35991   -36013   -36032 
  -36047   -36058   -36062   -36059   -36054   -36046   -36036   -36022 
  -36003   -35984   -35962   -35935   -35901   -35865   -35826   -35783 
  -35741   -35703   -35673   -35649   -35627   -35604   -35583   -35554 
  -35517   -35473   -35429   -35382   -35334   -35303   -35289   -35289 
  -35307   -35344   -35391   -35449   -35517   -35586   -35657   -35733 
  -35807   -35876   -35934   -35984   -36020   -36035   -36038   -36030 
  -36011   -35984   -35955   -35930   -35908   -35899   -35901   -35912 
  -35932   -35961   -35986   -36004   -36016   -36022   -36018   -36009 
  -36001   -35995   -35989   -35985   -35977   -35966   -35954   -35943 
  -35928   -35908   -35888   -35866   -35843   -35820   -35802   -35787 
  -35776   -35773   -35779   -35789   -35806   -35820   -35831   -35839 
  -35837   -35827   -35812   -35785   -35750   -35714   -35675   -35637 
  -35608   -35587   -35571   -35565   -35571   -35579   -35588   -35604 
  -35622   -35635   -35654   -35679   -35702   -35726   -35757   -35789 
  -35814   -35827   -35833   -35829   -35815   -35802   -35789   -35785 
  -35793   -35810   -35831   -35858   -35885   -35905   -35919   -35922 
  -35912   -35896   -35876   -35846   -35810   -35777   -35748   -35723 
  -35708   -35702   -35704   -35715   -35734   -35754   -35777   -35804 
  -35834   -35865   -35893   -35916   -35937   -35950   -35957   -35965 
  -35972   -35973   -35969   -35962   -35946   -35922   -35889   -35851 
  -35811   -35772   -35734   -35703   -35684   -35669   -35660   -35660 
  -35664   -35677   -35704   -35738   -35775   -35816   -35853   -35887 
  -35920   -35942   -35951   -35957   -35954   -35943   -35931   -35919 
  -35905   -35896   -35888   -35883   -35876   -35872   -35873   -35872 
  -35870   -35872   -35872   -35870   -35874   -35887   -35908   -35935 
  -35962   -35988   -36012   -36034   -36043   -36042   -36032   -36019 
  -36001   -35986   -35972   -35958   -35945   -35935   -35927   -35922 
  -35914   -35901   -35889   -35881   -35869   -35853   -35830   -35802 
  -35772   -35738   -35704   -35677   -35653   -35634   -35619   -35603 
  -35583   -35565   -35548   -35532   -35523   -35519   -35523   -35537 
  -35556   -35577   -35598   -35608   -35611   -35613   -35613   -35610 
  -35604   -35599   -35599   -35604   -35614   -35633   -35658   -35680 
  -35696   -35716   -35727   -35731   -35737   -35735   -35721   -35700 
  -35676   -35648   -35623   -35608   -35607   -35617   -35638   -35669 
  -35706   -35739   -35762   -35779   -35791   -35803   -35814   -35826 
  -35838   -35849   -35856   -35860   -35858   -35850   -35842   -35834 
  -35819   -35810   -35802   -35787   -35770   -35752   -35726   -35695 
  -35662   -35629   -35595   -35572   -35550   -35529   -35518   -35507 
  -35495   -35492   -35494   -35500   -35518   -35537   -35559   -35584 
  -35613   -35637   -35662   -35687   -35710   -35730   -35749   -35764 
  -35772   -35770   -35760   -35746   -35733   -35715   -35698   -35685 
  -35677   -35675   -35683   -35700   -35730   -35770   -35819   -35876 
  -35939   -36003   -36058   -36104   -36139   -36167   -36193   -36216 
  -36238   -36252   -36265   -36273   -36275   -36270   -36259   -36242 
  -36219   -36200   -36182   -36169   -36159   -36151   -36147   -36142 
  -36128   -36107   -36081   -36051   -36018   -35982   -35950   -35915 
  -35878   -35841   -35792   -35735   -35680   -35626   -35577   -35540 
  -35511   -35498   -35499   -35507   -35518   -35536   -35552   -35568 
  -35586   -35599   -35610   -35619   -35627   -35635   -35648   -35662 
  -35675   -35687   -35700   -35711   -35725   -35738   -35749   -35764 
  -35780   -35796   -35818   -35846   -35880   -35915   -35953   -35995 
  -36034   -36063   -36085   -36096   -36092   -36067   -36026   -35977 
  -35926   -35870   -35807   -35745   -35687   -35627   -35575   -35532 
  -35492   -35461   -35446   -35440   -35442   -35449   -35461   -35480 
  -35499   -35518   -35542   -35569   -35594   -35618   -35637   -35652 
  -35662   -35668   -35668   -35667   -35664   -35661   -35657   -35653 
  -35649   -35646   -35640   -35634   -35630   -35629   -35627   -35631 
  -35640   -35649   -35661   -35669   -35672   -35677   -35684   -35689 
  -35702   -35721   -35742   -35770   -35804   -35841   -35884   -35924 
  -35962   -35996   -36024   -36051   -36073   -36089   -36103   -36112 
  -36112   -36112   -36115   -36119   -36126   -36134   -36144   -36161 
  -36173   -36182   -36185   -36182   -36181   -36180   -36173   -36165 
  -36163   -36165   -36163   -36157   -36148   -36138   -36123   -36103 
  -36080   -36057   -36035   -36018   -36005   -35999   -35999   -36003 
  -36008   -36012   -36018   -36019   -36009   -35996   -35988   -35978 
  -35966   -35957   -35953   -35946   -35937   -35927   -35914   -35900 
  -35888   -35876   -35862   -35845   -35824   -35802   -35775   -35743 
  -35711   -35677   -35644   -35607   -35576   -35552   -35529   -35509 
  -35496   -35499   -35506   -35513   -35527   -35545   -35560   -35576 
  -35591   -35604   -35619   -35633   -35642   -35650   -35657   -35662 
  -35665   -35665   -35662   -35657   -35656   -35658   -35662   -35672 
