Origin Time       2025/06/03 22:18:00
Lat.              41.7
Long.             143.6
Depth. (km)       30
Mag.              5.2
Station Code      HDKH06
Station Lat.      42.3498
Station Long.     142.3572
Station Height(m) -105
Record Time       2025/06/03 22:18:50
Sampling Freq(Hz) 100Hz
Duration Time(s)  120
Dir.              3
Scale Factor      2942(gal)/8224139
Max. Acc. (gal)   0.426
Last Correction   2025/06/03 22:18:50
Memo.             
[...]
  154174   154179   154180   154179   154180   154184   154183   154172 
  154153   154126   154086   154036   153982   153927   153879   153843 
  153812   153787   153763   153736   153705   153675   153650   153630 
  153613   153604   153594   153586   153582   153582   153584   153585 
  153590   153594   153593   153589   153593   153605   153619   153634 
  153659   153685   153709   153740   153769   153794   153825   153859 
  153891   153920   153944   153956   153955   153944   153932   153917 
  153906   153909   153925   153954   153989   154026   154060   154080 
  154083   154075   154053   154013   153968   153932   153898   153874 
  153863   153860   153859   153852   153840   153820   153796   153773 
  153747   153717   153694   153679   153669   153665   153662   153652 
  153642   153636   153630   153623   153615   153604   153594   153588 
  153580   153577   153581   153585   153588   153585   153580   153573 
  153570   153574   153584   153593   153603   153611   153621   153627 
  153631   153647   153677   153708   153739   153771   153802   153829 
  153851   153864   153871   153871   153875   153887   153918   153966 
  154020   154072   154117   154149   154172   154180   154180   154178 
  154167   154141   154113   154083   154051   154025   154001   153971 
  153935   153891   153851   153825   153810   153806   153813   153821 
  153828   153839   153846   153850   153862   153877   153886   153889 
  153886   153881   153882   153891   153904   153918   153932   153936 
  153924   153905   153886   153878   153874   153874   153885   153904 
  153924   153941   153948   153940   153921   153890   153855   153832 
  153825   153832   153847   153862   153870   153870   153863   153854 
  153843   153828   153812   153798   153787   153774   153751   153721 
  153685   153642   153597   153557   153515   153481   153458   153439 
  153422   153411   153399   153391   153393   153407   153432   153461 
  153484   153505   153517   153526   153535   153547   153570   153604 
  153640   153685   153736   153777   153804   153825   153839   153847 
  153859   153875   153897   153924   153958   153993   154026   154052 
  154062   154055   154035   154003   153970   153939   153912   153897 
  153890   153889   153893   153897   153901   153902   153906   153912 
  153912   153906   153898   153882   153858   153832   153806   153785 
  153773   153769   153773   153785   153800   153820   153841   153859 
  153875   153893   153906   153913   153913   153909   153908   153914 
  153920   153916   153904   153885   153864   153844   153827   153817 
  153812   153808   153802   153790   153777   153760   153742   153721 
  153701   153685   153673   153666   153658   153644   153630   153611 
  153589   153571   153563   153573   153598   153632   153658   153671 
  153670   153662   153648   153636   153623   153613   153615   153623 
  153634   153651   153671   153696   153727   153758   153787   153816 
  153843   153873   153905   153936   153971   154008   154041   154068 
  154080   154086   154091   154095   154103   154117   154130   154152 
  154178   154192   154197   154187   154163   154134   154107   154080 
  154060   154048   154037   154024   154005   153987   153976   153968 
  153966   153966   153959   153952   153947   153937   153928   153917 
  153906   153905   153906   153895   153877   153848   153819   153794 
  153770   153744   153717   153686   153652   153619   153589   153561 
  153535   153517   153513   153512   153508   153504   153493   153482 
  153477   153469   153459   153451   153447   153447   153461   153485 
  153516   153553   153590   153627   153662   153693   153716   153735 
  153752   153760   153766   153773   153777   153785   153796   153810 
  153827   153835   153836   153829   153810   153790   153769   153747 
  153727   153713   153701   153693   153688   153690   153701   153715 
  153738   153767   153797   153833   153878   153917   153947   153971 
  153986   153991   153997   154012   154032   154052   154076   154099 
  154117   154126   154126   154120   154107   154095   154083   154066 
  154047   154028   154012   153999   153991   153982   153971   153954 
  153940   153931   153921   153910   153900   153894   153889   153879 
  153867   153855   153846   153841   153836   153833   153831   153828 
  153827   153827   153823   153819   153817   153814   153805   153779 
  153742   153698   153658   153625   153604   153586   153567   153546 
  153530   153520   153511   153505   153507   153508   153512   153520 
  153526   153531   153538   153550   153570   153594   153621   153655 
  153682   153692   153697   153705   153715   153733   153763   153798 
  153837   153877   153905   153925   153939   153952   153967   153972 
  153968   153962   153956   153959   153968   153981   153991   153991 
  153986   153981   153979   153983   153991   154002   154016   154017 
  154006   153991   153979   153968   153964   153972   153989   154010 
  154030   154036   154029   154017   154002   153989   153983   153981 
  153971   153960   153952   153941   153928   153916   153894   153864 
  153831   153797   153758   153719   153682   153648   153616   153584 
  153555   153535   153526   153534   153562   153598   153630   153648 
  153652   153643   153621   153598   153585   153581   153589   153605 
  153625   153642   153652   153659   153662   153657   153650   153646 
  153643   153643   153642   153642   153654   153666   153674   153688 
  153700   153700   153696   153685   153666   153650   153640   153631 
  153624   153621   153630   153636   153640   153648   153661   153678 
  153698   153715   153728   153743   153762   153786   153808   153827 
  153848   153867   153885   153906   153932   153960   153990   154017 
  154040   154063   154084   154102   154120   154134   154143   154147 
  154153   154156   154156   154157   154159   154156   154156   154160 
  154161   154156   154147   154130   154106   154072   154029   153982 
  153936   153890   153844   153802   153767   153736   153709   153688 
  153667   153652   153636   153621   153608   153592   153577   153566 
  153555   153540   153528   153526   153528   153536   153550   153566 
  153585   153605   153631   153661   153693   153731   153767   153789 
  153796   153789   153777   153771   153775   153785   153805   153831 
  153854   153878   153898   153909   153912   153906   153895   153881 
  153868   153858   153846   153832   153820   153814   153812   153812 
  153821   153839   153855   153856   153843   153824   153802   153781 
  153766   153766   153782   153802   153813   153817   153817   153812 
  153804   153800   153805   153812   153819   153831   153839   153839 
  153835   153827   153820   153819   153823   153832   153843   153854 
  153856   153852   153844   153833   153819   153804   153790   153777 
  153763   153758   153751   153742   153731   153719   153709   153697 
  153684   153674   153670   153670   153677   153685   153693   153704 
  153719   153736   153765   153804   153843   153875   153898   153912 
  153920   153925   153925   153922   153927   153945   153970   153993 
  154013   154037   154059   154074   154084   154089   154084   154078 
  154079   154086   154091   154093   154089   154075   154053   154021 
  153981   153943   153910   153889   153878   153877   153881   153881 
  153873   153859   153837   153810   153783   153763   153750   153740 
  153731   153727   153725   153719   153712   153712   153713   153702 
  153678   153644   153608   153570   153539   153524   153520   153528 
  153546   153565   153570   153569   153559   153538   153512   153496 
  153495   153499   153512   153532   153557   153584   153612   153632 
  153644   153652   153654   153647   153640   153634   153621   153613 
  153619   153632   153650   153673   153701   153728   153744   153748 
  153740   153724   153706   153694   153689   153694   153708   153725 
  153744   153762   153779   153798   153820   153854   153893   153927 
  153954   153966   153959   153937   153900   153858   153825   153806 
  153796   153789   153777   153752   153717   153673   153619   153558 
  153508   153472   153455   153457   153470   153492   153516   153543 
  153569   153597   153623   153643   153666   153697   153735   153782 
  153829   153873   153905   153928   153939   153939   153931   153916 
  153895   153874   153859   153851   153846   153843   153847   153854 
  153855   153848   153835   153812   153787   153779   153787   153814 
  153855   153901   153949   153995   154033   154063   154084   154095 
  154102   154107   154113   154121   154132   154141   154145   154148 
  154151   154151   154143   154125   154101   154076   154049   154022 
  154002   153989   153985   153986   153989   153994   154001   154003 
  154002   154002   154006   154013   154018   154025   154037   154057 
  154086   154116   154138   154157   154172   154172   154157   154134 
  154098   154059   154017   153974   153936   153905   153885   153886 
  153902   153914   153917   153906   153883   153859   153841   153829 
  153819   153814   153820   153831   153844   153858   153873   153890 
  153908   153931   153959   153985   154001   154005   154003   153998 
  153986   153967   153944   153918   153890   153859   153825   153786 
  153755   153736   153723   153720   153731   153740   153748   153756 
  153759   153751   153733   153716   153700   153694   153702   153719 
  153736   153750   153758   153763   153770   153777   153786   153797 
  153810   153820   153824   153827   153831   153837   153846   153855 
  153878   153909   153940   153966   153983   153990   153990   153982 
  153964   153947   153932   153922   153925   153939   153954   153967 
  153978   153983   153983   153978   153971   153966   153963   153962 
  153962   153962   153958   153951   153943   153936   153931   153921 
  153904   153883   153862   153843   153824   153809   153796   153785 
  153771   153756   153750   153747   153738   153725   153717   153705 
  153690   153678   153669   153662   153655   153644   153630   153617 
  153603   153592   153589   153590   153593   153596   153588   153567 
  153542   153516   153496   153478   153469   153459   153451   153447 
  153445   153446   153454   153463   153472   153480   153488   153489 
  153492   153503   153524   153558   153597   153634   153666   153696 
  153723   153747   153769   153785   153796   153798   153790   153777 
  153755   153731   153709   153690   153663   153638   153623   153615 
  153613   153617   153620   153616   153608   153598   153581   153553 
  153517   153484   153453   153427   153414   153409   153415   153427 
  153436   153439   153431   153415   153403   153397   153392   153389 
  153393   153397   153401   153414   153431   153454   153482   153516 
  153554   153588   153612   153623   153623   153620   153624   153636 
  153658   153689   153719   153746   153771   153787   153798   153812 
  153832   153856   153883   153908   153935   153956   153974   153991 
  154009   154025   154047   154067   154087   154106   154120   154126 
  154130   154133   154133   154136   154145   154155   154161   154167 
  154164   154160   154163   154163   154156   154148   154128   154098 
  154067   154028   153993   153970   153949   153937   153943   153958 
  153974   153985   153990   153993   153994   153994   153983   153955 
  153913   153867   153816   153769   153738   153720   153712   153712 
  153717   153725   153735   153752   153774   153796   153825   153864 
  153905   153949   153991   154022   154044   154059   154068   154074 
  154087   154099   154101   154099   154094   154082   154070   154055 
  154039   154033   154036   154045   154059   154076   154095   154111 
  154128   154148   154167   154187   154214   154245   154282   154318 
  154353   154383   154403   154410   154408   154402   154391   154372 
  154348   154317   154280   154242   154198   154149   154105   154053 
  153995   153935   153863   153786   153706   153625   153559   153507 
  153461   153431   153419   153416   153419   153423   153434   153451 
  153476   153504   153539   153577   153609   153638   153655   153659 
  153661   153658   153657   153663   153670   153684   153706   153728 
  153746   153759   153760   153747   153725   153701   153673   153646 
  153617   153589   153567   153558   153555   153565   153589   153620 
  153661   153711   153756   153798   153841   153883   153922   153959 
  153995   154029   154066   154101   154133   154164   154191   154215 
  154237   154252   154261   154267   154268   154268   154268   154269 
  154267   154249   154210   154152   154079   153999   153918   153841 
  153771   153706   153639   153563   153484   153403   153327   153258 
  153196   153142   153098   153063   153034   153011   153000   153000 
  153007   153014   153021   153033   153053   153085   153125   153165 
  153208   153247   153277   153301   153323   153339   153360   153384 
  153407   153432   153453   153461   153459   153455   153446   153431 
  153409   153385   153357   153323   153284   153239   153187   153126 
  153068   153022   152987   152959   152945   152950   152969   152998 
  153037   153085   153141   153206   153287   153374   153463   153561 
  153669   153775   153881   153987   154093   154195   154294   154386 
  154472   154552   154627   154697   154766   154832   154888   154931 
  154967   154996   155001   154993   154988   154978   154961   154944 
  154927   154904   154882   154858   154826   154792   154762   154732 
  154700   154669   154645   154619   154592   154566   154537   154495 
  154445   154388   154321   154242   154161   154083   154009   153940 
  153881   153827   153777   153724   153667   153607   153550   153484 
  153408   153331   153250   153166   153091   153026   152972   152926 
  152894   152874   152856   152847   152845   152852   152871   152909 
  152959   153022   153096   153177   153262   153346   153424   153499 
  153566   153625   153682   153738   153797   153855   153917   153981 
  154037   154084   154124   154153   154168   154178   154190   154202 
  154211   154221   154232   154244   154264   154288   154315   154346 
  154377   154413   154457   154502   154542   154583   154614   154638 
  154660   154672   154666   154646   154614   154566   154507   154438 
  154363   154287   154214   154141   154074   154013   153952   153882 
  153813   153748   153682   153620   153571   153535   153508   153485 
  153462   153438   153404   153361   153311   153256   153196   153142 
  153100   153071   153052   153042   153034   153026   153018   153009 
  152996   152986   152987   153002   153034   153091   153158   153235 
  153316   153392   153469   153551   153624   153689   153750   153801 
  153848   153891   153928   153963   153997   154022   154036   154039 
  154029   154005   153966   153913   153856   153801   153752   153713 
  153681   153655   153638   153623   153615   153623   153642   153663 
  153694   153728   153755   153781   153808   153832   153859   153890 
  153917   153944   153970   153990   154008   154018   154017   153999 
  153971   153931   153883   153833   153781   153733   153696   153667 
  153643   153627   153620   153620   153632   153655   153674   153694 
  153725   153758   153794   153833   153877   153924   153970   154006 
  154039   154068   154086   154101   154117   154128   154134   154147 
  154164   154187   154218   154253   154290   154323   154350   154376 
  154395   154407   154419   154430   154437   154440   154433   154417 
  154388   154346   154288   154217   154137   154056   153982   153914 
  153855   153809   153767   153725   153689   153650   153608   153571 
  153538   153504   153476   153451   153430   153408   153393   153387 
  153384   153395   153414   153435   153462   153492   153517   153540 
  153565   153590   153616   153636   153652   153662   153665   153662 
  153661   153661   153670   153689   153712   153740   153766   153786 
  153801   153808   153802   153789   153769   153748   153723   153693 
  153663   153639   153621   153619   153636   153665   153698   153733 
  153765   153790   153808   153816   153813   153808   153800   153794 
  153797   153808   153827   153847   153866   153881   153890   153894 
  153902   153910   153918   153929   153940   153952   153971   153997 
  154016   154035   154060   154082   154098   154109   154120   154132 
  154140   154151   154167   154183   154203   154229   154252   154269 
  154286   154305   154321   154334   154349   154356   154354   154348 
  154333   154314   154292   154265   154236   154213   154192   154171 
  154147   154126   154110   154090   154055   154009   153956   153900 
  153840   153782   153724   153670   153619   153569   153536   153520 
  153509   153503   153493   153485   153480   153469   153454   153434 
  153411   153388   153366   153346   153331   153322   153320   153322 
  153326   153334   153343   153351   153357   153351   153337   153319 
  153296   153262   153226   153193   153162   153127   153094   153057 
  153015   152980   152957   152944   152942   152956   152975   152996 
  153027   153075   153133   153202   153279   153364   153449   153526 
  153597   153661   153719   153769   153813   153854   153891   153922 
  153947   153968   153990   154012   154039   154067   154091   154110 
  154117   154110   154098   154075   154045   154012   153972   153935 
  153902   153875   153854   153832   153808   153782   153758   153736 
  153725   153727   153739   153758   153779   153800   153817   153833 
  153850   153860   153868   153878   153887   153895   153912   153940 
  153976   154024   154080   154140   154197   154251   154295   154327 
  154352   154371   154387   154404   154427   154445   154460   154472 
  154476   154475   154476   154472   154453   154434   154422   154407 
  154396   154391   154383   154368   154349   154325   154291   154248 
  154198   154141   154080   154016   153945   153871   153794   153725 
  153667   153619   153578   153546   153520   153496   153470   153443 
  153418   153399   153387   153378   153380   153389   153399   153404 
  153408   153407   153399   153392   153382   153364   153351   153350 
  153351   153362   153384   153412   153443   153478   153513   153553 
  153592   153630   153666   153701   153738   153774   153809   153850 
  153893   153941   153991   154037   154082   154122   154163   154207 
  154251   154296   154349   154403   154457   154508   154552   154583 
  154599   154599   154585   154564   154538   154515   154496   154481 
  154469   154458   154444   154418   154379   154327   154264   154190 
  154111   154033   153963   153898   153840   153783   153732   153686 
  153643   153601   153567   153549   153544   153554   153577   153607 
  153630   153648   153666   153678   153686   153694   153702   153711 
  153717   153720   153713   153701   153686   153663   153636   153613 
  153592   153571   153563   153567   153576   153586   153598   153611 
  153628   153648   153667   153685   153700   153712   153721   153725 
  153723   153717   153706   153685   153652   153608   153557   153505 
  153455   153414   153378   153338   153296   153261   153227   153199 
