Origin Time       2025/06/03 22:18:00
Lat.              41.7
Long.             143.6
Depth. (km)       30
Mag.              5.2
Station Code      HDKH02
Station Lat.      42.7061
Station Long.     142.4054
Station Height(m) 120
Record Time       2025/06/03 22:19:03
Sampling Freq(Hz) 100Hz
Duration Time(s)  120
Dir.              2
Scale Factor      2940(gal)/6170270
Max. Acc. (gal)   0.351
Last Correction   2025/06/03 22:18:48
Memo.             
[...]
   54666    54629    54595    54579    54582    54589    54588    54580 
   54568    54559    54563    54581    54607    54632    54648    54649 
   54631    54597    54562    54534    54511    54499    54500    54509 
   54520    54525    54518    54510    54505    54507    54516    54527 
   54545    54566    54577    54574    54560    54543    54537    54543 
   54552    54562    54566    54561    54558    54557    54548    54532 
   54518    54502    54486    54470    54457    54449    54443    54440 
   54435    54430    54429    54435    54452    54481    54513    54542 
   54558    54558    54553    54544    54526    54509    54506    54512 
   54521    54527    54524    54514    54505    54502    54504    54509 
   54515    54528    54551    54575    54595    54612    54618    54609 
   54591    54573    54566    54572    54585    54597    54599    54595 
   54592    54593    54602    54609    54611    54611    54603    54597 
   54595    54587    54570    54549    54531    54516    54505    54503 
   54511    54523    54531    54536    54545    54552    54553    54553 
   54547    54543    54547    54543    54527    54512    54497    54476 
   54449    54421    54406    54411    54435    54470    54502    54525 
   54533    54518    54491    54470    54459    54457    54460    54467 
   54477    54486    54498    54514    54529    54542    54556    54562 
   54556    54548    54551    54566    54589    54610    54614    54602 
   54588    54579    54579    54589    54601    54606    54603    54597 
   54591    54586    54585    54590    54594    54595    54595    54596 
   54598    54602    54607    54611    54613    54610    54601    54592 
   54588    54586    54577    54561    54542    54528    54519    54515 
   54511    54505    54502    54504    54508    54512    54518    54527 
   54538    54549    54556    54550    54533    54510    54484    54457 
   54440    54438    54441    54444    54447    54452    54459    54464 
   54471    54486    54507    54531    54556    54576    54591    54603 
   54608    54607    54606    54608    54605    54600    54596    54584 
   54562    54545    54539    54542    54550    54555    54555    54553 
   54548    54546    54554    54564    54575    54583    54578    54560 
   54542    54529    54519    54520    54527    54530    54530    54529 
   54528    54536    54556    54581    54601    54608    54609    54608 
   54605    54595    54582    54572    54566    54570    54582    54598 
   54616    54626    54626    54617    54605    54599    54596    54589 
   54585    54583    54570    54548    54530    54520    54516    54519 
   54538    54568    54595    54612    54621    54623    54624    54624 
   54618    54607    54592    54566    54532    54501    54490    54500 
   54517    54536    54555    54566    54568    54563    54550    54542 
   54544    54550    54557    54564    54569    54571    54572    54573 
   54570    54566    54559    54551    54544    54541    54541    54549 
   54563    54580    54594    54599    54602    54607    54605    54589 
   54566    54545    54519    54492    54475    54471    54476    54491 
   54512    54531    54543    54545    54536    54518    54499    54487 
   54483    54486    54493    54503    54506    54499    54490    54479 
   54469    54460    54455    54450    54440    54430    54430    54440 
   54452    54464    54478    54492    54504    54515    54527    54536 
   54549    54566    54579    54586    54587    54571    54544    54525 
   54518    54524    54542    54560    54576    54590    54599    54600 
   54594    54579    54555    54531    54516    54513    54517    54533 
   54553    54569    54587    54605    54610    54605    54595    54578 
   54561    54557    54568    54587    54610    54622    54614    54594 
   54575    54560    54557    54563    54570    54575    54576    54574 
   54571    54569    54570    54579    54589    54599    54609    54610 
   54610    54611    54602    54585    54570    54555    54543    54543 
   54552    54565    54573    54570    54565    54563    54560    54545 
   54522    54506    54502    54505    54512    54521    54525    54524 
   54518    54515    54517    54514    54502    54490    54488    54506 
   54538    54569    54593    54609    54611    54602    54589    54563 
   54530    54507    54492    54480    54473    54467    54461    54454 
   54449    54453    54467    54487    54515    54540    54553    54561 
   54564    54559    54558    54562    54569    54574    54575    54575 
   54579    54584    54581    54574    54564    54550    54535    54527 
   54526    54530    54537    54539    54537    54529    54519    54516 
   54525    54541    54556    54562    54558    54548    54535    54522 
   54513    54511    54515    54528    54541    54556    54577    54598 
   54617    54625    54619    54608    54598    54591    54592    54597 
   54597    54591    54583    54572    54561    54551    54542    54535 
   54532    54526    54514    54503    54508    54528    54552    54571 
   54587    54605    54620    54631    54645    54654    54652    54647 
   54638    54632    54633    54635    54636    54648    54666    54682 
   54690    54694    54701    54708    54707    54698    54680    54656 
   54633    54612    54599    54591    54577    54560    54552    54555 
   54558    54558    54558    54553    54543    54537    54537    54539 
   54547    54550    54542    54538    54537    54532    54526    54513 
   54494    54480    54468    54458    54449    54430    54407    54380 
   54352    54341    54346    54359    54381    54405    54419    54429 
   54440    54451    54455    54450    54439    54420    54392    54367 
   54354    54356    54374    54401    54428    54459    54486    54505 
   54519    54531    54539    54544    54545    54540    54534    54528 
   54523    54524    54539    54564    54589    54612    54639    54666 
   54685    54694    54695    54684    54667    54653    54640    54623 
   54607    54595    54585    54578    54577    54578    54581    54585 
   54588    54594    54605    54619    54631    54634    54631    54626 
   54611    54582    54552    54526    54506    54493    54490    54499 
   54518    54537    54557    54580    54602    54620    54630    54628 
   54627    54632    54642    54659    54685    54710    54731    54749 
   54760    54757    54746    54729    54703    54672    54644    54615 
   54588    54571    54558    54544    54525    54509    54499    54495 
   54498    54506    54509    54508    54511    54514    54510    54502 
   54498    54499    54504    54515    54528    54537    54540    54536 
   54528    54515    54492    54468    54454    54451    54451    54454 
   54463    54481    54500    54506    54496    54483    54474    54467 
   54467    54473    54478    54478    54474    54472    54470    54470 
   54475    54484    54493    54498    54498    54499    54504    54513 
   54519    54524    54533    54540    54539    54535    54529    54524 
   54520    54518    54523    54534    54544    54553    54568    54584 
   54604    54629    54652    54669    54675    54670    54662    54646 
   54620    54596    54576    54553    54537    54531    54529    54537 
   54552    54565    54571    54569    54560    54547    54530    54509 
   54491    54483    54485    54495    54505    54510    54512    54506 
   54498    54500    54511    54523    54540    54560    54574    54582 
   54592    54605    54613    54616    54614    54604    54591    54584 
   54580    54572    54562    54550    54534    54520    54514    54514 
   54521    54536    54548    54558    54566    54568    54567    54564 
   54558    54549    54543    54536    54523    54514    54508    54496 
   54490    54496    54501    54502    54508    54516    54528    54545 
   54562    54570    54570    54566    54566    54569    54568    54565 
   54570    54582    54601    54624    54649    54667    54673    54662 
   54640    54616    54599    54592    54593    54602    54615    54625 
   54629    54633    54642    54646    54641    54628    54612    54594 
   54582    54576    54569    54557    54540    54527    54519    54509 
   54495    54480    54472    54470    54470    54471    54481    54497 
   54513    54533    54549    54555    54554    54555    54557    54557 
   54558    54553    54540    54527    54521    54516    54504    54487 
   54471    54455    54449    54458    54476    54496    54517    54536 
   54556    54572    54574    54570    54565    54555    54549    54551 
   54553    54550    54542    54533    54523    54510    54496    54484 
   54475    54466    54456    54446    54438    54435    54437    54436 
   54435    54440    54443    54444    54449    54454    54459    54470 
   54487    54499    54498    54487    54465    54443    54435    54450 
   54479    54507    54529    54544    54548    54547    54549    54557 
   54562    54565    54572    54583    54599    54617    54635    54654 
   54670    54683    54699    54713    54722    54728    54732    54738 
   54740    54740    54742    54744    54746    54749    54754    54759 
   54764    54771    54771    54757    54732    54711    54698    54689 
   54675    54657    54640    54624    54607    54587    54565    54545 
   54528    54506    54477    54448    54419    54390    54365    54344 
   54329    54320    54320    54330    54353    54379    54403    54425 
   54445    54456    54464    54473    54480    54488    54507    54538 
   54573    54604    54629    54648    54660    54654    54634    54617 
   54612    54612    54610    54605    54598    54585    54570    54561 
   54561    54566    54573    54580    54581    54575    54567    54556 
   54543    54531    54517    54506    54505    54510    54517    54527 
   54533    54524    54501    54474    54446    54424    54421    54433 
   54452    54470    54481    54482    54481    54485    54491    54495 
   54487    54466    54444    54427    54426    54441    54459    54476 
   54491    54502    54508    54511    54509    54499    54494    54498 
   54503    54508    54518    54529    54537    54536    54529    54519 
   54505    54491    54477    54460    54445    54435    54426    54423 
   54426    54436    54455    54479    54503    54518    54523    54518 
   54508    54502    54501    54499    54497    54498    54501    54501 
   54510    54529    54543    54544    54533    54515    54497    54481 
   54468    54460    54462    54475    54493    54512    54528    54536 
   54535    54531    54526    54516    54503    54496    54500    54515 
   54542    54577    54610    54636    54653    54658    54656    54652 
   54643    54637    54637    54640    54645    54658    54682    54713 
   54743    54766    54782    54788    54786    54777    54768    54763 
   54759    54749    54732    54716    54711    54714    54722    54738 
   54758    54772    54767    54741    54703    54664    54627    54597 
   54582    54577    54570    54564    54566    54570    54577    54586 
   54590    54586    54576    54559    54544    54535    54532    54529 
   54526    54529    54538    54546    54551    54558    54569    54585 
   54598    54597    54584    54570    54556    54538    54521    54511 
   54505    54501    54492    54482    54478    54476    54476    54476 
   54474    54472    54463    54444    54425    54413    54410    54419 
   54432    54445    54455    54463    54470    54478    54482    54483 
   54486    54493    54498    54507    54516    54518    54513    54501 
   54476    54443    54415    54395    54384    54382    54388    54404 
   54434    54478    54532    54585    54630    54667    54697    54724 
   54753    54783    54813    54836    54846    54853    54863    54867 
   54871    54881    54886    54893    54907    54920    54925    54923 
   54909    54880    54843    54802    54757    54705    54644    54578 
   54507    54439    54393    54369    54354    54352    54363    54378 
   54395    54403    54398    54390    54381    54372    54376    54392 
   54415    54452    54500    54551    54595    54624    54630    54622 
   54602    54575    54552    54534    54519    54510    54505    54499 
   54491    54483    54473    54459    54445    54437    54434    54431 
   54425    54420    54419    54412    54397    54384    54373    54365 
   54364    54372    54394    54423    54445    54466    54491    54514 
   54536    54551    54547    54528    54503    54481    54466    54458 
   54466    54490    54517    54539    54554    54556    54551    54541 
   54528    54512    54492    54466    54437    54410    54388    54365 
   54345    54336    54338    54353    54375    54400    54426    54445 
   54464    54489    54519    54549    54570    54581    54587    54591 
   54598    54610    54630    54659    54688    54709    54716    54703 
   54680    54662    54659    54668    54691    54722    54745    54749 
   54739    54707    54658    54605    54549    54493    54444    54402 
   54369    54347    54336    54330    54324    54310    54290    54278 
   54275    54279    54303    54347    54400    54460    54523    54581 
   54639    54691    54733    54779    54826    54865    54896    54925 
   54956    54988    55016    55042    55062    55071    55066    55048 
   55018    54985    54960    54942    54921    54892    54851    54805 
   54761    54716    54671    54628    54572    54506    54440    54381 
   54331    54298    54278    54256    54224    54191    54160    54125 
   54089    54053    54018    53988    53954    53910    53864    53829 
   53812    53813    53837    53883    53937    53986    54035    54096 
   54171    54251    54321    54377    54423    54465    54505    54539 
   54556    54559    54558    54561    54570    54581    54591    54602 
   54610    54614    54621    54629    54635    54647    54668    54699 
   54740    54789    54839    54892    54947    55005    55062    55110 
   55147    55177    55201    55218    55229    55234    55235    55226 
   55208    55185    55162    55139    55119    55098    55065    55015 
   54955    54893    54838    54785    54738    54698    54662    54624 
   54577    54527    54488    54459    54436    54421    54413    54404 
   54389    54368    54346    54322    54298    54275    54253    54240 
   54244    54260    54284    54310    54332    54353    54375    54399 
   54419    54425    54420    54414    54413    54421    54435    54446 
   54446    54432    54406    54374    54341    54306    54276    54261 
   54256    54256    54261    54269    54281    54299    54314    54316 
   54307    54299    54295    54296    54307    54322    54338    54355 
   54373    54387    54394    54393    54383    54367    54350    54333 
   54320    54314    54322    54342    54372    54416    54467    54510 
   54548    54580    54602    54615    54627    54641    54660    54686 
   54717    54759    54812    54866    54915    54961    55004    55032 
   55037    55021    54991    54947    54894    54840    54790    54746 
   54711    54686    54670    54663    54666    54676    54681    54672 
   54652    54620    54581    54544    54512    54489    54477    54475 
   54475    54475    54475    54465    54440    54410    54376    54340 
   54308    54282    54261    54242    54226    54225    54243    54268 
   54294    54311    54319    54327    54339    54352    54368    54389 
   54420    54456    54496    54543    54589    54624    54657    54695 
   54739    54792    54854    54922    54988    55042    55078    55099 
   55102    55078    55024    54946    54862    54786    54731    54707 
   54709    54731    54773    54828    54878    54924    54968    54998 
   55012    55008    54985    54945    54894    54841    54795    54751 
   54706    54667    54627    54581    54532    54479    54423    54372 
   54330    54298    54276    54266    54264    54271    54289    54311 
   54329    54344    54352    54349    54341    54324    54301    54286 
   54276    54260    54238    54208    54173    54143    54124    54118 
   54125    54141    54164    54190    54216    54239    54261    54293 
   54334    54379    54429    54484    54538    54585    54625    54653 
   54667    54665    54648    54624    54599    54579    54566    54561 
   54567    54578    54585    54586    54584    54581    54583    54587 
   54600    54629    54651    54649    54629    54604    54578    54546 
   54504    54463    54425    54394    54379    54377    54384    54402 
   54429    54465    54512    54562    54606    54643    54665    54672 
   54671    54657    54638    54623    54610    54595    54582    54564 
   54543    54528    54523    54529    54537    54531    54510    54483 
   54457    54442    54445    54463    54491    54518    54533    54530 
   54519    54507    54491    54479    54471    54462    54456    54449 
   54445    54450    54458    54464    54465    54455    54434    54410 
   54389    54379    54388    54408    54435    54467    54492    54506 
   54513    54519    54535    54563    54600    54640    54673    54692 
   54694    54683    54673    54662    54645    54626    54608    54592 
   54579    54570    54566    54572    54589    54615    54644    54678 
   54714    54741    54765    54787    54808    54825    54838    54859 
   54898    54954    55017    55073    55113    55137    55143    55134 
   55119    55102    55084    55061    55038    55019    55000    54983 
   54963    54936    54904    54866    54816    54758    54696    54637 
   54586    54547    54518    54496    54471    54437    54400    54372 
   54357    54350    54347    54346    54339    54319    54287    54251 
   54221    54199    54185    54183    54192    54206    54221    54235 
   54244    54250    54258    54260    54254    54247    54238    54230 
   54233    54247    54270    54296    54317    54334    54344    54345 
   54335    54319    54304    54299    54304    54325    54357    54393 
   54429    54458    54476    54485    54487    54490    54505    54530 
   54566    54608    54649    54692    54735    54768    54793    54811 
   54816    54812    54802    54779    54750    54718    54691    54676 
   54665    54651    54628    54592    54549    54509    54470    54436 
   54401    54363    54329    54306    54299    54308    54328    54359 
   54403    54450    54494    54530    54557    54578    54599    54623 
   54649    54676    54699    54716    54727    54735    54753    54788 
   54824    54858    54886    54893    54876    54840    54789    54730 
   54675    54630    54593    54568    54558    54555    54556    54561 
   54561    54558    54550    54536    54520    54502    54487    54480 
   54476    54472    54464    54451    54432    54412    54394    54374 
   54356    54347    54343    54336    54327    54315    54297    54270 
   54243    54225    54218    54220    54236    54266    54303    54344 
   54385    54420    54448    54467    54473    54470    54465    54461 
   54461    54465    54474    54485    54499    54517    54540    54565 
   54583    54589    54596    54605    54613    54634    54668    54709 
   54756    54807    54854    54895    54925    54946    54961    54971 
   54977    54979    54979    54972    54955    54926    54884    54828 
   54763    54699    54646    54611    54599    54606    54628    54660 
   54693    54715    54717    54700    54675    54641    54597    54552 
   54512    54485    54472    54470    54472    54474    54478    54481 
