Origin Time       2025/06/03 22:18:00
Lat.              41.7
Long.             143.6
Depth. (km)       30
Mag.              5.2
Station Code      HDKH07
Station Lat.      42.1330
Station Long.     142.9164
Station Height(m) 40
Record Time       2025/06/03 22:18:41
Sampling Freq(Hz) 100Hz
Duration Time(s)  120
Dir.              5
Scale Factor      7845(gal)/8223790
Max. Acc. (gal)   4.838
Last Correction   2025/06/03 22:18:41
Memo.             
[...]
  -10855   -10856   -10856   -10854   -10855   -10855   -10852   -10854 
  -10856   -10854   -10852   -10855   -10855   -10854   -10854   -10854 
  -10852   -10852   -10855   -10856   -10855   -10854   -10854   -10855 
  -10854   -10854   -10854   -10854   -10854   -10855   -10855   -10854 
  -10854   -10855   -10856   -10855   -10854   -10854   -10855   -10858 
  -10859   -10855   -10854   -10855   -10856   -10855   -10855   -10856 
  -10856   -10856   -10856   -10856   -10855   -10854   -10852   -10854 
  -10855   -10858   -10858   -10855   -10855   -10855   -10855   -10856 
  -10855   -10855   -10855   -10856   -10858   -10856   -10854   -10854 
  -10855   -10855   -10854   -10856   -10856   -10854   -10855   -10855 
  -10856   -10856   -10855   -10854   -10854   -10854   -10856   -10856 
  -10855   -10852   -10854   -10855   -10855   -10855   -10856   -10856 
  -10854   -10852   -10855   -10855   -10855   -10855   -10854   -10855 
  -10855   -10855   -10856   -10856   -10856   -10858   -10858   -10856 
  -10855   -10854   -10854   -10854   -10856   -10856   -10855   -10854 
  -10854   -10855   -10856   -10856   -10856   -10856   -10856   -10855 
  -10855   -10855   -10851   -10849   -10854   -10856   -10854   -10854 
  -10855   -10854   -10854   -10854   -10851   -10851   -10852   -10851 
  -10849   -10851   -10852   -10852   -10851   -10851   -10849   -10848 
  -10847   -10847   -10845   -10845   -10844   -10844   -10844   -10843 
  -10843   -10840   -10837   -10836   -10833   -10831   -10832   -10828 
  -10827   -10827   -10825   -10822   -10827   -10829   -10831   -10831 
  -10832   -10832   -10831   -10827   -10825   -10821   -10816   -10816 
  -10817   -10816   -10820   -10827   -10833   -10847   -10856   -10867 
  -10876   -10871   -10864   -10866   -10863   -10855   -10852   -10845 
  -10839   -10836   -10840   -10848   -10860   -10870   -10879   -10890 
  -10897   -10895   -10890   -10889   -10887   -10886   -10886   -10883 
  -10876   -10872   -10868   -10866   -10860   -10854   -10851   -10854 
  -10866   -10881   -10876   -10848   -10817   -10808   -10831   -10874 
  -10908   -10912   -10889   -10852   -10824   -10814   -10806   -10786 
  -10773   -10794   -10855   -10930   -10966   -10921   -10810   -10708 
  -10683   -10755   -10883   -10993   -11014   -10953   -10868   -10813 
  -10809   -10840   -10878   -10903   -10912   -10918   -10936   -10953 
  -10952   -10937   -10922   -10918   -10921   -10918   -10905   -10899 
  -10924   -10967   -10991   -10963   -10876   -10771   -10709   -10721 
  -10787   -10852   -10881   -10882   -10878   -10878   -10863   -10805 
  -10694   -10574   -10517   -10555   -10648   -10709   -10685   -10605 
  -10562   -10615   -10743   -10864   -10897   -10840   -10763   -10744 
  -10798   -10868   -10878   -10817   -10754   -10767   -10887   -11051 
  -11151   -11128   -11006   -10874   -10818   -10859   -10945   -11007 
  -10991   -10916   -10867   -10905   -11006   -11098   -11129   -11110 
  -11086   -11063   -11007   -10859   -10602   -10312   -10095   -10029 
  -10126   -10319   -10508   -10639   -10713   -10777   -10879   -11026 
  -11206   -11425   -11668   -11871   -11917   -11705   -11263   -10744 
  -10345   -10214   -10377   -10719   -11056   -11248   -11268   -11226 
  -11253   -11395   -11580   -11678   -11612   -11429   -11238   -11119 
  -11065   -10986   -10774   -10420   -10035    -9794    -9811   -10057 
  -10351   -10492   -10412   -10220   -10103   -10197   -10508   -10901 
  -11207   -11350   -11361   -11354   -11446   -11639   -11821   -11834 
  -11593   -11165   -10710   -10389   -10274   -10319   -10422   -10516 
  -10608   -10743   -10949   -11196   -11398   -11454   -11315   -11021 
  -10683   -10416   -10292   -10311   -10400   -10469   -10477   -10465 
  -10532   -10729   -10998   -11211   -11267   -11161   -10993   -10878 
  -10874   -10936   -10967   -10913   -10789   -10677   -10663   -10744 
  -10817   -10782   -10631   -10430   -10269   -10201   -10233   -10346 
  -10507   -10669   -10786   -10847   -10883   -10941   -11057   -11240 
  -11441   -11573   -11550   -11325   -10951   -10559   -10291   -10246 
  -10453   -10839   -11254   -11546   -11614   -11468   -11205   -10939 
  -10741   -10594   -10451   -10299   -10160   -10085   -10115   -10218 
  -10327   -10388   -10397   -10417   -10511   -10694   -10933   -11173 
  -11381   -11553   -11696   -11803   -11834   -11754   -11574   -11361 
  -11198   -11118   -11091   -11037   -10902   -10723   -10597   -10613 
  -10762   -10936   -11018   -10956   -10808   -10687   -10663   -10710 
  -10746   -10675   -10474   -10230   -10076   -10106   -10318   -10621 
  -10887   -11032   -11060   -11040   -11043   -11095   -11183   -11250 
  -11249   -11168   -11022   -10844   -10673   -10539   -10462   -10449 
  -10497   -10594   -10717   -10831   -10908   -10945   -10949   -10925 
  -10881   -10829   -10777   -10728   -10681   -10663   -10708   -10835 
  -11037   -11287   -11538   -11735   -11840   -11843   -11742   -11545 
  -11286   -11006   -10755   -10581   -10493   -10457   -10419   -10334 
  -10185   -10014    -9877    -9830    -9898   -10075   -10327   -10594 
  -10825   -11009   -11142   -11217   -11240   -11209   -11113   -10968 
  -10835   -10794   -10906   -11159   -11452   -11654   -11664   -11485 
  -11225   -11020   -10957   -11044   -11191   -11277   -11232   -11052 
  -10804   -10573   -10417   -10347   -10345   -10380   -10430   -10473 
  -10512   -10567   -10644   -10735   -10813   -10849   -10837   -10804 
  -10797   -10855   -10971   -11102   -11199   -11244   -11246   -11223 
  -11180   -11097   -10937   -10689   -10397   -10142    -9995    -9984 
  -10089   -10260   -10466   -10702   -10943   -11148   -11281   -11319 
  -11280   -11211   -11149   -11080   -10963   -10779   -10562   -10392 
  -10341   -10413   -10546   -10655   -10708   -10735   -10806   -10975 
  -11237   -11514   -11704   -11735   -11581   -11283   -10933   -10640 
  -10480   -10480   -10604   -10771   -10905   -10970   -10978   -10979 
  -11025   -11122   -11245   -11364   -11442   -11456   -11406   -11308 
  -11187   -11065   -10968   -10918   -10922   -10967   -11013   -11025 
  -10986   -10913   -10835   -10786   -10790   -10852   -10956   -11061 
  -11114   -11057   -10874   -10604   -10328   -10116   -10018   -10031 
  -10092   -10129   -10125   -10108   -10131   -10230   -10388   -10548 
  -10647   -10642   -10552   -10454   -10430   -10540   -10775   -11063 
  -11325   -11510   -11612   -11665   -11681   -11661   -11614   -11531 
  -11404   -11233   -11028   -10814   -10625   -10474   -10380   -10351 
  -10381   -10449   -10519   -10559   -10567   -10548   -10493   -10396 
  -10250   -10073    -9929    -9880    -9964   -10187   -10511   -10868 
  -11196   -11452   -11618   -11711   -11747   -11732   -11670   -11568 
  -11439   -11303   -11176   -11076   -11013   -10982   -10979   -10990 
  -11002   -11014   -11022   -11022   -11001   -10933   -10798   -10613 
  -10431   -10330   -10345   -10443   -10550   -10589   -10540   -10467 
  -10458   -10574   -10808   -11083   -11326   -11491   -11572   -11591 
  -11557   -11452   -11273   -11032   -10764   -10531   -10377   -10323 
  -10363   -10476   -10635   -10810   -10967   -11078   -11137   -11142 
  -11118   -11094   -11060   -10999   -10913   -10800   -10687   -10623 
  -10628   -10709   -10855   -11030   -11202   -11352   -11469   -11538 
  -11537   -11438   -11222   -10891   -10493   -10100    -9780    -9585 
   -9535    -9628    -9840   -10125   -10431   -10702   -10890   -10978 
  -10987   -10955   -10933   -10974   -11091   -11263   -11434   -11537 
  -11539   -11466   -11376   -11319   -11330   -11384   -11437   -11442 
  -11371   -11234   -11082   -10968   -10932   -10964   -11018   -11034 
  -10968   -10800   -10542   -10250    -9996    -9834    -9782    -9834 
   -9967   -10138   -10315   -10471   -10593   -10674   -10717   -10736 
  -10747   -10760   -10778   -10781   -10754   -10706   -10669   -10683 
  -10785   -10971   -11205   -11434   -11610   -11689   -11664   -11547 
  -11358   -11124   -10855   -10579   -10346   -10195   -10162   -10255 
  -10439   -10660   -10879   -11065   -11213   -11310   -11345   -11318 
  -11230   -11084   -10899   -10694   -10504   -10376   -10345   -10412 
  -10554   -10704   -10800   -10827   -10814   -10813   -10862   -10960 
  -11064   -11115   -11072   -10933   -10733   -10539   -10412   -10396 
  -10490   -10659   -10851   -11016   -11119   -11155   -11129   -11048 
  -10924   -10783   -10655   -10573   -10570   -10644   -10762   -10893 
  -10999   -11068   -11105   -11119   -11119   -11113   -11099   -11061 
  -10980   -10845   -10666   -10477   -10324   -10246   -10258   -10338 
  -10459   -10592   -10710   -10825   -10949   -11088   -11248   -11412 
  -11549   -11628   -11639   -11595   -11515   -11412   -11281   -11122 
  -10944   -10783   -10678   -10660   -10746   -10894   -11032   -11111 
  -11110   -11037   -10939   -10847   -10775   -10741   -10751   -10795 
  -10872   -10959   -11026   -11049   -11032   -11002   -10991   -11014 
  -11056   -11075   -11033   -10932   -10808   -10710   -10669   -10683 
  -10719   -10729   -10701   -10647   -10586   -10546   -10534   -10540 
  -10551   -10561   -10581   -10635   -10732   -10864   -10993   -11070 
  -11065   -10982   -10835   -10662   -10515   -10427   -10424   -10519 
  -10712   -10975   -11252   -11479   -11616   -11659   -11642   -11601 
  -11558   -11496   -11391   -11240   -11057   -10874   -10717   -10600 
  -10517   -10458   -10415   -10401   -10434   -10512   -10616   -10712 
  -10766   -10771   -10737   -10692   -10665   -10675   -10712   -10746 
  -10750   -10717   -10667   -10632   -10633   -10660   -10681   -10665 
  -10602   -10519   -10463   -10474   -10569   -10741   -10966   -11209 
  -11437   -11618   -11718   -11726   -11649   -11514   -11353   -11202 
  -11076   -10959   -10821   -10658   -10474   -10295   -10165   -10116 
  -10160   -10282   -10449   -10608   -10740   -10844   -10929   -11007 
  -11074   -11109   -11101   -11040   -10936   -10806   -10693   -10636 
  -10647   -10724   -10847   -10974   -11060   -11087   -11048   -10953 
  -10832   -10709   -10596   -10496   -10405   -10331   -10284   -10284 
  -10346   -10482   -10681   -10908   -11124   -11296   -11387   -11375 
  -11284   -11156   -11029   -10939   -10902   -10908   -10932   -10966 
  -11003   -11041   -11061   -11041   -10979   -10897   -10821   -10782 
  -10793   -10841   -10916   -10989   -11049   -11097   -11119   -11106 
  -11048   -10956   -10858   -10786   -10785   -10864   -10994   -11124 
  -11203   -11188   -11068   -10872   -10656   -10482   -10396   -10390 
  -10427   -10474   -10515   -10554   -10615   -10706   -10825   -10937 
  -11003   -11021   -11016   -11017   -11037   -11059   -11060   -11028 
  -10957   -10859   -10751   -10639   -10538   -10477   -10484   -10566 
  -10713   -10879   -11014   -11083   -11079   -11026   -10964   -10922 
  -10906   -10908   -10932   -10993   -11088   -11205   -11318   -11392 
  -11406   -11373   -11306   -11210   -11095   -10972   -10840   -10716 
  -10616   -10540   -10486   -10444   -10401   -10345   -10278   -10216 
  -10179   -10177   -10227   -10334   -10486   -10656   -10810   -10930 
  -11021   -11091   -11171   -11276   -11394   -11496   -11549   -11523 
  -11430   -11298   -11159   -11044   -10964   -10912   -10860   -10785 
  -10686   -10573   -10467   -10388   -10341   -10334   -10380   -10480 
  -10621   -10782   -10916   -10984   -10980   -10912   -10810   -10714 
  -10663   -10677   -10747   -10849   -10955   -11037   -11086   -11109 
  -11113   -11111   -11117   -11134   -11168   -11215   -11276   -11340 
  -11385   -11402   -11375   -11302   -11210   -11149   -11152   -11230 
  -11362   -11492   -11572   -11583   -11514   -11375   -11190   -10991 
  -10813   -10678   -10590   -10539   -10508   -10478   -10438   -10395 
  -10341   -10272   -10196   -10131   -10092   -10093   -10131   -10183 
  -10226   -10266   -10316   -10385   -10480   -10585   -10690   -10795 
  -10912   -11047   -11210   -11392   -11565   -11693   -11755   -11746 
  -11692   -11634   -11601   -11610   -11637   -11635   -11558   -11380 
  -11113   -10809   -10528   -10320   -10208   -10170   -10157   -10123 
  -10046    -9922    -9763    -9597    -9443    -9312    -9215    -9161 
   -9175    -9278    -9489    -9830   -10312   -10902   -11533   -12114 
  -12550   -12776   -12787   -12638   -12430   -12270   -12213   -12260 
  -12367   -12453   -12457   -12352   -12136   -11840   -11502   -11153 
  -10825   -10527   -10250    -9973    -9675    -9351    -9027    -8745 
   -8537    -8415    -8351    -8309    -8268    -8221    -8175    -8145 
   -8139    -8155    -8186    -8239    -8332    -8479    -8689    -8965 
   -9274    -9578    -9868   -10127   -10351   -10559   -10774   -11014 
  -11300   -11632   -11996   -12370   -12731   -13057   -13333   -13566 
  -13783   -14019   -14285   -14571   -14852   -15090   -15248   -15292 
  -15205   -14976   -14601   -14084   -13435   -12665   -11797   -10878 
   -9954    -9084    -8311    -7672    -7194    -6912    -6851    -7024 
   -7403    -7931    -8523    -9078    -9533    -9873   -10112   -10297 
  -10496   -10751   -11080   -11487   -11951   -12460   -13003   -13567 
  -14121   -14588   -14879   -14933   -14728   -14300   -13751   -13190 
  -12708   -12356   -12117   -11934   -11738   -11465   -11076   -10561 
   -9941    -9263    -8577    -7939    -7387    -6941    -6601    -6343 
   -6139    -5981    -5859    -5783    -5810    -5995    -6386    -7015 
   -7869    -8884    -9971   -11011   -11907   -12598   -13061   -13308 
  -13397   -13393   -13347   -13309   -13296   -13315   -13386   -13520 
  -13720   -13969   -14219   -14411   -14493   -14438   -14246   -13932 
  -13501   -12960   -12318   -11600   -10860   -10168    -9595    -9205 
   -9020    -9019    -9153    -9348    -9522    -9607    -9552    -9348 
   -9027    -8653    -8311    -8066    -7958    -7998    -8158    -8391 
   -8642    -8872    -9062    -9215    -9354    -9509    -9721   -10033 
  -10467   -11034   -11712   -12434   -13122   -13702   -14110   -14324 
  -14368   -14285   -14138   -13980   -13841   -13725   -13610   -13459 
  -13246   -12934   -12507   -11985   -11418   -10860   -10365    -9976 
   -9707    -9545    -9460    -9416    -9367    -9278    -9127    -8904 
   -8603    -8229    -7820    -7433    -7144    -7051    -7227    -7690 
   -8399    -9271   -10191   -11056   -11781   -12318   -12663   -12822 
  -12835   -12773   -12695   -12656   -12679   -12754   -12846   -12911 
  -12907   -12800   -12568   -12218   -11785   -11318   -10885   -10550 
  -10358   -10335   -10496   -10820   -11253   -11707   -12082   -12286 
  -12279   -12071   -11713   -11290   -10891   -10577   -10366   -10250 
  -10193   -10134   -10033    -9868    -9629    -9337    -9036    -8775 
   -8596    -8527    -8564    -8684    -8860    -9073    -9325    -9629 
   -9984   -10365   -10721   -10993   -11146   -11196   -11205   -11242 
  -11364   -11592   -11912   -12276   -12630   -12928   -13159   -13327 
  -13441   -13506   -13520   -13462   -13302   -13016   -12591   -12040 
  -11416   -10794   -10254    -9864    -9640    -9549    -9528    -9498 
   -9416    -9283    -9126    -8993    -8943    -9008    -9202    -9524 
   -9953   -10447   -10948   -11395   -11728   -11913   -11947   -11862 
  -11707   -11515   -11299   -11061   -10813   -10571   -10368   -10257 
  -10276   -10422   -10662   -10936   -11175   -11327   -11373   -11338 
  -11268   -11192   -11138   -11115   -11117   -11140   -11196   -11295 
  -11443   -11641   -11869   -12106   -12344   -12564   -12745   -12856 
  -12853   -12692   -12348   -11830   -11188   -10505    -9865    -9340 
   -8955    -8715    -8606    -8587    -8634    -8734    -8866    -9020 
   -9194    -9385    -9597    -9844   -10134   -10462   -10817   -11180 
  -11523   -11816   -12047   -12210   -12320   -12394   -12434   -12434 
  -12384   -12271   -12085   -11838   -11547   -11238   -10933   -10646 
  -10393   -10184   -10012    -9877    -9778    -9706    -9666    -9657 
   -9672    -9694    -9715    -9740    -9792    -9917   -10146   -10469 
  -10845   -11206   -11465   -11569   -11506   -11308   -11052   -10814 
  -10659   -10621   -10702   -10876   -11094   -11299   -11441   -11484 
  -11418   -11260   -11036   -10787   -10562   -10397   -10316   -10328 
  -10426   -10584   -10760   -10906   -10984   -10971   -10866   -10693 
  -10480   -10254   -10039    -9837    -9643    -9456    -9283    -9151 
   -9082    -9100    -9219    -9441    -9752   -10119   -10505   -10860 
  -11125   -11260   -11259   -11145   -10964   -10763   -10581   -10436 
  -10335   -10269   -10233   -10238   -10293   -10385   -10504   -10638 
  -10768   -10886   -10993   -11106   -11241   -11414   -11632   -11892 
  -12166   -12426   -12644   -12791   -12850   -12806   -12661   -12440 
  -12171   -11889   -11627   -11406   -11225   -11067   -10909   -10736 
  -10540   -10336   -10147    -9994    -9884    -9825    -9809    -9825 
   -9853    -9872    -9872    -9845    -9799    -9776    -9818    -9953 
  -10199   -10546   -10951   -11368   -11745   -12031   -12205   -12263 
  -12221   -12116   -11992   -11892   -11848   -11870   -11954   -12074 
  -12193   -12272   -12279   -12185   -11992   -11723   -11411   -11094 
  -10806   -10569   -10396   -10293   -10268   -10327   -10463   -10666 
  -10912   -11178   -11437   -11655   -11808   -11880   -11851   -11704 
  -11442   -11088   -10671   -10228    -9815    -9472    -9225    -9085 
   -9053    -9105    -9205    -9328    -9451    -9559    -9652    -9737 
   -9814    -9890    -9977   -10089   -10238   -10426   -10643   -10866 
  -11053   -11172   -11205   -11169   -11110   -11075   -11099   -11202 
  -11375   -11589   -11807   -11989   -12110   -12164   -12150   -12075 
  -11951   -11774   -11535   -11226   -10837   -10385    -9913    -9478 
   -9136    -8937    -8903    -9038    -9320    -9707   -10153   -10623 
  -11078   -11477   -11794   -12012   -12121   -12128   -12033   -11843 
  -11561   -11206   -10817   -10451   -10166   -10003    -9971   -10056 
  -10234   -10470   -10724   -10972   -11191   -11361   -11483   -11566 
  -11622   -11662   -11703   -11751   -11804   -11850   -11874   -11859 
  -11805   -11720   -11614   -11503   -11406   -11325   -11269   -11263 
  -11311   -11392   -11480   -11535   -11515   -11403   -11218   -10987 
  -10741   -10515   -10324   -10174   -10064    -9992    -9960    -9964 
  -10007   -10096   -10230   -10385   -10540   -10663   -10721   -10702 
  -10611   -10469   -10320   -10207   -10157   -10188   -10311   -10501 
  -10716   -10914   -11053   -11102   -11060   -10939   -10767   -10581 
  -10409   -10284   -10227   -10261   -10397   -10639   -10955   -11283 
  -11565   -11757   -11824   -11781   -11669   -11526   -11396   -11321 
  -11304   -11342   -11425   -11533   -11657   -11788   -11905   -11992 
  -12027   -12000   -11913   -11778   -11597   -11371   -11099   -10778 
  -10411   -10014    -9602    -9208    -8869    -8610    -8455    -8422 
   -8523    -8746    -9065    -9455    -9882   -10305   -10700   -11038 
  -11306   -11493   -11597   -11623   -11595   -11538   -11476   -11434 
  -11416   -11406   -11377   -11308   -11187   -11020   -10827   -10633 
  -10469   -10343   -10258   -10204   -10174   -10156   -10137   -10114 
