Origin Time       2025/06/03 22:18:00
Lat.              41.7
Long.             143.6
Depth. (km)       30
Mag.              5.2
Station Code      HDKH02
Station Lat.      42.7061
Station Long.     142.4054
Station Height(m) 230
Record Time       2025/06/03 22:19:03
Sampling Freq(Hz) 100Hz
Duration Time(s)  120
Dir.              4
Scale Factor      3920(gal)/6170801
Max. Acc. (gal)   1.108
Last Correction   2025/06/03 22:18:48
Memo.             
[...]
    4552     4586     4629     4664     4683     4682     4665     4643 
    4626     4609     4585     4550     4510     4472     4453     4465 
    4504     4558     4610     4650     4673     4675     4661     4641 
    4614     4587     4570     4568     4584     4606     4611     4584 
    4527     4453     4384     4341     4327     4341     4374     4421 
    4477     4538     4605     4683     4763     4828     4861     4856 
    4819     4759     4690     4621     4563     4523     4504     4502 
    4513     4535     4563     4583     4594     4600     4601     4596 
    4588     4575     4553     4519     4471     4414     4360     4330 
    4333     4367     4422     4490     4559     4620     4674     4726 
    4770     4794     4781     4725     4640     4549     4471     4424 
    4409     4416     4441     4486     4547     4621     4698     4763 
    4799     4796     4763     4723     4702     4710     4733     4747 
    4733     4677     4592     4507     4450     4434     4455     4504 
    4568     4630     4681     4709     4705     4674     4633     4602 
    4590     4594     4600     4598     4588     4585     4596     4608 
    4608     4589     4542     4481     4433     4423     4468     4555 
    4649     4718     4752     4759     4756     4755     4754     4738 
    4695     4628     4554     4498     4471     4458     4442     4411 
    4362     4309     4273     4271     4306     4370     4450     4530 
    4607     4681     4744     4784     4787     4745     4662     4555 
    4452     4375     4340     4349     4386     4431     4478     4523 
    4560     4590     4608     4609     4595     4566     4531     4508 
    4505     4522     4553     4583     4602     4609     4610     4620 
    4645     4674     4687     4674     4640     4601     4577     4572 
    4573     4569     4557     4538     4529     4544     4574     4610 
    4647     4681     4712     4740     4757     4756     4732     4688 
    4633     4580     4532     4482     4431     4384     4354     4351 
    4375     4418     4469     4513     4557     4611     4683     4767 
    4849     4911     4937     4922     4875     4810     4738     4662 
    4584     4511     4439     4378     4347     4354     4398     4464 
    4535     4607     4678     4742     4791     4813     4802     4764 
    4709     4650     4598     4551     4501     4450     4409     4397 
    4419     4461     4504     4532     4538     4530     4526     4536 
    4571     4626     4679     4715     4722     4692     4624     4529 
    4426     4328     4249     4208     4211     4267     4367     4486 
    4604     4705     4771     4800     4802     4792     4785     4776 
    4755     4723     4686     4651     4627     4622     4633     4648 
    4657     4654     4639     4613     4581     4544     4504     4478 
    4477     4499     4545     4604     4663     4705     4724     4714 
    4673     4615     4552     4489     4434     4397     4385     4404 
    4449     4505     4547     4572     4583     4585     4586     4592 
    4602     4613     4619     4623     4621     4601     4565     4525 
    4479     4437     4414     4410     4424     4461     4512     4571 
    4627     4665     4680     4675     4650     4614     4571     4527 
    4486     4453     4437     4445     4480     4538     4600     4654 
    4688     4700     4692     4666     4624     4576     4522     4477 
    4462     4483     4536     4608     4671     4702     4703     4684 
    4655     4619     4572     4511     4445     4399     4397     4446 
    4539     4644     4727     4772     4783     4771     4753     4737 
    4718     4687     4643     4588     4542     4524     4544     4590 
    4643     4681     4697     4699     4697     4699     4708     4717 
    4725     4737     4751     4760     4763     4753     4723     4670 
    4599     4523     4453     4398     4365     4358     4371     4395 
    4425     4458     4494     4532     4569     4595     4609     4613 
    4603     4576     4544     4512     4475     4439     4408     4384 
    4370     4368     4390     4448     4536     4639     4742     4820 
    4855     4834     4761     4667     4583     4526     4506     4513 
    4527     4534     4536     4548     4573     4602     4627     4637 
    4636     4646     4673     4714     4759     4782     4768     4728 
    4687     4662     4659     4660     4645     4604     4546     4484 
    4435     4401     4371     4339     4319     4325     4364     4434 
    4520     4609     4688     4742     4763     4755     4724     4679 
    4626     4570     4514     4464     4431     4436     4488     4569 
    4656     4721     4742     4721     4678     4628     4581     4537 
    4495     4453     4413     4385     4380     4399     4425     4441 
    4444     4437     4436     4460     4512     4578     4638     4681 
    4705     4712     4703     4684     4657     4627     4596     4568 
    4551     4554     4574     4605     4640     4667     4680     4680 
    4670     4650     4626     4601     4583     4584     4598     4623 
    4659     4698     4729     4749     4756     4746     4720     4681 
    4641     4608     4583     4569     4561     4554     4545     4526 
    4496     4465     4437     4416     4408     4419     4444     4476 
    4510     4536     4544     4531     4497     4456     4426     4418 
    4432     4466     4510     4561     4617     4666     4698     4712 
    4706     4685     4660     4640     4621     4605     4593     4587 
    4581     4572     4561     4548     4541     4542     4550     4565 
    4587     4615     4647     4675     4694     4705     4700     4680 
    4652     4620     4588     4566     4556     4556     4564     4574 
    4592     4623     4660     4693     4712     4710     4688     4651 
    4608     4576     4561     4564     4581     4608     4637     4661 
    4675     4675     4661     4635     4602     4575     4569     4584 
    4608     4632     4646     4641     4620     4594     4573     4559 
    4551     4543     4530     4505     4473     4447     4437     4443 
    4460     4481     4500     4511     4517     4530     4550     4570 
    4583     4581     4565     4546     4534     4529     4524     4509 
    4485     4473     4484     4517     4567     4616     4645     4647 
    4629     4604     4590     4588     4593     4602     4599     4579 
    4550     4520     4496     4482     4481     4496     4529     4576 
    4625     4668     4700     4718     4726     4728     4724     4707 
    4672     4632     4598     4568     4541     4519     4506     4515 
    4556     4632     4718     4787     4825     4836     4834     4832 
    4830     4820     4792     4748     4700     4659     4630     4611 
    4589     4554     4509     4474     4465     4481     4502     4506 
    4482     4435     4385     4356     4355     4369     4379     4378 
    4371     4373     4385     4408     4433     4452     4467     4492 
    4538     4599     4651     4674     4661     4626     4592     4580 
    4601     4653     4724     4799     4863     4904     4907     4858 
    4762     4633     4498     4388     4329     4326     4360     4408 
    4453     4484     4506     4522     4533     4540     4539     4526 
    4505     4489     4487     4494     4508     4528     4550     4575 
    4604     4630     4645     4640     4618     4589     4567     4569 
    4600     4647     4692     4722     4733     4733     4730     4720 
    4709     4703     4698     4693     4689     4681     4662     4632 
    4598     4565     4542     4543     4561     4579     4598     4622 
    4646     4671     4691     4698     4694     4681     4656     4616 
    4550     4457     4355     4265     4206     4182     4183     4196 
    4214     4241     4283     4344     4415     4473     4498     4483 
    4435     4375     4330     4304     4295     4302     4321     4348 
    4385     4431     4476     4515     4545     4577     4624     4701 
    4808     4928     5042     5128     5171     5173     5143     5097 
    5044     4986     4935     4905     4897     4908     4935     4969 
    4997     5010     5010     5004     4994     4985     4973     4951 
    4914     4859     4787     4711     4653     4622     4625     4659 
    4699     4724     4731     4723     4703     4682     4657     4629 
    4605     4583     4564     4551     4534     4509     4481     4452 
    4423     4399     4379     4352     4321     4284     4240     4196 
    4165     4156     4171     4196     4218     4236     4246     4235 
    4195     4121     4033     3960     3914     3899     3906     3925 
    3943     3957     3972     3997     4035     4080     4123     4161 
    4185     4191     4185     4176     4170     4167     4160     4145 
    4127     4119     4126     4146     4172     4188     4181     4152 
    4119     4115     4162     4271     4436     4633     4825     4981 
    5080     5124     5128     5102     5063     5029     5014     5017 
    5027     5029     5018     4993     4961     4934     4919     4918 
    4938     4986     5068     5179     5300     5412     5495     5531 
    5516     5462     5385     5297     5222     5180     5169     5173 
    5182     5180     5173     5177     5196     5227     5259     5277 
    5271     5240     5194     5140     5074     4988     4874     4739 
    4596     4468     4368     4298     4253     4225     4202     4181 
    4164     4137     4089     4014     3918     3813     3727     3681 
    3689     3752     3851     3965     4080     4178     4242     4268 
    4248     4183     4090     3993     3916     3885     3910     3978 
    4080     4209     4361     4531     4705     4860     4968     5014 
    5007     4974     4951     4958     4996     5058     5131     5203 
    5271     5327     5355     5344     5291     5209     5125     5060 
    5033     5045     5083     5129     5160     5155     5100     5004 
    4885     4757     4629     4514     4416     4328     4254     4195 
    4151     4124     4122     4144     4184     4235     4300     4381 
    4476     4573     4655     4716     4752     4769     4775     4770 
    4750     4713     4665     4614     4568     4536     4526     4541 
    4573     4607     4638     4665     4686     4696     4679     4623 
    4528     4405     4269     4139     4026     3942     3891     3872 
    3893     3955     4045     4140     4214     4252     4258     4248 
    4242     4260     4309     4379     4457     4521     4561     4577 
    4583     4588     4603     4634     4680     4734     4787     4818 
    4810     4755     4656     4526     4383     4242     4116     4018 
    3953     3921     3909     3896     3862     3803     3729     3657 
    3615     3621     3683     3795     3940     4099     4259     4407 
    4529     4618     4665     4659     4605     4525     4448     4403 
    4407     4467     4586     4763     4982     5214     5431     5615 
    5751     5828     5845     5810     5733     5611     5454     5278 
    5099     4929     4773     4630     4511     4432     4394     4409 
    4484     4597     4716     4827     4923     4997     5060     5114 
    5148     5144     5096     5017     4926     4854     4829     4854 
    4908     4962     4993     4993     4971     4935     4892     4853 
    4827     4827     4865     4943     5034     5109     5145     5115 
    5011     4850     4655     4455     4283     4170     4127     4152 
    4229     4329     4422     4495     4543     4568     4569     4546 
    4508     4466     4429     4396     4363     4317     4244     4136 
    4007     3888     3796     3748     3755     3808     3892     4004 
    4142     4309     4499     4683     4829     4902     4879     4770 
    4608     4424     4251     4121     4047     4037     4092     4194 
    4315     4431     4528     4601     4654     4691     4716     4735 
    4750     4756     4756     4760     4773     4799     4835     4873 
    4906     4925     4927     4906     4855     4781     4707     4663 
    4672     4741     4854     4975     5066     5107     5095     5038 
    4943     4821     4678     4526     4389     4288     4235     4233 
    4260     4293     4328     4349     4341     4306     4258     4205 
    4156     4124     4125     4178     4281     4411     4539     4630 
    4657     4622     4546     4458     4384     4332     4305     4300 
    4316     4356     4421     4499     4576     4635     4668     4680 
    4687     4705     4754     4843     4961     5092     5207     5285 
    5316     5297     5229     5114     4957     4778     4603     4450 
    4337     4275     4262     4282     4321     4372     4426     4472 
    4507     4529     4540     4538     4521     4485     4434     4381 
    4330     4287     4255     4233     4219     4214     4218     4241 
    4287     4353     4440     4546     4665     4796     4923     5025 
    5093     5125     5117     5070     4987     4865     4701     4503 
    4300     4118     3976     3875     3816     3801     3834     3915 
    4037     4178     4303     4383     4411     4405     4391     4403 
    4462     4561     4686     4823     4953     5071     5183     5288 
    5376     5452     5525     5599     5677     5753     5806     5821 
    5798     5735     5633     5515     5392     5267     5149     5049 
    4957     4858     4739     4599     4445     4298     4170     4052 
    3926     3773     3586     3380     3182     3016     2900     2840 
    2838     2897     3009     3162     3340     3513     3647     3726 
    3759     3763     3750     3733     3722     3725     3767     3873 
    4059     4318     4612     4893     5130     5313     5439     5509 
    5533     5525     5499     5471     5447     5434     5439     5453 
    5458     5442     5395     5313     5203     5077     4952     4847 
    4775     4743     4753     4794     4859     4949     5061     5188 
    5323     5451     5555     5622     5652     5640     5585     5489 
    5348     5162     4958     4764     4603     4490     4433     4422 
    4434     4451     4458     4433     4362     4241     4070     3869 
    3681     3545     3484     3509     3622     3814     4053     4286 
    4464     4554     4544     4452     4314     4165     4036     3945 
    3905     3928     4016     4154     4316     4474     4599     4673 
    4699     4695     4688     4701     4740     4801     4880     4969 
    5051     5106     5117     5068     4953     4788     4607     4448 
    4339     4289     4297     4360     4471     4620     4804     5002 
    5180     5299     5332     5271     5148     5008     4888     4819 
    4811     4847     4897     4933     4940     4916     4864     4780 
    4662     4509     4330     4143     3977     3852     3772     3727 
    3710     3716     3746     3798     3868     3961     4070     4179 
    4281     4377     4463     4536     4591     4622     4629     4612 
    4572     4515     4446     4368     4289     4220     4171     4156 
    4188     4266     4381     4517     4655     4781     4886     4956 
    4985     4975     4934     4882     4841     4829     4849     4887 
    4935     4988     5040     5086     5120     5126     5093     5024 
    4929     4834     4762     4722     4711     4720     4726     4707 
    4650     4552     4415     4261     4115     3994     3915     3890 
    3912     3978     4080     4210     4361     4518     4672     4805 
    4899     4945     4948     4925     4905     4898     4903     4911 
    4918     4927     4938     4947     4946     4918     4855     4766 
    4669     4588     4540     4527     4542     4575     4619     4667 
    4714     4755     4779     4780     4752     4683     4579     4457 
    4336     4226     4139     4095     4098     4131     4182     4225 
    4233     4200     4141     4071     4010     3975     3979     4025 
    4110     4227     4360     4495     4619     4705     4735     4709 
    4639     4549     4473     4438     4449     4503     4588     4683 
    4770     4838     4877     4889     4876     4843     4807     4788 
    4806     4873     4990     5141     5297     5427     5508     5522 
    5470     5366     5223     5051     4867     4688     4530     4407 
    4322     4275     4257     4256     4258     4251     4226     4184 
    4133     4090     4077     4108     4177     4268     4354     4406 
    4412     4373     4300     4211     4117     4022     3938     3873 
    3833     3822     3832     3859     3900     3951     4026     4136 
    4285     4470     4682     4902     5103     5264     5366     5404 
    5383     5313     5204     5074     4949     4861     4822     4829 
    4855     4864     4826     4740     4624     4509     4415     4354 
    4333     4346     4384     4445     4522     4594     4654     4702 
    4739     4768     4795     4822     4834     4814     4762     4679 
    4574     4473     4395     4350     4341     4368     4429     4530 
    4671     4842     5029     5209     5343     5410     5405     5337 
    5227     5103     4990     4902     4836     4780     4722     4657 
    4580     4494     4400     4305     4224     4180     4194     4274 
    4417     4607     4810     4987     5114     5176     5165     5082 
    4946     4775     4590     4414     4278     4210     4218     4285 
    4394     4527     4656     4760     4839     4888     4899     4880 
    4856     4844     4849     4869     4898     4921     4918     4883 
    4815     4717     4604     4488     4380     4289     4230     4206 
    4201     4201     4194     4166     4113     4040     3957     3878 
    3817     3788     3794     3818     3843     3861     3865     3856 
    3851     3867     3918     4006     4123     4259     4399     4530 
    4645     4739     4811     4865     4904     4928     4944     4966 
    5004     5065     5145     5231     5305     5361     5400     5424 
    5427     5404     5343     5232     5072     4882     4685     4507 
    4358     4238     4143     4063     3996     3938     3891     3860 
    3844     3839     3850     3879     3926     3987     4043     4080 
    4098     4112     4132     4170     4227     4298     4377     4460 
    4541     4615     4680     4735     4786     4838     4892     4947 
    4998     5032     5040     5020     4973     4912     4858     4818 
    4796     4791     4787     4771     4736     4683     4622     4564 
    4516     4484     4472     4486     4534     4620     4733     4856 
    4971     5051     5086     5079     5042     4997     4960     4938 
    4933     4942     4958     4982     5014     5050     5082     5100 
    5106     5095     5064     5022     4977     4932     4886     4837 
    4773     4688     4582     4456     4319     4182     4059     3966 
    3917     3914     3955     4035     4138     4249     4350     4418 
    4437     4407     4333     4237     4138     4048     3982     3947 
    3944     3972     4021     4079     4138     4202     4283     4386 
    4510     4637     4744     4808     4818     4773     4696     4607 
    4519     4444     4387     4354     4352     4386     4447     4521 
    4596     4667     4729     4774     4803     4818     4819     4814 
    4814     4819     4836     4866     4893     4908     4904     4863 
    4775     4646     4497     4355     4246     4185     4175     4202 
