Origin Time       2025/06/03 22:18:00
Lat.              41.7
Long.             143.6
Depth. (km)       30
Mag.              5.2
Station Code      HDKH07
Station Lat.      42.1330
Station Long.     142.9164
Station Height(m) -61
Record Time       2025/06/03 22:18:41
Sampling Freq(Hz) 100Hz
Duration Time(s)  120
Dir.              3
Scale Factor      2942(gal)/8224139
Max. Acc. (gal)   1.808
Last Correction   2025/06/03 22:18:41
Memo.             
[...]
   94695    94695    94695    94694    94693    94695    94697    94697 
   94697    94694    94694    94695    94695    94695    94695    94694 
   94695    94697    94697    94697    94695    94695    94697    94698 
   94694    94693    94697    94698    94698    94695    94695    94697 
   94697    94697    94697    94697    94697    94698    94697    94695 
   94697    94694    94691    94695    94695    94690    94693    94695 
   94695    94697    94694    94694    94694    94693    94693    94693 
   94695    94697    94693    94693    94694    94693    94693    94693 
   94691    94695    94697    94694    94694    94694    94695    94694 
   94693    94694    94695    94694    94694    94693    94693    94694 
   94694    94695    94697    94694    94691    94694    94695    94694 
   94693    94693    94694    94694    94693    94693    94691    94689 
   94689    94687    94686    94683    94682    94684    94683    94680 
   94683    94680    94679    94680    94678    94674    94674    94671 
   94670    94672    94672    94670    94668    94664    94657    94648 
   94640    94630    94617    94606    94599    94599    94597    94591 
   94585    94576    94570    94568    94571    94571    94567    94564 
   94563    94562    94559    94556    94551    94544    94547    94563 
   94582    94602    94616    94617    94618    94625    94636    94640 
   94640    94643    94652    94667    94687    94701    94709    94725 
   94744    94751    94743    94725    94697    94671    94666    94689 
   94726    94756    94761    94755    94755    94751    94734    94722 
   94733    94772    94826    94860    94844    94778    94689    94647 
   94710    94853    94954    94927    94814    94713    94657    94626 
   94617    94629    94649    94702    94801    94890    94900    94821 
   94686    94562    94527    94594    94714    94826    94884    94849 
   94729    94612    94591    94668    94770    94851    94913    94950 
   94946    94911    94879    94880    94944    95080    95234    95310 
   95281    95243    95310    95466    95563    95486    95257    94990 
   94814    94770    94757    94680    94581    94575    94682    94786 
   94759    94568    94263    93943    93719    93684    93839    94059 
   94184    94189    94213    94362    94572    94710    94693    94545 
   94356    94208    94157    94216    94386    94670    95019    95308 
   95453    95473    95400    95235    95054    94981    95002    94984 
   94890    94814    94802    94753    94558    94244    93958    93841 
   93911    94054    94147    94169    94144    94009    93711    93467 
   93622    94165    94706    94941    94894    94782    94734    94702 
   94649    94647    94740    94891    95073    95276    95449    95507 
   95423    95253    95025    94780    94609    94556    94662    95023 
   95578    96037    96160    95931    95499    95041    94687    94517 
   94527    94663    94913    95224    95400    95288    95013    94780 
   94648    94572    94518    94456    94396    94410    94562    94794 
   94946    94868    94582    94267    94069    94045    94203    94454 
   94644    94726    94829    95031    95127    94907    94521    94292 
   94320    94517    94757    94926    95030    95199    95469    95686 
   95647    95318    94890    94583    94463    94479    94536    94547 
   94517    94564    94767    95030    95175    95092    94822    94483 
   94182    93966    93834    93781    93860    94109    94458    94778 
   94973    95034    95004    94907    94720    94427    94093    93864 
   93856    94050    94342    94612    94747    94716    94633    94626 
   94694    94761    94779    94771    94803    94925    95111    95261 
   95278    95189    95129    95187    95343    95486    95472    95253 
   94925    94622    94359    94053    93734    93580    93691    93991 
   94302    94455    94412    94261    94069    93884    93754    93684 
   93664    93718    93897    94225    94612    94882    94953    94896 
   94815    94748    94721    94767    94848    94849    94763    94702 
   94714    94734    94730    94716    94706    94718    94768    94829 
   94826    94725    94544    94319    94103    93947    93904    93991 
   94158    94347    94529    94706    94900    95084    95145    94990 
   94667    94369    94269    94362    94527    94699    94887    95076 
   95204    95234    95164    94999    94797    94660    94636    94674 
   94729    94822    94980    95185    95357    95416    95369    95264 
   95148    95087    95126    95210    95272    95330    95400    95418 
   95314    95106    94898    94807    94867    94986    95060    95042 
   94929    94799    94734    94680    94563    94417    94302    94204 
   94104    94018    93950    93914    93951    94107    94350    94556 
   94628    94579    94506    94483    94552    94725    94972    95238 
   95453    95554    95542    95477    95408    95322    95208    95110 
   95080    95143    95270    95372    95385    95322    95208    95049 
   94830    94549    94251    94011    93889    93924    94097    94339 
   94574    94713    94682    94517    94324    94155    94022    93926 
   93916    94061    94331    94587    94738    94792    94787    94733 
   94632    94477    94284    94119    94058    94116    94246    94408 
   94581    94764    94967    95176    95327    95338    95191    94950 
   94693    94471    94348    94354    94435    94509    94563    94621 
   94699    94790    94856    94857    94774    94647    94543    94473 
   94417    94409    94505    94679    94838    94927    94940    94892 
   94807    94721    94679    94689    94713    94740    94806    94929 
   95057    95123    95116    95065    94984    94909    94884    94909 
   94944    94944    94879    94752    94597    94452    94358    94311 
   94270    94230    94228    94279    94359    94463    94603    94741 
   94849    94937    94983    94927    94775    94633    94620    94757 
   94988    95238    95413    95451    95366    95206    94972    94663 
   94352    94140    94068    94105    94190    94281    94350    94381 
   94389    94416    94470    94501    94454    94346    94242    94189 
   94217    94335    94504    94663    94770    94798    94733    94602 
   94471    94394    94362    94351    94365    94398    94423    94431 
   94425    94405    94400    94450    94555    94664    94725    94744 
   94757    94788    94853    94946    95033    95099    95177    95295 
   95423    95516    95551    95546    95542    95559    95581    95585 
   95563    95513    95469    95466    95481    95463    95377    95207 
   94995    94807    94659    94518    94373    94231    94127    94105 
   94161    94252    94339    94383    94393    94398    94400    94397 
   94408    94460    94593    94787    94956    95040    95054    95035 
   94975    94848    94663    94482    94369    94333    94348    94396 
   94454    94505    94539    94545    94527    94505    94497    94493 
   94483    94471    94467    94471    94463    94425    94346    94223 
   94069    93939    93912    94020    94246    94531    94794    94950 
   94971    94882    94745    94629    94575    94599    94689    94811 
   94910    94926    94859    94767    94711    94703    94737    94810 
   94903    94996    95062    95080    95052    95003    94972    94979 
   94995    94981    94918    94815    94689    94539    94378    94246 
   94189    94216    94286    94359    94436    94528    94626    94713 
   94771    94775    94730    94671    94624    94599    94606    94651 
   94726    94838    94987    95125    95175    95107    94956    94791 
   94662    94558    94441    94301    94184    94150    94225    94365 
   94498    94593    94620    94547    94392    94246    94194    94251 
   94383    94544    94701    94842    94960    95025    95008    94914 
   94790    94697    94662    94683    94743    94813    94872    94926 
   94992    95067    95106    95073    94976    94855    94757    94722 
   94744    94787    94818    94842    94855    94815    94714    94583 
   94455    94359    94336    94383    94462    94545    94622    94686 
   94722    94707    94639    94558    94505    94498    94543    94625 
   94732    94861    95026    95215    95373    95435    95384    95250 
   95077    94896    94744    94666    94671    94726    94786    94819 
   94810    94764    94705    94640    94560    94485    94456    94483 
   94567    94695    94830    94956    95072    95160    95210    95250 
   95300    95345    95368    95372    95350    95304    95260    95233 
   95214    95188    95148    95079    94981    94869    94759    94655 
   94556    94443    94298    94134    93987    93870    93769    93676 
   93606    93580    93609    93702    93853    94041    94225    94356 
   94400    94369    94309    94273    94294    94410    94635    94918 
   95153    95269    95260    95158    95025    94925    94888    94891 
   94915    94963    95021    95057    95050    95011    94949    94867 
   94775    94694    94630    94582    94549    94525    94482    94409 
   94336    94294    94300    94348    94424    94506    94587    94655 
   94701    94709    94680    94640    94618    94626    94676    94760 
   94838    94883    94884    94826    94709    94563    94428    94336 
   94289    94271    94269    94275    94302    94370    94477    94589 
   94663    94670    94608    94517    94441    94417    94487    94674 
   94954    95251    95469    95550    95497    95339    95133    94946 
   94830    94815    94926    95137    95365    95534    95605    95589 
   95512    95381    95196    94979    94770    94605    94473    94366 
   94308    94313    94370    94451    94518    94554    94540    94485 
   94409    94316    94234    94197    94205    94259    94389    94610 
   94894    95170    95354    95412    95372    95274    95164    95091 
   95089    95146    95229    95314    95397    95462    95469    95377 
   95173    94887    94572    94279    94061    93951    93960    94078 
   94277    94482    94608    94598    94474    94328    94227    94177 
   94158    94176    94262    94424    94590    94684    94697    94663 
   94618    94582    94551    94514    94458    94362    94212    94031 
   93879    93793    93783    93826    93887    93953    94036    94103 
   94093    93997    93869    93776    93758    93815    93920    94041 
   94151    94240    94309    94339    94308    94234    94166    94159 
   94263    94478    94748    94999    95158    95184    95102    94965 
   94822    94724    94709    94790    94915    95011    95042    95021 
   94967    94882    94770    94662    94597    94589    94633    94725 
   94848    94963    95037    95054    94998    94860    94686    94537 
   94475    94525    94667    94842    94996    95092    95118    95087 
   95011    94905    94801    94738    94752    94838    94956    95067 
   95158    95230    95266    95261    95235    95210    95180    95130 
   95057    94960    94856    94791    94795    94845    94909    94971 
   95029    95079    95126    95172    95207    95211    95189    95148 
   95085    95031    95014    95037    95077    95121    95148    95138 
   95077    94980    94899    94865    94860    94856    94856    94890 
   94961    95042    95080    95006    94802    94527    94266    94088 
   94009    94011    94065    94170    94321    94493    94644    94721 
   94703    94628    94555    94506    94474    94450    94432    94435 
   94475    94539    94603    94647    94659    94649    94620    94570 
   94505    94437    94382    94342    94296    94232    94153    94070 
   94007    93989    94011    94046    94090    94161    94262    94369 
   94431    94435    94424    94468    94590    94743    94857    94915 
   94940    94945    94952    94980    95015    95041    95045    95031 
   95014    94992    94967    94942    94918    94891    94846    94778 
   94689    94597    94528    94495    94493    94502    94506    94506 
   94512    94514    94475    94371    94224    94092    94024    94027 
   94086    94192    94324    94464    94614    94782    94954    95110 
   95231    95330    95424    95539    95690    95874    96071    96257 
   96407    96493    96473    96323    96103    95905    95774    95716 
   95709    95716    95686    95571    95358    95079    94787    94529 
   94331    94203    94144    94142    94171    94197    94198    94173 
   94122    94061    94019    94014    94065    94208    94448    94747 
   95045    95307    95519    95686    95835    95974    96079    96126 
   96106    96032    95928    95800    95639    95431    95180    94905 
   94620    94325    94012    93671    93294    92880    92469    92124 
   91862    91667    91524    91424    91354    91295    91241    91199 
   91184    91208    91289    91459    91732    92079    92472    92902 
   93370    93856    94351    94841    95295    95700    96057    96383 
   96705    97042    97375    97692    97965    98158    98270    98309 
   98292    98239    98162    98062    97931    97761    97537    97247 
   96908    96558    96214    95872    95523    95156    94810    94537 
   94367    94316    94362    94455    94566    94697    94852    95022 
   95184    95323    95469    95651    95882    96141    96379    96561 
   96691    96784    96844    96878    96890    96889    96888    96884 
   96857    96785    96654    96458    96205    95909    95580    95216 
   94813    94377    93927    93484    93047    92604    92159    91723 
   91300    90890    90499    90157    89884    89703    89641    89714 
   89908    90207    90589    91004    91396    91750    92074    92389 
   92727    93096    93515    94007    94563    95127    95620    96010 
   96311    96534    96674    96738    96757    96773    96804    96858 
   96927    96943    96835    96592    96234    95783    95289    94810 
   94374    93978    93626    93332    93093    92894    92734    92604 
   92485    92376    92284    92211    92155    92111    92080    92086 
   92161    92323    92576    92904    93266    93631    93982    94292 
   94541    94721    94838    94926    95011    95106    95214    95331 
   95457    95598    95746    95874    95971    96021    96013    95955 
   95858    95747    95644    95557    95463    95355    95234    95107 
   94981    94859    94736    94613    94500    94427    94402    94413 
   94432    94444    94446    94432    94431    94486    94616    94813 
   95067    95369    95715    96091    96469    96827    97156    97451 
   97698    97900    98065    98177    98232    98231    98165    98024 
   97819    97572    97314    97058    96809    96565    96313    96066 
   95845    95648    95457    95247    94990    94670    94309    93933 
   93561    93213    92885    92573    92286    92037    91843    91701 
   91602    91519    91439    91380    91357    91389    91501    91686 
   91912    92142    92353    92516    92612    92635    92605    92573 
   92603    92732    92959    93263    93614    93976    94320    94621 
   94849    94990    95068    95108    95126    95126    95102    95048 
   94975    94896    94818    94734    94630    94505    94381    94279 
   94207    94166    94163    94186    94221    94267    94317    94354 
   94373    94387    94427    94510    94632    94775    94927    95077 
   95210    95305    95354    95359    95335    95303    95269    95234 
   95204    95203    95241    95314    95408    95504    95584    95623 
   95621    95605    95593    95570    95527    95486    95488    95546 
   95648    95771    95874    95916    95872    95751    95570    95365 
   95165    94995    94865    94788    94778    94841    94961    95122 
   95316    95532    95746    95913    96013    96061    96067    96040 
   95998    95956    95916    95877    95836    95802    95797    95823 
   95866    95916    95966    96014    96053    96068    96037    95949 
   95810    95639    95457    95284    95138    95025    94944    94900 
   94891    94888    94856    94783    94682    94560    94428    94316 
   94252    94234    94232    94227    94208    94162    94084    93999 
   93935    93893    93846    93785    93715    93634    93545    93461 
   93407    93407    93465    93559    93661    93741    93779    93773 
   93746    93711    93673    93642    93631    93661    93749    93883 
   94028    94158    94274    94392    94502    94587    94640    94668 
   94687    94706    94717    94714    94695    94671    94653    94657 
   94687    94732    94778    94821    94872    94933    95008    95095 
   95166    95207    95215    95206    95195    95176    95138    95099 
   95065    95038    95037    95056    95071    95073    95050    94984 
   94869    94703    94494    94267    94047    93842    93660    93507 
   93383    93299    93267    93280    93329    93410    93517    93627 
   93733    93835    93941    94041    94128    94213    94315    94435 
   94560    94684    94810    94938    95069    95202    95327    95436 
   95534    95627    95702    95752    95783    95786    95746    95661 
   95538    95388    95233    95084    94938    94787    94614    94417 
   94209    94005    93818    93665    93553    93484    93451    93467 
   93534    93631    93737    93845    93973    94158    94414    94720 
   95054    95405    95747    96056    96323    96543    96734    96919 
   97097    97255    97390    97490    97546    97561    97533    97463 
   97362    97233    97087    96932    96768    96592    96394    96138 
   95820    95451    95045    94613    94182    93773    93402    93081 
   92819    92608    92430    92288    92202    92198    92288    92464 
   92691    92931    93164    93386    93599    93803    93989    94166 
   94354    94575    94840    95134    95426    95681    95879    96009 
   96075    96090    96068    96014    95918    95781    95605    95395 
   95154    94894    94632    94397    94196    94022    93865    93708 
   93553    93425    93333    93259    93178    93083    92982    92892 
   92824    92788    92785    92812    92861    92938    93050    93189 
   93345    93521    93704    93872    94012    94134    94239    94305 
   94325    94323    94316    94319    94354    94425    94528    94648 
   94761    94851    94910    94934    94929    94914    94909    94921 
   94946    94972    94973    94936    94849    94743    94652    94590 
   94547    94527    94535    94563    94595    94636    94678    94706 
   94720    94716    94686    94648    94612    94578    94548    94517 
   94481    94441    94398    94354    94313    94286    94279    94281 
   94282    94275    94258    94244    94252    94288    94347    94432 
   94539    94666    94803    94933    95046    95148    95234    95296 
   95332    95351    95359    95364    95361    95338    95278    95191 
   95110    95067    95068    95102    95166    95256    95353    95457 
   95558    95643    95702    95742    95775    95802    95821    95827 
   95820    95802    95781    95763    95760    95770    95787    95813 
   95847    95879    95893    95889    95872    95843    95793    95728 
   95656    95570    95459    95328    95181    95023    94869    94730 
   94612    94522    94460    94410    94359    94305    94246    94185 
   94132    94089    94046    94003    93958    93914    93868    93820 
   93781    93776    93804    93858    93928    93997    94043    94053 
