Origin Time       2025/06/03 22:18:00
Lat.              41.7
Long.             143.6
Depth. (km)       30
Mag.              5.2
Station Code      HDKH05
Station Lat.      42.5977
Station Long.     142.5446
Station Height(m) 205
Record Time       2025/06/03 22:19:04
Sampling Freq(Hz) 100Hz
Duration Time(s)  120
Dir.              3
Scale Factor      3920(gal)/6170801
Max. Acc. (gal)   0.320
Last Correction   2025/06/03 22:18:48
Memo.             
[...]
   12264    12247    12232    12214    12198    12192    12198    12210 
   12220    12232    12251    12275    12293    12302    12314    12332 
   12350    12367    12379    12389    12394    12391    12387    12381 
   12375    12374    12377    12376    12368    12358    12350    12343 
   12331    12314    12293    12274    12259    12246    12238    12230 
   12215    12199    12188    12182    12189    12201    12206    12215 
   12232    12250    12274    12294    12303    12312    12319    12322 
   12324    12326    12332    12348    12367    12379    12385    12392 
   12398    12395    12377    12357    12341    12320    12289    12259 
   12244    12236    12230    12227    12222    12218    12222    12229 
   12237    12250    12266    12278    12276    12268    12263    12262 
   12265    12278    12295    12309    12323    12337    12352    12367 
   12384    12397    12402    12402    12400    12393    12383    12370 
   12359    12352    12346    12344    12346    12347    12346    12347 
   12355    12369    12382    12389    12389    12385    12377    12366 
   12351    12331    12310    12291    12275    12264    12263    12268 
   12273    12276    12274    12274    12279    12288    12299    12313 
   12332    12350    12372    12398    12411    12408    12396    12382 
   12367    12347    12316    12286    12264    12251    12247    12249 
   12251    12247    12250    12262    12272    12282    12304    12332 
   12354    12367    12375    12383    12384    12376    12369    12363 
   12362    12365    12368    12373    12379    12381    12376    12366 
   12358    12357    12359    12362    12370    12377    12372    12356 
   12335    12310    12290    12272    12247    12212    12176    12146 
   12129    12122    12113    12102    12101    12110    12130    12151 
   12161    12167    12177    12188    12204    12221    12235    12248 
   12271    12303    12330    12346    12358    12365    12364    12359 
   12360    12367    12372    12377    12381    12377    12373    12371 
   12373    12376    12376    12367    12354    12351    12356    12362 
   12360    12347    12331    12319    12313    12310    12311    12312 
   12311    12305    12297    12296    12301    12307    12311    12311 
   12315    12331    12352    12365    12366    12360    12350    12340 
   12333    12322    12315    12316    12319    12319    12321    12325 
   12337    12348    12353    12351    12350    12351    12350    12342 
   12326    12307    12288    12276    12267    12258    12249    12241 
   12232    12227    12230    12236    12242    12247    12251    12255 
   12257    12257    12259    12266    12284    12305    12320    12328 
   12327    12316    12311    12321    12335    12339    12333    12320 
   12303    12290    12278    12264    12255    12256    12262    12273 
   12282    12286    12298    12316    12328    12336    12344    12350 
   12356    12363    12369    12375    12378    12381    12383    12379 
   12372    12366    12365    12369    12374    12367    12352    12338 
   12324    12307    12291    12274    12253    12234    12224    12224 
   12222    12217    12212    12216    12231    12245    12249    12249 
   12249    12250    12253    12258    12266    12278    12287    12296 
   12300    12302    12306    12309    12315    12328    12344    12353 
   12356    12348    12336    12336    12342    12341    12336    12328 
   12320    12312    12300    12298    12306    12316    12333    12354 
   12365    12364    12360    12358    12358    12359    12358    12356 
   12349    12342    12335    12326    12311    12290    12273    12268 
   12276    12289    12298    12302    12302    12303    12304    12303 
   12311    12324    12332    12337    12348    12357    12355    12348 
   12348    12346    12348    12350    12343    12334    12328    12322 
   12315    12308    12302    12305    12315    12325    12331    12330 
   12323    12314    12310    12309    12308    12304    12305    12316 
   12332    12349    12366    12372    12364    12359    12358    12354 
   12352    12347    12343    12343    12335    12319    12305    12297 
   12296    12293    12284    12276    12267    12262    12266    12273 
   12274    12268    12255    12243    12237    12232    12229    12227 
   12223    12221    12225    12232    12236    12233    12231    12240 
   12259    12280    12299    12309    12312    12314    12316    12312 
   12311    12315    12317    12317    12318    12316    12316    12315 
   12308    12293    12277    12273    12276    12283    12293    12304 
   12315    12320    12322    12329    12334    12333    12329    12328 
   12333    12337    12336    12336    12341    12346    12346    12343 
   12342    12341    12338    12331    12323    12317    12312    12314 
   12319    12323    12329    12335    12343    12348    12347    12345 
   12342    12338    12336    12338    12345    12354    12360    12364 
   12361    12345    12324    12297    12267    12246    12237    12236 
   12242    12256    12275    12291    12304    12316    12323    12327 
   12329    12329    12326    12321    12316    12321    12336    12343 
   12349    12357    12360    12359    12355    12352    12350    12347 
   12348    12351    12353    12361    12372    12373    12363    12344 
   12326    12316    12304    12282    12258    12238    12219    12201 
   12192    12192    12193    12196    12198    12199    12207    12221 
   12237    12250    12256    12264    12279    12294    12306    12315 
   12322    12330    12338    12343    12340    12334    12338    12356 
   12375    12379    12375    12372    12368    12365    12363    12363 
   12362    12352    12339    12335    12343    12347    12338    12329 
   12326    12327    12332    12331    12325    12325    12329    12334 
   12344    12351    12347    12338    12331    12320    12306    12293 
   12278    12266    12256    12241    12232    12232    12233    12234 
   12233    12222    12205    12196    12196    12195    12193    12198 
   12210    12227    12249    12272    12292    12308    12316    12318 
   12318    12318    12315    12312    12309    12306    12304    12307 
   12312    12314    12312    12313    12317    12319    12317    12314 
   12309    12309    12316    12325    12333    12340    12343    12339 
   12335    12333    12324    12310    12300    12296    12294    12295 
   12295    12293    12292    12293    12301    12316    12334    12353 
   12367    12379    12396    12410    12412    12408    12402    12401 
   12402    12395    12386    12379    12373    12365    12355    12343 
   12334    12324    12307    12283    12260    12231    12196    12174 
   12168    12171    12179    12190    12208    12233    12256    12277 
   12298    12318    12331    12336    12338    12336    12329    12323 
   12316    12306    12299    12288    12273    12259    12249    12251 
   12256    12252    12241    12231    12222    12215    12209    12208 
   12214    12227    12243    12259    12273    12281    12287    12297 
   12308    12319    12335    12356    12385    12419    12447    12470 
   12494    12517    12532    12533    12521    12504    12487    12469 
   12454    12437    12418    12406    12396    12379    12361    12341 
   12321    12305    12287    12271    12260    12249    12236    12226 
   12223    12226    12225    12220    12219    12229    12246    12263 
   12280    12297    12315    12327    12329    12329    12326    12321 
   12319    12315    12306    12292    12276    12263    12251    12232 
   12210    12195    12185    12178    12173    12165    12158    12154 
   12155    12158    12161    12162    12156    12147    12140    12137 
   12144    12162    12187    12215    12239    12250    12254    12258 
   12261    12263    12265    12268    12276    12286    12296    12305 
   12312    12319    12326    12332    12339    12341    12334    12328 
   12332    12336    12331    12322    12316    12318    12324    12324 
   12323    12332    12349    12364    12373    12384    12400    12413 
   12419    12418    12413    12413    12414    12408    12399    12390 
   12375    12354    12331    12311    12295    12281    12267    12264 
   12269    12276    12288    12299    12312    12333    12355    12367 
   12378    12394    12407    12421    12442    12467    12494    12519 
   12542    12562    12576    12586    12594    12599    12596    12592 
   12593    12597    12598    12595    12581    12553    12525    12498 
   12472    12455    12442    12422    12400    12384    12372    12353 
   12325    12291    12258    12235    12219    12200    12178    12156 
   12135    12125    12125    12124    12114    12096    12083    12081 
   12077    12071    12067    12063    12065    12074    12084    12098 
   12117    12138    12162    12193    12230    12266    12293    12311 
   12324    12329    12329    12334    12340    12343    12350    12364 
   12375    12384    12389    12385    12373    12362    12360    12361 
   12360    12369    12385    12396    12402    12402    12394    12386 
   12381    12369    12349    12323    12301    12288    12284    12289 
   12303    12319    12332    12340    12339    12335    12337    12346 
   12350    12348    12350    12360    12372    12378    12379    12371 
   12361    12357    12357    12359    12367    12386    12411    12433 
   12455    12481    12500    12506    12505    12495    12471    12432 
   12383    12330    12285    12248    12220    12195    12170    12155 
   12156    12162    12165    12160    12155    12150    12141    12135 
   12133    12131    12132    12139    12156    12177    12188    12189 
   12191    12191    12190    12189    12187    12194    12216    12244 
   12269    12283    12286    12293    12302    12301    12292    12282 
   12269    12260    12255    12248    12249    12258    12258    12252 
   12245    12234    12222    12202    12169    12137    12119    12115 
   12120    12124    12126    12131    12148    12166    12177    12188 
   12194    12199    12204    12198    12189    12185    12190    12201 
   12216    12233    12255    12269    12273    12282    12292    12301 
   12319    12347    12382    12420    12461    12502    12533    12551 
   12561    12560    12553    12547    12544    12536    12523    12512 
   12501    12485    12472    12463    12443    12414    12387    12369 
   12364    12366    12374    12391    12410    12423    12431    12433 
   12430    12428    12430    12432    12438    12450    12466    12483 
   12504    12528    12547    12550    12539    12518    12486    12450 
   12412    12376    12351    12339    12338    12342    12350    12362 
   12373    12382    12389    12392    12390    12384    12378    12371 
   12363    12359    12358    12355    12348    12339    12324    12305 
   12288    12276    12274    12291    12320    12352    12393    12436 
   12468    12492    12510    12514    12507    12493    12468    12435 
   12398    12355    12320    12296    12271    12248    12224    12192 
   12154    12118    12096    12093    12099    12110    12123    12133 
   12145    12156    12160    12165    12176    12189    12203    12218 
   12238    12259    12271    12267    12254    12243    12234    12224 
   12215    12202    12193    12190    12181    12168    12164    12166 
   12171    12179    12187    12200    12214    12215    12204    12190 
   12185    12187    12193    12208    12234    12265    12294    12311 
   12315    12307    12292    12274    12251    12226    12208    12202 
   12203    12196    12183    12180    12189    12198    12201    12202 
   12197    12182    12160    12138    12122    12111    12106    12104 
   12106    12106    12107    12117    12134    12152    12169    12188 
   12214    12251    12298    12347    12394    12434    12466    12492 
   12510    12521    12523    12521    12521    12510    12495    12483 
   12469    12455    12439    12422    12409    12393    12373    12356 
   12341    12332    12329    12327    12328    12332    12340    12354 
   12379    12413    12452    12488    12522    12557    12589    12615 
   12637    12648    12647    12629    12591    12540    12484    12432 
   12391    12354    12317    12284    12250    12210    12166    12127 
   12094    12060    12026    11993    11966    11948    11936    11930 
   11938    11955    11978    12007    12038    12069    12106    12150 
   12192    12229    12264    12300    12331    12350    12357    12354 
   12351    12347    12334    12312    12290    12267    12249    12237 
   12223    12213    12208    12207    12209    12212    12213    12215 
   12225    12239    12254    12269    12291    12319    12348    12379 
   12413    12447    12474    12490    12498    12505    12510    12515 
   12529    12548    12565    12579    12588    12585    12577    12565 
   12551    12539    12532    12529    12531    12541    12566    12594 
   12617    12638    12657    12668    12675    12679    12685    12694 
   12707    12718    12721    12717    12708    12690    12664    12628 
   12579    12520    12459    12402    12355    12314    12278    12243 
   12208    12168    12122    12074    12027    11985    11956    11937 
   11928    11933    11946    11958    11967    11973    11974    11977 
   11994    12017    12039    12064    12096    12129    12164    12195 
   12209    12206    12194    12179    12161    12141    12115    12081 
   12042    12003    11966    11935    11911    11890    11865    11838 
   11817    11806    11807    11820    11845    11878    11920    11969 
   12013    12054    12097    12142    12186    12229    12272    12311 
   12359    12417    12469    12513    12549    12572    12589    12608 
   12624    12639    12658    12676    12689    12697    12700    12695 
   12680    12663    12654    12654    12650    12637    12620    12608 
   12608    12614    12620    12628    12634    12635    12634    12639 
   12652    12667    12681    12695    12701    12692    12674    12650 
   12624    12599    12576    12555    12534    12503    12461    12411 
   12364    12320    12270    12214    12159    12112    12077    12049 
   12026    12010    12004    12009    12015    12014    12009    12007 
   12012    12021    12028    12039    12054    12073    12098    12129 
   12158    12181    12201    12222    12243    12263    12285    12300 
   12304    12300    12292    12275    12246    12220    12200    12181 
   12171    12168    12162    12157    12158    12157    12152    12152 
   12157    12164    12175    12188    12199    12210    12221    12232 
   12247    12262    12272    12282    12295    12309    12316    12322 
   12334    12352    12372    12389    12405    12420    12436    12451 
   12462    12466    12464    12458    12449    12438    12424    12403 
   12379    12365    12363    12361    12356    12353    12350    12339 
   12322    12305    12284    12265    12252    12243    12246    12256 
   12261    12270    12283    12289    12295    12300    12296    12292 
   12288    12280    12274    12270    12263    12254    12246    12239 
   12230    12224    12218    12212    12214    12221    12227    12235 
   12241    12246    12255    12262    12263    12262    12263    12269 
   12275    12279    12293    12317    12348    12383    12413    12436 
   12457    12476    12489    12505    12522    12532    12535    12535 
   12534    12535    12534    12525    12508    12487    12470    12457 
   12452    12454    12457    12465    12472    12465    12452    12444 
   12440    12437    12436    12432    12428    12429    12427    12412 
   12389    12362    12334    12314    12295    12278    12264    12254 
   12248    12245    12238    12229    12215    12197    12179    12162 
   12146    12133    12123    12114    12104    12096    12086    12073 
   12066    12059    12049    12046    12050    12054    12062    12078 
   12098    12117    12136    12150    12159    12170    12184    12198 
   12211    12222    12236    12253    12272    12291    12314    12341 
   12365    12393    12423    12444    12459    12470    12480    12492 
   12504    12509    12512    12516    12518    12517    12516    12507 
   12492    12479    12471    12460    12447    12432    12424    12424 
   12423    12411    12392    12367    12339    12315    12296    12279 
   12265    12254    12248    12248    12255    12268    12283    12291 
   12299    12314    12326    12331    12326    12319    12321    12323 
   12318    12310    12299    12281    12261    12240    12217    12196 
   12178    12170    12175    12182    12195    12214    12232    12246 
   12255    12260    12261    12257    12251    12245    12241    12236 
   12234    12238    12248    12259    12273    12291    12310    12322 
   12323    12320    12317    12308    12291    12274    12263    12254 
   12242    12232    12223    12215    12215    12217    12218    12219 
   12221    12231    12246    12262    12283    12305    12330    12357 
   12382    12406    12424    12434    12452    12474    12489    12498 
   12499    12492    12483    12474    12469    12469    12469    12465 
   12456    12437    12410    12384    12359    12328    12291    12256 
   12226    12207    12195    12183    12168    12158    12155    12158 
   12164    12169    12172    12175    12180    12184    12189    12193 
   12196    12201    12208    12207    12199    12194    12192    12196 
   12197    12192    12193    12201    12214    12228    12243    12269 
   12304    12338    12368    12396    12421    12448    12477    12502 
   12522    12543    12564    12576    12586    12596    12600    12598 
   12589    12574    12555    12536    12520    12506    12489    12468 
   12448    12429    12411    12396    12386    12377    12367    12355 
   12340    12323    12303    12284    12268    12254    12240    12229 
   12222    12221    12220    12219    12227    12240    12254    12262 
   12270    12283    12293    12302    12313    12320    12316    12302 
   12284    12266    12249    12232    12220    12219    12227    12233 
   12235    12234    12225    12214    12203    12189    12174    12162 
   12150    12140    12134    12132    12132    12131    12127    12123 
   12123    12129    12142    12161    12185    12211    12237    12263 
   12298    12338    12377    12411    12442    12477    12514    12545 
   12574    12602    12623    12643    12659    12661    12654    12636 
   12612    12586    12561    12539    12516    12492    12472    12456 
   12437    12416    12399    12385    12364    12344    12335    12326 
   12314    12303    12293    12281    12267    12250    12230    12210 
   12193    12180    12174    12173    12173    12178    12182    12183 
   12184    12181    12171    12161    12156    12154    12155    12153 
   12146    12140    12134    12129    12129    12137    12148    12156 
   12168    12182    12202    12226    12245    12262    12279    12292 
   12307    12328    12348    12364    12379    12395    12408    12418 
   12428    12428    12423    12419    12419    12418    12417    12416 
   12411    12400    12384    12359    12333    12316    12301    12284 
   12268    12255    12250    12247    12247    12253    12268    12291 
   12317    12344    12370    12388    12401    12406    12405    12403 
   12399    12391    12378    12361    12342    12325    12308    12289 
