Origin Time       2025/06/03 22:18:00
Lat.              41.7
Long.             143.6
Depth. (km)       30
Mag.              5.2
Station Code      IBUH02
Station Lat.      42.8714
Station Long.     142.1285
Station Height(m) 175
Record Time       2025/06/03 22:19:19
Sampling Freq(Hz) 100Hz
Duration Time(s)  120
Dir.              6
Scale Factor      7845(gal)/8223790
Max. Acc. (gal)   0.260
Last Correction   2025/06/03 22:19:19
Memo.             
[...]
  -17604   -17595   -17582   -17564   -17544   -17533   -17520   -17493 
  -17478   -17479   -17474   -17458   -17443   -17443   -17444   -17442 
  -17452   -17459   -17466   -17487   -17497   -17494   -17494   -17491 
  -17498   -17490   -17473   -17470   -17455   -17436   -17427   -17417 
  -17427   -17446   -17467   -17482   -17479   -17485   -17500   -17506 
  -17504   -17491   -17491   -17502   -17502   -17496   -17487   -17498 
  -17527   -17541   -17555   -17571   -17583   -17602   -17612   -17601 
  -17594   -17598   -17618   -17637   -17647   -17663   -17685   -17703 
  -17717   -17718   -17716   -17724   -17741   -17749   -17741   -17736 
  -17726   -17701   -17672   -17649   -17631   -17614   -17598   -17575 
  -17558   -17556   -17560   -17566   -17570   -17571   -17567   -17558 
  -17550   -17528   -17487   -17466   -17462   -17459   -17458   -17462 
  -17470   -17478   -17482   -17490   -17505   -17529   -17547   -17558 
  -17560   -17554   -17544   -17537   -17514   -17486   -17482   -17486 
  -17485   -17486   -17485   -17485   -17496   -17504   -17510   -17513 
  -17509   -17517   -17535   -17532   -17517   -17514   -17510   -17500 
  -17485   -17473   -17473   -17485   -17498   -17504   -17509   -17532 
  -17554   -17567   -17582   -17597   -17610   -17620   -17613   -17591 
  -17572   -17566   -17558   -17545   -17539   -17540   -17541   -17545 
  -17540   -17525   -17525   -17531   -17528   -17533   -17540   -17547 
  -17555   -17552   -17547   -17541   -17545   -17551   -17543   -17533 
  -17525   -17520   -17523   -17524   -17528   -17533   -17544   -17559 
  -17560   -17558   -17559   -17566   -17572   -17572   -17556   -17543 
  -17545   -17541   -17525   -17513   -17510   -17514   -17516   -17518 
  -17527   -17529   -17535   -17544   -17543   -17541   -17547   -17554 
  -17550   -17527   -17513   -17509   -17493   -17487   -17483   -17470 
  -17473   -17478   -17473   -17469   -17469   -17482   -17498   -17497 
  -17493   -17487   -17487   -17505   -17510   -17505   -17517   -17535 
  -17544   -17544   -17537   -17537   -17544   -17547   -17543   -17539 
  -17539   -17540   -17551   -17560   -17564   -17578   -17589   -17589 
  -17577   -17559   -17559   -17562   -17559   -17560   -17562   -17570 
  -17586   -17602   -17616   -17622   -17640   -17659   -17655   -17640 
  -17633   -17626   -17610   -17595   -17586   -17587   -17594   -17598 
  -17601   -17594   -17591   -17591   -17581   -17575   -17566   -17554 
  -17559   -17564   -17556   -17540   -17535   -17539   -17529   -17524 
  -17525   -17512   -17508   -17509   -17494   -17481   -17482   -17491 
  -17490   -17482   -17482   -17489   -17494   -17493   -17489   -17489 
  -17496   -17505   -17500   -17489   -17501   -17512   -17516   -17513 
  -17493   -17477   -17474   -17474   -17469   -17454   -17451   -17466 
  -17471   -17463   -17459   -17462   -17479   -17506   -17524   -17540 
  -17556   -17562   -17562   -17562   -17566   -17575   -17582   -17583 
  -17575   -17568   -17579   -17589   -17593   -17590   -17589   -17599 
  -17605   -17593   -17581   -17572   -17570   -17570   -17566   -17562 
  -17566   -17572   -17575   -17578   -17585   -17590   -17606   -17616 
  -17612   -17608   -17604   -17606   -17609   -17604   -17605   -17612 
  -17608   -17602   -17597   -17587   -17587   -17594   -17599   -17599 
  -17594   -17602   -17602   -17574   -17558   -17564   -17564   -17564 
  -17562   -17543   -17523   -17514   -17504   -17487   -17475   -17477 
  -17481   -17482   -17479   -17471   -17477   -17493   -17489   -17479 
  -17475   -17474   -17483   -17490   -17494   -17504   -17509   -17514 
  -17518   -17516   -17512   -17518   -17533   -17535   -17527   -17535 
  -17543   -17541   -17547   -17547   -17544   -17547   -17544   -17535 
  -17521   -17514   -17513   -17509   -17510   -17514   -17527   -17551 
  -17562   -17560   -17560   -17555   -17560   -17566   -17560   -17555 
  -17548   -17552   -17555   -17532   -17523   -17539   -17552   -17564 
  -17577   -17591   -17594   -17587   -17585   -17574   -17571   -17579 
  -17572   -17571   -17568   -17556   -17556   -17554   -17541   -17535 
  -17533   -17537   -17536   -17520   -17508   -17508   -17514   -17520 
  -17517   -17524   -17529   -17529   -17528   -17516   -17508   -17509 
  -17513   -17518   -17509   -17508   -17523   -17528   -17525   -17514 
  -17508   -17513   -17514   -17518   -17528   -17535   -17550   -17564 
  -17562   -17556   -17559   -17563   -17567   -17564   -17559   -17559 
  -17556   -17554   -17552   -17548   -17545   -17540   -17535   -17520 
  -17497   -17494   -17498   -17489   -17478   -17482   -17497   -17512 
  -17523   -17532   -17536   -17547   -17559   -17556   -17545   -17541 
  -17548   -17550   -17544   -17540   -17540   -17550   -17559   -17556 
  -17547   -17540   -17547   -17559   -17566   -17575   -17598   -17620 
  -17622   -17606   -17586   -17570   -17560   -17550   -17532   -17523 
  -17529   -17532   -17529   -17529   -17536   -17548   -17558   -17560 
  -17556   -17562   -17577   -17585   -17587   -17582   -17577   -17582 
  -17581   -17575   -17570   -17563   -17571   -17579   -17578   -17582 
  -17585   -17587   -17597   -17589   -17572   -17559   -17547   -17550 
  -17540   -17521   -17529   -17536   -17537   -17539   -17535   -17541 
  -17551   -17559   -17560   -17552   -17555   -17558   -17554   -17554 
  -17556   -17568   -17572   -17568   -17567   -17564   -17567   -17571 
  -17564   -17560   -17552   -17540   -17533   -17518   -17510   -17521 
  -17531   -17544   -17551   -17544   -17544   -17547   -17548   -17541 
  -17525   -17524   -17525   -17523   -17521   -17514   -17520   -17539 
  -17536   -17525   -17517   -17510   -17510   -17502   -17490   -17481 
  -17474   -17482   -17493   -17498   -17505   -17512   -17516   -17513 
  -17504   -17490   -17481   -17483   -17481   -17479   -17496   -17506 
  -17512   -17521   -17532   -17545   -17566   -17583   -17570   -17544 
  -17544   -17543   -17532   -17529   -17523   -17525   -17536   -17531 
  -17527   -17525   -17523   -17524   -17516   -17506   -17501   -17494 
  -17500   -17498   -17481   -17477   -17483   -17482   -17477   -17473 
  -17487   -17500   -17510   -17514   -17506   -17525   -17554   -17559 
  -17567   -17581   -17597   -17610   -17613   -17617   -17609   -17601 
  -17602   -17585   -17574   -17579   -17589   -17606   -17610   -17606 
  -17599   -17583   -17578   -17564   -17533   -17524   -17517   -17504 
  -17489   -17474   -17481   -17491   -17497   -17510   -17520   -17533 
  -17541   -17536   -17536   -17529   -17520   -17516   -17498   -17477 
  -17459   -17446   -17448   -17463   -17477   -17481   -17485   -17500 
  -17509   -17513   -17516   -17513   -17514   -17521   -17517   -17509 
  -17505   -17510   -17513   -17506   -17509   -17520   -17527   -17525 
  -17517   -17520   -17532   -17544   -17559   -17560   -17560   -17577 
  -17583   -17577   -17572   -17567   -17567   -17567   -17559   -17562 
  -17572   -17587   -17609   -17626   -17644   -17666   -17682   -17682 
  -17671   -17653   -17637   -17636   -17625   -17605   -17601   -17609 
  -17616   -17616   -17610   -17605   -17593   -17585   -17575   -17554 
  -17545   -17552   -17556   -17556   -17555   -17564   -17585   -17597 
  -17595   -17589   -17577   -17559   -17540   -17520   -17500   -17485 
  -17487   -17487   -17481   -17487   -17497   -17505   -17514   -17512 
  -17512   -17514   -17520   -17527   -17509   -17496   -17497   -17494 
  -17489   -17479   -17483   -17496   -17505   -17523   -17533   -17543 
  -17558   -17568   -17578   -17586   -17591   -17601   -17608   -17606 
  -17604   -17606   -17610   -17604   -17589   -17578   -17572   -17572 
  -17572   -17559   -17548   -17554   -17560   -17564   -17570   -17578 
  -17591   -17599   -17595   -17593   -17586   -17581   -17589   -17590 
  -17587   -17601   -17609   -17614   -17624   -17625   -17631   -17628 
  -17626   -17624   -17602   -17587   -17575   -17560   -17552   -17543 
  -17544   -17548   -17541   -17527   -17508   -17504   -17501   -17486 
  -17477   -17475   -17491   -17500   -17500   -17516   -17520   -17523 
  -17535   -17528   -17521   -17516   -17510   -17514   -17506   -17500 
  -17504   -17500   -17500   -17491   -17467   -17460   -17462   -17460 
  -17462   -17462   -17470   -17474   -17473   -17479   -17489   -17497 
  -17512   -17521   -17524   -17521   -17514   -17513   -17512   -17502 
  -17501   -17505   -17509   -17504   -17489   -17485   -17491   -17500 
  -17508   -17506   -17508   -17513   -17513   -17513   -17509   -17510 
  -17520   -17523   -17529   -17527   -17535   -17556   -17556   -17560 
  -17562   -17548   -17552   -17544   -17527   -17529   -17525   -17529 
  -17547   -17555   -17566   -17570   -17568   -17579   -17572   -17567 
  -17570   -17564   -17566   -17559   -17555   -17583   -17604   -17617 
  -17639   -17653   -17670   -17686   -17690   -17685   -17680   -17686 
  -17699   -17697   -17679   -17667   -17663   -17655   -17636   -17612 
  -17599   -17590   -17574   -17548   -17521   -17510   -17512   -17514 
  -17517   -17523   -17531   -17536   -17544   -17541   -17527   -17524 
  -17518   -17505   -17493   -17481   -17477   -17478   -17478   -17482 
  -17483   -17474   -17466   -17464   -17462   -17455   -17450   -17452 
  -17463   -17477   -17491   -17509   -17523   -17528   -17524   -17520 
  -17525   -17524   -17509   -17506   -17517   -17524   -17524   -17518 
  -17514   -17512   -17512   -17506   -17483   -17469   -17473   -17467 
  -17454   -17448   -17456   -17474   -17491   -17500   -17504   -17513 
  -17529   -17539   -17539   -17547   -17558   -17562   -17567   -17556 
  -17540   -17541   -17533   -17510   -17502   -17501   -17508   -17525 
  -17536   -17537   -17543   -17555   -17562   -17556   -17550   -17544 
  -17541   -17541   -17544   -17544   -17544   -17566   -17590   -17595 
  -17590   -17589   -17595   -17597   -17583   -17570   -17559   -17544 
  -17540   -17535   -17518   -17520   -17536   -17547   -17545   -17539 
  -17550   -17566   -17572   -17574   -17571   -17577   -17587   -17579 
  -17563   -17559   -17568   -17578   -17581   -17582   -17589   -17598 
  -17599   -17591   -17582   -17571   -17567   -17560   -17547   -17537 
  -17527   -17520   -17518   -17514   -17512   -17517   -17529   -17539 
  -17535   -17529   -17527   -17521   -17518   -17510   -17508   -17524 
  -17537   -17550   -17558   -17570   -17593   -17609   -17613   -17618 
  -17620   -17618   -17620   -17612   -17593   -17574   -17574   -17575 
  -17564   -17554   -17551   -17558   -17562   -17552   -17548   -17555 
  -17564   -17566   -17551   -17539   -17536   -17535   -17532   -17524 
  -17514   -17516   -17513   -17508   -17502   -17497   -17501   -17504 
  -17500   -17501   -17493   -17491   -17500   -17487   -17474   -17470 
  -17471   -17483   -17486   -17487   -17497   -17508   -17518   -17524 
  -17527   -17544   -17562   -17572   -17581   -17587   -17599   -17609 
  -17614   -17613   -17602   -17591   -17581   -17570   -17558   -17543 
  -17531   -17524   -17517   -17504   -17491   -17491   -17494   -17487 
  -17483   -17485   -17491   -17498   -17496   -17493   -17494   -17494 
  -17493   -17485   -17482   -17489   -17501   -17517   -17527   -17533 
  -17537   -17537   -17545   -17548   -17539   -17539   -17554   -17567 
  -17568   -17567   -17570   -17568   -17571   -17572   -17566   -17563 
  -17563   -17567   -17567   -17559   -17570   -17586   -17586   -17587 
  -17597   -17620   -17643   -17647   -17652   -17660   -17663   -17676 
  -17680   -17674   -17679   -17686   -17683   -17671   -17649   -17637 
  -17632   -17622   -17609   -17594   -17589   -17595   -17602   -17599 
  -17587   -17577   -17574   -17566   -17550   -17527   -17502   -17479 
  -17452   -17427   -17404   -17394   -17396   -17389   -17379   -17374 
  -17375   -17385   -17385   -17383   -17392   -17402   -17409   -17408 
  -17408   -17417   -17425   -17442   -17460   -17469   -17478   -17486 
  -17489   -17494   -17501   -17513   -17532   -17548   -17547   -17540 
  -17540   -17529   -17521   -17520   -17513   -17505   -17498   -17498 
  -17493   -17479   -17491   -17512   -17510   -17518   -17528   -17536 
  -17541   -17536   -17531   -17527   -17525   -17529   -17523   -17527 
  -17539   -17541   -17552   -17560   -17563   -17579   -17593   -17609 
  -17633   -17641   -17649   -17663   -17666   -17656   -17648   -17651 
  -17656   -17655   -17647   -17644   -17658   -17664   -17659   -17660 
  -17653   -17637   -17631   -17610   -17582   -17570   -17559   -17544 
  -17521   -17494   -17479   -17478   -17473   -17454   -17431   -17424 
  -17424   -17419   -17409   -17397   -17394   -17409   -17415   -17413 
  -17419   -17419   -17421   -17431   -17435   -17442   -17451   -17463 
  -17477   -17466   -17456   -17464   -17470   -17475   -17477   -17486 
  -17501   -17501   -17512   -17523   -17529   -17558   -17583   -17598 
  -17605   -17602   -17618   -17633   -17628   -17637   -17648   -17652 
  -17651   -17640   -17637   -17636   -17637   -17656   -17656   -17645 
  -17651   -17659   -17660   -17655   -17659   -17675   -17686   -17697 
  -17698   -17693   -17697   -17693   -17679   -17658   -17641   -17647 
  -17652   -17652   -17656   -17656   -17663   -17679   -17683   -17680 
  -17686   -17693   -17695   -17680   -17660   -17652   -17644   -17629 
  -17606   -17579   -17562   -17541   -17517   -17494   -17460   -17432 
  -17417   -17396   -17362   -17334   -17315   -17297   -17281   -17274 
  -17270   -17269   -17271   -17273   -17280   -17292   -17316   -17350 
  -17369   -17388   -17423   -17456   -17486   -17501   -17505   -17517 
  -17525   -17524   -17516   -17505   -17502   -17506   -17512   -17514 
  -17513   -17521   -17533   -17537   -17543   -17545   -17550   -17558 
  -17558   -17559   -17570   -17587   -17610   -17618   -17621   -17637 
  -17648   -17659   -17670   -17670   -17686   -17716   -17732   -17733 
  -17729   -17734   -17736   -17733   -17726   -17710   -17701   -17694 
  -17679   -17663   -17641   -17629   -17618   -17599   -17586   -17555 
  -17527   -17514   -17485   -17456   -17450   -17452   -17470   -17479 
  -17478   -17486   -17490   -17500   -17505   -17493   -17479   -17466 
  -17455   -17436   -17410   -17404   -17405   -17405   -17410   -17410 
  -17421   -17433   -17443   -17460   -17478   -17491   -17508   -17518 
  -17516   -17498   -17486   -17483   -17463   -17444   -17435   -17419 
  -17409   -17398   -17378   -17370   -17371   -17388   -17402   -17402 
  -17412   -17420   -17410   -17408   -17400   -17408   -17432   -17446 
  -17464   -17478   -17494   -17524   -17545   -17575   -17616   -17649 
  -17695   -17728   -17736   -17747   -17764   -17780   -17787   -17786 
  -17784   -17786   -17788   -17783   -17768   -17766   -17770   -17766 
  -17751   -17728   -17714   -17709   -17707   -17705   -17695   -17689 
  -17687   -17679   -17662   -17637   -17620   -17613   -17599   -17577 
  -17547   -17528   -17517   -17493   -17470   -17466   -17466   -17471 
  -17475   -17467   -17455   -17448   -17447   -17443   -17431   -17424 
  -17424   -17420   -17406   -17394   -17382   -17378   -17383   -17381 
  -17370   -17371   -17377   -17382   -17389   -17390   -17402   -17420 
  -17427   -17431   -17429   -17435   -17448   -17455   -17462   -17464 
  -17469   -17482   -17490   -17496   -17505   -17517   -17535   -17547 
  -17554   -17568   -17583   -17601   -17605   -17593   -17590   -17598 
  -17605   -17608   -17605   -17608   -17613   -17624   -17628   -17620 
  -17631   -17643   -17640   -17640   -17625   -17614   -17620   -17616 
  -17608   -17599   -17595   -17604   -17601   -17598   -17605   -17614 
  -17631   -17644   -17651   -17660   -17670   -17689   -17699   -17698 
  -17702   -17702   -17699   -17701   -17686   -17674   -17679   -17670 
  -17649   -17637   -17622   -17612   -17610   -17604   -17590   -17575 
  -17564   -17548   -17517   -17496   -17491   -17486   -17478   -17470 
  -17469   -17469   -17454   -17444   -17446   -17433   -17433   -17452 
  -17460   -17455   -17458   -17477   -17490   -17487   -17490   -17491 
  -17487   -17497   -17506   -17500   -17498   -17520   -17541   -17544 
  -17544   -17551   -17564   -17568   -17567   -17571   -17570   -17564 
  -17567   -17559   -17536   -17523   -17527   -17524   -17502   -17490 
  -17496   -17497   -17493   -17487   -17483   -17481   -17478   -17477 
  -17462   -17436   -17425   -17428   -17424   -17415   -17419   -17427 
  -17433   -17451   -17470   -17478   -17498   -17521   -17533   -17539 
  -17548   -17562   -17570   -17563   -17559   -17562   -17562   -17562 
  -17550   -17532   -17521   -17513   -17505   -17489   -17471   -17469 
  -17463   -17460   -17463   -17463   -17474   -17490   -17504   -17516 
  -17531   -17548   -17571   -17587   -17586   -17587   -17601   -17609 
  -17610   -17613   -17620   -17629   -17640   -17645   -17649   -17658 
  -17662   -17662   -17652   -17637   -17632   -17628   -17622   -17612 
  -17599   -17602   -17609   -17608   -17605   -17590   -17586   -17594 
  -17594   -17586   -17570   -17567   -17578   -17566   -17551   -17545 
  -17531   -17532   -17535   -17518   -17510   -17508   -17509   -17510 
  -17498   -17497   -17510   -17523   -17531   -17528   -17539   -17552 
  -17548   -17544   -17529   -17520   -17529   -17523   -17517   -17517 
  -17513   -17525   -17531   -17528   -17536   -17543   -17554   -17563 
  -17562   -17554   -17544   -17547   -17543   -17528   -17524   -17513 
  -17506   -17510   -17501   -17500   -17508   -17505   -17501   -17491 
  -17489   -17490   -17478   -17470   -17459   -17446   -17450   -17447 
  -17437   -17447   -17462   -17483   -17501   -17508   -17527   -17539 
  -17541   -17555   -17554   -17545   -17552   -17560   -17564   -17547 
  -17528   -17531   -17525   -17514   -17506   -17500   -17497   -17491 
  -17482   -17473   -17464   -17464   -17470   -17478   -17479   -17479 
  -17498   -17509   -17510   -17513   -17510   -17521   -17529   -17521 
  -17523   -17523   -17528   -17552   -17555   -17551   -17563   -17578 
  -17590   -17587   -17593   -17612   -17621   -17632   -17640   -17636 
  -17639   -17645   -17647   -17637   -17624   -17620   -17624   -17625 
  -17617   -17609   -17613   -17622   -17626   -17622   -17625   -17640 
  -17651   -17653   -17652   -17648   -17651   -17655   -17647   -17637 
  -17633   -17631   -17626   -17610   -17591   -17577   -17563   -17555 
  -17539   -17523   -17525   -17531   -17527   -17516   -17508   -17506 
  -17512   -17513   -17510   -17513   -17525   -17539   -17540   -17529 
  -17529   -17536   -17545   -17545   -17529   -17529   -17536   -17532 
  -17537   -17529   -17523   -17532   -17536   -17540   -17535   -17525 
  -17536   -17541   -17539   -17543   -17537   -17536   -17541   -17544 
  -17541   -17541   -17543   -17545   -17541   -17535   -17528   -17521 
  -17508   -17487   -17474   -17458   -17447   -17443   -17433   -17433 
  -17444   -17452   -17460   -17463   -17467   -17481   -17494   -17508 
  -17514   -17521   -17539   -17550   -17554   -17556   -17555   -17560 
  -17559   -17552   -17552   -17556   -17562   -17566   -17571   -17579 
  -17586   -17593   -17601   -17602   -17601   -17610   -17624   -17620 
  -17605   -17599   -17601   -17595   -17587   -17575   -17571   -17586 
  -17590   -17585   -17581   -17581   -17589   -17585   -17574   -17570 
