Origin Time       2025/06/03 22:18:00
Lat.              41.7
Long.             143.6
Depth. (km)       30
Mag.              5.2
Station Code      IBUH02
Station Lat.      42.8714
Station Long.     142.1285
Station Height(m) 175
Record Time       2025/06/03 22:19:19
Sampling Freq(Hz) 100Hz
Duration Time(s)  120
Dir.              4
Scale Factor      7845(gal)/8223790
Max. Acc. (gal)   0.594
Last Correction   2025/06/03 22:19:19
Memo.             
[...]
    1483     1480     1459     1429     1426     1429     1429     1425 
    1435     1439     1421     1418     1418     1413     1431     1456 
    1474     1487     1499     1514     1513     1514     1520     1510 
    1506     1507     1501     1503     1512     1513     1510     1516 
    1526     1526     1532     1544     1526     1495     1489     1487 
    1476     1476     1493     1498     1493     1486     1470     1437 
    1412     1409     1409     1414     1444     1472     1479     1476 
    1460     1445     1451     1464     1467     1480     1497     1487 
    1472     1467     1452     1448     1468     1479     1464     1460 
    1466     1451     1447     1460     1453     1447     1449     1447 
    1449     1470     1505     1520     1517     1513     1493     1479 
    1476     1464     1468     1485     1501     1520     1528     1530 
    1529     1533     1544     1528     1509     1501     1485     1491 
    1510     1510     1509     1509     1509     1498     1483     1495 
    1497     1494     1506     1498     1480     1470     1462     1449 
    1445     1470     1493     1493     1487     1470     1441     1422 
    1421     1433     1456     1478     1480     1472     1447     1421 
    1418     1428     1447     1476     1509     1526     1512     1498 
    1493     1483     1499     1516     1514     1518     1524     1526 
    1522     1518     1526     1541     1566     1572     1551     1532 
    1502     1483     1497     1503     1503     1517     1528     1525 
    1517     1524     1529     1524     1534     1532     1497     1467 
    1451     1435     1426     1443     1468     1480     1486     1479 
    1455     1440     1432     1420     1421     1440     1447     1439 
    1431     1410     1381     1374     1385     1385     1394     1432 
    1459     1466     1482     1494     1502     1526     1556     1574 
    1570     1564     1571     1560     1553     1563     1563     1557 
    1537     1516     1502     1478     1471     1478     1480     1503 
    1521     1512     1491     1478     1476     1471     1463     1452 
    1429     1424     1418     1402     1408     1428     1451     1470 
    1475     1478     1471     1464     1475     1468     1456     1462 
    1464     1472     1478     1472     1470     1462     1451     1447 
    1437     1436     1453     1468     1467     1475     1493     1497 
    1501     1506     1507     1514     1518     1513     1513     1530 
    1549     1556     1566     1555     1522     1493     1476     1472 
    1463     1466     1491     1501     1494     1489     1475     1458 
    1448     1447     1449     1460     1470     1466     1453     1441 
    1437     1444     1451     1444     1444     1458     1458     1463 
    1483     1498     1517     1545     1560     1564     1566     1575 
    1587     1582     1559     1543     1540     1534     1526     1524 
    1513     1495     1475     1447     1420     1417     1428     1433 
    1447     1463     1455     1436     1420     1405     1399     1417 
    1441     1452     1471     1489     1479     1470     1464     1451 
    1462     1493     1494     1486     1495     1491     1480     1489 
    1495     1493     1490     1490     1470     1455     1464     1464 
    1471     1489     1485     1471     1456     1441     1437     1445 
    1460     1482     1498     1499     1486     1462     1453     1464 
    1463     1475     1506     1517     1516     1510     1506     1502 
    1497     1507     1517     1505     1506     1513     1509     1501 
    1489     1479     1468     1460     1463     1448     1443     1468 
    1489     1510     1544     1563     1567     1567     1553     1533 
    1526     1536     1545     1539     1533     1528     1513     1505 
    1501     1497     1502     1514     1514     1493     1472     1458 
    1447     1453     1456     1445     1447     1448     1445     1453 
    1475     1497     1502     1503     1507     1493     1482     1485 
    1485     1487     1493     1498     1487     1460     1445     1439 
    1428     1435     1455     1455     1451     1452     1436     1414 
    1404     1397     1386     1382     1394     1395     1399     1422 
    1429     1424     1436     1459     1464     1460     1474     1466 
    1445     1460     1468     1458     1480     1509     1510     1505 
    1513     1516     1513     1524     1526     1525     1540     1555 
    1560     1564     1572     1576     1575     1578     1568     1557 
    1568     1571     1555     1533     1506     1490     1490     1491 
    1498     1522     1549     1568     1568     1545     1526     1521 
    1520     1540     1568     1580     1576     1556     1518     1476 
    1458     1462     1467     1475     1476     1468     1455     1432 
    1417     1420     1432     1449     1456     1459     1463     1464 
    1472     1476     1471     1453     1429     1422     1424     1410 
    1401     1405     1410     1412     1420     1429     1429     1428 
    1435     1443     1449     1458     1449     1425     1412     1412 
    1410     1402     1401     1417     1418     1405     1399     1382 
    1355     1371     1410     1433     1455     1472     1478     1490 
    1510     1524     1540     1564     1567     1553     1567     1588 
    1597     1606     1609     1594     1567     1541     1534     1532 
    1529     1539     1555     1564     1555     1541     1530     1507 
    1498     1506     1505     1510     1517     1502     1482     1467 
    1456     1456     1472     1502     1536     1580     1617     1613 
    1599     1582     1553     1553     1566     1552     1536     1530 
    1528     1513     1495     1506     1513     1502     1503     1491 
    1464     1458     1471     1485     1494     1505     1486     1447 
    1426     1409     1398     1412     1412     1399     1395     1385 
    1372     1364     1362     1375     1394     1409     1417     1416 
    1421     1424     1435     1462     1478     1491     1506     1516 
    1517     1502     1495     1498     1502     1507     1516     1524 
    1526     1513     1502     1497     1486     1487     1495     1493 
    1487     1483     1472     1464     1458     1456     1470     1497 
    1524     1539     1537     1533     1528     1518     1505     1509 
    1539     1560     1572     1584     1578     1553     1526     1509 
    1502     1510     1530     1536     1522     1510     1495     1474 
    1455     1440     1432     1431     1429     1431     1436     1441 
    1449     1471     1480     1466     1448     1432     1405     1374 
    1347     1331     1325     1332     1335     1331     1347     1366 
    1375     1404     1447     1479     1490     1478     1452     1431 
    1424     1428     1444     1475     1503     1518     1521     1516 
    1502     1491     1509     1545     1556     1552     1548     1528 
    1522     1545     1552     1559     1580     1582     1566     1539 
    1521     1516     1505     1507     1509     1495     1497     1503 
    1522     1553     1588     1618     1624     1620     1606     1579 
    1563     1541     1520     1518     1532     1553     1561     1553 
    1549     1533     1513     1512     1510     1513     1521     1518 
    1513     1498     1478     1467     1448     1421     1398     1374 
    1366     1371     1379     1395     1414     1437     1441     1437 
    1444     1451     1459     1468     1471     1480     1482     1476 
    1475     1460     1441     1433     1421     1408     1395     1386 
    1383     1382     1375     1366     1366     1362     1344     1340 
    1337     1312     1286     1279     1270     1260     1285     1327 
    1339     1352     1372     1366     1377     1395     1390     1402 
    1435     1444     1443     1448     1447     1429     1422     1429 
    1416     1405     1420     1416     1405     1420     1426     1421 
    1418     1417     1395     1393     1433     1448     1451     1485 
    1490     1475     1480     1482     1472     1472     1495     1520 
    1528     1552     1576     1584     1607     1632     1651     1672 
    1692     1707     1717     1737     1764     1764     1767     1777 
    1776     1777     1779     1769     1746     1728     1728     1730 
    1730     1728     1711     1699     1688     1671     1664     1659 
    1652     1656     1656     1651     1644     1648     1656     1648 
    1630     1603     1557     1514     1474     1429     1409     1414 
    1420     1420     1414     1408     1401     1401     1404     1401 
    1398     1389     1372     1355     1333     1323     1318     1305 
    1300     1308     1321     1344     1367     1385     1408     1429 
    1447     1455     1449     1445     1448     1466     1495     1521 
    1545     1570     1574     1548     1525     1513     1495     1487 
    1494     1499     1512     1533     1556     1557     1547     1551 
    1551     1544     1544     1540     1532     1525     1501     1470 
    1455     1444     1441     1459     1475     1483     1503     1521 
    1514     1502     1501     1490     1480     1475     1455     1432 
    1402     1364     1317     1260     1247     1260     1270     1293 
    1313     1323     1335     1350     1354     1350     1358     1366 
    1370     1377     1368     1351     1339     1328     1314     1324 
    1360     1386     1404     1417     1410     1393     1383     1370 
    1355     1366     1381     1379     1381     1386     1391     1408 
    1421     1432     1452     1460     1452     1435     1397     1356 
    1333     1325     1341     1366     1393     1418     1435     1463 
    1498     1541     1603     1645     1674     1694     1686     1675 
    1660     1644     1625     1597     1582     1551     1503     1478 
    1471     1487     1521     1580     1653     1692     1723     1742 
    1741     1765     1802     1830     1856     1857     1825     1771 
    1709     1655     1606     1582     1593     1601     1587     1563 
    1528     1495     1485     1495     1518     1552     1587     1603 
    1594     1571     1540     1516     1516     1517     1499     1485 
    1475     1460     1444     1437     1448     1470     1506     1543 
    1552     1555     1545     1507     1464     1404     1329     1258 
    1190     1150     1132     1146     1182     1219     1266     1296 
    1308     1332     1335     1343     1386     1418     1449     1485 
    1490     1474     1444     1418     1404     1378     1370     1385 
    1394     1404     1406     1417     1432     1429     1440     1463 
    1487     1529     1576     1613     1642     1669     1683     1667 
    1630     1597     1570     1545     1525     1507     1490     1474 
    1456     1443     1432     1422     1429     1431     1425     1428 
    1418     1401     1394     1386     1366     1352     1362     1377 
    1395     1433     1475     1512     1536     1556     1560     1536 
    1509     1493     1479     1467     1470     1489     1506     1528 
    1541     1543     1553     1570     1582     1601     1633     1653 
    1644     1641     1659     1663     1671     1696     1709     1713 
    1717     1694     1636     1568     1507     1441     1375     1327 
    1302     1297     1301     1308     1317     1341     1372     1397 
    1418     1439     1448     1441     1432     1417     1387     1385 
    1397     1387     1397     1428     1444     1466     1491     1493 
    1486     1491     1495     1487     1487     1483     1463     1452 
    1449     1443     1444     1459     1474     1464     1437     1413 
    1393     1386     1397     1417     1448     1490     1536     1582 
    1603     1611     1630     1629     1620     1629     1648     1679 
    1711     1718     1696     1661     1620     1570     1529     1509 
    1501     1494     1472     1444     1424     1421     1445     1478 
    1513     1552     1574     1590     1610     1626     1647     1671 
    1696     1715     1709     1683     1652     1613     1567     1530 
    1503     1479     1467     1459     1445     1443     1445     1435 
    1421     1399     1378     1356     1324     1301     1297     1297 
    1306     1321     1318     1305     1308     1324     1335     1352 
    1382     1395     1387     1347     1269     1188     1119     1061 
    1034     1042     1081     1139     1206     1281     1351     1417 
    1479     1528     1570     1610     1644     1669     1679     1676 
    1665     1652     1655     1651     1622     1613     1617     1606 
    1594     1576     1544     1498     1449     1405     1367     1360 
    1383     1409     1443     1475     1502     1533     1563     1595 
    1622     1641     1660     1671     1664     1644     1613     1578 
    1533     1479     1429     1391     1367     1345     1332     1327 
    1317     1314     1329     1343     1363     1391     1421     1445 
    1463     1489     1517     1548     1582     1598     1598     1586 
    1566     1543     1506     1475     1468     1466     1459     1451 
    1443     1432     1418     1409     1387     1356     1341     1341 
    1350     1364     1386     1417     1435     1433     1436     1445 
    1453     1451     1448     1456     1456     1455     1459     1437 
    1409     1401     1390     1381     1389     1405     1417     1421 
    1417     1404     1391     1398     1418     1447     1489     1529 
    1571     1610     1641     1679     1729     1796     1876     1957 
    2027     2070     2095     2106     2088     2054     2015     1961 
    1903     1846     1795     1752     1710     1680     1667     1647 
    1610     1580     1547     1497     1460     1447     1435     1429 
    1424     1401     1375     1347     1302     1259     1250     1254 
    1251     1274     1293     1289     1306     1337     1358     1371 
    1389     1406     1379     1337     1320     1293     1278     1296 
    1305     1305     1298     1277     1239     1210     1206     1213 
    1231     1264     1286     1306     1321     1318     1331     1348 
    1360     1404     1462     1507     1551     1593     1617     1618 
    1620     1626     1648     1686     1711     1729     1749     1745 
    1732     1729     1711     1687     1671     1638     1599     1575 
    1561     1563     1567     1549     1516     1483     1453     1424 
    1404     1408     1424     1440     1459     1467     1480     1510 
    1545     1590     1621     1621     1609     1572     1518     1456 
    1387     1359     1364     1370     1390     1410     1420     1429 
    1449     1489     1521     1548     1586     1601     1590     1566 
    1536     1510     1462     1410     1385     1343     1300     1283 
    1274     1282     1300     1314     1313     1277     1248     1232 
    1206     1202     1224     1258     1300     1341     1374     1387 
    1405     1424     1432     1448     1471     1491     1520     1537 
    1537     1530     1517     1499     1475     1436     1389     1358 
    1347     1359     1395     1448     1501     1533     1543     1533 
    1517     1512     1512     1517     1529     1536     1544     1545 
    1526     1507     1512     1521     1521     1525     1526     1510 
    1498     1483     1452     1429     1421     1406     1387     1366 
    1358     1363     1371     1386     1402     1421     1451     1464 
    1472     1493     1514     1539     1564     1571     1559     1545 
    1541     1543     1544     1545     1552     1578     1614     1642 
    1667     1687     1691     1678     1652     1633     1621     1610 
    1615     1615     1601     1602     1598     1590     1594     1597 
    1601     1597     1580     1563     1548     1552     1563     1575 
    1587     1582     1567     1536     1486     1439     1404     1410 
    1436     1441     1453     1462     1447     1437     1425     1425 
    1441     1462     1490     1506     1497     1487     1482     1476 
    1471     1482     1503     1501     1497     1497     1490     1494 
    1495     1491     1489     1471     1452     1445     1436     1431 
    1451     1494     1529     1541     1556     1556     1533     1533 
    1544     1545     1561     1567     1543     1490     1431     1394 
    1364     1363     1401     1428     1458     1475     1460     1449 
    1439     1421     1410     1397     1393     1381     1354     1331 
    1302     1285     1291     1305     1314     1324     1332     1351 
    1389     1433     1464     1486     1499     1490     1471     1458 
    1453     1470     1489     1505     1518     1505     1483     1463 
    1443     1436     1447     1471     1502     1517     1518     1524 
    1533     1524     1497     1479     1453     1420     1408     1408 
    1413     1439     1489     1540     1578     1606     1626     1633 
    1640     1660     1682     1695     1698     1683     1641     1603 
    1583     1566     1563     1570     1561     1555     1544     1507 
    1468     1436     1402     1364     1328     1305     1279     1259 
    1248     1228     1216     1224     1229     1236     1251     1275 
    1306     1351     1399     1424     1453     1495     1514     1525 
    1540     1547     1556     1567     1574     1572     1564     1567 
    1553     1530     1510     1486     1490     1513     1521     1540 
    1567     1587     1607     1625     1633     1628     1620     1625 
    1634     1649     1678     1706     1729     1740     1740     1736 
    1723     1711     1687     1648     1620     1595     1555     1528 
    1514     1482     1451     1429     1389     1341     1309     1286 
    1274     1289     1328     1364     1382     1393     1394     1398 
    1402     1414     1456     1493     1512     1555     1579     1560 
    1551     1556     1544     1525     1517     1512     1505     1514 
    1524     1507     1479     1455     1422     1366     1312     1281 
    1254     1220     1190     1167     1152     1139     1142     1162 
    1178     1204     1255     1298     1308     1317     1348     1366 
    1371     1390     1410     1428     1451     1478     1502     1507 
    1517     1548     1563     1566     1570     1575     1584     1597 
    1607     1602     1588     1588     1580     1557     1547     1545 
    1547     1556     1568     1586     1609     1628     1653     1683 
    1725     1767     1794     1814     1817     1810     1799     1773 
    1742     1705     1661     1630     1599     1567     1537     1520 
    1524     1541     1549     1547     1548     1547     1525     1501 
    1479     1448     1420     1412     1401     1394     1412     1433 
    1453     1474     1491     1502     1498     1494     1485     1468 
    1471     1464     1436     1410     1385     1366     1354     1325 
    1297     1289     1296     1305     1310     1325     1340     1351 
    1379     1397     1399     1424     1452     1480     1509     1524 
    1544     1566     1572     1570     1560     1548     1520     1491 
    1475     1455     1459     1476     1472     1475     1475     1467 
    1472     1464     1460     1462     1447     1447     1453     1440 
    1432     1435     1444     1451     1456     1470     1483     1501 
    1522     1530     1549     1568     1576     1593     1601     1594 
    1586     1571     1549     1522     1510     1509     1495     1487 
