Origin Time       2025/06/03 22:18:00
Lat.              41.7
Long.             143.6
Depth. (km)       30
Mag.              5.2
Station Code      IBUH01
Station Lat.      42.8739
Station Long.     141.8191
Station Height(m) -40.6
Record Time       2025/06/03 22:18:59
Sampling Freq(Hz) 100Hz
Duration Time(s)  120
Dir.              3
Scale Factor      2942(gal)/8224139
Max. Acc. (gal)   0.253
Last Correction   2025/06/03 22:18:59
Memo.             
[...]
  -21537   -21501   -21459   -21417   -21379   -21355   -21346   -21346 
  -21350   -21354   -21357   -21363   -21378   -21402   -21438   -21479 
  -21523   -21567   -21613   -21659   -21703   -21752   -21798   -21845 
  -21891   -21928   -21951   -21960   -21956   -21941   -21917   -21880 
  -21836   -21787   -21741   -21697   -21655   -21616   -21583   -21552 
  -21519   -21492   -21467   -21443   -21424   -21416   -21415   -21416 
  -21424   -21438   -21455   -21474   -21489   -21502   -21510   -21517 
  -21529   -21543   -21558   -21579   -21609   -21645   -21679   -21703 
  -21718   -21720   -21710   -21693   -21666   -21629   -21583   -21536 
  -21498   -21466   -21427   -21381   -21338   -21303   -21277   -21257 
  -21255   -21271   -21292   -21317   -21343   -21361   -21371   -21366 
  -21347   -21321   -21292   -21269   -21254   -21249   -21251   -21266 
  -21288   -21313   -21340   -21365   -21392   -21429   -21474   -21524 
  -21577   -21631   -21678   -21717   -21741   -21757   -21770   -21776 
  -21780   -21790   -21811   -21852   -21901   -21942   -21984   -22025 
  -22054   -22071   -22072   -22064   -22056   -22052   -22049   -22046 
  -22052   -22059   -22054   -22041   -22011   -21973   -21934   -21891 
  -21845   -21803   -21770   -21739   -21712   -21694   -21689   -21690 
  -21689   -21683   -21674   -21667   -21666   -21666   -21663   -21654 
  -21641   -21632   -21624   -21610   -21593   -21582   -21583   -21595 
  -21621   -21651   -21674   -21686   -21689   -21683   -21675   -21674 
  -21678   -21685   -21695   -21712   -21732   -21753   -21776   -21801 
  -21824   -21834   -21832   -21825   -21811   -21790   -21764   -21743 
  -21725   -21714   -21705   -21695   -21690   -21693   -21709   -21733 
  -21756   -21771   -21782   -21795   -21807   -21816   -21828   -21841 
  -21845   -21838   -21826   -21810   -21794   -21782   -21764   -21740 
  -21714   -21690   -21663   -21635   -21604   -21574   -21544   -21519 
  -21497   -21481   -21465   -21446   -21427   -21406   -21381   -21348 
  -21309   -21274   -21249   -21235   -21230   -21228   -21239   -21262 
  -21292   -21325   -21367   -21405   -21435   -21467   -21496   -21519 
  -21543   -21567   -21585   -21602   -21618   -21627   -21629   -21633 
  -21633   -21622   -21605   -21591   -21586   -21589   -21590   -21594 
  -21595   -21589   -21581   -21570   -21555   -21544   -21535   -21520 
  -21498   -21474   -21452   -21439   -21433   -21432   -21428   -21420 
  -21413   -21408   -21398   -21393   -21398   -21415   -21436   -21456 
  -21478   -21504   -21531   -21554   -21573   -21589   -21605   -21622 
  -21645   -21676   -21710   -21745   -21787   -21836   -21880   -21922 
  -21964   -21995   -22013   -22025   -22032   -22032   -22027   -22025 
  -22018   -22002   -21975   -21934   -21883   -21825   -21774   -21721 
  -21668   -21632   -21605   -21575   -21548   -21520   -21486   -21459 
  -21442   -21427   -21416   -21409   -21404   -21408   -21420   -21435 
  -21458   -21481   -21504   -21529   -21548   -21558   -21567   -21579 
  -21594   -21610   -21628   -21654   -21683   -21713   -21744   -21772 
  -21794   -21807   -21810   -21803   -21798   -21794   -21786   -21768 
  -21745   -21724   -21706   -21695   -21690   -21683   -21678   -21670 
  -21654   -21637   -21628   -21624   -21622   -21631   -21641   -21648 
  -21652   -21655   -21660   -21668   -21682   -21698   -21716   -21739 
  -21760   -21774   -21780   -21776   -21759   -21730   -21697   -21667 
  -21644   -21624   -21608   -21594   -21581   -21564   -21548   -21533 
  -21523   -21510   -21500   -21497   -21501   -21512   -21532   -21556 
  -21578   -21598   -21608   -21606   -21600   -21590   -21578   -21563 
  -21547   -21537   -21531   -21528   -21521   -21508   -21489   -21471 
  -21460   -21454   -21444   -21435   -21428   -21421   -21408   -21394 
  -21386   -21379   -21375   -21385   -21405   -21425   -21450   -21482 
  -21509   -21529   -21547   -21559   -21568   -21582   -21597   -21614 
  -21636   -21660   -21681   -21697   -21710   -21722   -21728   -21728 
  -21721   -21703   -21682   -21663   -21647   -21631   -21614   -21601 
  -21594   -21594   -21591   -21585   -21579   -21582   -21589   -21593 
  -21602   -21616   -21631   -21649   -21670   -21686   -21709   -21737 
  -21767   -21801   -21829   -21845   -21861   -21879   -21894   -21905 
  -21913   -21915   -21914   -21915   -21917   -21911   -21899   -21886 
  -21872   -21848   -21818   -21790   -21760   -21728   -21706   -21693 
  -21675   -21663   -21656   -21655   -21659   -21668   -21681   -21695 
  -21713   -21733   -21753   -21770   -21774   -21772   -21767   -21752 
  -21729   -21703   -21671   -21639   -21610   -21587   -21577   -21575 
  -21573   -21566   -21556   -21543   -21529   -21521   -21513   -21504 
  -21493   -21473   -21446   -21423   -21400   -21377   -21361   -21355 
  -21359   -21369   -21382   -21394   -21408   -21420   -21432   -21439 
  -21438   -21432   -21424   -21411   -21390   -21375   -21367   -21365 
  -21365   -21367   -21382   -21400   -21413   -21420   -21423   -21421 
  -21419   -21413   -21402   -21394   -21396   -21404   -21413   -21425 
  -21440   -21458   -21474   -21494   -21514   -21536   -21559   -21583 
  -21601   -21618   -21637   -21659   -21690   -21729   -21767   -21799 
  -21829   -21852   -21860   -21855   -21845   -21830   -21813   -21801 
  -21794   -21786   -21776   -21768   -21764   -21757   -21751   -21751 
  -21756   -21760   -21768   -21783   -21803   -21833   -21870   -21905 
  -21936   -21964   -21986   -22002   -22019   -22037   -22050   -22063 
  -22065   -22050   -22022   -21980   -21926   -21865   -21802   -21735 
  -21671   -21618   -21574   -21531   -21489   -21450   -21413   -21379 
  -21346   -21312   -21285   -21265   -21247   -21238   -21234   -21232 
  -21235   -21239   -21243   -21254   -21270   -21286   -21305   -21325 
  -21348   -21374   -21402   -21435   -21467   -21497   -21531   -21566 
  -21594   -21624   -21656   -21691   -21725   -21756   -21778   -21793 
  -21810   -21833   -21845   -21848   -21845   -21834   -21816   -21790 
  -21760   -21730   -21699   -21671   -21648   -21629   -21617   -21612 
  -21620   -21639   -21658   -21672   -21687   -21702   -21714   -21720 
  -21721   -21722   -21721   -21718   -21714   -21709   -21705   -21705 
  -21705   -21699   -21694   -21690   -21685   -21675   -21666   -21656 
  -21641   -21625   -21612   -21589   -21562   -21536   -21508   -21481 
  -21460   -21446   -21432   -21417   -21405   -21397   -21390   -21390 
  -21393   -21397   -21404   -21416   -21425   -21433   -21446   -21465 
  -21486   -21512   -21536   -21555   -21563   -21564   -21562   -21560 
  -21570   -21587   -21608   -21628   -21654   -21675   -21689   -21701 
  -21714   -21729   -21745   -21757   -21762   -21757   -21745   -21730 
  -21713   -21695   -21682   -21675   -21674   -21675   -21675   -21675 
  -21671   -21660   -21649   -21636   -21616   -21594   -21581   -21567 
  -21551   -21537   -21523   -21506   -21494   -21485   -21481   -21478 
  -21471   -21466   -21467   -21467   -21467   -21473   -21483   -21496 
  -21506   -21516   -21524   -21536   -21554   -21570   -21583   -21597 
  -21616   -21635   -21655   -21674   -21693   -21713   -21733   -21752 
  -21767   -21776   -21784   -21793   -21797   -21797   -21790   -21776 
  -21763   -21752   -21745   -21737   -21729   -21725   -21724   -21725 
  -21732   -21740   -21748   -21756   -21770   -21787   -21806   -21825 
  -21838   -21847   -21855   -21859   -21857   -21855   -21852   -21849 
  -21848   -21851   -21853   -21853   -21849   -21843   -21836   -21826 
  -21810   -21789   -21767   -21743   -21712   -21676   -21641   -21606 
  -21568   -21521   -21474   -21431   -21393   -21359   -21323   -21289 
  -21266   -21240   -21219   -21208   -21200   -21190   -21185   -21182 
  -21184   -21189   -21197   -21205   -21215   -21231   -21253   -21273 
  -21297   -21327   -21354   -21379   -21406   -21432   -21455   -21479 
  -21505   -21535   -21562   -21581   -21594   -21601   -21609   -21620 
  -21625   -21627   -21632   -21640   -21647   -21654   -21663   -21668 
  -21668   -21663   -21655   -21645   -21633   -21624   -21618   -21609 
  -21602   -21601   -21598   -21590   -21586   -21583   -21581   -21578 
  -21574   -21571   -21570   -21573   -21583   -21595   -21612   -21637 
  -21662   -21683   -21708   -21736   -21762   -21784   -21803   -21820 
  -21833   -21852   -21871   -21887   -21902   -21913   -21918   -21919 
  -21919   -21914   -21907   -21906   -21901   -21891   -21887   -21882 
  -21874   -21863   -21845   -21824   -21809   -21798   -21790   -21782 
  -21774   -21766   -21753   -21741   -21724   -21693   -21662   -21637 
  -21624   -21616   -21613   -21605   -21590   -21570   -21548   -21520 
  -21492   -21474   -21463   -21451   -21440   -21431   -21424   -21420 
  -21415   -21416   -21421   -21424   -21429   -21439   -21448   -21454 
  -21455   -21456   -21462   -21469   -21477   -21493   -21505   -21516 
  -21532   -21552   -21573   -21597   -21620   -21641   -21663   -21686 
  -21714   -21740   -21762   -21779   -21798   -21816   -21833   -21860 
  -21894   -21925   -21956   -21986   -22014   -22044   -22069   -22094 
  -22119   -22140   -22157   -22169   -22173   -22175   -22169   -22153 
  -22127   -22094   -22049   -21999   -21946   -21890   -21834   -21782 
  -21725   -21671   -21624   -21575   -21528   -21489   -21452   -21423 
  -21404   -21388   -21369   -21351   -21334   -21315   -21298   -21288 
  -21278   -21267   -21266   -21274   -21281   -21289   -21298   -21300 
  -21301   -21307   -21313   -21324   -21338   -21350   -21365   -21381 
  -21396   -21408   -21421   -21436   -21451   -21463   -21466   -21466 
  -21470   -21471   -21473   -21473   -21473   -21474   -21474   -21474 
  -21474   -21475   -21482   -21494   -21508   -21520   -21533   -21550 
  -21567   -21587   -21612   -21633   -21659   -21699   -21739   -21774 
  -21810   -21845   -21884   -21921   -21942   -21963   -21986   -22002 
  -22017   -22032   -22038   -22032   -22021   -22011   -21998   -21984 
  -21973   -21965   -21955   -21945   -21934   -21922   -21909   -21891 
  -21872   -21856   -21836   -21816   -21797   -21778   -21756   -21726 
  -21693   -21658   -21620   -21579   -21537   -21497   -21458   -21421 
  -21392   -21363   -21331   -21303   -21280   -21259   -21236   -21219 
  -21205   -21189   -21172   -21157   -21142   -21131   -21120   -21108 
  -21100   -21096   -21101   -21112   -21124   -21141   -21162   -21185 
  -21209   -21232   -21254   -21277   -21300   -21325   -21347   -21361 
  -21370   -21374   -21375   -21375   -21375   -21378   -21382   -21390 
  -21401   -21413   -21429   -21442   -21447   -21454   -21462   -21467 
  -21477   -21489   -21505   -21524   -21541   -21563   -21589   -21613 
  -21636   -21660   -21681   -21699   -21721   -21743   -21760   -21778 
  -21797   -21814   -21829   -21837   -21844   -21845   -21843   -21844 
  -21851   -21860   -21876   -21898   -21914   -21930   -21946   -21956 
  -21960   -21960   -21953   -21946   -21936   -21917   -21901   -21890 
  -21878   -21860   -21840   -21822   -21806   -21787   -21766   -21745 
  -21729   -21714   -21699   -21686   -21674   -21658   -21641   -21625 
  -21613   -21610   -21613   -21618   -21627   -21637   -21647   -21654 
  -21660   -21672   -21689   -21703   -21714   -21724   -21733   -21739 
  -21739   -21737   -21737   -21732   -21726   -21721   -21712   -21698 
  -21683   -21666   -21649   -21636   -21621   -21609   -21605   -21600 
  -21594   -21591   -21585   -21575   -21566   -21558   -21547   -21532 
  -21520   -21509   -21496   -21483   -21474   -21463   -21458   -21458 
  -21462   -21463   -21471   -21481   -21489   -21501   -21517   -21535 
  -21555   -21574   -21595   -21616   -21632   -21647   -21658   -21667 
  -21681   -21695   -21706   -21722   -21741   -21753   -21766   -21776 
  -21780   -21775   -21768   -21762   -21753   -21745   -21740   -21730 
  -21717   -21705   -21701   -21698   -21695   -21693   -21691   -21683 
  -21671   -21666   -21662   -21659   -21660   -21660   -21659   -21662 
  -21664   -21663   -21663   -21667   -21675   -21682   -21682   -21682 
  -21685   -21690   -21697   -21703   -21709   -21720   -21730   -21739 
  -21743   -21744   -21745   -21747   -21744   -21737   -21733   -21729 
  -21726   -21729   -21735   -21740   -21743   -21741   -21741   -21744 
  -21743   -21736   -21732   -21725   -21712   -21698   -21683   -21666 
  -21651   -21639   -21625   -21609   -21597   -21586   -21574   -21563 
  -21555   -21548   -21546   -21541   -21535   -21529   -21523   -21516 
  -21513   -21512   -21508   -21506   -21508   -21512   -21520   -21528 
  -21536   -21547   -21558   -21570   -21585   -21600   -21613   -21628 
  -21643   -21658   -21674   -21686   -21693   -21701   -21708   -21706 
  -21702   -21695   -21685   -21668   -21652   -21637   -21620   -21595 
  -21575   -21555   -21529   -21508   -21496   -21482   -21467   -21456 
  -21447   -21435   -21419   -21396   -21373   -21350   -21324   -21298 
  -21274   -21250   -21230   -21211   -21197   -21188   -21178   -21172 
  -21163   -21158   -21154   -21150   -21143   -21139   -21134   -21135 
  -21142   -21146   -21151   -21162   -21174   -21186   -21201   -21220 
  -21242   -21265   -21288   -21316   -21351   -21392   -21436   -21482 
  -21527   -21573   -21624   -21675   -21729   -21787   -21851   -21907 
  -21963   -22015   -22065   -22113   -22156   -22189   -22223   -22254 
  -22281   -22300   -22314   -22324   -22327   -22324   -22318   -22306 
  -22292   -22279   -22264   -22245   -22221   -22196   -22171   -22142 
  -22115   -22087   -22060   -22036   -22009   -21983   -21957   -21929 
  -21899   -21868   -21832   -21797   -21766   -21739   -21709   -21676 
  -21644   -21613   -21583   -21555   -21532   -21506   -21481   -21463 
  -21451   -21440   -21431   -21423   -21413   -21401   -21389   -21375 
  -21366   -21361   -21352   -21342   -21330   -21321   -21315   -21307 
  -21303   -21305   -21311   -21309   -21308   -21311   -21311   -21315 
  -21323   -21324   -21325   -21328   -21327   -21324   -21324   -21327 
  -21331   -21336   -21342   -21351   -21363   -21373   -21386   -21405 
  -21427   -21451   -21474   -21497   -21519   -21541   -21562   -21578 
  -21590   -21605   -21614   -21610   -21605   -21602   -21597   -21594 
  -21595   -21595   -21594   -21594   -21590   -21582   -21574   -21568 
  -21563   -21559   -21558   -21560   -21571   -21583   -21594   -21606 
  -21618   -21627   -21633   -21639   -21641   -21644   -21651   -21656 
  -21662   -21667   -21675   -21679   -21681   -21689   -21698   -21702 
  -21708   -21716   -21722   -21728   -21736   -21741   -21744   -21748 
  -21751   -21749   -21751   -21749   -21745   -21737   -21726   -21713 
  -21701   -21690   -21683   -21681   -21676   -21675   -21676   -21676 
  -21682   -21687   -21687   -21687   -21690   -21690   -21689   -21689 
  -21687   -21686   -21685   -21678   -21670   -21663   -21654   -21644 
  -21636   -21627   -21617   -21612   -21605   -21595   -21593   -21593 
  -21583   -21573   -21568   -21564   -21556   -21544   -21532   -21523 
  -21512   -21506   -21508   -21508   -21510   -21521   -21533   -21543 
  -21550   -21560   -21570   -21578   -21583   -21590   -21597   -21602 
  -21606   -21613   -21617   -21618   -21625   -21636   -21647   -21663 
  -21681   -21693   -21702   -21717   -21728   -21735   -21743   -21748 
  -21755   -21762   -21766   -21774   -21778   -21778   -21783   -21784 
  -21776   -21771   -21764   -21751   -21737   -21729   -21724   -21716 
  -21702   -21690   -21678   -21660   -21645   -21633   -21621   -21606 
  -21591   -21582   -21575   -21566   -21555   -21548   -21544   -21537 
  -21531   -21531   -21531   -21528   -21527   -21523   -21519   -21514 
  -21512   -21510   -21512   -21516   -21519   -21519   -21523   -21531 
  -21539   -21547   -21558   -21567   -21577   -21587   -21598   -21612 
  -21625   -21635   -21647   -21660   -21671   -21679   -21690   -21701 
  -21706   -21710   -21717   -21720   -21720   -21724   -21728   -21730 
  -21739   -21745   -21748   -21751   -21757   -21766   -21776   -21787 
  -21795   -21802   -21810   -21818   -21825   -21830   -21832   -21834 
  -21834   -21836   -21837   -21833   -21829   -21830   -21829   -21822 
  -21816   -21811   -21807   -21798   -21784   -21771   -21762   -21751 
  -21743   -21737   -21730   -21725   -21721   -21716   -21712   -21709 
  -21703   -21697   -21690   -21686   -21679   -21668   -21662   -21656 
  -21651   -21645   -21640   -21631   -21621   -21613   -21598   -21581 
  -21564   -21552   -21543   -21532   -21520   -21506   -21494   -21483 
  -21471   -21458   -21446   -21432   -21420   -21411   -21398   -21384 
  -21370   -21361   -21350   -21334   -21320   -21313   -21309   -21303 
  -21304   -21313   -21323   -21335   -21352   -21371   -21389   -21408 
  -21429   -21451   -21475   -21504   -21533   -21562   -21586   -21606 
  -21624   -21640   -21654   -21664   -21676   -21690   -21702   -21712 
  -21720   -21721   -21720   -21714   -21705   -21697   -21690   -21681 
  -21671   -21663   -21655   -21648   -21641   -21633   -21622   -21613 
  -21604   -21594   -21579   -21564   -21550   -21535   -21521   -21506 
  -21487   -21469   -21454   -21439   -21424   -21412   -21408   -21401 
  -21397   -21397   -21396   -21394   -21400   -21409   -21419   -21425 
  -21433   -21439   -21440   -21439   -21435   -21432   -21428   -21423 
  -21416   -21412   -21409   -21405   -21404   -21406   -21408   -21413 
  -21421   -21429   -21436   -21443   -21452   -21465   -21474   -21481 
  -21487   -21490   -21492   -21496   -21501   -21506   -21516   -21527 
  -21540   -21558   -21581   -21604   -21628   -21647   -21668   -21693 
  -21710   -21724   -21743   -21760   -21775   -21790   -21802   -21813 
  -21828   -21843   -21856   -21865   -21872   -21880   -21890   -21897 
  -21901   -21905   -21907   -21906   -21905   -21906   -21909   -21909 
  -21907   -21909   -21911   -21909   -21905   -21903   -21902   -21899 
  -21897   -21892   -21888   -21884   -21880   -21876   -21876   -21876 
  -21875   -21870   -21863   -21853   -21843   -21834   -21824   -21811 
  -21799   -21782   -21766   -21751   -21735   -21718   -21706   -21695 
  -21681   -21667   -21652   -21641   -21632   -21620   -21612   -21604 
  -21591   -21585   -21582   -21575   -21570   -21568   -21567   -21563 
  -21555   -21548   -21540   -21531   -21520   -21509   -21498   -21492 
  -21486   -21474   -21462   -21456   -21455   -21452   -21447   -21443 
  -21443   -21443   -21444   -21447   -21452   -21459   -21466   -21474 
  -21486   -21505   -21524   -21543   -21564   -21586   -21604   -21621 
  -21640   -21658   -21674   -21690   -21705   -21720   -21730   -21743 
  -21753   -21756   -21757   -21756   -21752   -21748   -21739   -21722 
  -21708   -21697   -21682   -21664   -21651   -21636   -21624   -21613 
  -21605   -21594   -21582   -21574   -21573   -21568   -21560   -21559 
  -21558   -21552   -21548   -21554   -21558   -21560   -21570   -21579 
  -21589   -21597   -21604   -21612   -21620   -21629   -21637   -21644 
  -21655   -21668   -21682   -21694   -21705   -21716   -21724   -21728 
  -21735   -21740   -21743   -21743   -21743   -21747   -21747   -21744 
  -21740   -21739   -21732   -21722   -21713   -21706   -21699   -21694 
