Origin Time       2025/06/03 22:18:00
Lat.              41.7
Long.             143.6
Depth. (km)       30
Mag.              5.2
Station Code      IBUH05
Station Lat.      42.5629
Station Long.     141.3497
Station Height(m) -157
Record Time       2025/06/03 22:19:26
Sampling Freq(Hz) 100Hz
Duration Time(s)  120
Dir.              3
Scale Factor      2942(gal)/8224139
Max. Acc. (gal)   0.158
Last Correction   2025/06/03 22:19:27
Memo.             
[...]
   85569    85579    85596    85612    85612    85604    85606    85617 
   85621    85607    85594    85580    85565    85548    85531    85519 
   85517    85519    85523    85521    85509    85494    85487    85494 
   85519    85560    85607    85658    85704    85739    85768    85789 
   85806    85810    85806    85792    85768    85752    85750    85749 
   85738    85723    85710    85706    85722    85745    85753    85754 
   85762    85758    85729    85696    85677    85658    85631    85604 
   85576    85542    85511    85494    85473    85442    85415    85409 
   85417    85438    85467    85491    85511    85529    85541    85558 
   85577    85595    85610    85604    85585    85573    85573    85587 
   85614    85646    85662    85657    85642    85627    85611    85594 
   85572    85561    85573    85604    85648    85695    85723    85719 
   85707    85708    85722    85735    85741    85737    85725    85715 
   85710    85703    85692    85683    85673    85671    85683    85699 
   85710    85711    85692    85661    85633    85617    85615    85618 
   85611    85599    85595    85604    85634    85661    85665    85656 
   85653    85658    85658    85649    85633    85599    85558    85538 
   85545    85553    85544    85527    85526    85525    85515    85504 
   85490    85469    85455    85441    85434    85440    85446    85452 
   85457    85459    85463    85467    85465    85472    85488    85514 
   85545    85573    85595    85615    85626    85629    85630    85622 
   85610    85612    85635    85662    85684    85702    85707    85702 
   85703    85720    85743    85762    85776    85787    85791    85779 
   85753    85722    85685    85653    85634    85612    85581    85563 
   85557    85545    85533    85523    85513    85513    85533    85558 
   85565    85553    85531    85507    85488    85490    85507    85525 
   85541    85564    85595    85626    85653    85666    85669    85669 
   85672    85687    85711    85734    85742    85743    85753    85773 
   85795    85810    85804    85783    85754    85720    85695    85688 
   85684    85671    85654    85646    85644    85633    85612    85595 
   85581    85573    85581    85600    85622    85646    85668    85673 
   85675    85684    85699    85710    85719    85719    85711    85719 
   85731    85718    85714    85735    85742    85735    85725    85692 
   85660    85634    85590    85554    85552    85564    85584    85603 
   85603    85581    85550    85530    85537    85558    85587    85633 
   85684    85707    85715    85729    85741    85741    85727    85704 
   85679    85656    85630    85596    85549    85498    85452    85426 
   85434    85479    85554    85639    85706    85760    85819    85862 
   85873    85870    85868    85858    85847    85841    85828    85810 
   85783    85745    85712    85685    85656    85631    85623    85623 
   85619    85614    85596    85564    85527    85500    85476    85450 
   85434    85446    85486    85525    85553    85571    85567    85540 
   85507    85483    85467    85457    85452    85446    85446    85457 
   85476    85488    85495    85509    85530    85552    85575    85602 
   85622    85627    85622    85607    85585    85568    85550    85517 
   85482    85463    85459    85453    85449    85461    85482    85492 
   85492    85487    85476    85463    85453    85459    85475    85491 
   85500    85517    85544    85565    85573    85580    85588    85596 
   85610    85630    85653    85672    85699    85746    85799    85833 
   85843    85833    85800    85765    85742    85725    85692    85645 
   85592    85541    85495    85465    85459    85476    85506    85534 
   85567    85607    85652    85693    85719    85722    85718    85712 
   85704    85696    85681    85648    85606    85592    85604    85619 
   85638    85661    85672    85671    85665    85664    85666    85654 
   85633    85617    85600    85573    85548    85540    85550    85571 
   85604    85652    85699    85746    85792    85826    85846    85855 
   85854    85846    85834    85812    85793    85787    85781    85765 
   85739    85714    85688    85658    85621    85583    85556    85537 
   85533    85546    85572    85587    85588    85588    85594    85602 
   85608    85614    85607    85594    85576    85554    85541    85545 
   85560    85577    85599    85637    85685    85733    85772    85800 
   85822    85842    85865    85877    85874    85870    85878    85893 
   85901    85900    85893    85876    85846    85814    85788    85765 
   85753    85753    85745    85729    85718    85710    85698    85683 
   85671    85654    85629    85607    85596    85587    85573    85558 
   85537    85509    85486    85472    85463    85459    85457    85461 
   85473    85487    85488    85483    85486    85495    85499    85495 
   85495    85499    85503    85514    85536    85564    85585    85591 
   85585    85579    85565    85557    85563    85584    85611    85635 
   85646    85637    85608    85580    85550    85509    85456    85403 
   85357    85326    85320    85338    85364    85390    85413    85428 
   85434    85440    85441    85441    85456    85495    85546    85590 
   85610    85614    85611    85607    85614    85631    85642    85649 
   85668    85700    85738    85777    85806    85814    85808    85789 
   85754    85707    85650    85591    85546    85518    85491    85472 
   85465    85457    85437    85418    85406    85395    85399    85426 
   85455    85473    85488    85500    85517    85550    85599    85649 
   85680    85695    85704    85700    85684    85672    85657    85634 
   85611    85600    85596    85585    85569    85558    85557    85563 
   85577    85610    85646    85671    85680    85677    85676    85681 
   85689    85698    85706    85704    85699    85707    85731    85764 
   85785    85783    85768    85757    85746    85739    85733    85720 
   85700    85672    85650    85639    85635    85634    85631    85621 
   85612    85614    85618    85621    85621    85612    85598    85588 
   85587    85581    85573    85575    85598    85633    85675    85718 
   85752    85770    85780    85781    85777    85769    85762    85765 
   85776    85785    85793    85803    85811    85815    85811    85801 
   85795    85791    85783    85770    85757    85750    85745    85731 
   85715    85700    85687    85668    85646    85629    85617    85603 
   85587    85571    85563    85558    85558    85563    85556    85540 
   85521    85500    85494    85510    85546    85587    85629    85676 
   85731    85781    85815    85838    85853    85845    85812    85777 
   85747    85718    85689    85669    85653    85633    85618    85614 
   85612    85602    85590    85581    85580    85590    85600    85599 
   85581    85553    85517    85476    85441    85418    85414    85432 
   85471    85511    85546    85580    85615    85649    85676    85689 
   85685    85672    85656    85635    85607    85573    85537    85502 
   85475    85461    85467    85480    85484    85476    85467    85450 
   85430    85428    85448    85476    85494    85499    85502    85507 
   85509    85499    85494    85499    85514    85531    85548    85564 
   85575    85581    85585    85580    85568    85558    85550    85541 
   85533    85534    85550    85576    85599    85614    85629    85641 
   85645    85653    85669    85695    85733    85774    85811    85842 
   85864    85873    85876    85881    85896    85922    85949    85974 
   86001    86023    86036    86038    86015    85962    85887    85803 
   85730    85673    85633    85602    85571    85550    85540    85527 
   85521    85523    85534    85554    85581    85607    85626    85637 
   85634    85615    85588    85560    85533    85500    85468    85448 
   85445    85452    85456    85448    85433    85413    85386    85357 
   85344    85348    85357    85367    85386    85411    85436    85459 
   85483    85504    85529    85557    85581    85599    85608    85602 
   85575    85542    85525    85518    85506    85496    85502    85518 
   85534    85546    85557    85564    85567    85561    85557    85564 
   85576    85591    85607    85622    85637    85664    85693    85712 
   85726    85737    85739    85741    85742    85738    85739    85752 
   85770    85787    85803    85815    85815    85810    85807    85807 
   85810    85819    85826    85828    85830    85826    85812    85800 
   85796    85784    85761    85738    85715    85689    85661    85635 
   85618    85610    85602    85599    85607    85629    85650    85664 
   85676    85691    85706    85722    85741    85753    85762    85779 
   85788    85783    85766    85747    85729    85712    85696    85672 
   85641    85623    85621    85623    85625    85625    85626    85631 
   85635    85637    85630    85614    85594    85576    85560    85541 
   85515    85484    85457    85429    85405    85403    85410    85403 
   85402    85415    85440    85469    85498    85529    85563    85592 
   85610    85617    85623    85629    85630    85633    85638    85638 
   85623    85606    85591    85568    85540    85507    85473    85449 
   85442    85455    85482    85521    85568    85618    85665    85712 
   85756    85777    85777    85765    85743    85720    85711    85700 
   85683    85671    85661    85648    85634    85621    85600    85577 
   85552    85519    85482    85442    85398    85357    85333    85326 
   85329    85336    85349    85371    85396    85425    85450    85477 
   85510    85546    85585    85623    85660    85695    85731    85758 
   85766    85768    85774    85787    85792    85788    85784    85780 
   85770    85768    85774    85779    85781    85792    85810    85807 
   85787    85795    85807    85784    85754    85720    85665    85619 
   85587    85552    85509    85461    85422    85394    85376    85374 
   85376    85369    85363    85372    85396    85426    85465    85519 
   85577    85634    85692    85753    85812    85864    85905    85941 
   85959    85968    85965    85949    85926    85907    85885    85850 
   85807    85769    85726    85672    85621    85576    85530    85483 
   85450    85450    85471    85476    85463    85456    85453    85433 
   85402    85375    85345    85321    85320    85333    85349    85374 
   85394    85411    85433    85461    85495    85541    85592    85633 
   85666    85714    85753    85769    85783    85800    85811    85804 
   85791    85787    85776    85757    85754    85756    85757    85762 
   85770    85777    85784    85781    85766    85745    85729    85731 
   85739    85747    85757    85765    85762    85754    85741    85725 
   85707    85691    85681    85677    85669    85661    85662    85662 
   85657    85648    85639    85633    85633    85642    85661    85677 
   85688    85698    85707    85719    85731    85741    85745    85743 
   85746    85745    85734    85720    85704    85683    85658    85638 
   85629    85625    85615    85602    85591    85583    85577    85580 
   85592    85611    85631    85652    85668    85679    85683    85680 
   85673    85666    85666    85664    85649    85631    85611    85581 
   85546    85519    85503    85494    85494    85498    85504    85509 
   85507    85506    85507    85507    85507    85517    85533    85546 
   85556    85558    85550    85540    85533    85522    85487    85436 
   85394    85353    85313    85294    85301    85311    85326    85352 
   85382    85410    85436    85460    85480    85491    85491    85492 
   85498    85495    85488    85479    85472    85476    85494    85511 
   85527    85549    85576    85604    85631    85665    85699    85733 
   85768    85799    85824    85837    85831    85818    85801    85789 
   85788    85785    85785    85791    85796    85792    85780    85768 
   85750    85720    85681    85646    85619    85591    85561    85536 
   85514    85502    85506    85529    85568    85614    85654    85687 
   85712    85734    85754    85765    85769    85768    85761    85747 
   85734    85718    85693    85665    85631    85608    85606    85617 
   85631    85646    85649    85649    85660    85673    85683    85687 
   85688    85693    85708    85731    85747    85753    85746    85733 
   85725    85725    85729    85729    85727    85735    85743    85741 
   85735    85735    85730    85720    85708    85693    85673    85646 
   85614    85581    85554    85533    85518    85525    85545    85558 
   85569    85585    85596    85594    85596    85603    85603    85604 
   85623    85645    85654    85668    85681    85684    85692    85696 
   85691    85691    85688    85677    85665    85648    85630    85622 
   85621    85626    85631    85631    85631    85631    85630    85626 
   85621    85610    85591    85572    85558    85545    85536    85533 
   85538    85553    85572    85592    85612    85627    85642    85650 
   85649    85639    85625    85600    85571    85544    85515    85482 
   85450    85426    85406    85386    85365    85352    85342    85336 
   85337    85347    85363    85382    85403    85428    85449    85461 
   85461    85459    85461    85468    85473    85477    85483    85486 
   85490    85498    85510    85518    85523    85536    85563    85594 
   85623    85657    85688    85714    85735    85756    85769    85776 
   85776    85776    85779    85773    85766    85768    85781    85801 
   85831    85873    85919    85966    86013    86050    86065    86061 
   86042    86017    85990    85951    85904    85861    85819    85777 
   85737    85704    85681    85669    85665    85672    85688    85708 
   85733    85761    85791    85816    85837    85851    85861    85864 
   85858    85841    85808    85766    85722    85680    85637    85590 
   85542    85504    85472    85452    85442    85441    85444    85445 
   85446    85449    85448    85445    85449    85453    85455    85452 
   85446    85438    85429    85433    85442    85449    85457    85471 
   85482    85490    85499    85503    85507    85525    85554    85583 
   85602    85617    85626    85625    85621    85617    85606    85596 
   85587    85568    85545    85527    85506    85480    85464    85459 
   85453    85446    85432    85409    85392    85383    85376    85375 
   85372    85374    85376    85376    85369    85360    85349    85347 
   85361    85391    85423    85453    85486    85523    85564    85606 
   85648    85687    85719    85741    85760    85780    85799    85812 
   85820    85823    85819    85811    85797    85774    85746    85714 
   85681    85648    85615    85585    85561    85542    85537    85540 
   85542    85548    85556    85565    85577    85594    85612    85629 
   85644    85664    85691    85725    85761    85793    85818    85838 
   85858    85873    85889    85905    85923    85938    85953    85963 
   85970    85972    85965    85950    85936    85923    85903    85878 
   85853    85820    85789    85758    85727    85700    85677    85660 
   85649    85641    85631    85631    85637    85639    85645    85653 
   85660    85662    85660    85649    85639    85631    85618    85598 
   85587    85584    85583    85588    85596    85602    85606    85608 
   85611    85621    85630    85642    85652    85650    85646    85644 
   85633    85618    85604    85592    85580    85564    85545    85530 
   85518    85509    85506    85509    85513    85523    85530    85530 
   85531    85529    85525    85531    85542    85554    85571    85579 
   85577    85572    85565    85549    85523    85496    85475    85452 
   85434    85423    85417    85417    85423    85436    85449    85456 
   85461    85469    85472    85472    85473    85479    85488    85504 
   85525    85549    85571    85591    85612    85635    85656    85671 
   85677    85684    85689    85685    85677    85672    85661    85650 
   85637    85621    85608    85599    85592    85594    85604    85619 
   85631    85634    85634    85631    85617    85596    85581    85564 
   85544    85523    85507    85496    85487    85476    85472    85479 
   85492    85506    85526    85549    85568    85590    85614    85639 
   85669    85698    85722    85738    85747    85756    85754    85747 
   85734    85711    85680    85642    85606    85577    85550    85534 
   85531    85534    85544    85552    85557    85571    85592    85599 
   85602    85626    85650    85666    85693    85716    85731    85750 
   85762    85768    85777    85784    85795    85806    85818    85831 
   85841    85842    85835    85824    85818    85806    85791    85784 
   85785    85787    85785    85780    85770    85757    85737    85711 
   85684    85657    85634    85619    85610    85604    85602    85606 
   85612    85614    85611    85610    85607    85604    85596    85588 
   85577    85563    85552    85542    85533    85527    85523    85519 
   85521    85531    85538    85540    85542    85544    85540    85537 
   85537    85537    85537    85542    85546    85548    85553    85552 
   85541    85531    85526    85522    85527    85545    85565    85581 
   85592    85602    85612    85629    85648    85664    85672    85677 
   85676    85668    85664    85662    85656    85654    85661    85662 
   85671    85679    85676    85671    85664    85657    85653    85652 
   85652    85654    85657    85662    85673    85688    85707    85733 
   85758    85774    85785    85795    85801    85800    85793    85788 
   85779    85764    85742    85714    85684    85658    85638    85625 
   85615    85617    85630    85652    85676    85702    85726    85742 
   85752    85758    85758    85750    85738    85720    85696    85666 
   85638    85603    85560    85519    85486    85457    85437    85425 
   85415    85421    85433    85442    85452    85463    85473    85483 
   85494    85506    85517    85519    85525    85530    85527    85522 
   85517    85517    85523    85537    85549    85567    85587    85603 
   85612    85615    85607    85596    85588    85573    85558    85550 
   85545    85541    85541    85552    85569    85587    85604    85622 
   85639    85652    85658    85664    85664    85656    85653    85653 
   85649    85645    85635    85618    85600    85583    85560    85531 
   85502    85476    85452    85428    85405    85390    85380    85379 
   85388    85401    85413    85428    85450    85477    85506    85540 
   85584    85627    85664    85699    85729    85746    85758    85769 
   85776    85779    85774    85770    85768    85761    85757    85753 
   85743    85741    85742    85742    85739    85737    85738    85742 
   85741    85733    85720    85710    85696    85684    85673    85658 
   85639    85618    85592    85564    85540    85527    85526    85526 
   85529    85540    85553    85573    85599    85627    85658    85685 
   85708    85731    85747    85754    85757    85765    85773    85781 
   85791    85803    85811    85814    85816    85824    85839    85860 
   85884    85909    85930    85945    85955    85959    85957    85945 
   85919    85889    85857    85824    85791    85761    85734    85704 
   85676    85649    85622    85595    85569    85545    85529    85515 
   85499    85486    85479    85471    85461    85455    85452    85452 
