Origin Time       2025/06/03 22:18:00
Lat.              41.7
Long.             143.6
Depth. (km)       30
Mag.              5.2
Station Code      IBUH01
Station Lat.      42.8739
Station Long.     141.8191
Station Height(m) -40.6
Record Time       2025/06/03 22:18:59
Sampling Freq(Hz) 100Hz
Duration Time(s)  120
Dir.              2
Scale Factor      2942(gal)/8224139
Max. Acc. (gal)   0.307
Last Correction   2025/06/03 22:18:59
Memo.             
[...]
  -51736   -51734   -51734   -51730   -51732   -51740   -51744   -51744 
  -51749   -51746   -51729   -51709   -51687   -51665   -51646   -51640 
  -51645   -51651   -51657   -51665   -51672   -51675   -51678   -51679 
  -51684   -51692   -51705   -51718   -51730   -51732   -51727   -51721 
  -51710   -51688   -51657   -51619   -51583   -51549   -51518   -51494 
  -51479   -51467   -51456   -51449   -51440   -51433   -51436   -51440 
  -51443   -51447   -51448   -51447   -51452   -51466   -51490   -51522 
  -51552   -51579   -51605   -51625   -51634   -51640   -51642   -51642 
  -51640   -51638   -51638   -51640   -51644   -51652   -51661   -51664 
  -51661   -51655   -51646   -51637   -51636   -51644   -51656   -51668 
  -51680   -51691   -51700   -51706   -51707   -51709   -51711   -51707 
  -51700   -51692   -51682   -51668   -51655   -51645   -51638   -51634 
  -51634   -51638   -51642   -51646   -51646   -51636   -51624   -51609 
  -51595   -51588   -51584   -51579   -51586   -51605   -51622   -51634 
  -51638   -51632   -51629   -51633   -51640   -51648   -51657   -51659 
  -51657   -51659   -51660   -51663   -51664   -51660   -51652   -51645 
  -51640   -51636   -51632   -51636   -51648   -51664   -51676   -51691 
  -51709   -51726   -51745   -51764   -51777   -51786   -51792   -51799 
  -51804   -51804   -51800   -51794   -51790   -51788   -51791   -51795 
  -51796   -51792   -51783   -51768   -51750   -51732   -51714   -51698 
  -51690   -51687   -51686   -51683   -51679   -51671   -51664   -51659 
  -51665   -51680   -51700   -51719   -51733   -51740   -51745   -51749 
  -51749   -51745   -51738   -51725   -51707   -51690   -51676   -51663 
  -51652   -51645   -51629   -51607   -51592   -51594   -51601   -51602 
  -51595   -51588   -51576   -51572   -51584   -51598   -51614   -51636 
  -51656   -51672   -51688   -51696   -51692   -51683   -51672   -51660 
  -51653   -51648   -51638   -51624   -51609   -51595   -51586   -51579 
  -51571   -51561   -51548   -51536   -51530   -51529   -51532   -51538 
  -51541   -51541   -51543   -51545   -51552   -51564   -51576   -51582 
  -51586   -51590   -51595   -51601   -51599   -51584   -51564   -51547 
  -51537   -51536   -51536   -51532   -51528   -51532   -51534   -51540 
  -51543   -51541   -51549   -51559   -51564   -51575   -51587   -51599 
  -51614   -51619   -51610   -51598   -51587   -51582   -51592   -51610 
  -51622   -51632   -51641   -51653   -51672   -51692   -51707   -51722 
  -51741   -51760   -51775   -51783   -51781   -51771   -51757   -51744 
  -51727   -51717   -51718   -51732   -51749   -51768   -51786   -51798 
  -51800   -51791   -51775   -51759   -51740   -51726   -51722   -51714 
  -51695   -51671   -51649   -51632   -51622   -51621   -51618   -51614 
  -51611   -51614   -51624   -51637   -51645   -51652   -51661   -51669 
  -51671   -51668   -51657   -51641   -51628   -51614   -51598   -51582 
  -51564   -51547   -51530   -51517   -51509   -51506   -51518   -51543 
  -51567   -51590   -51617   -51638   -51655   -51669   -51676   -51673 
  -51663   -51651   -51634   -51609   -51576   -51547   -51524   -51509 
  -51506   -51514   -51528   -51548   -51575   -51607   -51644   -51671 
  -51690   -51703   -51717   -51730   -51736   -51734   -51730   -51726 
  -51726   -51726   -51725   -51726   -51726   -51725   -51727   -51732 
  -51725   -51718   -51713   -51705   -51700   -51703   -51702   -51700 
  -51702   -51700   -51695   -51691   -51691   -51691   -51695   -51700 
  -51711   -51725   -51734   -51740   -51738   -51725   -51705   -51684 
  -51663   -51645   -51637   -51644   -51656   -51661   -51663   -51657 
  -51640   -51618   -51605   -51598   -51602   -51618   -51637   -51651 
  -51660   -51667   -51669   -51663   -51648   -51636   -51625   -51618 
  -51622   -51632   -51640   -51646   -51651   -51652   -51644   -51628 
  -51610   -51599   -51594   -51597   -51607   -51619   -51633   -51641 
  -51646   -51653   -51660   -51661   -51660   -51664   -51672   -51686 
  -51702   -51717   -51722   -51722   -51717   -51709   -51706   -51710 
  -51713   -51706   -51690   -51669   -51648   -51632   -51626   -51632 
  -51640   -51644   -51651   -51660   -51664   -51663   -51653   -51637 
  -51625   -51626   -51633   -51637   -51640   -51644   -51640   -51625 
  -51611   -51598   -51582   -51574   -51567   -51560   -51561   -51571 
  -51584   -51599   -51609   -51602   -51591   -51580   -51560   -51536 
  -51518   -51506   -51493   -51487   -51490   -51503   -51522   -51536 
  -51543   -51543   -51538   -51532   -51525   -51514   -51499   -51482 
  -51470   -51467   -51468   -51475   -51484   -51495   -51509   -51528 
  -51556   -51592   -51622   -51640   -51648   -51645   -51629   -51618 
  -51621   -51633   -51651   -51667   -51673   -51678   -51682   -51678 
  -51672   -51671   -51667   -51661   -51660   -51657   -51653   -51648 
  -51641   -51637   -51642   -51655   -51671   -51692   -51717   -51733 
  -51733   -51721   -51710   -51711   -51734   -51768   -51800   -51835 
  -51875   -51904   -51918   -51916   -51899   -51864   -51821   -51772 
  -51721   -51682   -51660   -51655   -51656   -51655   -51646   -51632 
  -51617   -51614   -51617   -51624   -51637   -51660   -51688   -51725 
  -51769   -51817   -51860   -51899   -51922   -51922   -51900   -51862 
  -51821   -51784   -51754   -51729   -51703   -51680   -51663   -51649 
  -51633   -51619   -51611   -51607   -51602   -51595   -51587   -51580 
  -51578   -51571   -51559   -51552   -51555   -51560   -51570   -51583 
  -51592   -51599   -51611   -51633   -51659   -51679   -51683   -51669 
  -51642   -51610   -51580   -51555   -51533   -51513   -51490   -51463 
  -51430   -51395   -51364   -51344   -51331   -51333   -51349   -51378 
  -51409   -51437   -51460   -51490   -51518   -51543   -51559   -51568 
  -51575   -51591   -51609   -51626   -51648   -51660   -51655   -51642 
  -51625   -51592   -51568   -51559   -51563   -51583   -51621   -51659 
  -51688   -51707   -51717   -51714   -51698   -51678   -51664   -51661 
  -51671   -51684   -51696   -51706   -51711   -51714   -51721   -51726 
  -51730   -51734   -51738   -51742   -51746   -51749   -51748   -51744 
  -51736   -51725   -51718   -51717   -51719   -51729   -51742   -51756 
  -51773   -51794   -51807   -51821   -51829   -51825   -51815   -51813 
  -51813   -51810   -51798   -51767   -51726   -51692   -51655   -51610 
  -51568   -51533   -51511   -51507   -51517   -51533   -51537   -51511 
  -51466   -51420   -51382   -51364   -51367   -51379   -51398   -51425 
  -51455   -51482   -51499   -51497   -51474   -51433   -51379   -51322 
  -51277   -51237   -51204   -51185   -51167   -51151   -51144   -51138 
  -51132   -51139   -51146   -51148   -51156   -51173   -51196   -51219 
  -51244   -51268   -51289   -51312   -51337   -51363   -51393   -51418 
  -51435   -51448   -51474   -51509   -51543   -51576   -51609   -51629 
  -51641   -51655   -51669   -51684   -51702   -51723   -51737   -51746 
  -51760   -51779   -51804   -51837   -51876   -51919   -51961   -52007 
  -52060   -52104   -52128   -52134   -52130   -52127   -52130   -52138 
  -52150   -52158   -52155   -52147   -52127   -52097   -52061   -52027 
  -52000   -51979   -51965   -51964   -51966   -51975   -51991   -51999 
  -52006   -52026   -52062   -52104   -52145   -52177   -52205   -52227 
  -52238   -52239   -52220   -52180   -52122   -52058   -52006   -51964 
  -51922   -51879   -51835   -51787   -51741   -51696   -51642   -51592 
  -51557   -51529   -51511   -51495   -51468   -51435   -51402   -51368 
  -51332   -51304   -51294   -51304   -51341   -51408   -51475   -51534 
  -51586   -51618   -51630   -51632   -51621   -51602   -51597   -51613 
  -51636   -51656   -51672   -51679   -51676   -51678   -51686   -51684 
  -51675   -51660   -51634   -51598   -51556   -51514   -51466   -51410 
  -51356   -51320   -51309   -51328   -51379   -51447   -51517   -51580 
  -51634   -51684   -51732   -51775   -51821   -51871   -51922   -51973 
  -52023   -52064   -52087   -52101   -52112   -52115   -52105   -52083 
  -52043   -51993   -51938   -51887   -51840   -51794   -51749   -51706 
  -51663   -51626   -51592   -51560   -51543   -51537   -51537   -51551 
  -51584   -51629   -51678   -51719   -51741   -51748   -51745   -51733 
  -51709   -51680   -51657   -51641   -51629   -51624   -51617   -51605 
  -51595   -51582   -51553   -51514   -51466   -51410   -51366   -51337 
  -51321   -51312   -51302   -51291   -51285   -51285   -51283   -51286 
  -51294   -51301   -51312   -51328   -51336   -51339   -51351   -51363 
  -51374   -51383   -51391   -51394   -51403   -51418   -51429   -51440 
  -51453   -51474   -51516   -51563   -51595   -51615   -51624   -51622 
  -51629   -51644   -51661   -51682   -51700   -51717   -51737   -51765 
  -51800   -51835   -51860   -51869   -51864   -51857   -51862   -51884 
  -51916   -51957   -52000   -52042   -52076   -52080   -52051   -52000 
  -51929   -51849   -51791   -51759   -51748   -51753   -51763   -51764 
  -51768   -51773   -51776   -51777   -51776   -51776   -51773   -51768 
  -51764   -51757   -51750   -51754   -51763   -51769   -51775   -51777 
  -51784   -51806   -51821   -51817   -51802   -51768   -51718   -51665 
  -51607   -51545   -51489   -51435   -51385   -51340   -51297   -51255 
  -51232   -51235   -51260   -51306   -51364   -51426   -51482   -51534 
  -51579   -51610   -51628   -51632   -51622   -51605   -51582   -51557 
  -51540   -51530   -51528   -51536   -51551   -51560   -51571   -51588 
  -51609   -51622   -51617   -51594   -51556   -51516   -51482   -51456 
  -51439   -51437   -51459   -51507   -51580   -51665   -51752   -51833 
  -51891   -51926   -51939   -51927   -51903   -51883   -51871   -51869 
  -51881   -51898   -51915   -51930   -51937   -51935   -51922   -51896 
  -51871   -51853   -51848   -51857   -51883   -51929   -51987   -52037 
  -52070   -52074   -52050   -52003   -51938   -51865   -51792   -51725 
  -51667   -51624   -51602   -51603   -51629   -51671   -51710   -51733 
  -51723   -51686   -51632   -51565   -51503   -51459   -51433   -51418 
  -51413   -51417   -51425   -51432   -51430   -51421   -51413   -51405 
  -51389   -51363   -51331   -51305   -51282   -51260   -51243   -51228 
  -51217   -51214   -51214   -51212   -51212   -51217   -51232   -51258 
  -51297   -51344   -51387   -51418   -51437   -51445   -51441   -51425 
  -51414   -51421   -51435   -51451   -51471   -51482   -51489   -51499 
  -51509   -51509   -51505   -51497   -51489   -51483   -51480   -51472 
  -51462   -51456   -51452   -51441   -51426   -51406   -51381   -51370 
  -51378   -51398   -51428   -51459   -51487   -51514   -51533   -51540 
  -51552   -51580   -51621   -51676   -51745   -51818   -51894   -51968 
  -52037   -52097   -52154   -52201   -52239   -52262   -52265   -52258 
  -52250   -52239   -52224   -52205   -52178   -52141   -52092   -52031 
  -51957   -51876   -51791   -51700   -51614   -51545   -51494   -51471 
  -51476   -51498   -51528   -51553   -51563   -51563   -51556   -51547 
  -51534   -51522   -51514   -51509   -51502   -51487   -51460   -51417 
  -51359   -51289   -51212   -51135   -51062   -51003   -50954   -50916 
  -50895   -50892   -50897   -50907   -50922   -50940   -50963   -50994 
  -51028   -51073   -51132   -51193   -51247   -51305   -51360   -51412 
  -51470   -51522   -51565   -51599   -51628   -51653   -51683   -51718 
  -51757   -51792   -51821   -51845   -51872   -51900   -51926   -51953 
  -51980   -52004   -52026   -52045   -52053   -52045   -52030   -52014 
  -51991   -51966   -51949   -51929   -51899   -51865   -51833   -51807 
  -51787   -51780   -51796   -51829   -51867   -51900   -51929   -51950 
  -51961   -51962   -51956   -51935   -51911   -51889   -51869   -51852 
  -51837   -51827   -51827   -51842   -51873   -51915   -51956   -51984 
  -52000   -52004   -51992   -51966   -51929   -51881   -51833   -51791 
  -51761   -51746   -51730   -51706   -51678   -51656   -51646   -51651 
  -51671   -51706   -51742   -51767   -51781   -51777   -51756   -51725 
  -51694   -51668   -51653   -51648   -51645   -51629   -51598   -51560 
  -51513   -51470   -51444   -51425   -51406   -51390   -51374   -51358 
  -51348   -51343   -51341   -51347   -51363   -51382   -51406   -51444 
  -51487   -51528   -51564   -51594   -51615   -51628   -51629   -51628 
  -51629   -51640   -51661   -51686   -51710   -51730   -51745   -51765 
  -51794   -51821   -51844   -51862   -51872   -51871   -51858   -51845 
  -51829   -51808   -51790   -51765   -51738   -51709   -51672   -51629 
  -51592   -51565   -51544   -51536   -51547   -51575   -51621   -51673 
  -51721   -51754   -51775   -51779   -51776   -51780   -51786   -51788 
  -51796   -51808   -51815   -51819   -51822   -51817   -51806   -51800 
  -51798   -51799   -51804   -51814   -51829   -51845   -51854   -51856 
  -51850   -51837   -51830   -51834   -51841   -51844   -51842   -51830 
  -51810   -51795   -51787   -51781   -51780   -51787   -51804   -51835 
  -51873   -51910   -51949   -51988   -52019   -52042   -52054   -52054 
  -52042   -52018   -51987   -51943   -51892   -51833   -51760   -51682 
  -51605   -51518   -51433   -51355   -51283   -51224   -51181   -51140 
  -51104   -51078   -51069   -51084   -51119   -51159   -51201   -51241 
  -51285   -51329   -51378   -51432   -51491   -51544   -51586   -51618 
  -51638   -51651   -51660   -51656   -51637   -51607   -51564   -51507 
  -51444   -51372   -51289   -51204   -51120   -51035   -50965   -50909 
  -50857   -50819   -50797   -50788   -50801   -50834   -50880   -50939 
  -51012   -51096   -51186   -51282   -51371   -51445   -51513   -51568 
  -51610   -51642   -51672   -51691   -51700   -51706   -51702   -51686 
  -51669   -51661   -51665   -51676   -51680   -51676   -51669   -51669 
  -51676   -51692   -51717   -51748   -51781   -51822   -51867   -51915 
  -51975   -52042   -52115   -52188   -52251   -52308   -52361   -52401 
  -52423   -52424   -52408   -52382   -52348   -52315   -52296   -52289 
  -52292   -52299   -52299   -52289   -52267   -52234   -52191   -52138 
  -52083   -52038   -52002   -51964   -51934   -51907   -51877   -51850 
  -51822   -51792   -51765   -51740   -51719   -51706   -51700   -51695 
  -51687   -51676   -51663   -51644   -51613   -51574   -51532   -51493 
  -51462   -51443   -51433   -51425   -51416   -51413   -51410   -51399 
  -51393   -51389   -51383   -51381   -51381   -51383   -51391   -51403 
  -51410   -51410   -51409   -51409   -51406   -51406   -51403   -51405 
  -51413   -51420   -51418   -51417   -51416   -51410   -51399   -51387 
  -51376   -51370   -51372   -51390   -51420   -51460   -51506   -51548 
  -51588   -51618   -51624   -51615   -51598   -51570   -51541   -51514 
  -51486   -51464   -51448   -51428   -51412   -51403   -51403   -51414 
  -51432   -51453   -51482   -51514   -51551   -51582   -51599   -51611 
  -51624   -51633   -51640   -51649   -51656   -51660   -51664   -51667 
  -51664   -51657   -51646   -51634   -51619   -51609   -51613   -51625 
  -51636   -51646   -51660   -51669   -51678   -51684   -51684   -51678 
  -51669   -51665   -51667   -51669   -51675   -51679   -51682   -51684 
  -51694   -51711   -51734   -51759   -51784   -51811   -51835   -51853 
  -51869   -51889   -51911   -51931   -51938   -51933   -51922   -51908 
  -51887   -51860   -51834   -51819   -51821   -51837   -51867   -51903 
  -51938   -51968   -51988   -52007   -52019   -52023   -52023   -52027 
  -52034   -52043   -52054   -52062   -52061   -52047   -52026   -51993 
  -51952   -51908   -51868   -51831   -51794   -51750   -51711   -51679 
  -51646   -51618   -51595   -51575   -51561   -51555   -51548   -51543 
  -51534   -51525   -51518   -51518   -51528   -51540   -51551   -51563 
  -51570   -51568   -51564   -51556   -51543   -51536   -51534   -51537 
  -51533   -51521   -51501   -51474   -51444   -51420   -51405   -51397 
  -51398   -51403   -51408   -51409   -51408   -51410   -51414   -51417 
  -51418   -51416   -51412   -51413   -51414   -51424   -51440   -51453 
  -51460   -51463   -51452   -51429   -51409   -51391   -51379   -51374 
  -51372   -51368   -51370   -51368   -51359   -51348   -51335   -51316 
  -51297   -51287   -51290   -51312   -51351   -51399   -51449   -51501 
  -51553   -51601   -51637   -51659   -51671   -51673   -51672   -51673 
  -51679   -51683   -51683   -51671   -51649   -51624   -51597   -51561 
  -51521   -51482   -51451   -51440   -51456   -51489   -51543   -51617 
  -51696   -51775   -51852   -51922   -51984   -52037   -52078   -52112 
  -52142   -52166   -52184   -52200   -52216   -52224   -52223   -52213 
  -52191   -52155   -52118   -52076   -52038   -52007   -51977   -51946 
  -51922   -51898   -51869   -51838   -51802   -51756   -51711   -51675 
  -51637   -51599   -51563   -51521   -51486   -51457   -51433   -51413 
  -51390   -51363   -51336   -51305   -51275   -51241   -51197   -51140 
  -51079   -51023   -50978   -50950   -50934   -50926   -50930   -50940 
  -50949   -50957   -50971   -50989   -51008   -51035   -51065   -51102 
  -51147   -51189   -51231   -51274   -51316   -51364   -51417   -51462 
  -51503   -51555   -51610   -51665   -51729   -51800   -51868   -51926 
  -51984   -52038   -52081   -52119   -52150   -52173   -52192   -52204 
  -52204   -52195   -52185   -52181   -52174   -52169   -52170   -52174 
  -52177   -52181   -52189   -52196   -52200   -52203   -52201   -52199 
  -52195   -52193   -52196   -52203   -52209   -52218   -52223   -52219 
  -52205   -52189   -52172   -52150   -52120   -52084   -52043   -51997 
  -51954   -51912   -51872   -51838   -51806   -51777   -51760   -51746 
  -51732   -51719   -51699   -51675   -51655   -51636   -51617   -51601 
  -51582   -51565   -51557   -51559   -51564   -51570   -51575   -51579 
  -51576   -51570   -51555   -51533   -51509   -51490   -51471   -51447 
  -51421   -51395   -51364   -51335   -51305   -51268   -51228   -51189 
  -51154   -51121   -51093   -51074   -51065   -51055   -51051   -51047 
  -51040   -51034   -51024   -51011   -50993   -50971   -50951   -50934 
  -50922   -50922   -50939   -50971   -51009   -51052   -51090   -51125 
  -51152   -51177   -51202   -51229   -51262   -51302   -51345   -51386 
  -51422   -51460   -51495   -51524   -51552   -51580   -51606   -51633 
  -51669   -51711   -51757   -51807   -51856   -51900   -51938   -51970 
  -51993   -52004   -52010   -52014   -52015   -52018   -52015   -52006 
  -51995   -51981   -51965   -51946   -51925   -51900   -51879   -51858 
  -51840   -51826   -51818   -51815   -51817   -51819   -51825   -51830 
  -51840   -51852   -51869   -51892   -51919   -51938   -51948   -51958 
  -51977   -51999   -52023   -52042   -52049   -52046   -52038   -52019 
  -51989   -51960   -51934   -51899   -51858   -51818   -51773   -51726 
  -51680   -51636   -51597   -51563   -51533   -51513   -51506   -51503 
  -51502   -51502   -51498   -51490   -51486   -51489   -51493   -51502 
  -51517   -51533   -51555   -51576   -51599   -51624   -51644   -51661 
  -51691   -51725   -51761   -51803   -51846   -51887   -51921   -51948 
  -51973   -51999   -52022   -52043   -52070   -52089   -52095   -52092 
  -52087   -52072   -52054   -52041   -52027   -52014   -52004   -51992 
  -51975   -51961   -51943   -51918   -51888   -51858   -51823   -51786 
  -51752   -51718   -51683   -51651   -51614   -51574   -51537   -51509 
