Origin Time       2025/06/03 22:18:00
Lat.              41.7
Long.             143.6
Depth. (km)       30
Mag.              5.2
Station Code      IBUH05
Station Lat.      42.5629
Station Long.     141.3497
Station Height(m) 20
Record Time       2025/06/03 22:19:26
Sampling Freq(Hz) 100Hz
Duration Time(s)  120
Dir.              4
Scale Factor      7845(gal)/8223790
Max. Acc. (gal)   0.367
Last Correction   2025/06/03 22:19:27
Memo.             
[...]
     963      950      926      919      931      961      984      980 
     961      945      939      957      993     1027     1030     1009 
     992      976      961      965      977      978      965      946 
     934      928      930      950      980      994      992      988 
     990      999     1011     1026     1035     1030     1004      972 
     962      967      962      954      947      926      891      882 
     905      926      931      926      905      882      877      892 
     908      912      909      901      900      909      923      927 
     912      895      889      903      926      947      959      957 
     939      915      908      927      955      976      974      958 
     946      955      974      984      978      963      940      918 
     911      909      901      891      892      909      928      943 
     949      935      920      918      923      940      966      969 
     949      935      943      963      988     1004     1004      989 
     977      988     1015     1036     1038     1020     1001      994 
     990      981      957      919      885      881      903      919 
     912      892      885      901      930      958      977      981 
     981      993     1011     1019     1019     1007      994      988 
     978      970      962      947      932      931      936      945 
     949      939      927      913      901      911      939      959 
     966      969      974      986      989      982      974      949 
     900      865      862      865      868      891      923      935 
     947      976      990      985      980      980      985      986 
     977      965      953      934      909      896      901      911 
     911      908      911      909      901      908      938      967 
     976      962      940      930      943      982     1023     1046 
    1048     1021      986      973      980      986      981      959 
     936      926      936      959      962      940      922      915 
     911      928      973     1011     1017     1005      988      969 
     950      945      949      953      953      951      954      963 
     972      974      966      950      931      918      911      918 
     928      931      930      920      904      893      893      891 
     895      911      926      932      930      919      920      938 
     955      967      977      984      992      999      992      972 
     962      970      982      982      970      949      922      909 
     928      961      973      963      946      930      928      946 
     969      978      977      973      969      976      993      997 
     982      959      926      893      882      892      901      897 
     889      882      873      864      870      896      909      905 
     911      924      932      943      967      986      988      967 
     935      908      908      926      949      966      962      953 
     958      970      978      982      970      961      973      988 
    1000     1013     1019     1019     1032     1048     1043     1016 
     988      969      967      977      981      978      973      966 
     961      969      980      977      958      943      936      922 
     907      913      920      905      897      918      946      977 
    1013     1032     1023      996      962      935      920      916 
     918      923      936      942      928      916      922      928 
     932      945      959      957      940      931      935      940 
     946      946      945      951      955      951      962      982 
     990      996     1000      985      959      945      935      919 
     901      891      897      913      920      915      911      905 
     903      918      942      951      954      959      969      982 
    1005     1020     1007      974      951      951      973      988 
     988      974      953      932      927      940      959      977 
     992      993      980      957      930      916      934      972 
     997      990      965      954      963      984     1003     1003 
     980      947      928      940      970      974      947      922 
     912      909      912      911      892      854      834      850 
     878      901      923      930      918      909      918      930 
     945      957      953      936      927      927      918      897 
     880      866      858      855      864      880      897      909 
     923      935      949      958      958      961      977      997 
    1012     1027     1043     1050     1051     1058     1058     1050 
    1053     1058     1048     1038     1040     1040     1023     1005 
     997     1001     1013     1013      992      958      930      931 
     972     1016     1015      970      935      928      922      907 
     892      865      816      777      776      796      818      828 
     834      853      882      909      939      966      976      969 
     970      988     1005     1009     1001     1005     1030     1053 
    1061     1053     1028      997      986     1000     1019     1021 
    1004      990      986      969      954      965      967      942 
     909      895      880      855      832      816      818      851 
     911      974     1012     1004      970      961      980      993 
     992      982      965      949      951      972      981      953 
     912      901      930      954      951      936      931      938 
     963     1003     1032     1028     1008      999     1017     1051 
    1074     1078     1074     1063     1035     1005      988      966 
     936      913      907      912      915      905      892      878 
     861      847      853      878      904      922      943      966 
     970      957      953      966      982      994     1008     1019 
    1004      965      934      934      946      946      943      947 
     950      949      961      986      994      969      947      951 
     957      943      934      940      945      947      973     1000 
     997      965      938      942      966      967      943      927 
     927      935      970     1028     1069     1055     1013      993 
    1001     1001      986      978      958      918      899      913 
     931      924      905      900      904      897      881      862 
     831      787      741      739      785      826      837      819 
     777      742      741      768      808      831      819      791 
     777      784      810      845      865      859      847      835 
     834      850      862      864      880      911      943      981 
    1027     1053     1043     1027     1034     1058     1084     1104 
    1120     1136     1134     1112     1101     1102     1081     1038 
     997      973      954      939      945      977     1013     1007 
     961      920      892      881      908      955      978      973 
     957      949      953      970      994     1008     1003      976 
     951      947      955      959      953      935      924      919 
     912      913      928      927      895      865      872      901 
     920      940      969      984      982      984      989      977 
     932      880      845      818      792      785      804      822 
     831      850      874      895      900      893      891      903 
     913      920      947      985     1004     1021     1055     1074 
    1059     1035     1034     1051     1063     1061     1048     1036 
    1026     1019     1024     1030     1012      976      949      949 
     969      989     1004     1015     1005      982      976      988 
     990      981      986     1000     1015     1050     1105     1156 
    1186     1186     1155     1127     1127     1129     1124     1123 
    1112     1082     1062     1070     1077     1048     1009      992 
     976      951      935      946      980     1012     1036     1057 
    1063     1057     1062     1088     1119     1131     1116     1089 
    1073     1059     1039     1023     1011      977      924      881 
     858      837      803      768      739      712      683      665 
     669      679      691      724      795      888      955      974 
     973      967      951      943      949      916      850      816 
     832      851      846      834      832      839      854      880 
     909      920      899      859      846      855      865      872 
     885      909      926      934      972     1027     1047     1031 
    1016     1012     1009     1012     1015      989      926      861 
     827      811      787      747      720      714      712      724 
     765      827      884      927      967     1017     1065     1098 
    1132     1165     1170     1146     1127     1135     1148     1146 
    1125     1094     1057     1008      950      895      841      770 
     707      685      696      708      715      724      742      757 
     777      826      888      916      934      989     1059     1111 
    1136     1140     1128     1107     1090     1080     1069     1046 
    1000      951      930      923      918      935      999     1066 
    1085     1085     1098     1093     1062     1040     1038     1042 
    1036     1016      993      970      935      891      861      838 
     812      818      857      884      886      881      888      928 
     988     1023     1031     1024     1007      997     1026     1089 
    1139     1152     1151     1155     1162     1161     1158     1162 
    1156     1140     1124     1107     1084     1055     1039     1051 
    1063     1042     1001      974      951      919      896      895 
     885      850      804      774      773      776      773      801 
     859      896      905      927      949      926      872      830 
     796      747      692      668      679      696      718      768 
     826      854      859      876      899      899      885      882 
     893      896      891      901      930      943      931      918 
     916      911      912      958     1044     1117     1121     1063 
     992      918      837      783      766      745      699      666 
     693      769      842      881      909      945      976     1017 
    1085     1142     1147     1120     1109     1123     1124     1094 
    1061     1035     1012     1001     1028     1078     1101     1094 
    1098     1116     1112     1080     1044     1023     1007     1000 
    1016     1046     1046     1007      963      955      966      969 
     959      961      978     1000     1035     1097     1144     1131 
    1088     1054     1030     1003      969      926      858      776 
     718      715      745      753      723      699      711      747 
     808      895      973     1020     1061     1120     1189     1239 
    1239     1208     1171     1127     1086     1082     1089     1063 
    1005      949      911      877      845      827      819      784 
     727      693      688      685      683      693      715      726 
     707      672      657      658      665      685      714      720 
     712      714      741      784      834      885      947     1020 
    1065     1070     1063     1055     1043     1046     1082     1132 
    1162     1161     1135     1096     1051     1009      978      953 
     912      862      846      886      940      982     1005     1007 
     988      970      984     1028     1073     1100     1117     1132 
    1138     1132     1128     1146     1170     1159     1104     1040 
     989      945      926      949      997     1034     1042     1047 
    1057     1047     1024     1021     1032     1027     1000      988 
     993      988      967      951      950      954      954      965 
     978      967      939      934      954      957      930      900 
     881      853      804      768      778      808      819      831 
     864      889      897      911      936      949      936      923 
     932      943      913      868      846      838      819      812 
     841      886      918      935      967     1001      999      978 
     978      989      993     1011     1053     1092     1088     1043 
     992      958      945      955     1001     1057     1085     1081 
    1070     1055     1023      978      942      922      911      911 
     935      980     1007     1004      990      966      920      862 
     819      803      797      788      789      814      839      834 
     824      841      865      881      903      943      988     1023 
    1048     1077     1096     1082     1044     1009      969      909 
     845      808      805      812      814      822      854      903 
     950     1005     1065     1105     1128     1156     1185     1183 
    1144     1096     1058     1008      942      901      899      900 
     884      872      881      888      884      893      913      916 
     889      854      839      846      862      876      897      928 
     945      953      989     1050     1085     1093     1112     1123 
    1101     1070     1046     1026      999      958      930      927 
     926      911      899      892      877      862      881      936 
     990     1027     1063     1096     1102     1082     1071     1084 
    1075     1035      992      962      943      942      963      990 
     997      967      928      913      909      872      818      774 
     730      670      611      580      572      565      568      611 
     685      743      780      823      872      897      900      913 
     958      996     1004     1019     1046     1058     1063     1092 
    1132     1156     1151     1136     1127     1116     1104     1108 
    1123     1109     1048      982      946      939      947      969 
     999     1015      996      973      999     1050     1084     1102 
    1124     1113     1050      985      966      970      946      901 
     873      853      815      773      761      768      754      741 
     765      816      857      873      873      864      850      842 
     878      949      982      963      935      920      905      892 
     912      963      997      993      996     1023     1036     1021 
    1015     1043     1086     1121     1154     1179     1181     1161 
    1136     1132     1142     1123     1078     1057     1057     1061 
    1088     1132     1154     1138     1098     1073     1070     1067 
    1057     1057     1066     1050     1015     1000     1001      981 
     947      936      957      961      930      908      922      946 
     953      949      939      897      827      776      762      758 
     746      739      756      778      787      796      816      827 
     820      830      880      934      963     1000     1051     1084 
    1063     1000      945      907      861      832      846      862 
     843      811      818      865      905      923      943      980 
    1017     1050     1109     1175     1190     1162     1146     1155 
    1170     1166     1139     1094     1039      981      946      946 
     945      909      874      866      861      851      858      873 
     882      880      872      882      907      903      888      907 
     938      947      965     1015     1057     1063     1061     1065 
    1058     1008      932      884      866      841      811      796 
     784      760      737      741      757      750      715      687 
     685      696      703      715      733      734      716      711 
     737      776      805      835      870      891      893      905 
     946      994     1008      999     1001      990      954      930 
     927      931      930      932      962      996      999      994 
    1009     1027     1030     1017     1003      986      936      866 
     830      834      830      818      838      880      919      970 
    1044     1120     1150     1132     1109     1104     1093     1059 
    1027     1009      986      966      976     1011     1035     1023 
     997      992     1001     1008     1021     1053     1073     1055 
    1027     1023     1019      989      958      946      934      907 
     881      876      882      892      919      981     1048     1067 
    1050     1048     1058     1055     1050     1047     1028      970 
     895      842      824      820      816      831      859      866 
     854      865      903      931      936      949      970      957 
     907      866      850      842      845      865      895      913 
     915      931      984     1054     1101     1129     1151     1156 
    1146     1135     1134     1116     1061      990      951      934 
     912      903      912      918      907      900      920      959 
     981      965      942      920      874      832      827      837 
     823      791      774      792      822      842      865      908 
     949      972     1000     1050     1093     1113     1123     1136 
    1134     1105     1084     1090     1094     1082     1075     1080 
    1081     1073     1073     1104     1150     1167     1161     1154 
    1127     1077     1042     1038     1047     1038     1009      990 
     985      959      919      892      886      893      918      973 
    1047     1085     1075     1074     1101     1128     1136     1139 
    1131     1094     1040     1004      994      980      949      920 
     915      907      878      861      868      873      859      845 
     846      849      826      793      788      789      762      738 
     751      773      777      788      828      869      872      851 
     843      843      832      820      831      847      837      810 
     797      801      803      797      811      849      877      886 
     909      953      977      972      969      982      981      962 
     953      951      942      930      932      955      972      967 
     974     1011     1058     1088     1104     1120     1125     1096 
    1058     1044     1040     1017      990      993     1009     1005 
     988      973      943      885      818      772      745      704 
     656      634      648      654      642      642      657      653 
     643      666      720      764      787      816      859      888 
     892      897      920      936      938      953      988     1015 
    1024     1034     1047     1036      990      955      961      982 
     984      985     1011     1042     1048     1055     1090     1136 
    1155     1165     1190     1216     1213     1206     1219     1219 
    1190     1163     1152     1146     1129     1096     1057     1016 
     965      905      874      880      885      872      862      858 
     841      818      812      832      855      866      876      900 
     916      919      924      945      959      951      946      965 
     985      992     1009     1061     1115     1128     1125     1146 
    1161     1136     1100     1069     1026      963      909      896 
     901      888      870      876      892      900      907      935 
     976      992      986     1000     1038     1063     1066     1070 
    1077     1057     1016      999     1015     1031     1020     1009 
    1012     1005      984      977      993      996      969      943 
