Origin Time       2025/06/03 22:18:00
Lat.              41.7
Long.             143.6
Depth. (km)       30
Mag.              5.2
Station Code      IBUH06
Station Lat.      42.4116
Station Long.     141.0017
Station Height(m) -162
Record Time       2025/06/03 22:19:35
Sampling Freq(Hz) 100Hz
Duration Time(s)  120
Dir.              3
Scale Factor      2942(gal)/8224139
Max. Acc. (gal)   0.095
Last Correction   2025/06/03 22:19:36
Memo.             
 -115809  -115809  -115809  -115808  -115797  -115789  -115793  -115792 
 -115782  -115769  -115758  -115755  -115753  -115750  -115744  -115727 
 -115717  -115728  -115742  -115742  -115731  -115723  -115727  -115734 
 -115740  -115742  -115724  -115707  -115707  -115717  -115734  -115753 
 -115762  -115757  -115747  -115738  -115732  -115742  -115759  -115774 
 -115778  -115776  -115774  -115773  -115763  -115751  -115738  -115723 
 -115727  -115727  -115708  -115690  -115688  -115692  -115707  -115731 
 -115751  -115758  -115765  -115782  -115798  -115797  -115793  -115803 
 -115813  -115813  -115812  -115820  -115830  -115839  -115843  -115831 
 -115805  -115792  -115801  -115811  -115792  -115759  -115750  -115754 
 -115747  -115747  -115766  -115780  -115784  -115780  -115770  -115765 
 -115762  -115744  -115719  -115715  -115738  -115767  -115782  -115777 
 -115762  -115754  -115751  -115753  -115765  -115778  -115781  -115778 
 -115774  -115771  -115770  -115763  -115744  -115709  -115685  -115699 
 -115730  -115746  -115757  -115777  -115796  -115793  -115769  -115755 
 -115763  -115773  -115773  -115763  -115757  -115761  -115766  -115765 
 -115766  -115774  -115774  -115762  -115753  -115749  -115751  -115750 
 -115746  -115749  -115754  -115755  -115763  -115771  -115773  -115776 
 -115774  -115770  -115778  -115790  -115789  -115773  -115755  -115750 
 -115754  -115755  -115743  -115730  -115727  -115730  -115728  -115722 
 -115717  -115719  -115716  -115717  -115724  -115722  -115717  -115717 
 -115713  -115723  -115738  -115736  -115742  -115769  -115794  -115809 
 -115819  -115820  -115811  -115808  -115816  -115811  -115792  -115780 
 -115770  -115762  -115762  -115763  -115763  -115763  -115758  -115762 
 -115776  -115776  -115784  -115805  -115808  -115797  -115786  -115773 
 -115773  -115780  -115785  -115800  -115798  -115770  -115750  -115743 
 -115735  -115742  -115761  -115763  -115759  -115761  -115766  -115784 
 -115803  -115805  -115798  -115790  -115796  -115813  -115812  -115782 
 -115758  -115761  -115767  -115759  -115750  -115749  -115747  -115732 
 -115709  -115703  -115722  -115738  -115742  -115744  -115747  -115755 
 -115766  -115771  -115774  -115774  -115769  -115765  -115759  -115746 
 -115735  -115726  -115716  -115717  -115715  -115699  -115700  -115723 
 -115727  -115709  -115689  -115682  -115689  -115709  -115749  -115776 
 -115767  -115754  -115754  -115758  -115758  -115758  -115750  -115744 
 -115753  -115762  -115777  -115798  -115807  -115812  -115827  -115835 
 -115839  -115843  -115838  -115830  -115827  -115825  -115821  -115803 
 -115781  -115785  -115813  -115840  -115855  -115843  -115811  -115781 
 -115765  -115740  -115720  -115707  -115689  -115670  -115661  -115658 
 -115658  -115657  -115661  -115672  -115688  -115703  -115707  -115707 
 -115708  -115723  -115751  -115774  -115781  -115780  -115780  -115786 
 -115790  -115792  -115797  -115788  -115763  -115757  -115757  -115739 
 -115716  -115713  -115734  -115735  -115726  -115740  -115754  -115753 
 -115762  -115774  -115782  -115794  -115798  -115801  -115796  -115781 
 -115758  -115728  -115713  -115722  -115726  -115715  -115711  -115723 
 -115728  -115713  -115711  -115734  -115750  -115740  -115744  -115763 
 -115763  -115765  -115771  -115763  -115757  -115747  -115736  -115735 
 -115727  -115716  -115707  -115682  -115665  -115670  -115684  -115701 
 -115723  -115744  -115769  -115789  -115793  -115786  -115797  -115819 
 -115827  -115830  -115827  -115811  -115801  -115800  -115804  -115805 
 -115797  -115790  -115794  -115789  -115767  -115755  -115744  -115726 
 -115724  -115730  -115727  -115746  -115782  -115807  -115815  -115815 
 -115816  -115812  -115797  -115790  -115792  -115788  -115788  -115784 
 -115761  -115749  -115759  -115765  -115757  -115751  -115757  -115759 
 -115747  -115736  -115744  -115759  -115767  -115777  -115778  -115769 
 -115770  -115771  -115765  -115776  -115788  -115776  -115763  -115774 
 -115784  -115780  -115771  -115757  -115744  -115749  -115746  -115734 
 -115739  -115769  -115800  -115815  -115813  -115804  -115788  -115776 
 -115778  -115785  -115785  -115778  -115759  -115732  -115716  -115713 
 -115715  -115716  -115712  -115701  -115686  -115669  -115665  -115682 
 -115693  -115700  -115713  -115723  -115739  -115763  -115776  -115777 
 -115776  -115769  -115767  -115769  -115776  -115785  -115780  -115769 
 -115765  -115758  -115751  -115767  -115801  -115830  -115832  -115817 
 -115797  -115793  -115800  -115786  -115763  -115759  -115757  -115754 
 -115755  -115749  -115740  -115742  -115742  -115732  -115719  -115712 
 -115709  -115709  -115713  -115719  -115738  -115758  -115761  -115754 
 -115755  -115757  -115758  -115763  -115754  -115731  -115716  -115716 
 -115722  -115731  -115736  -115739  -115743  -115739  -115744  -115766 
 -115781  -115789  -115807  -115821  -115816  -115798  -115786  -115776 
 -115770  -115773  -115774  -115771  -115767  -115759  -115761  -115778 
 -115796  -115812  -115819  -115812  -115811  -115813  -115807  -115803 
 -115798  -115781  -115773  -115769  -115750  -115728  -115712  -115705 
 -115712  -115724  -115720  -115700  -115693  -115715  -115738  -115744 
 -115753  -115773  -115796  -115809  -115809  -115808  -115809  -115801 
 -115785  -115778  -115769  -115757  -115759  -115765  -115758  -115753 
 -115751  -115753  -115767  -115781  -115767  -115749  -115753  -115754 
 -115740  -115720  -115707  -115711  -115724  -115731  -115730  -115731 
 -115743  -115747  -115739  -115732  -115734  -115738  -115736  -115735 
 -115746  -115755  -115762  -115771  -115771  -115773  -115786  -115788 
 -115778  -115771  -115767  -115761  -115753  -115747  -115738  -115728 
 -115728  -115740  -115751  -115751  -115744  -115731  -115720  -115727 
 -115727  -115707  -115695  -115695  -115695  -115700  -115709  -115719 
 -115735  -115753  -115777  -115800  -115804  -115804  -115804  -115790 
 -115776  -115769  -115773  -115793  -115809  -115816  -115815  -115800 
 -115780  -115778  -115790  -115789  -115777  -115762  -115747  -115746 
 -115739  -115713  -115690  -115678  -115685  -115709  -115726  -115724 
 -115722  -115716  -115707  -115703  -115712  -115739  -115774  -115798 
 -115811  -115819  -115813  -115801  -115797  -115794  -115790  -115792 
 -115789  -115770  -115755  -115755  -115746  -115731  -115728  -115736 
 -115757  -115785  -115796  -115781  -115762  -115757  -115770  -115780 
 -115762  -115739  -115734  -115735  -115738  -115736  -115731  -115731 
 -115734  -115743  -115761  -115763  -115757  -115758  -115767  -115792 
 -115834  -115858  -115840  -115819  -115825  -115839  -115843  -115838 
 -115825  -115807  -115790  -115788  -115797  -115803  -115790  -115763 
 -115732  -115717  -115730  -115751  -115763  -115753  -115727  -115715 
 -115731  -115750  -115747  -115735  -115738  -115746  -115758  -115780 
 -115789  -115788  -115792  -115793  -115800  -115809  -115813  -115808 
 -115789  -115777  -115782  -115778  -115761  -115750  -115744  -115732 
 -115728  -115734  -115723  -115707  -115699  -115700  -115715  -115730 
 -115724  -115709  -115696  -115686  -115684  -115672  -115655  -115663 
 -115695  -115735  -115784  -115823  -115835  -115821  -115807  -115796 
 -115784  -115774  -115767  -115770  -115778  -115770  -115744  -115717 
 -115699  -115690  -115697  -115705  -115703  -115695  -115688  -115690 
 -115707  -115722  -115728  -115731  -115726  -115711  -115697  -115686 
 -115661  -115646  -115658  -115673  -115690  -115715  -115734  -115740 
 -115749  -115761  -115769  -115769  -115763  -115762  -115767  -115769 
 -115766  -115762  -115763  -115759  -115738  -115701  -115680  -115688 
 -115712  -115731  -115747  -115759  -115757  -115762  -115788  -115808 
 -115804  -115782  -115763  -115765  -115784  -115797  -115811  -115823 
 -115820  -115808  -115797  -115781  -115774  -115792  -115816  -115827 
 -115836  -115831  -115803  -115785  -115790  -115796  -115803  -115816 
 -115825  -115827  -115821  -115809  -115798  -115796  -115790  -115785 
 -115793  -115809  -115824  -115821  -115798  -115773  -115759  -115746 
 -115739  -115746  -115761  -115771  -115771  -115765  -115758  -115762 
 -115784  -115812  -115834  -115836  -115819  -115794  -115770  -115761 
 -115766  -115770  -115770  -115778  -115786  -115784  -115771  -115757 
 -115749  -115746  -115743  -115750  -115770  -115789  -115808  -115828 
 -115846  -115863  -115882  -115890  -115885  -115878  -115869  -115842 
 -115808  -115782  -115761  -115749  -115749  -115750  -115754  -115758 
 -115767  -115792  -115819  -115831  -115821  -115794  -115761  -115727 
 -115701  -115684  -115669  -115653  -115635  -115614  -115603  -115612 
 -115624  -115641  -115673  -115704  -115713  -115704  -115692  -115681 
 -115674  -115688  -115707  -115711  -115720  -115743  -115761  -115770 
 -115782  -115793  -115805  -115811  -115794  -115786  -115808  -115836 
 -115861  -115878  -115875  -115865  -115854  -115832  -115807  -115798 
 -115804  -115805  -115807  -115825  -115850  -115859  -115861  -115859 
 -115857  -115850  -115832  -115812  -115805  -115797  -115771  -115751 
 -115746  -115734  -115720  -115722  -115728  -115732  -115734  -115727 
 -115703  -115672  -115655  -115659  -115661  -115655  -115643  -115619 
 -115601  -115605  -115607  -115609  -115623  -115639  -115665  -115707 
 -115744  -115762  -115766  -115777  -115804  -115824  -115839  -115862 
 -115888  -115908  -115927  -115942  -115948  -115942  -115931  -115929 
 -115925  -115906  -115889  -115885  -115878  -115870  -115865  -115862 
 -115866  -115873  -115873  -115866  -115844  -115815  -115797  -115794 
 -115788  -115776  -115766  -115753  -115723  -115684  -115658  -115642 
 -115622  -115601  -115593  -115587  -115573  -115570  -115580  -115585 
 -115596  -115616  -115634  -115639  -115650  -115677  -115709  -115730 
 -115723  -115682  -115647  -115635  -115634  -115634  -115642  -115658 
 -115681  -115696  -115703  -115717  -115730  -115724  -115726  -115731 
 -115716  -115703  -115716  -115740  -115767  -115784  -115784  -115792 
 -115820  -115851  -115877  -115898  -115912  -115911  -115897  -115874 
 -115850  -115843  -115846  -115831  -115805  -115798  -115813  -115836 
 -115857  -115869  -115863  -115848  -115838  -115820  -115794  -115766 
 -115735  -115712  -115704  -115692  -115681  -115686  -115695  -115701 
 -115734  -115797  -115866  -115915  -115932  -115928  -115916  -115905 
 -115890  -115871  -115848  -115827  -115807  -115793  -115785  -115776 
 -115761  -115754  -115749  -115736  -115719  -115707  -115708  -115717 
 -115727  -115732  -115740  -115761  -115786  -115796  -115782  -115762 
 -115744  -115739  -115747  -115751  -115749  -115759  -115782  -115793 
 -115800  -115816  -115820  -115808  -115801  -115805  -115805  -115792 
 -115780  -115774  -115758  -115744  -115743  -115734  -115711  -115695 
 -115692  -115692  -115696  -115696  -115688  -115689  -115708  -115732 
 -115751  -115763  -115770  -115776  -115788  -115804  -115803  -115780 
 -115762  -115763  -115761  -115744  -115731  -115719  -115696  -115658 
 -115620  -115588  -115554  -115519  -115497  -115497  -115520  -115554 
 -115589  -115634  -115696  -115761  -115819  -115874  -115911  -115911 
 -115890  -115877  -115866  -115850  -115823  -115798  -115798  -115803 
 -115794  -115794  -115801  -115819  -115851  -115867  -115863  -115858 
 -115848  -115851  -115873  -115889  -115888  -115875  -115850  -115813 
 -115773  -115744  -115744  -115765  -115782  -115789  -115777  -115761 
 -115762  -115767  -115766  -115776  -115792  -115801  -115790  -115758 
 -115728  -115708  -115689  -115663  -115632  -115607  -115604  -115614 
 -115626  -115651  -115686  -115719  -115744  -115762  -115767  -115767 
 -115777  -115794  -115809  -115834  -115863  -115881  -115882  -115875 
 -115870  -115871  -115875  -115874  -115866  -115850  -115823  -115807 
 -115811  -115809  -115784  -115759  -115749  -115740  -115731  -115727 
 -115727  -115738  -115770  -115812  -115836  -115835  -115827  -115819 
 -115811  -115796  -115771  -115750  -115738  -115724  -115703  -115686 
 -115685  -115684  -115680  -115681  -115689  -115700  -115727  -115766 
 -115793  -115800  -115804  -115813  -115811  -115782  -115743  -115712 
 -115680  -115654  -115642  -115636  -115649  -115682  -115722  -115750 
 -115762  -115763  -115762  -115757  -115749  -115754  -115778  -115801 
 -115813  -115828  -115843  -115847  -115835  -115812  -115785  -115758 
 -115728  -115701  -115686  -115674  -115659  -115657  -115662  -115663 
 -115662  -115666  -115682  -115715  -115755  -115786  -115800  -115803 
 -115794  -115788  -115793  -115804  -115807  -115807  -115807  -115793 
 -115776  -115754  -115724  -115709  -115713  -115722  -115734  -115757 
 -115790  -115816  -115824  -115825  -115828  -115824  -115813  -115797 
 -115777  -115761  -115754  -115751  -115751  -115753  -115753  -115747 
 -115739  -115738  -115732  -115716  -115707  -115719  -115739  -115750 
 -115753  -115755  -115759  -115753  -115736  -115726  -115720  -115717 
 -115732  -115755  -115762  -115751  -115740  -115722  -115703  -115711 
 -115742  -115770  -115788  -115808  -115834  -115851  -115863  -115875 
 -115893  -115915  -115921  -115908  -115884  -115848  -115820  -115816 
 -115823  -115832  -115847  -115861  -115866  -115865  -115859  -115835 
 -115798  -115773  -115747  -115719  -115707  -115693  -115678  -115681 
 -115689  -115682  -115676  -115677  -115680  -115676  -115669  -115674 
 -115688  -115707  -115736  -115766  -115789  -115823  -115863  -115897 
 -115911  -115886  -115843  -115798  -115744  -115686  -115650  -115630 
 -115605  -115595  -115604  -115620  -115639  -115657  -115674  -115692 
 -115711  -115727  -115744  -115759  -115774  -115800  -115817  -115821 
 -115825  -115825  -115816  -115811  -115808  -115804  -115803  -115803 
 -115804  -115813  -115827  -115834  -115828  -115824  -115827  -115821 
 -115807  -115796  -115782  -115758  -115722  -115688  -115677  -115680 
 -115676  -115665  -115654  -115649  -115650  -115649  -115650  -115670 
 -115699  -115719  -115730  -115744  -115761  -115771  -115777  -115782 
 -115792  -115796  -115804  -115817  -115821  -115827  -115835  -115831 
 -115823  -115813  -115804  -115813  -115835  -115843  -115832  -115817 
 -115809  -115809  -115815  -115816  -115812  -115808  -115804  -115790 
 -115774  -115759  -115751  -115754  -115747  -115728  -115719  -115713 
 -115711  -115728  -115763  -115789  -115801  -115819  -115852  -115885 
 -115898  -115898  -115894  -115884  -115867  -115847  -115823  -115803 
 -115794  -115781  -115751  -115727  -115717  -115712  -115700  -115688 
 -115681  -115670  -115654  -115638  -115619  -115607  -115603  -115596 
 -115599  -115616  -115628  -115624  -115615  -115616  -115638  -115673 
 -115701  -115727  -115763  -115809  -115850  -115875  -115885  -115894 
 -115894  -115870  -115842  -115817  -115793  -115773  -115759  -115753 
 -115749  -115754  -115767  -115770  -115761  -115753  -115747  -115736 
 -115735  -115753  -115763  -115759  -115765  -115780  -115782  -115777 
 -115773  -115771  -115766  -115769  -115780  -115790  -115800  -115797 
 -115776  -115753  -115740  -115739  -115740  -115738  -115735  -115747 
 -115769  -115790  -115808  -115827  -115842  -115852  -115863  -115863 
 -115854  -115848  -115844  -115827  -115803  -115784  -115776  -115770 
 -115763  -115765  -115774  -115793  -115821  -115848  -115862  -115869 
 -115870  -115871  -115870  -115865  -115861  -115863  -115852  -115827 
 -115805  -115789  -115780  -115782  -115788  -115790  -115793  -115790 
 -115786  -115774  -115755  -115730  -115697  -115661  -115627  -115608 
 -115601  -115593  -115589  -115596  -115601  -115615  -115635  -115649 
 -115658  -115676  -115696  -115707  -115708  -115712  -115727  -115751 
 -115780  -115801  -115803  -115788  -115771  -115762  -115767  -115780 
 -115792  -115813  -115844  -115869  -115879  -115893  -115900  -115898 
 -115897  -115881  -115857  -115840  -115823  -115812  -115816  -115823 
 -115828  -115832  -115824  -115816  -115816  -115809  -115792  -115776 
 -115761  -115744  -115731  -115720  -115705  -115686  -115672  -115666 
 -115668  -115666  -115659  -115658  -115657  -115657  -115665  -115681 
 -115703  -115735  -115766  -115777  -115780  -115792  -115800  -115797 
 -115800  -115812  -115830  -115842  -115840  -115830  -115821  -115805 
 -115774  -115751  -115742  -115738  -115739  -115750  -115754  -115747 
 -115735  -115719  -115709  -115708  -115704  -115696  -115697  -115700 
 -115705  -115723  -115750  -115778  -115801  -115815  -115817  -115812 
 -115789  -115754  -115728  -115703  -115670  -115651  -115645  -115635 
 -115627  -115627  -115636  -115649  -115665  -115682  -115701  -115713 
 -115720  -115738  -115759  -115766  -115763  -115762  -115765  -115769 
 -115776  -115788  -115803  -115815  -115817  -115811  -115809  -115817 
 -115821  -115819  -115815  -115817  -115825  -115827  -115816  -115804 
 -115788  -115769  -115757  -115750  -115739  -115736  -115742  -115749 
 -115761  -115770  -115778  -115796  -115804  -115800  -115804  -115817 
 -115821  -115820  -115821  -115824  -115825  -115823  -115813  -115796 
 -115771  -115750  -115736  -115726  -115715  -115700  -115686  -115677 
 -115672  -115674  -115693  -115720  -115746  -115771  -115789  -115793 
 -115803  -115821  -115832  -115835  -115834  -115831  -115828  -115824 
 -115817  -115815  -115817  -115817  -115817  -115824  -115828  -115819 
 -115798  -115780  -115771  -115769  -115770  -115769  -115766  -115770 
 -115771  -115773  -115774  -115769  -115755  -115740  -115728  -115722 
 -115715  -115703  -115692  -115685  -115678  -115681  -115688  -115685 
 -115682  -115682  -115686  -115690  -115699  -115712  -115731  -115753 
 -115771  -115780  -115781  -115785  -115790  -115793  -115788  -115781 
 -115789  -115797  -115785  -115769  -115758  -115743  -115738  -115736 
 -115728  -115730  -115744  -115757  -115763  -115770  -115776  -115781 
 -115785  -115784  -115784  -115782  -115770  -115758  -115757  -115755 
 -115749  -115739  -115736  -115739  -115743  -115749  -115754  -115758 
 -115766  -115776  -115788  -115798  -115804  -115803  -115807  -115823 
 -115830  -115830  -115831  -115827  -115824  -115832  -115838  -115832 
 -115817  -115803  -115792  -115780  -115771  -115769  -115770  -115774 
 -115780  -115782  -115777  -115773  -115774  -115771  -115753  -115730 
 -115722  -115723  -115726  -115739  -115750  -115754  -115762  -115769 
 -115773  -115777  -115785  -115803  -115821  -115828  -115835  -115852 
 -115865  -115867  -115875  -115886  -115885  -115869  -115847  -115828 
 -115809  -115788  -115771  -115762  -115749  -115730  -115708  -115688 
 -115678  -115673  -115668  -115669  -115677  -115690  -115699  -115696 
 -115695  -115697  -115695  -115695  -115693  -115686  -115686  -115695 
 -115699  -115696  -115700  -115716  -115738  -115753  -115757  -115762 
 -115770  -115776  -115781  -115789  -115788  -115782  -115786  -115785 
 -115782  -115786  -115789  -115786  -115781  -115773  -115769  -115769 
 -115769  -115766  -115769  -115773  -115777  -115785  -115797  -115804 
 -115804  -115805  -115804  -115798  -115792  -115788  -115794  -115811 
 -115811  -115796  -115774  -115755  -115747  -115740  -115730  -115731 
 -115735  -115728  -115724  -115727  -115734  -115740  -115744  -115750 
