Origin Time       2025/06/03 22:18:00
Lat.              41.7
Long.             143.6
Depth. (km)       30
Mag.              5.2
Station Code      IBUH06
Station Lat.      42.4116
Station Long.     141.0017
Station Height(m) -162
Record Time       2025/06/03 22:19:35
Sampling Freq(Hz) 100Hz
Duration Time(s)  120
Dir.              1
Scale Factor      2942(gal)/8224139
Max. Acc. (gal)   0.131
Last Correction   2025/06/03 22:19:36
Memo.             
  103505   103527   103545   103549   103542   103530   103519   103516 
  103518   103511   103492   103480   103480   103470   103450   103432 
  103424   103430   103437   103430   103422   103427   103431   103438 
  103449   103445   103438   103438   103441   103447   103445   103434 
  103437   103439   103430   103422   103416   103411   103401   103399 
  103414   103439   103449   103439   103439   103441   103427   103424 
  103439   103450   103454   103455   103461   103469   103476   103489 
  103496   103491   103503   103526   103528   103513   103495   103474 
  103451   103437   103431   103424   103420   103416   103400   103397 
  103410   103418   103430   103441   103447   103464   103488   103495 
  103499   103504   103491   103469   103459   103453   103446   103442 
  103431   103415   103410   103426   103451   103472   103474   103459 
  103442   103443   103459   103465   103455   103451   103457   103459 
  103466   103473   103461   103437   103422   103420   103432   103455 
  103472   103472   103469   103468   103469   103480   103489   103489 
  103491   103495   103480   103458   103461   103469   103451   103437 
  103446   103462   103478   103485   103476   103459   103451   103454 
  103449   103438   103437   103443   103464   103492   103508   103513 
  103532   103546   103524   103509   103518   103516   103500   103484 
  103462   103430   103400   103387   103388   103392   103399   103418 
  103426   103416   103410   103405   103404   103410   103407   103404 
  103412   103418   103403   103383   103377   103387   103396   103410 
  103434   103462   103481   103496   103501   103501   103508   103513 
  103516   103520   103515   103501   103478   103445   103423   103419 
  103415   103403   103393   103400   103408   103397   103391   103401 
  103411   103411   103415   103430   103450   103482   103519   103526 
  103496   103472   103468   103477   103488   103489   103481   103469 
  103461   103455   103458   103459   103453   103445   103441   103443 
  103453   103461   103473   103499   103520   103526   103526   103523 
  103505   103489   103491   103495   103492   103489   103484   103465 
  103439   103415   103399   103399   103400   103399   103419   103453 
  103469   103466   103470   103474   103470   103472   103480   103477 
  103457   103427   103411   103414   103420   103424   103423   103422 
  103422   103420   103419   103416   103415   103430   103455   103473 
  103478   103480   103485   103488   103478   103470   103474   103477 
  103458   103426   103403   103399   103404   103412   103419   103419 
  103422   103442   103469   103481   103477   103466   103457   103455 
  103457   103445   103420   103407   103416   103427   103434   103449 
  103462   103465   103469   103472   103468   103482   103495   103486 
  103485   103484   103464   103454   103457   103445   103428   103426 
  103437   103454   103474   103495   103513   103526   103531   103543 
  103550   103539   103528   103530   103532   103532   103536   103531 
  103518   103511   103508   103500   103484   103459   103430   103404 
  103399   103408   103420   103428   103418   103408   103400   103385 
  103384   103389   103388   103389   103395   103392   103377   103368 
  103376   103372   103356   103368   103392   103400   103410   103431 
  103446   103450   103459   103462   103450   103454   103476   103486 
  103489   103497   103503   103496   103480   103469   103472   103480 
  103481   103491   103508   103520   103534   103543   103534   103511 
  103486   103477   103480   103470   103453   103441   103424   103410 
  103399   103387   103387   103411   103428   103426   103416   103416 
  103426   103430   103428   103427   103439   103465   103478   103477 
  103477   103470   103464   103469   103473   103473   103468   103453 
  103434   103422   103418   103418   103432   103457   103472   103481 
  103497   103505   103500   103491   103476   103468   103469   103466 
  103453   103438   103427   103437   103458   103464   103453   103438 
  103427   103439   103468   103489   103496   103495   103493   103493 
  103496   103504   103519   103530   103524   103508   103504   103509 
  103509   103505   103486   103450   103422   103414   103419   103426 
  103426   103424   103435   103458   103482   103484   103468   103462 
  103464   103455   103455   103458   103442   103423   103420   103434 
  103450   103447   103441   103447   103453   103450   103447   103441 
  103431   103427   103426   103423   103423   103428   103435   103442 
  103447   103447   103447   103462   103477   103465   103445   103437 
  103416   103392   103399   103423   103434   103443   103454   103447 
  103442   103464   103484   103491   103501   103508   103505   103496 
  103484   103486   103497   103495   103482   103470   103461   103459 
  103454   103447   103451   103455   103445   103427   103414   103412 
  103422   103422   103416   103419   103426   103426   103432   103450 
  103465   103481   103501   103512   103515   103509   103495   103482 
  103478   103477   103473   103457   103439   103438   103439   103441 
  103446   103462   103473   103462   103451   103454   103455   103464 
  103484   103488   103477   103478   103485   103485   103480   103478 
  103472   103454   103443   103445   103451   103457   103458   103443 
  103419   103412   103414   103419   103432   103443   103446   103441 
  103427   103419   103423   103424   103422   103426   103442   103454 
  103451   103445   103447   103446   103450   103474   103496   103495 
  103485   103477   103472   103478   103501   103522   103519   103489 
  103445   103418   103430   103451   103447   103442   103459   103486 
  103504   103505   103497   103491   103484   103465   103443   103423 
  103420   103438   103438   103412   103393   103389   103401   103428 
  103445   103443   103431   103411   103405   103415   103412   103408 
  103411   103416   103415   103422   103446   103464   103461   103464 
  103478   103496   103501   103489   103466   103446   103447   103468 
  103486   103480   103447   103416   103426   103468   103482   103462 
  103441   103420   103415   103438   103453   103457   103474   103476 
  103449   103443   103473   103491   103484   103476   103473   103482 
  103507   103524   103516   103489   103465   103466   103477   103474 
  103472   103468   103465   103478   103478   103437   103383   103370 
  103393   103404   103399   103411   103437   103458   103468   103466 
  103454   103439   103439   103462   103493   103515   103522   103508 
  103476   103450   103461   103489   103499   103489   103481   103474 
  103465   103447   103428   103426   103450   103482   103488   103464 
  103443   103438   103442   103453   103454   103437   103422   103430 
  103450   103466   103466   103437   103408   103412   103434   103477 
  103532   103555   103524   103486   103489   103508   103509   103516 
  103534   103534   103523   103513   103493   103473   103453   103416 
  103385   103401   103451   103485   103492   103491   103477   103455 
  103459   103491   103522   103534   103512   103470   103451   103455 
  103445   103395   103345   103341   103360   103356   103347   103361 
  103381   103403   103422   103420   103415   103418   103422   103431 
  103430   103405   103393   103403   103404   103407   103422   103400 
  103347   103323   103335   103345   103334   103319   103329   103357 
  103374   103378   103389   103422   103453   103459   103459   103474 
  103497   103505   103478   103453   103461   103470   103461   103466 
  103496   103507   103492   103488   103501   103511   103522   103547 
  103563   103562   103554   103531   103512   103518   103512   103500 
  103500   103481   103445   103442   103474   103492   103464   103428 
  103434   103462   103470   103466   103473   103486   103485   103466 
  103466   103505   103532   103520   103505   103513   103528   103527 
  103505   103488   103492   103495   103468   103442   103435   103422 
  103407   103423   103438   103407   103358   103335   103326   103335 
  103373   103401   103400   103396   103405   103424   103441   103446 
  103449   103455   103450   103437   103437   103439   103441   103442 
  103430   103427   103441   103431   103399   103374   103358   103364 
  103393   103411   103405   103411   103464   103532   103566   103563 
  103538   103491   103449   103430   103420   103415   103416   103420 
  103423   103419   103418   103431   103455   103476   103477   103480 
  103508   103530   103524   103532   103577   103624   103642   103627 
  103600   103590   103597   103581   103534   103482   103439   103405 
  103389   103392   103381   103342   103319   103330   103347   103349 
  103356   103387   103414   103420   103441   103473   103493   103504 
  103516   103527   103527   103513   103500   103489   103478   103455 
  103435   103439   103458   103473   103477   103478   103496   103509 
  103505   103532   103569   103550   103501   103501   103531   103531 
  103509   103491   103458   103408   103357   103320   103306   103304 
  103311   103326   103342   103356   103372   103383   103384   103388 
  103396   103408   103419   103414   103411   103416   103414   103420 
  103437   103438   103437   103454   103469   103446   103414   103391 
  103356   103333   103357   103397   103414   103430   103465   103489 
  103508   103543   103576   103607   103650   103677   103644   103572 
  103524   103527   103534   103511   103470   103435   103431   103447 
  103446   103420   103385   103350   103349   103381   103414   103438 
  103453   103445   103410   103361   103319   103297   103302   103329 
  103387   103458   103505   103526   103545   103553   103542   103539 
  103536   103515   103484   103446   103416   103408   103381   103343 
  103345   103374   103405   103445   103489   103531   103567   103597 
  103609   103604   103601   103612   103613   103588   103546   103512 
  103496   103478   103427   103362   103311   103292   103320   103360 
  103373   103391   103435   103474   103492   103495   103492   103485 
  103464   103427   103405   103396   103365   103320   103276   103230 
  103203   103219   103261   103306   103357   103415   103470   103532 
  103585   103609   103638   103680   103696   103693   103713   103755 
  103775   103746   103673   103580   103488   103419   103372   103310 
  103246   103230   103248   103261   103277   103310   103368   103450 
  103515   103531   103513   103485   103468   103455   103432   103415 
  103414   103408   103408   103427   103441   103441   103454   103458 
  103424   103395   103397   103411   103418   103411   103420   103482 
  103547   103565   103561   103569   103577   103580   103577   103551 
  103495   103437   103400   103395   103415   103430   103449   103495 
  103532   103530   103512   103505   103505   103507   103501   103476 
  103439   103427   103438   103449   103450   103420   103368   103338 
  103343   103353   103350   103354   103380   103397   103381   103351 
  103324   103303   103291   103287   103293   103320   103360   103395 
  103415   103410   103388   103374   103368   103370   103395   103418 
  103420   103419   103415   103405   103422   103454   103473   103500 
  103542   103565   103574   103585   103581   103566   103563   103577 
  103596   103617   103631   103646   103670   103671   103628   103563 
  103508   103480   103488   103504   103512   103515   103500   103469 
  103445   103414   103364   103326   103311   103299   103279   103260 
  103245   103233   103233   103264   103318   103381   103461   103551 
  103624   103669   103707   103715   103677   103627   103589   103547 
  103486   103435   103435   103453   103441   103424   103427   103445 
  103477   103518   103538   103527   103496   103459   103435   103431 
  103445   103459   103453   103455   103499   103535   103528   103515 
  103481   103419   103376   103362   103374   103401   103407   103381 
  103347   103326   103327   103331   103323   103333   103383   103443 
  103496   103526   103505   103453   103412   103384   103365   103362 
  103358   103342   103346   103377   103408   103449   103513   103577 
  103620   103666   103731   103786   103815   103819   103793   103748 
  103704   103650   103582   103524   103492   103459   103418   103368 
  103295   103225   103211   103245   103289   103342   103392   103408 
  103393   103366   103341   103318   103303   103293   103273   103235 
  103194   103179   103198   103226   103257   103292   103310   103319 
  103358   103420   103492   103566   103621   103634   103609   103580 
  103551   103532   103532   103534   103527   103534   103557   103572 
  103572   103574   103584   103588   103608   103634   103626   103576 
  103513   103450   103387   103346   103315   103266   103203   103162 
  103171   103211   103248   103279   103312   103341   103384   103446 
  103503   103524   103499   103454   103420   103396   103393   103424 
  103459   103477   103497   103522   103527   103524   103536   103551 
  103559   103573   103597   103615   103603   103573   103543   103515 
  103491   103476   103470   103454   103410   103343   103279   103235 
  103233   103285   103369   103430   103464   103492   103519   103538 
  103539   103524   103508   103482   103458   103465   103473   103449 
  103426   103415   103395   103400   103458   103501   103478   103446 
  103459   103488   103508   103543   103596   103631   103630   103632 
  103642   103613   103558   103496   103443   103427   103435   103447 
  103446   103420   103410   103435   103459   103473   103482   103476 
  103455   103443   103454   103481   103496   103472   103416   103385 
  103389   103389   103369   103330   103273   103223   103207   103226 
  103258   103292   103327   103366   103407   103449   103472   103462 
  103426   103393   103393   103404   103401   103388   103381   103388 
  103393   103404   103435   103474   103501   103527   103562   103589 
  103600   103604   103605   103605   103600   103588   103563   103527 
  103496   103473   103446   103428   103438   103477   103531   103567 
  103574   103569   103562   103570   103589   103581   103559   103555 
  103549   103516   103476   103432   103389   103372   103370   103373 
  103391   103407   103401   103391   103388   103395   103408   103430 
  103469   103505   103507   103500   103511   103531   103558   103576 
  103567   103559   103559   103549   103526   103493   103455   103423 
  103391   103362   103351   103360   103378   103395   103389   103354 
  103314   103292   103277   103262   103245   103239   103252   103254 
  103252   103270   103302   103327   103351   103383   103416   103437 
  103451   103480   103512   103523   103512   103489   103468   103454 
  103442   103418   103397   103399   103410   103415   103415   103405 
  103391   103396   103416   103430   103439   103455   103488   103531 
  103557   103566   103572   103572   103565   103566   103580   103594 
  103607   103600   103572   103549   103550   103566   103580   103578 
  103561   103522   103477   103438   103400   103376   103370   103372 
  103369   103362   103347   103342   103353   103366   103383   103404 
  103412   103423   103461   103505   103545   103576   103589   103599 
  103617   103631   103638   103644   103643   103631   103611   103574 
  103524   103482   103450   103423   103404   103391   103384   103391 
  103405   103420   103437   103457   103464   103450   103431   103408 
  103370   103333   103315   103300   103280   103268   103261   103253 
  103261   103288   103307   103315   103327   103349   103387   103441 
  103489   103520   103536   103534   103516   103488   103450   103415 
  103391   103374   103358   103354   103369   103385   103392   103407 
  103430   103446   103457   103458   103441   103423   103419   103418 
  103419   103427   103439   103446   103464   103500   103527   103540 
  103565   103601   103634   103661   103689   103717   103734   103734 
  103731   103731   103727   103711   103692   103669   103635   103604 
  103569   103518   103473   103446   103434   103439   103447   103438 
  103412   103384   103357   103334   103319   103307   103303   103315 
  103318   103303   103300   103311   103308   103291   103270   103257 
  103257   103264   103266   103258   103258   103279   103304   103334 
  103376   103420   103447   103446   103416   103383   103374   103392 
  103404   103395   103383   103383   103396   103423   103447   103462 
  103477   103505   103543   103578   103603   103619   103615   103582 
  103553   103553   103569   103577   103570   103573   103586   103577 
  103551   103539   103516   103480   103469   103489   103512   103513 
  103497   103481   103477   103478   103480   103481   103488   103493 
  103492   103499   103513   103523   103522   103520   103523   103523 
  103512   103500   103491   103485   103481   103477   103470   103450 
  103432   103445   103462   103462   103459   103476   103505   103532 
  103543   103530   103505   103482   103447   103404   103380   103383 
  103383   103374   103381   103401   103415   103423   103431   103426 
  103415   103405   103381   103350   103329   103319   103308   103296 
  103289   103291   103306   103334   103372   103422   103466   103482 
  103485   103493   103503   103527   103566   103578   103557   103531 
  103505   103473   103443   103428   103424   103426   103427   103428 
  103439   103454   103457   103468   103501   103534   103545   103539 
  103526   103515   103515   103520   103509   103488   103484   103484 
  103468   103451   103446   103438   103423   103399   103365   103342 
  103345   103369   103399   103423   103442   103449   103451   103451 
  103447   103443   103432   103412   103387   103364   103351   103345 
  103331   103322   103318   103310   103312   103330   103347   103358 
  103377   103387   103376   103373   103381   103389   103403   103420 
  103432   103437   103437   103441   103443   103438   103438   103453 
  103478   103507   103532   103543   103545   103551   103553   103536 
  103522   103507   103489   103484   103480   103465   103450   103446 
  103461   103478   103492   103507   103516   103523   103540   103559 
  103566   103576   103586   103585   103588   103596   103586   103573 
  103573   103569   103559   103550   103540   103526   103507   103493 
  103496   103508   103515   103508   103486   103454   103424   103401 
  103381   103362   103342   103319   103304   103306   103306   103308 
  103334   103361   103376   103378   103360   103339   103341   103346 
  103351   103364   103374   103387   103403   103415   103419   103418 
  103418   103405   103385   103387   103400   103400   103395   103395 
  103391   103403   103435   103465   103484   103489   103482   103485 
  103497   103507   103516   103516   103505   103492   103480   103473 
  103478   103485   103484   103470   103458   103453   103441   103420 
  103418   103430   103446   103464   103476   103491   103507   103523 
  103550   103569   103567   103570   103586   103604   103619   103627 
  103630   103619   103597   103577   103557   103528   103495   103468 
  103443   103416   103397   103377   103351   103341   103343   103342 
