Origin Time       2025/06/03 22:18:00
Lat.              41.7
Long.             143.6
Depth. (km)       30
Mag.              5.2
Station Code      IBUH02
Station Lat.      42.8714
Station Long.     142.1285
Station Height(m) 175
Record Time       2025/06/03 22:19:19
Sampling Freq(Hz) 100Hz
Duration Time(s)  120
Dir.              5
Scale Factor      7845(gal)/8223790
Max. Acc. (gal)   0.532
Last Correction   2025/06/03 22:19:19
Memo.             
[...]
   -3925    -3875    -3846    -3838    -3843    -3852    -3869    -3902 
   -3942    -3956    -3944    -3933    -3944    -3970    -3990    -3997 
   -4000    -4012    -4025    -4023    -4009    -4010    -4033    -4058 
   -4056    -4020    -3979    -3952    -3935    -3916    -3896    -3894 
   -3921    -3939    -3936    -3932    -3940    -3963    -3982    -3978 
   -3969    -3975    -4000    -4017    -4008    -3989    -3983    -3985 
   -3982    -3969    -3958    -3969    -3987    -3996    -3983    -3973 
   -3990    -4014    -4024    -4028    -4040    -4067    -4086    -4074 
   -4040    -4012    -4004    -3998    -3969    -3932    -3910    -3913 
   -3924    -3920    -3912    -3916    -3931    -3950    -3951    -3946 
   -3956    -3973    -3978    -3967    -3951    -3954    -3959    -3946 
   -3916    -3885    -3883    -3910    -3933    -3955    -3979    -4008 
   -4035    -4035    -4004    -3969    -3947    -3944    -3939    -3928 
   -3935    -3954    -3970    -3967    -3948    -3951    -3977    -3997 
   -3998    -3986    -3977    -3979    -3974    -3955    -3932    -3929 
   -3944    -3940    -3919    -3898    -3893    -3916    -3940    -3948 
   -3963    -3993    -4033    -4054    -4039    -4017    -4001    -3996 
   -3990    -3974    -3973    -3996    -4020    -4029    -4010    -3990 
   -3994    -3994    -3981    -3962    -3951    -3954    -3950    -3931 
   -3917    -3920    -3944    -3964    -3962    -3948    -3947    -3963 
   -3981    -3985    -3994    -4023    -4055    -4068    -4051    -4024 
   -4018    -4029    -4037    -4039    -4041    -4054    -4066    -4059 
   -4033    -4014    -4010    -4010    -3991    -3958    -3935    -3925 
   -3912    -3886    -3856    -3861    -3906    -3954    -3986    -4006 
   -4020    -4036    -4040    -4020    -3997    -3991    -4009    -4029 
   -4025    -4012    -4008    -4006    -3994    -3971    -3955    -3967 
   -3989    -3994    -3973    -3943    -3924    -3912    -3889    -3855 
   -3835    -3847    -3870    -3877    -3870    -3865    -3874    -3885 
   -3882    -3877    -3882    -3900    -3909    -3894    -3879    -3886 
   -3909    -3937    -3956    -3963    -3977    -3996    -3998    -3977 
   -3951    -3954    -3979    -3997    -4000    -4005    -4023    -4037 
   -4031    -4008    -3987    -3989    -4001    -3994    -3975    -3966 
   -3970    -3979    -3973    -3959    -3958    -3970    -3986    -3990 
   -3978    -3981    -3998    -4009    -4002    -3989    -3991    -4014 
   -4033    -4029    -4017    -4014    -4014    -4005    -3983    -3964 
   -3969    -3991    -4000    -3986    -3967    -3964    -3979    -3986 
   -3987    -3996    -4009    -4016    -3997    -3958    -3931    -3929 
   -3946    -3963    -3975    -3996    -4018    -4028    -4009    -3973 
   -3947    -3952    -3962    -3952    -3936    -3929    -3929    -3920 
   -3898    -3879    -3883    -3909    -3927    -3921    -3910    -3920 
   -3944    -3960    -3960    -3958    -3966    -3974    -3960    -3935 
   -3923    -3942    -3979    -4002    -4004    -3996    -3991    -3987 
   -3973    -3952    -3944    -3952    -3958    -3947    -3933    -3933 
   -3951    -3964    -3966    -3963    -3971    -3997    -4012    -3997 
   -3973    -3962    -3963    -3964    -3958    -3956    -3978    -4009 
   -4027    -4031    -4033    -4050    -4075    -4082    -4066    -4052 
   -4048    -4037    -4014    -3982    -3960    -3964    -3975    -3977 
   -3963    -3962    -3986    -4004    -4001    -3987    -3982    -3994 
   -4000    -3987    -3967    -3946    -3931    -3916    -3886    -3863 
   -3866    -3878    -3882    -3874    -3866    -3873    -3889    -3894 
   -3883    -3875    -3894    -3920    -3935    -3942    -3955    -3982 
   -4010    -4021    -4016    -4009    -4014    -4021    -4013    -3996 
   -3989    -3998    -4012    -4005    -3996    -4008    -4036    -4059 
   -4067    -4063    -4059    -4055    -4033    -3989    -3950    -3943 
   -3958    -3971    -3970    -3970    -3989    -4010    -4010    -3993 
   -3979    -3993    -4010    -4005    -3982    -3959    -3948    -3946 
   -3920    -3886    -3877    -3892    -3904    -3901    -3890    -3890 
   -3912    -3939    -3950    -3950    -3959    -3971    -3967    -3944 
   -3916    -3902    -3916    -3932    -3931    -3927    -3942    -3966 
   -3977    -3973    -3975    -3990    -4006    -4009    -3997    -3996 
   -4017    -4033    -4024    -3990    -3960    -3955    -3966    -3971 
   -3970    -3977    -3994    -4006    -3994    -3967    -3955    -3962 
   -3962    -3950    -3935    -3931    -3940    -3942    -3931    -3921 
   -3927    -3952    -3982    -3997    -4014    -4045    -4072    -4078 
   -4059    -4032    -4020    -4018    -4001    -3966    -3944    -3946 
   -3942    -3931    -3913    -3901    -3913    -3936    -3944    -3942 
   -3950    -3971    -3983    -3977    -3964    -3963    -3975    -3986 
   -3982    -3973    -3978    -4000    -4021    -4028    -4020    -4016 
   -4014    -3996    -3962    -3936    -3940    -3962    -3974    -3973 
   -3978    -3990    -3996    -3987    -3966    -3947    -3951    -3970 
   -3981    -3970    -3959    -3966    -3978    -3974    -3958    -3948 
   -3942    -3931    -3916    -3904    -3912    -3944    -3971    -3969 
   -3951    -3944    -3943    -3932    -3912    -3898    -3908    -3937 
   -3956    -3943    -3916    -3901    -3897    -3894    -3900    -3924 
   -3973    -4025    -4058    -4059    -4045    -4037    -4035    -4023 
   -4000    -3989    -4002    -4017    -4010    -3994    -3986    -3997 
   -4016    -4018    -4006    -4005    -4010    -4006    -3982    -3952 
   -3947    -3973    -4001    -4010    -4001    -3985    -3971    -3947 
   -3912    -3892    -3905    -3947    -3979    -3986    -3991    -4002 
   -4008    -4004    -3987    -3986    -4014    -4040    -4045    -4021 
   -3981    -3956    -3946    -3931    -3931    -3956    -3991    -4006 
   -3982    -3933    -3894    -3888    -3902    -3917    -3937    -3974 
   -4010    -4021    -3997    -3956    -3933    -3935    -3943    -3951 
   -3966    -3991    -4017    -4021    -4006    -3998    -4010    -4031 
   -4036    -4021    -4002    -3996    -3985    -3956    -3927    -3917 
   -3929    -3952    -3958    -3950    -3950    -3958    -3963    -3955 
   -3943    -3950    -3969    -3982    -3979    -3963    -3958    -3964 
   -3958    -3939    -3927    -3936    -3956    -3966    -3963    -3962 
   -3969    -3982    -3975    -3943    -3919    -3920    -3933    -3940 
   -3944    -3960    -3983    -3997    -3993    -3967    -3944    -3942 
   -3946    -3942    -3931    -3925    -3932    -3929    -3909    -3896 
   -3910    -3951    -3987    -4000    -3996    -3997    -4006    -3998 
   -3973    -3956    -3963    -3989    -4012    -4018    -4025    -4043 
   -4058    -4052    -4027    -4010    -4025    -4044    -4050    -4041 
   -4037    -4044    -4045    -4036    -4018    -4009    -4025    -4036 
   -4017    -3986    -3963    -3947    -3933    -3915    -3904    -3913 
   -3935    -3947    -3931    -3909    -3906    -3917    -3924    -3915 
   -3896    -3890    -3896    -3892    -3877    -3867    -3874    -3886 
   -3883    -3873    -3874    -3894    -3920    -3932    -3931    -3933 
   -3948    -3959    -3956    -3951    -3960    -3985    -4006    -4005 
   -3998    -4008    -4024    -4023    -3991    -3954    -3932    -3928 
   -3931    -3935    -3946    -3977    -4009    -4020    -4006    -3989 
   -3987    -3991    -3979    -3951    -3920    -3905    -3901    -3882 
   -3861    -3875    -3917    -3963    -3993    -4002    -4004    -4006 
   -4006    -3994    -3971    -3956    -3962    -3970    -3966    -3964 
   -3982    -4005    -4009    -3991    -3975    -3983    -4005    -4013 
   -4009    -4005    -4010    -4018    -4012    -3996    -3993    -4008 
   -4024    -4014    -3979    -3952    -3952    -3973    -3986    -3993 
   -4009    -4028    -4027    -4001    -3962    -3940    -3946    -3951 
   -3948    -3936    -3927    -3933    -3937    -3929    -3929    -3956 
   -4006    -4044    -4052    -4045    -4036    -4029    -4020    -4001 
   -4002    -4036    -4070    -4074    -4052    -4035    -4033    -4031 
   -4014    -3991    -3981    -3991    -4002    -3993    -3969    -3946 
   -3937    -3925    -3900    -3883    -3892    -3913    -3932    -3931 
   -3920    -3923    -3937    -3942    -3924    -3905    -3904    -3921 
   -3932    -3929    -3929    -3948    -3970    -3977    -3962    -3946 
   -3956    -3975    -3987    -3996    -4004    -4016    -4023    -4008 
   -3981    -3967    -3977    -3991    -3987    -3977    -3987    -4013 
   -4033    -4029    -4010    -4000    -4002    -4009    -4006    -4000 
   -4009    -4028    -4028    -4010    -3996    -4005    -4032    -4048 
   -4041    -4024    -4016    -4013    -3998    -3973    -3954    -3958 
   -3970    -3964    -3948    -3944    -3955    -3971    -3974    -3959 
   -3948    -3954    -3956    -3944    -3927    -3921    -3933    -3955 
   -3962    -3955    -3955    -3967    -3971    -3963    -3960    -3973 
   -3996    -4005    -3979    -3942    -3919    -3916    -3915    -3908 
   -3912    -3928    -3939    -3931    -3913    -3910    -3933    -3974 
   -4008    -4018    -4027    -4048    -4072    -4078    -4067    -4059 
   -4060    -4062    -4048    -4025    -4006    -3998    -3983    -3947 
   -3913    -3912    -3937    -3959    -3967    -3964    -3964    -3975 
   -3981    -3966    -3956    -3969    -3985    -3989    -3975    -3960 
   -3963    -3981    -3991    -3993    -4000    -4027    -4055    -4060 
   -4051    -4037    -4028    -4014    -3974    -3921    -3888    -3892 
   -3925    -3952    -3969    -3987    -4001    -4001    -3981    -3951 
   -3944    -3964    -3986    -3990    -3975    -3969    -3973    -3966 
   -3944    -3925    -3931    -3960    -3986    -3991    -3989    -3997 
   -4009    -4002    -3982    -3973    -3983    -4006    -4014    -4004 
   -4000    -4014    -4033    -4044    -4045    -4051    -4068    -4085 
   -4074    -4043    -4014    -3996    -3977    -3946    -3906    -3882 
   -3875    -3862    -3838    -3812    -3804    -3820    -3835    -3836 
   -3836    -3850    -3874    -3883    -3867    -3850    -3850    -3863 
   -3873    -3871    -3873    -3893    -3920    -3927    -3916    -3904 
   -3902    -3913    -3917    -3915    -3927    -3951    -3969    -3966 
   -3943    -3929    -3942    -3955    -3962    -3962    -3966    -3987 
   -3996    -3978    -3960    -3950    -3942    -3927    -3904    -3898 
   -3923    -3962    -3991    -3997    -3991    -3996    -4009    -4017 
   -4013    -4018    -4043    -4072    -4085    -4072    -4058    -4058 
   -4056    -4039    -4010    -3996    -4001    -4008    -4002    -3983 
   -3970    -3971    -3966    -3940    -3924    -3932    -3955    -3974 
   -3981    -3973    -3964    -3962    -3948    -3915    -3892    -3890 
   -3898    -3894    -3870    -3847    -3839    -3838    -3835    -3821 
   -3815    -3832    -3848    -3831    -3785    -3736    -3707    -3692 
   -3677    -3669    -3685    -3720    -3744    -3743    -3731    -3727 
   -3738    -3747    -3742    -3735    -3744    -3770    -3789    -3794 
   -3797    -3821    -3866    -3904    -3920    -3929    -3946    -3963 
   -3962    -3942    -3931    -3942    -3959    -3969    -3963    -3967 
   -3990    -4008    -4006    -3997    -4009    -4052    -4109    -4151 
   -4174    -4187    -4194    -4183    -4151    -4118    -4116    -4137 
   -4153    -4155    -4149    -4153    -4167    -4164    -4148    -4145 
   -4172    -4216    -4244    -4241    -4230    -4228    -4232    -4228 
   -4210    -4199    -4199    -4198    -4186    -4160    -4148    -4168 
   -4190    -4189    -4167    -4145    -4133    -4122    -4101    -4070 
   -4048    -4040    -4027    -3994    -3960    -3935    -3923    -3901 
   -3850    -3794    -3763    -3757    -3761    -3766    -3777    -3805 
   -3843    -3869    -3875    -3882    -3906    -3942    -3960    -3963 
   -3969    -3990    -4010    -4012    -4001    -3998    -4010    -4025 
   -4025    -4006    -3997    -4009    -4020    -4009    -3987    -3979 
   -3987    -3998    -4001    -3996    -4005    -4029    -4040    -4031 
   -4012    -4004    -4002    -3987    -3955    -3920    -3908    -3920 
   -3921    -3915    -3916    -3937    -3970    -3985    -3983    -3985 
   -3991    -4000    -3997    -3983    -3985    -4008    -4035    -4047 
   -4043    -4035    -4035    -4029    -4012    -3993    -4000    -4032 
   -4067    -4086    -4094    -4116    -4151    -4174    -4175    -4172 
   -4174    -4176    -4164    -4129    -4090    -4064    -4051    -4032 
   -4001    -3979    -3974    -3971    -3947    -3901    -3863    -3846 
   -3827    -3800    -3774    -3770    -3793    -3819    -3827    -3821 
   -3827    -3851    -3869    -3870    -3869    -3871    -3888    -3896 
   -3882    -3866    -3855    -3859    -3873    -3881    -3908    -3959 
   -4016    -4062    -4070    -4052    -4036    -4018    -3990    -3951 
   -3924    -3928    -3947    -3946    -3924    -3906    -3913    -3925 
   -3936    -3960    -4006    -4072    -4140    -4183    -4199    -4216 
   -4239    -4252    -4245    -4228    -4218    -4218    -4213    -4187 
   -4153    -4143    -4158    -4179    -4193    -4203    -4225    -4241 
   -4229    -4194    -4159    -4145    -4144    -4118    -4068    -4012 
   -3966    -3937    -3908    -3882    -3890    -3933    -3985    -4018 
   -4028    -4027    -4021    -4009    -3983    -3947    -3928    -3933 
   -3928    -3892    -3843    -3794    -3751    -3704    -3640    -3576 
   -3537    -3514    -3481    -3438    -3411    -3422    -3469    -3528 
   -3586    -3643    -3701    -3746    -3763    -3758    -3758    -3781 
   -3816    -3839    -3846    -3854    -3873    -3889    -3888    -3877 
   -3875    -3890    -3904    -3900    -3883    -3877    -3881    -3881 
   -3870    -3859    -3865    -3885    -3900    -3901    -3908    -3929 
   -3960    -3983    -3979    -3960    -3956    -3959    -3951    -3940 
   -3940    -3962    -3996    -4021    -4047    -4090    -4155    -4218 
   -4243    -4221    -4176    -4124    -4062    -3997    -3951    -3944 
   -3975    -4013    -4036    -4048    -4068    -4099    -4113    -4101 
   -4083    -4077    -4071    -4055    -4018    -3989    -3986    -3994 
   -3993    -3975    -3960    -3964    -3970    -3962    -3944    -3928 
   -3925    -3919    -3889    -3847    -3811    -3788    -3782    -3781 
   -3782    -3801    -3829    -3840    -3823    -3797    -3792    -3812 
   -3834    -3838    -3829    -3825    -3821    -3807    -3788    -3786 
   -3823    -3886    -3937    -3959    -3971    -3993    -4017    -4033 
   -4051    -4083    -4136    -4185    -4201    -4190    -4167    -4147 
   -4131    -4097    -4060    -4050    -4055    -4059    -4044    -4018 
   -4013    -4025    -4044    -4059    -4059    -4059    -4060    -4035 
   -3985    -3936    -3912    -3913    -3912    -3910    -3925    -3958 
   -4004    -4048    -4071    -4089    -4113    -4129    -4114    -4077 
   -4033    -4002    -3982    -3954    -3917    -3894    -3888    -3882 
   -3862    -3836    -3834    -3862    -3901    -3929    -3950    -3982 
   -4027    -4058    -4075    -4089    -4104    -4125    -4135    -4121 
   -4104    -4099    -4109    -4116    -4112    -4112    -4124    -4131 
   -4116    -4078    -4045    -4043    -4055    -4056    -4045    -4032 
   -4020    -3998    -3954    -3898    -3866    -3870    -3894    -3916 
   -3939    -3979    -4027    -4062    -4068    -4062    -4072    -4094 
   -4105    -4097    -4079    -4068    -4055    -4018    -3963    -3912 
   -3878    -3859    -3840    -3816    -3800    -3796    -3792    -3758 
   -3701    -3665    -3662    -3682    -3708    -3731    -3759    -3794 
   -3827    -3846    -3854    -3878    -3927    -3969    -3987    -3998 
   -4020    -4047    -4064    -4058    -4041    -4044    -4068    -4087 
   -4091    -4097    -4120    -4148    -4164    -4170    -4183    -4210 
   -4234    -4229    -4198    -4168    -4152    -4141    -4120    -4085 
   -4054    -4027    -3993    -3943    -3889    -3856    -3862    -3879 
   -3890    -3897    -3921    -3973    -4032    -4078    -4109    -4149 
   -4193    -4207    -4187    -4155    -4126    -4099    -4070    -4033 
   -4000    -3993    -3998    -3991    -3977    -3970    -3981    -4000 
   -3998    -3977    -3956    -3936    -3905    -3850    -3780    -3731 
   -3720    -3728    -3739    -3748    -3763    -3790    -3815    -3820 
   -3821    -3850    -3897    -3929    -3935    -3927    -3920    -3916 
   -3902    -3881    -3869    -3892    -3942    -3983    -4006    -4014 
   -4020    -4025    -4010    -3989    -3982    -3997    -4018    -4018 
   -3997    -3981    -3970    -3964    -3952    -3929    -3924    -3936 
   -3940    -3928    -3909    -3913    -3952    -4001    -4041    -4078 
   -4112    -4145    -4153    -4128    -4093    -4066    -4052    -4044 
   -4025    -4009    -4010    -4009    -3985    -3927    -3867    -3835 
   -3815    -3790    -3758    -3728    -3716    -3713    -3705    -3707 
   -3740    -3811    -3888    -3948    -3998    -4047    -4099    -4136 
   -4140    -4122    -4109    -4109    -4099    -4058    -4009    -3973 
   -3933    -3888    -3831    -3780    -3761    -3770    -3777    -3765 
   -3758    -3774    -3792    -3804    -3813    -3823    -3855    -3898 
   -3917    -3923    -3933    -3956    -3979    -3978    -3962    -3952 
   -3962    -3977    -3975    -3963    -3963    -3971    -3971    -3962 
   -3959    -3985    -4032    -4078    -4110    -4132    -4156    -4182 
   -4183    -4156    -4126    -4120    -4122    -4109    -4079    -4044 
   -4018    -4000    -3962    -3908    -3859    -3831    -3813    -3792 
   -3778    -3790    -3824    -3867    -3889    -3878    -3874    -3881 
   -3870    -3842    -3809    -3794    -3805    -3819    -3824    -3831 
   -3854    -3883    -3898    -3901    -3905    -3925    -3960    -3990 
   -4004    -4013    -4031    -4045    -4037    -4016    -4010    -4031 
   -4064    -4087    -4102    -4129    -4168    -4205    -4217    -4209 
   -4209    -4221    -4218    -4189    -4144    -4110    -4090    -4062 
   -4017    -3962    -3920    -3898    -3875    -3848    -3831    -3832 
   -3848    -3854    -3838    -3824    -3827    -3844    -3850    -3840 
   -3846    -3871    -3901    -3916    -3909    -3905    -3915    -3919 
   -3902    -3877    -3869    -3886    -3910    -3921    -3924    -3932 
   -3950    -3962    -3955    -3944    -3960    -3996    -4025    -4044 
   -4062    -4090    -4135    -4170    -4183    -4191    -4209    -4232 
   -4239    -4226    -4213    -4214    -4220    -4209    -4182    -4164 
   -4168    -4185    -4202    -4212    -4234    -4276    -4314    -4330 
   -4324    -4311    -4306    -4290    -4249    -4207    -4190    -4202 
   -4220    -4220    -4195    -4163    -4131    -4081    -4010    -3951 
   -3921    -3916    -3909    -3875    -3827    -3788    -3757    -3716 
   -3670    -3642    -3642    -3661    -3680    -3689    -3705    -3740 
   -3773    -3780    -3767    -3762    -3782    -3809    -3834    -3861 
   -3893    -3929    -3948    -3927    -3883    -3856    -3852    -3856 
   -3852    -3848    -3863    -3885    -3885    -3859    -3823    -3797 
   -3788    -3784    -3778    -3784    -3807    -3831    -3836    -3825 
   -3819    -3829    -3850    -3855    -3850    -3865    -3904    -3947 
   -3979    -3996    -4014    -4044    -4062    -4048    -4014    -3994 
