Origin Time       2025/06/03 22:18:00
Lat.              41.7
Long.             143.6
Depth. (km)       30
Mag.              5.2
Station Code      IBUH06
Station Lat.      42.4116
Station Long.     141.0017
Station Height(m) 400
Record Time       2025/06/03 22:19:35
Sampling Freq(Hz) 100Hz
Duration Time(s)  120
Dir.              5
Scale Factor      7845(gal)/8223790
Max. Acc. (gal)   1.346
Last Correction   2025/06/03 22:19:36
Memo.             
[...]
    2791     2779     2758     2747     2790     2853     2890     2887 
    2849     2814     2806     2808     2825     2844     2835     2829 
    2852     2878     2898     2944     3019     3088     3121     3111 
    3046     2960     2893     2829     2775     2744     2721     2712 
    2700     2664     2646     2655     2664     2683     2701     2689 
    2667     2658     2659     2663     2658     2644     2640     2646 
    2651     2670     2714     2776     2855     2957     3053     3123 
    3165     3157     3102     3026     2943     2867     2806     2779 
    2787     2779     2745     2729     2739     2786     2867     2916 
    2911     2889     2848     2801     2785     2781     2782     2803 
    2801     2744     2681     2639     2631     2660     2693     2725 
    2787     2849     2887     2910     2930     2944     2929     2883 
    2805     2721     2691     2724     2767     2801     2826     2855 
    2886     2926     2982     3036     3090     3138     3138     3073 
    2957     2832     2743     2686     2643     2644     2685     2724 
    2760     2781     2787     2826     2887     2936     2972     2984 
    2967     2928     2852     2744     2659     2637     2673     2745 
    2817     2872     2921     2955     2959     2930     2883     2852 
    2859     2898     2934     2964     3006     3024     2997     2964 
    2932     2894     2863     2830     2783     2728     2668     2614 
    2583     2566     2548     2548     2579     2644     2718     2775 
    2817     2844     2857     2887     2921     2916     2899     2909 
    2907     2889     2864     2816     2771     2736     2689     2646 
    2605     2567     2562     2567     2560     2586     2659     2740 
    2843     2953     3030     3105     3200     3262     3261     3213 
    3133     3063     3009     2948     2891     2843     2781     2724 
    2682     2659     2670     2704     2727     2748     2787     2820 
    2837     2864     2880     2859     2828     2791     2712     2602 
    2512     2459     2450     2488     2538     2575     2625     2701 
    2790     2889     2992     3095     3199     3300     3389     3438 
    3439     3427     3383     3279     3136     2960     2776     2629 
    2519     2458     2459     2490     2538     2590     2636     2678 
    2721     2762     2791     2794     2766     2704     2633     2570 
    2519     2511     2542     2577     2623     2704     2782     2829 
    2883     2932     2949     2975     3002     3001     2991     2978 
    2953     2936     2928     2941     2978     3010     3010     2979 
    2921     2853     2814     2833     2880     2933     2998     3053 
    3061     3018     2951     2894     2866     2847     2808     2733 
    2644     2583     2560     2567     2623     2724     2837     2921 
    2957     2949     2921     2901     2897     2895     2884     2852 
    2794     2736     2678     2610     2583     2608     2636     2683 
    2759     2821     2871     2918     2934     2902     2845     2817 
    2840     2878     2924     2979     3001     2983     2965     2947 
    2907     2857     2802     2755     2735     2743     2775     2810 
    2825     2833     2839     2830     2829     2847     2859     2849 
    2818     2762     2705     2681     2682     2710     2767     2825 
    2859     2856     2841     2845     2857     2882     2920     2949 
    2949     2907     2826     2729     2650     2617     2617     2623 
    2641     2668     2698     2737     2783     2835     2906     2995 
    3075     3129     3156     3133     3088     3078     3063     3010 
    2940     2840     2739     2668     2623     2593     2555     2524 
    2535     2573     2629     2679     2700     2729     2779     2816 
    2849     2875     2867     2839     2814     2783     2756     2768 
    2801     2826     2855     2883     2917     2979     3024     3005 
    2941     2872     2840     2848     2882     2938     2982     3003 
    3021     3017     2997     2982     2965     2936     2906     2868 
    2799     2728     2675     2631     2612     2635     2660     2674 
    2698     2732     2768     2806     2825     2825     2832     2832 
    2835     2851     2856     2868     2913     2959     2986     3011 
    3025     3019     2999     2949     2876     2809     2747     2705 
    2701     2686     2655     2655     2689     2745     2802     2805 
    2779     2778     2775     2772     2798     2844     2910     2984 
    3019     3005     2953     2893     2866     2899     2955     2963 
    2898     2795     2697     2632     2593     2559     2552     2577 
    2621     2682     2721     2731     2763     2829     2910     3003 
    3076     3109     3130     3127     3057     2928     2787     2663 
    2578     2542     2528     2558     2641     2731     2803     2860 
    2895     2928     2952     2940     2907     2883     2886     2907 
    2925     2920     2913     2929     2964     2999     3010     2968 
    2887     2822     2781     2752     2735     2713     2698     2691 
    2677     2675     2690     2708     2763     2847     2897     2910 
    2878     2786     2681     2583     2501     2467     2486     2554 
    2667     2803     2913     2988     3060     3103     3106     3106 
    3087     3025     2951     2856     2744     2667     2637     2663 
    2728     2774     2793     2828     2867     2907     2963     2997 
    3002     2992     2952     2867     2755     2658     2610     2621 
    2686     2764     2810     2825     2802     2747     2693     2654 
    2655     2721     2794     2816     2808     2783     2747     2735 
    2772     2851     2924     2960     2975     2974     2951     2911 
    2871     2860     2889     2913     2918     2937     2982     3037 
    3087     3119     3105     3042     2974     2914     2874     2856 
    2830     2793     2764     2737     2713     2712     2732     2767 
    2794     2802     2812     2840     2902     2987     3052     3076 
    3057     3019     3002     3018     3033     3046     3091     3144 
    3167     3137     3041     2914     2797     2708     2662     2637 
    2606     2586     2573     2543     2500     2444     2390     2370 
    2385     2432     2505     2577     2625     2647     2636     2614 
    2621     2650     2678     2709     2735     2762     2829     2922 
    3018     3130     3252     3368     3441     3426     3330     3196 
    3045     2894     2745     2601     2470     2353     2269     2234 
    2232     2276     2371     2497     2632     2754     2839     2880 
    2875     2849     2849     2870     2886     2897     2902     2920 
    2978     3060     3137     3195     3223     3222     3200     3173 
    3152     3146     3133     3082     2994     2902     2835     2789 
    2768     2778     2793     2785     2714     2566     2384     2223 
    2131     2153     2292     2481     2652     2786     2891     2965 
    2986     2957     2928     2924     2936     2957     2972     2970 
    2967     2964     2976     3028     3094     3161     3218     3219 
    3175     3127     3086     3053     3025     2987     2943     2887 
    2822     2767     2721     2691     2681     2673     2674     2695 
    2737     2763     2744     2713     2693     2670     2652     2641 
    2637     2671     2722     2729     2683     2627     2608     2641 
    2664     2624     2527     2392     2276     2236     2263     2331 
    2435     2552     2656     2758     2867     2960     3024     3057 
    3064     3076     3091     3092     3107     3148     3163     3140 
    3106     3060     3024     3042     3127     3273     3457     3611 
    3694     3690     3589     3446     3310     3168     3029     2911 
    2793     2679     2582     2473     2350     2250     2201     2187 
    2195     2245     2344     2498     2689     2870     3040     3208 
    3335     3370     3308     3175     3029     2918     2826     2729 
    2633     2532     2428     2342     2274     2249     2286     2374 
    2489     2589     2629     2632     2664     2740     2826     2897 
    2929     2936     2933     2899     2841     2791     2754     2733 
    2749     2793     2839     2907     3028     3150     3242     3308 
    3316     3289     3296     3319     3326     3310     3211     3032 
    2825     2598     2363     2165     2035     1987     2020     2137 
    2312     2511     2708     2875     2998     3086     3160     3230 
    3273     3284     3248     3121     2918     2694     2458     2242 
    2133     2164     2295     2485     2706     2925     3106     3226 
    3268     3238     3171     3083     2976     2849     2694     2502 
    2300     2150     2111     2203     2394     2623     2852     3056 
    3214     3329     3393     3379     3310     3241     3177     3106 
    3033     2974     2907     2821     2749     2670     2560     2477 
    2425     2390     2427     2552     2712     2853     2965     3048 
    3113     3188     3267     3330     3392     3423     3385     3284 
    3150     3015     2901     2790     2651     2502     2405     2365 
    2359     2382     2432     2519     2658     2794     2878     2941 
    3001     3041     3056     3017     2902     2739     2556     2396 
    2308     2307     2381     2517     2677     2802     2898     2979 
    3056     3177     3379     3613     3801     3893     3893     3820 
    3686     3511     3312     3130     2999     2890     2755     2598 
    2424     2238     2084     1983     1934     1965     2083     2251 
    2467     2731     2974     3140     3213     3144     2933     2652 
    2350     2073     1865     1749     1745     1841     2025     2301 
    2636     3021     3439     3797     4037     4139     4079     3901 
    3658     3373     3069     2770     2511     2351     2280     2247 
    2258     2334     2448     2574     2702     2798     2857     2921 
    2972     2963     2886     2760     2613     2478     2393     2382 
    2432     2506     2589     2650     2668     2697     2791     2949 
    3152     3368     3532     3609     3599     3500     3327     3117 
    2959     2913     2961     3064     3180     3284     3392     3470 
    3462     3356     3148     2893     2656     2443     2272     2164 
    2115     2137     2205     2278     2380     2517     2646     2744 
    2803     2814     2786     2743     2712     2686     2651     2636 
    2639     2633     2643     2675     2691     2689     2691     2701 
    2722     2774     2853     2955     3076     3204     3312     3365 
    3341     3256     3129     2976     2828     2694     2586     2513 
    2461     2428     2415     2419     2452     2496     2546     2648 
    2808     2998     3177     3283     3307     3277     3203     3118 
    3041     2955     2886     2848     2806     2776     2803     2871 
    2971     3075     3103     3048     2959     2857     2754     2641 
    2536     2469     2446     2457     2470     2471     2467     2486 
    2542     2589     2613     2658     2720     2806     2930     3057 
    3180     3314     3439     3532     3599     3647     3670     3678 
    3694     3681     3595     3429     3190     2937     2708     2502 
    2344     2230     2145     2110     2112     2135     2205     2303 
    2366     2394     2393     2359     2346     2378     2428     2484 
    2533     2566     2609     2675     2749     2872     3061     3260 
    3442     3592     3635     3568     3442     3268     3053     2847 
    2685     2592     2597     2683     2801     2947     3092     3180 
    3226     3241     3194     3099     2968     2775     2569     2407 
    2270     2181     2145     2106     2087     2131     2212     2313 
    2425     2544     2702     2882     3049     3200     3302     3311 
    3234     3105     2959     2826     2710     2585     2439     2322 
    2266     2274     2388     2604     2845     3080     3287     3426 
    3523     3586     3601     3597     3562     3458     3302     3115 
    2913     2748     2640     2556     2489     2462     2494     2605 
    2775     2976     3206     3431     3605     3701     3686     3566 
    3373     3090     2716     2317     1964     1713     1591     1576 
    1664     1850     2092     2347     2602     2839     3018     3106 
    3113     3061     2938     2756     2562     2378     2226     2141 
    2122     2157     2266     2462     2717     2998     3283     3572 
    3844     4041     4133     4121     4008     3829     3609     3348 
    3096     2913     2808     2767     2763     2776     2801     2820 
    2825     2802     2735     2646     2538     2384     2227     2122 
    2060     2053     2116     2224     2377     2578     2799     3022 
    3213     3334     3369     3322     3211     3069     2943     2843 
    2756     2722     2762     2832     2930     3033     3090     3110 
    3115     3111     3109     3099     3082     3064     3028     2947 
    2814     2644     2482     2362     2303     2320     2424     2606 
    2816     2997     3133     3208     3221     3187     3080     2906 
    2698     2450     2201     2006     1853     1752     1729     1784 
    1910     2110     2366     2640     2910     3177     3430     3673 
    3898     4070     4176     4193     4112     3969     3786     3581 
    3370     3160     2982     2868     2825     2837     2874     2890 
    2862     2787     2646     2417     2149     1904     1696     1532 
    1432     1416     1495     1645     1854     2124     2397     2654 
    2949     3284     3601     3866     4067     4193     4221     4152 
    4018     3835     3630     3446     3287     3121     2944     2772 
    2596     2407     2220     2049     1904     1818     1810     1857 
    1934     2058     2219     2385     2542     2674     2783     2875 
    2920     2903     2852     2789     2721     2667     2650     2663 
    2721     2853     3006     3115     3188     3235     3256     3273 
    3298     3307     3300     3269     3183     3042     2917     2828 
    2740     2646     2535     2378     2215     2110     2088     2162 
    2301     2455     2597     2735     2902     3105     3310     3515 
    3705     3813     3832     3794     3694     3532     3318     3061 
    2817     2610     2428     2282     2196     2173     2218     2311 
    2423     2531     2627     2721     2806     2859     2893     2911 
    2906     2891     2876     2859     2839     2805     2781     2805 
    2876     2975     3107     3237     3311     3337     3296     3161 
    2979     2801     2621     2462     2361     2308     2272     2258 
    2265     2280     2312     2366     2451     2585     2741     2909 
    3087     3267     3423     3532     3582     3573     3512     3442 
    3385     3327     3258     3194     3125     3029     2929     2855 
    2785     2695     2621     2565     2494     2425     2363     2288 
    2215     2188     2224     2297     2389     2489     2571     2633 
    2671     2681     2701     2751     2814     2891     2965     3032 
    3115     3217     3318     3380     3402     3416     3424     3426 
    3406     3337     3244     3160     3045     2882     2701     2513 
    2335     2219     2168     2138     2122     2134     2182     2255 
    2365     2538     2740     2917     3045     3117     3121     3072 
    3024     2991     2952     2913     2890     2899     2957     3041 
    3127     3213     3242     3194     3098     2955     2766     2590 
    2463     2370     2265     2135     2016     1944     1944     2054 
    2251     2447     2614     2770     2895     2971     3029     3107 
    3211     3345     3489     3592     3663     3758     3848     3888 
    3839     3694     3484     3223     2910     2575     2272     2045 
    1931     1929     1992     2111     2278     2479     2709     2916 
    3063     3159     3194     3200     3188     3117     3032     2983 
    2943     2914     2890     2837     2768     2697     2639     2604 
    2587     2583     2585     2594     2631     2697     2774     2843 
    2898     2933     2941     2905     2820     2705     2592     2509 
    2473     2463     2451     2427     2416     2432     2478     2562 
    2662     2760     2874     2998     3123     3237     3300     3318 
    3300     3227     3130     3049     2953     2837     2741     2663 
    2590     2560     2585     2617     2659     2729     2816     2930 
    3072     3203     3321     3433     3523     3585     3607     3558 
    3458     3342     3198     3024     2833     2635     2446     2290 
    2188     2124     2108     2168     2280     2413     2559     2682 
    2763     2809     2806     2776     2759     2736     2704     2685 
    2682     2710     2767     2825     2889     2970     3040     3114 
    3202     3280     3366     3457     3514     3543     3528     3445 
    3314     3149     2959     2755     2551     2388     2276     2201 
    2176     2182     2212     2290     2425     2586     2758     2957 
    3172     3341     3454     3489     3403     3272     3172     3088 
    3009     2932     2852     2760     2633     2500     2386     2296 
    2242     2230     2239     2243     2235     2239     2262     2296 
    2354     2417     2462     2505     2558     2596     2629     2683 
    2744     2802     2878     2991     3137     3298     3457     3599 
    3705     3770     3798     3771     3670     3514     3337     3159 
    2979     2793     2609     2424     2250     2124     2045     1996 
    1981     1995     2038     2104     2197     2305     2405     2506 
    2617     2728     2848     2959     3044     3113     3136     3111 
    3107     3156     3245     3370     3524     3696     3871     4016 
    4105     4106     4009     3852     3658     3422     3161     2906 
    2664     2435     2224     2043     1885     1776     1723     1690 
    1680     1723     1825     1984     2191     2430     2674     2874 
    3013     3121     3202     3240     3248     3233     3176     3088 
    3002     2924     2832     2736     2690     2729     2821     2929 
    3026     3083     3088     3057     3017     2967     2884     2785 
    2705     2656     2643     2652     2670     2704     2756     2795 
    2793     2751     2708     2683     2670     2662     2650     2629 
    2605     2579     2548     2515     2490     2489     2494     2494 
    2517     2577     2640     2710     2795     2868     2940     3040 
    3150     3249     3343     3418     3465     3504     3542     3572 
    3595     3608     3605     3573     3499     3388     3244     3071 
    2914     2795     2708     2666     2685     2749     2843     2937 
    2975     2948     2891     2810     2712     2609     2490     2363 
    2241     2131     2064     2023     2026     2107     2228     2366 
    2551     2781     3007     3211     3391     3522     3600     3638 
    3612     3508     3373     3222     3042     2862     2686     2527 
    2405     2309     2228     2182     2180     2212     2259     2312 
    2355     2385     2423     2461     2492     2531     2563     2578 
    2583     2587     2585     2585     2585     2582     2592     2620 
    2658     2717     2802     2882     2959     3038     3090     3123 
    3159     3157     3134     3130     3115     3075     3019     2951 
