Origin Time       2025/06/03 22:18:00
Lat.              41.7
Long.             143.6
Depth. (km)       30
Mag.              5.2
Station Code      IBUH01
Station Lat.      42.8739
Station Long.     141.8191
Station Height(m) 60
Record Time       2025/06/03 22:18:59
Sampling Freq(Hz) 100Hz
Duration Time(s)  120
Dir.              5
Scale Factor      7845(gal)/8223790
Max. Acc. (gal)   1.837
Last Correction   2025/06/03 22:18:59
Memo.             
[...]
   -7194    -7146    -7096    -7042    -6990    -6934    -6880    -6832 
   -6801    -6793    -6804    -6817    -6822    -6813    -6775    -6704 
   -6621    -6552    -6517    -6534    -6604    -6708    -6816    -6897 
   -6932    -6920    -6868    -6786    -6696    -6632    -6612    -6635 
   -6698    -6790    -6889    -6966    -7007    -7007    -6967    -6899 
   -6833    -6802    -6822    -6886    -6959    -7010    -7028    -7005 
   -6949    -6886    -6844    -6843    -6870    -6912    -6951    -6968 
   -6959    -6933    -6903    -6870    -6840    -6820    -6812    -6833 
   -6887    -6952    -6995    -7001    -6964    -6887    -6785    -6687 
   -6628    -6627    -6687    -6794    -6926    -7061    -7163    -7209 
   -7191    -7113    -6998    -6886    -6809    -6789    -6837    -6941 
   -7061    -7153    -7182    -7128    -6990    -6801    -6609    -6463 
   -6397    -6416    -6501    -6623    -6739    -6821    -6855    -6841 
   -6805    -6770    -6752    -6764    -6808    -6874    -6945    -6999 
   -7021    -7006    -6959    -6894    -6831    -6775    -6743    -6741 
   -6758    -6771    -6763    -6735    -6691    -6647    -6625    -6642 
   -6697    -6774    -6862    -6949    -7017    -7047    -7045    -7024 
   -6993    -6956    -6917    -6874    -6836    -6812    -6801    -6801 
   -6817    -6853    -6893    -6914    -6907    -6862    -6789    -6713 
   -6651    -6613    -6598    -6600    -6604    -6615    -6637    -6683 
   -6755    -6849    -6953    -7041    -7087    -7080    -7022    -6939 
   -6855    -6791    -6759    -6762    -6785    -6809    -6832    -6856 
   -6880    -6910    -6944    -6978    -7002    -7020    -7037    -7052 
   -7059    -7064    -7076    -7091    -7103    -7107    -7092    -7057 
   -7010    -6957    -6907    -6864    -6828    -6789    -6751    -6725 
   -6706    -6694    -6687    -6686    -6694    -6702    -6702    -6698 
   -6698    -6704    -6727    -6774    -6845    -6925    -7001    -7067 
   -7111    -7115    -7084    -7036    -6980    -6932    -6901    -6875 
   -6847    -6821    -6793    -6758    -6724    -6690    -6654    -6620 
   -6593    -6586    -6613    -6667    -6731    -6789    -6826    -6839 
   -6829    -6816    -6816    -6839    -6889    -6961    -7038    -7107 
   -7150    -7160    -7140    -7096    -7026    -6944    -6864    -6794 
   -6750    -6733    -6736    -6747    -6758    -6759    -6747    -6723 
   -6691    -6660    -6637    -6628    -6624    -6631    -6662    -6724 
   -6829    -6978    -7138    -7271    -7346    -7349    -7280    -7163 
   -7034    -6929    -6871    -6866    -6895    -6934    -6949    -6920 
   -6851    -6763    -6677    -6609    -6577    -6585    -6620    -6662 
   -6691    -6702    -6709    -6721    -6752    -6817    -6910    -7013 
   -7107    -7169    -7186    -7156    -7087    -6999    -6909    -6832 
   -6777    -6737    -6712    -6687    -6663    -6650    -6640    -6625 
   -6613    -6606    -6602    -6605    -6615    -6625    -6643    -6664 
   -6690    -6731    -6793    -6871    -6960    -7044    -7110    -7140 
   -7123    -7069    -6999    -6937    -6898    -6882    -6880    -6878 
   -6866    -6847    -6826    -6808    -6799    -6810    -6835    -6866 
   -6898    -6930    -6956    -6967    -6960    -6924    -6864    -6802 
   -6748    -6723    -6743    -6794    -6858    -6918    -6960    -6972 
   -6970    -6961    -6951    -6934    -6907    -6868    -6817    -6762 
   -6708    -6663    -6635    -6632    -6650    -6678    -6713    -6754 
   -6798    -6841    -6878    -6898    -6899    -6883    -6863    -6852 
   -6845    -6839    -6832    -6825    -6814    -6809    -6813    -6826 
   -6853    -6889    -6916    -6934    -6949    -6971    -7003    -7042 
   -7080    -7102    -7094    -7060    -7010    -6960    -6930    -6918 
   -6916    -6926    -6949    -6972    -6984    -6986    -6982    -6971 
   -6957    -6940    -6910    -6874    -6835    -6795    -6758    -6724 
   -6704    -6705    -6724    -6754    -6790    -6812    -6801    -6766 
   -6717    -6669    -6632    -6624    -6652    -6713    -6790    -6875 
   -6952    -7006    -7022    -7003    -6961    -6920    -6893    -6897 
   -6934    -6995    -7060    -7106    -7109    -7068    -7002    -6929 
   -6872    -6845    -6843    -6855    -6875    -6883    -6872    -6849 
   -6810    -6764    -6729    -6704    -6678    -6651    -6627    -6610 
   -6610    -6623    -6648    -6686    -6736    -6797    -6863    -6925 
   -6964    -6979    -6976    -6955    -6922    -6890    -6863    -6848 
   -6851    -6864    -6879    -6889    -6886    -6871    -6851    -6826 
   -6812    -6814    -6817    -6813    -6802    -6771    -6720    -6658 
   -6598    -6561    -6562    -6594    -6651    -6720    -6782    -6824 
   -6844    -6841    -6818    -6797    -6797    -6835    -6916    -7025 
   -7133    -7210    -7233    -7192    -7105    -7001    -6914    -6863 
   -6851    -6871    -6894    -6898    -6878    -6839    -6777    -6709 
   -6658    -6635    -6643    -6685    -6748    -6817    -6876    -6920 
   -6940    -6934    -6917    -6912    -6940    -7009    -7103    -7195 
   -7256    -7258    -7198    -7084    -6941    -6797    -6689    -6643 
   -6658    -6709    -6768    -6813    -6828    -6810    -6767    -6717 
   -6685    -6686    -6723    -6785    -6849    -6889    -6897    -6875 
   -6831    -6781    -6740    -6721    -6728    -6754    -6787    -6825 
   -6864    -6891    -6898    -6878    -6833    -6772    -6710    -6669 
   -6663    -6697    -6759    -6833    -6897    -6934    -6945    -6941 
   -6936    -6939    -6960    -6990    -7026    -7064    -7088    -7088 
   -7061    -6993    -6887    -6766    -6648    -6554    -6508    -6517 
   -6573    -6656    -6741    -6810    -6853    -6868    -6866    -6863 
   -6868    -6886    -6914    -6943    -6955    -6952    -6937    -6922 
   -6926    -6955    -7001    -7060    -7123    -7176    -7199    -7188 
   -7144    -7065    -6971    -6885    -6810    -6751    -6709    -6678 
   -6648    -6617    -6592    -6583    -6594    -6632    -6689    -6750 
   -6814    -6879    -6933    -6976    -7005    -7020    -7018    -6993 
   -6940    -6867    -6781    -6702    -6651    -6635    -6652    -6702 
   -6774    -6851    -6916    -6955    -6961    -6945    -6918    -6891 
   -6879    -6893    -6926    -6968    -7002    -7011    -6993    -6947 
   -6885    -6825    -6782    -6762    -6764    -6786    -6808    -6820 
   -6817    -6795    -6755    -6701    -6647    -6608    -6606    -6655 
   -6750    -6876    -7011    -7118    -7176    -7186    -7145    -7072 
   -7005    -6968    -6974    -7007    -7045    -7067    -7057    -7013 
   -6930    -6824    -6731    -6675    -6658    -6674    -6714    -6760 
   -6786    -6787    -6775    -6755    -6735    -6717    -6704    -6694 
   -6694    -6701    -6702    -6698    -6687    -6670    -6655    -6658 
   -6683    -6737    -6814    -6901    -6979    -7037    -7068    -7076 
   -7069    -7045    -6997    -6930    -6866    -6816    -6783    -6767 
   -6764    -6763    -6752    -6736    -6720    -6712    -6725    -6755 
   -6793    -6833    -6867    -6876    -6860    -6825    -6766    -6687 
   -6615    -6565    -6547    -6562    -6608    -6667    -6721    -6762 
   -6785    -6801    -6824    -6864    -6926    -6998    -7065    -7113 
   -7132    -7126    -7111    -7101    -7101    -7118    -7152    -7190 
   -7221    -7233    -7210    -7150    -7059    -6945    -6832    -6740 
   -6683    -6660    -6652    -6631    -6582    -6519    -6462    -6434 
   -6457    -6529    -6636    -6754    -6845    -6893    -6901    -6889 
   -6885    -6917    -6994    -7105    -7230    -7330    -7365    -7323 
   -7215    -7068    -6922    -6817    -6767    -6767    -6805    -6858 
   -6901    -6918    -6905    -6859    -6804    -6755    -6731    -6739 
   -6778    -6844    -6929    -7014    -7078    -7103    -7080    -7009 
   -6909    -6804    -6721    -6687    -6705    -6758    -6832    -6907 
   -6974    -7007    -6988    -6922    -6826    -6717    -6613    -6536 
   -6492    -6482    -6508    -6555    -6615    -6671    -6710    -6733 
   -6744    -6762    -6804    -6885    -6993    -7096    -7168    -7177 
   -7111    -6993    -6855    -6723    -6620    -6565    -6552    -6579 
   -6631    -6691    -6754    -6802    -6826    -6824    -6798    -6756 
   -6713    -6682    -6679    -6709    -6768    -6839    -6891    -6914 
   -6901    -6855    -6798    -6760    -6764    -6824    -6924    -7034 
   -7125    -7175    -7168    -7106    -7013    -6921    -6855    -6833 
   -6864    -6943    -7048    -7159    -7244    -7269    -7217    -7084 
   -6897    -6701    -6542    -6463    -6485    -6586    -6724    -6847 
   -6922    -6933    -6883    -6794    -6705    -6647    -6640    -6687 
   -6775    -6868    -6939    -6967    -6939    -6872    -6802    -6767 
   -6795    -6899    -7072    -7280    -7468    -7578    -7580    -7476 
   -7288    -7064    -6852    -6689    -6592    -6562    -6586    -6639 
   -6694    -6718    -6687    -6598    -6478    -6366    -6303    -6313 
   -6393    -6498    -6592    -6633    -6605    -6521    -6421    -6355 
   -6367    -6474    -6658    -6874    -7060    -7173    -7184    -7076 
   -6867    -6608    -6365    -6196    -6134    -6187    -6335    -6531 
   -6714    -6837    -6882    -6868    -6833    -6813    -6840    -6914 
   -7006    -7071    -7080    -7022    -6905    -6764    -6646    -6581 
   -6593    -6685    -6835    -7014    -7186    -7310    -7365    -7344 
   -7253    -7123    -6982    -6860    -6783    -6759    -6779    -6837 
   -6920    -7003    -7067    -7092    -7086    -7074    -7088    -7149 
   -7276    -7464    -7676    -7855    -7946    -7908    -7746    -7491 
   -7194    -6914    -6702    -6583    -6558    -6610    -6709    -6822 
   -6928    -6997    -7003    -6949    -6840    -6685    -6517    -6374 
   -6285    -6276    -6351    -6478    -6616    -6740    -6835    -6905 
   -6967    -7037    -7130    -7250    -7381    -7489    -7538    -7507 
   -7403    -7253    -7105    -6995    -6943    -6952    -7003    -7061 
   -7087    -7055    -6944    -6762    -6529    -6281    -6057    -5895 
   -5823    -5841    -5927    -6052    -6183    -6291    -6365    -6415 
   -6463    -6536    -6646    -6790    -6949    -7087    -7176    -7215 
   -7214    -7195    -7184    -7198    -7250    -7354    -7497    -7649 
   -7776    -7843    -7835    -7762    -7636    -7477    -7298    -7110 
   -6913    -6708    -6485    -6245    -5998    -5780    -5632    -5582 
   -5651    -5823    -6060    -6313    -6548    -6736    -6872    -6967 
   -7037    -7101    -7177    -7264    -7335    -7365    -7350    -7296 
   -7217    -7149    -7115    -7136    -7229    -7377    -7543    -7688 
   -7780    -7794    -7719    -7555    -7325    -7047    -6752    -6478 
   -6265    -6139    -6110    -6157    -6253    -6346    -6394    -6377 
   -6291    -6151    -6004    -5902    -5876    -5952    -6133    -6393 
   -6685    -6968    -7219    -7412    -7541    -7605    -7603    -7542 
   -7438    -7300    -7138    -6967    -6798    -6639    -6496    -6382 
   -6303    -6266    -6280    -6339    -6435    -6540    -6627    -6682 
   -6700    -6671    -6621    -6578    -6562    -6598    -6704    -6874 
   -7092    -7327    -7519    -7620    -7609    -7492    -7283    -7020 
   -6760    -6555    -6438    -6426    -6513    -6677    -6887    -7114 
   -7310    -7442    -7497    -7474    -7402    -7322    -7258    -7209 
   -7160    -7113    -7076    -7063    -7075    -7110    -7150    -7160 
   -7110    -6978    -6770    -6519    -6270    -6070    -5952    -5923 
   -5983    -6115    -6282    -6450    -6594    -6706    -6786    -6843 
   -6895    -6964    -7049    -7148    -7252    -7342    -7404    -7437 
   -7431    -7395    -7348    -7304    -7268    -7246    -7233    -7213 
   -7164    -7084    -6972    -6835    -6678    -6502    -6309    -6107 
   -5908    -5737    -5614    -5566    -5610    -5737    -5930    -6166 
   -6407    -6639    -6860    -7078    -7284    -7456    -7558    -7562 
   -7443    -7219    -6953    -6725    -6610    -6658    -6858    -7144 
   -7434    -7655    -7759    -7735    -7609    -7426    -7221    -7022 
   -6847    -6702    -6577    -6469    -6388    -6347    -6369    -6477 
   -6677    -6948    -7245    -7507    -7659    -7657    -7487    -7184 
   -6821    -6480    -6231    -6124    -6173    -6351    -6604    -6890 
   -7173    -7414    -7589    -7682    -7690    -7627    -7518    -7399 
   -7300    -7225    -7167    -7095    -6976    -6802    -6589    -6365 
   -6173    -6049    -6011    -6061    -6185    -6339    -6484    -6604 
   -6682    -6718    -6718    -6679    -6610    -6535    -6469    -6415 
   -6370    -6332    -6303    -6299    -6345    -6461    -6643    -6872 
   -7129    -7371    -7557    -7654    -7642    -7533    -7349    -7128 
   -6909    -6718    -6579    -6507    -6488    -6496    -6507    -6501 
   -6469    -6419    -6369    -6345    -6366    -6438    -6552    -6681 
   -6781    -6828    -6828    -6797    -6755    -6735    -6775    -6886 
   -7055    -7246    -7415    -7514    -7533    -7473    -7344    -7155 
   -6936    -6716    -6528    -6401    -6350    -6373    -6446    -6540 
   -6628    -6683    -6710    -6735    -6771    -6826    -6901    -6972 
   -7015    -7011    -6959    -6880    -6814    -6786    -6810    -6893 
   -7026    -7194    -7358    -7485    -7554    -7569    -7539    -7484 
   -7430    -7403    -7423    -7495    -7601    -7715    -7793    -7805 
   -7732    -7566    -7317    -7005    -6650    -6280    -5915    -5582 
   -5304    -5090    -4958    -4927    -5003    -5179    -5432    -5715 
   -5995    -6243    -6450    -6623    -6775    -6910    -7028    -7117 
   -7165    -7157    -7096    -6999    -6882    -6777    -6721    -6727 
   -6790    -6907    -7065    -7237    -7391    -7495    -7533    -7496 
   -7389    -7236    -7072    -6928    -6825    -6787    -6805    -6847 
   -6889    -6916    -6913    -6887    -6856    -6845    -6862    -6897 
   -6934    -6961    -6966    -6924    -6836    -6709    -6566    -6446 
   -6390    -6431    -6581    -6826    -7125    -7414    -7638    -7747 
   -7727    -7600    -7406    -7204    -7044    -6941    -6897    -6895 
   -6899    -6883    -6836    -6763    -6686    -6631    -6613    -6647 
   -6732    -6839    -6928    -6963    -6928    -6831    -6701    -6582 
   -6516    -6527    -6619    -6790    -7010    -7237    -7427    -7560 
   -7628    -7626    -7560    -7447    -7299    -7130    -6976    -6859 
   -6779    -6741    -6744    -6763    -6771    -6752    -6697    -6613 
   -6512    -6415    -6342    -6301    -6292    -6309    -6332    -6335 
   -6312    -6274    -6235    -6218    -6254    -6355    -6525    -6752 
   -6995    -7210    -7362    -7437    -7434    -7380    -7295    -7202 
   -7117    -7042    -6978    -6918    -6860    -6813    -6782    -6768 
   -6781    -6822    -6886    -6964    -7055    -7140    -7207    -7252 
   -7263    -7233    -7173    -7090    -6982    -6872    -6777    -6704 
   -6663    -6662    -6691    -6743    -6801    -6840    -6848    -6818 
   -6760    -6694    -6640    -6609    -6598    -6593    -6583    -6565 
   -6544    -6548    -6605    -6729    -6920    -7136    -7325    -7443 
   -7469    -7399    -7267    -7114    -6972    -6866    -6805    -6785 
   -6801    -6845    -6917    -7007    -7099    -7173    -7213    -7199 
   -7134    -7032    -6914    -6810    -6744    -6727    -6758    -6822 
   -6901    -6963    -6979    -6947    -6880    -6802    -6743    -6728 
   -6767    -6849    -6955    -7052    -7107    -7103    -7028    -6887 
   -6705    -6511    -6328    -6205    -6180    -6261    -6439    -6683 
   -6945    -7172    -7322    -7376    -7353    -7280    -7184    -7086 
   -6999    -6929    -6871    -6808    -6736    -6666    -6604    -6552 
   -6515    -6494    -6494    -6505    -6513    -6517    -6513    -6489 
   -6450    -6408    -6373    -6357    -6376    -6440    -6550    -6701 
   -6879    -7064    -7230    -7349    -7399    -7376    -7276    -7109 
   -6909    -6717    -6566    -6478    -6454    -6465    -6474    -6453 
   -6394    -6313    -6231    -6176    -6173    -6226    -6324    -6455 
   -6597    -6729    -6840    -6921    -6976    -7005    -7003    -6982 
   -6960    -6952    -6974    -7041    -7160    -7308    -7449    -7565 
   -7635    -7654    -7630    -7572    -7493    -7408    -7326    -7246 
   -7168    -7088    -7006    -6916    -6822    -6747    -6702    -6686 
   -6697    -6727    -6770    -6817    -6862    -6909    -6953    -6988 
   -7021    -7056    -7094    -7130    -7165    -7199    -7233    -7249 
   -7240    -7214    -7180    -7156    -7150    -7163    -7180    -7184 
   -7161    -7102    -6993    -6841    -6675    -6524    -6407    -6338 
   -6324    -6354    -6412    -6473    -6523    -6559    -6590    -6625 
   -6664    -6706    -6751    -6783    -6791    -6763    -6693    -6596 
   -6497    -6423    -6399    -6436    -6531    -6669    -6828    -6974 
   -7079    -7132    -7136    -7101    -7051    -7005    -6970    -6952 
   -6949    -6948    -6944    -6930    -6897    -6851    -6802    -6758 
   -6728    -6717    -6733    -6764    -6791    -6797    -6766    -6691 
   -6583    -6462    -6367    -6332    -6370    -6473    -6616    -6763 
   -6889    -6978    -7021    -7026    -7010    -6980    -6936    -6882 
   -6832    -6793    -6771    -6778    -6821    -6897    -6984    -7063 
   -7109    -7098    -7028    -6917    -6791    -6681    -6605    -6577 
   -6593    -6644    -6717    -6797    -6872    -6943    -7009    -7075 
   -7134    -7179    -7199    -7184    -7126    -7034    -6926    -6813 
   -6702    -6606    -6532    -6480    -6450    -6443    -6461    -6508 
   -6575    -6658    -6751    -6841    -6924    -6994    -7052    -7101 
   -7138    -7164    -7182    -7196    -7211    -7227    -7242    -7260 
   -7275    -7281    -7275    -7258    -7233    -7195    -7148    -7101 
   -7055    -7006    -6964    -6937    -6918    -6905    -6902    -6917 
   -6945    -6976    -7003    -7025    -7028    -7001    -6945    -6871 
   -6787    -6706    -6639    -6590    -6563    -6558    -6581    -6628 
   -6690    -6752    -6808    -6848    -6874    -6880    -6862    -6820 
   -6774    -6732    -6694    -6673    -6675    -6694    -6729    -6768 
   -6799    -6813    -6805    -6783    -6771    -6775    -6799    -6849 
   -6921    -6999    -7068    -7115    -7128    -7094    -7021    -6917 
   -6787    -6654    -6540    -6451    -6390    -6365    -6369    -6404 
   -6466    -6547    -6636    -6721    -6786    -6822    -6826    -6797 
   -6748    -6697    -6651    -6616    -6597    -6590    -6605    -6656 
   -6736    -6831    -6928    -7013    -7072    -7103    -7110    -7095 
   -7072    -7052    -7034    -7017    -6994    -6960    -6914    -6853 
   -6772    -6670    -6554    -6436    -6326    -6250    -6237    -6300 
   -6434    -6619    -6816    -6986    -7101    -7142    -7126    -7086 
   -7045    -7024    -7034    -7072    -7122    -7164    -7191    -7196 
   -7177    -7136    -7076    -7010    -6939    -6868    -6814    -6791 
   -6801    -6839    -6903    -6980    -7047    -7095    -7128    -7149 
   -7177    -7226    -7288    -7361    -7430    -7468    -7466    -7423 
   -7339    -7226    -7105    -6988    -6890    -6810    -6744    -6682 
   -6612    -6527    -6434    -6339    -6255    -6195    -6168    -6172 
   -6199    -6239    -6281    -6315    -6342    -6358    -6374    -6399 
