Origin Time       2025/06/03 22:18:00
Lat.              41.7
Long.             143.6
Depth. (km)       30
Mag.              5.2
Station Code      IBUH01
Station Lat.      42.8739
Station Long.     141.8191
Station Height(m) -40.6
Record Time       2025/06/03 22:18:59
Sampling Freq(Hz) 100Hz
Duration Time(s)  120
Dir.              1
Scale Factor      2942(gal)/8224139
Max. Acc. (gal)   0.260
Last Correction   2025/06/03 22:18:59
Memo.             
[...]
  133840   133866   133891   133911   133921   133921   133913   133894 
  133867   133840   133820   133805   133801   133801   133799   133797 
  133798   133806   133822   133832   133833   133833   133826   133813 
  133799   133795   133801   133807   133817   133834   133852   133861 
  133863   133855   133839   133821   133794   133767   133749   133737 
  133728   133724   133726   133728   133731   133744   133764   133776 
  133780   133778   133766   133741   133710   133683   133659   133639 
  133627   133627   133637   133656   133677   133699   133724   133744 
  133756   133759   133752   133736   133720   133713   133718   133733 
  133760   133799   133845   133893   133936   133972   133999   134017 
  134021   134017   134006   133987   133968   133961   133963   133968 
  133983   134005   134021   134032   134040   134044   134041   134032 
  134013   133992   133978   133968   133968   133968   133967   133969 
  133967   133957   133947   133933   133914   133894   133879   133875 
  133871   133867   133870   133872   133870   133864   133859   133853 
  133845   133832   133809   133786   133762   133741   133729   133724 
  133722   133724   133724   133717   133705   133689   133675   133671 
  133668   133658   133644   133637   133632   133629   133633   133643 
  133655   133672   133693   133716   133741   133760   133779   133798 
  133807   133812   133814   133817   133814   133806   133805   133813 
  133826   133845   133866   133880   133890   133901   133906   133910 
  133917   133921   133920   133910   133898   133890   133883   133875 
  133871   133866   133863   133864   133860   133855   133859   133864 
  133875   133894   133914   133932   133944   133956   133968   133980 
  133996   134019   134037   134044   134049   134059   134065   134065 
  134059   134048   134037   134019   133996   133971   133945   133920 
  133890   133852   133812   133772   133737   133717   133710   133720 
  133737   133755   133772   133786   133793   133794   133794   133786 
  133768   133740   133709   133682   133666   133663   133672   133687 
  133702   133714   133721   133721   133721   133714   133699   133679 
  133658   133633   133614   133606   133606   133613   133624   133636 
  133655   133670   133681   133695   133709   133716   133722   133735 
  133755   133785   133813   133832   133841   133851   133861   133870 
  133871   133864   133860   133859   133860   133870   133884   133899 
  133914   133926   133933   133936   133936   133936   133933   133924 
  133917   133914   133917   133925   133930   133932   133933   133930 
  133933   133941   133944   133948   133957   133967   133979   133995 
  133999   133994   133987   133969   133941   133917   133895   133878 
  133867   133857   133845   133839   133841   133851   133867   133886 
  133901   133907   133905   133899   133901   133913   133925   133932 
  133936   133932   133910   133880   133853   133829   133807   133791 
  133786   133782   133770   133747   133713   133678   133647   133618 
  133594   133579   133564   133550   133543   133547   133558   133577 
  133602   133627   133651   133686   133731   133774   133810   133837 
  133855   133867   133876   133884   133890   133893   133888   133882 
  133871   133860   133856   133849   133840   133833   133821   133813 
  133807   133802   133802   133809   133813   133817   133820   133816 
  133816   133820   133828   133830   133830   133833   133840   133849 
  133856   133857   133863   133872   133879   133888   133902   133922 
  133944   133965   133982   133983   133971   133953   133938   133928 
  133925   133924   133920   133914   133906   133893   133879   133872 
  133863   133847   133830   133821   133813   133803   133793   133782 
  133780   133790   133799   133816   133833   133843   133861   133887 
  133907   133925   133949   133980   134009   134037   134063   134077 
  134083   134080   134076   134076   134080   134082   134073   134052 
  134019   133990   133972   133963   133960   133965   133972   133974 
  133971   133965   133953   133936   133917   133897   133870   133845 
  133828   133813   133803   133806   133813   133817   133821   133817 
  133816   133820   133828   133829   133820   133798   133772   133753 
  133739   133724   133712   133698   133685   133671   133654   133633 
  133616   133598   133583   133577   133573   133571   133579   133594 
  133610   133625   133637   133645   133647   133643   133629   133612 
  133591   133571   133550   133529   133515   133502   133496   133504 
  133527   133547   133562   133577   133593   133601   133605   133606 
  133604   133596   133589   133590   133604   133628   133656   133686 
  133716   133744   133768   133793   133824   133857   133888   133906 
  133909   133906   133903   133895   133884   133874   133860   133853 
  133857   133872   133890   133901   133901   133891   133875   133861 
  133851   133843   133840   133841   133836   133825   133814   133802 
  133791   133795   133807   133821   133840   133853   133856   133848 
  133832   133814   133801   133783   133768   133751   133731   133714 
  133693   133670   133659   133654   133644   133636   133627   133620 
  133629   133652   133678   133706   133731   133736   133726   133713 
  133704   133708   133732   133762   133789   133812   133832   133847 
  133856   133866   133886   133918   133960   134002   134037   134059 
  134064   134056   134038   134013   133988   133967   133951   133942 
  133940   133941   133953   133974   133998   134023   134045   134057 
  134065   134072   134077   134084   134088   134091   134102   134115 
  134122   134118   134114   134107   134095   134080   134063   134042 
  134023   134005   133987   133976   133971   133972   133980   133999 
  134033   134068   134091   134098   134092   134071   134033   133983 
  133934   133890   133851   133814   133780   133743   133702   133660 
  133618   133570   133520   133479   133448   133429   133424   133424 
  133429   133438   133447   133466   133496   133536   133581   133618 
  133655   133686   133706   133713   133714   133713   133705   133695 
  133687   133678   133666   133660   133663   133672   133685   133699 
  133712   133713   133705   133694   133686   133679   133683   133697 
  133712   133733   133763   133795   133834   133874   133910   133959 
  134015   134075   134131   134180   134215   134241   134248   134239 
  134221   134191   134152   134106   134065   134034   134011   133995 
  133982   133960   133926   133886   133841   133806   133797   133809 
  133845   133898   133956   134006   134044   134063   134073   134087 
  134107   134137   134172   134214   134257   134291   134318   134333 
  134327   134302   134249   134168   134069   133965   133871   133798 
  133736   133677   133621   133566   133516   133479   133462   133470 
  133512   133571   133629   133671   133693   133704   133714   133733 
  133756   133785   133821   133866   133917   133968   134009   134029 
  134022   133988   133941   133891   133829   133752   133663   133567 
  133477   133401   133353   133328   133317   133315   133316   133319 
  133321   133332   133353   133381   133417   133469   133536   133623 
  133720   133822   133921   134002   134053   134068   134050   134019 
  133984   133941   133895   133849   133806   133770   133745   133739 
  133745   133755   133752   133745   133745   133743   133741   133751 
  133760   133767   133775   133787   133801   133813   133833   133855 
  133871   133878   133884   133887   133882   133867   133848   133830 
  133820   133812   133820   133857   133910   133971   134038   134110 
  134172   134223   134257   134265   134252   134222   134177   134117 
  134042   133961   133886   133824   133782   133760   133755   133755 
  133760   133766   133762   133752   133735   133709   133694   133694 
  133712   133756   133822   133895   133961   134010   134032   134026 
  133999   133959   133911   133856   133805   133768   133748   133745 
  133764   133787   133801   133797   133771   133725   133668   133616 
  133570   133540   133529   133533   133550   133583   133633   133698 
  133768   133834   133893   133936   133956   133963   133971   133982 
  133994   134011   134028   134034   134032   134021   133998   133965 
  133933   133905   133886   133872   133861   133848   133830   133812 
  133795   133780   133776   133783   133801   133822   133843   133860 
  133871   133864   133845   133824   133807   133798   133794   133799 
  133809   133814   133816   133820   133829   133848   133872   133903 
  133932   133956   133982   134002   134009   134010   134003   133990 
  133984   133988   133990   133987   133972   133941   133901   133857 
  133821   133794   133779   133776   133775   133771   133759   133736 
  133709   133678   133652   133637   133632   133636   133645   133663 
  133689   133717   133751   133787   133810   133810   133793   133759 
  133714   133674   133658   133678   133725   133782   133833   133867 
  133891   133913   133928   133933   133925   133899   133867   133832 
  133798   133770   133751   133749   133758   133771   133786   133802 
  133820   133836   133847   133851   133857   133866   133878   133901 
  133932   133972   134017   134049   134061   134057   134046   134040 
  134034   134023   134009   133992   133979   133968   133960   133953 
  133940   133918   133887   133848   133809   133783   133778   133793 
  133824   133863   133910   133957   133992   134009   134006   133991 
  133965   133928   133883   133832   133766   133695   133624   133552 
  133496   133470   133467   133478   133494   133504   133505   133509 
  133524   133551   133587   133631   133674   133710   133749   133794 
  133844   133898   133953   133994   134011   134002   133969   133925 
  133876   133830   133803   133786   133764   133739   133712   133677 
  133643   133618   133601   133585   133575   133569   133558   133554 
  133560   133574   133602   133645   133691   133740   133780   133810 
  133845   133887   133928   133967   133996   134007   134001   133988 
  133975   133964   133963   133980   134018   134057   134087   134102 
  134102   134088   134073   134064   134055   134048   134037   134014 
  133972   133920   133872   133837   133821   133825   133837   133843 
  133837   133829   133820   133814   133825   133864   133924   133988 
  134046   134088   134107   134110   134098   134067   134023   133974 
  133913   133852   133794   133740   133690   133644   133606   133578 
  133567   133569   133574   133577   133575   133560   133537   133519 
  133500   133482   133469   133454   133435   133419   133413   133425 
  133459   133512   133579   133647   133701   133744   133782   133806 
  133818   133824   133836   133847   133841   133825   133801   133775 
  133762   133762   133771   133787   133807   133825   133849   133879 
  133907   133942   133976   133994   133995   133980   133951   133917 
  133888   133855   133824   133802   133789   133780   133780   133793 
  133828   133886   133957   134029   134092   134141   134167   134177 
  134179   134175   134169   134163   134148   134121   134080   134025 
  133957   133882   133812   133748   133691   133644   133606   133578 
  133562   133552   133546   133542   133536   133527   133520   133517 
  133519   133527   133542   133566   133597   133637   133693   133767 
  133855   133944   134021   134080   134118   134137   134142   134134 
  134114   134080   134034   133983   133926   133870   133822   133795 
  133785   133785   133797   133812   133814   133810   133805   133799 
  133803   133822   133852   133876   133890   133898   133905   133907 
  133907   133906   133899   133891   133882   133867   133847   133820 
  133790   133767   133749   133740   133740   133745   133758   133776 
  133795   133810   133822   133830   133825   133810   133790   133771 
  133759   133753   133755   133762   133766   133763   133747   133720 
  133683   133643   133606   133573   133533   133496   133474   133471 
  133490   133532   133585   133632   133672   133710   133745   133775 
  133807   133847   133890   133930   133963   133982   133987   133990 
  133992   133994   133996   133999   133995   133988   133980   133961 
  133940   133917   133887   133852   133814   133779   133755   133740 
  133741   133763   133795   133829   133860   133880   133891   133898 
  133909   133924   133938   133956   133975   133986   133984   133978 
  133967   133952   133934   133920   133902   133884   133874   133874 
  133876   133882   133890   133894   133895   133893   133887   133880 
  133871   133848   133816   133780   133744   133709   133689   133689 
  133701   133718   133736   133749   133755   133753   133753   133753 
  133749   133748   133743   133733   133736   133752   133782   133821 
  133853   133871   133879   133888   133899   133917   133941   133965 
  133991   134026   134068   134107   134146   134185   134215   134233 
  134248   134256   134256   134250   134239   134225   134211   134203 
  134200   134200   134204   134203   134185   134153   134113   134075 
  134042   134015   133998   133999   134006   134014   134023   134036 
  134056   134086   134122   134161   134194   134219   134239   134249 
  134245   134227   134191   134137   134072   133995   133913   133825 
  133736   133651   133571   133486   133401   133320   133250   133192 
  133147   133119   133105   133103   133105   133118   133138   133172 
  133220   133282   133350   133416   133477   133529   133574   133606 
  133625   133633   133632   133631   133623   133609   133596   133570 
  133535   133509   133485   133454   133421   133385   133344   133307 
  133274   133240   133209   133186   133173   133174   133199   133245 
  133303   133363   133425   133482   133535   133589   133641   133687 
  133731   133776   133818   133855   133888   133917   133942   133963 
  133967   133963   133959   133953   133944   133936   133930   133926 
  133920   133907   133898   133883   133863   133840   133809   133783 
  133772   133771   133785   133805   133825   133853   133897   133942 
  133991   134041   134083   134117   134150   134180   134211   134244 
  134276   134310   134338   134360   134370   134365   134349   134325 
  134291   134253   134212   134171   134133   134109   134095   134091 
  134100   134123   134157   134187   134207   134222   134225   134218 
  134212   134212   134217   134222   134223   134219   134210   134192 
  134172   134163   134165   134168   134167   134164   134152   134130 
  134100   134067   134036   134006   133978   133957   133944   133932 
  133918   133907   133902   133905   133911   133926   133944   133953 
  133952   133944   133929   133906   133876   133837   133794   133756 
  133722   133690   133656   133625   133602   133587   133575   133571 
  133579   133602   133632   133663   133682   133689   133685   133671 
  133640   133594   133544   133496   133452   133416   133394   133384 
  133375   133373   133371   133362   133351   133348   133353   133361 
  133381   133412   133444   133479   133520   133556   133585   133613 
  133632   133633   133620   133598   133578   133563   133556   133559 
  133574   133597   133623   133651   133678   133701   133713   133710 
  133704   133698   133689   133677   133674   133682   133697   133724 
  133756   133786   133810   133826   133832   133836   133844   133855 
  133870   133893   133913   133925   133934   133936   133928   133917 
  133907   133902   133907   133924   133947   133972   133999   134028 
  134059   134094   134131   134163   134190   134211   134229   134248 
  134268   134284   134293   134293   134280   134266   134253   134235 
  134214   134192   134167   134138   134114   134095   134082   134072 
  134061   134055   134053   134046   134033   134017   133995   133963 
  133929   133891   133852   133822   133802   133789   133785   133795 
  133810   133821   133833   133847   133864   133886   133906   133921 
  133929   133929   133918   133899   133876   133855   133837   133825 
  133820   133813   133802   133794   133785   133771   133753   133731 
  133702   133672   133641   133610   133579   133552   133532   133520 
  133513   133506   133496   133488   133479   133478   133485   133501 
  133524   133550   133575   133600   133624   133658   133691   133713 
  133731   133743   133751   133763   133770   133774   133778   133782 
  133793   133807   133818   133820   133814   133799   133778   133759 
  133743   133728   133720   133720   133728   133749   133779   133807 
  133834   133860   133880   133902   133925   133945   133963   133984 
  134009   134029   134042   134042   134034   134021   134002   133976 
  133949   133925   133895   133867   133845   133824   133802   133782 
  133766   133748   133732   133720   133705   133686   133672   133666 
  133663   133662   133666   133672   133674   133677   133681   133685 
  133693   133705   133721   133735   133749   133766   133782   133803 
  133825   133837   133840   133839   133830   133818   133805   133785 
  133758   133726   133695   133668   133648   133633   133632   133645 
  133664   133686   133713   133740   133766   133790   133817   133845 
  133868   133895   133928   133961   133994   134022   134046   134067 
  134077   134076   134071   134061   134050   134041   134032   134022 
  134009   133988   133969   133953   133941   133932   133922   133911 
  133903   133903   133909   133918   133926   133933   133934   133925 
  133910   133899   133884   133866   133852   133840   133824   133807 
  133790   133770   133756   133743   133724   133705   133682   133650 
  133621   133602   133586   133577   133577   133582   133597   133617 
  133637   133655   133670   133681   133686   133694   133706   133720 
  133733   133745   133747   133735   133716   133691   133664   133644 
  133625   133608   133594   133582   133569   133562   133560   133562 
  133569   133579   133585   133579   133570   133564   133558   133555 
  133562   133575   133593   133616   133643   133670   133697   133726 
  133763   133799   133833   133864   133893   133921   133945   133965 
  133982   133998   134015   134033   134050   134071   134092   134111 
  134123   134129   134130   134125   134113   134098   134086   134068 
  134041   134010   133980   133952   133926   133906   133888   133871 
  133857   133849   133844   133834   133834   133845   133863   133890 
  133925   133963   134002   134040   134077   134114   134146   134169 
  134183   134194   134200   134194   134181   134164   134136   134103 
  134072   134044   134019   134005   133994   133986   133982   133976 
  133968   133955   133942   133930   133920   133915   133915   133925 
  133947   133975   134002   134033   134063   134084   134104   134118 
  134122   134127   134131   134136   134142   134152   134158   134164 
  134169   134176   134173   134165   134157   134142   134123   134103 
  134073   134034   133994   133957   133928   133907   133893   133880 
  133874   133872   133871   133866   133861   133860   133859   133861 
  133871   133886   133905   133926   133947   133959   133964   133961 
  133949   133929   133897   133859   133817   133768   133720   133674 
