Origin Time       2025/06/03 22:18:00
Lat.              41.7
Long.             143.6
Depth. (km)       30
Mag.              5.2
Station Code      IBUH02
Station Lat.      42.8714
Station Long.     142.1285
Station Height(m) 73
Record Time       2025/06/03 22:19:19
Sampling Freq(Hz) 100Hz
Duration Time(s)  120
Dir.              2
Scale Factor      3923(gal)/8224838
Max. Acc. (gal)   0.242
Last Correction   2025/06/03 22:19:19
Memo.             
[...]
   34034    34032    34026    34017    34010    34002    33990    33984 
   33983    33980    33979    33978    33976    33975    33971    33966 
   33963    33961    33960    33960    33963    33961    33960    33961 
   33957    33952    33947    33941    33934    33928    33924    33925 
   33926    33929    33936    33941    33939    33937    33936    33930 
   33929    33932    33933    33939    33943    33943    33941    33937 
   33932    33924    33916    33912    33909    33903    33903    33913 
   33922    33928    33937    33947    33957    33966    33968    33972 
   33976    33979    33979    33982    33984    33993    34002    34010 
   34020    34028    34032    34036    34041    34044    34042    34040 
   34036    34025    34010    33997    33979    33964    33956    33952 
   33951    33949    33951    33953    33955    33955    33948    33939 
   33936    33929    33921    33920    33920    33917    33917    33921 
   33925    33930    33940    33955    33968    33982    33999    34015 
   34025    34033    34042    34040    34030    34021    34006    33988 
   33975    33963    33956    33953    33951    33948    33944    33941 
   33939    33930    33922    33916    33909    33906    33902    33897 
   33895    33898    33899    33906    33917    33928    33940    33955 
   33966    33971    33974    33974    33967    33957    33948    33937 
   33934    33934    33936    33940    33945    33951    33953    33959 
   33961    33959    33952    33944    33933    33922    33912    33905 
   33902    33902    33909    33921    33932    33943    33952    33961 
   33967    33967    33963    33957    33948    33936    33925    33918 
   33917    33920    33922    33926    33930    33933    33934    33934 
   33928    33914    33901    33889    33879    33875    33876    33883 
   33894    33906    33920    33929    33939    33947    33953    33963 
   33971    33975    33986    33998    34010    34026    34045    34061 
   34072    34083    34092    34096    34096    34095    34092    34087 
   34082    34079    34074    34065    34060    34055    34047    34040 
   34030    34017    34005    33997    33990    33987    33988    33990 
   33991    33993    33990    33980    33975    33970    33961    33957 
   33956    33952    33951    33947    33941    33937    33940    33943 
   33947    33951    33948    33944    33940    33934    33930    33926 
   33921    33917    33921    33926    33929    33930    33930    33929 
   33922    33910    33898    33883    33868    33863    33866    33874 
   33887    33903    33918    33929    33936    33939    33941    33940 
   33934    33929    33926    33925    33921    33924    33930    33936 
   33943    33952    33963    33979    33993    34001    34007    34013 
   34014    34017    34021    34024    34026    34028    34029    34038 
   34047    34049    34055    34061    34057    34048    34040    34028 
   34015    34005    33998    33990    33986    33983    33978    33972 
   33967    33959    33952    33944    33934    33925    33918    33912 
   33905    33899    33895    33893    33891    33894    33902    33912 
   33921    33932    33941    33951    33956    33957    33955    33945 
   33937    33934    33928    33921    33925    33929    33934    33941 
   33947    33952    33959    33961    33961    33957    33949    33939 
   33932    33925    33914    33903    33894    33890    33893    33898 
   33905    33914    33925    33936    33948    33960    33972    33983 
   33993    34001    34009    34018    34028    34036    34044    34051 
   34055    34059    34061    34056    34053    34049    34040    34029 
   34020    34009    33998    33993    33987    33983    33980    33976 
   33970    33956    33939    33922    33909    33898    33890    33889 
   33891    33898    33910    33916    33917    33918    33913    33909 
   33909    33903    33898    33905    33912    33914    33914    33914 
   33916    33920    33925    33930    33936    33943    33949    33957 
   33968    33980    33988    33994    34002    34006    34002    34001 
   33998    33993    33991    33993    33999    34007    34017    34024 
   34026    34025    34025    34025    34020    34014    34013    34009 
   34002    33997    33988    33983    33983    33979    33978    33980 
   33979    33980    33982    33975    33966    33959    33949    33939 
   33933    33926    33921    33920    33920    33921    33922    33922 
   33922    33925    33929    33933    33937    33943    33945    33941 
   33939    33937    33934    33933    33933    33939    33948    33957 
   33964    33976    33988    33995    34002    34009    34013    34013 
   34009    34001    33987    33970    33952    33936    33920    33907 
   33902    33899    33897    33901    33903    33907    33913    33914 
   33907    33903    33902    33901    33902    33906    33912    33920 
   33928    33932    33936    33939    33941    33947    33956    33963 
   33970    33978    33986    33990    33987    33986    33983    33976 
   33971    33975    33983    33995    34009    34017    34018    34013 
   34006    33999    33988    33978    33970    33964    33960    33959 
   33964    33968    33972    33979    33983    33990    34002    34013 
   34024    34033    34033    34028    34020    34006    33988    33975 
   33971    33975    33978    33984    33994    33995    33997    33993 
   33980    33971    33967    33961    33956    33953    33952    33947 
   33939    33929    33920    33910    33899    33891    33887    33891 
   33897    33899    33907    33917    33922    33929    33932    33933 
   33936    33936    33933    33933    33934    33934    33930    33929 
   33929    33929    33929    33932    33934    33937    33941    33941 
   33937    33933    33925    33917    33916    33914    33916    33918 
   33922    33925    33925    33924    33925    33928    33932    33939 
   33947    33956    33966    33975    33978    33978    33976    33975 
   33971    33971    33976    33979    33982    33983    33980    33980 
   33984    33984    33983    33983    33986    33991    33995    33990 
   33986    33983    33978    33967    33960    33955    33948    33944 
   33943    33945    33949    33952    33957    33966    33975    33980 
   33982    33982    33980    33980    33979    33979    33984    33995 
   34003    34009    34014    34015    34010    34006    34002    33995 
   33990    33987    33986    33984    33984    33984    33982    33984 
   33987    33987    33986    33978    33968    33960    33951    33943 
   33939    33937    33936    33936    33937    33941    33947    33948 
   33948    33944    33941    33944    33945    33941    33937    33934 
   33928    33921    33917    33910    33899    33890    33885    33882 
   33882    33883    33880    33879    33882    33885    33887    33894 
   33898    33899    33909    33918    33921    33928    33939    33948 
   33957    33966    33970    33979    33990    33999    34003    34007 
   34018    34030    34038    34051    34063    34072    34084    34087 
   34083    34083    34084    34082    34083    34084    34084    34080 
   34072    34065    34057    34044    34034    34028    34020    34015 
   34014    34014    34015    34017    34014    34006    33997    33986 
   33976    33974    33974    33974    33972    33974    33972    33967 
   33960    33955    33953    33952    33951    33949    33943    33937 
   33939    33937    33932    33928    33925    33924    33925    33924 
   33925    33930    33939    33944    33948    33952    33956    33955 
   33951    33949    33943    33939    33940    33943    33947    33951 
   33955    33959    33959    33961    33968    33972    33978    33982 
   33982    33979    33971    33963    33953    33941    33929    33921 
   33921    33929    33934    33939    33948    33955    33960    33968 
   33971    33967    33961    33955    33947    33939    33930    33924 
   33918    33909    33902    33894    33886    33882    33880    33875 
   33872    33874    33874    33874    33878    33883    33886    33885 
   33880    33875    33874    33878    33885    33893    33901    33907 
   33912    33917    33921    33921    33922    33929    33939    33952 
   33968    33983    33993    34001    34009    34014    34018    34025 
   34034    34041    34044    34045    34047    34044    34034    34018 
   34005    33994    33988    33986    33988    33994    34001    34002 
   33997    33987    33971    33947    33924    33909    33898    33890 
   33893    33897    33898    33905    33912    33910    33906    33906 
   33909    33912    33913    33913    33912    33912    33913    33913 
   33910    33906    33903    33902    33901    33899    33902    33906 
   33910    33913    33914    33916    33918    33922    33926    33934 
   33941    33943    33945    33949    33952    33952    33952    33951 
   33948    33940    33933    33930    33928    33929    33936    33943 
   33951    33968    33986    33995    34006    34018    34021    34022 
   34026    34026    34024    34021    34014    34002    33991    33980 
   33966    33948    33933    33918    33905    33898    33895    33897 
   33903    33909    33916    33922    33924    33922    33922    33918 
   33916    33914    33912    33909    33910    33913    33912    33913 
   33918    33921    33926    33933    33940    33945    33947    33943 
   33934    33922    33917    33917    33913    33918    33928    33936 
   33949    33967    33976    33984    33990    33987    33980    33974 
   33967    33957    33948    33947    33944    33937    33932    33930 
   33936    33943    33949    33957    33964    33971    33974    33971 
   33963    33959    33955    33951    33951    33955    33960    33966 
   33964    33960    33959    33952    33941    33932    33926    33920 
   33907    33895    33885    33878    33870    33860    33859    33862 
   33864    33875    33895    33917    33937    33959    33979    33994 
   34005    34009    34007    34006    34007    34007    34009    34013 
   34021    34030    34041    34053    34064    34071    34076    34083 
   34091    34098    34101    34102    34103    34101    34095    34092 
   34086    34079    34075    34076    34080    34086    34090    34092 
   34090    34082    34069    34057    34045    34037    34030    34026 
   34028    34032    34037    34038    34032    34028    34022    34009 
   33997    33984    33968    33957    33952    33944    33937    33932 
   33925    33920    33916    33912    33905    33899    33898    33898 
   33901    33910    33920    33925    33928    33930    33933    33933 
   33932    33930    33925    33917    33913    33916    33926    33943 
   33959    33975    33991    34006    34021    34032    34041    34051 
   34057    34067    34079    34092    34105    34119    34132    34145 
   34161    34173    34186    34202    34213    34219    34231    34246 
   34257    34267    34279    34291    34307    34322    34335    34350 
   34358    34361    34365    34362    34354    34348    34334    34318 
   34300    34281    34257    34234    34217    34200    34186    34175 
   34167    34157    34145    34126    34106    34092    34076    34056 
   34034    34014    33991    33964    33943    33920    33894    33876 
   33862    33845    33829    33813    33797    33781    33766    33750 
   33735    33720    33705    33691    33679    33663    33648    33636 
   33624    33615    33610    33604    33597    33593    33590    33588 
   33583    33577    33569    33559    33550    33544    33542    33539 
   33540    33550    33562    33574    33589    33606    33624    33644 
   33666    33686    33712    33740    33766    33794    33817    33836 
   33856    33871    33880    33891    33903    33916    33930    33943 
   33956    33974    33986    33991    34002    34010    34011    34014 
   34015    34017    34018    34017    34020    34025    34025    34020 
   34011    33998    33983    33968    33955    33941    33930    33921 
   33910    33901    33894    33886    33879    33870    33867    33871 
   33876    33885    33898    33913    33926    33940    33949    33956 
   33963    33970    33974    33979    33984    33984    33984    33983 
   33978    33974    33968    33966    33971    33975    33976    33980 
   33984    33987    33988    33983    33974    33960    33940    33916 
   33890    33862    33832    33808    33785    33760    33741    33729 
   33724    33725    33732    33744    33758    33772    33790    33810 
   33831    33853    33880    33906    33929    33952    33967    33975 
   33982    33986    33983    33979    33983    33991    33999    34013 
   34030    34049    34071    34091    34111    34134    34152    34164 
   34176    34179    34171    34160    34142    34119    34101    34083 
   34068    34057    34048    34034    34022    34011    33999    33990 
   33982    33972    33967    33964    33959    33949    33933    33917 
   33895    33866    33836    33812    33789    33775    33766    33758 
   33756    33754    33745    33739    33724    33702    33683    33663 
   33637    33613    33594    33575    33555    33542    33535    33532 
   33538    33550    33569    33596    33627    33663    33700    33733 
   33766    33794    33808    33817    33829    33832    33833    33844 
   33855    33866    33883    33903    33926    33953    33982    34013 
   34038    34067    34099    34136    34177    34221    34264    34308 
   34354    34393    34422    34441    34453    34460    34462    34464 
   34465    34466    34466    34464    34458    34449    34442    34438 
   34431    34423    34414    34399    34385    34371    34350    34329 
   34311    34295    34281    34276    34276    34280    34284    34283 
   34276    34263    34246    34223    34196    34169    34142    34122 
   34105    34083    34067    34056    34037    34017    33998    33972 
   33944    33916    33883    33851    33828    33817    33814    33813 
   33818    33822    33822    33826    33829    33828    33824    33822 
   33826    33829    33836    33845    33855    33864    33875    33880 
   33883    33887    33893    33898    33910    33921    33929    33933 
   33934    33936    33933    33925    33920    33920    33925    33939 
   33957    33980    34003    34024    34041    34056    34063    34065 
   34068    34068    34068    34074    34080    34088    34105    34125 
   34145    34167    34188    34203    34211    34215    34213    34203 
   34187    34163    34137    34111    34080    34053    34030    34005 
   33984    33976    33970    33963    33960    33956    33952    33945 
   33933    33921    33905    33885    33862    33835    33804    33772 
   33745    33724    33712    33710    33714    33723    33741    33762 
   33779    33797    33812    33818    33818    33818    33820    33817 
   33812    33810    33814    33820    33826    33833    33844    33860 
   33879    33901    33924    33949    33974    33988    33995    33998 
   33993    33983    33972    33956    33941    33929    33913    33899 
   33894    33886    33880    33879    33876    33872    33870    33866 
   33856    33844    33836    33826    33813    33801    33791    33779 
   33767    33756    33752    33758    33768    33790    33817    33851 
   33886    33920    33952    33976    33988    33995    33998    33988 
   33978    33970    33951    33928    33913    33894    33871    33858 
   33849    33840    33837    33839    33844    33853    33867    33882 
   33903    33930    33959    33994    34032    34069    34103    34129 
   34150    34173    34186    34194    34202    34209    34213    34213 
   34210    34204    34191    34172    34150    34123    34096    34072 
   34045    34020    33999    33975    33951    33924    33895    33870 
   33844    33816    33791    33774    33758    33744    33741    33741 
   33743    33748    33759    33771    33783    33797    33810    33824 
   33839    33848    33856    33866    33872    33876    33878    33879 
   33874    33864    33858    33852    33844    33841    33841    33847 
   33856    33864    33868    33874    33875    33871    33866    33859 
   33848    33833    33822    33814    33805    33801    33799    33804 
   33818    33840    33864    33889    33910    33937    33964    33990 
   34018    34045    34063    34082    34098    34107    34118    34129 
   34136    34146    34164    34183    34199    34215    34223    34222 
   34209    34188    34165    34142    34117    34091    34067    34045 
   34022    34002    33986    33975    33968    33960    33956    33959 
   33959    33957    33966    33972    33976    33982    33984    33984 
   33980    33972    33961    33951    33937    33924    33914    33907 
   33905    33909    33914    33921    33929    33932    33925    33918 
   33912    33903    33901    33905    33909    33917    33937    33960 
   33979    33997    34017    34032    34042    34049    34049    34041 
   34032    34024    34015    34006    34001    34003    34010    34015 
   34025    34040    34055    34069    34086    34096    34105    34113 
   34111    34105    34102    34098    34092    34091    34090    34090 
   34090    34091    34094    34094    34091    34088    34083    34076 
   34074    34069    34067    34068    34069    34069    34071    34071 
   34067    34063    34053    34040    34022    33999    33970    33939 
   33899    33858    33824    33798    33774    33752    33743    33741 
   33744    33754    33771    33793    33814    33837    33862    33887 
   33916    33939    33957    33974    33980    33975    33967    33961 
   33953    33952    33963    33979    34002    34033    34067    34105 
   34144    34176    34204    34234    34263    34281    34292    34296 
   34292    34280    34264    34244    34218    34192    34164    34138 
   34118    34096    34072    34048    34022    33994    33963    33930 
   33895    33855    33813    33778    33745    33712    33693    33682 
   33671    33669    33678    33694    33710    33725    33743    33759 
   33770    33775    33781    33785    33790    33801    33813    33824 
   33841    33860    33876    33893    33913    33932    33947    33967 
   33990    34006    34026    34051    34072    34094    34118    34137 
   34149    34160    34168    34175    34180    34180    34183    34184 
   34175    34159    34141    34117    34086    34049    34010    33972 
   33934    33897    33864    33832    33802    33775    33752    33731 
   33713    33701    33693    33681    33670    33660    33647    33631 
   33616    33598    33578    33559    33548    33542    33539    33536 
   33536    33540    33542    33539    33539    33536    33531    33532 
   33534    33540    33551    33558    33569    33581    33592    33609 
   33636    33664    33694    33729    33768    33812    33853    33891 
   33928    33961    33994    34026    34061    34094    34123    34153 
   34180    34199    34214    34225    34229    34230    34229    34226 
   34226    34229    34229    34233    34237    34229    34219    34214 
   34210    34210    34210    34210    34211    34211    34211    34210 
   34204    34206    34213    34218    34229    34242    34254    34268 
   34279    34283    34281    34276    34265    34246    34229    34215 
   34198    34184    34176    34164    34146    34126    34106    34087 
   34068    34051    34026    34001    33978    33951    33917    33887 
