Origin Time       2025/06/03 22:18:00
Lat.              41.7
Long.             143.6
Depth. (km)       30
Mag.              5.2
Station Code      IBUH05
Station Lat.      42.5629
Station Long.     141.3497
Station Height(m) 20
Record Time       2025/06/03 22:19:26
Sampling Freq(Hz) 100Hz
Duration Time(s)  120
Dir.              6
Scale Factor      7845(gal)/8223790
Max. Acc. (gal)   0.228
Last Correction   2025/06/03 22:19:27
Memo.             
[...]
    4391     4392     4399     4415     4423     4423     4426     4426 
    4411     4391     4384     4399     4418     4430     4448     4483 
    4519     4527     4518     4533     4564     4567     4563     4577 
    4577     4530     4471     4441     4413     4348     4280     4255 
    4257     4247     4230     4241     4263     4264     4255     4280 
    4334     4352     4325     4314     4324     4313     4284     4270 
    4280     4287     4280     4287     4320     4351     4351     4341 
    4372     4410     4405     4398     4436     4482     4477     4437 
    4419     4423     4402     4375     4392     4421     4407     4379 
    4378     4392     4391     4371     4367     4375     4368     4359 
    4378     4411     4418     4411     4423     4437     4417     4379 
    4371     4399     4418     4410     4407     4425     4429     4399 
    4386     4411     4433     4423     4426     4467     4503     4502 
    4502     4527     4544     4519     4487     4486     4487     4463 
    4437     4436     4433     4413     4403     4421     4433     4405 
    4368     4367     4391     4403     4415     4453     4487     4477 
    4441     4419     4407     4371     4310     4287     4311     4317 
    4286     4274     4297     4302     4280     4270     4282     4271 
    4230     4216     4255     4291     4297     4295     4302     4303 
    4297     4302     4325     4332     4303     4274     4280     4302 
    4307     4307     4318     4332     4340     4353     4379     4399 
    4388     4363     4359     4374     4368     4352     4364     4395 
    4406     4407     4441     4496     4522     4525     4544     4576 
    4584     4552     4527     4540     4553     4542     4541     4557 
    4550     4522     4523     4549     4549     4522     4500     4496 
    4487     4465     4449     4445     4434     4403     4375     4371 
    4368     4344     4328     4344     4365     4365     4364     4386 
    4411     4414     4402     4405     4398     4352     4301     4295 
    4318     4324     4311     4317     4341     4348     4336     4342 
    4365     4376     4382     4411     4452     4467     4449     4444 
    4459     4452     4419     4406     4418     4413     4374     4352 
    4369     4375     4347     4325     4326     4318     4297     4293 
    4315     4334     4322     4314     4348     4392     4414     4429 
    4459     4482     4471     4441     4433     4438     4425     4403 
    4415     4445     4446     4436     4461     4502     4517     4506 
    4502     4502     4482     4445     4430     4442     4441     4415 
    4388     4369     4352     4333     4340     4371     4379     4351 
    4328     4322     4307     4272     4252     4253     4249     4226 
    4217     4247     4284     4298     4307     4333     4353     4344 
    4336     4357     4375     4356     4333     4347     4376     4380 
    4365     4365     4379     4378     4360     4361     4382     4386 
    4386     4418     4459     4455     4429     4417     4415     4409 
    4401     4409     4432     4448     4455     4473     4503     4515 
    4504     4488     4473     4446     4402     4371     4374     4382 
    4365     4341     4345     4356     4344     4340     4365     4384 
    4374     4364     4375     4386     4383     4382     4401     4426 
    4432     4417     4415     4426     4415     4394     4399     4418 
    4410     4388     4392     4410     4403     4392     4405     4423 
    4423     4407     4409     4444     4471     4473     4487     4521 
    4537     4518     4498     4491     4472     4438     4425     4433 
    4429     4396     4361     4351     4348     4321     4294     4298 
    4297     4260     4229     4234     4252     4260     4275     4303 
    4325     4328     4324     4340     4364     4371     4371     4396 
    4430     4437     4430     4442     4464     4467     4461     4479 
    4499     4490     4465     4465     4488     4496     4473     4450 
    4445     4432     4399     4390     4415     4436     4426     4417 
    4425     4429     4413     4406     4415     4421     4415     4417 
    4430     4437     4423     4409     4419     4433     4432     4441 
    4471     4484     4461     4432     4428     4429     4410     4395 
    4411     4430     4429     4423     4434     4440     4419     4388 
    4383     4406     4426     4419     4413     4415     4411     4401 
    4409     4432     4432     4401     4378     4383     4380     4355 
    4336     4342     4353     4347     4342     4355     4352     4325 
    4317     4344     4363     4351     4344     4355     4352     4329 
    4324     4347     4372     4383     4398     4430     4453     4446 
    4430     4430     4434     4415     4380     4367     4372     4359 
    4337     4345     4363     4345     4306     4294     4302     4293 
    4268     4257     4257     4239     4210     4207     4230     4236 
    4220     4220     4253     4280     4280     4288     4314     4329 
    4325     4328     4351     4369     4372     4380     4409     4438 
    4448     4448     4464     4483     4482     4472     4475     4488 
    4490     4480     4486     4504     4498     4469     4460     4471 
    4469     4459     4467     4486     4482     4467     4467     4467 
    4449     4425     4419     4429     4421     4398     4399     4414 
    4407     4384     4375     4378     4361     4332     4336     4369 
    4390     4388     4388     4406     4419     4410     4402     4415 
    4436     4440     4436     4449     4464     4456     4444     4455 
    4468     4463     4449     4444     4446     4445     4436     4437 
    4438     4418     4392     4401     4430     4444     4437     4432 
    4417     4388     4364     4364     4382     4387     4372     4376 
    4415     4438     4429     4425     4436     4430     4409     4402 
    4411     4409     4391     4380     4391     4401     4388     4378 
    4391     4399     4382     4369     4383     4395     4387     4376 
    4388     4403     4392     4383     4394     4401     4390     4379 
    4378     4378     4369     4367     4390     4429     4455     4459 
    4456     4468     4479     4476     4487     4514     4517     4495 
    4483     4495     4496     4475     4455     4442     4418     4380 
    4352     4340     4318     4276     4247     4251     4251     4222 
    4195     4190     4193     4186     4186     4212     4236     4230 
    4222     4234     4253     4264     4270     4288     4311     4310 
    4297     4299     4318     4326     4326     4345     4379     4388 
    4375     4374     4384     4376     4361     4364     4375     4365 
    4345     4347     4367     4374     4363     4375     4415     4450 
    4464     4488     4527     4552     4553     4556     4568     4575 
    4569     4564     4568     4565     4542     4518     4517     4527 
    4527     4521     4530     4545     4534     4504     4492     4487 
    4460     4423     4409     4414     4411     4398     4394     4402 
    4399     4384     4383     4387     4379     4359     4345     4352 
    4368     4379     4394     4428     4452     4455     4460     4484 
    4502     4488     4467     4457     4441     4417     4406     4415 
    4418     4395     4372     4376     4383     4378     4380     4398 
    4405     4386     4364     4364     4368     4349     4325     4318 
    4306     4275     4249     4249     4270     4282     4286     4301 
    4318     4326     4326     4333     4347     4347     4333     4337 
    4363     4372     4361     4374     4406     4428     4430     4430 
    4437     4440     4429     4421     4417     4394     4364     4352 
    4355     4353     4338     4325     4329     4334     4324     4315 
    4328     4332     4315     4303     4314     4328     4330     4334 
    4351     4371     4380     4380     4384     4388     4372     4357 
    4372     4390     4383     4368     4368     4376     4369     4363 
    4371     4382     4380     4367     4359     4365     4367     4341 
    4315     4307     4299     4286     4282     4297     4317     4333 
    4357     4391     4418     4440     4463     4496     4525     4526 
    4522     4544     4568     4572     4579     4603     4623     4614 
    4595     4587     4581     4563     4537     4530     4536     4522 
    4492     4479     4476     4452     4415     4403     4405     4396 
    4383     4383     4390     4380     4353     4345     4355     4351 
    4338     4345     4367     4380     4376     4383     4414     4436 
    4433     4442     4467     4472     4457     4456     4473     4488 
    4477     4456     4444     4438     4425     4411     4413     4415 
    4398     4384     4392     4406     4406     4395     4391     4396 
    4395     4378     4368     4374     4368     4352     4351     4356 
    4341     4313     4305     4305     4286     4259     4256     4268 
    4268     4256     4249     4255     4260     4264     4272     4287 
    4295     4294     4302     4320     4328     4322     4324     4348 
    4368     4367     4371     4394     4410     4407     4402     4409 
    4415     4403     4387     4388     4395     4396     4407     4442 
    4476     4480     4465     4456     4449     4426     4402     4398 
    4399     4383     4360     4352     4353     4341     4317     4309 
    4311     4299     4279     4283     4311     4330     4340     4363 
    4401     4423     4418     4409     4411     4411     4402     4391 
    4386     4378     4360     4351     4357     4361     4355     4348 
    4355     4365     4361     4348     4348     4356     4351     4341 
    4348     4364     4369     4364     4367     4376     4371     4360 
    4363     4380     4391     4391     4401     4425     4442     4448 
    4460     4484     4506     4511     4518     4537     4549     4541 
    4538     4548     4546     4531     4522     4531     4533     4515 
    4503     4504     4498     4475     4456     4459     4465     4459 
    4453     4457     4457     4442     4428     4434     4448     4446 
    4446     4465     4486     4487     4476     4471     4469     4455 
    4432     4413     4398     4391     4391     4394     4410     4425 
    4421     4415     4417     4413     4398     4388     4392     4388 
    4368     4353     4348     4336     4313     4297     4290     4274 
    4253     4248     4257     4266     4263     4255     4249     4251 
    4253     4266     4288     4306     4307     4303     4317     4340 
    4347     4344     4349     4357     4361     4363     4375     4394 
    4401     4394     4394     4401     4401     4396     4405     4414 
    4410     4398     4396     4403     4398     4383     4384     4387 
    4372     4355     4347     4353     4369     4379     4387     4403 
    4422     4438     4448     4460     4476     4484     4494     4515 
    4533     4531     4525     4526     4526     4509     4487     4475 
    4467     4448     4425     4410     4401     4387     4371     4374 
    4388     4391     4386     4391     4401     4401     4401     4410 
    4419     4417     4405     4398     4396     4390     4382     4379 
    4382     4372     4353     4347     4355     4361     4356     4349 
    4361     4374     4368     4361     4365     4361     4352     4351 
    4359     4360     4349     4342     4344     4340     4326     4315 
    4320     4326     4322     4314     4317     4329     4330     4334 
    4348     4359     4365     4374     4379     4390     4401     4407 
    4422     4445     4459     4459     4459     4471     4483     4480 
    4472     4471     4468     4453     4436     4422     4415     4399 
    4386     4390     4394     4380     4369     4369     4368     4356 
    4344     4337     4332     4324     4310     4303     4306     4306 
    4301     4303     4311     4313     4311     4320     4333     4340 
    4338     4347     4371     4382     4382     4403     4445     4468 
    4476     4492     4509     4514     4515     4521     4529     4526 
    4509     4500     4500     4488     4471     4461     4457     4450 
    4438     4429     4419     4402     4379     4353     4332     4317 
    4302     4295     4302     4311     4309     4301     4306     4324 
    4337     4345     4355     4365     4380     4396     4421     4453 
    4475     4479     4483     4502     4517     4517     4525     4542 
    4545     4533     4527     4534     4526     4502     4490     4495 
    4496     4488     4487     4491     4487     4476     4472     4488 
    4502     4491     4473     4469     4471     4464     4456     4455 
    4448     4418     4390     4380     4374     4355     4325     4303 
    4299     4287     4266     4259     4268     4268     4261     4268 
    4280     4280     4278     4286     4305     4310     4302     4307 
    4326     4328     4315     4320     4337     4351     4361     4376 
    4392     4394     4384     4388     4410     4426     4426     4425 
    4432     4442     4449     4453     4450     4441     4423     4409 
    4413     4417     4406     4398     4401     4405     4402     4402 
    4407     4405     4398     4398     4405     4411     4413     4413 
    4422     4436     4444     4442     4448     4465     4471     4461 
    4465     4476     4475     4464     4457     4456     4449     4430 
    4411     4405     4395     4380     4369     4363     4352     4333 
    4317     4307     4299     4282     4264     4255     4244     4226 
    4203     4189     4182     4171     4158     4156     4170     4182 
    4191     4214     4245     4267     4280     4299     4328     4349 
    4361     4383     4417     4434     4433     4437     4452     4460 
    4455     4450     4455     4450     4437     4434     4444     4446 
    4434     4426     4426     4426     4422     4413     4407     4410 
    4407     4398     4402     4411     4410     4407     4419     4432 
    4434     4441     4459     4477     4486     4486     4492     4507 
    4511     4502     4495     4495     4487     4471     4463     4457 
    4442     4421     4410     4411     4407     4392     4383     4390 
    4396     4399     4413     4434     4445     4441     4440     4452 
    4461     4455     4445     4448     4448     4434     4426     4433 
    4433     4421     4414     4417     4417     4407     4402     4401 
    4391     4364     4332     4307     4297     4287     4271     4261 
    4266     4263     4252     4257     4279     4291     4295     4313 
    4342     4361     4372     4395     4422     4441     4453     4460 
    4469     4473     4467     4468     4482     4480     4463     4448 
    4444     4445     4442     4433     4433     4440     4438     4436 
    4441     4448     4445     4441     4448     4464     4471     4472 
    4490     4510     4509     4498     4500     4507     4503     4491 
    4486     4488     4484     4472     4467     4468     4459     4444 
    4440     4444     4440     4430     4429     4434     4434     4429 
    4430     4434     4428     4409     4391     4383     4369     4345 
    4330     4326     4310     4287     4271     4268     4267     4251 
    4234     4239     4244     4237     4226     4225     4230     4226 
    4216     4218     4229     4237     4244     4256     4275     4291 
    4302     4320     4342     4349     4344     4348     4367     4374 
    4364     4360     4375     4388     4392     4394     4398     4398 
    4391     4394     4407     4413     4406     4405     4414     4421 
    4417     4411     4417     4419     4406     4395     4398     4403 
    4399     4387     4388     4399     4394     4379     4379     4388 
    4387     4378     4379     4383     4371     4355     4355     4367 
    4368     4359     4365     4384     4392     4391     4403     4426 
    4434     4429     4433     4445     4453     4449     4449     4457 
    4457     4449     4444     4445     4446     4436     4428     4434 
    4438     4430     4423     4426     4422     4410     4399     4396 
    4399     4391     4378     4374     4372     4363     4353     4356 
    4364     4365     4363     4361     4360     4353     4344     4345 
    4353     4353     4351     4352     4361     4369     4376     4392 
    4419     4441     4450     4463     4488     4510     4515     4526 
    4548     4550     4537     4533     4544     4545     4530     4518 
    4523     4522     4504     4492     4494     4494     4482     4473 
    4479     4490     4487     4484     4492     4496     4483     4467 
    4468     4473     4457     4437     4428     4417     4398     4379 
    4367     4361     4351     4336     4336     4341     4336     4318 
    4309     4310     4303     4286     4279     4286     4287     4279 
    4275     4284     4293     4288     4286     4305     4328     4336 
    4347     4376     4402     4409     4418     4445     4463     4455 
    4446     4459     4465     4456     4445     4442     4442     4429 
    4405     4399     4398     4378     4360     4367     4378     4378 
    4375     4382     4391     4384     4367     4364     4372     4365 
    4345     4332     4334     4336     4324     4311     4311     4310 
    4297     4290     4303     4309     4299     4295     4307     4317 
    4311     4309     4321     4330     4321     4314     4328     4342 
    4347     4347     4359     4375     4375     4368     4375     4390 
    4392     4387     4396     4414     4419     4418     4429     4448 
    4455     4448     4456     4476     4480     4471     4479     4495 
    4491     4473     4467     4473     4468     4448     4440     4448 
    4444     4425     4414     4418     4419     4403     4390     4396 
    4405     4392     4376     4378     4384     4380     4372     4380 
    4387     4375     4361     4367     4371     4360     4351     4356 
    4364     4357     4348     4353     4371     4372     4363     4371 
    4390     4391     4382     4390     4410     4410     4396     4398 
    4411     4417     4406     4401     4414     4415     4401     4399 
    4410     4409     4392     4387     4398     4401     4386     4376 
    4382     4383     4372     4369     4379     4386     4383     4387 
    4409     4428     4425     4419     4433     4441     4430     4422 
    4428     4433     4426     4417     4423     4436     4433     4423 
    4426     4436     4436     4423     4425     4442     4444     4426 
    4421     4432     4426     4401     4386     4387     4379     4357 
    4342     4340     4330     4302     4283     4282     4272     4248 
    4233     4236     4236     4226     4226     4248     4271     4274 
    4272     4295     4329     4342     4352     4382     4409     4413 
    4415     4441     4471     4479     4479     4494     4514     4511 
    4502     4509     4522     4514     4502     4509     4525     4525 
    4509     4504     4519     4526     4519     4523     4533     4530 
    4515     4506     4509     4506     4490     4479     4483     4480 
    4455     4433     4441     4444     4419     4399     4406     4410 
    4390     4372     4376     4376     4351     4326     4328     4333 
    4315     4295     4294     4297     4286     4272     4280     4301 
    4307     4303     4311     4337     4353     4352     4361     4386 
    4391     4382     4390     4411     4415     4399     4395     4407 
