Origin Time       2025/06/03 22:18:00
Lat.              41.7
Long.             143.6
Depth. (km)       30
Mag.              5.2
Station Code      IBUH06
Station Lat.      42.4116
Station Long.     141.0017
Station Height(m) -162
Record Time       2025/06/03 22:19:35
Sampling Freq(Hz) 100Hz
Duration Time(s)  120
Dir.              2
Scale Factor      2942(gal)/8224139
Max. Acc. (gal)   0.122
Last Correction   2025/06/03 22:19:36
Memo.             
   32482    32478    32471    32460    32451    32449    32449    32441 
   32436    32445    32471    32503    32521    32521    32518    32514 
   32508    32506    32510    32518    32528    32532    32526    32530 
   32548    32552    32530    32510    32506    32510    32529    32543 
   32525    32493    32482    32499    32539    32570    32571    32570 
   32579    32578    32572    32575    32571    32559    32560    32566 
   32560    32549    32540    32520    32497    32487    32489    32494 
   32499    32502    32506    32512    32520    32529    32521    32483 
   32445    32441    32459    32470    32463    32452    32463    32490 
   32497    32489    32483    32476    32476    32487    32502    32516 
   32517    32508    32502    32506    32512    32505    32493    32490 
   32497    32509    32532    32552    32551    32537    32533    32540 
   32551    32562    32572    32580    32580    32571    32560    32549 
   32549    32562    32571    32568    32556    32545    32537    32517 
   32495    32487    32482    32476    32487    32506    32520    32521 
   32510    32497    32495    32506    32505    32493    32487    32489 
   32490    32493    32494    32505    32533    32552    32560    32570 
   32579    32586    32582    32562    32544    32526    32510    32505 
   32502    32493    32479    32472    32474    32481    32502    32525 
   32540    32541    32533    32530    32529    32522    32529    32532 
   32508    32485    32482    32478    32478    32479    32470    32471 
   32503    32544    32568    32571    32555    32541    32543    32548 
   32555    32575    32595    32606    32605    32587    32576    32578 
   32579    32586    32597    32607    32613    32606    32594    32587 
   32575    32557    32553    32560    32556    32540    32525    32512 
   32505    32510    32513    32508    32495    32475    32468    32483 
   32499    32510    32522    32529    32518    32505    32508    32516 
   32516    32518    32530    32528    32517    32512    32509    32499 
   32495    32503    32517    32537    32555    32556    32555    32553 
   32549    32545    32552    32562    32551    32509    32463    32441 
   32440    32449    32460    32466    32471    32489    32510    32522 
   32539    32557    32568    32567    32556    32551    32555    32540 
   32518    32514    32510    32494    32485    32481    32470    32471 
   32485    32486    32476    32472    32482    32506    32536    32540 
   32525    32520    32530    32540    32545    32555    32563    32549 
   32520    32497    32493    32505    32526    32535    32520    32498 
   32483    32493    32513    32521    32521    32529    32548    32572 
   32584    32576    32560    32541    32521    32512    32522    32543 
   32567    32582    32563    32533    32518    32502    32487    32490 
   32494    32499    32514    32518    32517    32528    32533    32525 
   32526    32541    32559    32574    32579    32564    32549    32563 
   32586    32575    32545    32551    32564    32557    32567    32570 
   32545    32540    32544    32537    32545    32562    32562    32549 
   32537    32537    32549    32566    32582    32579    32553    32537 
   32540    32535    32512    32485    32474    32476    32463    32439 
   32432    32431    32432    32447    32464    32472    32470    32472 
   32485    32483    32470    32466    32468    32466    32455    32452 
   32463    32475    32471    32462    32468    32478    32479    32482 
   32482    32485    32498    32517    32541    32560    32572    32584 
   32594    32607    32622    32620    32613    32617    32618    32607 
   32599    32594    32589    32583    32570    32557    32549    32548 
   32537    32521    32521    32528    32524    32528    32539    32545 
   32549    32537    32513    32510    32533    32551    32553    32545 
   32526    32517    32524    32533    32529    32517    32501    32486 
   32483    32486    32490    32498    32491    32467    32456    32464 
   32471    32476    32483    32481    32476    32482    32485    32481 
   32483    32478    32456    32454    32474    32490    32502    32517 
   32516    32503    32494    32479    32471    32485    32501    32516 
   32535    32537    32520    32510    32521    32539    32555    32563 
   32557    32547    32545    32552    32559    32562    32562    32563 
   32564    32576    32593    32590    32579    32571    32564    32570 
   32576    32572    32575    32590    32599    32601    32593    32576 
   32568    32563    32549    32545    32557    32548    32518    32501 
   32495    32498    32509    32518    32522    32524    32526    32525 
   32522    32532    32551    32548    32516    32479    32468    32478 
   32483    32481    32482    32483    32482    32478    32468    32460 
   32454    32447    32440    32436    32443    32462    32472    32470 
   32464    32459    32460    32468    32478    32490    32505    32520 
   32544    32566    32575    32576    32582    32597    32609    32602 
   32593    32591    32589    32576    32563    32563    32567    32555 
   32540    32532    32528    32528    32536    32553    32571    32567 
   32553    32564    32590    32597    32587    32572    32560    32570 
   32576    32560    32551    32553    32541    32521    32501    32481 
   32472    32470    32454    32440    32452    32467    32474    32481 
   32481    32479    32494    32518    32537    32549    32549    32541 
   32535    32544    32559    32559    32552    32555    32567    32580 
   32586    32586    32586    32576    32555    32545    32541    32525 
   32513    32512    32505    32485    32455    32433    32443    32475 
   32497    32499    32502    32508    32512    32513    32512    32521 
   32532    32518    32483    32458    32462    32485    32503    32508 
   32505    32509    32526    32530    32514    32502    32508    32522 
   32541    32556    32556    32552    32557    32555    32526    32503 
   32505    32520    32539    32545    32536    32518    32528    32564 
   32575    32551    32532    32529    32535    32533    32525    32529 
   32548    32556    32540    32521    32513    32517    32532    32536 
   32517    32493    32491    32505    32506    32494    32494    32512 
   32529    32548    32578    32601    32603    32602    32603    32580 
   32540    32514    32509    32501    32495    32506    32506    32491 
   32494    32499    32497    32509    32525    32521    32518    32530 
   32537    32525    32506    32498    32513    32539    32555    32556 
   32549    32548    32555    32549    32528    32512    32503    32497 
   32485    32456    32433    32445    32475    32497    32499    32471 
   32440    32459    32510    32537    32533    32522    32510    32512 
   32529    32544    32543    32522    32503    32510    32535    32555 
   32560    32567    32574    32551    32522    32529    32537    32520 
   32510    32513    32510    32503    32491    32493    32520    32532 
   32522    32528    32548    32551    32530    32497    32460    32456 
   32472    32470    32464    32462    32440    32410    32402    32414 
   32441    32474    32506    32536    32556    32570    32579    32584 
   32582    32559    32526    32513    32525    32549    32552    32508 
   32464    32470    32497    32528    32555    32571    32595    32622 
   32625    32613    32595    32563    32535    32537    32540    32516 
   32489    32487    32506    32529    32549    32566    32562    32525 
   32491    32513    32566    32597    32598    32593    32599    32618 
   32634    32634    32629    32614    32582    32552    32557    32587 
   32594    32566    32532    32520    32522    32522    32526    32556 
   32593    32603    32586    32559    32530    32509    32490    32475 
   32466    32447    32416    32410    32432    32448    32454    32448 
   32440    32456    32499    32539    32555    32544    32513    32493 
   32498    32514    32514    32495    32464    32429    32417    32429 
   32428    32413    32409    32424    32448    32470    32482    32495 
   32495    32466    32444    32467    32510    32537    32543    32544 
   32544    32530    32521    32530    32547    32562    32571    32575 
   32578    32584    32605    32620    32617    32626    32638    32621 
   32595    32571    32537    32514    32514    32525    32543    32557 
   32555    32536    32521    32524    32535    32532    32505    32464 
   32436    32432    32451    32499    32555    32589    32606    32603 
   32590    32594    32611    32625    32638    32644    32626    32602 
   32586    32560    32509    32460    32443    32460    32494    32530 
   32562    32580    32574    32543    32529    32529    32490    32440 
   32433    32444    32432    32404    32383    32385    32406    32436 
   32466    32487    32501    32513    32521    32528    32547    32562 
   32549    32522    32499    32497    32524    32553    32544    32497 
   32439    32390    32385    32425    32444    32429    32429    32452 
   32483    32517    32532    32506    32460    32429    32412    32393 
   32378    32383    32412    32420    32400    32390    32397    32412 
   32431    32448    32482    32526    32556    32572    32589    32621 
   32664    32701    32722    32733    32745    32751    32737    32713 
   32678    32634    32606    32605    32626    32652    32665    32679 
   32707    32748    32773    32764    32748    32753    32763    32740 
   32683    32629    32607    32620    32638    32641    32630    32602 
   32566    32549    32539    32506    32455    32414    32395    32370 
   32333    32314    32297    32266    32240    32225    32231    32274 
   32323    32343    32352    32378    32402    32406    32406    32428 
   32478    32525    32533    32516    32506    32508    32494    32476 
   32464    32443    32412    32409    32420    32397    32360    32332 
   32306    32314    32362    32424    32495    32557    32591    32609 
   32617    32610    32587    32582    32609    32629    32628    32629 
   32638    32651    32659    32647    32624    32617    32626    32637 
   32641    32644    32648    32651    32641    32613    32584    32572 
   32590    32625    32634    32614    32616    32632    32610    32545 
   32486    32474    32501    32522    32535    32555    32587    32618 
   32626    32611    32595    32579    32551    32517    32489    32466 
   32444    32418    32375    32321    32279    32243    32201    32181 
   32193    32220    32260    32316    32367    32400    32417    32440 
   32479    32537    32598    32632    32643    32652    32638    32599 
   32559    32537    32535    32544    32549    32544    32535    32529 
   32513    32476    32454    32464    32482    32486    32476    32471 
   32489    32509    32502    32474    32451    32436    32420    32412 
   32418    32447    32497    32540    32559    32566    32576    32602 
   32616    32595    32575    32583    32618    32656    32665    32655 
   32645    32648    32656    32661    32659    32648    32628    32607 
   32611    32628    32632    32621    32594    32568    32547    32522 
   32494    32472    32479    32502    32516    32509    32483    32456 
   32456    32475    32493    32509    32518    32498    32463    32441 
   32412    32367    32341    32339    32336    32352    32395    32441 
   32475    32497    32513    32525    32529    32544    32586    32625 
   32643    32649    32633    32594    32571    32568    32556    32535 
   32526    32526    32532    32545    32543    32524    32508    32494 
   32487    32495    32506    32508    32498    32486    32487    32509 
   32543    32571    32593    32624    32665    32692    32682    32643 
   32595    32556    32544    32567    32602    32629    32643    32643 
   32633    32610    32575    32552    32560    32559    32532    32503 
   32481    32455    32437    32421    32408    32422    32452    32475 
   32505    32539    32564    32559    32525    32482    32444    32429 
   32448    32486    32502    32481    32448    32416    32379    32359 
   32366    32373    32364    32356    32364    32394    32436    32460 
   32474    32502    32539    32562    32562    32548    32543    32557 
   32562    32535    32498    32470    32440    32418    32424    32451 
   32495    32556    32616    32668    32707    32724    32715    32702 
   32695    32682    32653    32630    32605    32559    32518    32503 
   32498    32486    32474    32476    32495    32508    32508    32513 
   32530    32544    32547    32552    32555    32532    32493    32454 
   32421    32391    32359    32328    32321    32346    32390    32451 
   32503    32522    32521    32528    32536    32539    32555    32567 
   32556    32552    32560    32572    32590    32595    32576    32567 
   32586    32626    32648    32622    32594    32597    32599    32586 
   32559    32518    32487    32459    32425    32402    32402    32409 
   32409    32398    32389    32394    32409    32425    32435    32435 
   32436    32456    32502    32555    32617    32686    32732    32732 
   32703    32667    32636    32614    32587    32556    32547    32547 
   32533    32521    32532    32562    32587    32586    32564    32539 
   32517    32495    32479    32474    32476    32489    32494    32474 
   32444    32413    32367    32333    32341    32370    32397    32439 
   32499    32574    32643    32671    32670    32682    32687    32679 
   32691    32717    32721    32706    32695    32694    32692    32680 
   32644    32587    32533    32497    32478    32472    32458    32427 
   32400    32397    32417    32443    32481    32544    32589    32579 
   32551    32528    32495    32475    32482    32474    32443    32433 
   32455    32479    32489    32479    32452    32409    32382    32387 
   32398    32397    32402    32418    32433    32440    32443    32445 
   32440    32431    32422    32404    32383    32373    32360    32346 
   32343    32360    32393    32428    32451    32475    32529    32583 
   32620    32665    32715    32751    32763    32749    32724    32687 
   32632    32579    32536    32490    32466    32474    32470    32448 
   32444    32464    32498    32536    32557    32563    32564    32560 
   32549    32532    32517    32521    32543    32556    32548    32547 
   32576    32613    32610    32568    32536    32549    32582    32614 
   32640    32655    32655    32633    32594    32563    32553    32564 
   32593    32624    32630    32617    32616    32620    32613    32603 
   32591    32574    32562    32547    32522    32503    32483    32443 
   32385    32339    32328    32339    32354    32373    32385    32389 
   32394    32391    32374    32366    32371    32379    32386    32405 
   32445    32486    32512    32543    32590    32628    32633    32629 
   32648    32672    32694    32719    32730    32715    32698    32686 
   32678    32675    32660    32625    32594    32584    32584    32582 
   32574    32551    32521    32499    32476    32454    32440    32433 
   32422    32416    32427    32444    32440    32417    32401    32398 
   32413    32437    32464    32497    32529    32559    32587    32617 
   32652    32671    32668    32661    32647    32614    32589    32576 
   32574    32576    32583    32590    32591    32590    32591    32591 
   32572    32530    32499    32494    32495    32479    32445    32406 
   32389    32400    32417    32416    32400    32391    32397    32400 
   32393    32390    32394    32398    32398    32402    32410    32414 
   32416    32417    32413    32405    32402    32402    32397    32390 
   32395    32409    32418    32429    32448    32476    32516    32548 
   32571    32605    32645    32679    32703    32714    32719    32718 
   32692    32657    32644    32653    32667    32675    32684    32692 
   32692    32672    32655    32638    32613    32594    32594    32601 
   32605    32590    32563    32549    32549    32553    32563    32555 
   32509    32452    32409    32378    32347    32323    32316    32327 
   32355    32395    32431    32454    32470    32479    32479    32471 
   32452    32441    32445    32449    32455    32454    32443    32433 
   32429    32432    32441    32441    32437    32437    32432    32427 
   32439    32449    32441    32444    32467    32489    32510    32522 
   32522    32521    32526    32532    32532    32526    32525    32533 
   32551    32563    32574    32595    32617    32609    32587    32590 
   32599    32594    32593    32591    32594    32605    32607    32594 
   32579    32552    32525    32512    32506    32513    32525    32530 
   32541    32555    32560    32557    32555    32564    32586    32591 
   32589    32599    32602    32590    32572    32551    32529    32518 
   32525    32539    32544    32545    32553    32560    32563    32580 
   32617    32655    32667    32660    32656    32640    32593    32540 
   32501    32471    32445    32412    32381    32373    32382    32398 
   32425    32440    32435    32432    32447    32474    32508    32529 
   32541    32545    32530    32502    32486    32489    32497    32494 
   32479    32464    32455    32452    32458    32468    32481    32489 
   32498    32522    32549    32562    32567    32562    32547    32543 
   32568    32597    32597    32584    32579    32578    32574    32556 
   32535    32514    32490    32482    32497    32505    32512    32533 
   32563    32586    32607    32626    32633    32630    32622    32610 
   32599    32591    32582    32557    32521    32486    32463    32454 
   32445    32432    32418    32400    32383    32394    32425    32447 
   32456    32467    32481    32497    32499    32476    32463    32464 
   32468    32481    32493    32508    32541    32566    32564    32541 
   32501    32471    32470    32462    32427    32390    32373    32366 
   32351    32336    32328    32325    32339    32373    32404    32425 
   32435    32432    32424    32425    32436    32462    32499    32530 
   32541    32548    32564    32576    32575    32570    32560    32570 
   32606    32629    32636    32644    32652    32651    32636    32614 
   32605    32605    32607    32618    32626    32625    32625    32617 
   32598    32576    32563    32575    32603    32618    32613    32614 
   32634    32660    32671    32671    32679    32691    32707    32717 
   32702    32679    32667    32667    32671    32659    32632    32609 
   32584    32545    32505    32479    32462    32440    32420    32416 
   32412    32402    32401    32400    32404    32421    32443    32467 
   32493    32501    32493    32486    32464    32429    32405    32389 
   32387    32404    32417    32431    32439    32429    32413    32410 
   32413    32429    32455    32463    32452    32448    32448    32443 
   32445    32455    32459    32475    32503    32530    32555    32563 
   32557    32562    32570    32563    32559    32571    32583    32586 
   32582    32574    32559    32539    32518    32512    32514    32520 
   32532    32543    32539    32528    32524    32521    32514    32514 
   32535    32564    32575    32580    32598    32625    32648    32668 
   32680    32678    32661    32649    32647    32643    32624    32594 
   32579    32579    32580    32576    32572    32572    32579    32583 
   32579    32574    32575    32571    32547    32505    32466    32443 
