Origin Time       2025/06/03 22:18:00
Lat.              41.7
Long.             143.6
Depth. (km)       30
Mag.              5.2
Station Code      IBUH05
Station Lat.      42.5629
Station Long.     141.3497
Station Height(m) -157
Record Time       2025/06/03 22:19:26
Sampling Freq(Hz) 100Hz
Duration Time(s)  120
Dir.              2
Scale Factor      2942(gal)/8224139
Max. Acc. (gal)   0.198
Last Correction   2025/06/03 22:19:27
Memo.             
[...]
   69039    69122    69203    69260    69265    69228    69167    69102 
   69052    69034    69043    69056    69078    69110    69147    69186 
   69233    69291    69348    69373    69354    69302    69230    69148 
   69067    69001    68952    68917    68891    68885    68897    68913 
   68909    68871    68817    68786    68774    68766    68764    68781 
   68808    68848    68886    68905    68917    68922    68895    68844 
   68791    68735    68681    68634    68581    68535    68517    68535 
   68586    68658    68729    68787    68829    68862    68879    68878 
   68860    68833    68820    68820    68825    68837    68845    68851 
   68859    68874    68883    68879    68864    68844    68832    68839 
   68870    68912    68943    68968    69009    69064    69117    69140 
   69138    69121    69095    69086    69103    69101    69067    69032 
   69012    69020    69053    69083    69103    69111    69103    69097 
   69110    69132    69151    69180    69217    69240    69237    69221 
   69191    69148    69093    69030    68963    68890    68818    68773 
   68764    68785    68823    68881    68937    68958    68948    68932 
   68909    68874    68837    68812    68793    68763    68715    68662 
   68612    68584    68581    68580    68570    68559    68551    68547 
   68534    68513    68509    68530    68554    68573    68608    68655 
   68696    68729    68764    68806    68851    68887    68920    68959 
   68994    69020    69044    69068    69103    69149    69206    69253 
   69276    69288    69310    69336    69346    69337    69327    69317 
   69291    69250    69209    69178    69144    69095    69052    69017 
   68979    68947    68910    68864    68818    68773    68728    68702 
   68709    68748    68808    68867    68926    68994    69068    69134 
   69182    69206    69223    69246    69275    69300    69323    69337 
   69323    69286    69241    69188    69120    69051    69009    68994 
   68986    68980    68976    68971    68960    68941    68921    68901 
   68882    68867    68856    68844    68833    68820    68809    68805 
   68794    68777    68760    68751    68755    68782    68824    68866 
   68899    68937    68974    68987    68971    68931    68885    68848 
   68820    68798    68771    68740    68706    68678    68658    68646 
   68654    68690    68739    68801    68885    68974    69040    69083 
   69105    69109    69120    69141    69164    69198    69245    69288 
   69327    69367    69384    69364    69303    69222    69140    69057 
   68974    68893    68820    68766    68735    68719    68715    68717 
   68719    68723    68727    68723    68716    68719    68725    68727 
   68737    68770    68802    68797    68758    68716    68685    68659 
   68648    68659    68689    68733    68787    68837    68870    68877 
   68868    68864    68879    68902    68916    68920    68921    68921 
   68913    68894    68871    68854    68851    68866    68879    68867 
   68839    68813    68798    68804    68829    68868    68908    68949 
   68998    69051    69090    69097    69080    69059    69029    68991 
   68951    68914    68889    68898    68951    69024    69093    69138 
   69161    69176    69175    69144    69091    69024    68940    68864 
   68817    68796    68796    68810    68820    68824    68832    68841 
   68852    68862    68856    68831    68791    68754    68720    68694 
   68675    68661    68665    68693    68736    68773    68791    68794 
   68786    68766    68756    68774    68814    68858    68897    68935 
   68978    69021    69043    69041    69034    69036    69051    69084 
   69129    69172    69210    69245    69264    69260    69248    69249 
   69259    69263    69256    69248    69250    69249    69232    69210 
   69187    69157    69134    69132    69149    69179    69213    69233 
   69228    69206    69188    69174    69157    69144    69134    69113 
   69068    69009    68952    68898    68833    68750    68665    68604 
   68574    68577    68615    68673    68735    68798    68860    68914 
   68949    68962    68959    68958    68964    68980    69010    69043 
   69067    69067    69048    69026    69010    69016    69049    69099 
   69149    69203    69267    69329    69380    69414    69429    69412 
   69353    69268    69191    69129    69071    69025    69001    68986 
   68976    68983    68999    69010    69007    68979    68937    68906 
   68889    68887    68906    68932    68958    68985    69010    69020 
   69001    68963    68917    68860    68779    68681    68593    68530 
   68480    68443    68422    68422    68446    68478    68511    68554 
   68604    68647    68689    68728    68762    68790    68821    68858 
   68890    68912    68926    68944    68970    69001    69034    69060 
   69078    69086    69097    69121    69148    69178    69210    69240 
   69275    69311    69331    69331    69315    69286    69242    69191 
   69137    69078    69013    68948    68879    68812    68767    68751 
   68751    68750    68747    68754    68771    68777    68770    68758 
   68727    68671    68613    68566    68524    68489    68474    68474 
   68482    68500    68526    68559    68596    68623    68638    68652 
   68678    68705    68733    68766    68800    68831    68864    68901 
   68933    68953    68966    68963    68945    68912    68867    68825 
   68800    68800    68821    68863    68929    69010    69079    69128 
   69168    69191    69183    69153    69111    69075    69057    69049 
   69053    69060    69060    69074    69110    69144    69159    69164 
   69163    69148    69124    69097    69068    69037    69002    68967 
   68936    68922    68922    68916    68908    68908    68909    68917 
   68925    68920    68905    68887    68866    68840    68813    68794 
   68787    68789    68793    68801    68810    68816    68817    68818 
   68821    68824    68833    68858    68894    68940    68997    69061 
   69124    69167    69184    69182    69168    69136    69091    69052 
   69017    68993    68989    68993    68995    68995    68990    68985 
   68986    68983    68978    68983    68985    68968    68948    68935 
   68929    68932    68933    68926    68908    68879    68858    68844 
   68828    68814    68805    68797    68793    68786    68770    68747 
   68724    68716    68728    68746    68769    68806    68858    68902 
   68936    68970    68997    69021    69045    69061    69070    69080 
   69088    69078    69051    69030    69025    69030    69047    69061 
   69075    69097    69124    69152    69179    69202    69221    69236 
   69248    69255    69250    69238    69230    69221    69198    69168 
   69138    69102    69057    69017    68975    68928    68879    68831 
   68778    68728    68689    68666    68651    68631    68611    68593 
   68580    68573    68570    68565    68561    68570    68594    68628 
   68669    68710    68754    68801    68840    68862    68877    68902 
   68929    68952    68976    68998    69022    69048    69064    69074 
   69075    69064    69053    69044    69032    69020    69014    69012 
   69016    69020    69024    69032    69047    69070    69097    69114 
   69124    69130    69136    69141    69151    69157    69160    69163 
   69167    69171    69174    69167    69144    69101    69044    68990 
   68952    68929    68912    68899    68889    68886    68897    68910 
   68917    68922    68924    68910    68885    68858    68832    68806 
   68790    68782    68793    68823    68862    68899    68941    68986 
   69030    69075    69107    69109    69083    69048    69016    68987 
   68956    68924    68905    68901    68897    68890    68885    68882 
   68874    68855    68836    68829    68825    68821    68829    68852 
   68875    68895    68916    68941    68975    69012    69043    69063 
   69075    69083    69083    69072    69047    69013    68976    68932 
   68877    68823    68775    68736    68705    68682    68671    68678 
   68696    68719    68737    68758    68785    68818    68854    68905 
   68960    69005    69039    69064    69078    69091    69099    69093 
   69071    69049    69034    69029    69025    69021    69013    68998 
   68976    68960    68953    68949    68940    68922    68905    68887 
   68871    68856    68844    68831    68823    68829    68848    68877 
   68913    68958    69003    69057    69117    69171    69213    69244 
   69265    69276    69273    69259    69233    69195    69149    69110 
   69079    69051    69033    69024    69006    68979    68955    68935 
   68910    68875    68840    68813    68787    68767    68751    68739 
   68742    68754    68760    68770    68782    68789    68794    68809 
   68827    68836    68843    68851    68864    68886    68912    68931 
   68940    68933    68902    68866    68839    68816    68802    68798 
   68798    68812    68836    68862    68886    68905    68925    68943 
   68947    68933    68910    68882    68852    68829    68816    68810 
   68806    68810    68820    68825    68825    68829    68832    68825 
   68820    68825    68839    68855    68877    68898    68914    68925 
   68937    68952    68962    68967    68970    68964    68939    68899 
   68867    68844    68821    68805    68801    68812    68835    68868 
   68910    68944    68959    68971    68976    68968    68949    68913 
   68860    68813    68777    68748    68727    68716    68700    68673 
   68651    68634    68620    68616    68612    68608    68615    68631 
   68655    68686    68716    68744    68781    68821    68860    68897 
   68932    68963    68993    69020    69047    69079    69114    69156 
   69199    69240    69282    69323    69353    69367    69365    69353 
   69338    69319    69298    69267    69219    69165    69113    69063 
   69028    69007    68987    68967    68949    68932    68910    68881 
   68850    68818    68785    68754    68733    68719    68701    68682 
   68665    68650    68636    68638    68656    68679    68702    68725 
   68747    68774    68800    68821    68836    68843    68855    68882 
   68916    68945    68978    69022    69063    69097    69128    69160 
   69183    69196    69209    69226    69237    69238    69241    69244 
   69246    69252    69250    69233    69210    69190    69172    69160 
   69151    69144    69144    69148    69152    69152    69149    69130 
   69102    69079    69052    69018    68995    68982    68970    68959 
   68958    68960    68959    68962    68966    68962    68956    68955 
   68943    68922    68898    68879    68870    68870    68872    68874 
   68877    68882    68893    68908    68922    68935    68939    68945 
   68960    68978    68990    69001    69014    69034    69059    69086 
   69113    69134    69147    69148    69133    69103    69066    69022 
   68983    68958    68937    68920    68906    68901    68912    68939 
   68976    69024    69063    69083    69103    69125    69134    69144 
   69157    69165    69172    69186    69198    69205    69211    69222 
   69242    69272    69292    69288    69264    69228    69178    69118 
   69056    68998    68953    68928    68914    68910    68913    68913 
   68912    68910    68910    68908    68897    68879    68855    68825 
   68800    68785    68783    68783    68783    68789    68790    68778 
   68760    68746    68733    68723    68719    68729    68744    68755 
   68775    68808    68825    68827    68824    68814    68789    68760 
   68731    68698    68674    68673    68694    68731    68770    68810 
   68854    68894    68925    68947    68949    68936    68918    68894 
   68866    68841    68817    68789    68762    68737    68717    68705 
   68696    68685    68677    68678    68694    68729    68775    68827 
   68878    68929    68972    69006    69029    69043    69043    69030 
   69009    68991    68979    68960    68933    68906    68882    68863 
   68850    68839    68824    68813    68810    68804    68794    68794 
   68800    68808    68821    68832    68836    68841    68843    68839 
   68837    68837    68835    68837    68845    68852    68855    68860 
   68863    68859    68854    68841    68818    68781    68742    68706 
   68677    68655    68643    68638    68635    68639    68648    68670 
   68698    68725    68766    68827    68894    68955    69009    69060 
   69102    69133    69172    69214    69249    69279    69298    69307 
   69309    69302    69288    69269    69246    69225    69218    69222 
   69230    69241    69255    69272    69296    69318    69330    69329 
   69310    69283    69259    69238    69218    69198    69180    69163 
   69140    69115    69093    69067    69044    69021    68995    68982 
   68982    68979    68972    68963    68940    68913    68894    68872 
   68843    68813    68786    68754    68720    68689    68658    68632 
   68612    68590    68575    68580    68602    68632    68665    68704 
   68758    68821    68882    68935    68980    69022    69059    69086 
   69105    69113    69111    69114    69115    69107    69097    69086 
   69072    69064    69063    69066    69075    69090    69105    69121 
   69137    69152    69167    69183    69195    69207    69232    69271 
   69317    69363    69404    69435    69457    69475    69483    69483 
   69477    69462    69437    69398    69352    69304    69257    69206 
   69148    69082    69012    68936    68863    68804    68752    68708 
   68673    68639    68608    68585    68559    68527    68494    68465 
   68442    68420    68401    68389    68384    68392    68419    68451 
   68486    68536    68593    68650    68712    68766    68802    68829 
   68843    68843    68837    68831    68829    68840    68856    68875 
   68898    68913    68922    68926    68924    68913    68904    68893 
   68882    68874    68866    68862    68867    68879    68891    68902 
   68909    68914    68925    68931    68933    68937    68943    68953 
   68974    68994    69010    69025    69039    69039    69028    69009 
   68980    68948    68918    68893    68877    68862    68851    68850 
   68847    68839    68836    68828    68817    68808    68793    68782 
   68775    68767    68759    68746    68739    68747    68754    68755 
   68755    68754    68755    68763    68771    68785    68802    68818 
   68831    68844    68860    68871    68878    68882    68879    68872 
   68867    68862    68858    68848    68840    68836    68837    68848 
   68860    68867    68881    68899    68908    68910    68918    68928 
   68936    68940    68939    68931    68928    68933    68936    68945 
   68962    68980    68997    69002    68998    68990    68978    68970 
   68975    68990    69005    69018    69030    69036    69036    69034 
   69030    69017    69005    68990    68967    68941    68924    68912 
   68897    68872    68845    68828    68812    68791    68773    68766 
   68771    68779    68794    68813    68831    68847    68860    68870 
   68879    68887    68894    68908    68928    68958    68986    69005 
   69018    69030    69044    69055    69053    69052    69053    69045 
   69036    69029    69010    68989    68976    68967    68956    68945 
   68937    68935    68935    68933    68932    68940    68956    68974 
   68998    69022    69039    69063    69095    69120    69137    69153 
   69167    69180    69186    69184    69179    69171    69167    69160 
   69152    69155    69165    69176    69187    69199    69211    69221 
   69228    69228    69225    69228    69236    69240    69244    69253 
   69267    69279    69288    69296    69302    69298    69290    69283 
   69276    69273    69273    69265    69246    69225    69196    69163 
   69122    69080    69039    68998    68960    68926    68895    68867 
   68845    68829    68821    68813    68798    68777    68756    68743 
   68729    68716    68710    68716    68720    68723    68724    68728 
   68728    68720    68708    68694    68671    68640    68612    68588 
   68570    68555    68539    68527    68519    68511    68504    68505 
   68507    68508    68520    68546    68580    68617    68654    68690 
   68728    68762    68801    68850    68901    68947    68985    69014 
   69039    69057    69070    69082    69097    69107    69110    69111 
   69110    69102    69094    69080    69055    69028    69009    68994 
   68979    68974    68976    68980    68995    69016    69030    69041 
   69051    69052    69047    69036    69022    69007    68991    68971 
   68952    68940    68937    68940    68941    68943    68944    68952 
   68968    68983    68991    69002    69012    69013    69016    69017 
   69010    68999    68993    68983    68972    68962    68948    68931 
   68916    68905    68890    68877    68870    68866    68862    68860 
   68860    68855    68844    68835    68824    68808    68794    68786 
   68783    68785    68790    68797    68809    68821    68828    68833 
   68847    68864    68885    68905    68924    68944    68968    68991 
   69013    69040    69066    69086    69109    69132    69155    69171 
   69184    69198    69207    69210    69211    69207    69199    69191 
   69182    69169    69157    69155    69159    69163    69168    69168 
   69155    69140    69132    69128    69122    69109    69097    69090 
   69084    69087    69097    69103    69114    69129    69140    69145 
   69149    69147    69138    69130    69124    69118    69110    69097 
   69076    69051    69018    68980    68937    68883    68818    68755 
   68690    68628    68574    68527    68485    68458    68446    68435 
   68435    68447    68463    68485    68507    68519    68534    68553 
   68566    68573    68577    68585    68596    68609    68628    68647 
   68666    68690    68717    68740    68766    68790    68820    68855 
   68891    68926    68959    68990    69017    69030    69030    69022 
   69009    68990    68966    68943    68924    68905    68893    68885 
   68874    68866    68867    68877    68887    68897    68913    68929 
   68943    68955    68964    68976    68980    68974    68966    68955 
   68932    68905    68875    68843    68818    68808    68800    68805 
   68824    68841    68868    68906    68939    68968    68999    69028 
   69053    69072    69082    69087    69086    69078    69068    69057 
   69044    69028    69013    68999    68990    68979    68967    68953 
   68941    68931    68924    68917    68904    68891    68881    68868 
   68862    68855    68844    68833    68821    68808    68794    68786 
   68779    68777    68779    68789    68804    68821    68841    68864 
   68887    68909    68929    68948    68971    68993    69006    69014 
   69021    69034    69051    69064    69078    69086    69091    69095 
   69094    69090    69084    69074    69056    69036    69013    68993 
   68976    68958    68940    68924    68908    68890    68875    68863 
   68845    68827    68817    68806    68791    68781    68778    68775 
   68775    68779    68786    68794    68802    68809    68817    68828 
   68828    68823    68824    68827    68829    68841    68863    68883 
   68904    68933    68963    68982    69006    69034    69055    69082 
   69107    69122    69141    69155    69151    69149    69144    69132 
   69121    69110    69099    69088    69079    69075    69074    69076 
   69082    69084    69084    69082    69078    69068    69055    69041 
