Origin Time       2025/06/03 22:18:00
Lat.              41.7
Long.             143.6
Depth. (km)       30
Mag.              5.2
Station Code      IBUH02
Station Lat.      42.8714
Station Long.     142.1285
Station Height(m) 73
Record Time       2025/06/03 22:19:19
Sampling Freq(Hz) 100Hz
Duration Time(s)  120
Dir.              3
Scale Factor      3923(gal)/8224838
Max. Acc. (gal)   0.234
Last Correction   2025/06/03 22:19:19
Memo.             
[...]
    -626     -589     -575     -615     -611     -599     -614     -608 
    -608     -611     -591     -575     -564     -549     -540     -537 
    -541     -550     -560     -565     -568     -573     -577     -572 
    -575     -583     -583     -583     -584     -580     -581     -587 
    -591     -596     -604     -608     -604     -596     -589     -588 
    -585     -581     -581     -583     -581     -575     -564     -560 
    -553     -541     -538     -540     -544     -545     -535     -522 
    -519     -522     -521     -521     -523     -523     -517     -502 
    -492     -496     -495     -487     -481     -479     -472     -464 
    -456     -452     -452     -449     -444     -440     -448     -464 
    -479     -491     -510     -526     -527     -533     -533     -531 
    -545     -557     -560     -564     -567     -573     -588     -600 
    -596     -592     -599     -594     -573     -568     -573     -580 
    -591     -606     -619     -630     -641     -661     -676     -679 
    -691     -696     -692     -697     -702     -704     -719     -730 
    -733     -735     -735     -729     -719     -699     -675     -653 
    -637     -631     -623     -608     -607     -608     -602     -594 
    -583     -568     -556     -554     -549     -531     -521     -515 
    -504     -506     -511     -495     -480     -484     -475     -452 
    -452     -465     -463     -463     -475     -472     -467     -479 
    -500     -511     -492     -483     -496     -479     -456     -459 
    -450     -427     -418     -441     -483     -472     -409     -409 
    -446     -440     -448     -481     -490     -502     -510     -508 
    -527     -550     -562     -572     -584     -600     -619     -633 
    -637     -649     -660     -645     -635     -641     -637     -630 
    -630     -633     -634     -639     -646     -646     -643     -642 
    -643     -643     -643     -648     -657     -660     -662     -672 
    -679     -688     -704     -711     -708     -699     -691     -689 
    -687     -689     -700     -708     -711     -703     -687     -670 
    -664     -664     -658     -654     -654     -634     -604     -592 
    -567     -531     -521     -513     -499     -490     -473     -453 
    -438     -427     -414     -402     -400     -391     -382     -415 
    -438     -426     -452     -473     -440     -449     -490     -483 
    -492     -523     -525     -527     -544     -552     -554     -553 
    -553     -557     -562     -564     -562     -561     -558     -552 
    -540     -538     -568     -581     -556     -560     -577     -565 
    -571     -588     -588     -599     -608     -598     -587     -580 
    -576     -580     -587     -596     -607     -604     -595     -592 
    -591     -588     -592     -606     -616     -618     -616     -618 
    -607     -584     -579     -587     -577     -568     -573     -572 
    -560     -554     -541     -517     -511     -518     -518     -514 
    -515     -513     -508     -510     -510     -513     -519     -521 
    -525     -529     -529     -527     -525     -519     -519     -527 
    -535     -545     -556     -562     -557     -550     -545     -545 
    -548     -556     -564     -568     -569     -575     -572     -564 
    -561     -554     -540     -530     -527     -527     -527     -523 
    -514     -507     -510     -513     -518     -540     -561     -558 
    -538     -541     -558     -548     -548     -565     -562     -562 
    -575     -577     -575     -576     -579     -580     -581     -587 
    -588     -584     -591     -616     -638     -619     -594     -598 
    -589     -579     -596     -615     -621     -595     -564     -575 
    -580     -560     -561     -565     -558     -564     -576     -591 
    -604     -600     -596     -589     -568     -556     -587     -634 
    -645     -643     -677     -687     -645     -631     -653     -643 
    -616     -615     -612     -606     -619     -618     -616     -634 
    -630     -615     -619     -618     -610     -610     -612     -611 
    -604     -606     -603     -598     -606     -612     -610     -607 
    -600     -589     -584     -580     -575     -573     -573     -564 
    -549     -534     -533     -557     -575     -548     -523     -540 
    -534     -515     -523     -515     -507     -522     -527     -530 
    -541     -548     -552     -557     -554     -541     -531     -527 
    -515     -503     -503     -500     -494     -496     -500     -498 
    -491     -486     -481     -471     -457     -452     -446     -445 
    -456     -471     -480     -487     -492     -494     -496     -503 
    -515     -525     -527     -533     -542     -549     -556     -568 
    -577     -583     -581     -572     -561     -553     -540     -521 
    -511     -507     -494     -490     -496     -491     -477     -469 
    -469     -468     -464     -469     -476     -475     -473     -477 
    -487     -495     -506     -530     -556     -579     -603     -616 
    -630     -639     -638     -639     -643     -648     -660     -681 
    -707     -727     -731     -723     -708     -687     -662     -641 
    -622     -611     -603     -585     -567     -556     -550     -541 
    -527     -519     -515     -507     -496     -483     -477     -475 
    -473     -475     -475     -476     -483     -479     -473     -473 
    -472     -467     -456     -441     -427     -415     -414     -423 
    -433     -445     -453     -456     -460     -460     -456     -464 
    -475     -480     -490     -498     -499     -507     -522     -534 
    -546     -557     -565     -573     -585     -594     -602     -615 
    -631     -643     -658     -677     -688     -693     -720     -778 
    -803     -768     -774     -805     -780     -770     -781     -768 
    -773     -784     -783     -789     -788     -776     -760     -735 
    -710     -695     -684     -672     -668     -675     -676     -669 
    -670     -666     -649     -634     -623     -610     -592     -571 
    -550     -542     -537     -531     -530     -526     -511     -499 
    -486     -463     -444     -430     -417     -410     -407     -411 
    -422     -427     -429     -434     -436     -434     -437     -438 
    -437     -457     -494     -494     -487     -525     -545     -542 
    -571     -587     -592     -614     -626     -638     -657     -658 
    -653     -661     -666     -661     -666     -673     -668     -664 
    -658     -652     -646     -639     -638     -639     -641     -642 
    -652     -654     -650     -665     -687     -693     -704     -722 
    -726     -724     -726     -729     -729     -730     -727     -719 
    -712     -702     -684     -666     -650     -631     -603     -571 
    -540     -531     -552     -535     -475     -475     -508     -496 
    -492     -511     -507     -502     -495     -483     -490     -502 
    -504     -519     -533     -531     -531     -530     -514     -490 
    -467     -453     -446     -438     -438     -444     -442     -436 
    -429     -417     -409     -411     -413     -415     -423     -432 
    -434     -434     -446     -456     -449     -440     -440     -436 
    -409     -383     -390     -422     -452     -454     -469     -492 
    -469     -476     -510     -513     -542     -553     -533     -557 
    -572     -562     -567     -567     -569     -571     -572     -577 
    -569     -572     -589     -595     -603     -614     -614     -608 
    -592     -580     -584     -583     -583     -589     -602     -614 
    -633     -657     -676     -693     -719     -743     -768     -792 
    -814     -831     -851     -878     -889     -888     -885     -869 
    -843     -818     -787     -754     -729     -697     -665     -642 
    -614     -585     -569     -553     -538     -526     -513     -498 
    -484     -473     -465     -461     -457     -452     -448     -448 
    -452     -456     -450     -442     -432     -413     -400     -398 
    -386     -376     -375     -373     -375     -387     -403     -411 
    -419     -432     -438     -444     -456     -468     -480     -500 
    -517     -525     -537     -548     -550     -550     -546     -535 
    -519     -510     -502     -499     -499     -495     -494     -504 
    -503     -492     -492     -499     -500     -500     -510     -533 
    -558     -571     -581     -595     -595     -594     -599     -592 
    -587     -594     -594     -588     -591     -589     -579     -575 
    -579     -577     -575     -580     -583     -580     -584     -591 
    -596     -600     -603     -600     -592     -594     -596     -595 
    -592     -591     -592     -589     -585     -588     -587     -583 
    -588     -584     -572     -572     -567     -554     -550     -554 
    -558     -567     -573     -575     -577     -585     -598     -610 
    -622     -630     -638     -650     -661     -672     -675     -666 
    -654     -635     -621     -614     -604     -596     -592     -577 
    -568     -568     -556     -544     -540     -526     -513     -508 
    -502     -496     -499     -510     -529     -549     -571     -592 
    -607     -621     -635     -648     -661     -670     -672     -668 
    -666     -665     -664     -665     -669     -666     -666     -662 
    -650     -642     -634     -621     -608     -600     -585     -569 
    -560     -549     -535     -527     -529     -525     -518     -515 
    -513     -504     -498     -499     -504     -504     -504     -506 
    -499     -490     -479     -465     -457     -461     -463     -461 
    -468     -479     -483     -490     -507     -534     -556     -569 
    -584     -598     -606     -622     -648     -662     -666     -665 
    -661     -657     -648     -626     -608     -591     -562     -538 
    -517     -496     -487     -475     -448     -413     -409     -438 
    -421     -375     -398     -427     -409     -426     -449     -450 
    -477     -495     -496     -508     -507     -496     -496     -494 
    -488     -499     -519     -529     -530     -529     -525     -526 
    -531     -537     -544     -553     -561     -568     -585     -607 
    -621     -638     -662     -687     -710     -731     -747     -765 
    -783     -793     -807     -827     -837     -853     -876     -885 
    -891     -896     -889     -881     -878     -859     -832     -815 
    -795     -769     -747     -723     -695     -669     -641     -611 
    -589     -569     -545     -519     -487     -449     -419     -398 
    -376     -355     -333     -313     -297     -280     -265     -257 
    -255     -252     -248     -245     -253     -263     -264     -274 
    -299     -322     -336     -356     -382     -402     -422     -444 
    -465     -486     -490     -487     -492     -490     -480     -487 
    -490     -481     -475     -472     -471     -475     -475     -473 
    -475     -472     -472     -473     -473     -477     -483     -491 
    -503     -515     -530     -544     -557     -572     -581     -585 
    -599     -623     -645     -657     -675     -693     -706     -722 
    -735     -742     -757     -772     -781     -791     -795     -803 
    -810     -811     -807     -799     -791     -789     -787     -773 
    -758     -742     -718     -696     -672     -637     -611     -591 
    -558     -519     -481     -453     -433     -405     -371     -346 
    -330     -313     -297     -291     -287     -284     -288     -290 
    -287     -292     -298     -302     -307     -310     -319     -341 
    -357     -367     -380     -396     -413     -427     -445     -469 
    -502     -534     -560     -580     -599     -612     -630     -652 
    -672     -693     -715     -727     -734     -737     -738     -750 
    -772     -787     -792     -795     -788     -791     -805     -812 
    -827     -838     -846     -869     -873     -864     -876     -877 
    -868     -876     -877     -873     -878     -874     -859     -854 
    -850     -839     -827     -823     -828     -822     -814     -816 
    -815     -803     -784     -760     -737     -707     -675     -646 
    -610     -564     -517     -468     -421     -373     -329     -284 
    -240     -205     -179     -152     -121     -103      -95      -89 
     -86      -93     -105     -121     -139     -160     -190     -230 
    -263     -292     -332     -365     -392     -425     -446     -468 
    -492     -504     -513     -517     -514     -513     -517     -523 
    -526     -530     -538     -544     -554     -575     -594     -615 
    -637     -646     -653     -668     -680     -687     -702     -726 
    -750     -778     -814     -845     -865     -876     -889     -901 
    -897     -901     -909     -903     -897     -892     -877     -857 
    -831     -805     -777     -741     -711     -677     -635     -598 
    -567     -541     -521     -499     -481     -465     -448     -432 
    -415     -403     -396     -391     -383     -380     -378     -375 
    -373     -372     -369     -368     -367     -371     -372     -375 
    -382     -387     -394     -400     -405     -406     -403     -400 
    -406     -413     -413     -410     -403     -395     -384     -369 
    -357     -345     -334     -322     -303     -287     -276     -260 
    -247     -249     -261     -274     -290     -315     -336     -360 
    -395     -426     -461     -513     -558     -596     -641     -687 
    -734     -785     -835     -880     -923     -959     -984    -1001 
   -1020    -1036    -1044    -1051    -1054    -1053    -1053    -1048 
   -1038    -1026    -1009     -994     -978     -950     -913     -878 
    -847     -822     -787     -751     -724     -696     -665     -630 
    -599     -583     -565     -530     -488     -456     -430     -402 
    -382     -368     -351     -344     -349     -349     -333     -310 
    -299     -284     -267     -256     -241     -234     -240     -238 
    -240     -252     -260     -260     -263     -272     -279     -291 
    -310     -333     -355     -371     -386     -400     -414     -432 
    -449     -464     -487     -515     -535     -558     -587     -600 
    -606     -618     -627     -635     -642     -648     -662     -670 
    -668     -673     -684     -693     -703     -710     -711     -714 
    -715     -711     -711     -712     -711     -708     -711     -720 
    -723     -722     -730     -749     -764     -776     -785     -795 
    -807     -819     -830     -839     -843     -850     -855     -850 
    -845     -847     -842     -824     -810     -787     -753     -731 
    -712     -687     -666     -645     -618     -594     -573     -548 
    -529     -518     -500     -483     -471     -454     -436     -423 
    -414     -406     -406     -409     -415     -427     -436     -444 
    -459     -469     -471     -473     -484     -498     -506     -515 
    -534     -546     -554     -564     -565     -565     -572     -579 
    -576     -576     -584     -587     -579     -577     -581     -577 
    -568     -560     -548     -531     -515     -502     -484     -467 
    -453     -440     -423     -411     -396     -380     -369     -360 
    -349     -351     -357     -359     -361     -371     -383     -394 
    -406     -419     -441     -463     -484     -507     -526     -537 
    -548     -561     -565     -564     -562     -560     -553     -541 
    -526     -510     -495     -476     -457     -450     -444     -430 
    -430     -429     -415     -418     -429     -434     -453     -479 
    -496     -515     -544     -573     -602     -629     -652     -673 
    -697     -719     -734     -754     -769     -774     -780     -783 
    -777     -772     -772     -778     -773     -747     -743     -734 
    -703     -688     -679     -653     -638     -629     -616     -604 
    -596     -595     -589     -579     -568     -560     -554     -548 
    -541     -535     -531     -530     -529     -527     -534     -548 
    -558     -565     -572     -573     -569     -569     -568     -561 
    -558     -560     -557     -558     -565     -564     -560     -554 
    -552     -580     -610     -594     -581     -599     -594     -588 
    -596     -589     -591     -606     -599     -567     -558     -577 
    -561     -537     -535     -511     -488     -476     -449     -433 
    -430     -418     -407     -402     -398     -392     -384     -379 
    -382     -390     -392     -402     -419     -430     -441     -459 
    -483     -506     -525     -540     -548     -549     -546     -550 
    -550     -540     -527     -517     -502     -490     -481     -473 
    -467     -463     -460     -459     -460     -463     -464     -465 
    -468     -469     -473     -484     -498     -513     -529     -540 
    -549     -564     -572     -580     -598     -610     -618     -633 
    -653     -668     -683     -700     -715     -726     -738     -745 
    -746     -754     -765     -768     -772     -778     -778     -773 
    -774     -774     -769     -766     -766     -760     -750     -747 
    -746     -739     -730     -722     -714     -710     -697     -679 
    -662     -648     -631     -616     -604     -599     -589     -569 
    -558     -553     -542     -535     -533     -525     -521     -529 
    -540     -541     -540     -545     -546     -549     -558     -560 
    -557     -561     -565     -562     -558     -556     -554     -556 
    -548     -538     -535     -529     -523     -526     -526     -522 
    -525     -529     -531     -538     -544     -554     -564     -565 
    -568     -569     -564     -560     -558     -548     -531     -523 
    -515     -506     -502     -495     -490     -483     -472     -464 
    -457     -450     -446     -449     -453     -460     -463     -468 
    -483     -492     -495     -503     -513     -515     -521     -534 
    -548     -561     -579     -592     -603     -616     -625     -634 
    -645     -650     -654     -661     -662     -666     -669     -668 
    -670     -677     -680     -673     -664     -666     -656     -637 
    -634     -622     -602     -595     -581     -567     -567     -561 
    -553     -553     -552     -550     -554     -556     -557     -558 
    -560     -556     -556     -556     -550     -544     -540     -537 
    -534     -529     -523     -518     -511     -506     -494     -475 
    -467     -459     -436     -419     -411     -396     -387     -382 
    -373     -369     -372     -371     -376     -391     -403     -415 
    -440     -469     -499     -531     -567     -603     -642     -679 
    -712     -745     -773     -800     -822     -835     -850     -861 
    -866     -870     -870     -861     -847     -832     -823     -812 
    -795     -773     -749     -723     -700     -677     -654     -626 
    -591     -560     -531     -496     -467     -441     -411     -387 
    -369     -355     -344     -338     -338     -336     -330     -332 
    -334     -334     -341     -351     -365     -387     -407     -421 
    -437     -449     -460     -475     -496     -513     -530     -552 
    -571     -581     -599     -619     -634     -653     -676     -688 
    -699     -712     -723     -733     -745     -754     -761     -764 
    -770     -774     -769     -768     -764     -753     -741     -730 
    -715     -702     -687     -666     -650     -635     -615     -596 
