Origin Time       2025/06/03 22:18:00
Lat.              41.7
Long.             143.6
Depth. (km)       30
Mag.              5.2
Station Code      IBUH05
Station Lat.      42.5629
Station Long.     141.3497
Station Height(m) 20
Record Time       2025/06/03 22:19:26
Sampling Freq(Hz) 100Hz
Duration Time(s)  120
Dir.              5
Scale Factor      7845(gal)/8223790
Max. Acc. (gal)   0.392
Last Correction   2025/06/03 22:19:27
Memo.             
[...]
   39553    39596    39629    39617    39587    39587    39611    39633 
   39646    39661    39667    39661    39665    39683    39688    39685 
   39680    39669    39652    39633    39633    39667    39712    39727 
   39714    39725    39775    39829    39872    39904    39912    39908 
   39914    39933    39957    39970    39966    39961    39955    39930 
   39868    39804    39779    39771    39742    39695    39650    39618 
   39590    39561    39538    39510    39482    39495    39540    39557 
   39540    39532    39561    39629    39696    39727    39734    39737 
   39749    39780    39815    39826    39812    39795    39776    39738 
   39683    39629    39600    39603    39586    39533    39479    39447 
   39430    39425    39430    39436    39429    39428    39445    39464 
   39475    39476    39495    39552    39611    39650    39683    39708 
   39731    39754    39792    39849    39895    39915    39928    39945 
   39949    39928    39885    39834    39791    39757    39735    39727 
   39714    39669    39618    39594    39579    39548    39538    39579 
   39641    39684    39704    39712    39707    39707    39738    39787 
   39822    39842    39860    39887    39911    39908    39883    39869 
   39874    39870    39857    39854    39858    39850    39808    39730 
   39646    39572    39505    39469    39472    39460    39424    39405 
   39420    39442    39452    39468    39513    39573    39623    39656 
   39675    39672    39663    39677    39706    39710    39692    39685 
   39708    39733    39739    39739    39746    39764    39769    39749 
   39723    39698    39668    39649    39653    39669    39664    39633 
   39621    39629    39631    39631    39645    39667    39691    39710 
   39719    39721    39711    39683    39654    39657    39669    39669 
   39691    39739    39776    39783    39772    39777    39806    39842 
   39883    39910    39910    39876    39815    39757    39711    39650 
   39587    39565    39577    39584    39590    39606    39617    39595 
   39568    39565    39580    39588    39603    39645    39710    39772 
   39831    39892    39928    39926    39892    39852    39823    39795 
   39769    39769    39773    39750    39696    39617    39538    39468 
   39390    39329    39310    39314    39326    39353    39405    39459 
   39480    39488    39514    39540    39546    39567    39617    39661 
   39685    39708    39754    39815    39861    39885    39887    39858 
   39806    39753    39714    39671    39618    39579    39563    39553 
   39523    39475    39442    39440    39437    39425    39436    39472 
   39509    39534    39550    39556    39540    39509    39507    39550 
   39610    39664    39717    39768    39800    39810    39833    39881 
   39919    39911    39876    39854    39850    39835    39810    39785 
   39745    39680    39611    39555    39513    39479    39457    39464 
   39478    39478    39479    39502    39544    39582    39607    39642 
   39692    39733    39769    39822    39873    39906    39919    39923 
   39914    39881    39846    39842    39876    39908    39915    39916 
   39923    39922    39918    39914    39907    39900    39901    39910 
   39916    39904    39852    39787    39742    39708    39681    39667 
   39658    39648    39618    39580    39560    39567    39586    39595 
   39598    39600    39596    39596    39629    39679    39699    39694 
   39685    39679    39668    39656    39656    39676    39710    39739 
   39760    39765    39762    39764    39765    39744    39690    39614 
   39555    39537    39532    39509    39480    39469    39486    39513 
   39540    39552    39529    39478    39434    39428    39440    39455 
   39490    39546    39596    39619    39615    39614    39640    39680 
   39722    39753    39768    39754    39721    39692    39680    39677 
   39684    39704    39719    39712    39702    39695    39690    39675 
   39648    39640    39657    39680    39696    39711    39733    39739 
   39722    39710    39711    39714    39727    39766    39815    39826 
   39788    39744    39735    39753    39764    39764    39766    39765 
   39752    39750    39768    39776    39771    39783    39823    39862 
   39862    39837    39831    39837    39814    39768    39714    39660 
   39621    39594    39572    39542    39486    39424    39398    39403 
   39414    39426    39459    39502    39536    39571    39619    39667 
   39688    39688    39694    39706    39711    39704    39685    39667 
   39657    39648    39638    39634    39627    39615    39621    39648 
   39661    39645    39629    39629    39631    39625    39619    39614 
   39603    39584    39567    39563    39573    39591    39604    39636 
   39676    39687    39685    39704    39730    39741    39737    39727 
   39723    39735    39773    39822    39852    39850    39843    39862 
   39914    39966    39972    39930    39868    39792    39718    39665 
   39636    39618    39613    39631    39658    39663    39638    39621 
   39636    39660    39669    39677    39695    39700    39684    39657 
   39621    39565    39499    39451    39444    39455    39455    39459 
   39478    39494    39491    39484    39502    39542    39572    39583 
   39595    39600    39582    39553    39538    39537    39546    39572 
   39606    39636    39652    39667    39702    39741    39752    39750 
   39769    39816    39874    39908    39900    39869    39831    39802 
   39802    39823    39823    39788    39765    39773    39777    39771 
   39761    39750    39731    39708    39688    39672    39640    39588 
   39552    39552    39575    39602    39644    39706    39772    39819 
   39839    39854    39879    39904    39928    39965    40000    40001 
   39981    39962    39928    39869    39807    39766    39754    39746 
   39719    39702    39707    39710    39708    39719    39733    39739 
   39739    39741    39756    39766    39754    39738    39731    39712 
   39673    39646    39640    39630    39610    39595    39592    39579 
   39549    39519    39514    39532    39546    39559    39579    39583 
   39557    39536    39552    39583    39579    39548    39521    39503 
   39494    39499    39518    39526    39506    39480    39496    39544 
   39586    39615    39630    39623    39610    39611    39650    39719 
   39777    39785    39769    39757    39725    39676    39649    39638 
   39611    39571    39545    39540    39532    39503    39475    39475 
   39480    39468    39455    39448    39447    39449    39468    39503 
   39538    39561    39577    39607    39633    39631    39636    39668 
   39698    39708    39714    39730    39760    39791    39816    39845 
   39874    39884    39879    39881    39879    39845    39792    39749 
   39722    39698    39663    39626    39609    39602    39595    39596 
   39611    39618    39615    39630    39654    39667    39669    39685 
   39722    39773    39820    39860    39895    39911    39892    39870 
   39880    39896    39888    39881    39892    39889    39870    39846 
   39826    39810    39776    39733    39708    39691    39657    39614 
   39592    39598    39602    39595    39591    39598    39590    39564 
   39549    39552    39559    39575    39613    39657    39679    39673 
   39664    39663    39667    39669    39675    39696    39727    39758 
   39791    39802    39775    39737    39721    39739    39771    39769 
   39739    39718    39695    39652    39606    39576    39541    39502 
   39488    39510    39540    39552    39541    39536    39548    39557 
   39555    39572    39607    39631    39649    39669    39676    39663 
   39645    39641    39648    39663    39695    39745    39812    39884 
   39939    39982    40024    40049    40053    40049    40045    40035 
   40007    39965    39916    39853    39781    39722    39683    39652 
   39604    39553    39526    39511    39490    39461    39436    39422 
   39414    39413    39437    39472    39494    39517    39553    39586 
   39602    39622    39679    39749    39788    39810    39846    39899 
   39939    39958    39969    39965    39935    39897    39881    39877 
   39854    39819    39806    39810    39808    39789    39769    39760 
   39746    39717    39681    39656    39629    39595    39571    39564 
   39553    39530    39511    39507    39518    39533    39559    39603 
   39630    39619    39598    39590    39599    39603    39594    39590 
   39580    39548    39509    39483    39465    39436    39411    39426 
   39459    39480    39495    39514    39542    39571    39590    39614 
   39637    39636    39615    39596    39584    39565    39536    39532 
   39563    39595    39619    39641    39669    39698    39708    39723 
   39746    39746    39734    39729    39722    39708    39685    39664 
   39663    39664    39638    39603    39586    39575    39561    39557 
   39563    39576    39596    39626    39660    39681    39685    39694 
   39719    39742    39742    39722    39703    39703    39706    39699 
   39700    39710    39717    39721    39725    39725    39712    39700 
   39708    39730    39742    39729    39704    39702    39708    39688 
   39660    39649    39646    39648    39661    39687    39702    39707 
   39722    39748    39765    39761    39746    39752    39776    39792 
   39806    39826    39834    39830    39823    39818    39806    39783 
   39762    39764    39784    39791    39772    39757    39753    39739 
   39725    39725    39727    39714    39685    39665    39661    39646 
   39623    39629    39661    39694    39710    39721    39729    39726 
   39719    39726    39738    39741    39738    39741    39760    39775 
   39771    39764    39772    39780    39764    39734    39715    39691 
   39649    39615    39599    39588    39579    39576    39590    39602 
   39590    39580    39598    39614    39602    39577    39568    39584 
   39614    39634    39638    39633    39622    39610    39610    39619 
   39618    39610    39614    39633    39646    39646    39642    39645 
   39629    39599    39590    39590    39576    39548    39521    39507 
   39496    39486    39487    39495    39503    39514    39523    39534 
   39540    39521    39499    39505    39528    39545    39563    39587 
   39613    39625    39629    39636    39641    39634    39636    39668 
   39708    39742    39776    39803    39822    39829    39829    39850 
   39896    39926    39933    39937    39942    39937    39922    39912 
   39901    39870    39834    39827    39846    39861    39856    39847 
   39850    39846    39834    39827    39823    39807    39773    39733 
   39692    39648    39592    39542    39517    39511    39502    39482 
   39472    39464    39447    39444    39479    39522    39545    39559 
   39580    39609    39636    39665    39692    39703    39690    39664 
   39652    39652    39642    39625    39615    39626    39646    39663 
   39684    39711    39725    39727    39726    39719    39704    39685 
   39672    39675    39677    39663    39649    39650    39656    39648 
   39637    39641    39652    39658    39677    39717    39750    39772 
   39798    39827    39843    39833    39811    39808    39820    39820 
   39815    39816    39815    39806    39792    39789    39793    39780 
   39758    39756    39758    39746    39730    39729    39742    39757 
   39757    39744    39725    39700    39673    39648    39627    39611 
   39599    39604    39625    39631    39623    39623    39629    39621 
   39600    39584    39591    39614    39636    39650    39664    39665 
   39649    39636    39642    39652    39658    39683    39725    39758 
   39765    39762    39771    39791    39800    39793    39788    39791 
   39780    39754    39730    39696    39653    39618    39600    39592 
   39569    39541    39529    39525    39517    39505    39495    39503 
   39523    39534    39541    39557    39561    39557    39580    39629 
   39672    39706    39742    39780    39803    39807    39799    39799 
   39798    39781    39762    39749    39723    39688    39656    39637 
   39625    39607    39591    39606    39634    39646    39646    39649 
   39644    39631    39626    39636    39648    39646    39638    39633 
   39631    39626    39617    39623    39648    39673    39704    39744 
   39776    39791    39779    39758    39749    39737    39717    39698 
   39673    39634    39592    39568    39567    39571    39560    39548 
   39549    39549    39538    39533    39550    39575    39591    39606 
   39625    39641    39641    39641    39660    39688    39704    39719 
   39750    39785    39807    39820    39839    39861    39866    39856 
   39850    39853    39841    39808    39768    39714    39657    39618 
   39602    39598    39596    39588    39586    39591    39595    39588 
   39580    39587    39595    39590    39583    39579    39565    39549 
   39545    39565    39595    39617    39640    39667    39695    39722 
   39746    39771    39785    39779    39765    39760    39746    39712 
   39668    39634    39615    39595    39568    39549    39533    39506 
   39486    39484    39501    39523    39540    39560    39584    39600 
   39614    39633    39649    39649    39642    39650    39676    39696 
   39699    39700    39706    39700    39690    39687    39677    39656 
   39627    39600    39582    39568    39550    39536    39538    39550 
   39563    39572    39583    39594    39590    39588    39613    39642 
   39658    39669    39687    39708    39717    39721    39748    39783 
   39806    39834    39883    39941    39996    40038    40070    40088 
   40086    40069    40053    40034    39991    39934    39895    39870 
   39837    39787    39739    39698    39658    39626    39606    39594 
   39577    39561    39560    39569    39569    39557    39552    39567 
   39586    39590    39587    39587    39577    39552    39530    39526 
   39525    39515    39511    39517    39522    39519    39523    39544 
   39573    39598    39613    39627    39648    39667    39688    39710 
   39726    39735    39744    39757    39780    39788    39773    39765 
   39771    39773    39773    39784    39793    39787    39768    39748 
   39737    39742    39748    39748    39761    39780    39784    39792 
   39808    39810    39800    39793    39795    39795    39783    39769 
   39772    39772    39758    39748    39744    39734    39721    39707 
   39710    39726    39739    39744    39749    39753    39749    39752 
   39765    39775    39766    39752    39749    39762    39772    39768 
   39762    39757    39746    39741    39744    39752    39758    39758 
   39765    39784    39803    39810    39815    39825    39822    39803 
   39783    39760    39727    39687    39654    39641    39629    39604 
   39583    39575    39573    39572    39572    39573    39576    39576 
   39580    39595    39610    39618    39629    39649    39673    39691 
   39695    39700    39706    39700    39691    39677    39660    39640 
   39622    39611    39603    39582    39553    39540    39548    39553 
   39545    39537    39536    39533    39526    39518    39513    39509 
   39511    39523    39537    39534    39514    39498    39498    39502 
   39502    39503    39511    39536    39575    39618    39663    39700 
   39721    39733    39748    39757    39746    39715    39688    39663 
   39626    39587    39546    39496    39449    39413    39399    39415 
   39442    39475    39514    39546    39576    39604    39629    39657 
   39680    39685    39688    39690    39671    39638    39617    39602 
   39584    39573    39579    39602    39637    39665    39699    39744 
   39785    39826    39870    39915    39955    39981    39988    39991 
   39989    39976    39968    39974    39980    39970    39953    39943 
   39942    39935    39926    39918    39900    39876    39852    39837 
   39823    39793    39760    39739    39729    39723    39715    39699 
   39680    39654    39625    39607    39596    39582    39567    39555 
   39548    39542    39528    39513    39499    39471    39442    39424 
   39402    39386    39376    39364    39363    39370    39370    39379 
   39401    39420    39437    39452    39472    39499    39518    39529 
   39546    39564    39568    39576    39595    39618    39636    39653 
   39673    39691    39711    39731    39756    39791    39820    39841 
   39857    39868    39865    39849    39841    39846    39856    39862 
   39873    39895    39915    39928    39942    39955    39958    39947 
   39933    39911    39881    39850    39825    39807    39793    39772 
   39749    39739    39738    39735    39734    39745    39764    39775 
   39779    39783    39781    39777    39781    39780    39762    39738 
   39715    39700    39695    39687    39668    39645    39626    39618 
   39617    39615    39615    39611    39603    39611    39627    39636 
   39640    39646    39660    39685    39708    39723    39738    39748 
   39754    39773    39800    39818    39822    39830    39849    39861 
   39861    39857    39849    39834    39820    39810    39804    39802 
   39791    39771    39748    39723    39690    39653    39629    39609 
   39582    39548    39515    39490    39475    39471    39474    39480 
   39480    39480    39491    39498    39494    39484    39471    39472 
   39476    39465    39452    39447    39430    39413    39406    39402 
   39397    39402    39410    39417    39429    39447    39465    39491 
   39517    39541    39564    39586    39611    39641    39665    39687 
   39710    39721    39722    39735    39744    39744    39750    39758 
   39773    39788    39802    39822    39841    39837    39822    39808 
   39792    39768    39738    39711    39687    39661    39642    39638 
   39644    39648    39650    39663    39676    39688    39708    39729 
   39750    39769    39769    39756    39749    39741    39723    39711 
   39700    39685    39669    39654    39653    39661    39661    39654 
   39656    39653    39640    39630    39630    39627    39625    39625 
   39621    39617    39617    39621    39625    39619    39603    39584 
   39569    39565    39564    39553    39536    39521    39510    39511 
   39522    39534    39544    39548    39555    39564    39576    39587 
   39596    39607    39619    39626    39636    39656    39675    39685 
   39695    39710    39730    39749    39773    39806    39826    39833 
   39834    39826    39807    39785    39764    39741    39712    39690 
   39672    39656    39642    39621    39588    39571    39567    39569 
   39582    39596    39607    39622    39640    39657    39675    39685 
   39688    39696    39712    39730    39744    39750    39758    39766 
   39772    39779    39788    39789    39784    39779    39779    39779 
   39769    39758    39756    39752    39744    39742    39754    39769 
   39779    39785    39796    39806    39818    39842    39864    39873 
   39884    39891    39892    39899    39901    39891    39879    39872 
   39864    39850    39839    39827    39807    39789    39781    39760 
   39727    39704    39683    39654    39631    39610    39591    39588 
   39596    39600    39600    39603    39599    39576    39550    39532 
   39511    39499    39491    39484    39487    39488    39488    39492 
   39502    39513    39533    39567    39607    39641    39675    39714 
   39744    39761    39773    39777    39779    39779    39773    39766 
