Origin Time       2025/06/03 22:18:00
Lat.              41.7
Long.             143.6
Depth. (km)       30
Mag.              5.2
Station Code      IBUH02
Station Lat.      42.8714
Station Long.     142.1285
Station Height(m) 73
Record Time       2025/06/03 22:19:19
Sampling Freq(Hz) 100Hz
Duration Time(s)  120
Dir.              1
Scale Factor      3923(gal)/8224838
Max. Acc. (gal)   0.307
Last Correction   2025/06/03 22:19:19
Memo.             
[...]
  -13309   -13327   -13348   -13360   -13366   -13370   -13369   -13369 
  -13371   -13365   -13354   -13350   -13351   -13356   -13363   -13366 
  -13360   -13358   -13362   -13355   -13339   -13325   -13309   -13298 
  -13296   -13289   -13290   -13300   -13294   -13288   -13292   -13302 
  -13309   -13312   -13320   -13327   -13327   -13335   -13350   -13363 
  -13370   -13373   -13375   -13385   -13400   -13404   -13401   -13404 
  -13406   -13405   -13401   -13394   -13396   -13402   -13402   -13397 
  -13400   -13406   -13409   -13404   -13393   -13389   -13382   -13362 
  -13350   -13355   -13365   -13367   -13363   -13356   -13351   -13350 
  -13347   -13335   -13321   -13315   -13315   -13324   -13333   -13333 
  -13336   -13333   -13328   -13338   -13343   -13338   -13339   -13336 
  -13327   -13331   -13332   -13323   -13319   -13311   -13298   -13304 
  -13316   -13313   -13313   -13315   -13304   -13294   -13300   -13308 
  -13308   -13313   -13325   -13328   -13319   -13319   -13325   -13325 
  -13324   -13327   -13325   -13325   -13339   -13350   -13348   -13354 
  -13365   -13365   -13377   -13397   -13400   -13400   -13406   -13409 
  -13409   -13400   -13390   -13389   -13383   -13371   -13359   -13356 
  -13356   -13351   -13347   -13340   -13325   -13317   -13313   -13300 
  -13286   -13278   -13259   -13242   -13242   -13248   -13251   -13252 
  -13254   -13257   -13262   -13269   -13274   -13274   -13266   -13259 
  -13265   -13278   -13284   -13290   -13305   -13317   -13321   -13317 
  -13316   -13320   -13321   -13319   -13321   -13321   -13313   -13316 
  -13329   -13339   -13347   -13355   -13358   -13367   -13389   -13406 
  -13414   -13425   -13436   -13444   -13441   -13428   -13421   -13416 
  -13393   -13373   -13367   -13367   -13360   -13347   -13336   -13331 
  -13327   -13319   -13315   -13311   -13302   -13312   -13332   -13340 
  -13346   -13352   -13351   -13348   -13354   -13358   -13354   -13348 
  -13342   -13333   -13338   -13339   -13335   -13336   -13336   -13342 
  -13354   -13355   -13355   -13355   -13348   -13351   -13356   -13352 
  -13351   -13352   -13355   -13365   -13367   -13365   -13362   -13363 
  -13375   -13386   -13383   -13378   -13374   -13375   -13373   -13355 
  -13347   -13348   -13348   -13346   -13342   -13339   -13336   -13336 
  -13343   -13340   -13336   -13331   -13320   -13320   -13325   -13316 
  -13309   -13308   -13298   -13297   -13308   -13308   -13300   -13300 
  -13305   -13294   -13285   -13294   -13308   -13313   -13323   -13339 
  -13348   -13348   -13355   -13369   -13373   -13374   -13378   -13382 
  -13392   -13397   -13394   -13394   -13393   -13389   -13383   -13369 
  -13354   -13347   -13335   -13317   -13301   -13285   -13273   -13274 
  -13277   -13274   -13278   -13289   -13298   -13301   -13298   -13305 
  -13320   -13324   -13320   -13324   -13324   -13312   -13315   -13335 
  -13351   -13356   -13365   -13370   -13373   -13386   -13393   -13386 
  -13381   -13375   -13374   -13375   -13367   -13355   -13352   -13352 
  -13347   -13339   -13333   -13329   -13331   -13331   -13325   -13327 
  -13323   -13317   -13328   -13335   -13333   -13336   -13339   -13340 
  -13358   -13381   -13390   -13392   -13397   -13400   -13402   -13400 
  -13390   -13386   -13390   -13387   -13375   -13369   -13363   -13354 
  -13348   -13342   -13331   -13325   -13328   -13329   -13325   -13327 
  -13323   -13316   -13327   -13338   -13333   -13335   -13342   -13339 
  -13344   -13359   -13358   -13354   -13355   -13347   -13343   -13340 
  -13328   -13317   -13302   -13294   -13300   -13294   -13279   -13281 
  -13285   -13279   -13267   -13263   -13269   -13271   -13270   -13273 
  -13270   -13271   -13281   -13282   -13274   -13277   -13293   -13302 
  -13306   -13316   -13329   -13329   -13323   -13323   -13328   -13327 
  -13323   -13321   -13313   -13306   -13315   -13327   -13329   -13333 
  -13343   -13343   -13348   -13365   -13373   -13371   -13373   -13374 
  -13386   -13400   -13398   -13400   -13410   -13419   -13428   -13431 
  -13431   -13437   -13436   -13425   -13424   -13429   -13423   -13412 
  -13409   -13409   -13409   -13405   -13405   -13412   -13412   -13409 
  -13412   -13414   -13410   -13404   -13401   -13405   -13401   -13385 
  -13370   -13366   -13362   -13346   -13329   -13319   -13313   -13308 
  -13296   -13284   -13278   -13270   -13257   -13248   -13251   -13255 
  -13254   -13255   -13259   -13261   -13263   -13263   -13255   -13240 
  -13228   -13217   -13209   -13207   -13204   -13196   -13186   -13181 
  -13180   -13181   -13188   -13200   -13215   -13228   -13242   -13259 
  -13267   -13273   -13288   -13302   -13309   -13323   -13344   -13356 
  -13356   -13360   -13363   -13362   -13370   -13379   -13378   -13382 
  -13392   -13401   -13409   -13406   -13406   -13416   -13423   -13417 
  -13414   -13423   -13425   -13419   -13410   -13412   -13416   -13412 
  -13406   -13417   -13432   -13439   -13443   -13451   -13460   -13462 
  -13460   -13470   -13483   -13489   -13493   -13495   -13483   -13474 
  -13473   -13456   -13439   -13437   -13428   -13409   -13405   -13397 
  -13370   -13347   -13336   -13323   -13312   -13308   -13298   -13285 
  -13279   -13288   -13285   -13273   -13266   -13262   -13255   -13250 
  -13242   -13234   -13231   -13238   -13247   -13255   -13261   -13262 
  -13263   -13265   -13269   -13273   -13273   -13271   -13275   -13282 
  -13284   -13278   -13270   -13263   -13258   -13247   -13234   -13223 
  -13217   -13217   -13221   -13234   -13246   -13247   -13247   -13247 
  -13246   -13247   -13251   -13251   -13244   -13239   -13231   -13223 
  -13224   -13234   -13242   -13255   -13269   -13282   -13302   -13320 
  -13338   -13351   -13362   -13385   -13409   -13417   -13423   -13432 
  -13441   -13444   -13439   -13443   -13455   -13452   -13450   -13458 
  -13462   -13458   -13458   -13459   -13448   -13436   -13433   -13432 
  -13419   -13406   -13408   -13405   -13390   -13378   -13379   -13378 
  -13367   -13359   -13354   -13347   -13342   -13336   -13332   -13329 
  -13333   -13350   -13360   -13355   -13347   -13332   -13324   -13323 
  -13309   -13301   -13301   -13289   -13278   -13277   -13270   -13259 
  -13250   -13243   -13238   -13232   -13230   -13224   -13219   -13217 
  -13220   -13223   -13231   -13243   -13257   -13271   -13285   -13301 
  -13321   -13332   -13331   -13333   -13346   -13356   -13360   -13360 
  -13360   -13367   -13386   -13400   -13404   -13412   -13423   -13436 
  -13451   -13451   -13456   -13474   -13475   -13468   -13471   -13468 
  -13459   -13463   -13471   -13475   -13489   -13504   -13502   -13497 
  -13501   -13497   -13482   -13474   -13467   -13454   -13444   -13432 
  -13414   -13400   -13383   -13356   -13331   -13312   -13298   -13292 
  -13285   -13284   -13285   -13271   -13252   -13248   -13248   -13246 
  -13242   -13236   -13228   -13224   -13223   -13217   -13212   -13203 
  -13192   -13186   -13181   -13174   -13180   -13190   -13196   -13203 
  -13211   -13215   -13219   -13225   -13234   -13238   -13243   -13247 
  -13246   -13235   -13230   -13227   -13230   -13239   -13250   -13261 
  -13270   -13279   -13292   -13311   -13331   -13340   -13346   -13355 
  -13358   -13358   -13369   -13377   -13373   -13373   -13375   -13379 
  -13386   -13385   -13385   -13390   -13398   -13405   -13408   -13416 
  -13429   -13441   -13446   -13446   -13459   -13477   -13482   -13487 
  -13495   -13498   -13501   -13510   -13520   -13532   -13547   -13558 
  -13572   -13590   -13598   -13605   -13614   -13616   -13613   -13610 
  -13605   -13595   -13585   -13578   -13572   -13560   -13548   -13544 
  -13537   -13532   -13535   -13535   -13536   -13540   -13540   -13539 
  -13537   -13536   -13541   -13539   -13536   -13540   -13533   -13528 
  -13522   -13512   -13502   -13489   -13471   -13463   -13451   -13436 
  -13427   -13410   -13396   -13386   -13370   -13350   -13329   -13312 
  -13300   -13281   -13261   -13246   -13225   -13198   -13174   -13151 
  -13127   -13105   -13082   -13059   -13035   -13016   -13004   -12991 
  -12985   -12987   -12974   -12960   -12955   -12949   -12939   -12928 
  -12916   -12915   -12919   -12912   -12914   -12924   -12928   -12924 
  -12926   -12935   -12937   -12931   -12934   -12951   -12969   -12982 
  -13003   -13030   -13059   -13090   -13117   -13138   -13158   -13182 
  -13208   -13232   -13258   -13282   -13305   -13325   -13351   -13382 
  -13408   -13425   -13448   -13473   -13495   -13513   -13525   -13537 
  -13543   -13537   -13535   -13531   -13517   -13508   -13497   -13485 
  -13477   -13464   -13452   -13446   -13435   -13421   -13417   -13414 
  -13401   -13389   -13393   -13396   -13383   -13373   -13370   -13363 
  -13351   -13338   -13328   -13324   -13329   -13324   -13311   -13305 
  -13294   -13288   -13297   -13300   -13300   -13315   -13320   -13311 
  -13297   -13286   -13277   -13262   -13240   -13234   -13240   -13247 
  -13255   -13267   -13277   -13294   -13328   -13362   -13387   -13416 
  -13443   -13462   -13475   -13479   -13475   -13478   -13487   -13487 
  -13491   -13512   -13525   -13533   -13554   -13571   -13582   -13601 
  -13618   -13628   -13640   -13641   -13632   -13625   -13609   -13590 
  -13579   -13571   -13567   -13566   -13563   -13562   -13562   -13563 
  -13567   -13568   -13566   -13566   -13563   -13555   -13548   -13541 
  -13529   -13524   -13529   -13532   -13536   -13544   -13548   -13554 
  -13548   -13540   -13532   -13509   -13483   -13455   -13414   -13377 
  -13333   -13289   -13262   -13242   -13221   -13209   -13208   -13216 
  -13227   -13239   -13252   -13262   -13258   -13247   -13232   -13213 
  -13193   -13167   -13143   -13123   -13100   -13082   -13076   -13063 
  -13042   -13028   -13024   -13016   -13008   -13019   -13036   -13043 
  -13043   -13049   -13050   -13045   -13045   -13050   -13047   -13032 
  -13018   -13011   -13000   -12995   -13009   -13019   -13022   -13041 
  -13063   -13082   -13109   -13139   -13159   -13180   -13198   -13212 
  -13219   -13221   -13217   -13211   -13205   -13201   -13201   -13212 
  -13236   -13273   -13320   -13378   -13440   -13497   -13549   -13601 
  -13635   -13647   -13656   -13656   -13641   -13626   -13606   -13585 
  -13570   -13552   -13533   -13522   -13518   -13520   -13525   -13540 
  -13559   -13581   -13595   -13610   -13614   -13603   -13591   -13568 
  -13528   -13491   -13458   -13417   -13387   -13367   -13338   -13311 
  -13301   -13300   -13296   -13294   -13301   -13311   -13313   -13323 
  -13342   -13348   -13344   -13339   -13329   -13316   -13313   -13315 
  -13308   -13306   -13308   -13297   -13289   -13298   -13308   -13315 
  -13328   -13346   -13356   -13365   -13378   -13386   -13377   -13367 
  -13358   -13342   -13331   -13320   -13312   -13313   -13317   -13333 
  -13360   -13378   -13394   -13409   -13413   -13421   -13428   -13417 
  -13404   -13393   -13373   -13347   -13321   -13302   -13286   -13262 
  -13238   -13219   -13201   -13182   -13169   -13159   -13153   -13158 
  -13176   -13190   -13208   -13235   -13258   -13271   -13282   -13296 
  -13306   -13309   -13301   -13293   -13293   -13292   -13293   -13312 
  -13338   -13360   -13386   -13413   -13435   -13460   -13490   -13510 
  -13520   -13533   -13536   -13521   -13508   -13486   -13447   -13413 
  -13385   -13350   -13332   -13329   -13324   -13329   -13340   -13347 
  -13371   -13397   -13410   -13423   -13436   -13448   -13455   -13446 
  -13433   -13419   -13387   -13348   -13315   -13289   -13259   -13228 
  -13209   -13189   -13162   -13147   -13139   -13130   -13127   -13135 
  -13149   -13166   -13186   -13203   -13215   -13225   -13230   -13236 
  -13247   -13250   -13247   -13246   -13244   -13250   -13258   -13254 
  -13243   -13225   -13203   -13185   -13167   -13147   -13134   -13130 
  -13132   -13140   -13150   -13162   -13180   -13194   -13204   -13211 
  -13212   -13215   -13220   -13225   -13239   -13254   -13271   -13293 
  -13316   -13347   -13392   -13433   -13463   -13485   -13508   -13528 
  -13535   -13532   -13528   -13518   -13501   -13487   -13483   -13489 
  -13512   -13543   -13585   -13640   -13687   -13732   -13776   -13802 
  -13814   -13815   -13798   -13772   -13743   -13706   -13666   -13624 
  -13587   -13554   -13524   -13498   -13482   -13471   -13466   -13468 
  -13468   -13458   -13451   -13432   -13397   -13373   -13350   -13319 
  -13290   -13274   -13275   -13281   -13275   -13279   -13288   -13284 
  -13269   -13248   -13236   -13232   -13219   -13203   -13190   -13169 
  -13150   -13142   -13130   -13124   -13128   -13134   -13143   -13167 
  -13197   -13223   -13251   -13281   -13305   -13324   -13339   -13350 
  -13358   -13363   -13371   -13387   -13396   -13390   -13378   -13370 
  -13360   -13344   -13331   -13329   -13333   -13346   -13355   -13360 
  -13366   -13366   -13375   -13390   -13389   -13393   -13409   -13423 
  -13440   -13454   -13466   -13483   -13491   -13490   -13497   -13502 
  -13494   -13490   -13490   -13481   -13474   -13468   -13454   -13439 
  -13428   -13412   -13393   -13379   -13370   -13362   -13355   -13352 
  -13355   -13365   -13370   -13373   -13383   -13404   -13428   -13441 
  -13452   -13474   -13489   -13489   -13482   -13474   -13460   -13431 
  -13398   -13363   -13306   -13234   -13165   -13097   -13019   -12949 
  -12892   -12835   -12787   -12761   -12744   -12723   -12712   -12708 
  -12702   -12698   -12695   -12696   -12703   -12717   -12735   -12760 
  -12787   -12820   -12853   -12897   -12949   -12991   -13047   -13119 
  -13173   -13219   -13275   -13316   -13338   -13365   -13397   -13419 
  -13428   -13436   -13450   -13467   -13481   -13490   -13508   -13525 
  -13532   -13541   -13555   -13562   -13574   -13593   -13606   -13624 
  -13643   -13652   -13662   -13670   -13670   -13674   -13678   -13679 
  -13684   -13693   -13699   -13703   -13698   -13689   -13671   -13639 
  -13610   -13585   -13556   -13535   -13516   -13498   -13482   -13459 
  -13439   -13421   -13390   -13360   -13339   -13306   -13271   -13243 
  -13209   -13185   -13166   -13140   -13119   -13104   -13095   -13092 
  -13092   -13097   -13105   -13117   -13134   -13149   -13154   -13159 
  -13166   -13169   -13170   -13173   -13178   -13181   -13180   -13184 
  -13193   -13205   -13224   -13251   -13284   -13319   -13352   -13378 
  -13410   -13444   -13462   -13460   -13459   -13456   -13439   -13412 
  -13396   -13382   -13358   -13333   -13323   -13321   -13324   -13329 
  -13344   -13358   -13371   -13402   -13428   -13437   -13447   -13454 
  -13462   -13473   -13479   -13493   -13506   -13516   -13532   -13544 
  -13549   -13556   -13562   -13559   -13563   -13570   -13568   -13567 
  -13566   -13562   -13552   -13537   -13522   -13506   -13494   -13487 
  -13482   -13490   -13505   -13513   -13527   -13531   -13521   -13512 
  -13489   -13462   -13448   -13428   -13402   -13393   -13381   -13355 
  -13336   -13328   -13313   -13298   -13297   -13292   -13282   -13292 
  -13311   -13316   -13324   -13342   -13352   -13359   -13381   -13412 
  -13433   -13450   -13475   -13497   -13512   -13518   -13520   -13522 
  -13517   -13502   -13479   -13446   -13420   -13393   -13350   -13317 
  -13304   -13281   -13257   -13252   -13250   -13238   -13231   -13223 
  -13212   -13205   -13198   -13185   -13167   -13154   -13149   -13139 
  -13132   -13138   -13146   -13150   -13158   -13167   -13174   -13180 
  -13186   -13190   -13186   -13178   -13171   -13159   -13150   -13146 
  -13143   -13142   -13143   -13143   -13144   -13146   -13147   -13153 
  -13161   -13166   -13177   -13188   -13193   -13200   -13209   -13216 
  -13223   -13234   -13242   -13251   -13267   -13286   -13308   -13324 
  -13331   -13339   -13351   -13355   -13360   -13374   -13382   -13379 
  -13374   -13374   -13382   -13385   -13379   -13377   -13379   -13392 
  -13401   -13397   -13398   -13401   -13396   -13379   -13359   -13343 
  -13329   -13311   -13296   -13282   -13261   -13240   -13239   -13238 
  -13234   -13246   -13261   -13273   -13292   -13305   -13308   -13305 
  -13302   -13311   -13313   -13312   -13320   -13329   -13329   -13339 
  -13359   -13374   -13385   -13401   -13417   -13441   -13468   -13482 
  -13493   -13517   -13527   -13520   -13517   -13514   -13502   -13497 
  -13498   -13493   -13494   -13500   -13497   -13495   -13495   -13482 
  -13475   -13470   -13454   -13448   -13450   -13433   -13423   -13424 
  -13410   -13392   -13385   -13383   -13375   -13369   -13371   -13383 
  -13397   -13404   -13410   -13420   -13429   -13431   -13421   -13414 
  -13408   -13387   -13360   -13340   -13316   -13284   -13254   -13232 
  -13209   -13185   -13176   -13176   -13173   -13173   -13178   -13185 
  -13184   -13182   -13186   -13188   -13192   -13203   -13224   -13247 
  -13274   -13306   -13335   -13358   -13381   -13402   -13425   -13452 
  -13483   -13508   -13528   -13544   -13545   -13540   -13537   -13525 
  -13510   -13506   -13493   -13473   -13464   -13446   -13423   -13410 
  -13385   -13352   -13339   -13325   -13313   -13309   -13305   -13301 
  -13312   -13328   -13332   -13333   -13340   -13331   -13319   -13323 
  -13319   -13302   -13296   -13285   -13257   -13235   -13221   -13204 
  -13181   -13155   -13127   -13097   -13070   -13057   -13053   -13042 
  -13026   -13019   -13019   -13016   -13020   -13041   -13058   -13069 
  -13093   -13127   -13154   -13189   -13227   -13254   -13278   -13311 
  -13338   -13355   -13377   -13406   -13435   -13456   -13468   -13478 
  -13491   -13500   -13493   -13487   -13485   -13475   -13470   -13464 
  -13447   -13431   -13424   -13408   -13386   -13381   -13375   -13362 
  -13355   -13360   -13374   -13387   -13396   -13408   -13436   -13468 
  -13491   -13514   -13547   -13574   -13586   -13603   -13621   -13621 
  -13621   -13622   -13618   -13617   -13617   -13613   -13613   -13613 
  -13612   -13605   -13595   -13586   -13572   -13556   -13547   -13535 
  -13520   -13512   -13505   -13491   -13477   -13466   -13454   -13433 
  -13423   -13414   -13390   -13370   -13360   -13343   -13312   -13279 
  -13246   -13211   -13181   -13146   -13105   -13076   -13050   -13030 
  -13014   -12989   -12966   -12957   -12957   -12962   -12966   -12966 
  -12974   -12993   -13000   -12997   -12995   -12992   -12988   -12991 
  -12996   -12991   -12987   -13000   -13016   -13031   -13046   -13063 
  -13093   -13120   -13135   -13154   -13174   -13184   -13193   -13205 
  -13213   -13220   -13227   -13236   -13247   -13262   -13279   -13304 
  -13332   -13356   -13386   -13432   -13473   -13500   -13532   -13566 
  -13585   -13595   -13605   -13612   -13614   -13612   -13605   -13598 
  -13589   -13574   -13554   -13532   -13510   -13486   -13466   -13451 
  -13437   -13428   -13427   -13420   -13425   -13441   -13439   -13433 
  -13441   -13443   -13435   -13431   -13429   -13421   -13409   -13402 
  -13406   -13408   -13400   -13398   -13405   -13410   -13409   -13408 
  -13412   -13416   -13410   -13394   -13385   -13383   -13367   -13339 
  -13317   -13304   -13289   -13270   -13266   -13265   -13254   -13250 
  -13247   -13244   -13250   -13258   -13259   -13258   -13259   -13269 
  -13279   -13284   -13282   -13278   -13281   -13296   -13304   -13305 
