Origin Time       2025/06/03 22:18:00
Lat.              41.7
Long.             143.6
Depth. (km)       30
Mag.              5.2
Station Code      IBUH01
Station Lat.      42.8739
Station Long.     141.8191
Station Height(m) 60
Record Time       2025/06/03 22:18:59
Sampling Freq(Hz) 100Hz
Duration Time(s)  120
Dir.              6
Scale Factor      7845(gal)/8223790
Max. Acc. (gal)   0.304
Last Correction   2025/06/03 22:18:59
Memo.             
[...]
  -17874   -17884   -17886   -17896   -17919   -17936   -17925   -17888 
  -17840   -17805   -17805   -17841   -17898   -17948   -17956   -17911 
  -17829   -17744   -17680   -17647   -17648   -17682   -17730   -17776 
  -17806   -17810   -17798   -17780   -17770   -17767   -17767   -17774 
  -17795   -17832   -17867   -17887   -17888   -17871   -17855   -17855 
  -17865   -17880   -17902   -17938   -17979   -18013   -18021   -17988 
  -17921   -17859   -17838   -17874   -17946   -18015   -18048   -18049 
  -18033   -18017   -18002   -17986   -17972   -17971   -17990   -18015 
  -18025   -18004   -17953   -17895   -17865   -17869   -17878   -17869 
  -17856   -17857   -17879   -17911   -17928   -17910   -17875   -17851 
  -17848   -17861   -17883   -17909   -17938   -17971   -17994   -17986 
  -17948   -17896   -17855   -17851   -17894   -17960   -18031   -18099 
  -18150   -18187   -18206   -18200   -18165   -18111   -18057   -18011 
  -17965   -17914   -17860   -17809   -17775   -17772   -17795   -17824 
  -17844   -17848   -17838   -17822   -17805   -17805   -17844   -17914 
  -17999   -18092   -18166   -18196   -18179   -18129   -18073   -18041 
  -18029   -18011   -17972   -17932   -17898   -17874   -17856   -17842 
  -17847   -17878   -17915   -17936   -17933   -17919   -17913   -17910 
  -17903   -17884   -17859   -17841   -17848   -17879   -17919   -17944 
  -17945   -17932   -17914   -17896   -17876   -17855   -17834   -17811 
  -17784   -17768   -17772   -17787   -17806   -17832   -17861   -17891 
  -17930   -17979   -18022   -18053   -18073   -18088   -18096   -18096 
  -18088   -18075   -18052   -18010   -17949   -17888   -17842   -17818 
  -17818   -17824   -17814   -17788   -17751   -17712   -17683   -17676 
  -17699   -17749   -17809   -17853   -17876   -17876   -17847   -17798 
  -17749   -17714   -17703   -17718   -17757   -17822   -17902   -17976 
  -18025   -18037   -18021   -17991   -17968   -17953   -17940   -17926 
  -17923   -17932   -17950   -17983   -18022   -18064   -18094   -18094 
  -18071   -18037   -18013   -18014   -18037   -18067   -18094   -18112 
  -18121   -18108   -18072   -18026   -17994   -17988   -17994   -17982 
  -17938   -17867   -17794   -17761   -17787   -17867   -17973   -18061 
  -18108   -18115   -18106   -18087   -18060   -18034   -18013   -17996 
  -17990   -17990   -17991   -18000   -18025   -18060   -18084   -18085 
  -18061   -18011   -17967   -17963   -17996   -18041   -18075   -18071 
  -18025   -17948   -17864   -17786   -17710   -17649   -17621   -17644 
  -17706   -17770   -17801   -17793   -17759   -17725   -17713   -17724 
  -17751   -17788   -17828   -17855   -17864   -17861   -17855   -17849 
  -17845   -17837   -17833   -17837   -17845   -17864   -17896   -17941 
  -17976   -17990   -17979   -17949   -17914   -17878   -17836   -17793 
  -17760   -17751   -17761   -17787   -17821   -17859   -17896   -17926 
  -17949   -17964   -17965   -17959   -17967   -17987   -18011   -18025 
  -18011   -17963   -17895   -17833   -17787   -17761   -17749   -17740 
  -17734   -17724   -17713   -17724   -17768   -17834   -17903   -17957 
  -17975   -17959   -17928   -17903   -17905   -17929   -17963   -17987 
  -17998   -17999   -17998   -17990   -17972   -17942   -17906   -17878 
  -17867   -17869   -17878   -17895   -17922   -17950   -17965   -17957 
  -17928   -17891   -17871   -17872   -17894   -17929   -17969   -18018 
  -18069   -18108   -18117   -18081   -18015   -17945   -17901   -17888 
  -17896   -17913   -17940   -17976   -18013   -18029   -18014   -17983 
  -17961   -17959   -17971   -17996   -18026   -18048   -18064   -18073 
  -18076   -18061   -18026   -17988   -17957   -17929   -17899   -17868 
  -17838   -17810   -17791   -17778   -17759   -17729   -17701   -17690 
  -17702   -17730   -17768   -17815   -17875   -17932   -17984   -18030 
  -18054   -18044   -18006   -17953   -17890   -17832   -17790   -17761 
  -17747   -17759   -17803   -17869   -17933   -17971   -17983   -17967 
  -17926   -17880   -17851   -17849   -17876   -17915   -17944   -17950 
  -17940   -17922   -17906   -17896   -17896   -17905   -17915   -17913 
  -17898   -17880   -17874   -17880   -17884   -17869   -17841   -17799 
  -17756   -17740   -17761   -17815   -17887   -17955   -17992   -17994 
  -17972   -17948   -17928   -17909   -17887   -17861   -17836   -17814 
  -17794   -17772   -17747   -17728   -17733   -17761   -17797   -17828 
  -17845   -17857   -17882   -17919   -17955   -17977   -17987   -17987 
  -17992   -18009   -18036   -18073   -18110   -18139   -18161   -18177 
  -18176   -18154   -18122   -18091   -18069   -18052   -18018   -17961 
  -17894   -17833   -17787   -17757   -17749   -17757   -17771   -17783 
  -17788   -17783   -17780   -17787   -17797   -17805   -17810   -17807 
  -17802   -17799   -17813   -17856   -17925   -17996   -18053   -18087 
  -18096   -18083   -18053   -18018   -17972   -17921   -17871   -17825 
  -17788   -17775   -17782   -17798   -17806   -17802   -17779   -17748 
  -17726   -17716   -17712   -17713   -17720   -17725   -17732   -17739 
  -17748   -17766   -17784   -17803   -17820   -17830   -17847   -17864 
  -17868   -17864   -17859   -17849   -17842   -17844   -17845   -17847 
  -17844   -17832   -17818   -17820   -17845   -17886   -17922   -17941 
  -17946   -17950   -17963   -17987   -18025   -18068   -18110   -18139 
  -18148   -18138   -18126   -18121   -18119   -18115   -18110   -18100 
  -18080   -18057   -18040   -18029   -18026   -18021   -18010   -17996 
  -17983   -17963   -17937   -17917   -17911   -17919   -17937   -17959 
  -17982   -18003   -18019   -18023   -18006   -17972   -17933   -17892 
  -17863   -17859   -17888   -17948   -18010   -18046   -18046   -18023 
  -17998   -17973   -17940   -17895   -17860   -17863   -17906   -17977 
  -18048   -18085   -18084   -18060   -18030   -18009   -17994   -17975 
  -17952   -17928   -17907   -17906   -17925   -17949   -17968   -17969 
  -17950   -17921   -17899   -17894   -17898   -17909   -17925   -17945 
  -17967   -17986   -17982   -17953   -17928   -17925   -17948   -17986 
  -18015   -18034   -18052   -18075   -18095   -18096   -18067   -18009 
  -17944   -17890   -17857   -17845   -17838   -17825   -17813   -17817 
  -17834   -17844   -17829   -17794   -17756   -17730   -17720   -17713 
  -17698   -17679   -17672   -17685   -17713   -17745   -17760   -17749 
  -17736   -17744   -17782   -17834   -17882   -17910   -17932   -17955 
  -17975   -17982   -17969   -17945   -17915   -17894   -17884   -17883 
  -17886   -17898   -17911   -17919   -17921   -17913   -17894   -17865 
  -17852   -17868   -17898   -17926   -17953   -17971   -17967   -17949 
  -17928   -17906   -17891   -17887   -17892   -17910   -17922   -17915 
  -17892   -17859   -17826   -17806   -17795   -17788   -17790   -17805 
  -17833   -17864   -17883   -17891   -17898   -17905   -17902   -17896 
  -17899   -17907   -17914   -17917   -17917   -17915   -17918   -17934 
  -17971   -18022   -18087   -18145   -18183   -18195   -18185   -18160 
  -18119   -18063   -18000   -17949   -17907   -17879   -17860   -17842 
  -17830   -17824   -17813   -17802   -17799   -17807   -17825   -17849 
  -17880   -17906   -17915   -17905   -17878   -17861   -17875   -17917 
  -17965   -17990   -17980   -17950   -17917   -17895   -17886   -17874 
  -17855   -17837   -17825   -17828   -17853   -17898   -17956   -18015 
  -18067   -18096   -18094   -18073   -18054   -18036   -18011   -17988 
  -17964   -17932   -17899   -17879   -17879   -17898   -17922   -17941 
  -17953   -17956   -17950   -17934   -17911   -17895   -17898   -17915 
  -17941   -17965   -17977   -17976   -17968   -17957   -17948   -17940 
  -17941   -17953   -17975   -17994   -18002   -17994   -17979   -17959 
  -17932   -17902   -17869   -17836   -17811   -17803   -17807   -17824 
  -17849   -17871   -17878   -17872   -17859   -17851   -17856   -17869 
  -17894   -17917   -17926   -17923   -17919   -17918   -17913   -17909 
  -17907   -17907   -17909   -17902   -17883   -17860   -17837   -17817 
  -17806   -17803   -17805   -17807   -17805   -17799   -17805   -17821 
  -17842   -17864   -17882   -17894   -17905   -17919   -17933   -17938 
  -17926   -17902   -17879   -17867   -17869   -17879   -17887   -17896 
  -17910   -17921   -17923   -17915   -17899   -17886   -17878   -17872 
  -17867   -17864   -17869   -17884   -17901   -17915   -17921   -17909 
  -17888   -17865   -17845   -17836   -17836   -17837   -17848   -17872 
  -17901   -17923   -17938   -17945   -17942   -17937   -17940   -17948 
  -17957   -17977   -18010   -18042   -18069   -18091   -18104   -18107 
  -18098   -18084   -18077   -18081   -18087   -18092   -18091   -18073 
  -18044   -18003   -17957   -17922   -17909   -17909   -17917   -17926 
  -17933   -17941   -17949   -17948   -17944   -17941   -17941   -17942 
  -17941   -17945   -17957   -17973   -17999   -18025   -18038   -18034 
  -18021   -18000   -17972   -17940   -17909   -17882   -17863   -17852 
  -17845   -17848   -17859   -17869   -17871   -17859   -17834   -17798 
  -17760   -17743   -17757   -17806   -17869   -17929   -17969   -17979 
  -17952   -17905   -17859   -17825   -17802   -17783   -17767   -17751 
  -17730   -17714   -17705   -17710   -17734   -17764   -17784   -17793 
  -17795   -17803   -17829   -17865   -17905   -17938   -17950   -17937 
  -17913   -17894   -17887   -17880   -17868   -17848   -17829   -17822 
  -17825   -17826   -17817   -17805   -17801   -17805   -17818   -17842 
  -17875   -17911   -17949   -17982   -17995   -17986   -17965   -17948 
  -17940   -17942   -17953   -17972   -17994   -18009   -18014   -18010 
  -17998   -17984   -17976   -17973   -17975   -17973   -17969   -17956 
  -17930   -17911   -17906   -17914   -17934   -17960   -17980   -17996 
  -18007   -18022   -18049   -18081   -18121   -18153   -18157   -18137 
  -18103   -18069   -18045   -18030   -18018   -18000   -17980   -17965 
  -17956   -17941   -17918   -17891   -17863   -17840   -17815   -17791 
  -17772   -17757   -17748   -17748   -17757   -17771   -17779   -17776 
  -17761   -17740   -17726   -17730   -17752   -17782   -17807   -17824 
  -17830   -17828   -17826   -17829   -17838   -17855   -17871   -17883 
  -17902   -17930   -17964   -17998   -18023   -18040   -18052   -18067 
  -18084   -18100   -18108   -18096   -18069   -18038   -18013   -17994 
  -17975   -17953   -17933   -17919   -17921   -17929   -17932   -17930 
  -17934   -17934   -17926   -17914   -17905   -17902   -17911   -17930 
  -17945   -17945   -17934   -17921   -17923   -17945   -17971   -17979 
  -17964   -17941   -17923   -17919   -17926   -17948   -17972   -17990 
  -17991   -17975   -17945   -17917   -17901   -17898   -17899   -17898 
  -17882   -17852   -17815   -17776   -17743   -17730   -17733   -17741 
  -17748   -17751   -17752   -17756   -17767   -17783   -17809   -17832 
  -17844   -17848   -17842   -17828   -17817   -17815   -17824   -17845 
  -17876   -17913   -17944   -17961   -17961   -17946   -17936   -17942 
  -17957   -17967   -17968   -17961   -17946   -17937   -17930   -17914 
  -17895   -17884   -17869   -17848   -17826   -17810   -17810   -17828 
  -17851   -17871   -17882   -17886   -17905   -17940   -17975   -18003 
  -18025   -18033   -18027   -18018   -18009   -18002   -17996   -17984 
  -17964   -17940   -17910   -17879   -17853   -17832   -17813   -17801 
  -17802   -17817   -17842   -17868   -17887   -17901   -17915   -17933 
  -17950   -17961   -17969   -17972   -17969   -17965   -17956   -17945 
  -17940   -17936   -17929   -17918   -17899   -17883   -17875   -17878 
  -17891   -17914   -17934   -17950   -17969   -17979   -17982   -17982 
  -17973   -17960   -17957   -17965   -17980   -17992   -18000   -18009 
  -18010   -17998   -17979   -17967   -17967   -17983   -18006   -18031 
  -18054   -18067   -18067   -18057   -18040   -18015   -17991   -17969 
  -17955   -17948   -17949   -17949   -17946   -17950   -17955   -17956 
  -17957   -17953   -17941   -17923   -17898   -17874   -17851   -17826 
  -17810   -17797   -17784   -17779   -17780   -17776   -17768   -17755 
  -17734   -17710   -17701   -17710   -17726   -17749   -17776   -17794 
  -17801   -17803   -17801   -17793   -17790   -17795   -17813   -17840 
  -17867   -17888   -17902   -17905   -17902   -17896   -17890   -17888 
  -17894   -17905   -17911   -17915   -17921   -17926   -17925   -17911 
  -17891   -17871   -17860   -17852   -17842   -17838   -17848   -17861 
  -17876   -17884   -17884   -17880   -17874   -17875   -17887   -17899 
  -17914   -17929   -17937   -17933   -17928   -17926   -17923   -17923 
  -17934   -17945   -17953   -17967   -17988   -18011   -18029   -18041 
  -18045   -18048   -18048   -18048   -18048   -18045   -18044   -18040 
  -18033   -18030   -18033   -18034   -18022   -18003   -17987   -17972 
  -17961   -17956   -17950   -17945   -17946   -17949   -17955   -17967 
  -17979   -17980   -17980   -17983   -17986   -17986   -17982   -17973 
  -17964   -17949   -17919   -17882   -17849   -17826   -17809   -17806 
  -17813   -17815   -17809   -17793   -17768   -17748   -17748   -17772 
  -17807   -17833   -17842   -17841   -17844   -17848   -17852   -17855 
  -17863   -17878   -17896   -17910   -17917   -17923   -17933   -17942 
  -17950   -17953   -17950   -17946   -17940   -17938   -17940   -17941 
  -17945   -17950   -17950   -17945   -17940   -17942   -17956   -17969 
  -17972   -17972   -17976   -17988   -18009   -18034   -18061   -18098 
  -18141   -18184   -18216   -18231   -18227   -18218   -18208   -18196 
  -18185   -18173   -18153   -18129   -18106   -18081   -18046   -17999 
  -17948   -17896   -17853   -17826   -17815   -17817   -17814   -17799 
  -17775   -17751   -17728   -17713   -17709   -17716   -17734   -17760 
  -17782   -17793   -17786   -17764   -17739   -17718   -17710   -17707 
  -17706   -17705   -17709   -17716   -17725   -17737   -17752   -17767 
  -17783   -17805   -17830   -17849   -17857   -17861   -17872   -17887 
  -17903   -17925   -17938   -17942   -17941   -17937   -17930   -17921 
  -17911   -17903   -17892   -17878   -17860   -17852   -17852   -17857 
  -17864   -17868   -17868   -17874   -17890   -17915   -17948   -17988 
  -18033   -18068   -18091   -18100   -18104   -18108   -18117   -18126 
  -18134   -18135   -18131   -18130   -18130   -18126   -18115   -18100 
  -18084   -18069   -18053   -18031   -18006   -17988   -17983   -17983 
  -17979   -17972   -17963   -17957   -17956   -17953   -17952   -17953 
  -17950   -17945   -17944   -17937   -17922   -17903   -17884   -17864 
  -17841   -17814   -17793   -17775   -17761   -17751   -17740   -17722 
  -17698   -17680   -17674   -17679   -17687   -17694   -17694   -17685 
  -17667   -17644   -17626   -17625   -17636   -17652   -17670   -17680 
  -17689   -17705   -17728   -17752   -17775   -17791   -17798   -17806 
  -17820   -17836   -17856   -17876   -17891   -17895   -17883   -17857 
  -17837   -17826   -17826   -17840   -17855   -17860   -17857   -17855 
  -17851   -17848   -17849   -17860   -17882   -17910   -17942   -17975 
  -17999   -18015   -18019   -18017   -18014   -18019   -18029   -18036 
  -18034   -18033   -18033   -18036   -18037   -18034   -18026   -18026 
  -18038   -18054   -18071   -18084   -18091   -18091   -18090   -18087 
  -18083   -18072   -18052   -18023   -17999   -17988   -17984   -17979 
  -17973   -17965   -17953   -17942   -17936   -17932   -17929   -17929 
  -17928   -17921   -17911   -17901   -17888   -17878   -17872   -17871 
  -17872   -17875   -17880   -17879   -17874   -17867   -17865   -17869 
  -17878   -17891   -17911   -17929   -17942   -17957   -17969   -17971 
  -17968   -17965   -17959   -17948   -17934   -17918   -17905   -17902 
  -17906   -17911   -17913   -17902   -17884   -17869   -17863   -17869 
  -17891   -17917   -17938   -17950   -17948   -17932   -17905   -17876 
  -17864   -17867   -17882   -17896   -17906   -17906   -17902   -17892 
  -17882   -17876   -17876   -17872   -17868   -17868   -17875   -17887 
  -17895   -17896   -17895   -17892   -17898   -17911   -17929   -17944 
  -17950   -17950   -17952   -17956   -17957   -17956   -17959   -17961 
  -17965   -17968   -17968   -17963   -17952   -17941   -17937   -17937 
  -17938   -17937   -17933   -17930   -17934   -17944   -17955   -17959 
  -17955   -17946   -17942   -17942   -17944   -17941   -17929   -17917 
  -17911   -17913   -17919   -17925   -17926   -17929   -17933   -17936 
  -17937   -17938   -17942   -17949   -17953   -17956   -17953   -17949 
  -17949   -17955   -17957   -17953   -17945   -17934   -17925   -17928 
  -17938   -17946   -17948   -17946   -17944   -17945   -17946   -17949 
  -17950   -17948   -17944   -17933   -17919   -17918   -17929   -17945 
  -17956   -17959   -17953   -17946   -17940   -17936   -17934   -17936 
  -17936   -17937   -17933   -17915   -17888   -17869   -17859   -17852 
  -17845   -17840   -17837   -17834   -17834   -17838   -17842   -17847 
  -17852   -17860   -17872   -17884   -17892   -17895   -17898   -17899 
  -17899   -17903   -17913   -17919   -17928   -17936   -17942   -17956 
  -17972   -17975   -17963   -17948   -17938   -17933   -17930   -17933 
  -17936   -17934   -17926   -17910   -17887   -17869   -17857   -17852 
  -17849   -17844   -17837   -17833   -17829   -17829   -17830   -17822 
  -17802   -17779   -17759   -17743   -17736   -17737   -17740   -17741 
  -17740   -17739   -17734   -17728   -17721   -17716   -17713   -17717 
  -17722   -17726   -17730   -17730   -17725   -17728   -17736   -17747 
  -17764   -17780   -17793   -17805   -17817   -17826   -17838   -17855 
  -17871   -17888   -17907   -17921   -17936   -17955   -17972   -17987 
  -18009   -18034   -18063   -18094   -18126   -18149   -18162   -18173 
  -18183   -18191   -18200   -18207   -18214   -18215   -18207   -18196 
  -18183   -18165   -18152   -18142   -18135   -18130   -18121   -18112 
  -18111   -18110   -18107   -18102   -18085   -18068   -18054   -18041 
  -18030   -18022   -18009   -17987   -17964   -17948   -17940   -17932 
  -17919   -17907   -17899   -17891   -17879   -17867   -17857   -17845 
  -17833   -17828   -17822   -17820   -17817   -17806   -17795   -17793 
  -17793   -17794   -17793   -17786   -17778   -17770   -17763   -17760 
  -17761   -17760   -17760   -17763   -17768   -17774   -17778   -17775 
  -17767   -17755   -17744   -17739   -17737   -17743   -17763   -17790 
  -17806   -17811   -17807   -17806   -17813   -17820   -17824   -17832 
  -17849   -17871   -17895   -17925   -17949   -17963   -17971   -17982 
  -17992   -17999   -18003   -18003   -17995   -17983   -17972   -17963 
  -17953   -17941   -17926   -17910   -17899   -17898   -17895   -17890 
  -17882   -17874   -17867   -17856   -17852   -17863   -17875   -17880 
  -17882   -17880   -17880   -17880   -17883   -17887   -17899   -17917 
  -17933   -17942   -17949   -17953   -17956   -17959   -17957   -17953 
  -17949   -17948   -17960   -17976   -17988   -18002   -18007   -18000 
  -17990   -17980   -17971   -17959   -17949   -17941   -17930   -17919 
  -17911   -17902   -17891   -17883   -17876   -17867   -17861   -17867 
  -17880   -17896   -17911   -17923   -17930   -17937   -17945   -17949 
  -17950   -17956   -17957   -17952   -17944   -17934   -17923   -17915 
  -17906   -17895   -17886   -17879   -17879   -17886   -17890   -17887 
