Origin Time       2025/06/03 22:18:00
Lat.              41.7
Long.             143.6
Depth. (km)       30
Mag.              5.2
Station Code      IBUH06
Station Lat.      42.4116
Station Long.     141.0017
Station Height(m) 400
Record Time       2025/06/03 22:19:35
Sampling Freq(Hz) 100Hz
Duration Time(s)  120
Dir.              4
Scale Factor      7845(gal)/8223790
Max. Acc. (gal)   1.373
Last Correction   2025/06/03 22:19:36
Memo.             
[...]
    1629     1602     1605     1659     1760     1880     1961     1983 
    1966     1923     1881     1871     1858     1811     1755     1714 
    1682     1667     1657     1620     1572     1548     1529     1505 
    1478     1428     1367     1341     1347     1379     1449     1540 
    1638     1745     1823     1853     1852     1823     1771     1721 
    1671     1636     1633     1624     1580     1548     1561     1625 
    1717     1815     1896     1921     1875     1821     1786     1760 
    1757     1752     1701     1640     1586     1514     1466     1474 
    1520     1598     1676     1715     1722     1711     1688     1680 
    1702     1729     1744     1752     1740     1694     1638     1587 
    1548     1521     1518     1559     1632     1715     1813     1894 
    1919     1915     1933     1973     1985     1941     1842     1705 
    1560     1462     1463     1564     1718     1857     1922     1919 
    1894     1860     1817     1769     1717     1652     1564     1462 
    1363     1277     1206     1192     1278     1431     1574     1676 
    1741     1760     1748     1740     1742     1752     1769     1794 
    1813     1823     1826     1811     1768     1698     1610     1536 
    1489     1474     1498     1540     1556     1556     1544     1491 
    1433     1435     1476     1517     1547     1563     1545     1490 
    1441     1432     1440     1445     1463     1498     1553     1625 
    1696     1775     1872     1960     2014     2045     2041     1992 
    1931     1881     1848     1811     1756     1702     1661     1622 
    1591     1602     1674     1771     1837     1868     1873     1840 
    1775     1726     1702     1686     1664     1593     1448     1283 
    1150     1086     1123     1244     1416     1609     1800     1979 
    2112     2173     2197     2204     2170     2120     2073     1999 
    1900     1803     1713     1640     1610     1636     1695     1755 
    1802     1809     1756     1683     1626     1586     1567     1574 
    1572     1576     1624     1688     1740     1772     1780     1772 
    1769     1776     1786     1802     1823     1837     1826     1777 
    1699     1602     1494     1397     1363     1413     1502     1564 
    1576     1533     1447     1379     1391     1478     1580     1652 
    1669     1657     1657     1702     1788     1873     1919     1914 
    1849     1764     1725     1730     1738     1752     1791     1822 
    1819     1817     1826     1815     1775     1713     1626     1528 
    1433     1340     1242     1152     1096     1074     1093     1174 
    1305     1443     1591     1765     1912     1992     2025     2023 
    1949     1803     1671     1597     1575     1609     1679     1733 
    1750     1752     1759     1776     1799     1826     1857     1880 
    1881     1876     1884     1903     1914     1891     1829     1768 
    1736     1711     1698     1717     1768     1830     1876     1896 
    1906     1899     1853     1777     1687     1561     1406     1260 
    1150     1096     1086     1097     1140     1206     1266     1321 
    1375     1416     1468     1552     1637     1698     1713     1667 
    1597     1545     1517     1521     1584     1696     1823     1948 
    2081     2241     2415     2563     2646     2650     2585     2466 
    2316     2139     1933     1721     1536     1385     1281     1250 
    1267     1275     1236     1146     1032      940      919      997 
    1152     1314     1421     1464     1459     1429     1416     1439 
    1506     1578     1610     1633     1691     1764     1838     1939 
    2080     2212     2319     2412     2473     2489     2473     2428 
    2382     2335     2254     2139     2014     1867     1709     1572 
    1445     1317     1229     1189     1159     1115     1071     1043 
    1046     1107     1204     1302     1405     1526     1663     1796 
    1910     1999     2056     2087     2107     2114     2107     2096 
    2085     2064     2008     1914     1788     1651     1513     1404 
    1354     1355     1379     1406     1432     1460     1524     1613 
    1655     1640     1614     1561     1470     1402     1406     1462 
    1556     1674     1753     1768     1755     1759     1776     1786 
    1787     1750     1660     1579     1553     1575     1667     1818 
    1931     1949     1903     1823     1713     1579     1409     1231 
    1115     1081     1120     1233     1405     1591     1761     1873 
    1908     1911     1923     1944     1979     2034     2081     2101 
    2073     1979     1829     1675     1534     1387     1248     1129 
    1039     1005     1042     1143     1312     1539     1772     1972 
    2130     2246     2324     2358     2336     2281     2192     2037 
    1819     1588     1386     1229     1143     1139     1196     1309 
    1468     1621     1756     1896     2015     2080     2106     2084 
    1988     1840     1675     1513     1387     1332     1335     1366 
    1421     1487     1555     1642     1746     1865     2006     2127 
    2185     2155     2034     1852     1668     1544     1491     1464 
    1462     1493     1516     1495     1468     1463     1478     1526 
    1621     1732     1803     1830     1867     1929     1992     2046 
    2085     2096     2068     1991     1864     1695     1510     1348 
    1256     1236     1285     1402     1548     1671     1756     1792 
    1798     1811     1837     1864     1903     1945     1954     1910 
    1825     1729     1634     1545     1462     1368     1260     1156 
    1075     1040     1094     1225     1387     1561     1736     1891 
    2019     2115     2177     2178     2093     1948     1760     1548 
    1391     1316     1262     1239     1298     1406     1506     1595 
    1694     1771     1807     1846     1892     1879     1822     1764 
    1690     1617     1607     1671     1780     1904     2008     2060 
    2046     1972     1854     1701     1536     1405     1327     1285 
    1291     1358     1452     1537     1615     1694     1746     1767 
    1780     1784     1764     1746     1760     1779     1782     1779 
    1780     1780     1795     1852     1948     2046     2120     2173 
    2203     2215     2203     2128     1992     1836     1668     1518 
    1406     1327     1256     1175     1090     1026      997     1026 
    1123     1236     1308     1327     1301     1242     1213     1271 
    1379     1524     1703     1845     1926     1987     2027     2046 
    2064     2074     2053     2007     1942     1842     1710     1590 
    1514     1483     1506     1595     1722     1829     1891     1907 
    1880     1845     1858     1921     2004     2107     2201     2249 
    2227     2142     2012     1852     1656     1439     1225     1009 
     787      599      479      422      441      541      680      837 
    1007     1171     1328     1509     1738     1973     2169     2316 
    2408     2438     2428     2440     2520     2629     2710     2745 
    2706     2575     2417     2284     2162     2062     1996     1915 
    1807     1713     1648     1606     1571     1536     1482     1363 
    1177      974      795      676      654      738      903     1121 
    1345     1528     1660     1760     1826     1848     1852     1860 
    1848     1803     1757     1730     1757     1850     1987     2157 
    2319     2412     2438     2416     2338     2208     2029     1775 
    1472     1204     1017      919      896      954     1089     1255 
    1422     1599     1769     1890     1944     1939     1881     1784 
    1680     1590     1505     1429     1375     1336     1297     1269 
    1291     1374     1483     1597     1715     1821     1888     1931 
    1949     1914     1846     1788     1730     1665     1624     1620 
    1636     1667     1734     1837     1949     2041     2095     2110 
    2084     2023     1931     1814     1709     1622     1525     1439 
    1397     1387     1387     1398     1409     1409     1405     1397 
    1356     1291     1273     1327     1416     1537     1683     1800 
    1846     1815     1726     1622     1548     1521     1530     1593 
    1729     1918     2119     2289     2416     2525     2606     2628 
    2594     2490     2299     2054     1779     1498     1270     1129 
    1073     1085     1152     1266     1390     1499     1590     1656 
    1690     1706     1728     1753     1761     1752     1733     1709 
    1668     1618     1576     1551     1524     1479     1443     1418 
    1382     1341     1291     1217     1150     1120     1132     1188 
    1291     1431     1567     1683     1788     1865     1908     1952 
    1999     2029     2050     2056     2029     2014     2053     2115 
    2169     2204     2185     2085     1923     1744     1578     1445 
    1367     1325     1283     1258     1279     1341     1420     1480 
    1521     1547     1514     1421     1351     1325     1313     1325 
    1378     1443     1487     1532     1609     1706     1799     1918 
    2068     2216     2376     2558     2705     2795     2840     2824 
    2735     2590     2412     2201     1961     1714     1476     1239 
    1023      865      756      684      666      707      791      878 
     957     1048     1161     1286     1431     1576     1695     1804 
    1915     2000     2072     2150     2224     2292     2342     2349 
    2316     2278     2255     2230     2196     2184     2185     2158 
    2108     2052     1968     1853     1715     1548     1344     1132 
     950      789      645      552      515      492      504      587 
     712      859     1030     1192     1341     1493     1636     1776 
    1926     2066     2174     2251     2295     2288     2245     2185 
    2103     2007     1922     1846     1782     1755     1777     1854 
    1977     2091     2168     2218     2218     2158     2080     1992 
    1912     1876     1854     1813     1784     1763     1702     1609 
    1494     1345     1173     1016      897      814      776      797 
     876      992     1120     1269     1431     1555     1636     1698 
    1753     1817     1906     2029     2168     2292     2385     2435 
    2451     2452     2438     2380     2263     2103     1933     1776 
    1642     1541     1460     1368     1277     1205     1150     1116 
    1104     1109     1120     1142     1196     1290     1432     1609 
    1791     1964     2126     2273     2408     2521     2592     2605 
    2582     2528     2417     2259     2083     1908     1753     1609 
    1458     1310     1163     1008      873      801      788      804 
     842      880      911      955     1043     1185     1344     1485 
    1628     1771     1891     1993     2097     2176     2222     2262 
    2313     2373     2439     2505     2578     2632     2620     2556 
    2469     2332     2133     1918     1715     1497     1273     1096 
     982      911      892      947     1024     1053     1057     1075 
    1071     1055     1090     1177     1251     1289     1300     1290 
    1286     1335     1420     1510     1617     1732     1810     1831 
    1829     1842     1884     1957     2039     2100     2131     2138 
    2110     2041     1971     1927     1902     1869     1822     1779 
    1744     1701     1676     1679     1668     1652     1663     1682 
    1682     1679     1692     1699     1675     1615     1520     1409 
    1304     1217     1156     1136     1179     1273     1377     1474 
    1580     1686     1765     1836     1904     1949     1979     2025 
    2085     2147     2227     2323     2396     2436     2459     2457 
    2415     2317     2176     2026     1863     1686     1540     1431 
    1318     1210     1146     1100     1067     1071     1086     1067 
    1027      999      977      965      980     1020     1092     1179 
    1287     1421     1549     1655     1761     1845     1885     1931 
    2000     2065     2126     2199     2288     2382     2475     2571 
    2635     2633     2582     2471     2292     2081     1863     1640 
    1441     1291     1173     1088     1067     1115     1178     1221 
    1251     1251     1209     1173     1161     1170     1224     1321 
    1420     1514     1615     1728     1850     1985     2141     2297 
    2431     2538     2594     2565     2478     2357     2176     1956 
    1740     1522     1302     1115      963      839      766      756 
     795      884     1023     1182     1327     1463     1610     1744 
    1853     1976     2114     2228     2311     2357     2358     2307 
    2205     2092     1973     1838     1723     1633     1540     1476 
    1459     1449     1455     1494     1533     1560     1587     1606 
    1620     1626     1637     1667     1701     1730     1769     1802 
    1822     1838     1836     1799     1748     1682     1599     1521 
    1464     1432     1401     1362     1327     1301     1278     1251 
    1228     1217     1227     1271     1350     1459     1605     1760 
    1908     2070     2232     2359     2461     2524     2500     2396 
    2265     2111     1948     1815     1707     1611     1555     1548 
    1568     1597     1644     1702     1741     1753     1765     1783 
    1776     1760     1733     1637     1498     1359     1208     1050 
     912      803      720      648      589      592      660      762 
     909     1119     1364     1636     1927     2212     2455     2664 
    2867     3029     3105     3117     3079     2965     2799     2624 
    2455     2280     2080     1856     1615     1359     1125      957 
     849      796      800      851      926     1016     1127     1237 
    1313     1362     1414     1467     1529     1624     1745     1876 
    2022     2166     2281     2378     2467     2513     2485     2404 
    2299     2176     2045     1927     1818     1719     1640     1548 
    1404     1239     1093      957      853      824      857      924 
    1042     1192     1343     1499     1659     1795     1887     1944 
    1965     1942     1876     1788     1692     1595     1521     1472 
    1441     1447     1482     1522     1559     1605     1675     1757 
    1853     1969     2065     2124     2166     2170     2110     2016 
    1908     1771     1620     1478     1332     1209     1151     1154 
    1208     1323     1478     1630     1757     1852     1918     1971 
    2007     2015     2000     1988     1981     1989     2027     2076 
    2115     2146     2147     2103     2027     1939     1848     1752 
    1645     1536     1443     1348     1250     1192     1158     1124 
    1112     1115     1101     1102     1128     1147     1185     1270 
    1359     1439     1525     1621     1726     1841     1952     2064 
    2174     2278     2359     2404     2404     2370     2323     2262 
    2181     2100     2038     1975     1898     1830     1755     1664 
    1582     1489     1371     1267     1185     1102     1017      947 
     899      880      901      963     1042     1120     1202     1270 
    1304     1347     1414     1491     1594     1717     1833     1944 
    2049     2126     2173     2200     2205     2174     2108     2027 
    1945     1857     1768     1698     1648     1622     1625     1625 
    1617     1628     1632     1626     1651     1687     1690     1672 
    1652     1602     1510     1435     1412     1391     1364     1378 
    1409     1432     1489     1588     1691     1800     1930     2052 
    2143     2219     2276     2288     2265     2232     2177     2096 
    2018     1961     1892     1803     1744     1705     1636     1557 
    1507     1478     1471     1499     1543     1599     1674     1729 
    1771     1829     1883     1930     1976     2000     2004     1998 
    1977     1957     1941     1900     1836     1765     1680     1590 
    1513     1456     1435     1439     1440     1436     1440     1436 
    1421     1417     1418     1404     1379     1347     1290     1236 
    1225     1251     1294     1366     1431     1448     1458     1499 
    1549     1598     1648     1684     1713     1760     1823     1885 
    1958     2042     2106     2124     2093     2037     1961     1857 
    1738     1622     1528     1468     1433     1417     1425     1447 
    1490     1563     1624     1648     1649     1634     1599     1540 
    1467     1402     1340     1270     1201     1143     1101     1093 
    1127     1205     1333     1499     1684     1888     2084     2234 
    2354     2462     2538     2577     2609     2639     2644     2614 
    2555     2471     2371     2261     2138     2007     1888     1765 
    1632     1513     1406     1291     1186     1097      997      897 
     827      780      765      791      849      939     1048     1170 
    1308     1448     1576     1706     1819     1884     1929     1971 
    1987     1987     1987     1979     1953     1931     1941     1972 
    2002     2045     2097     2134     2143     2116     2041     1934 
    1814     1678     1545     1436     1352     1285     1233     1200 
    1186     1208     1274     1364     1453     1552     1657     1740 
    1806     1868     1908     1919     1912     1879     1817     1761 
    1721     1682     1652     1647     1651     1655     1664     1678 
    1696     1703     1711     1734     1744     1753     1795     1826 
    1831     1852     1858     1810     1748     1696     1647     1606 
    1574     1552     1541     1532     1533     1549     1544     1540 
    1570     1593     1607     1663     1725     1753     1790     1838 
    1856     1863     1875     1856     1792     1710     1622     1521 
    1406     1310     1248     1212     1198     1206     1225     1237 
    1248     1281     1333     1410     1517     1642     1761     1858 
    1933     1972     1996     2030     2079     2151     2230     2300 
    2361     2400     2415     2405     2363     2284     2185     2076 
    1950     1826     1723     1624     1524     1459     1416     1362 
    1320     1298     1262     1224     1215     1221     1231     1250 
    1285     1321     1359     1410     1479     1560     1636     1694 
    1742     1798     1861     1922     1977     2030     2077     2116 
    2164     2204     2214     2216     2199     2123     2006     1864 
    1686     1493     1313     1136      981      895      861      853 
     896      999     1127     1285     1478     1651     1779     1890 
    1954     1954     1941     1929     1902     1868     1840     1803 
    1742     1671     1603     1553     1536     1541     1552     1567 
    1583     1588     1587     1588     1591     1610     1633     1629 
    1629     1664     1687     1694     1717     1732     1717     1710 
    1719     1721     1717     1736     1769     1788     1798     1809 
    1814     1823     1842     1860     1881     1915     1948     1966 
    1972     1968     1952     1906     1846     1799     1742     1676 
    1626     1583     1545     1537     1549     1556     1582     1618 
    1629     1624     1618     1599     1584     1588     1579     1561 
    1568     1594     1622     1648     1663     1663     1653     1640 
    1625     1620     1625     1625     1630     1641     1647     1640 
    1618     1584     1544     1490     1433     1385     1337     1294 
