Origin Time       2025/06/03 22:18:00
Lat.              41.7
Long.             143.6
Depth. (km)       30
Mag.              5.2
Station Code      IBUH06
Station Lat.      42.4116
Station Long.     141.0017
Station Height(m) 400
Record Time       2025/06/03 22:19:35
Sampling Freq(Hz) 100Hz
Duration Time(s)  120
Dir.              6
Scale Factor      7845(gal)/8223790
Max. Acc. (gal)   0.604
Last Correction   2025/06/03 22:19:36
Memo.             
[...]
   -1262    -1277    -1281    -1269    -1240    -1200    -1174    -1182 
   -1204    -1216    -1215    -1205    -1194    -1182    -1162    -1127 
   -1086    -1069    -1093    -1129    -1143    -1127    -1117    -1139 
   -1163    -1163    -1140    -1115    -1111    -1132    -1173    -1216 
   -1248    -1271    -1279    -1270    -1255    -1247    -1251    -1255 
   -1260    -1266    -1251    -1206    -1148    -1090    -1054    -1054 
   -1078    -1108    -1147    -1182    -1188    -1171    -1155    -1150 
   -1154    -1154    -1148    -1159    -1178    -1181    -1170    -1162 
   -1161    -1175    -1228    -1294    -1314    -1277    -1210    -1146 
   -1104    -1089    -1097    -1132    -1192    -1243    -1250    -1220 
   -1186    -1155    -1138    -1140    -1163    -1205    -1246    -1254 
   -1232    -1219    -1212    -1200    -1189    -1179    -1170    -1166 
   -1159    -1139    -1127    -1125    -1132    -1152    -1185    -1237 
   -1296    -1313    -1286    -1243    -1189    -1148    -1152    -1182 
   -1204    -1185    -1132    -1081    -1040    -1023    -1040    -1082 
   -1138    -1183    -1190    -1170    -1162    -1181    -1233    -1302 
   -1354    -1368    -1355    -1340    -1324    -1286    -1232    -1177 
   -1121    -1085    -1067    -1043    -1028    -1036    -1058    -1080 
   -1096    -1117    -1151    -1189    -1231    -1262    -1275    -1279 
   -1277    -1264    -1235    -1198    -1171    -1159    -1165    -1185 
   -1201    -1197    -1167    -1119    -1084    -1093    -1136    -1183 
   -1209    -1190    -1127    -1062    -1036    -1059    -1128    -1206 
   -1250    -1251    -1221    -1181    -1151    -1139    -1154    -1192 
   -1239    -1269    -1258    -1217    -1181    -1166    -1173    -1188 
   -1205    -1237    -1273    -1274    -1239    -1189    -1139    -1109 
   -1111    -1123    -1131    -1124    -1098    -1078    -1082    -1096 
   -1116    -1134    -1143    -1155    -1163    -1167    -1201    -1266 
   -1327    -1356    -1341    -1296    -1251    -1225    -1231    -1246 
   -1232    -1202    -1182    -1162    -1152    -1169    -1197    -1225 
   -1243    -1235    -1192    -1132    -1098    -1105    -1124    -1144 
   -1152    -1134    -1107    -1089    -1088    -1101    -1119    -1156 
   -1220    -1266    -1273    -1262    -1255    -1259    -1260    -1250 
   -1242    -1236    -1209    -1156    -1104    -1075    -1062    -1061 
   -1081    -1112    -1129    -1116    -1075    -1050    -1074    -1144 
   -1225    -1285    -1304    -1275    -1210    -1135    -1081    -1084 
   -1143    -1212    -1259    -1269    -1239    -1212    -1223    -1254 
   -1281    -1304    -1324    -1321    -1275    -1202    -1140    -1109 
   -1097    -1093    -1090    -1088    -1098    -1109    -1100    -1094 
   -1101    -1117    -1148    -1170    -1166    -1173    -1201    -1239 
   -1263    -1269    -1256    -1227    -1183    -1138    -1101    -1093 
   -1111    -1138    -1165    -1178    -1171    -1156    -1146    -1148 
   -1174    -1205    -1206    -1179    -1148    -1123    -1101    -1093 
   -1112    -1138    -1148    -1166    -1185    -1189    -1193    -1219 
   -1263    -1308    -1329    -1312    -1274    -1247    -1240    -1247 
   -1251    -1246    -1236    -1220    -1193    -1163    -1147    -1140 
   -1113    -1077    -1058    -1059    -1081    -1117    -1154    -1197 
   -1247    -1269    -1246    -1209    -1163    -1111    -1084    -1097 
   -1134    -1183    -1236    -1260    -1243    -1208    -1185    -1182 
   -1186    -1185    -1177    -1162    -1144    -1127    -1105    -1090 
   -1094    -1120    -1162    -1204    -1247    -1279    -1275    -1259 
   -1264    -1267    -1260    -1256    -1237    -1201    -1163    -1129 
   -1107    -1093    -1111    -1175    -1237    -1254    -1250    -1242 
   -1212    -1178    -1151    -1132    -1140    -1166    -1169    -1143 
   -1112    -1090    -1070    -1054    -1057    -1090    -1154    -1223 
   -1266    -1274    -1270    -1267    -1266    -1270    -1279    -1285 
   -1281    -1263    -1228    -1188    -1155    -1152    -1169    -1167 
   -1140    -1120    -1124    -1152    -1179    -1179    -1167    -1171 
   -1190    -1196    -1167    -1132    -1134    -1152    -1150    -1111 
   -1061    -1042    -1065    -1112    -1166    -1220    -1259    -1270 
   -1256    -1236    -1221    -1231    -1260    -1275    -1267    -1240 
   -1185    -1127    -1100    -1102    -1111    -1123    -1155    -1186 
   -1188    -1161    -1136    -1136    -1154    -1181    -1223    -1264 
   -1294    -1296    -1260    -1194    -1123    -1092    -1112    -1147 
   -1173    -1179    -1156    -1120    -1109    -1132    -1178    -1256 
   -1340    -1362    -1308    -1239    -1189    -1159    -1163    -1188 
   -1185    -1150    -1108    -1057     -994     -966     -999    -1071 
   -1139    -1171    -1182    -1206    -1232    -1231    -1201    -1174 
   -1159    -1163    -1189    -1210    -1212    -1198    -1171    -1135 
   -1104    -1098    -1128    -1174    -1217    -1258    -1282    -1278 
   -1259    -1237    -1229    -1248    -1286    -1327    -1364    -1378 
   -1352    -1301    -1239    -1182    -1139    -1096    -1062    -1051 
   -1053    -1063    -1084    -1092    -1089    -1107    -1136    -1165 
   -1188    -1196    -1192    -1193    -1194    -1196    -1206    -1231 
   -1267    -1293    -1290    -1251    -1182    -1135    -1131    -1152 
   -1181    -1209    -1221    -1215    -1190    -1139    -1077    -1043 
   -1048    -1080    -1125    -1171    -1194    -1179    -1136    -1104 
   -1094    -1111    -1161    -1209    -1219    -1217    -1219    -1206 
   -1178    -1143    -1127    -1139    -1169    -1192    -1177    -1144 
   -1128    -1123    -1132    -1152    -1173    -1196    -1212    -1217 
   -1219    -1216    -1221    -1239    -1264    -1297    -1313    -1300 
   -1275    -1239    -1198    -1171    -1154    -1143    -1146    -1150 
   -1155    -1154    -1138    -1104    -1066    -1061    -1086    -1125 
   -1170    -1204    -1221    -1251    -1291    -1308    -1282    -1228 
   -1162    -1093    -1040    -1015    -1030    -1081    -1138    -1162 
   -1150    -1124    -1111    -1117    -1143    -1204    -1289    -1359 
   -1393    -1390    -1364    -1331    -1294    -1267    -1260    -1255 
   -1229    -1175    -1102    -1030     -965     -928     -942     -992 
   -1038    -1058    -1046    -1034    -1042    -1074    -1146    -1250 
   -1350    -1417    -1424    -1367    -1291    -1240    -1223    -1248 
   -1313    -1362    -1344    -1273    -1182    -1086    -1016     -990 
    -990    -1004    -1034    -1070    -1109    -1146    -1175    -1205 
   -1239    -1281    -1320    -1329    -1321    -1309    -1289    -1263 
   -1239    -1208    -1182    -1173    -1162    -1129    -1093    -1080 
   -1092    -1121    -1150    -1166    -1186    -1219    -1262    -1320 
   -1378    -1408    -1387    -1317    -1221    -1148    -1123    -1119 
   -1101    -1081    -1066    -1048    -1039    -1054    -1092    -1135 
   -1177    -1212    -1220    -1215    -1223    -1228    -1217    -1209 
   -1205    -1208    -1217    -1205    -1163    -1116    -1084    -1084 
   -1090    -1074    -1053    -1050    -1057    -1050    -1031    -1031 
   -1069    -1143    -1232    -1300    -1337    -1362    -1377    -1372 
   -1339    -1291    -1255    -1223    -1186    -1142    -1082    -1011 
    -963     -961     -963     -947     -940     -984    -1059    -1121 
   -1158    -1178    -1200    -1231    -1247    -1252    -1277    -1314 
   -1339    -1340    -1324    -1305    -1277    -1231    -1193    -1174 
   -1159    -1125    -1080    -1051    -1050    -1062    -1097    -1161 
   -1224    -1260    -1263    -1228    -1177    -1135    -1120    -1134 
   -1156    -1174    -1173    -1161    -1161    -1169    -1165    -1140 
   -1115    -1123    -1151    -1173    -1182    -1173    -1159    -1196 
   -1269    -1317    -1327    -1318    -1309    -1285    -1247    -1225 
   -1227    -1246    -1270    -1256    -1205    -1148    -1102    -1077 
   -1101    -1163    -1202    -1196    -1162    -1127    -1109    -1105 
   -1117    -1163    -1233    -1312    -1377    -1391    -1351    -1281 
   -1225    -1196    -1166    -1136    -1134    -1150    -1156    -1148 
   -1135    -1119    -1113    -1138    -1189    -1242    -1274    -1278 
   -1269    -1263    -1254    -1228    -1179    -1125    -1086    -1054 
   -1026    -1017    -1024    -1046    -1092    -1142    -1188    -1223 
   -1233    -1231    -1204    -1143    -1107    -1131    -1200    -1286 
   -1336    -1329    -1281    -1212    -1156    -1132    -1123    -1120 
   -1139    -1186    -1248    -1301    -1324    -1310    -1263    -1202 
   -1154    -1132    -1146    -1186    -1215    -1200    -1151    -1096 
   -1051    -1019     -993     -981     -990    -1015    -1050    -1101 
   -1158    -1210    -1237    -1228    -1189    -1143    -1111    -1102 
   -1107    -1119    -1152    -1198    -1247    -1305    -1356    -1374 
   -1358    -1324    -1286    -1251    -1215    -1179    -1142    -1104 
   -1080    -1070    -1070    -1096    -1152    -1206    -1232    -1235 
   -1233    -1248    -1281    -1298    -1296    -1316    -1362    -1367 
   -1300    -1190    -1088    -1030    -1026    -1062    -1112    -1144 
   -1150    -1144    -1125    -1104    -1094    -1092    -1097    -1113 
   -1121    -1135    -1170    -1225    -1290    -1341    -1359    -1345 
   -1312    -1281    -1258    -1235    -1215    -1219    -1259    -1318 
   -1368    -1374    -1325    -1263    -1229    -1219    -1213    -1202 
   -1173    -1131    -1081    -1016     -965     -959    -1003    -1075 
   -1143    -1177    -1185    -1185    -1171    -1143    -1119    -1107 
   -1102    -1096    -1063    -1011     -963     -922     -877     -853 
    -872     -938    -1050    -1185    -1309    -1390    -1402    -1356 
   -1289    -1236    -1212    -1197    -1171    -1128    -1084    -1054 
   -1042    -1034    -1044    -1080    -1113    -1146    -1186    -1240 
   -1310    -1375    -1428    -1459    -1452    -1408    -1332    -1236 
   -1143    -1067    -1024    -1020    -1051    -1092    -1128    -1163 
   -1167    -1125    -1077    -1053    -1063    -1111    -1181    -1251 
   -1273    -1247    -1223    -1225    -1262    -1329    -1404    -1459 
   -1476    -1445    -1387    -1325    -1264    -1206    -1159    -1124 
   -1092    -1051    -1007     -988    -1023    -1090    -1158    -1220 
   -1266    -1298    -1331    -1358    -1377    -1385    -1370    -1341 
   -1291    -1210    -1134    -1086    -1063    -1048    -1036    -1021 
    -996     -966     -945     -946     -974    -1043    -1146    -1246 
   -1310    -1343    -1351    -1341    -1321    -1306    -1308    -1306 
   -1293    -1266    -1213    -1155    -1124    -1109    -1094    -1097 
   -1117    -1143    -1158    -1169    -1179    -1173    -1151    -1136 
   -1124    -1129    -1156    -1178    -1193    -1223    -1262    -1294 
   -1287    -1228    -1152    -1094    -1057    -1032    -1017    -1009 
   -1009    -1027    -1055    -1089    -1131    -1171    -1181    -1146 
   -1104    -1100    -1123    -1156    -1183    -1192    -1216    -1246 
   -1221    -1147    -1075    -1038    -1040    -1063    -1090    -1116 
   -1131    -1124    -1109    -1113    -1158    -1229    -1294    -1328 
   -1328    -1308    -1285    -1283    -1318    -1375    -1418    -1418 
   -1360    -1270    -1198    -1170    -1159    -1121    -1048     -963 
    -881     -834     -857     -936    -1042    -1173    -1310    -1421 
   -1493    -1512    -1467    -1402    -1364    -1350    -1343    -1327 
   -1281    -1212    -1146    -1108    -1123    -1170    -1219    -1256 
   -1235    -1134     -992     -866     -803     -815     -893    -1027 
   -1189    -1332    -1436    -1491    -1513    -1518    -1521    -1526 
   -1513    -1444    -1321    -1171    -1027     -913     -827     -772 
    -753     -772     -822     -877     -926     -981    -1061    -1167 
   -1277    -1362    -1424    -1468    -1494    -1501    -1489    -1455 
   -1404    -1335    -1247    -1155    -1069    -1000     -962     -962 
    -993    -1043    -1109    -1188    -1262    -1302    -1277    -1200 
   -1151    -1159    -1194    -1235    -1254    -1240    -1232    -1236 
   -1237    -1229    -1186    -1115    -1027     -913     -815     -776 
    -785     -824     -888     -976    -1063    -1121    -1154    -1173 
   -1170    -1177    -1233    -1329    -1433    -1522    -1580    -1602 
   -1591    -1559    -1514    -1463    -1404    -1316    -1188    -1036 
    -900     -810     -756     -727     -739     -792     -851     -912 
    -986    -1070    -1147    -1212    -1256    -1266    -1255    -1250 
   -1246    -1235    -1246    -1286    -1344    -1398    -1432    -1458 
   -1486    -1493    -1447    -1363    -1283    -1224    -1162    -1089 
   -1009     -922     -835     -780     -754     -745     -788     -916 
   -1111    -1313    -1455    -1509    -1501    -1462    -1422    -1397 
   -1381    -1385    -1393    -1360    -1296    -1246    -1205    -1165 
   -1135    -1107    -1082    -1073    -1081    -1112    -1177    -1266 
   -1358    -1418    -1429    -1382    -1271    -1112     -943     -816 
    -765     -787     -845     -911     -989    -1086    -1181    -1258 
   -1324    -1385    -1440    -1478    -1479    -1441    -1385    -1316 
   -1221    -1100     -969     -850     -774     -757     -780     -827 
    -908    -1023    -1152    -1290    -1422    -1528    -1615    -1675 
   -1682    -1653    -1630    -1615    -1576    -1493    -1367    -1196 
    -984     -772     -615     -546     -549     -600     -688     -777 
    -843     -908     -981    -1061    -1150    -1225    -1267    -1305 
   -1351    -1390    -1412    -1417    -1428    -1444    -1428    -1371 
   -1301    -1236    -1177    -1120    -1089    -1113    -1197    -1291 
   -1333    -1320    -1286    -1233    -1155    -1067     -982     -913 
    -869     -834     -824     -857     -916     -989    -1071    -1159 
   -1246    -1325    -1395    -1439    -1455    -1474    -1476    -1426 
   -1348    -1267    -1197    -1156    -1147    -1159    -1181    -1196 
   -1208    -1210    -1201    -1188    -1156    -1111    -1089    -1105 
   -1132    -1135    -1113    -1107    -1124    -1135    -1138    -1147 
   -1170    -1204    -1228    -1235    -1242    -1259    -1298    -1333 
   -1332    -1305    -1267    -1198    -1094     -994     -946     -961 
   -1005    -1051    -1115    -1206    -1294    -1359    -1395    -1413 
   -1425    -1422    -1395    -1359    -1327    -1285    -1213    -1136 
   -1089    -1089    -1113    -1115    -1081    -1048    -1026    -1004 
    -992     -985     -967     -939     -923     -928     -962    -1030 
   -1108    -1161    -1178    -1181    -1179    -1182    -1208    -1271 
   -1358    -1426    -1449    -1426    -1367    -1287    -1216    -1174 
   -1143    -1112    -1098    -1105    -1138    -1202    -1279    -1345 
   -1382    -1390    -1372    -1323    -1254    -1202    -1185    -1185 
   -1173    -1121    -1043     -966     -908     -884     -899     -939 
    -988    -1042    -1100    -1140    -1163    -1179    -1181    -1174 
   -1181    -1185    -1175    -1175    -1182    -1178    -1162    -1155 
   -1167    -1194    -1239    -1287    -1321    -1344    -1356    -1341 
   -1294    -1225    -1146    -1058     -988     -961     -954     -963 
    -986    -1001    -1015    -1063    -1148    -1254    -1378    -1516 
   -1634    -1699    -1713    -1692    -1637    -1553    -1462    -1385 
   -1316    -1232    -1146    -1093    -1063    -1040    -1032    -1042 
   -1058    -1053    -1017     -973     -934     -922     -940     -977 
   -1023    -1065    -1084    -1090    -1104    -1125    -1154    -1200 
   -1260    -1314    -1333    -1323    -1314    -1304    -1275    -1250 
   -1233    -1220    -1212    -1193    -1166    -1147    -1144    -1159 
   -1188    -1204    -1201    -1193    -1188    -1166    -1121    -1067 
   -1024    -1023    -1059    -1092    -1098    -1074    -1020     -953 
    -915     -938    -1016    -1121    -1219    -1270    -1290    -1316 
   -1343    -1374    -1413    -1439    -1424    -1368    -1310    -1270 
   -1240    -1219    -1205    -1179    -1127    -1061    -1003     -988 
   -1030    -1098    -1171    -1247    -1296    -1298    -1264    -1220 
   -1194    -1186    -1177    -1152    -1115    -1094    -1094    -1107 
   -1129    -1154    -1166    -1166    -1151    -1124    -1097    -1059 
   -1020    -1020    -1058    -1107    -1159    -1212    -1250    -1285 
   -1325    -1348    -1352    -1360    -1370    -1381    -1394    -1398 
   -1367    -1287    -1178    -1071     -992     -953     -936     -934 
    -950     -986    -1032    -1077    -1112    -1134    -1143    -1124 
   -1077    -1043    -1061    -1120    -1208    -1302    -1374    -1413 
   -1413    -1374    -1316    -1254    -1185    -1112    -1051    -1017 
   -1005    -1001    -1008    -1015    -1005     -997    -1012    -1062 
   -1151    -1254    -1333    -1371    -1378    -1374    -1366    -1359 
   -1351    -1332    -1301    -1259    -1196    -1111    -1039    -1008 
   -1017    -1066    -1144    -1209    -1247    -1283    -1323    -1366 
   -1408    -1428    -1424    -1397    -1344    -1277    -1197    -1117 
   -1053    -1004     -977     -985    -1013    -1035    -1046    -1051 
   -1062    -1077    -1090    -1121    -1163    -1205    -1252    -1286 
   -1281    -1248    -1210    -1188    -1181    -1185    -1224    -1285 
   -1335    -1382    -1433    -1470    -1456    -1378    -1263    -1146 
   -1047     -997     -999    -1009    -1000    -1000    -1017    -1024 
   -1027    -1046    -1088    -1151    -1227    -1281    -1287    -1267 
   -1242    -1215    -1200    -1202    -1225    -1256    -1275    -1270 
   -1237    -1178    -1108    -1042     -978     -909     -857     -837 
    -854     -911    -1004    -1108    -1194    -1273    -1355    -1406 
   -1401    -1366    -1321    -1278    -1244    -1221    -1204    -1183 
   -1174    -1175    -1167    -1159    -1159    -1156    -1169    -1198 
   -1225    -1251    -1279    -1297    -1293    -1263    -1221    -1171 
   -1109    -1057    -1032    -1026    -1008     -970     -940     -940 
    -965    -1008    -1074    -1147    -1215    -1275    -1329    -1372 
   -1394    -1390    -1375    -1350    -1317    -1294    -1283    -1278 
   -1286    -1298    -1278    -1228    -1171    -1102    -1038    -1004 
   -1000    -1021    -1070    -1140    -1217    -1274    -1306    -1336 
   -1364    -1386    -1414    -1449    -1474    -1482    -1474    -1445 
   -1387    -1308    -1220    -1123    -1020     -932     -865     -801 
    -756     -742     -754     -792     -859     -953    -1059    -1165 
   -1251    -1317    -1370    -1410    -1448    -1468    -1472    -1470 
   -1453    -1421    -1382    -1331    -1274    -1208    -1129    -1047 
    -966     -905     -888     -909     -949     -986    -1003    -1005 
   -1013    -1027    -1050    -1077    -1089    -1081    -1073    -1077 
   -1096    -1123    -1161    -1206    -1246    -1285    -1306    -1287 
   -1279    -1300    -1316    -1324    -1323    -1300    -1244    -1167 
   -1111    -1089    -1094    -1117    -1151    -1181    -1193    -1188 
   -1174    -1150    -1124    -1115    -1112    -1129    -1177    -1225 
   -1263    -1297    -1324    -1331    -1317    -1289    -1260    -1219 
   -1159    -1108    -1062    -1015     -986     -985    -1005    -1038 
