Origin Time       2025/06/03 22:18:00
Lat.              41.7
Long.             143.6
Depth. (km)       30
Mag.              5.2
Station Code      IBUH05
Station Lat.      42.5629
Station Long.     141.3497
Station Height(m) -157
Record Time       2025/06/03 22:19:26
Sampling Freq(Hz) 100Hz
Duration Time(s)  120
Dir.              1
Scale Factor      2942(gal)/8224139
Max. Acc. (gal)   0.192
Last Correction   2025/06/03 22:19:27
Memo.             
[...]
  215843   215854   215858   215862   215869   215875   215871   215862 
  215855   215850   215831   215804   215789   215789   215801   215819 
  215832   215839   215843   215840   215835   215844   215862   215874 
  215878   215877   215870   215865   215852   215838   215827   215824 
  215827   215832   215835   215831   215824   215828   215847   215860 
  215865   215860   215854   215852   215858   215865   215870   215873 
  215870   215870   215871   215859   215833   215809   215790   215782 
  215789   215793   215784   215777   215782   215796   215808   215813 
  215817   215827   215840   215850   215858   215869   215875   215878 
  215885   215893   215886   215865   215840   215821   215824   215846 
  215869   215887   215904   215913   215913   215906   215900   215898 
  215896   215885   215867   215847   215823   215797   215779   215784 
  215793   215801   215805   215806   215820   215847   215871   215882 
  215886   215889   215893   215900   215909   215916   215913   215898 
  215875   215848   215828   215823   215820   215813   215801   215793 
  215790   215792   215800   215812   215824   215840   215862   215877 
  215885   215896   215909   215914   215914   215921   215931   215931 
  215921   215913   215914   215923   215927   215927   215927   215923 
  215910   215896   215877   215862   215852   215842   215820   215792 
  215771   215770   215778   215788   215801   215802   215794   215793 
  215797   215800   215797   215784   215762   215757   215766   215771 
  215779   215801   215819   215829   215844   215858   215870   215882 
  215883   215881   215877   215858   215833   215829   215844   215855 
  215860   215869   215860   215829   215802   215792   215777   215763 
  215762   215771   215788   215806   215815   215811   215808   215811 
  215821   215847   215883   215920   215951   215973   215987   215995 
  215991   215983   215963   215928   215894   215873   215856   215846 
  215836   215828   215824   215825   215827   215821   215812   215802 
  215788   215773   215766   215770   215779   215788   215785   215784 
  215790   215793   215779   215759   215739   215725   215723   215732 
  215746   215754   215763   215773   215790   215813   215838   215866 
  215898   215932   215955   215964   215964   215958   215951   215950 
  215941   215935   215927   215916   215916   215927   215928   215923 
  215916   215905   215898   215892   215877   215854   215844   215852 
  215869   215886   215894   215901   215917   215929   215920   215900 
  215873   215838   215804   215775   215761   215761   215771   215784 
  215794   215804   215815   215828   215847   215867   215887   215905 
  215909   215898   215883   215873   215869   215875   215886   215879 
  215850   215817   215793   215771   215746   215728   215730   215748 
  215782   215812   215824   215827   215825   215829   215844   215866 
  215892   215924   215951   215963   215958   215947   215935   215908 
  215870   215843   215835   215835   215838   215828   215809   215792 
  215782   215784   215796   215808   215815   215809   215784   215762 
  215766   215778   215785   215785   215784   215779   215767   215751 
  215744   215736   215736   215762   215800   215825   215842   215859 
  215871   215879   215890   215904   215916   215921   215921   215925 
  215932   215937   215947   215952   215941   215920   215906   215901 
  215893   215886   215886   215893   215900   215900   215882   215851 
  215825   215824   215843   215862   215865   215854   215832   215804 
  215785   215782   215782   215778   215773   215774   215784   215800 
  215816   215821   215809   215794   215790   215793   215793   215786 
  215777   215762   215744   215743   215762   215790   215824   215858 
  215882   215902   215919   215929   215927   215913   215901   215900 
  215910   215925   215932   215933   215935   215939   215941   215943 
  215950   215967   215979   215985   215987   215983   215978   215982 
  215983   215968   215939   215901   215862   215831   215805   215792 
  215794   215801   215809   215824   215836   215848   215858   215855 
  215856   215859   215843   215813   215784   215754   215744   215758 
  215779   215805   215824   215831   215833   215843   215854   215867 
  215881   215882   215873   215869   215881   215909   215933   215947 
  215956   215978   216005   216022   216017   215989   215950   215923 
  215914   215905   215885   215865   215856   215852   215847   215833 
  215809   215778   215752   215735   215719   215703   215693   215692 
  215696   215705   215724   215752   215778   215798   215804   215792 
  215770   215750   215734   215725   215724   215730   215743   215751 
  215746   215740   215747   215759   215773   215781   215781   215779 
  215784   215786   215789   215800   215815   215832   215843   215848 
  215855   215873   215896   215929   215975   216016   216035   216040 
  216043   216045   216045   216045   216062   216094   216130   216153 
  216159   216140   216105   216068   216031   215985   215944   215916 
  215900   215894   215893   215886   215875   215858   215832   215798 
  215762   215727   215692   215657   215639   215643   215649   215646 
  215634   215616   215597   215588   215585   215582   215580   215585 
  215615   215647   215661   215666   215665   215659   215655   215657 
  215666   215681   215693   215703   215725   215765   215802   215835 
  215866   215893   215920   215954   215979   215985   215983   215998 
  216013   216013   216006   216000   215993   215989   215989   215979 
  215962   215946   215935   215929   215923   215901   215869   215850 
  215860   215875   215867   215848   215843   215852   215869   215879 
  215874   215856   215831   215805   215784   215761   215728   215689 
  215661   215643   215634   215632   215638   215650   215667   215685 
  215693   215693   215689   215680   215673   215676   215688   215720 
  215765   215805   215844   215885   215904   215900   215882   215856 
  215829   215802   215774   215743   215712   215686   215688   215704 
  215709   215717   215755   215813   215856   215856   215829   215811 
  215813   215833   215869   215917   215973   216018   216049   216076 
  216091   216076   216032   215985   215948   215923   215906   215892 
  215874   215855   215854   215869   215885   215898   215919   215955 
  215998   216012   215986   215950   215923   215912   215921   215936 
  215940   215941   215960   215985   215995   215998   216014   216037 
  216045   216041   216018   215974   215935   215925   215939   215959 
  215977   215986   215990   215983   215951   215897   215846   215809 
  215784   215770   215765   215748   215723   215705   215698   215707 
  215739   215778   215811   215852   215908   215958   215985   215993 
  215982   215963   215964   215977   215971   215951   215919   215882 
  215859   215848   215831   215802   215771   215748   215740   215743 
  215736   215713   215700   215721   215784   215862   215927   215955 
  215955   215941   215924   215897   215866   215850   215846   215829 
  215793   215759   215765   215817   215883   215940   215987   216017 
  216027   216022   216000   215951   215901   215860   215828   215828 
  215873   215933   215975   215997   216018   216049   216083   216095 
  216072   216031   215997   215971   215937   215897   215869   215846 
  215816   215790   215775   215750   215720   215698   215682   215659 
  215624   215596   215589   215597   215617   215650   215692   215742 
  215800   215852   215882   215882   215882   215890   215886   215854 
  215800   215743   215694   215650   215612   215577   215539   215512 
  215509   215531   215568   215597   215601   215589   215574   215559 
  215546   215534   215538   215565   215613   215676   215742   215806 
  215873   215935   215993   216041   216072   216086   216085   216064 
  216040   216029   216033   216045   216052   216056   216078   216109 
  216117   216106   216094   216074   216037   215987   215933   215879 
  215835   215802   215773   215740   215719   215721   215748   215779 
  215797   215809   215821   215824   215815   215816   215842   215875 
  215901   215914   215921   215933   215948   215959   215960   215939 
  215917   215905   215890   215867   215842   215816   215802   215802 
  215808   215811   215812   215820   215831   215832   215839   215854 
  215873   215894   215916   215939   215978   216024   216068   216101 
  216098   216064   216021   215981   215943   215900   215858   215842 
  215865   215906   215939   215937   215898   215836   215766   215693 
  215636   215613   215624   215649   215666   215688   215717   215746 
  215773   215812   215865   215908   215916   215882   215836   215816 
  215829   215852   215866   215889   215940   216021   216095   216118 
  216091   216056   216036   216024   216018   216012   215981   215920 
  215836   215746   215673   215628   215612   215608   215615   215627 
  215642   215651   215644   215635   215661   215717   215779   215836 
  215877   215894   215898   215902   215908   215919   215936   215959 
  215987   216012   216009   215978   215923   215860   215812   215785 
  215777   215781   215779   215775   215784   215808   215843   215870 
  215886   215893   215887   215866   215819   215750   215673   215607 
  215574   215580   215607   215638   215665   215690   215716   215740 
  215761   215779   215796   215801   215789   215766   215746   215732 
  215713   215673   215620   215582   215563   215546   215530   215530 
  215561   215620   215708   215812   215912   215998   216063   216105 
  216143   216187   216233   216260   216263   216240   216207   216182 
  216156   216114   216072   216047   216018   215978   215955   215966 
  215987   215995   215978   215948   215927   215914   215909   215905 
  215878   215829   215792   215774   215765   215751   215725   215685 
  215643   215622   215628   215655   215688   215719   215743   215759 
  215762   215736   215670   215574   215492   215458   215476   215522 
  215573   215613   215661   215711   215739   215747   215748   215748 
  215761   215782   215794   215808   215836   215874   215917   215960 
  216001   216036   216059   216066   216055   216033   216006   215982 
  215962   215940   215916   215889   215855   215831   215844   215892 
  215940   215978   216013   216055   216093   216106   216085   216044 
  216001   215958   215912   215865   215828   215819   215832   215846 
  215846   215838   215827   215816   215821   215828   215806   215765 
  215725   215692   215661   215638   215630   215640   215666   215709 
  215769   215824   215847   215844   215854   215873   215871   215848 
  215813   215781   215775   215790   215790   215771   215755   215765 
  215789   215808   215815   215825   215836   215840   215856   215897 
  215943   215981   216012   216035   216056   216082   216109   216124 
  216120   216106   216103   216103   216091   216067   216028   215981 
  215937   215909   215904   215906   215913   215923   215925   215916 
  215889   215847   215806   215789   215785   215779   215775   215779 
  215793   215805   215805   215796   215782   215766   215742   215709 
  215661   215613   215595   215601   215603   215608   215630   215655 
  215673   215693   215711   215717   215720   215716   215693   215670 
  215674   215704   215738   215763   215794   215836   215883   215935 
  215974   216001   216031   216070   216102   216126   216149   216174 
  216191   216194   216201   216224   216238   216230   216216   216195 
  216157   216112   216067   216013   215947   215893   215858   215833 
  215804   215762   215719   215689   215666   215658   215670   215676 
  215666   215665   215681   215707   215717   215694   215644   215600 
  215582   215593   215624   215659   215665   215642   215616   215590 
  215566   215557   215559   215566   215582   215617   215669   215723 
  215767   215789   215804   215829   215869   215924   215989   216040 
  216074   216090   216081   216059   216040   216027   216010   215990 
  215974   215963   215950   215936   215927   215917   215904   215898 
  215894   215871   215832   215785   215732   215690   215677   215670 
  215658   215653   215661   215677   215692   215703   215719   215746 
  215777   215793   215805   215835   215881   215929   215967   215993 
  216009   216017   216014   216009   216000   215966   215919   215877 
  215842   215815   215806   215809   215815   215821   215846   215886 
  215917   215932   215948   215959   215955   215948   215941   215927 
  215902   215892   215901   215909   215900   215892   215885   215870 
  215846   215823   215794   215761   215742   215738   215732   215716 
  215698   215698   215708   215694   215644   215584   215547   215546 
  215573   215626   215682   215725   215774   215833   215882   215912 
  215928   215935   215939   215939   215939   215941   215948   215959 
  215983   216020   216059   216089   216112   216120   216097   216048 
  216001   215971   215962   215959   215952   215946   215943   215943 
  215940   215935   215933   215943   215963   216000   216044   216085 
  216113   216129   216135   216145   216164   216175   216156   216102 
  216036   215986   215958   215936   215916   215898   215878   215854 
  215836   215828   215831   215842   215852   215855   215850   215844 
  215843   215840   215831   215817   215800   215778   215742   215692 
  215635   215572   215504   215438   215383   215339   215312   215311 
  215338   215397   215487   215586   215676   215744   215789   215800 
  215770   215723   215684   215655   215649   215677   215734   215808 
  215894   215985   216074   216162   216237   216287   216311   216315 
  216306   216286   216261   216230   216189   216147   216121   216109 
  216102   216099   216090   216072   216049   216016   215979   215944 
  215909   215877   215854   215846   215847   215862   215893   215923 
  215929   215919   215902   215881   215850   215815   215781   215751 
  215730   215717   215713   215711   215719   215738   215744   215735 
  215723   215717   215713   215701   215677   215646   215611   215582 
  215562   215550   215542   215532   215531   215538   215543   215545 
  215545   215547   215559   215592   215643   215705   215767   215829 
  215897   215960   216002   216013   215998   215967   215923   215878 
  215851   215840   215836   215839   215843   215844   215842   215840 
  215840   215831   215809   215779   215742   215707   215694   215716 
  215754   215794   215836   215870   215883   215881   215871   215860 
  215848   215839   215839   215854   215882   215920   215959   216001 
  216037   216064   216078   216075   216048   215994   215924   215856 
  215805   215775   215769   215775   215781   215784   215792   215789 
  215763   215730   215700   215682   215673   215661   215653   215653 
  215649   215635   215624   215630   215655   215696   215734   215759 
  215777   215798   215823   215843   215866   215902   215941   215973 
  216002   216020   216018   216001   215960   215905   215848   215797 
  215752   215715   215681   215665   215669   215673   215661   215634 
  215604   215585   215582   215600   215632   215661   215689   215724 
  215765   215811   215862   215914   215968   216018   216062   216097 
  216105   216078   216043   216018   216006   216004   216013   216033 
  216060   216083   216095   216097   216087   216055   216004   215947 
  215896   215844   215797   215762   215740   215740   215761   215797 
  215838   215863   215867   215866   215867   215860   215854   215863 
  215881   215894   215902   215901   215890   215870   215847   215823 
  215801   215788   215789   215800   215809   215812   215819   215835 
  215851   215866   215871   215866   215860   215855   215855   215856 
  215855   215862   215878   215893   215917   215948   215967   215987 
  216012   216027   216035   216047   216059   216067   216083   216105 
  216116   216109   216078   216032   215994   215970   215955   215947 
  215937   215923   215908   215898   215897   215901   215902   215894 
  215882   215875   215875   215870   215866   215875   215892   215904 
  215914   215923   215931   215937   215946   215958   215973   215991 
  216010   216025   216037   216037   216018   215985   215936   215890 
  215865   215842   215802   215765   215738   215707   215661   215617 
  215593   215582   215572   215565   215572   215580   215584   215592 
  215604   215617   215628   215638   215654   215681   215712   215740 
  215775   215815   215855   215896   215925   215946   215956   215952 
  215936   215921   215912   215900   215886   215883   215898   215932 
  215981   216024   216052   216079   216109   216128   216130   216121 
  216106   216094   216076   216047   216004   215956   215909   215859 
  215802   215736   215666   215604   215547   215495   215461   215451 
  215465   215493   215515   215532   215555   215569   215557   215526 
  215485   215447   215418   215407   215415   215439   215481   215526 
  215550   215568   215595   215628   215662   215688   215707   215727 
  215754   215785   215816   215831   215828   215827   215829   215829 
  215835   215850   215869   215878   215883   215892   215894   215896 
  215905   215919   215929   215935   215929   215919   215909   215901 
  215897   215897   215890   215869   215842   215821   215804   215788 
  215784   215797   215825   215865   215908   215951   215985   216005 
  216006   215987   215954   215919   215883   215840   215794   215754 
  215728   215719   215724   215734   215744   215752   215757   215763 
  215779   215809   215843   215865   215878   215892   215906   215927 
  215950   215966   215974   215983   215989   215994   216006   216025 
  216039   216055   216076   216101   216125   216152   216178   216205 
  216237   216268   216292   216307   216309   216292   216263   216232 
  216203   216171   216128   216083   216045   216013   215979   215939 
  215889   215839   215798   215769   215740   215716   215698   215684 
  215665   215647   215643   215651   215662   215671   215693   215721 
  215736   215728   215707   215676   215647   215640   215661   215700 
  215747   215788   215823   215855   215878   215893   215905   215908 
  215910   215923   215950   215977   215998   216012   216013   216004 
  215985   215956   215920   215883   215850   215833   215843   215871 
  215908   215944   215974   215993   216004   216005   216002   215998 
  215989   215974   215960   215944   215920   215893   215867   215844 
  215825   215813   215808   215801   215786   215771   215755   215731 
  215698   215667   215643   215628   215620   215617   215623   215630 
  215636   215646   215654   215654   215646   215635   215627   215617 
  215607   215603   215617   215647   215688   215735   215789   215839 
  215883   215924   215958   215993   216028   216055   216071   216076 
  216068   216052   216035   216008   215964   215906   215847   215788 
  215728   215669   215612   215568   215542   215531   215536   215563 
  215601   215635   215658   215681   215721   215779   215847   215924 
  215995   216054   216103   216148   216179   216189   216183   216170 
  216143   216101   216056   216012   215962   215912   215863   215819 
