Origin Time       2025/06/03 22:18:00
Lat.              41.7
Long.             143.6
Depth. (km)       30
Mag.              5.2
Station Code      IBUH01
Station Lat.      42.8739
Station Long.     141.8191
Station Height(m) 60
Record Time       2025/06/03 22:18:59
Sampling Freq(Hz) 100Hz
Duration Time(s)  120
Dir.              4
Scale Factor      7845(gal)/8223790
Max. Acc. (gal)   1.230
Last Correction   2025/06/03 22:18:59
Memo.             
[...]
  -12528   -12565   -12617   -12661   -12685   -12698   -12717   -12750 
  -12798   -12845   -12881   -12907   -12931   -12958   -12982   -12996 
  -12984   -12937   -12860   -12766   -12675   -12617   -12610   -12633 
  -12668   -12702   -12712   -12699   -12679   -12656   -12640   -12640 
  -12650   -12669   -12694   -12717   -12733   -12749   -12766   -12783 
  -12796   -12803   -12798   -12787   -12776   -12773   -12779   -12784 
  -12783   -12773   -12760   -12742   -12721   -12696   -12694   -12714 
  -12742   -12765   -12771   -12742   -12683   -12613   -12542   -12488 
  -12461   -12457   -12471   -12501   -12540   -12586   -12646   -12721 
  -12798   -12860   -12899   -12919   -12926   -12927   -12924   -12920 
  -12912   -12895   -12860   -12804   -12741   -12685   -12660   -12665 
  -12684   -12698   -12700   -12690   -12669   -12661   -12677   -12725 
  -12785   -12837   -12865   -12861   -12820   -12756   -12699   -12672 
  -12673   -12699   -12738   -12780   -12816   -12842   -12853   -12847 
  -12831   -12812   -12787   -12754   -12723   -12708   -12708   -12723 
  -12752   -12787   -12816   -12829   -12820   -12800   -12777   -12752 
  -12715   -12676   -12637   -12596   -12556   -12526   -12523   -12560 
  -12638   -12739   -12847   -12951   -13038   -13089   -13103   -13093 
  -13070   -13034   -12981   -12910   -12820   -12721   -12630   -12564 
  -12528   -12518   -12528   -12541   -12544   -12522   -12483   -12456 
  -12479   -12565   -12698   -12838   -12957   -13030   -13035   -12977 
  -12880   -12779   -12699   -12653   -12642   -12664   -12696   -12725 
  -12739   -12730   -12702   -12665   -12636   -12621   -12615   -12618 
  -12631   -12646   -12667   -12694   -12729   -12769   -12808   -12841 
  -12861   -12856   -12823   -12768   -12704   -12649   -12611   -12595 
  -12606   -12631   -12656   -12667   -12672   -12677   -12683   -12690 
  -12706   -12734   -12775   -12822   -12869   -12892   -12884   -12850 
  -12788   -12704   -12631   -12586   -12565   -12569   -12584   -12595 
  -12603   -12610   -12621   -12649   -12699   -12757   -12815   -12861 
  -12885   -12881   -12854   -12823   -12810   -12823   -12872   -12949 
  -13027   -13088   -13115   -13090   -13019   -12915   -12802   -12707 
  -12652   -12630   -12629   -12626   -12617   -12615   -12638   -12688 
  -12766   -12850   -12908   -12927   -12901   -12830   -12737   -12654 
  -12598   -12582   -12604   -12657   -12722   -12783   -12825   -12843 
  -12831   -12791   -12742   -12703   -12684   -12695   -12744   -12815 
  -12869   -12869   -12812   -12734   -12663   -12619   -12611   -12626 
  -12638   -12636   -12610   -12575   -12560   -12576   -12615   -12661 
  -12702   -12719   -12714   -12695   -12673   -12669   -12694   -12745 
  -12804   -12849   -12858   -12834   -12791   -12744   -12706   -12681 
  -12669   -12667   -12668   -12664   -12652   -12637   -12626   -12618 
  -12602   -12583   -12575   -12592   -12653   -12757   -12883   -12992 
  -13053   -13042   -12954   -12825   -12702   -12631   -12636   -12707 
  -12811   -12911   -12982   -13001   -12965   -12903   -12839   -12788 
  -12769   -12789   -12831   -12869   -12880   -12856   -12812   -12768 
  -12727   -12702   -12690   -12680   -12676   -12679   -12687   -12707 
  -12738   -12772   -12812   -12853   -12874   -12884   -12883   -12862 
  -12826   -12775   -12698   -12611   -12544   -12507   -12511   -12549 
  -12599   -12640   -12653   -12642   -12621   -12607   -12623   -12676 
  -12748   -12825   -12881   -12900   -12892   -12876   -12862   -12858 
  -12868   -12888   -12908   -12920   -12912   -12885   -12849   -12810 
  -12768   -12719   -12660   -12599   -12549   -12511   -12490   -12492 
  -12507   -12523   -12542   -12555   -12560   -12569   -12596   -12652 
  -12726   -12798   -12842   -12845   -12806   -12734   -12644   -12553 
  -12492   -12475   -12499   -12559   -12645   -12742   -12838   -12928 
  -12995   -13030   -13034   -13011   -12973   -12941   -12927   -12927 
  -12939   -12960   -12973   -12961   -12916   -12841   -12738   -12622 
  -12513   -12418   -12353   -12341   -12388   -12472   -12565   -12644 
  -12698   -12721   -12719   -12717   -12739   -12799   -12888   -12987 
  -13066   -13101   -13084   -13032   -12964   -12891   -12823   -12768 
  -12730   -12714   -12725   -12760   -12800   -12831   -12847   -12838 
  -12810   -12780   -12761   -12746   -12734   -12715   -12677   -12619 
  -12555   -12498   -12460   -12442   -12451   -12479   -12519   -12564 
  -12606   -12636   -12657   -12684   -12726   -12785   -12852   -12915 
  -12964   -12969   -12920   -12831   -12723   -12627   -12575   -12575 
  -12621   -12690   -12745   -12758   -12725   -12661   -12602   -12569 
  -12571   -12598   -12644   -12692   -12733   -12773   -12829   -12910 
  -13008   -13108   -13186   -13215   -13177   -13088   -12972   -12853 
  -12752   -12669   -12611   -12576   -12557   -12544   -12532   -12525 
  -12541   -12586   -12650   -12723   -12792   -12850   -12897   -12935 
  -12951   -12938   -12901   -12849   -12784   -12719   -12677   -12664 
  -12673   -12692   -12710   -12712   -12696   -12673   -12654   -12663 
  -12704   -12766   -12834   -12889   -12904   -12865   -12787   -12691 
  -12606   -12550   -12546   -12590   -12649   -12702   -12733   -12725 
  -12687   -12646   -12613   -12590   -12584   -12592   -12615   -12654 
  -12706   -12765   -12819   -12850   -12850   -12827   -12793   -12762 
  -12748   -12744   -12745   -12742   -12727   -12702   -12671   -12650 
  -12652   -12676   -12711   -12744   -12766   -12789   -12823   -12869 
  -12914   -12953   -12981   -12997   -13003   -12995   -12978   -12961 
  -12937   -12906   -12869   -12829   -12785   -12739   -12688   -12644 
  -12619   -12623   -12652   -12698   -12750   -12791   -12811   -12812 
  -12793   -12764   -12741   -12731   -12726   -12706   -12653   -12577 
  -12498   -12436   -12420   -12460   -12546   -12654   -12733   -12750 
  -12718   -12649   -12575   -12537   -12545   -12586   -12644   -12700 
  -12741   -12765   -12777   -12784   -12788   -12792   -12799   -12806 
  -12808   -12802   -12781   -12742   -12695   -12652   -12622   -12615 
  -12633   -12671   -12719   -12761   -12783   -12781   -12768   -12757 
  -12766   -12806   -12864   -12914   -12937   -12918   -12853   -12769 
  -12695   -12646   -12633   -12653   -12691   -12727   -12758   -12784 
  -12807   -12818   -12820   -12822   -12818   -12811   -12815   -12831 
  -12862   -12897   -12922   -12924   -12904   -12858   -12793   -12725 
  -12664   -12625   -12604   -12595   -12595   -12600   -12615   -12638 
  -12667   -12702   -12731   -12739   -12718   -12668   -12603   -12540 
  -12494   -12486   -12528   -12615   -12726   -12847   -12958   -13034 
  -13055   -13015   -12923   -12823   -12739   -12698   -12706   -12742 
  -12775   -12785   -12766   -12729   -12692   -12681   -12706   -12757 
  -12812   -12854   -12866   -12856   -12843   -12841   -12857   -12888 
  -12915   -12927   -12924   -12907   -12883   -12850   -12808   -12756 
  -12702   -12658   -12636   -12636   -12657   -12702   -12756   -12802 
  -12830   -12843   -12849   -12853   -12854   -12850   -12837   -12808 
  -12762   -12712   -12671   -12641   -12623   -12607   -12584   -12555 
  -12529   -12518   -12517   -12518   -12519   -12518   -12510   -12509 
  -12523   -12552   -12595   -12638   -12671   -12685   -12679   -12663 
  -12646   -12637   -12640   -12645   -12646   -12646   -12649   -12661 
  -12687   -12718   -12749   -12775   -12788   -12795   -12814   -12849 
  -12896   -12947   -12995   -13023   -13024   -13008   -12982   -12951 
  -12920   -12881   -12831   -12776   -12726   -12683   -12648   -12622 
  -12609   -12606   -12613   -12631   -12668   -12729   -12810   -12897 
  -12978   -13034   -13057   -13050   -13018   -12955   -12874   -12792 
  -12715   -12653   -12615   -12604   -12614   -12625   -12629   -12623 
  -12611   -12600   -12606   -12633   -12673   -12717   -12752   -12775 
  -12784   -12789   -12793   -12796   -12807   -12830   -12862   -12896 
  -12922   -12938   -12941   -12923   -12870   -12783   -12671   -12552 
  -12445   -12371   -12337   -12339   -12372   -12436   -12507   -12572 
  -12630   -12685   -12733   -12764   -12766   -12748   -12723   -12710 
  -12717   -12745   -12781   -12811   -12816   -12787   -12715   -12622 
  -12534   -12476   -12460   -12486   -12541   -12611   -12677   -12723 
  -12741   -12741   -12730   -12715   -12706   -12708   -12721   -12733 
  -12760   -12800   -12849   -12908   -12982   -13058   -13127   -13176 
  -13194   -13182   -13139   -13072   -12995   -12912   -12831   -12761 
  -12704   -12664   -12637   -12619   -12617   -12636   -12680   -12750 
  -12835   -12916   -12984   -13018   -13005   -12950   -12872   -12791 
  -12719   -12667   -12634   -12617   -12606   -12602   -12603   -12610 
  -12618   -12622   -12614   -12603   -12596   -12600   -12630   -12692 
  -12779   -12870   -12941   -12965   -12933   -12847   -12726   -12594 
  -12476   -12398   -12372   -12395   -12460   -12549   -12646   -12733 
  -12800   -12841   -12852   -12841   -12818   -12795   -12783   -12783 
  -12798   -12825   -12852   -12873   -12874   -12852   -12799   -12721 
  -12634   -12553   -12490   -12453   -12444   -12453   -12478   -12515 
  -12555   -12590   -12626   -12652   -12665   -12672   -12684   -12711 
  -12762   -12841   -12930   -13007   -13050   -13053   -13026   -12984 
  -12941   -12906   -12883   -12860   -12823   -12776   -12715   -12642 
  -12577   -12537   -12514   -12514   -12540   -12588   -12665   -12769 
  -12895   -13019   -13108   -13146   -13134   -13076   -12989   -12897 
  -12811   -12741   -12695   -12665   -12644   -12627   -12617   -12623 
  -12652   -12692   -12737   -12780   -12816   -12842   -12865   -12888 
  -12904   -12907   -12883   -12829   -12758   -12680   -12600   -12532 
  -12479   -12441   -12421   -12418   -12426   -12448   -12480   -12513 
  -12549   -12588   -12614   -12642   -12695   -12766   -12856   -12953 
  -13031   -13073   -13076   -13050   -13019   -12985   -12945   -12899 
  -12849   -12792   -12745   -12725   -12730   -12756   -12789   -12802 
  -12780   -12721   -12633   -12541   -12468   -12432   -12441   -12487 
  -12548   -12603   -12650   -12695   -12727   -12752   -12772   -12780 
  -12781   -12783   -12779   -12766   -12749   -12730   -12718   -12718 
  -12731   -12757   -12780   -12784   -12765   -12733   -12695   -12654 
  -12617   -12594   -12582   -12572   -12563   -12546   -12519   -12487 
  -12460   -12444   -12441   -12468   -12519   -12577   -12638   -12698 
  -12754   -12822   -12889   -12941   -12974   -12987   -12981   -12977 
  -12978   -12976   -12955   -12904   -12811   -12685   -12565   -12471 
  -12424   -12436   -12488   -12553   -12617   -12664   -12696   -12733 
  -12776   -12825   -12877   -12923   -12968   -13004   -13024   -13030 
  -13019   -12976   -12910   -12845   -12802   -12791   -12822   -12895 
  -12985   -13069   -13119   -13124   -13101   -13062   -13020   -12989 
  -12969   -12949   -12919   -12881   -12830   -12762   -12691   -12631 
  -12587   -12563   -12563   -12580   -12606   -12634   -12665   -12703 
  -12754   -12822   -12900   -12969   -13001   -12993   -12953   -12892 
  -12822   -12760   -12708   -12664   -12625   -12588   -12560   -12553 
  -12579   -12625   -12668   -12691   -12677   -12631   -12573   -12514 
  -12472   -12464   -12486   -12541   -12622   -12708   -12789   -12857 
  -12903   -12919   -12904   -12868   -12825   -12781   -12754   -12742 
  -12737   -12734   -12729   -12717   -12692   -12663   -12646   -12661 
  -12718   -12810   -12927   -13049   -13147   -13192   -13174   -13093 
  -12974   -12852   -12756   -12711   -12726   -12783   -12853   -12908 
  -12922   -12884   -12808   -12718   -12642   -12600   -12602   -12644 
  -12717   -12807   -12893   -12961   -12992   -12982   -12933   -12841 
  -12718   -12580   -12456   -12379   -12360   -12388   -12452   -12521 
  -12564   -12580   -12583   -12584   -12617   -12688   -12777   -12857 
  -12901   -12893   -12829   -12711   -12572   -12445   -12355   -12309 
  -12322   -12393   -12487   -12584   -12671   -12721   -12723   -12684 
  -12618   -12549   -12505   -12502   -12538   -12598   -12650   -12681 
  -12695   -12702   -12703   -12708   -12725   -12750   -12780   -12810 
  -12837   -12864   -12888   -12908   -12916   -12900   -12839   -12726 
  -12580   -12438   -12326   -12272   -12295   -12386   -12505   -12617 
  -12712   -12779   -12820   -12872   -12937   -13008   -13077   -13138 
  -13189   -13232   -13275   -13321   -13371   -13414   -13433   -13423 
  -13378   -13301   -13204   -13100   -12993   -12892   -12804   -12733 
  -12676   -12634   -12606   -12587   -12575   -12579   -12600   -12638 
  -12691   -12749   -12784   -12773   -12722   -12637   -12537   -12447 
  -12379   -12339   -12322   -12325   -12340   -12370   -12425   -12505 
  -12584   -12640   -12671   -12671   -12646   -12633   -12650   -12703 
  -12772   -12829   -12842   -12796   -12695   -12563   -12425   -12318 
  -12260   -12253   -12290   -12360   -12452   -12546   -12641   -12727 
  -12785   -12823   -12854   -12879   -12912   -12961   -13016   -13084 
  -13153   -13208   -13248   -13271   -13266   -13227   -13142   -12996 
  -12806   -12602   -12417   -12270   -12177   -12129   -12102   -12071 
  -12023   -11971   -11938   -11931   -11959   -12031   -12135   -12267 
  -12440   -12627   -12807   -12974   -13126   -13252   -13378   -13521 
  -13676   -13832   -13964   -14031   -13991   -13838   -13597   -13317 
  -13068   -12892   -12793   -12748   -12715   -12665   -12587   -12496 
  -12421   -12387   -12395   -12433   -12483   -12518   -12526   -12519 
  -12498   -12475   -12465   -12472   -12502   -12559   -12637   -12737 
  -12854   -12964   -13045   -13092   -13100   -13082   -13073   -13086 
  -13111   -13124   -13107   -13039   -12907   -12712   -12486   -12280 
  -12148   -12120   -12191   -12340   -12519   -12680   -12785   -12818 
  -12793   -12737   -12684   -12667   -12690   -12752   -12833   -12906 
  -12955   -12970   -12935   -12858   -12760   -12661   -12592   -12580 
  -12625   -12708   -12802   -12866   -12883   -12853   -12793   -12734 
  -12696   -12691   -12721   -12768   -12802   -12811   -12789   -12741 
  -12683   -12622   -12559   -12487   -12395   -12285   -12171   -12070 
  -12001   -11989   -12051   -12191   -12401   -12671   -12992   -13324 
  -13608   -13798   -13865   -13801   -13628   -13383   -13122   -12888 
  -12712   -12603   -12542   -12490   -12420   -12324   -12217   -12125 
  -12089   -12143   -12299   -12541   -12818   -13074   -13269   -13370 
  -13385   -13343   -13262   -13171   -13093   -13018   -12943   -12872 
  -12802   -12737   -12687   -12664   -12665   -12671   -12667   -12645 
  -12600   -12546   -12502   -12483   -12491   -12511   -12523   -12513 
  -12478   -12432   -12390   -12357   -12330   -12321   -12317   -12299 
  -12278   -12253   -12249   -12298   -12386   -12495   -12637   -12810 
  -12992   -13189   -13394   -13581   -13720   -13784   -13755   -13639 
  -13460   -13242   -13009   -12796   -12630   -12525   -12479   -12480 
  -12507   -12538   -12561   -12565   -12544   -12511   -12494   -12501 
  -12540   -12603   -12676   -12745   -12793   -12814   -12793   -12727 
  -12633   -12522   -12409   -12324   -12263   -12235   -12256   -12307 
  -12374   -12475   -12614   -12775   -12950   -13124   -13257   -13336 
  -13358   -13327   -13259   -13176   -13099   -13051   -13035   -13034 
  -13026   -12992   -12928   -12847   -12768   -12708   -12676   -12668 
  -12671   -12676   -12675   -12664   -12645   -12629   -12633   -12657 
  -12688   -12711   -12719   -12704   -12671   -12637   -12614   -12596 
  -12579   -12544   -12494   -12441   -12401   -12387   -12406   -12445 
  -12503   -12575   -12644   -12718   -12796   -12858   -12896   -12891 
  -12818   -12691   -12533   -12379   -12272   -12232   -12252   -12329 
  -12457   -12614   -12789   -12989   -13203   -13402   -13568   -13676 
  -13709   -13671   -13570   -13419   -13240   -13057   -12869   -12687 
  -12519   -12363   -12220   -12104   -12004   -11929   -11905   -11948 
  -12064   -12249   -12480   -12721   -12899   -12985   -12989   -12937 
  -12889   -12904   -12992   -13136   -13298   -13428   -13494   -13485 
  -13412   -13296   -13155   -12993   -12812   -12610   -12399   -12216 
  -12094   -12055   -12116   -12266   -12474   -12707   -12937   -13132 
  -13285   -13392   -13441   -13428   -13352   -13220   -13036   -12808 
  -12552   -12293   -12071   -11912   -11830   -11832   -11920   -12067 
  -12248   -12447   -12645   -12833   -13007   -13161   -13278   -13359 
  -13402   -13393   -13323   -13192   -13007   -12788   -12573   -12401 
  -12289   -12244   -12253   -12280   -12299   -12318   -12339   -12334 
  -12314   -12309   -12328   -12380   -12475   -12580   -12696   -12835 
  -12966   -13076   -13171   -13248   -13315   -13374   -13416   -13435 
  -13423   -13365   -13252   -13084   -12862   -12611   -12360   -12147 
  -11996   -11919   -11921   -11997   -12117   -12262   -12406   -12525 
  -12623   -12722   -12834   -12970   -13120   -13263   -13389   -13479 
  -13514   -13486   -13413   -13316   -13205   -13109   -13049   -13018 
  -13005   -13012   -13024   -13024   -12997   -12950   -12897   -12843 
  -12793   -12749   -12707   -12669   -12640   -12614   -12590   -12569 
  -12546   -12503   -12434   -12334   -12208   -12064   -11904   -11742 
  -11610   -11541   -11560   -11692   -11943   -12274   -12644   -13008 
  -13313   -13521   -13633   -13649   -13587   -13483   -13358   -13223 
  -13095   -12980   -12881   -12807   -12766   -12762   -12788   -12831 
  -12872   -12887   -12860   -12800   -12723   -12653   -12604   -12573 
  -12549   -12517   -12467   -12397   -12318   -12249   -12216   -12235 
  -12314   -12457   -12640   -12837   -13034   -13211   -13342   -13417 
  -13431   -13381   -13267   -13084   -12854   -12614   -12398   -12245 
  -12186   -12240   -12399   -12625   -12868   -13096   -13275   -13385 
  -13419   -13385   -13302   -13194   -13076   -12954   -12835   -12727 
  -12618   -12494   -12357   -12212   -12077   -11978   -11931   -11948 
  -12032   -12162   -12320   -12486   -12636   -12762   -12865   -12933 
  -12970   -12988   -12995   -12996   -12992   -12985   -12969   -12935 
  -12887   -12815   -12714   -12588   -12459   -12344   -12270   -12262 
  -12325   -12456   -12636   -12838   -13041   -13215   -13352   -13452 
  -13506   -13517   -13482   -13392   -13258   -13101   -12938   -12791 
  -12675   -12592   -12534   -12494   -12461   -12437   -12428   -12444 
  -12483   -12536   -12599   -12663   -12715   -12772   -12833   -12892 
  -12950   -12993   -13005   -12969   -12877   -12742   -12594   -12468 
  -12402   -12407   -12471   -12555   -12621   -12646   -12617   -12541 
  -12449   -12368   -12320   -12316   -12364   -12469   -12607   -12748 
  -12887   -13019   -13130   -13231   -13316   -13370   -13386   -13358 
  -13282   -13171   -13043   -12906   -12771   -12653   -12552   -12478 
  -12436   -12430   -12448   -12472   -12490   -12488   -12452   -12398 
  -12353   -12339   -12378   -12471   -12588   -12719   -12850   -12953 
  -13015   -13043   -13041   -13008   -12950   -12877   -12803   -12735 
  -12690   -12673   -12694   -12757   -12862   -12987   -13111   -13219 
