Origin Time       2025/06/03 22:18:00
Lat.              41.7
Long.             143.6
Depth. (km)       30
Mag.              5.2
Station Code      IKRH03
Station Lat.      42.8880
Station Long.     141.6399
Station Height(m) -242.5
Record Time       2025/06/03 22:19:27
Sampling Freq(Hz) 100Hz
Duration Time(s)  120
Dir.              3
Scale Factor      2942(gal)/8224139
Max. Acc. (gal)   0.164
Last Correction   2025/06/03 22:19:27
Memo.             
[...]
  125752   125732   125713   125694   125670   125649   125644   125641 
  125636   125636   125644   125649   125655   125662   125664   125666 
  125675   125687   125693   125698   125707   125718   125728   125734 
  125740   125749   125760   125768   125779   125795   125813   125829 
  125851   125875   125896   125917   125934   125945   125952   125952 
  125948   125944   125936   125922   125907   125891   125883   125875 
  125865   125861   125856   125844   125830   125818   125807   125799 
  125787   125774   125759   125745   125732   125714   125698   125689 
  125679   125666   125649   125640   125633   125622   125612   125604 
  125595   125590   125590   125590   125586   125585   125586   125590 
  125590   125594   125602   125616   125629   125637   125640   125644 
  125647   125643   125636   125631   125628   125629   125625   125620 
  125610   125601   125594   125585   125568   125550   125535   125520 
  125505   125490   125475   125460   125448   125435   125420   125409 
  125402   125404   125412   125425   125446   125470   125490   125505 
  125521   125539   125551   125563   125586   125610   125626   125640 
  125653   125662   125664   125668   125671   125666   125655   125643 
  125632   125622   125614   125602   125581   125558   125537   125518 
  125502   125491   125487   125486   125486   125487   125490   125491 
  125493   125497   125505   125505   125501   125498   125496   125496 
  125496   125491   125485   125482   125485   125489   125494   125501 
  125502   125502   125504   125510   125523   125532   125539   125547 
  125555   125559   125556   125547   125539   125533   125527   125516 
  125508   125498   125487   125481   125478   125475   125474   125473 
  125474   125477   125478   125477   125474   125474   125479   125489 
  125508   125532   125554   125571   125585   125593   125602   125613 
  125625   125639   125658   125682   125702   125720   125739   125753 
  125764   125778   125787   125794   125803   125814   125824   125826 
  125832   125840   125842   125840   125837   125842   125847   125847 
  125847   125845   125842   125834   125825   125821   125817   125811 
  125811   125809   125805   125798   125786   125772   125764   125760 
  125752   125744   125743   125741   125740   125737   125730   125721 
  125710   125697   125682   125670   125655   125640   125631   125624 
  125618   125616   125617   125618   125617   125617   125616   125612 
  125610   125610   125608   125606   125605   125609   125612   125613 
  125614   125617   125618   125620   125622   125628   125633   125639 
  125643   125647   125649   125651   125658   125668   125680   125690 
  125694   125698   125706   125718   125732   125748   125764   125776 
  125786   125797   125810   125818   125822   125826   125825   125820 
  125814   125803   125795   125790   125780   125771   125760   125744 
  125726   125714   125703   125687   125672   125662   125649   125641 
  125641   125639   125640   125651   125659   125662   125663   125660 
  125655   125651   125645   125640   125635   125631   125626   125622 
  125621   125620   125617   125617   125622   125625   125624   125624 
  125621   125625   125637   125648   125660   125674   125682   125687 
  125694   125701   125702   125703   125705   125705   125710   125720 
  125728   125737   125748   125755   125761   125766   125764   125759 
  125753   125753   125755   125755   125756   125759   125764   125772 
  125780   125788   125797   125802   125809   125814   125817   125817 
  125813   125806   125797   125788   125778   125761   125747   125736 
  125729   125724   125716   125709   125702   125699   125701   125707 
  125718   125728   125740   125756   125774   125794   125809   125818 
  125826   125834   125838   125840   125838   125834   125829   125824 
  125809   125788   125766   125737   125709   125687   125672   125652 
  125626   125604   125589   125575   125566   125556   125541   125532 
  125529   125532   125537   125539   125533   125532   125535   125541 
  125548   125552   125558   125564   125570   125570   125568   125566 
  125562   125558   125558   125560   125568   125578   125585   125591 
  125597   125594   125593   125595   125595   125597   125599   125598 
  125595   125594   125590   125585   125579   125577   125575   125572 
  125563   125551   125540   125533   125529   125520   125508   125496 
  125490   125486   125481   125481   125479   125473   125469   125470 
  125470   125471   125474   125471   125470   125470   125470   125466 
  125462   125456   125450   125440   125435   125429   125423   125420 
  125423   125424   125423   125425   125428   125432   125442   125454 
  125463   125478   125498   125516   125528   125537   125548   125554 
  125562   125572   125578   125579   125582   125581   125574   125566 
  125558   125555   125559   125567   125579   125594   125605   125613 
  125618   125624   125631   125637   125639   125639   125637   125635 
  125636   125633   125622   125609   125595   125585   125582   125582 
  125583   125593   125601   125604   125612   125621   125629   125640 
  125651   125658   125662   125667   125671   125668   125662   125659 
  125658   125653   125648   125645   125644   125651   125662   125672 
  125679   125683   125680   125679   125683   125689   125691   125691 
  125691   125694   125698   125703   125712   125718   125722   125728 
  125736   125737   125737   125734   125726   125720   125718   125717 
  125714   125713   125716   125722   125737   125751   125761   125767 
  125771   125775   125780   125784   125788   125797   125803   125807 
  125814   125821   125825   125826   125825   125824   125817   125809 
  125801   125793   125788   125787   125787   125783   125778   125775 
  125771   125767   125771   125771   125764   125759   125751   125744 
  125743   125740   125736   125733   125730   125726   125724   125721 
  125716   125713   125716   125716   125710   125706   125705   125706 
  125712   125717   125718   125714   125707   125701   125695   125693 
  125693   125691   125687   125682   125678   125682   125691   125697 
  125699   125703   125712   125714   125712   125713   125713   125706 
  125698   125694   125691   125691   125691   125690   125690   125694 
  125698   125695   125690   125686   125680   125676   125671   125663 
  125653   125644   125640   125636   125632   125625   125618   125613 
  125610   125604   125591   125578   125570   125562   125556   125554 
  125551   125551   125551   125545   125540   125539   125537   125533 
  125533   125531   125525   125520   125509   125494   125486   125478 
  125470   125464   125462   125455   125450   125447   125444   125446 
  125447   125446   125446   125451   125458   125466   125475   125487 
  125504   125520   125531   125544   125559   125571   125582   125591 
  125595   125601   125605   125609   125617   125621   125622   125625 
  125628   125631   125633   125639   125644   125649   125653   125653 
  125653   125656   125660   125666   125670   125676   125686   125695 
  125703   125709   125716   125725   125729   125734   125741   125743 
  125743   125745   125743   125736   125722   125710   125701   125689 
  125678   125671   125664   125656   125651   125649   125651   125656 
  125660   125666   125676   125691   125705   125721   125737   125748 
  125755   125760   125766   125774   125779   125778   125780   125787 
  125787   125790   125798   125801   125803   125806   125802   125798 
  125795   125793   125790   125788   125790   125790   125787   125782 
  125775   125768   125761   125751   125739   125729   125722   125718 
  125717   125716   125714   125713   125713   125714   125717   125726 
  125739   125751   125761   125774   125786   125795   125806   125821 
  125837   125853   125872   125887   125898   125906   125913   125918 
  125921   125915   125905   125894   125880   125859   125837   125814 
  125784   125755   125722   125685   125651   125618   125587   125559 
  125532   125508   125490   125474   125460   125451   125444   125437 
  125432   125431   125431   125429   125432   125433   125435   125439 
  125443   125443   125444   125450   125458   125464   125466   125463 
  125458   125454   125452   125450   125444   125439   125436   125433 
  125429   125425   125428   125435   125446   125456   125464   125475 
  125489   125502   125513   125523   125537   125559   125582   125601 
  125616   125632   125651   125672   125691   125705   125721   125734 
  125745   125753   125757   125756   125752   125747   125744   125740 
  125733   125728   125725   125724   125726   125729   125732   125736 
  125744   125753   125767   125780   125790   125799   125806   125813 
  125821   125828   125829   125826   125820   125814   125810   125806 
  125802   125793   125780   125770   125763   125755   125749   125745 
  125740   125734   125736   125732   125724   125722   125724   125722 
  125722   125725   125724   125720   125717   125714   125710   125705 
  125699   125698   125698   125697   125699   125703   125705   125709 
  125712   125712   125710   125709   125706   125699   125693   125687 
  125676   125663   125653   125640   125620   125598   125577   125554 
  125528   125506   125485   125462   125440   125420   125402   125382 
  125362   125351   125343   125334   125325   125323   125321   125323 
  125327   125331   125331   125331   125329   125329   125331   125335 
  125344   125359   125373   125383   125393   125402   125412   125420 
  125431   125443   125450   125452   125458   125464   125466   125463 
  125463   125466   125462   125456   125454   125450   125447   125446 
  125440   125436   125433   125432   125433   125439   125447   125459 
  125470   125482   125497   125510   125521   125537   125556   125574 
  125594   125617   125639   125653   125674   125697   125717   125732 
  125747   125760   125770   125779   125794   125805   125809   125814 
  125818   125817   125815   125817   125813   125811   125814   125817 
  125820   125820   125818   125824   125833   125841   125851   125860 
  125864   125869   125879   125891   125902   125909   125911   125915 
  125918   125917   125915   125910   125903   125901   125896   125886 
  125872   125860   125848   125837   125822   125809   125802   125795 
  125788   125783   125775   125768   125761   125757   125756   125755 
  125752   125753   125756   125757   125756   125753   125753   125751 
  125747   125745   125747   125748   125751   125756   125757   125755 
  125753   125751   125749   125752   125752   125752   125755   125760 
  125764   125772   125778   125778   125779   125783   125787   125795 
  125799   125801   125810   125822   125828   125838   125849   125853 
  125856   125861   125865   125864   125861   125856   125848   125840 
  125834   125825   125814   125802   125788   125778   125763   125747 
  125732   125714   125695   125679   125666   125652   125639   125628 
  125621   125612   125605   125601   125594   125587   125583   125585 
  125589   125594   125598   125604   125612   125618   125622   125622 
  125618   125618   125618   125614   125612   125605   125587   125572 
  125562   125550   125535   125524   125510   125497   125491   125491 
  125486   125482   125483   125478   125466   125456   125448   125439 
  125428   125415   125398   125377   125356   125335   125315   125293 
  125273   125259   125244   125230   125223   125220   125219   125219 
  125223   125230   125235   125240   125251   125265   125273   125284 
  125297   125305   125313   125327   125342   125355   125369   125377 
  125385   125397   125406   125413   125421   125431   125440   125454 
  125466   125475   125485   125501   125517   125531   125544   125558 
  125575   125593   125608   125622   125637   125647   125656   125663 
  125670   125679   125691   125703   125713   125722   125732   125744 
  125751   125753   125760   125761   125760   125763   125763   125763 
  125760   125757   125757   125756   125757   125759   125756   125757 
  125760   125757   125757   125759   125757   125760   125763   125761 
  125764   125766   125763   125766   125770   125771   125778   125788 
  125791   125791   125793   125793   125791   125788   125780   125770 
  125759   125747   125734   125724   125716   125709   125706   125703 
  125702   125699   125698   125699   125699   125698   125702   125705 
  125702   125702   125705   125705   125703   125703   125702   125705 
  125709   125717   125726   125733   125741   125749   125756   125764 
  125775   125783   125787   125795   125809   125815   125817   125821 
  125828   125830   125833   125841   125845   125847   125847   125852 
  125860   125868   125878   125890   125903   125919   125937   125955 
  125968   125980   125990   125999   126009   126015   126015   126013 
  126007   126004   126000   125992   125982   125968   125953   125937 
  125921   125906   125891   125876   125861   125847   125834   125826 
  125821   125817   125814   125813   125811   125809   125803   125797 
  125788   125779   125771   125766   125760   125755   125747   125736 
  125728   125718   125707   125699   125691   125679   125666   125645 
  125625   125610   125595   125578   125559   125541   125527   125510 
  125485   125456   125428   125401   125373   125344   125319   125298 
  125284   125267   125251   125240   125228   125215   125207   125201 
  125197   125192   125193   125194   125197   125205   125213   125220 
  125227   125238   125248   125258   125267   125285   125302   125316 
  125331   125348   125365   125385   125402   125419   125433   125447 
  125460   125474   125479   125478   125482   125489   125493   125493 
  125490   125489   125487   125490   125496   125502   125506   125505 
  125504   125509   125520   125529   125540   125555   125567   125571 
  125579   125593   125601   125606   125616   125624   125628   125629 
  125631   125636   125647   125658   125668   125678   125687   125698 
  125713   125726   125736   125745   125752   125755   125757   125761 
  125766   125766   125768   125775   125783   125788   125794   125801 
  125813   125824   125833   125844   125853   125856   125863   125874 
  125879   125882   125884   125884   125884   125883   125879   125871 
  125864   125859   125849   125840   125832   125821   125806   125795 
  125783   125774   125770   125764   125760   125759   125757   125760 
  125761   125760   125763   125766   125768   125772   125778   125783 
  125783   125784   125790   125790   125783   125776   125770   125761 
  125752   125745   125739   125730   125725   125722   125716   125710 
  125705   125699   125698   125697   125694   125694   125691   125685 
  125682   125682   125682   125683   125685   125685   125689   125691 
  125690   125689   125689   125690   125690   125689   125687   125691 
  125694   125694   125697   125698   125694   125690   125687   125678 
  125667   125662   125659   125651   125641   125635   125624   125612 
  125601   125587   125574   125564   125555   125543   125532   125523 
  125514   125513   125509   125500   125498   125500   125496   125493 
  125493   125494   125493   125491   125494   125498   125498   125501 
  125506   125504   125500   125500   125500   125496   125490   125487 
  125479   125471   125464   125460   125455   125454   125451   125447 
  125447   125450   125452   125456   125463   125470   125479   125491 
  125498   125508   125521   125531   125540   125550   125556   125564 
  125575   125586   125595   125606   125616   125621   125626   125637 
  125647   125653   125660   125666   125667   125667   125668   125670 
  125671   125668   125666   125663   125659   125653   125647   125641 
  125639   125636   125633   125629   125625   125621   125620   125618 
  125616   125614   125610   125610   125612   125610   125609   125610 
  125613   125618   125624   125631   125637   125647   125653   125656 
  125658   125659   125659   125663   125666   125667   125674   125680 
  125680   125683   125691   125697   125703   125710   125714   125721 
  125729   125736   125737   125741   125748   125751   125755   125760 
  125763   125766   125772   125778   125782   125787   125793   125795 
  125802   125813   125822   125829   125832   125836   125841   125845 
  125847   125847   125848   125845   125845   125849   125844   125834 
  125826   125817   125805   125794   125780   125768   125761   125755 
  125744   125734   125728   125724   125717   125709   125701   125691 
  125680   125674   125670   125663   125655   125647   125639   125633 
  125629   125625   125621   125617   125613   125609   125602   125595 
  125593   125589   125590   125589   125587   125589   125589   125590 
  125597   125605   125609   125617   125625   125632   125639   125644 
  125651   125664   125676   125678   125685   125695   125698   125701 
  125705   125703   125698   125694   125689   125685   125682   125675 
  125668   125662   125653   125644   125637   125629   125621   125617 
  125614   125608   125602   125594   125586   125586   125590   125590 
  125590   125594   125598   125601   125605   125612   125621   125629 
  125636   125640   125647   125653   125662   125667   125670   125672 
  125678   125683   125691   125697   125701   125707   125716   125722 
  125725   125728   125739   125747   125753   125763   125771   125779 
  125790   125794   125801   125805   125801   125799   125801   125801 
  125801   125798   125793   125790   125790   125791   125788   125783 
  125780   125778   125775   125774   125776   125775   125778   125782 
  125782   125780   125780   125780   125780   125782   125778   125770 
  125760   125748   125736   125728   125721   125709   125698   125690 
  125682   125674   125660   125644   125629   125613   125599   125585 
  125571   125558   125545   125532   125517   125506   125500   125491 
  125481   125470   125460   125455   125450   125446   125446   125450 
  125452   125456   125464   125470   125475   125485   125491   125493 
  125500   125510   125513   125514   125523   125528   125528   125531 
  125535   125536   125540   125543   125547   125550   125550   125552 
  125558   125560   125562   125564   125567   125568   125571   125575 
  125578   125579   125582   125581   125578   125577   125577   125575 
  125572   125571   125571   125572   125572   125570   125568   125570 
  125570   125572   125577   125578   125577   125578   125579   125582 
  125583   125587   125590   125587   125587   125590   125589   125585 
  125577   125570   125566   125560   125558   125555   125548   125543 
  125544   125544   125543   125544   125541   125537   125536   125533 
  125532   125532   125531   125528   125527   125529   125533   125533 
  125533   125537   125540   125539   125537   125536   125532   125528 
  125524   125521   125520   125517   125514   125513   125514   125520 
  125524   125527   125535   125544   125552   125562   125574   125590 
  125605   125621   125641   125662   125682   125701   125721   125745 
  125767   125786   125807   125826   125844   125864   125882   125898 
  125910   125923   125937   125949   125956   125963   125969   125973 
  125972   125975   125976   125973   125971   125971   125969   125967 
