Origin Time       2025/06/03 22:18:00
Lat.              41.7
Long.             143.6
Depth. (km)       30
Mag.              5.2
Station Code      IKRH03
Station Lat.      42.8880
Station Long.     141.6399
Station Height(m) -242.5
Record Time       2025/06/03 22:19:27
Sampling Freq(Hz) 100Hz
Duration Time(s)  120
Dir.              2
Scale Factor      2942(gal)/8224139
Max. Acc. (gal)   0.222
Last Correction   2025/06/03 22:19:27
Memo.             
[...]
   54893    54873    54861    54857    54858    54873    54901    54931 
   54961    54988    55007    55021    55039    55053    55061    55069 
   55069    55063    55061    55065    55078    55100    55120    55144 
   55166    55186    55209    55228    55242    55260    55273    55278 
   55286    55296    55302    55309    55320    55336    55356    55378 
   55399    55413    55421    55432    55448    55470    55494    55513 
   55529    55537    55541    55548    55552    55557    55568    55572 
   55571    55568    55559    55537    55514    55487    55455    55425 
   55404    55386    55370    55356    55344    55329    55318    55312 
   55300    55287    55283    55282    55281    55281    55282    55291 
   55310    55333    55362    55393    55425    55456    55482    55501 
   55510    55506    55490    55471    55453    55439    55425    55414 
   55402    55387    55372    55355    55336    55316    55297    55283 
   55270    55250    55235    55227    55221    55219    55210    55189 
   55166    55142    55115    55089    55067    55050    55031    55016 
   55007    55000    54993    54985    54973    54962    54961    54969 
   54985    55008    55026    55034    55032    55023    55008    54993 
   54978    54963    54950    54940    54940    54947    54947    54942 
   54936    54931    54923    54922    54927    54936    54946    54961 
   54977    54986    54992    54994    54988    54981    54974    54965 
   54962    54966    54974    54985    54997    55015    55030    55044 
   55061    55071    55074    55074    55073    55071    55069    55063 
   55057    55048    55044    55040    55036    55036    55039    55042 
   55044    55050    55058    55073    55092    55105    55109    55107 
   55100    55093    55086    55075    55067    55063    55063    55062 
   55065    55069    55075    55085    55092    55096    55098    55098 
   55097    55105    55113    55116    55116    55115    55111    55107 
   55104    55102    55104    55107    55117    55135    55152    55173 
   55196    55219    55237    55254    55262    55270    55279    55286 
   55293    55298    55298    55297    55297    55290    55278    55262 
   55244    55232    55228    55235    55248    55263    55278    55290 
   55293    55291    55294    55301    55306    55308    55306    55304 
   55294    55281    55264    55244    55220    55193    55165    55142 
   55123    55109    55105    55101    55093    55084    55074    55070 
   55074    55080    55086    55096    55102    55108    55117    55124 
   55127    55129    55131    55128    55124    55121    55120    55125 
   55136    55143    55144    55150    55154    55150    55138    55120 
   55096    55074    55053    55035    55021    55009    55004    55001 
   54993    54986    54981    54973    54969    54969    54972    54978 
   54989    55003    55019    55034    55046    55063    55085    55101 
   55113    55127    55135    55138    55146    55150    55155    55166 
   55174    55178    55181    55178    55170    55161    55150    55138 
   55123    55105    55085    55066    55048    55036    55030    55027 
   55032    55042    55054    55071    55093    55116    55142    55159 
   55163    55163    55161    55151    55136    55120    55102    55086 
   55074    55063    55054    55043    55034    55034    55044    55062 
   55086    55116    55150    55186    55224    55264    55305    55341 
   55374    55402    55421    55436    55453    55464    55470    55471 
   55462    55449    55436    55417    55398    55383    55368    55351 
   55336    55325    55310    55289    55271    55266    55266    55271 
   55281    55291    55298    55300    55302    55312    55323    55335 
   55348    55358    55363    55360    55350    55339    55332    55325 
   55323    55321    55313    55300    55289    55283    55281    55277 
   55275    55277    55278    55285    55298    55309    55320    55332 
   55339    55340    55343    55350    55354    55356    55358    55354 
   55348    55344    55336    55331    55327    55324    55318    55312 
   55309    55308    55304    55296    55283    55270    55255    55233 
   55204    55166    55125    55089    55054    55023    55000    54982 
   54972    54966    54962    54961    54961    54962    54967    54977 
   54992    55008    55027    55057    55086    55112    55134    55148 
   55159    55167    55171    55177    55177    55166    55154    55142 
   55125    55108    55088    55061    55031    55003    54978    54957 
   54939    54930    54924    54920    54919    54920    54927    54938 
   54950    54962    54972    54980    54988    54999    55009    55017 
   55013    55003    54988    54969    54950    54940    54932    54924 
   54924    54930    54934    54936    54938    54942    54947    54954 
   54962    54966    54967    54969    54967    54966    54973    54980 
   54982    54988    54997    55008    55021    55032    55050    55070 
   55082    55089    55086    55074    55058    55036    55011    54978 
   54953    54934    54915    54905    54905    54904    54908    54926 
   54940    54955    54977    55004    55035    55073    55113    55154 
   55190    55229    55269    55308    55343    55372    55398    55425 
   55453    55482    55506    55525    55537    55544    55548    55545 
   55536    55533    55530    55524    55520    55520    55521    55525 
   55529    55529    55533    55540    55541    55547    55557    55568 
   55578    55588    55590    55583    55575    55561    55541    55517 
   55489    55462    55435    55406    55381    55354    55321    55286 
   55250    55206    55163    55121    55071    55020    54977    54936 
   54900    54869    54838    54812    54795    54776    54760    54750 
   54741    54733    54730    54729    54734    54747    54762    54774 
   54789    54808    54824    54841    54857    54872    54888    54896 
   54896    54897    54893    54882    54874    54873    54874    54878 
   54885    54893    54901    54909    54916    54927    54940    54955 
   54974    54997    55020    55044    55063    55078    55093    55109 
   55121    55131    55144    55165    55188    55212    55239    55266 
   55293    55320    55348    55375    55402    55426    55441    55449 
   55451    55447    55441    55436    55422    55408    55395    55382 
   55363    55341    55321    55296    55270    55252    55240    55229 
   55216    55205    55201    55198    55189    55183    55188    55194 
   55201    55210    55219    55232    55246    55254    55256    55258 
   55255    55250    55239    55220    55194    55169    55147    55124 
   55101    55080    55057    55032    55008    54980    54957    54939 
   54915    54895    54876    54851    54834    54819    54805    54804 
   54804    54807    54816    54827    54843    54869    54893    54920 
   54953    54985    55019    55054    55080    55102    55123    55143 
   55163    55181    55196    55206    55213    55213    55208    55200 
   55196    55194    55194    55192    55181    55170    55159    55140 
   55116    55089    55063    55042    55027    55017    55012    55011 
   55016    55023    55030    55042    55058    55074    55089    55101 
   55109    55111    55115    55123    55128    55134    55144    55152 
   55158    55167    55175    55179    55183    55185    55186    55190 
   55188    55186    55197    55210    55221    55232    55244    55258 
   55274    55297    55323    55348    55372    55391    55416    55448 
   55474    55497    55524    55549    55568    55587    55610    55629 
   55641    55651    55653    55648    55637    55622    55605    55590 
   55578    55567    55552    55536    55525    55517    55510    55512 
   55518    55528    55537    55547    55561    55575    55584    55591 
   55593    55590    55588    55582    55567    55551    55537    55520 
   55499    55476    55453    55428    55402    55377    55352    55328 
   55302    55273    55243    55210    55179    55151    55121    55088 
   55057    55028    55004    54989    54984    54988    54999    55013 
   55032    55051    55077    55107    55136    55167    55200    55227 
   55251    55271    55286    55294    55301    55302    55297    55293 
   55287    55278    55262    55244    55227    55204    55175    55147 
   55113    55078    55050    55021    54992    54963    54939    54916 
   54896    54880    54859    54837    54820    54808    54793    54781 
   54772    54765    54758    54757    54760    54757    54750    54746 
   54742    54735    54734    54735    54733    54734    54739    54738 
   54737    54733    54727    54731    54742    54750    54762    54783 
   54803    54820    54842    54868    54892    54919    54946    54976 
   55008    55040    55071    55105    55134    55156    55179    55197 
   55206    55220    55232    55237    55248    55260    55267    55270 
   55269    55262    55256    55251    55247    55239    55231    55227 
   55228    55232    55232    55231    55231    55227    55221    55217 
   55212    55202    55197    55193    55189    55189    55186    55179 
   55175    55175    55174    55175    55188    55198    55201    55206 
   55213    55220    55229    55240    55242    55235    55232    55225 
   55216    55213    55215    55215    55217    55224    55233    55244 
   55260    55273    55279    55287    55298    55304    55309    55318 
   55325    55328    55332    55333    55332    55329    55317    55297 
   55278    55263    55248    55229    55210    55193    55175    55162 
   55150    55136    55124    55111    55093    55073    55053    55035 
   55020    55011    55007    55000    54990    54982    54974    54967 
   54961    54949    54935    54926    54924    54928    54927    54924 
   54930    54934    54935    54936    54938    54938    54938    54940 
   54950    54961    54973    54989    55011    55031    55053    55080 
   55107    55135    55163    55192    55217    55235    55246    55258 
   55271    55275    55274    55273    55269    55264    55262    55256 
   55247    55239    55232    55225    55220    55217    55209    55201 
   55196    55188    55179    55170    55163    55156    55146    55129 
   55120    55115    55104    55092    55085    55081    55081    55084 
   55092    55101    55104    55109    55117    55123    55128    55136 
   55144    55147    55144    55144    55142    55140    55146    55154 
   55161    55174    55190    55206    55224    55242    55258    55274 
   55291    55308    55317    55320    55324    55333    55344    55354 
   55364    55371    55370    55370    55368    55363    55352    55336 
   55318    55304    55282    55256    55237    55219    55189    55161 
   55136    55112    55090    55071    55055    55039    55019    55005 
   54994    54980    54966    54954    54942    54930    54924    54930 
   54939    54950    54961    54972    54984    54994    55005    55012 
   55012    55012    55011    55003    54990    54977    54962    54947 
   54934    54922    54908    54895    54885    54878    54878    54878 
   54874    54878    54889    54900    54912    54926    54935    54945 
   54959    54981    54997    55011    55035    55058    55074    55098 
   55124    55142    55159    55177    55189    55205    55219    55224 
   55232    55236    55233    55228    55217    55205    55196    55192 
   55189    55183    55178    55179    55178    55177    55183    55188 
   55193    55205    55212    55215    55224    55236    55244    55254 
   55264    55271    55273    55273    55278    55286    55286    55282 
   55279    55274    55267    55266    55266    55260    55256    55254 
   55243    55229    55215    55198    55185    55170    55151    55129 
   55112    55096    55080    55066    55057    55050    55044    55040 
   55039    55047    55059    55071    55088    55107    55125    55143 
   55161    55178    55192    55202    55217    55229    55235    55240 
   55246    55254    55260    55264    55274    55291    55305    55312 
   55324    55339    55350    55362    55375    55386    55394    55402 
   55417    55435    55453    55471    55485    55495    55506    55514 
   55518    55521    55528    55530    55524    55514    55506    55486 
   55460    55436    55406    55371    55339    55308    55277    55252 
   55229    55208    55193    55179    55165    55152    55134    55117 
   55105    55086    55067    55053    55030    55008    54993    54976 
   54966    54966    54966    54970    54974    54978    54992    55005 
   55013    55032    55058    55082    55109    55139    55167    55196 
   55219    55239    55258    55278    55301    55323    55343    55363 
   55379    55393    55405    55413    55417    55421    55425    55428 
   55429    55428    55424    55418    55412    55405    55395    55385 
   55375    55366    55356    55348    55336    55324    55313    55300 
   55289    55281    55271    55266    55266    55267    55267    55269 
   55267    55267    55273    55277    55282    55294    55308    55318 
   55328    55335    55344    55351    55354    55358    55360    55352 
   55343    55333    55321    55310    55296    55283    55273    55260 
   55252    55244    55235    55228    55219    55205    55194    55185 
   55175    55169    55162    55151    55136    55123    55107    55085 
   55063    55048    55030    55005    54978    54953    54927    54905 
   54881    54855    54828    54807    54788    54768    54753    54738 
   54716    54691    54670    54646    54622    54607    54587    54567 
   54557    54546    54537    54535    54535    54537    54548    54558 
   54567    54580    54594    54608    54623    54637    54650    54666 
   54684    54703    54722    54738    54751    54762    54773    54783 
   54791    54803    54823    54847    54876    54904    54926    54945 
   54967    54992    55016    55035    55055    55077    55096    55113 
   55132    55147    55162    55175    55179    55182    55189    55196 
   55200    55208    55220    55229    55236    55242    55236    55227 
   55224    55220    55216    55219    55221    55223    55229    55231 
   55227    55229    55233    55231    55232    55242    55255    55269 
   55283    55301    55317    55329    55337    55347    55352    55351 
   55347    55351    55355    55355    55358    55359    55355    55350 
   55340    55328    55320    55309    55300    55293    55287    55278 
   55264    55260    55264    55260    55254    55251    55250    55250 
   55247    55247    55255    55259    55260    55262    55259    55254 
   55248    55242    55236    55232    55228    55225    55221    55220 
   55220    55220    55220    55219    55223    55233    55247    55262 
   55278    55294    55313    55333    55352    55370    55385    55399 
   55413    55422    55435    55445    55455    55466    55471    55475 
   55480    55485    55486    55485    55483    55482    55474    55463 
   55449    55439    55425    55412    55398    55385    55368    55354 
   55340    55327    55316    55310    55308    55304    55301    55298 
   55293    55282    55273    55263    55251    55240    55227    55213 
   55198    55188    55181    55167    55150    55139    55128    55111 
   55098    55093    55086    55086    55092    55089    55086    55086 
   55081    55069    55065    55062    55057    55053    55048    55046 
   55051    55058    55062    55069    55077    55075    55077    55084 
   55090    55104    55119    55127    55136    55143    55140    55140 
   55140    55135    55140    55148    55140    55136    55142    55140 
   55131    55123    55115    55100    55084    55069    55054    55038 
   55024    55011    54996    54977    54955    54939    54922    54896 
   54876    54859    54841    54827    54814    54801    54795    54788 
   54781    54780    54778    54773    54768    54766    54772    54772 
   54766    54765    54770    54781    54789    54801    54820    54845 
   54862    54877    54895    54905    54916    54932    54946    54957 
   54965    54972    54982    54988    54989    54990    54989    54992 
   54994    54997    54996    54994    54996    54996    54992    54992 
   54996    54993    54990    54994    54997    54997    55000    55003 
   55003    55004    55007    55009    55015    55021    55031    55042 
   55055    55071    55082    55096    55112    55119    55127    55140 
   55150    55165    55186    55204    55219    55235    55250    55263 
   55274    55285    55300    55313    55325    55339    55352    55364 
   55378    55393    55399    55408    55417    55418    55420    55426 
   55432    55436    55443    55449    55458    55462    55463    55463 
   55459    55453    55451    55449    55448    55444    55439    55433 
   55429    55421    55409    55398    55387    55372    55360    55355 
   55343    55328    55320    55312    55300    55287    55278    55270 
   55263    55256    55247    55235    55223    55209    55200    55196 
   55192    55183    55183    55188    55190    55193    55197    55200 
   55206    55213    55217    55225    55237    55248    55262    55275 
   55283    55290    55301    55310    55317    55325    55335    55341 
   55352    55362    55366    55370    55377    55378    55375    55374 
   55371    55371    55372    55371    55370    55370    55363    55358 
   55354    55348    55345    55343    55339    55332    55331    55325 
   55313    55301    55290    55279    55271    55260    55248    55239 
   55228    55216    55205    55197    55188    55179    55171    55162 
   55152    55143    55136    55125    55108    55090    55077    55059 
   55043    55031    55017    55003    54992    54982    54974    54966 
   54957    54947    54939    54935    54932    54934    54938    54946 
   54954    54958    54959    54963    54963    54962    54961    54959 
   54962    54967    54970    54970    54978    54986    54989    54993 
   54994    54993    54996    55001    55009    55015    55024    55034 
   55039    55047    55058    55069    55077    55086    55098    55107 
   55115    55127    55134    55135    55140    55142    55143    55147 
   55147    55148    55158    55166    55170    55174    55173    55174 
   55179    55182    55183    55185    55189    55190    55193    55192 
   55188    55186    55185    55183    55185    55183    55175    55170 
   55166    55161    55156    55151    55146    55139    55131    55125 
   55120    55113    55107    55104    55100    55094    55092    55090 
   55093    55093    55090    55090    55089    55088    55085    55078 
   55067    55062    55058    55055    55058    55062    55063    55067 
   55071    55077    55082    55082    55085    55093    55101    55111 
   55121    55129    55136    55142    55147    55150    55155    55159 
   55162    55169    55179    55193    55206    55216    55225    55232 
   55237    55244    55251    55258    55262    55264    55269    55274 
   55275    55273    55274    55275    55275    55273    55273    55274 
   55274    55273    55270    55273    55270    55258    55254    55252 
   55247    55244    55246    55242    55236    55229    55220    55208 
   55198    55193    55186    55181    55183    55185    55181    55183 
   55189    55188    55190    55200    55209    55217    55229    55239 
   55248    55263    55274    55282    55296    55308    55317    55329 
   55339    55347    55354    55360    55367    55370    55368    55368 
