Origin Time       2025/06/03 22:18:00
Lat.              41.7
Long.             143.6
Depth. (km)       30
Mag.              5.2
Station Code      IKRH03
Station Lat.      42.8880
Station Long.     141.6399
Station Height(m) 10
Record Time       2025/06/03 22:19:27
Sampling Freq(Hz) 100Hz
Duration Time(s)  120
Dir.              6
Scale Factor      7845(gal)/8223790
Max. Acc. (gal)   0.246
Last Correction   2025/06/03 22:19:27
Memo.             
[...]
  -10359   -10366   -10370   -10370   -10368   -10368   -10366   -10369 
  -10376   -10376   -10377   -10380   -10377   -10370   -10363   -10359 
  -10361   -10362   -10368   -10370   -10368   -10373   -10377   -10380 
  -10393   -10404   -10404   -10408   -10411   -10408   -10401   -10395 
  -10393   -10386   -10377   -10376   -10372   -10358   -10353   -10354 
  -10353   -10350   -10350   -10353   -10353   -10357   -10362   -10366 
  -10366   -10368   -10368   -10370   -10374   -10378   -10386   -10396 
  -10400   -10404   -10403   -10400   -10401   -10403   -10408   -10415 
  -10420   -10434   -10444   -10451   -10459   -10462   -10465   -10474 
  -10480   -10484   -10489   -10490   -10492   -10496   -10498   -10504 
  -10508   -10515   -10523   -10520   -10520   -10527   -10527   -10528 
  -10531   -10530   -10528   -10525   -10520   -10516   -10511   -10515 
  -10520   -10524   -10531   -10531   -10525   -10523   -10517   -10511 
  -10507   -10504   -10501   -10498   -10496   -10494   -10492   -10490 
  -10493   -10493   -10490   -10488   -10484   -10480   -10474   -10469 
  -10467   -10459   -10454   -10458   -10458   -10458   -10466   -10466 
  -10463   -10462   -10457   -10447   -10436   -10427   -10424   -10424 
  -10426   -10424   -10416   -10415   -10416   -10415   -10416   -10413 
  -10411   -10416   -10422   -10427   -10432   -10430   -10426   -10422 
  -10413   -10408   -10401   -10395   -10392   -10382   -10374   -10372 
  -10368   -10372   -10376   -10372   -10374   -10376   -10374   -10378 
  -10376   -10373   -10373   -10368   -10359   -10347   -10336   -10330 
  -10323   -10320   -10323   -10322   -10319   -10322   -10322   -10319 
  -10307   -10293   -10284   -10274   -10269   -10269   -10264   -10262 
  -10265   -10270   -10280   -10284   -10285   -10289   -10284   -10284 
  -10291   -10291   -10295   -10300   -10303   -10307   -10307   -10308 
  -10314   -10311   -10309   -10312   -10309   -10314   -10316   -10314 
  -10312   -10311   -10309   -10311   -10308   -10309   -10319   -10324 
  -10332   -10342   -10349   -10358   -10363   -10373   -10384   -10386 
  -10388   -10389   -10384   -10381   -10380   -10377   -10381   -10382 
  -10377   -10373   -10366   -10358   -10353   -10346   -10343   -10341 
  -10338   -10341   -10338   -10342   -10349   -10349   -10351   -10358 
  -10357   -10357   -10366   -10377   -10388   -10393   -10399   -10405 
  -10408   -10419   -10436   -10444   -10449   -10450   -10450   -10455 
  -10455   -10455   -10458   -10458   -10463   -10471   -10471   -10467 
  -10459   -10447   -10439   -10428   -10423   -10420   -10411   -10405 
  -10403   -10401   -10407   -10409   -10409   -10416   -10420   -10422 
  -10430   -10432   -10431   -10435   -10439   -10444   -10449   -10453 
  -10461   -10466   -10471   -10476   -10476   -10476   -10476   -10473 
  -10473   -10471   -10473   -10473   -10465   -10463   -10465   -10461 
  -10462   -10462   -10458   -10458   -10457   -10458   -10458   -10451 
  -10451   -10451   -10440   -10432   -10428   -10417   -10409   -10397 
  -10389   -10388   -10385   -10382   -10382   -10380   -10377   -10373 
  -10369   -10369   -10368   -10366   -10368   -10365   -10361   -10358 
  -10353   -10351   -10353   -10350   -10351   -10354   -10357   -10362 
  -10366   -10370   -10377   -10382   -10388   -10396   -10400   -10404 
  -10405   -10405   -10403   -10397   -10392   -10389   -10386   -10386 
  -10388   -10388   -10393   -10393   -10389   -10388   -10385   -10386 
  -10388   -10381   -10378   -10376   -10369   -10365   -10361   -10362 
  -10366   -10361   -10359   -10359   -10351   -10350   -10347   -10341 
  -10336   -10324   -10309   -10301   -10292   -10285   -10280   -10272 
  -10269   -10272   -10273   -10276   -10282   -10293   -10304   -10308 
  -10315   -10322   -10326   -10332   -10339   -10347   -10361   -10374 
  -10385   -10392   -10392   -10390   -10386   -10386   -10393   -10393 
  -10396   -10399   -10396   -10393   -10390   -10388   -10390   -10389 
  -10384   -10381   -10380   -10378   -10378   -10377   -10378   -10372 
  -10361   -10357   -10351   -10338   -10332   -10327   -10323   -10324 
  -10320   -10315   -10316   -10319   -10322   -10326   -10332   -10339 
  -10342   -10346   -10355   -10362   -10368   -10374   -10381   -10385 
  -10389   -10399   -10407   -10411   -10419   -10427   -10428   -10436 
  -10446   -10447   -10451   -10457   -10458   -10462   -10461   -10461 
  -10461   -10458   -10458   -10462   -10461   -10461   -10461   -10459 
  -10461   -10455   -10450   -10447   -10444   -10444   -10446   -10447 
  -10451   -10449   -10444   -10444   -10439   -10439   -10443   -10440 
  -10440   -10440   -10436   -10440   -10442   -10444   -10451   -10451 
  -10453   -10457   -10450   -10442   -10434   -10426   -10424   -10423 
  -10417   -10409   -10396   -10386   -10380   -10370   -10370   -10372 
  -10363   -10359   -10355   -10353   -10353   -10351   -10349   -10347 
  -10343   -10339   -10331   -10322   -10319   -10318   -10319   -10323 
  -10320   -10318   -10314   -10308   -10305   -10304   -10307   -10316 
  -10319   -10319   -10323   -10324   -10324   -10323   -10326   -10331 
  -10331   -10334   -10343   -10346   -10349   -10357   -10359   -10363 
  -10369   -10370   -10374   -10381   -10384   -10389   -10393   -10393 
  -10399   -10401   -10403   -10405   -10411   -10419   -10423   -10424 
  -10430   -10431   -10432   -10436   -10438   -10447   -10455   -10457 
  -10462   -10463   -10462   -10469   -10473   -10476   -10482   -10489 
  -10496   -10501   -10503   -10509   -10512   -10515   -10521   -10521 
  -10519   -10515   -10505   -10503   -10504   -10503   -10507   -10509 
  -10511   -10513   -10512   -10513   -10516   -10512   -10512   -10512 
  -10508   -10508   -10507   -10503   -10503   -10503   -10498   -10494 
  -10489   -10486   -10485   -10485   -10488   -10489   -10493   -10497 
  -10493   -10490   -10490   -10485   -10482   -10480   -10474   -10466 
  -10455   -10451   -10450   -10439   -10434   -10427   -10417   -10416 
  -10417   -10413   -10416   -10419   -10420   -10424   -10427   -10430 
  -10430   -10424   -10427   -10428   -10426   -10426   -10426   -10423 
  -10419   -10411   -10408   -10411   -10411   -10409   -10407   -10401 
  -10404   -10407   -10408   -10405   -10395   -10388   -10381   -10372 
  -10366   -10358   -10347   -10342   -10336   -10330   -10322   -10314 
  -10309   -10299   -10285   -10278   -10270   -10261   -10255   -10245 
  -10230   -10219   -10210   -10199   -10188   -10181   -10180   -10174 
  -10172   -10176   -10174   -10174   -10174   -10172   -10173   -10179 
  -10185   -10196   -10204   -10211   -10220   -10227   -10237   -10245 
  -10250   -10261   -10270   -10273   -10277   -10278   -10281   -10285 
  -10285   -10291   -10299   -10303   -10307   -10305   -10301   -10301 
  -10299   -10299   -10303   -10299   -10296   -10299   -10299   -10305 
  -10307   -10301   -10301   -10300   -10297   -10300   -10303   -10304 
  -10307   -10307   -10311   -10315   -10318   -10322   -10326   -10328 
  -10331   -10334   -10338   -10343   -10347   -10355   -10361   -10365 
  -10373   -10378   -10382   -10389   -10389   -10388   -10393   -10396 
  -10400   -10403   -10403   -10408   -10409   -10411   -10416   -10422 
  -10426   -10431   -10436   -10443   -10446   -10451   -10459   -10466 
  -10476   -10484   -10486   -10493   -10498   -10496   -10498   -10500 
  -10500   -10505   -10507   -10509   -10517   -10523   -10532   -10542 
  -10548   -10561   -10569   -10571   -10579   -10584   -10589   -10592 
  -10592   -10594   -10594   -10594   -10597   -10592   -10586   -10584 
  -10579   -10582   -10581   -10579   -10586   -10584   -10575   -10570 
  -10563   -10558   -10552   -10543   -10534   -10523   -10515   -10512 
  -10503   -10496   -10494   -10488   -10481   -10474   -10465   -10459 
  -10453   -10444   -10440   -10435   -10427   -10426   -10419   -10405 
  -10397   -10390   -10382   -10372   -10362   -10357   -10347   -10338 
  -10334   -10328   -10328   -10334   -10335   -10341   -10343   -10343 
  -10346   -10349   -10349   -10358   -10366   -10369   -10374   -10378 
  -10382   -10388   -10395   -10405   -10411   -10417   -10427   -10430 
  -10432   -10434   -10434   -10442   -10444   -10442   -10443   -10443 
  -10440   -10436   -10431   -10427   -10422   -10411   -10409   -10408 
  -10401   -10397   -10397   -10397   -10397   -10392   -10390   -10385 
  -10377   -10374   -10372   -10366   -10365   -10355   -10347   -10342 
  -10332   -10330   -10327   -10318   -10319   -10320   -10316   -10318 
  -10320   -10326   -10330   -10330   -10335   -10338   -10338   -10349 
  -10357   -10358   -10361   -10362   -10363   -10366   -10362   -10363 
  -10368   -10366   -10366   -10365   -10358   -10351   -10347   -10345 
  -10339   -10331   -10326   -10315   -10308   -10312   -10308   -10301 
  -10300   -10299   -10296   -10295   -10293   -10292   -10289   -10287 
  -10285   -10281   -10278   -10280   -10276   -10268   -10262   -10260 
  -10258   -10254   -10247   -10243   -10241   -10237   -10237   -10235 
  -10234   -10231   -10230   -10233   -10235   -10234   -10231   -10231 
  -10234   -10233   -10226   -10224   -10228   -10230   -10234   -10237 
  -10235   -10237   -10242   -10250   -10258   -10262   -10268   -10272 
  -10277   -10291   -10301   -10309   -10326   -10339   -10350   -10361 
  -10372   -10386   -10404   -10420   -10436   -10449   -10462   -10477 
  -10485   -10493   -10500   -10501   -10508   -10517   -10528   -10539 
  -10542   -10542   -10547   -10550   -10555   -10565   -10570   -10577 
  -10579   -10577   -10577   -10573   -10573   -10575   -10574   -10574 
  -10574   -10573   -10575   -10574   -10571   -10574   -10570   -10565 
  -10562   -10554   -10548   -10544   -10540   -10542   -10538   -10530 
  -10527   -10519   -10512   -10507   -10497   -10489   -10481   -10466 
  -10458   -10454   -10447   -10443   -10438   -10431   -10427   -10420 
  -10422   -10422   -10417   -10419   -10423   -10423   -10427   -10431 
  -10435   -10442   -10446   -10449   -10447   -10447   -10449   -10444 
  -10444   -10447   -10442   -10431   -10427   -10423   -10422   -10423 
  -10419   -10415   -10409   -10403   -10399   -10392   -10385   -10381 
  -10376   -10376   -10374   -10366   -10362   -10359   -10359   -10363 
  -10359   -10357   -10353   -10347   -10349   -10347   -10343   -10346 
  -10346   -10343   -10347   -10349   -10349   -10350   -10350   -10351 
  -10353   -10351   -10354   -10353   -10351   -10353   -10349   -10345 
  -10343   -10336   -10331   -10324   -10319   -10316   -10309   -10304 
  -10301   -10295   -10292   -10295   -10289   -10287   -10285   -10284 
  -10288   -10287   -10287   -10293   -10299   -10301   -10303   -10300 
  -10305   -10308   -10308   -10314   -10315   -10316   -10319   -10319 
  -10324   -10332   -10338   -10350   -10361   -10368   -10380   -10385 
  -10389   -10401   -10409   -10417   -10427   -10435   -10443   -10450 
  -10454   -10463   -10471   -10477   -10482   -10484   -10490   -10497 
  -10498   -10504   -10507   -10507   -10508   -10509   -10515   -10517 
  -10515   -10516   -10515   -10507   -10501   -10496   -10492   -10489 
  -10482   -10478   -10476   -10466   -10461   -10453   -10438   -10431 
  -10426   -10413   -10408   -10399   -10392   -10390   -10386   -10380 
  -10377   -10372   -10369   -10365   -10363   -10366   -10365   -10365 
  -10363   -10357   -10358   -10361   -10357   -10358   -10357   -10350 
  -10349   -10343   -10336   -10334   -10330   -10327   -10323   -10316 
  -10318   -10318   -10312   -10309   -10307   -10305   -10305   -10303 
  -10301   -10299   -10292   -10289   -10281   -10277   -10281   -10281 
  -10282   -10285   -10287   -10288   -10292   -10296   -10301   -10305 
  -10314   -10322   -10326   -10330   -10332   -10335   -10343   -10350 
  -10357   -10362   -10363   -10369   -10377   -10382   -10390   -10395 
  -10400   -10415   -10424   -10430   -10439   -10444   -10454   -10469 
  -10478   -10485   -10492   -10498   -10507   -10513   -10517   -10523 
  -10524   -10528   -10532   -10532   -10540   -10544   -10543   -10543 
  -10542   -10536   -10531   -10528   -10525   -10521   -10515   -10511 
  -10504   -10497   -10496   -10488   -10481   -10476   -10467   -10459 
  -10450   -10435   -10423   -10412   -10400   -10395   -10384   -10373 
  -10369   -10363   -10357   -10349   -10338   -10335   -10331   -10323 
  -10320   -10314   -10308   -10309   -10305   -10299   -10297   -10295 
  -10292   -10288   -10287   -10291   -10289   -10289   -10293   -10295 
  -10293   -10297   -10299   -10299   -10299   -10303   -10308   -10308 
  -10309   -10312   -10312   -10314   -10319   -10323   -10331   -10342 
  -10351   -10362   -10369   -10378   -10392   -10403   -10415   -10428 
  -10440   -10454   -10463   -10470   -10482   -10490   -10496   -10505 
  -10513   -10521   -10524   -10523   -10525   -10527   -10527   -10532 
  -10534   -10538   -10546   -10546   -10547   -10548   -10546   -10544 
  -10540   -10534   -10530   -10523   -10517   -10513   -10508   -10505 
  -10500   -10493   -10490   -10484   -10476   -10477   -10471   -10463 
  -10457   -10449   -10446   -10442   -10436   -10434   -10427   -10420 
  -10413   -10399   -10392   -10389   -10381   -10376   -10372   -10368 
  -10366   -10359   -10354   -10353   -10343   -10336   -10330   -10320 
  -10315   -10305   -10293   -10285   -10273   -10257   -10246   -10235 
  -10226   -10214   -10201   -10196   -10185   -10173   -10165   -10157 
  -10149   -10149   -10146   -10142   -10138   -10135   -10135   -10135 
  -10135   -10139   -10143   -10149   -10154   -10157   -10164   -10168 
  -10173   -10187   -10195   -10201   -10214   -10222   -10230   -10239 
  -10242   -10251   -10264   -10268   -10273   -10281   -10287   -10296 
  -10300   -10305   -10315   -10324   -10332   -10341   -10347   -10357 
  -10363   -10369   -10380   -10388   -10400   -10411   -10420   -10438 
  -10451   -10458   -10467   -10477   -10485   -10497   -10505   -10513 
  -10523   -10527   -10534   -10540   -10544   -10552   -10557   -10557 
  -10562   -10566   -10563   -10561   -10561   -10562   -10561   -10558 
  -10559   -10555   -10554   -10559   -10557   -10552   -10550   -10544 
  -10542   -10539   -10531   -10531   -10527   -10519   -10516   -10513 
  -10513   -10512   -10508   -10505   -10498   -10486   -10485   -10478 
  -10470   -10466   -10457   -10447   -10438   -10424   -10420   -10417 
  -10413   -10409   -10401   -10397   -10390   -10380   -10380   -10378 
  -10374   -10378   -10380   -10376   -10374   -10372   -10373   -10376 
  -10373   -10376   -10377   -10377   -10382   -10382   -10381   -10386 
  -10389   -10395   -10404   -10409   -10417   -10424   -10427   -10435 
  -10440   -10447   -10454   -10459   -10463   -10466   -10467   -10473 
  -10473   -10473   -10478   -10478   -10477   -10477   -10474   -10470 
  -10467   -10465   -10463   -10459   -10454   -10455   -10453   -10450 
  -10453   -10447   -10440   -10438   -10435   -10436   -10435   -10434 
  -10434   -10430   -10427   -10427   -10422   -10419   -10417   -10415 
  -10413   -10412   -10405   -10401   -10401   -10401   -10397   -10390 
  -10389   -10388   -10382   -10382   -10384   -10381   -10381   -10381 
  -10378   -10376   -10373   -10372   -10372   -10372   -10376   -10377 
  -10376   -10378   -10378   -10381   -10385   -10388   -10393   -10392 
  -10385   -10385   -10385   -10382   -10382   -10381   -10376   -10370 
  -10370   -10372   -10366   -10359   -10359   -10355   -10349   -10349 
  -10347   -10345   -10339   -10336   -10335   -10326   -10318   -10320 
  -10316   -10314   -10315   -10312   -10312   -10315   -10308   -10307 
  -10309   -10311   -10311   -10311   -10309   -10311   -10309   -10309 
  -10311   -10311   -10312   -10314   -10311   -10312   -10311   -10307 
  -10308   -10303   -10299   -10297   -10292   -10288   -10282   -10276 
  -10272   -10265   -10258   -10255   -10253   -10254   -10253   -10249 
  -10250   -10247   -10245   -10247   -10249   -10249   -10250   -10253 
  -10257   -10261   -10264   -10270   -10277   -10288   -10299   -10304 
  -10314   -10324   -10328   -10336   -10349   -10354   -10361   -10366 
  -10374   -10385   -10392   -10397   -10399   -10401   -10411   -10417 
  -10420   -10430   -10435   -10440   -10447   -10451   -10458   -10463 
  -10465   -10473   -10481   -10481   -10482   -10486   -10486   -10486 
  -10488   -10489   -10490   -10488   -10488   -10485   -10482   -10484 
  -10482   -10480   -10480   -10481   -10481   -10482   -10482   -10484 
  -10484   -10484   -10484   -10477   -10471   -10471   -10470   -10469 
  -10470   -10470   -10469   -10465   -10461   -10461   -10459   -10458 
  -10457   -10450   -10444   -10439   -10431   -10427   -10424   -10420 
  -10419   -10412   -10405   -10403   -10395   -10388   -10382   -10376 
  -10372   -10365   -10357   -10359   -10355   -10347   -10347   -10346 
  -10347   -10349   -10345   -10347   -10349   -10347   -10353   -10354 
  -10355   -10361   -10363   -10368   -10369   -10370   -10377   -10382 
  -10388   -10397   -10399   -10405   -10416   -10420   -10428   -10435 
  -10438   -10442   -10444   -10450   -10454   -10457   -10463   -10467 
  -10469   -10477   -10484   -10486   -10494   -10500   -10503   -10507 
  -10508   -10513   -10517   -10517   -10520   -10525   -10528   -10530 
  -10528   -10531   -10532   -10527   -10530   -10531   -10525   -10527 
  -10528   -10523   -10521   -10517   -10513   -10509   -10505   -10503 
  -10497   -10486   -10482   -10480   -10470   -10462   -10453   -10446 
  -10439   -10432   -10426   -10416   -10405   -10397   -10388   -10378 
  -10370   -10359   -10349   -10342   -10334   -10327   -10322   -10315 
  -10311   -10305   -10300   -10293   -10288   -10284   -10281   -10277 
  -10280   -10280   -10277   -10280   -10282   -10282   -10284   -10281 
  -10282   -10288   -10288   -10292   -10297   -10299   -10304   -10308 
  -10309   -10318   -10320   -10324   -10331   -10332   -10336   -10341 
  -10341   -10345   -10345   -10347   -10357   -10358   -10358   -10363 
  -10362   -10366   -10369   -10366   -10368   -10368   -10368   -10372 
  -10366   -10365   -10369   -10365   -10362   -10359   -10351   -10347 
  -10346   -10343   -10343   -10342   -10342   -10342   -10338   -10338 
  -10338   -10336   -10339   -10342   -10345   -10349   -10349   -10353 
  -10357   -10359   -10366   -10369   -10369   -10373   -10370   -10368 
  -10369   -10368   -10368   -10369   -10368   -10368   -10366   -10366 
  -10372   -10370   -10368   -10369   -10362   -10357   -10357   -10354 
  -10351   -10350   -10347   -10346   -10341   -10336   -10334   -10330 
  -10330   -10328   -10323   -10323   -10326   -10326   -10327   -10324 
  -10323   -10323   -10323   -10327   -10330   -10328   -10335   -10339 
  -10339   -10341   -10341   -10346   -10350   -10350   -10357   -10362 
  -10365   -10370   -10373   -10377   -10385   -10390   -10399   -10408 
  -10409   -10413   -10419   -10419   -10420   -10420   -10422   -10423 
  -10420   -10420   -10423   -10424   -10428   -10434   -10438   -10440 
  -10439   -10443   -10447   -10447   -10451   -10457   -10459   -10465 
  -10462   -10459   -10463   -10466   -10466   -10466   -10466   -10469 
  -10467   -10463   -10465   -10465   -10462   -10463   -10463   -10463 
  -10462   -10463   -10466   -10470   -10474   -10477   -10476   -10473 
