Origin Time       2025/06/03 22:18:00
Lat.              41.7
Long.             143.6
Depth. (km)       30
Mag.              5.2
Station Code      IKRH03
Station Lat.      42.8880
Station Long.     141.6399
Station Height(m) 10
Record Time       2025/06/03 22:19:27
Sampling Freq(Hz) 100Hz
Duration Time(s)  120
Dir.              5
Scale Factor      7845(gal)/8223790
Max. Acc. (gal)   0.594
Last Correction   2025/06/03 22:19:27
Memo.             
[...]
   -3505    -3522    -3541    -3558    -3566    -3568    -3572    -3565 
   -3549    -3531    -3507    -3483    -3466    -3451    -3443    -3449 
   -3462    -3483    -3508    -3537    -3564    -3586    -3608    -3624 
   -3634    -3639    -3645    -3649    -3651    -3646    -3626    -3601 
   -3576    -3550    -3528    -3515    -3505    -3501    -3501    -3496 
   -3478    -3458    -3439    -3416    -3400    -3389    -3379    -3375 
   -3377    -3375    -3369    -3369    -3373    -3381    -3399    -3424 
   -3449    -3472    -3499    -3518    -3523    -3522    -3519    -3523 
   -3535    -3547    -3559    -3572    -3577    -3576    -3569    -3549 
   -3534    -3526    -3516    -3504    -3489    -3472    -3453    -3424 
   -3393    -3368    -3353    -3353    -3365    -3385    -3408    -3427 
   -3449    -3470    -3484    -3492    -3508    -3532    -3557    -3574 
   -3581    -3573    -3551    -3526    -3500    -3473    -3454    -3447 
   -3450    -3460    -3472    -3487    -3503    -3516    -3528    -3535 
   -3535    -3545    -3558    -3561    -3559    -3553    -3535    -3511 
   -3485    -3458    -3433    -3414    -3403    -3397    -3406    -3424 
   -3451    -3483    -3515    -3545    -3568    -3584    -3595    -3600 
   -3597    -3585    -3562    -3535    -3507    -3480    -3460    -3453 
   -3460    -3465    -3468    -3474    -3472    -3460    -3451    -3445 
   -3433    -3427    -3427    -3429    -3438    -3445    -3443    -3443 
   -3439    -3429    -3426    -3430    -3437    -3447    -3456    -3458 
   -3457    -3453    -3447    -3439    -3434    -3435    -3439    -3441 
   -3442    -3450    -3465    -3477    -3484    -3488    -3495    -3508 
   -3520    -3528    -3537    -3542    -3541    -3541    -3545    -3546 
   -3539    -3530    -3527    -3527    -3524    -3527    -3542    -3562 
   -3585    -3608    -3628    -3645    -3658    -3667    -3676    -3673 
   -3659    -3645    -3630    -3608    -3589    -3578    -3580    -3589 
   -3597    -3597    -3588    -3578    -3570    -3551    -3526    -3504 
   -3485    -3470    -3466    -3462    -3454    -3456    -3457    -3450 
   -3441    -3441    -3457    -3474    -3491    -3512    -3541    -3568 
   -3577    -3578    -3589    -3599    -3596    -3591    -3580    -3562 
   -3547    -3537    -3532    -3538    -3554    -3569    -3573    -3576 
   -3585    -3588    -3589    -3593    -3601    -3615    -3620    -3612 
   -3592    -3561    -3527    -3488    -3442    -3407    -3387    -3373 
   -3358    -3341    -3322    -3311    -3307    -3314    -3334    -3356 
   -3384    -3416    -3441    -3458    -3470    -3472    -3470    -3476 
   -3484    -3488    -3487    -3495    -3507    -3512    -3518    -3528 
   -3531    -3524    -3514    -3507    -3501    -3492    -3485    -3481 
   -3476    -3465    -3446    -3430    -3420    -3407    -3399    -3407 
   -3418    -3431    -3447    -3456    -3464    -3474    -3483    -3485 
   -3491    -3500    -3514    -3524    -3537    -3550    -3557    -3564 
   -3569    -3565    -3554    -3546    -3541    -3543    -3555    -3578 
   -3604    -3619    -3620    -3609    -3578    -3531    -3483    -3445 
   -3419    -3411    -3420    -3439    -3461    -3483    -3497    -3503 
   -3500    -3493    -3495    -3501    -3511    -3527    -3550    -3581 
   -3613    -3632    -3639    -3636    -3623    -3611    -3596    -3580 
   -3568    -3554    -3539    -3523    -3503    -3487    -3477    -3481 
   -3496    -3514    -3527    -3538    -3530    -3501    -3466    -3433 
   -3406    -3397    -3404    -3426    -3457    -3485    -3500    -3496 
   -3470    -3437    -3397    -3364    -3341    -3331    -3345    -3375 
   -3407    -3445    -3484    -3512    -3528    -3528    -3519    -3507 
   -3492    -3480    -3469    -3458    -3450    -3443    -3443    -3458 
   -3468    -3472    -3480    -3487    -3496    -3503    -3493    -3480 
   -3477    -3478    -3478    -3476    -3485    -3515    -3546    -3573 
   -3586    -3592    -3599    -3600    -3589    -3576    -3565    -3561 
   -3562    -3573    -3586    -3601    -3612    -3616    -3608    -3589 
   -3565    -3542    -3522    -3505    -3495    -3496    -3507    -3520 
   -3532    -3534    -3523    -3511    -3501    -3488    -3468    -3449 
   -3437    -3416    -3397    -3391    -3383    -3373    -3375    -3387 
   -3411    -3434    -3450    -3464    -3466    -3449    -3422    -3393 
   -3362    -3348    -3349    -3357    -3372    -3387    -3395    -3399 
   -3391    -3375    -3369    -3385    -3416    -3457    -3504    -3558 
   -3600    -3620    -3619    -3601    -3570    -3535    -3512    -3504 
   -3504    -3511    -3526    -3549    -3576    -3591    -3593    -3596 
   -3595    -3589    -3585    -3577    -3561    -3537    -3507    -3477 
   -3457    -3453    -3468    -3500    -3543    -3589    -3628    -3662 
   -3680    -3682    -3674    -3662    -3655    -3662    -3672    -3682 
   -3689    -3685    -3669    -3636    -3597    -3568    -3554    -3559 
   -3578    -3605    -3635    -3653    -3649    -3630    -3596    -3547 
   -3501    -3466    -3439    -3420    -3407    -3400    -3399    -3399 
   -3403    -3414    -3430    -3454    -3487    -3530    -3570    -3604 
   -3632    -3653    -3657    -3655    -3655    -3651    -3634    -3609 
   -3585    -3555    -3518    -3478    -3442    -3414    -3399    -3391 
   -3384    -3385    -3387    -3387    -3391    -3389    -3385    -3385 
   -3388    -3396    -3408    -3418    -3430    -3443    -3457    -3465 
   -3472    -3488    -3511    -3524    -3531    -3530    -3520    -3508 
   -3495    -3476    -3457    -3441    -3433    -3426    -3423    -3431 
   -3435    -3427    -3416    -3406    -3395    -3381    -3366    -3356 
   -3343    -3325    -3306    -3285    -3262    -3246    -3240    -3249 
   -3275    -3303    -3325    -3345    -3358    -3357    -3343    -3341 
   -3352    -3358    -3368    -3385    -3410    -3439    -3461    -3474 
   -3488    -3497    -3501    -3508    -3515    -3526    -3543    -3565 
   -3582    -3592    -3595    -3595    -3591    -3589    -3593    -3604 
   -3613    -3628    -3645    -3653    -3649    -3645    -3642    -3631 
   -3616    -3603    -3586    -3566    -3550    -3537    -3524    -3516 
   -3505    -3496    -3493    -3493    -3497    -3510    -3527    -3553 
   -3584    -3615    -3638    -3655    -3669    -3677    -3686    -3694 
   -3697    -3694    -3682    -3655    -3615    -3558    -3500    -3454 
   -3416    -3397    -3403    -3427    -3457    -3480    -3497    -3515 
   -3527    -3545    -3574    -3612    -3663    -3720    -3755    -3769 
   -3759    -3720    -3653    -3565    -3476    -3407    -3369    -3357 
   -3362    -3379    -3412    -3446    -3469    -3487    -3496    -3501 
   -3516    -3534    -3554    -3573    -3582    -3580    -3553    -3501 
   -3441    -3377    -3319    -3280    -3258    -3254    -3268    -3288 
   -3312    -3341    -3377    -3422    -3470    -3530    -3595    -3657 
   -3716    -3763    -3792    -3798    -3785    -3765    -3748    -3743 
   -3759    -3790    -3823    -3847    -3862    -3867    -3855    -3831 
   -3815    -3813    -3812    -3808    -3809    -3811    -3800    -3759 
   -3689    -3599    -3499    -3400    -3312    -3245    -3208    -3199 
   -3203    -3214    -3222    -3219    -3213    -3199    -3184    -3177 
   -3180    -3190    -3206    -3222    -3246    -3271    -3292    -3312 
   -3325    -3325    -3322    -3330    -3354    -3393    -3441    -3496 
   -3550    -3589    -3603    -3597    -3582    -3554    -3516    -3480 
   -3437    -3389    -3349    -3314    -3285    -3272    -3271    -3280 
   -3300    -3318    -3334    -3346    -3352    -3350    -3342    -3322 
   -3298    -3273    -3253    -3241    -3235    -3231    -3223    -3225 
   -3246    -3283    -3331    -3388    -3441    -3484    -3512    -3520 
   -3518    -3505    -3495    -3491    -3496    -3508    -3524    -3542 
   -3559    -3570    -3582    -3600    -3605    -3608    -3628    -3655 
   -3678    -3707    -3727    -3717    -3688    -3659    -3639    -3608 
   -3580    -3574    -3578    -3578    -3584    -3591    -3592    -3581 
   -3559    -3528    -3491    -3450    -3419    -3399    -3393    -3403 
   -3422    -3445    -3466    -3481    -3495    -3499    -3495    -3495 
   -3497    -3503    -3526    -3559    -3596    -3638    -3678    -3708 
   -3713    -3699    -3677    -3643    -3603    -3577    -3573    -3582 
   -3596    -3609    -3622    -3622    -3619    -3618    -3605    -3592 
   -3574    -3541    -3500    -3460    -3422    -3407    -3419    -3453 
   -3516    -3596    -3677    -3744    -3785    -3800    -3788    -3743 
   -3674    -3589    -3496    -3414    -3354    -3319    -3306    -3304 
   -3314    -3334    -3361    -3391    -3429    -3484    -3550    -3611 
   -3651    -3676    -3681    -3657    -3605    -3546    -3491    -3441 
   -3407    -3400    -3419    -3453    -3493    -3539    -3578    -3601 
   -3609    -3611    -3609    -3604    -3592    -3570    -3535    -3484 
   -3422    -3354    -3284    -3230    -3204    -3195    -3199    -3223 
   -3260    -3307    -3364    -3419    -3465    -3507    -3549    -3585 
   -3607    -3627    -3643    -3645    -3636    -3635    -3636    -3636 
   -3635    -3626    -3591    -3523    -3449    -3383    -3323    -3277 
   -3253    -3246    -3254    -3276    -3302    -3325    -3346    -3376 
   -3419    -3472    -3537    -3609    -3685    -3755    -3809    -3843 
   -3846    -3816    -3780    -3748    -3717    -3703    -3705    -3713 
   -3716    -3703    -3673    -3630    -3570    -3507    -3447    -3389 
   -3346    -3325    -3311    -3302    -3296    -3295    -3291    -3287 
   -3295    -3316    -3341    -3370    -3403    -3422    -3426    -3420 
   -3404    -3381    -3356    -3341    -3338    -3342    -3358    -3379 
   -3393    -3407    -3427    -3461    -3505    -3559    -3632    -3717 
   -3794    -3863    -3915    -3932    -3913    -3862    -3780    -3677 
   -3566    -3468    -3396    -3353    -3338    -3353    -3383    -3412 
   -3431    -3443    -3450    -3449    -3435    -3412    -3388    -3369 
   -3349    -3326    -3314    -3318    -3338    -3368    -3397    -3426 
   -3445    -3443    -3427    -3403    -3376    -3369    -3392    -3437 
   -3497    -3576    -3676    -3773    -3847    -3896    -3908    -3874 
   -3808    -3728    -3659    -3608    -3562    -3528    -3505    -3470 
   -3423    -3365    -3298    -3241    -3206    -3200    -3230    -3298 
   -3406    -3542    -3690    -3820    -3906    -3950    -3943    -3885 
   -3796    -3688    -3580    -3499    -3446    -3418    -3414    -3426 
   -3451    -3484    -3516    -3543    -3555    -3547    -3523    -3487 
   -3443    -3410    -3393    -3385    -3380    -3380    -3380    -3368 
   -3343    -3321    -3296    -3271    -3249    -3248    -3269    -3312 
   -3384    -3473    -3555    -3623    -3681    -3719    -3736    -3747 
   -3753    -3754    -3750    -3746    -3751    -3766    -3786    -3819 
   -3850    -3863    -3858    -3825    -3755    -3659    -3547    -3427 
   -3315    -3218    -3141    -3087    -3059    -3055    -3084    -3146 
   -3235    -3341    -3450    -3546    -3620    -3672    -3686    -3681 
   -3659    -3631    -3615    -3599    -3573    -3547    -3510    -3465 
   -3430    -3402    -3387    -3389    -3402    -3433    -3487    -3555 
   -3640    -3723    -3786    -3819    -3804    -3755    -3686    -3609 
   -3543    -3492    -3453    -3429    -3412    -3402    -3392    -3379 
   -3379    -3392    -3418    -3458    -3493    -3511    -3523    -3527 
   -3528    -3543    -3562    -3585    -3616    -3643    -3651    -3646 
   -3639    -3626    -3603    -3585    -3581    -3578    -3578    -3578 
   -3562    -3527    -3477    -3427    -3384    -3341    -3318    -3322 
   -3343    -3380    -3427    -3478    -3531    -3589    -3653    -3705 
   -3728    -3721    -3685    -3613    -3522    -3423    -3338    -3292 
   -3291    -3327    -3395    -3477    -3554    -3612    -3643    -3646 
   -3622    -3584    -3551    -3526    -3511    -3510    -3505    -3492 
   -3474    -3451    -3429    -3410    -3402    -3403    -3411    -3424 
   -3439    -3454    -3473    -3496    -3503    -3500    -3499    -3500 
   -3500    -3496    -3493    -3499    -3511    -3530    -3549    -3566 
   -3592    -3623    -3650    -3680    -3701    -3701    -3685    -3650 
   -3596    -3528    -3461    -3404    -3352    -3306    -3271    -3242 
   -3226    -3226    -3246    -3283    -3330    -3385    -3446    -3493 
   -3524    -3539    -3531    -3507    -3474    -3438    -3412    -3402 
   -3408    -3435    -3476    -3518    -3550    -3562    -3558    -3549 
   -3534    -3516    -3493    -3458    -3404    -3338    -3275    -3218 
   -3179    -3173    -3196    -3230    -3269    -3304    -3329    -3343 
   -3350    -3350    -3348    -3349    -3365    -3387    -3406    -3439 
   -3493    -3551    -3600    -3639    -3677    -3719    -3755    -3786 
   -3817    -3838    -3844    -3828    -3789    -3727    -3653    -3580 
   -3507    -3442    -3402    -3377    -3362    -3366    -3376    -3379 
   -3376    -3377    -3391    -3407    -3420    -3443    -3468    -3480 
   -3484    -3488    -3492    -3500    -3522    -3554    -3582    -3595 
   -3605    -3611    -3603    -3592    -3586    -3584    -3582    -3586 
   -3588    -3588    -3588    -3580    -3561    -3530    -3503    -3488 
   -3483    -3484    -3483    -3468    -3437    -3388    -3325    -3252 
   -3176    -3111    -3065    -3051    -3072    -3121    -3188    -3267 
   -3350    -3445    -3541    -3636    -3739    -3842    -3937    -4024 
   -4091    -4126    -4118    -4062    -3975    -3870    -3748    -3639 
   -3559    -3496    -3449    -3410    -3372    -3333    -3284    -3231 
   -3186    -3150    -3138    -3152    -3188    -3242    -3303    -3358 
   -3402    -3427    -3437    -3434    -3427    -3430    -3441    -3460 
   -3493    -3532    -3562    -3577    -3580    -3573    -3545    -3508 
   -3483    -3464    -3442    -3434    -3433    -3430    -3433    -3442 
   -3457    -3483    -3514    -3539    -3553    -3555    -3538    -3500 
   -3451    -3396    -3333    -3277    -3249    -3249    -3272    -3321 
   -3393    -3476    -3550    -3618    -3674    -3709    -3730    -3735 
   -3716    -3696    -3678    -3657    -3639    -3628    -3623    -3616 
   -3597    -3572    -3539    -3505    -3477    -3460    -3457    -3472 
   -3497    -3518    -3523    -3511    -3480    -3424    -3357    -3295 
   -3245    -3206    -3186    -3188    -3214    -3261    -3315    -3365 
   -3418    -3474    -3531    -3577    -3609    -3628    -3639    -3636 
   -3620    -3595    -3580    -3580    -3593    -3613    -3645    -3685 
   -3715    -3731    -3747    -3744    -3715    -3672    -3620    -3561 
   -3505    -3461    -3433    -3424    -3431    -3442    -3451    -3458 
   -3470    -3483    -3491    -3503    -3516    -3530    -3547    -3565 
   -3576    -3578    -3573    -3558    -3538    -3514    -3487    -3470 
   -3468    -3476    -3492    -3512    -3535    -3557    -3585    -3613 
   -3628    -3638    -3654    -3667    -3670    -3665    -3659    -3653 
   -3642    -3638    -3638    -3640    -3645    -3650    -3647    -3634 
   -3604    -3568    -3526    -3473    -3418    -3369    -3330    -3299 
   -3273    -3258    -3253    -3248    -3244    -3241    -3246    -3265 
   -3298    -3342    -3402    -3465    -3523    -3564    -3573    -3555 
   -3512    -3451    -3385    -3329    -3295    -3289    -3304    -3334 
   -3366    -3392    -3416    -3423    -3416    -3415    -3419    -3427 
   -3445    -3464    -3477    -3484    -3478    -3465    -3442    -3419 
   -3402    -3393    -3395    -3408    -3437    -3478    -3522    -3564 
   -3608    -3646    -3669    -3681    -3684    -3676    -3655    -3626 
   -3597    -3574    -3559    -3562    -3574    -3596    -3628    -3655 
   -3662    -3655    -3635    -3611    -3596    -3596    -3613    -3649 
   -3696    -3742    -3778    -3801    -3809    -3805    -3789    -3762 
   -3732    -3696    -3642    -3572    -3492    -3400    -3298    -3190 
   -3096    -3029    -2988    -2970    -2982    -3019    -3071    -3126 
   -3179    -3225    -3265    -3300    -3335    -3368    -3403    -3443 
   -3476    -3495    -3497    -3491    -3483    -3472    -3464    -3465 
   -3468    -3464    -3456    -3434    -3395    -3354    -3312    -3273 
   -3249    -3241    -3242    -3249    -3262    -3277    -3288    -3300 
   -3315    -3342    -3387    -3442    -3510    -3586    -3662    -3734 
   -3794    -3828    -3834    -3827    -3815    -3805    -3797    -3804 
   -3834    -3874    -3910    -3929    -3931    -3912    -3877    -3823 
   -3757    -3689    -3634    -3597    -3580    -3578    -3591    -3620 
   -3662    -3699    -3716    -3721    -3721    -3717    -3711    -3707 
   -3715    -3734    -3757    -3786    -3808    -3819    -3819    -3797 
   -3765    -3739    -3709    -3677    -3658    -3647    -3643    -3645 
   -3640    -3631    -3609    -3582    -3558    -3522    -3480    -3445 
   -3410    -3375    -3334    -3295    -3272    -3262    -3261    -3272 
   -3292    -3315    -3333    -3338    -3329    -3303    -3273    -3245 
   -3219    -3210    -3221    -3240    -3269    -3311    -3354    -3397 
   -3434    -3465    -3495    -3522    -3546    -3569    -3592    -3622 
   -3654    -3681    -3704    -3719    -3732    -3743    -3740    -3731 
   -3732    -3742    -3754    -3765    -3777    -3792    -3801    -3794 
   -3767    -3724    -3677    -3636    -3607    -3592    -3589    -3601 
   -3628    -3647    -3649    -3642    -3628    -3607    -3581    -3564 
   -3555    -3549    -3543    -3541    -3537    -3537    -3549    -3564 
   -3589    -3634    -3685    -3727    -3761    -3789    -3807    -3804 
   -3785    -3767    -3744    -3717    -3699    -3682    -3658    -3634 
   -3613    -3588    -3553    -3518    -3487    -3458    -3442    -3445 
   -3456    -3466    -3478    -3487    -3476    -3443    -3400    -3357 
   -3321    -3294    -3280    -3285    -3303    -3330    -3361    -3385 
   -3402    -3423    -3443    -3460    -3474    -3480    -3481    -3478 
   -3464    -3433    -3392    -3348    -3306    -3275    -3256    -3252 
   -3258    -3273    -3292    -3307    -3310    -3308    -3308    -3306 
   -3299    -3292    -3291    -3296    -3312    -3335    -3360    -3388 
   -3419    -3449    -3470    -3480    -3477    -3468    -3456    -3439 
   -3423    -3410    -3400    -3395    -3387    -3376    -3357    -3327 
   -3300    -3272    -3252    -3254    -3277    -3311    -3357    -3404 
   -3434    -3449    -3449    -3433    -3407    -3376    -3349    -3338 
   -3345    -3358    -3379    -3411    -3447    -3476    -3495    -3496 
   -3477    -3445    -3396    -3338    -3281    -3233    -3206    -3203 
   -3218    -3245    -3272    -3296    -3316    -3319    -3310    -3299 
   -3294    -3292    -3306    -3335    -3376    -3420    -3464    -3508 
   -3538    -3550    -3550    -3539    -3518    -3491    -3466    -3453 
   -3445    -3438    -3445    -3465    -3491    -3520    -3555    -3591 
   -3624    -3658    -3688    -3709    -3727    -3739    -3740    -3739 
   -3746    -3758    -3771    -3786    -3798    -3798    -3778    -3744 
   -3705    -3653    -3595    -3550    -3514    -3480    -3456    -3438 
   -3419    -3393    -3366    -3335    -3299    -3268    -3249    -3242 
   -3249    -3261    -3280    -3308    -3330    -3337    -3334    -3333 
   -3334    -3341    -3356    -3379    -3403    -3437    -3476    -3503 
