Origin Time       2025/06/03 22:18:00
Lat.              41.7
Long.             143.6
Depth. (km)       30
Mag.              5.2
Station Code      IKRH03
Station Lat.      42.8880
Station Long.     141.6399
Station Height(m) -242.5
Record Time       2025/06/03 22:19:27
Sampling Freq(Hz) 100Hz
Duration Time(s)  120
Dir.              1
Scale Factor      2942(gal)/8224139
Max. Acc. (gal)   0.238
Last Correction   2025/06/03 22:19:27
Memo.             
[...]
  104321   104313   104306   104296   104283   104274   104272   104284 
  104295   104296   104295   104290   104284   104274   104255   104236 
  104218   104199   104190   104187   104183   104178   104170   104160 
  104160   104175   104199   104226   104252   104278   104306   104330 
  104341   104341   104333   104321   104314   104313   104309   104303 
  104307   104319   104336   104352   104367   104372   104372   104371 
  104355   104323   104295   104274   104259   104245   104233   104221 
  104205   104190   104187   104190   104190   104186   104179   104179 
  104193   104218   104252   104291   104328   104361   104391   104409 
  104414   104409   104394   104376   104363   104349   104332   104318 
  104315   104314   104307   104295   104284   104279   104282   104287 
  104291   104292   104295   104290   104280   104276   104278   104278 
  104278   104283   104288   104286   104279   104268   104264   104275 
  104294   104302   104303   104298   104288   104275   104261   104253 
  104248   104242   104234   104222   104207   104202   104201   104190 
  104178   104164   104151   104143   104139   104134   104140   104153 
  104174   104190   104203   104209   104206   104202   104214   104242 
  104267   104283   104291   104292   104295   104299   104299   104296 
  104294   104292   104296   104301   104306   104311   104315   104313 
  104299   104279   104263   104249   104233   104215   104194   104164 
  104140   104130   104129   104134   104141   104151   104157   104153 
  104145   104151   104168   104195   104224   104251   104269   104279 
  104279   104278   104274   104268   104264   104264   104264   104265 
  104265   104264   104269   104283   104298   104310   104313   104314 
  104313   104311   104322   104338   104342   104337   104334   104334 
  104337   104344   104352   104367   104388   104417   104452   104480 
  104495   104494   104479   104450   104421   104402   104391   104383 
  104377   104375   104365   104356   104346   104334   104322   104318 
  104322   104329   104326   104311   104292   104275   104260   104251 
  104248   104244   104236   104224   104203   104174   104143   104117 
  104102   104097   104098   104102   104106   104121   104143   104172 
  104202   104221   104225   104217   104199   104178   104166   104161 
  104164   104175   104182   104182   104183   104186   104190   104197 
  104207   104224   104249   104274   104287   104301   104317   104336 
  104355   104367   104360   104344   104330   104318   104306   104298 
  104290   104291   104299   104310   104321   104325   104321   104319 
  104319   104321   104319   104310   104292   104267   104245   104228 
  104209   104197   104190   104179   104168   104163   104161   104167 
  104179   104184   104176   104161   104152   104151   104159   104166 
  104168   104176   104193   104214   104234   104252   104272   104286 
  104290   104290   104291   104299   104315   104340   104363   104386 
  104404   104409   104406   104402   104398   104395   104390   104377 
  104361   104337   104305   104272   104251   104241   104241   104249 
  104263   104280   104296   104307   104311   104305   104291   104279 
  104267   104264   104272   104287   104301   104317   104332   104340 
  104345   104349   104349   104350   104350   104336   104310   104280 
  104257   104249   104260   104275   104283   104286   104287   104290 
  104288   104284   104279   104275   104272   104265   104259   104256 
  104252   104255   104260   104255   104251   104255   104259   104265 
  104274   104279   104283   104290   104302   104311   104307   104284 
  104256   104238   104241   104260   104284   104305   104318   104321 
  104314   104303   104292   104284   104278   104271   104261   104249 
  104233   104220   104217   104222   104229   104233   104230   104222 
  104207   104186   104168   104161   104166   104178   104188   104188 
  104183   104182   104187   104197   104202   104198   104191   104186 
  104180   104175   104174   104174   104170   104168   104182   104201 
  104217   104240   104268   104301   104334   104360   104372   104373 
  104365   104352   104336   104321   104307   104303   104307   104315 
  104319   104313   104301   104290   104288   104290   104287   104284 
  104294   104310   104311   104295   104274   104248   104225   104210 
  104207   104214   104221   104232   104248   104260   104265   104264 
  104263   104257   104251   104249   104253   104257   104263   104271 
  104275   104272   104260   104244   104233   104233   104242   104255 
  104271   104287   104296   104301   104303   104306   104318   104333 
  104338   104346   104352   104350   104363   104388   104411   104425 
  104425   104414   104398   104380   104365   104355   104353   104355 
  104345   104333   104322   104311   104302   104291   104280   104275 
  104275   104278   104287   104302   104310   104309   104302   104307 
  104326   104348   104368   104377   104365   104340   104306   104269 
  104237   104214   104186   104155   104130   104114   104105   104101 
  104095   104085   104071   104058   104037   104021   104020   104035 
  104056   104083   104109   104124   104133   104143   104153   104167 
  104178   104191   104211   104238   104264   104287   104296   104294 
  104286   104280   104278   104280   104296   104323   104344   104356 
  104367   104369   104365   104353   104333   104311   104292   104274 
  104256   104237   104226   104226   104228   104225   104224   104226 
  104236   104251   104264   104276   104291   104315   104342   104367 
  104383   104384   104365   104340   104317   104294   104269   104252 
  104242   104242   104251   104265   104274   104268   104255   104237 
  104215   104197   104186   104187   104193   104203   104222   104248 
  104279   104314   104341   104355   104360   104353   104334   104314 
  104299   104290   104284   104284   104288   104291   104296   104296 
  104290   104278   104259   104240   104229   104224   104218   104217 
  104218   104229   104253   104278   104301   104326   104338   104332 
  104323   104322   104315   104307   104307   104311   104311   104311 
  104317   104317   104305   104299   104301   104298   104291   104280 
  104268   104251   104236   104221   104198   104174   104160   104155 
  104157   104166   104178   104195   104214   104232   104242   104252 
  104264   104276   104280   104286   104298   104317   104334   104344 
  104348   104352   104356   104364   104371   104372   104369   104368 
  104369   104375   104383   104390   104391   104375   104342   104305 
  104265   104230   104203   104188   104187   104187   104184   104182 
  104182   104188   104197   104201   104203   104206   104209   104218 
  104233   104245   104256   104268   104280   104294   104311   104333 
  104349   104363   104372   104361   104344   104328   104311   104305 
  104315   104337   104361   104375   104373   104367   104352   104328 
  104301   104282   104274   104275   104290   104307   104313   104302 
  104279   104255   104237   104226   104220   104213   104203   104199 
  104205   104217   104232   104245   104255   104260   104260   104252 
  104238   104229   104228   104224   104217   104206   104186   104166 
  104153   104157   104176   104195   104202   104203   104199   104193 
  104191   104191   104184   104174   104164   104153   104151   104152 
  104152   104151   104149   104143   104130   104118   104112   104116 
  104134   104161   104186   104203   104218   104236   104256   104284 
  104317   104345   104364   104376   104383   104384   104383   104386 
  104391   104398   104407   104411   104409   104404   104404   104407 
  104411   104415   104423   104429   104436   104441   104444   104445 
  104446   104446   104450   104453   104456   104456   104452   104445 
  104437   104426   104413   104407   104417   104430   104438   104445 
  104448   104438   104417   104383   104350   104340   104350   104373 
  104399   104409   104400   104384   104360   104336   104321   104314 
  104318   104332   104341   104334   104313   104279   104245   104224 
  104213   104203   104194   104186   104183   104188   104205   104229 
  104251   104259   104252   104238   104221   104203   104190   104182 
  104179   104178   104174   104163   104144   104122   104095   104068 
  104049   104032   104020   104018   104022   104028   104033   104035 
  104036   104037   104029   104014   103995   103982   103983   103999 
  104022   104041   104053   104063   104070   104076   104091   104113 
  104140   104171   104199   104215   104221   104222   104225   104233 
  104251   104276   104303   104325   104344   104353   104357   104363 
  104365   104365   104372   104386   104402   104421   104440   104454 
  104463   104465   104460   104440   104409   104383   104365   104350 
  104337   104323   104306   104292   104287   104283   104279   104275 
  104272   104275   104276   104269   104251   104221   104194   104175 
  104167   104163   104156   104160   104182   104213   104242   104265 
  104278   104278   104261   104237   104211   104197   104203   104225 
  104249   104265   104260   104238   104213   104190   104166   104140 
  104118   104112   104124   104151   104183   104210   104233   104256 
  104276   104288   104296   104303   104307   104313   104319   104328 
  104336   104341   104352   104357   104345   104322   104291   104259 
  104238   104230   104237   104256   104275   104291   104307   104321 
  104338   104357   104376   104399   104427   104456   104480   104506 
  104537   104566   104584   104587   104573   104550   104530   104519 
  104519   104530   104538   104531   104508   104471   104426   104377 
  104333   104298   104265   104230   104183   104121   104062   104013 
  103972   103939   103910   103889   103871   103870   103896   103948 
  104012   104067   104107   104130   104139   104148   104168   104195 
  104214   104210   104183   104141   104110   104103   104114   104134 
  104149   104152   104149   104147   104147   104148   104149   104145 
  104140   104130   104122   104129   104149   104179   104213   104241 
  104260   104279   104301   104322   104338   104344   104329   104306 
  104286   104274   104271   104271   104268   104271   104284   104303 
  104322   104334   104333   104314   104283   104244   104203   104172 
  104155   104147   104152   104170   104186   104194   104197   104198 
  104206   104218   104224   104221   104211   104199   104199   104210 
  104230   104263   104307   104360   104410   104438   104433   104404 
  104364   104319   104276   104245   104234   104251   104292   104355 
  104423   104485   104531   104566   104585   104584   104569   104550 
  104537   104538   104549   104558   104562   104562   104562   104562 
  104566   104577   104599   104614   104600   104556   104488   104417 
  104352   104291   104238   104187   104143   104133   104163   104211 
  104263   104310   104348   104371   104375   104368   104353   104337 
  104332   104337   104340   104333   104317   104295   104276   104263 
  104257   104256   104251   104244   104247   104263   104294   104328 
  104349   104348   104323   104279   104224   104166   104106   104062 
  104043   104039   104044   104058   104072   104089   104112   104137 
  104166   104193   104209   104211   104203   104190   104182   104187 
  104206   104229   104237   104224   104190   104141   104087   104033 
  103977   103924   103874   103831   103802   103794   103797   103802 
  103809   103812   103809   103813   103829   103855   103891   103936 
  103989   104052   104125   104198   104265   104326   104382   104440 
  104503   104568   104627   104680   104722   104746   104745   104724 
  104689   104631   104571   104526   104502   104500   104521   104550 
  104579   104602   104616   104612   104584   104542   104499   104464 
  104449   104457   104479   104515   104560   104598   104608   104592 
  104565   104537   104507   104476   104441   104409   104392   104391 
  104402   104418   104422   104414   104400   104382   104356   104328 
  104292   104263   104230   104172   104094   104018   103964   103944 
  103950   103966   103981   103991   104008   104035   104072   104114 
  104157   104194   104214   104217   104205   104193   104197   104218 
  104253   104284   104303   104309   104313   104314   104307   104294 
  104279   104264   104244   104210   104164   104128   104113   104114 
  104121   104112   104075   104026   103986   103971   103987   104028 
  104082   104141   104197   104245   104279   104287   104263   104209 
  104133   104051   103970   103906   103881   103896   103943   104002 
  104052   104087   104112   104132   104160   104203   104252   104303 
  104353   104402   104450   104508   104573   104641   104706   104755 
  104788   104805   104808   104805   104807   104809   104809   104807 
  104792   104766   104733   104692   104646   104588   104506   104403 
  104288   104175   104079   104008   103958   103932   103918   103902 
  103881   103854   103831   103813   103797   103779   103763   103756 
  103771   103817   103885   103959   104040   104120   104193   104244 
  104261   104251   104232   104215   104211   104211   104206   104186 
  104156   104126   104098   104078   104071   104085   104110   104136 
  104151   104153   104141   104137   104153   104199   104276   104368 
  104458   104544   104622   104679   104712   104726   104723   104718 
  104718   104728   104753   104793   104849   104901   104934   104932 
  104889   104805   104711   104622   104534   104445   104363   104290 
  104230   104184   104156   104147   104163   104199   104241   104268 
  104268   104247   104225   104215   104222   104237   104248   104251 
  104248   104244   104242   104242   104233   104205   104151   104079 
  104004   103931   103878   103851   103843   103846   103852   103859 
  103869   103890   103931   103979   104028   104078   104116   104132 
  104137   104148   104167   104201   104248   104296   104334   104365 
  104394   104417   104442   104473   104499   104508   104510   104507 
  104500   104498   104495   104485   104463   104415   104349   104278 
  104211   104167   104148   104153   104171   104190   104201   104202 
  104194   104178   104155   104116   104068   104026   103990   103968 
  103968   103982   103998   104006   104009   104009   104001   103989 
  103985   103995   104020   104056   104093   104121   104139   104139 
  104112   104052   103971   103890   103827   103794   103800   103833 
  103896   103986   104093   104203   104309   104400   104480   104564 
  104650   104724   104777   104803   104799   104761   104699   104622 
  104550   104507   104495   104504   104526   104558   104604   104653 
  104688   104707   104718   104731   104754   104781   104788   104773 
  104743   104710   104685   104669   104646   104612   104571   104525 
  104480   104448   104434   104445   104480   104527   104566   104584 
  104579   104553   104519   104481   104422   104341   104256   104175 
  104101   104045   104009   103985   103972   103966   103958   103951 
  103950   103950   103947   103940   103920   103883   103837   103792 
  103761   103748   103758   103790   103839   103893   103950   104005 
  104060   104126   104198   104257   104295   104314   104315   104303 
  104287   104264   104228   104188   104166   104161   104180   104218 
  104264   104307   104348   104377   104395   104411   104425   104434 
  104433   104418   104394   104363   104321   104268   104210   104160 
  104134   104134   104159   104201   104251   104295   104329   104344 
  104342   104336   104336   104344   104369   104409   104448   104485 
  104522   104542   104546   104545   104533   104504   104467   104433 
  104407   104392   104387   104386   104369   104333   104276   104207 
  104136   104062   103982   103906   103842   103794   103775   103783 
  103809   103848   103886   103924   103967   104018   104072   104125 
  104174   104214   104253   104294   104336   104377   104406   104417 
  104409   104390   104364   104342   104338   104348   104359   104375 
  104387   104387   104376   104368   104361   104357   104345   104325 
  104288   104247   104210   104174   104130   104087   104043   104009 
  104001   104014   104043   104080   104122   104152   104159   104140 
  104103   104066   104037   104025   104024   104028   104040   104051 
  104049   104040   104031   104018   104010   104014   104029   104052 
  104079   104112   104148   104188   104221   104240   104252   104263 
  104272   104286   104306   104326   104341   104345   104344   104348 
  104375   104431   104507   104589   104664   104706   104708   104681 
  104635   104584   104535   104488   104441   104398   104360   104338 
  104344   104373   104423   104487   104550   104607   104657   104692 
  104715   104730   104747   104765   104773   104761   104724   104668 
  104600   104533   104483   104457   104454   104463   104473   104490 
  104503   104512   104522   104522   104500   104448   104360   104238 
  104105   103981   103881   103808   103763   103744   103740   103744 
  103746   103746   103748   103756   103767   103781   103794   103800 
  103792   103777   103761   103752   103763   103790   103831   103883 
  103940   103994   104048   104098   104141   104178   104211   104245 
  104282   104322   104373   104434   104487   104515   104506   104452 
  104360   104253   104163   104107   104094   104112   104139   104174 
  104213   104247   104282   104317   104346   104367   104379   104386 
  104380   104361   104338   104305   104268   104244   104229   104222 
  104229   104238   104242   104238   104230   104222   104221   104229 
  104251   104286   104326   104363   104382   104380   104361   104336 
  104315   104305   104307   104329   104364   104402   104440   104491 
  104557   104619   104665   104693   104700   104689   104665   104625 
  104584   104557   104544   104529   104506   104477   104445   104417 
  104400   104388   104373   104364   104368   104386   104418   104456 
  104491   104526   104558   104587   104596   104579   104537   104480 
  104421   104368   104319   104271   104222   104166   104109   104060 
  104014   103968   103940   103931   103932   103939   103952   103968 
  103983   103990   103990   103986   103985   103997   104035   104087 
  104143   104184   104206   104209   104195   104175   104157   104151 
  104155   104171   104202   104245   104288   104322   104340   104340 
  104328   104314   104302   104299   104306   104325   104344   104363 
  104382   104396   104402   104403   104403   104398   104390   104372 
  104349   104325   104310   104314   104338   104377   104421   104458 
  104479   104481   104472   104456   104440   104426   104421   104417 
  104404   104382   104348   104302   104255   104207   104157   104110 
  104071   104036   104005   103990   103995   104017   104053   104102 
  104157   104207   104242   104263   104272   104269   104263   104260 
  104259   104260   104269   104288   104306   104321   104328   104321 
  104306   104290   104274   104257   104245   104245   104256   104269 
  104282   104286   104280   104272   104261   104245   104228   104201 
  104172   104152   104145   104149   104157   104166   104170   104166 
