Origin Time       2025/06/03 22:18:00
Lat.              41.7
Long.             143.6
Depth. (km)       30
Mag.              5.2
Station Code      IKRH03
Station Lat.      42.8880
Station Long.     141.6399
Station Height(m) 10
Record Time       2025/06/03 22:19:27
Sampling Freq(Hz) 100Hz
Duration Time(s)  120
Dir.              4
Scale Factor      7845(gal)/8223790
Max. Acc. (gal)   0.587
Last Correction   2025/06/03 22:19:27
Memo.             
[...]
   -6281    -6303    -6307    -6313    -6330    -6350    -6374    -6397 
   -6411    -6409    -6392    -6359    -6328    -6301    -6277    -6265 
   -6264    -6254    -6239    -6226    -6215    -6218    -6235    -6274 
   -6346    -6446    -6567    -6700    -6821    -6920    -6982    -7002 
   -6994    -6964    -6921    -6882    -6855    -6837    -6822    -6805 
   -6795    -6801    -6816    -6843    -6872    -6897    -6903    -6886 
   -6847    -6799    -6758    -6718    -6681    -6655    -6637    -6623 
   -6615    -6606    -6592    -6573    -6539    -6490    -6440    -6394 
   -6353    -6316    -6292    -6282    -6286    -6301    -6326    -6347 
   -6359    -6365    -6365    -6366    -6380    -6407    -6444    -6489 
   -6531    -6567    -6593    -6606    -6617    -6624    -6627    -6636 
   -6648    -6662    -6675    -6686    -6690    -6683    -6667    -6640 
   -6606    -6570    -6532    -6498    -6477    -6461    -6444    -6430 
   -6409    -6390    -6377    -6363    -6354    -6359    -6366    -6376 
   -6397    -6421    -6443    -6462    -6471    -6470    -6470    -6478 
   -6498    -6531    -6577    -6631    -6685    -6736    -6774    -6789 
   -6775    -6728    -6650    -6556    -6458    -6370    -6295    -6228 
   -6181    -6147    -6124    -6115    -6118    -6129    -6141    -6156 
   -6177    -6207    -6246    -6293    -6345    -6403    -6465    -6520 
   -6563    -6585    -6579    -6552    -6505    -6442    -6380    -6330 
   -6293    -6285    -6303    -6330    -6358    -6384    -6408    -6423 
   -6430    -6440    -6458    -6478    -6509    -6540    -6569    -6600 
   -6631    -6669    -6709    -6733    -6748    -6752    -6733    -6702 
   -6666    -6627    -6586    -6547    -6523    -6520    -6535    -6573 
   -6627    -6683    -6735    -6763    -6768    -6758    -6728    -6683 
   -6629    -6562    -6493    -6430    -6361    -6295    -6241    -6207 
   -6197    -6211    -6249    -6301    -6369    -6450    -6528    -6597 
   -6662    -6717    -6763    -6801    -6816    -6809    -6781    -6724 
   -6647    -6556    -6461    -6374    -6305    -6253    -6220    -6211 
   -6214    -6212    -6204    -6203    -6204    -6208    -6219    -6227 
   -6235    -6255    -6281    -6311    -6345    -6376    -6401    -6420 
   -6436    -6462    -6509    -6578    -6662    -6755    -6856    -6949 
   -7018    -7052    -7052    -7021    -6966    -6893    -6818    -6751 
   -6696    -6658    -6627    -6606    -6597    -6589    -6583    -6577 
   -6561    -6540    -6516    -6490    -6474    -6469    -6470    -6484 
   -6507    -6540    -6583    -6621    -6656    -6683    -6702    -6713 
   -6708    -6685    -6654    -6623    -6610    -6627    -6671    -6744 
   -6828    -6899    -6949    -6970    -6957    -6914    -6841    -6759 
   -6678    -6606    -6569    -6571    -6604    -6658    -6716    -6756 
   -6766    -6739    -6689    -6629    -6567    -6513    -6470    -6438 
   -6416    -6396    -6377    -6358    -6335    -6313    -6304    -6303 
   -6316    -6346    -6381    -6415    -6440    -6458    -6470    -6473 
   -6471    -6470    -6457    -6428    -6384    -6327    -6265    -6197 
   -6135    -6097    -6091    -6115    -6169    -6237    -6303    -6357 
   -6392    -6392    -6363    -6318    -6257    -6185    -6114    -6049 
   -5999    -5969    -5956    -5965    -6006    -6062    -6122    -6169 
   -6196    -6212    -6222    -6228    -6250    -6292    -6349    -6419 
   -6488    -6540    -6574    -6585    -6582    -6573    -6567    -6567 
   -6561    -6559    -6583    -6623    -6674    -6739    -6804    -6855 
   -6880    -6874    -6848    -6809    -6760    -6710    -6662    -6620 
   -6592    -6570    -6566    -6578    -6604    -6646    -6686    -6713 
   -6727    -6720    -6693    -6654    -6612    -6578    -6558    -6554 
   -6571    -6597    -6623    -6636    -6629    -6612    -6581    -6532 
   -6474    -6419    -6377    -6361    -6358    -6372    -6400    -6419 
   -6423    -6416    -6394    -6366    -6347    -6342    -6346    -6355 
   -6369    -6382    -6389    -6390    -6388    -6393    -6415    -6442 
   -6466    -6494    -6515    -6519    -6507    -6480    -6455    -6444 
   -6450    -6473    -6502    -6531    -6552    -6555    -6543    -6521 
   -6488    -6458    -6442    -6434    -6438    -6450    -6457    -6455 
   -6434    -6388    -6335    -6278    -6220    -6176    -6151    -6147 
   -6160    -6181    -6215    -6254    -6297    -6346    -6403    -6469 
   -6542    -6615    -6682    -6736    -6778    -6810    -6836    -6853 
   -6858    -6848    -6826    -6794    -6758    -6723    -6690    -6664 
   -6652    -6651    -6663    -6681    -6694    -6701    -6697    -6683 
   -6670    -6659    -6654    -6659    -6666    -6667    -6662    -6652 
   -6644    -6632    -6617    -6605    -6597    -6593    -6593    -6597 
   -6598    -6598    -6596    -6586    -6566    -6539    -6509    -6477 
   -6453    -6436    -6428    -6431    -6440    -6447    -6447    -6444 
   -6446    -6454    -6469    -6494    -6529    -6561    -6586    -6608 
   -6612    -6597    -6569    -6527    -6481    -6439    -6407    -6388 
   -6381    -6378    -6372    -6363    -6354    -6338    -6316    -6292 
   -6266    -6238    -6210    -6187    -6174    -6172    -6173    -6183 
   -6197    -6224    -6265    -6307    -6349    -6399    -6447    -6494 
   -6547    -6601    -6658    -6721    -6789    -6847    -6887    -6912 
   -6914    -6887    -6829    -6755    -6674    -6594    -6528    -6486 
   -6467    -6469    -6496    -6542    -6597    -6662    -6724    -6772 
   -6808    -6821    -6814    -6797    -6772    -6750    -6739    -6736 
   -6737    -6741    -6737    -6713    -6666    -6601    -6532    -6470 
   -6421    -6393    -6389    -6412    -6454    -6505    -6559    -6601 
   -6625    -6632    -6616    -6577    -6528    -6470    -6415    -6363 
   -6315    -6278    -6257    -6251    -6259    -6270    -6284    -6293 
   -6299    -6305    -6308    -6308    -6304    -6285    -6258    -6237 
   -6215    -6199    -6195    -6203    -6226    -6258    -6293    -6324 
   -6350    -6372    -6386    -6400    -6413    -6430    -6457    -6486 
   -6505    -6523    -6540    -6542    -6525    -6493    -6448    -6400 
   -6350    -6305    -6277    -6268    -6273    -6292    -6322    -6362 
   -6405    -6439    -6470    -6505    -6543    -6579    -6609    -6631 
   -6643    -6643    -6631    -6612    -6592    -6566    -6536    -6507 
   -6480    -6453    -6424    -6401    -6385    -6382    -6382    -6380 
   -6384    -6394    -6407    -6427    -6453    -6477    -6512    -6555 
   -6594    -6631    -6658    -6666    -6659    -6639    -6606    -6574 
   -6551    -6531    -6508    -6497    -6504    -6512    -6519    -6538 
   -6565    -6594    -6632    -6666    -6691    -6709    -6713    -6698 
   -6667    -6629    -6586    -6543    -6505    -6465    -6427    -6400 
   -6381    -6369    -6361    -6361    -6372    -6385    -6394    -6399 
   -6393    -6386    -6386    -6388    -6397    -6421    -6458    -6504 
   -6555    -6610    -6662    -6702    -6736    -6766    -6787    -6808 
   -6826    -6848    -6878    -6907    -6936    -6957    -6963    -6951 
   -6913    -6855    -6793    -6731    -6681    -6658    -6652    -6658 
   -6667    -6677    -6682    -6681    -6670    -6651    -6627    -6597 
   -6577    -6566    -6567    -6582    -6610    -6651    -6689    -6709 
   -6710    -6693    -6660    -6613    -6559    -6511    -6470    -6438 
   -6413    -6396    -6384    -6381    -6384    -6394    -6420    -6459 
   -6504    -6550    -6590    -6621    -6643    -6660    -6677    -6681 
   -6678    -6674    -6664    -6647    -6616    -6570    -6515    -6450 
   -6374    -6304    -6247    -6211    -6197    -6193    -6201    -6222 
   -6242    -6259    -6281    -6311    -6343    -6376    -6415    -6455 
   -6489    -6513    -6520    -6508    -6485    -6450    -6408    -6372 
   -6335    -6305    -6293    -6288    -6292    -6309    -6324    -6339 
   -6357    -6373    -6389    -6407    -6430    -6457    -6478    -6496 
   -6513    -6525    -6538    -6547    -6551    -6548    -6534    -6512 
   -6482    -6443    -6404    -6366    -6332    -6313    -6303    -6295 
   -6293    -6299    -6304    -6307    -6311    -6320    -6336    -6366 
   -6408    -6455    -6509    -6573    -6632    -6686    -6739    -6783 
   -6817    -6833    -6836    -6828    -6808    -6778    -6747    -6714 
   -6678    -6639    -6602    -6571    -6538    -6507    -6474    -6439 
   -6408    -6380    -6354    -6340    -6332    -6334    -6354    -6384 
   -6412    -6438    -6463    -6489    -6513    -6534    -6556    -6585 
   -6612    -6635    -6648    -6648    -6642    -6628    -6609    -6588 
   -6565    -6539    -6508    -6480    -6454    -6430    -6416    -6413 
   -6417    -6417    -6409    -6399    -6380    -6349    -6316    -6281 
   -6245    -6208    -6174    -6142    -6114    -6091    -6079    -6084 
   -6102    -6129    -6174    -6226    -6270    -6309    -6346    -6377 
   -6403    -6420    -6439    -6451    -6454    -6457    -6458    -6455 
   -6455    -6458    -6462    -6470    -6486    -6507    -6528    -6552 
   -6583    -6613    -6648    -6686    -6717    -6741    -6758    -6758 
   -6748    -6731    -6709    -6694    -6681    -6670    -6670    -6678 
   -6698    -6731    -6766    -6804    -6841    -6870    -6882    -6880 
   -6866    -6844    -6824    -6805    -6782    -6762    -6758    -6770 
   -6783    -6785    -6774    -6751    -6716    -6664    -6600    -6521 
   -6447    -6388    -6336    -6296    -6272    -6266    -6276    -6289 
   -6299    -6313    -6328    -6343    -6362    -6381    -6388    -6386 
   -6373    -6346    -6313    -6282    -6247    -6210    -6172    -6141 
   -6110    -6084    -6069    -6065    -6070    -6083    -6103    -6133 
   -6160    -6184    -6222    -6265    -6307    -6353    -6390    -6424 
   -6454    -6467    -6474    -6486    -6493    -6498    -6502    -6504 
   -6508    -6508    -6511    -6523    -6539    -6559    -6581    -6600 
   -6620    -6636    -6650    -6664    -6682    -6708    -6743    -6783 
   -6824    -6859    -6882    -6894    -6891    -6875    -6849    -6816 
   -6782    -6752    -6731    -6725    -6735    -6758    -6791    -6833 
   -6882    -6932    -6978    -7014    -7041    -7053    -7048    -7029 
   -6997    -6956    -6917    -6879    -6848    -6826    -6816    -6813 
   -6809    -6799    -6783    -6756    -6721    -6683    -6642    -6602 
   -6567    -6534    -6502    -6473    -6447    -6424    -6405    -6388 
   -6361    -6334    -6312    -6285    -6262    -6250    -6241    -6243 
   -6254    -6268    -6285    -6299    -6311    -6324    -6326    -6316 
   -6307    -6299    -6293    -6292    -6304    -6327    -6345    -6361 
   -6378    -6385    -6381    -6367    -6345    -6311    -6273    -6238 
   -6208    -6177    -6158    -6154    -6161    -6180    -6207    -6238 
   -6270    -6296    -6318    -6330    -6332    -6343    -6361    -6373 
   -6386    -6403    -6426    -6453    -6475    -6494    -6513    -6532 
   -6558    -6578    -6589    -6598    -6602    -6605    -6608    -6601 
   -6592    -6585    -6566    -6539    -6509    -6471    -6432    -6400 
   -6373    -6358    -6357    -6369    -6397    -6438    -6482    -6521 
   -6558    -6588    -6601    -6604    -6598    -6583    -6567    -6555 
   -6542    -6528    -6520    -6512    -6504    -6493    -6475    -6453 
   -6427    -6408    -6393    -6377    -6363    -6358    -6355    -6357 
   -6358    -6355    -6349    -6342    -6334    -6320    -6307    -6303 
   -6305    -6313    -6335    -6365    -6394    -6428    -6461    -6485 
   -6500    -6505    -6502    -6489    -6471    -6457    -6438    -6417 
   -6405    -6393    -6380    -6367    -6357    -6345    -6334    -6331 
   -6343    -6365    -6392    -6427    -6461    -6493    -6529    -6561 
   -6588    -6608    -6625    -6640    -6652    -6667    -6681    -6693 
   -6708    -6729    -6756    -6782    -6804    -6820    -6832    -6832 
   -6825    -6816    -6799    -6786    -6779    -6772    -6768    -6764 
   -6766    -6777    -6787    -6794    -6791    -6786    -6778    -6756 
   -6733    -6724    -6724    -6731    -6740    -6754    -6766    -6767 
   -6766    -6760    -6745    -6729    -6717    -6705    -6693    -6682 
   -6664    -6644    -6632    -6623    -6619    -6623    -6623    -6619 
   -6615    -6613    -6608    -6593    -6578    -6567    -6552    -6540 
   -6532    -6520    -6509    -6501    -6489    -6470    -6444    -6416 
   -6384    -6346    -6312    -6280    -6241    -6208    -6185    -6162 
   -6135    -6107    -6088    -6077    -6072    -6076    -6095    -6120 
   -6158    -6207    -6258    -6316    -6385    -6448    -6504    -6555 
   -6590    -6610    -6620    -6619    -6605    -6588    -6570    -6556 
   -6550    -6551    -6556    -6562    -6569    -6579    -6593    -6605 
   -6620    -6635    -6646    -6656    -6663    -6664    -6667    -6667 
   -6667    -6671    -6670    -6669    -6671    -6670    -6664    -6658 
   -6652    -6652    -6662    -6674    -6689    -6712    -6741    -6759 
   -6763    -6760    -6745    -6721    -6691    -6658    -6624    -6598 
   -6579    -6561    -6535    -6507    -6470    -6426    -6380    -6339 
   -6300    -6268    -6246    -6234    -6227    -6232    -6247    -6270 
   -6304    -6345    -6389    -6431    -6469    -6497    -6515    -6523 
   -6524    -6517    -6515    -6511    -6502    -6501    -6498    -6489 
   -6480    -6462    -6435    -6401    -6359    -6315    -6277    -6232 
   -6183    -6133    -6091    -6053    -6010    -5972    -5946    -5923 
   -5902    -5891    -5891    -5899    -5917    -5937    -5958    -5989 
   -6026    -6065    -6108    -6160    -6212    -6264    -6312    -6353 
   -6386    -6413    -6436    -6457    -6467    -6477    -6492    -6500 
   -6501    -6507    -6509    -6507    -6511    -6523    -6539    -6558 
   -6577    -6596    -6610    -6629    -6654    -6679    -6705    -6729 
   -6752    -6778    -6799    -6817    -6837    -6856    -6872    -6890 
   -6903    -6913    -6912    -6901    -6889    -6874    -6856    -6845 
   -6833    -6820    -6805    -6785    -6771    -6763    -6743    -6718 
   -6701    -6677    -6651    -6625    -6598    -6577    -6566    -6562 
   -6563    -6567    -6582    -6598    -6608    -6617    -6619    -6610 
   -6602    -6589    -6570    -6554    -6536    -6521    -6509    -6496 
   -6493    -6496    -6501    -6509    -6515    -6520    -6521    -6513 
   -6502    -6486    -6463    -6440    -6419    -6397    -6377    -6355 
   -6335    -6322    -6313    -6309    -6304    -6303    -6303    -6303 
   -6305    -6318    -6336    -6357    -6376    -6401    -6434    -6463 
   -6494    -6529    -6556    -6578    -6597    -6612    -6625    -6628 
   -6623    -6624    -6621    -6619    -6620    -6623    -6633    -6647 
   -6656    -6667    -6678    -6683    -6691    -6697    -6698    -6701 
   -6704    -6714    -6732    -6743    -6752    -6755    -6741    -6714 
   -6677    -6631    -6581    -6534    -6494    -6462    -6438    -6428 
   -6420    -6416    -6419    -6419    -6417    -6421    -6421    -6417 
   -6415    -6405    -6390    -6376    -6367    -6369    -6370    -6376 
   -6386    -6392    -6389    -6380    -6366    -6349    -6330    -6311 
   -6296    -6285    -6281    -6280    -6274    -6270    -6269    -6257 
   -6238    -6214    -6191    -6178    -6169    -6166    -6181    -6207 
   -6243    -6289    -6340    -6394    -6442    -6481    -6513    -6535 
   -6542    -6536    -6524    -6515    -6501    -6490    -6489    -6496 
   -6511    -6532    -6554    -6579    -6609    -6629    -6642    -6646 
   -6644    -6636    -6619    -6609    -6610    -6613    -6631    -6656 
   -6677    -6698    -6717    -6728    -6739    -6741    -6736    -6733 
   -6737    -6736    -6731    -6729    -6735    -6744    -6750    -6754 
   -6758    -6755    -6745    -6732    -6714    -6691    -6664    -6646 
   -6633    -6623    -6615    -6602    -6594    -6594    -6589    -6583 
   -6582    -6573    -6562    -6552    -6536    -6516    -6498    -6488 
   -6481    -6471    -6467    -6466    -6463    -6459    -6453    -6447 
   -6446    -6448    -6455    -6461    -6466    -6484    -6508    -6532 
   -6558    -6579    -6597    -6610    -6609    -6600    -6588    -6573 
   -6566    -6562    -6552    -6547    -6544    -6539    -6534    -6527 
   -6520    -6515    -6513    -6516    -6519    -6523    -6535    -6548 
   -6563    -6571    -6575    -6579    -6575    -6559    -6546    -6528 
   -6504    -6480    -6458    -6440    -6430    -6420    -6416    -6412 
   -6405    -6400    -6394    -6385    -6376    -6366    -6361    -6361 
   -6362    -6361    -6363    -6367    -6369    -6358    -6340    -6330 
   -6315    -6299    -6289    -6282    -6273    -6270    -6276    -6284 
   -6292    -6304    -6318    -6328    -6339    -6349    -6351    -6358 
   -6366    -6367    -6370    -6370    -6366    -6369    -6367    -6365 
   -6370    -6372    -6372    -6380    -6384    -6388    -6394    -6400 
   -6408    -6420    -6427    -6434    -6443    -6451    -6457    -6465 
   -6474    -6482    -6493    -6505    -6511    -6512    -6511    -6505 
   -6500    -6492    -6480    -6473    -6469    -6463    -6462    -6466 
   -6480    -6497    -6516    -6543    -6575    -6606    -6640    -6674 
   -6706    -6737    -6763    -6783    -6801    -6808    -6802    -6786 
   -6767    -6745    -6714    -6682    -6652    -6623    -6594    -6567 
   -6540    -6517    -6490    -6458    -6428    -6400    -6372    -6347 
   -6328    -6313    -6299    -6288    -6292    -6300    -6301    -6305 
   -6319    -6334    -6350    -6365    -6381    -6400    -6413    -6421 
   -6427    -6420    -6407    -6390    -6367    -6342    -6313    -6286 
   -6261    -6234    -6216    -6204    -6191    -6187    -6191    -6196 
   -6200    -6208    -6223    -6242    -6265    -6293    -6320    -6346 
   -6373    -6399    -6419    -6438    -6453    -6467    -6481    -6488 
   -6494    -6497    -6493    -6489    -6486    -6482    -6481    -6485 
   -6490    -6500    -6515    -6529    -6546    -6563    -6582    -6602 
   -6629    -6658    -6681    -6708    -6733    -6754    -6774    -6782 
   -6775    -6759    -6737    -6716    -6697    -6678    -6659    -6647 
   -6640    -6631    -6617    -6605    -6597    -6588    -6581    -6583 
   -6592    -6601    -6613    -6631    -6655    -6678    -6701    -6725 
   -6741    -6747    -6754    -6754    -6750    -6747    -6745    -6744 
   -6745    -6752    -6760    -6774    -6789    -6790    -6778    -6766 
   -6754    -6736    -6724    -6718    -6724    -6741    -6767    -6793 
   -6812    -6829    -6843    -6837    -6828    -6821    -6802    -6779 
   -6766    -6745    -6718    -6697    -6675    -6660    -6654    -6642 
   -6627    -6616    -6602    -6589    -6578    -6566    -6552    -6543 
   -6540    -6543    -6550    -6561    -6570    -6583    -6590    -6585 
   -6578    -6565    -6544    -6525    -6501    -6481    -6473    -6461 
   -6443    -6428    -6417    -6412    -6404    -6392    -6394    -6404 
   -6415    -6434    -6458    -6488    -6523    -6558    -6593    -6631 
   -6662    -6686    -6704    -6712    -6706    -6690    -6674    -6656 
   -6642    -6629    -6617    -6612    -6612    -6609    -6610    -6613 
   -6609    -6604    -6598    -6588    -6575    -6565    -6552    -6539 
   -6524    -6511    -6489    -6461    -6436    -6409    -6374    -6339 
   -6304    -6270    -6245    -6220    -6191    -6166    -6151    -6141 
