Origin Time       2025/06/03 22:18:00
Lat.              41.7
Long.             143.6
Depth. (km)       30
Mag.              5.2
Station Code      IWTH20
Station Lat.      39.3434
Station Long.     141.0473
Station Height(m) 106
Record Time       2025/06/03 22:19:57
Sampling Freq(Hz) 100Hz
Duration Time(s)  120
Dir.              4
Scale Factor      7845(gal)/8223790
Max. Acc. (gal)   0.296
Last Correction   2025/06/03 22:19:58
Memo.             
[...]
    1903     1883     1867     1856     1861     1880     1899     1911 
    1915     1917     1921     1926     1935     1945     1938     1914 
    1885     1857     1834     1815     1799     1794     1794     1796 
    1802     1802     1792     1783     1784     1803     1834     1869 
    1902     1923     1937     1946     1949     1950     1958     1971 
    1983     1992     1989     1973     1957     1937     1914     1894 
    1880     1879     1890     1898     1903     1904     1902     1890 
    1872     1856     1845     1833     1819     1813     1811     1813 
    1826     1850     1873     1894     1911     1926     1938     1945 
    1949     1944     1927     1912     1902     1895     1895     1904 
    1925     1946     1954     1957     1960     1957     1956     1957 
    1956     1960     1961     1961     1962     1961     1960     1965 
    1979     1996     2015     2030     2042     2050     2052     2047 
    2037     2018     1996     1969     1937     1910     1892     1872 
    1857     1852     1857     1872     1892     1907     1919     1929 
    1935     1931     1917     1907     1907     1912     1919     1926 
    1935     1948     1960     1966     1976     1985     1989     1988 
    1981     1971     1957     1939     1919     1902     1888     1884 
    1888     1898     1915     1938     1956     1972     1980     1976 
    1968     1962     1952     1945     1950     1958     1962     1962 
    1958     1949     1933     1910     1890     1869     1845     1819 
    1796     1782     1775     1777     1791     1807     1822     1836 
    1848     1867     1898     1937     1976     2016     2050     2081 
    2103     2111     2106     2089     2069     2053     2038     2029 
    2022     2007     1989     1972     1952     1933     1917     1911 
    1919     1933     1949     1968     1979     1979     1971     1953 
    1930     1906     1881     1863     1860     1857     1853     1849 
    1840     1827     1821     1810     1799     1792     1784     1777 
    1776     1777     1782     1792     1803     1817     1834     1852 
    1869     1883     1892     1902     1908     1908     1908     1906 
    1899     1890     1888     1892     1894     1894     1890     1881 
    1876     1876     1872     1863     1861     1864     1872     1890 
    1910     1930     1950     1960     1964     1961     1949     1944 
    1949     1958     1981     2011     2038     2058     2069     2072 
    2065     2049     2025     2002     1976     1957     1944     1933 
    1925     1926     1934     1948     1968     1981     1992     2004 
    2012     2014     2011     2000     1983     1968     1950     1930 
    1917     1904     1888     1872     1854     1836     1825     1817 
    1815     1819     1823     1829     1837     1848     1868     1898 
    1925     1949     1966     1973     1971     1965     1962     1964 
    1973     1985     1998     2004     2006     2000     1989     1973 
    1954     1935     1923     1921     1922     1912     1906     1904 
    1894     1883     1883     1887     1899     1919     1937     1949 
    1953     1957     1960     1960     1964     1971     1973     1977 
    1981     1977     1966     1957     1952     1954     1962     1977 
    1998     2016     2027     2034     2026     2006     1984     1966 
    1957     1960     1962     1966     1966     1961     1954     1952 
    1953     1960     1972     1985     1988     1979     1964     1946 
    1930     1917     1912     1906     1894     1877     1852     1821 
    1792     1760     1729     1703     1683     1678     1688     1703 
    1719     1732     1740     1749     1761     1773     1788     1799 
    1810     1819     1825     1827     1829     1834     1852     1877 
    1900     1921     1929     1921     1908     1898     1888     1885 
    1888     1898     1919     1948     1977     2012     2047     2074 
    2089     2092     2091     2084     2077     2080     2084     2079 
    2066     2054     2030     1988     1944     1907     1869     1834 
    1813     1791     1761     1746     1748     1752     1769     1802 
    1844     1885     1926     1956     1973     1979     1972     1958 
    1945     1938     1938     1941     1949     1957     1960     1965 
    1975     1979     1983     1988     1988     1984     1979     1965 
    1948     1935     1926     1923     1929     1942     1962     1981 
    1998     2011     2016     2020     2019     2010     2002     1998 
    2000     2002     2003     2010     2016     2019     2022     2020 
    2010     1995     1980     1960     1941     1921     1899     1875 
    1846     1817     1799     1792     1795     1810     1827     1842 
    1852     1861     1876     1894     1917     1948     1975     1996 
    2012     2012     2002     1991     1984     1979     1980     1988 
    2000     2006     2006     2000     1984     1957     1934     1918 
    1910     1912     1923     1937     1956     1977     1993     2007 
    2018     2031     2050     2069     2083     2085     2070     2038 
    1996     1950     1910     1875     1849     1830     1814     1800 
    1779     1745     1714     1691     1671     1665     1674     1684 
    1696     1715     1734     1749     1767     1780     1791     1807 
    1823     1836     1844     1845     1842     1837     1827     1819 
    1819     1817     1814     1817     1826     1840     1856     1873 
    1881     1880     1885     1902     1923     1952     1977     1980 
    1977     1981     1980     1984     1993     2003     2015     2025 
    2031     2035     2031     2027     2033     2043     2058     2077 
    2095     2103     2099     2079     2054     2030     1996     1960 
    1931     1903     1880     1867     1860     1856     1852     1845 
    1840     1834     1831     1827     1814     1803     1798     1798 
    1810     1829     1852     1887     1922     1946     1961     1968 
    1968     1965     1962     1965     1976     1987     1995     2011 
    2027     2039     2050     2060     2070     2076     2077     2079 
    2077     2074     2074     2069     2057     2050     2042     2027 
    2011     1991     1969     1949     1927     1914     1912     1912 
    1914     1917     1919     1923     1927     1930     1934     1938 
    1938     1939     1941     1945     1952     1964     1977     1981 
    1973     1964     1958     1957     1957     1958     1958     1952 
    1945     1941     1934     1917     1894     1868     1842     1823 
    1814     1811     1817     1827     1833     1836     1838     1836 
    1822     1799     1783     1772     1767     1772     1783     1792 
    1806     1827     1848     1864     1880     1888     1888     1884 
    1876     1867     1861     1856     1852     1848     1846     1845 
    1845     1849     1854     1848     1838     1836     1840     1850 
    1863     1875     1885     1894     1899     1908     1919     1929 
    1944     1949     1950     1956     1962     1965     1971     1973 
    1971     1964     1956     1941     1927     1919     1917     1926 
    1939     1954     1975     1999     2015     2025     2027     2027 
    2027     2025     2018     2007     1992     1977     1954     1933 
    1915     1895     1877     1873     1875     1873     1873     1868 
    1853     1831     1815     1804     1800     1809     1818     1825 
    1834     1844     1849     1857     1871     1885     1904     1926 
    1948     1962     1969     1972     1975     1977     1984     1998 
    2006     2011     2019     2026     2029     2031     2037     2049 
    2060     2070     2085     2100     2114     2127     2134     2139 
    2142     2128     2106     2085     2062     2038     2019     2004 
    1998     1996     1988     1980     1969     1949     1927     1906 
    1880     1864     1856     1853     1857     1860     1858     1860 
    1858     1853     1854     1861     1860     1858     1860     1858 
    1856     1857     1863     1868     1879     1895     1906     1911 
    1917     1915     1903     1887     1871     1864     1864     1867 
    1880     1899     1914     1921     1921     1915     1908     1902 
    1899     1898     1891     1881     1871     1856     1837     1825 
    1821     1823     1833     1846     1854     1858     1861     1867 
    1872     1880     1894     1900     1899     1896     1890     1887 
    1892     1890     1888     1890     1890     1896     1911     1925 
    1929     1930     1925     1914     1907     1906     1902     1891 
    1884     1885     1891     1911     1941     1966     1987     1996 
    1991     1991     1998     2006     2016     2026     2029     2034 
    2038     2037     2034     2029     2027     2033     2039     2041 
    2038     2030     2016     1999     1977     1954     1930     1904 
    1887     1873     1856     1841     1831     1833     1842     1853 
    1867     1885     1894     1895     1899     1898     1895     1892 
    1892     1892     1895     1902     1906     1903     1902     1908 
    1915     1921     1931     1942     1948     1950     1953     1961 
    1966     1966     1969     1975     1979     1981     1984     1989 
    1998     2000     2003     2007     2007     2004     2002     2004 
    2014     2018     2019     2022     2014     1998     1983     1964 
    1944     1933     1923     1911     1896     1880     1869     1861 
    1854     1853     1854     1858     1865     1873     1871     1863 
    1854     1846     1845     1850     1852     1860     1873     1883 
    1887     1888     1891     1894     1888     1881     1873     1860 
    1844     1829     1814     1804     1795     1787     1782     1775 
    1765     1760     1755     1753     1765     1783     1798     1818 
    1837     1848     1858     1872     1883     1891     1894     1894 
    1898     1902     1910     1929     1952     1971     1983     1991 
    1998     1996     1991     1992     1995     2002     2008     2014 
    2016     2018     2018     2016     2014     2011     2007     1995 
    1979     1962     1945     1930     1923     1923     1931     1949 
    1965     1981     1995     2003     2010     2016     2022     2035 
    2052     2066     2076     2081     2081     2073     2057     2038 
    2022     2004     1988     1975     1966     1962     1957     1952 
    1953     1956     1956     1958     1960     1957     1958     1964 
    1966     1972     1975     1971     1964     1957     1949     1941 
    1933     1927     1919     1907     1903     1902     1892     1892 
    1895     1883     1873     1872     1871     1872     1877     1879 
    1876     1865     1850     1837     1821     1811     1814     1822 
    1831     1848     1861     1871     1880     1884     1884     1881 
    1881     1884     1877     1869     1868     1864     1861     1864 
    1868     1873     1880     1881     1884     1892     1902     1911 
    1921     1927     1934     1944     1950     1949     1948     1948 
    1948     1946     1946     1948     1944     1942     1950     1953 
    1958     1971     1979     1991     2007     2020     2027     2033 
    2038     2037     2029     2023     2018     2007     2000     1993 
    1975     1954     1934     1914     1895     1880     1869     1865 
    1860     1853     1849     1848     1848     1849     1848     1841 
    1834     1823     1813     1807     1806     1811     1818     1825 
    1837     1850     1865     1877     1884     1884     1880     1877 
    1877     1876     1877     1879     1875     1869     1861     1849 
    1836     1827     1821     1815     1819     1830     1836     1838 
    1844     1848     1852     1865     1880     1894     1911     1927 
    1942     1960     1976     1991     2011     2031     2049     2060 
    2062     2060     2057     2056     2052     2052     2056     2057 
    2065     2080     2087     2089     2089     2079     2064     2049 
    2027     2007     1992     1979     1964     1952     1935     1919 
    1907     1900     1899     1899     1903     1910     1915     1918 
    1918     1917     1919     1925     1930     1934     1934     1931 
    1926     1914     1906     1895     1877     1865     1858     1846 
    1837     1834     1830     1830     1838     1844     1850     1863 
    1872     1881     1896     1912     1922     1927     1934     1939 
    1939     1942     1952     1960     1965     1973     1984     1995 
    2002     2002     2003     1998     1996     2003     2007     2004 
    1999     1987     1973     1957     1941     1929     1926     1929 
    1937     1944     1952     1956     1953     1945     1938     1929 
    1923     1926     1923     1921     1921     1912     1899     1883 
    1856     1831     1813     1798     1788     1780     1775     1775 
    1775     1775     1780     1792     1809     1829     1848     1864 
    1877     1884     1888     1899     1907     1917     1933     1950 
    1966     1981     1992     2002     2011     2018     2018     2010 
    1996     1983     1964     1945     1930     1914     1903     1899 
    1896     1895     1896     1890     1881     1873     1854     1840 
    1830     1818     1810     1803     1800     1804     1807     1811 
    1819     1827     1840     1857     1872     1885     1900     1908 
    1917     1923     1935     1949     1960     1973     1989     2007 
    2029     2054     2081     2110     2138     2164     2188     2207 
    2223     2232     2234     2234     2232     2224     2212     2197 
    2180     2158     2139     2116     2089     2058     2026     1992 
    1958     1925     1894     1863     1830     1800     1775     1749 
    1734     1728     1725     1729     1740     1755     1761     1760 
    1757     1752     1741     1738     1749     1763     1768     1775 
    1786     1796     1810     1822     1836     1856     1875     1887 
    1899     1908     1906     1900     1903     1907     1910     1918 
    1925     1926     1929     1931     1930     1922     1917     1914 
    1915     1915     1919     1923     1919     1911     1903     1894 
    1884     1883     1887     1885     1880     1875     1871     1867 
    1868     1876     1884     1891     1904     1923     1942     1960 
    1972     1984     1989     1991     2000     2008     2007     2011 
    2012     2008     2007     2003     1993     1983     1977     1977 
    1979     1979     1977     1973     1968     1962     1958     1952 
    1954     1965     1977     1987     1995     1998     1995     1989 
    1977     1962     1950     1941     1935     1935     1937     1938 
    1937     1934     1933     1925     1917     1911     1907     1904 
    1904     1900     1894     1888     1876     1861     1846     1829 
    1811     1798     1792     1792     1794     1798     1802     1803 
    1810     1821     1829     1840     1852     1864     1879     1898 
    1921     1942     1961     1981     2006     2029     2046     2053 
    2052     2045     2030     2014     2006     1998     1984     1976 
    1975     1976     1975     1966     1954     1946     1944     1950 
    1968     1988     2006     2016     2016     2012     2011     2007 
    2003     1998     1993     1996     1999     1998     1998     1996 
    1991     1989     1989     1983     1972     1960     1945     1927 
    1908     1892     1879     1871     1872     1873     1877     1888 
    1896     1902     1911     1912     1900     1887     1871     1856 
    1842     1826     1806     1795     1787     1782     1779     1782 
    1791     1799     1809     1825     1838     1841     1846     1849 
    1849     1858     1869     1875     1880     1890     1898     1906 
    1919     1937     1948     1953     1957     1956     1948     1942 
    1938     1929     1918     1910     1908     1910     1908     1908 
    1914     1917     1919     1926     1927     1922     1915     1911 
    1908     1903     1894     1884     1876     1872     1875     1883 
    1894     1903     1911     1917     1923     1933     1941     1948 
    1956     1961     1961     1957     1952     1949     1945     1945 
    1952     1957     1960     1956     1952     1952     1946     1935 
    1933     1935     1938     1945     1952     1958     1966     1971 
    1971     1964     1961     1958     1952     1946     1948     1950 
    1954     1962     1966     1965     1961     1956     1949     1942 
    1930     1921     1918     1915     1912     1912     1915     1914 
    1910     1910     1911     1902     1894     1890     1883     1879 
    1879     1880     1888     1903     1915     1926     1939     1949 
    1960     1969     1977     1983     1983     1980     1984     1987 
    1991     2002     2008     2012     2016     2012     2000     1985 
    1968     1954     1945     1942     1941     1942     1944     1945 
    1945     1945     1946     1946     1944     1937     1931     1927 
    1922     1914     1910     1911     1911     1911     1915     1923 
    1931     1931     1925     1921     1918     1912     1907     1900 
    1896     1894     1890     1885     1885     1885     1887     1884 
    1879     1881     1888     1895     1900     1895     1887     1881 
    1867     1853     1846     1842     1841     1841     1838     1834 
    1827     1822     1819     1821     1826     1834     1836     1829 
    1827     1825     1821     1823     1829     1833     1842     1852 
    1864     1879     1891     1902     1911     1918     1922     1925 
    1934     1945     1956     1966     1976     1979     1979     1983 
    1985     1992     2003     2016     2029     2037     2041     2037 
    2029     2018     2010     2008     2007     2010     2016     2026 
    2034     2038     2042     2042     2037     2026     2014     2004 
    2002     1996     1988     1988     1991     1987     1984     1984 
    1983     1981     1981     1973     1964     1953     1939     1926 
    1912     1898     1888     1887     1887     1884     1883     1880 
    1872     1867     1861     1854     1849     1848     1841     1834 
    1834     1830     1822     1815     1809     1802     1794     1783 
    1782     1792     1804     1819     1841     1858     1871     1883 
    1898     1912     1926     1941     1956     1969     1980     1988 
    1993     2002     2008     2010     2008     1999     1984     1971 
    1960     1950     1942     1937     1938     1945     1950     1952 
    1952     1952     1949     1944     1939     1939     1941     1942 
    1945     1946     1949     1956     1954     1946     1935     1925 
    1911     1899     1885     1871     1860     1850     1840     1829 
    1814     1798     1788     1780     1776     1780     1787     1792 
    1796     1803     1817     1830     1840     1853     1864     1876 
    1894     1910     1927     1944     1957     1971     1985     1996 
    2011     2027     2039     2052     2062     2070     2080     2089 
    2096     2103     2108     2112     2116     2115     2111     2100 
    2084     2072     2056     2035     2020     2007     1989     1975 
    1962     1946     1929     1906     1887     1876     1865     1854 
    1844     1837     1830     1822     1817     1815     1815     1817 
    1826     1840     1850     1863     1876     1888     1902     1910 
