Origin Time       2025/06/03 22:18:00
Lat.              41.7
Long.             143.6
Depth. (km)       30
Mag.              5.2
Station Code      IWTH20
Station Lat.      39.3434
Station Long.     141.0473
Station Height(m) -50.2
Record Time       2025/06/03 22:19:57
Sampling Freq(Hz) 100Hz
Duration Time(s)  120
Dir.              3
Scale Factor      2942(gal)/8224139
Max. Acc. (gal)   0.111
Last Correction   2025/06/03 22:19:58
Memo.             
[...]
  113552   113547   113536   113525   113517   113505   113485   113474 
  113482   113485   113481   113489   113512   113535   113551   113560 
  113572   113594   113624   113651   113674   113692   113705   113711 
  113718   113713   113686   113659   113651   113649   113640   113622 
  113598   113578   113575   113587   113598   113599   113589   113564 
  113539   113529   113524   113520   113535   113567   113589   113590 
  113590   113589   113571   113553   113562   113582   113583   113583 
  113599   113611   113610   113607   113606   113606   113607   113611 
  113611   113609   113610   113613   113613   113611   113605   113597 
  113591   113587   113582   113575   113576   113593   113602   113589 
  113570   113564   113562   113566   113586   113606   113616   113640 
  113672   113682   113671   113660   113657   113649   113633   113609 
  113586   113576   113576   113582   113590   113601   113603   113590 
  113568   113551   113541   113532   113522   113530   113560   113589 
  113595   113591   113589   113590   113598   113616   113634   113647 
  113656   113659   113644   113624   113617   113618   113622   113625 
  113613   113584   113557   113545   113541   113530   113520   113524 
  113530   113533   113547   113559   113549   113533   113530   113543 
  113567   113591   113613   113637   113668   113697   113710   113726 
  113757   113790   113800   113788   113748   113684   113637   113628 
  113633   113634   113620   113584   113551   113529   113512   113498 
  113498   113508   113516   113512   113505   113518   113547   113572 
  113597   113614   113611   113594   113584   113586   113597   113610 
  113626   113630   113625   113620   113601   113567   113540   113532 
  113528   113517   113514   113525   113541   113555   113568   113576 
  113582   113593   113605   113613   113617   113611   113597   113582 
  113566   113552   113549   113562   113578   113582   113580   113587 
  113594   113590   113576   113562   113556   113571   113593   113605 
  113616   113633   113659   113675   113664   113632   113597   113586 
  113606   113628   113626   113616   113606   113593   113576   113576 
  113595   113618   113630   113629   113624   113614   113605   113598 
  113591   113595   113629   113665   113671   113648   113607   113566 
  113553   113571   113591   113605   113610   113607   113602   113602 
  113605   113610   113629   113655   113661   113656   113653   113649 
  113645   113647   113648   113648   113655   113670   113671   113648 
  113625   113616   113605   113579   113555   113549   113557   113556 
  113545   113540   113553   113566   113562   113552   113543   113539 
  113541   113545   113544   113540   113547   113567   113578   113576 
  113576   113578   113579   113584   113584   113566   113537   113528 
  113543   113566   113570   113560   113552   113552   113562   113578 
  113583   113586   113607   113636   113640   113620   113599   113594 
  113593   113589   113589   113602   113633   113668   113679   113675 
  113672   113663   113643   113617   113594   113583   113583   113583 
  113576   113562   113540   113510   113490   113494   113517   113553 
  113584   113595   113591   113578   113570   113570   113567   113567 
  113583   113607   113628   113640   113652   113678   113707   113721 
  113713   113695   113672   113647   113628   113610   113593   113575 
  113562   113564   113583   113594   113597   113605   113616   113617 
  113606   113583   113544   113508   113502   113529   113570   113606 
  113632   113660   113680   113671   113630   113582   113541   113524 
  113549   113589   113603   113614   113632   113633   113621   113602 
  113579   113571   113575   113568   113555   113557   113578   113597 
  113602   113601   113620   113653   113678   113682   113676   113661 
  113644   113637   113643   113661   113682   113678   113648   113632 
  113645   113665   113670   113667   113653   113624   113597   113584 
  113580   113578   113559   113537   113537   113543   113539   113543 
  113562   113580   113594   113589   113563   113535   113517   113520 
  113540   113559   113566   113582   113616   113651   113659   113637 
  113611   113605   113613   113621   113622   113616   113594   113568 
  113553   113537   113513   113486   113468   113474   113486   113489 
  113487   113478   113463   113458   113455   113444   113445   113475 
  113520   113560   113586   113597   113605   113620   113622   113613 
  113626   113656   113670   113668   113660   113645   113624   113594 
  113568   113572   113605   113647   113684   113702   113691   113656 
  113602   113551   113532   113539   113535   113520   113514   113522 
  113543   113564   113594   113633   113663   113668   113649   113622 
  113618   113643   113665   113683   113719   113768   113807   113829 
  113829   113803   113768   113733   113698   113670   113648   113633 
  113636   113645   113641   113620   113584   113543   113513   113512 
  113516   113506   113505   113513   113505   113487   113478   113479 
  113510   113567   113599   113593   113589   113614   113651   113679 
  113692   113688   113686   113692   113692   113665   113626   113598 
  113580   113560   113549   113553   113553   113551   113552   113547 
  113533   113518   113506   113501   113506   113516   113539   113579 
  113609   113624   113625   113628   113648   113667   113661   113649 
  113647   113638   113610   113576   113553   113541   113533   113530 
  113532   113518   113481   113447   113443   113454   113460   113463 
  113479   113521   113582   113633   113647   113630   113621   113616 
  113598   113566   113532   113517   113524   113551   113599   113643 
  113647   113625   113618   113640   113674   113701   113717   113726 
  113737   113751   113764   113771   113763   113738   113705   113682 
  113680   113672   113637   113598   113576   113578   113591   113590 
  113544   113475   113421   113405   113422   113456   113489   113517 
  113545   113571   113586   113587   113590   113605   113630   113652 
  113653   113636   113629   113648   113674   113687   113678   113648 
  113622   113603   113575   113544   113525   113517   113509   113508 
  113513   113510   113491   113474   113479   113493   113499   113512 
  113543   113576   113603   113616   113616   113616   113621   113632 
  113655   113687   113711   113722   113719   113699   113664   113626 
  113606   113605   113618   113651   113691   113722   113728   113711 
  113691   113683   113676   113651   113607   113570   113562   113576 
  113602   113622   113617   113597   113593   113593   113571   113540 
  113513   113493   113491   113506   113522   113539   113549   113563 
  113595   113630   113640   113628   113618   113634   113653   113645 
  113628   113625   113640   113648   113641   113617   113570   113514 
  113483   113487   113508   113525   113544   113568   113594   113610 
  113597   113563   113545   113562   113591   113599   113584   113579 
  113591   113602   113598   113583   113560   113532   113517   113520 
  113532   113562   113593   113601   113597   113590   113571   113555 
  113564   113582   113591   113599   113613   113638   113664   113679 
  113688   113695   113697   113684   113660   113644   113637   113618 
  113593   113564   113522   113478   113448   113448   113478   113510 
  113532   113551   113560   113559   113563   113582   113601   113598 
  113586   113578   113584   113620   113664   113675   113659   113653 
  113661   113651   113618   113589   113574   113570   113570   113571 
  113567   113562   113557   113547   113537   113540   113552   113570 
  113595   113618   113637   113651   113655   113657   113661   113670 
  113676   113679   113678   113675   113675   113694   113729   113744 
  113730   113710   113697   113687   113687   113698   113698   113668 
  113630   113613   113611   113610   113599   113587   113580   113576 
  113566   113544   113525   113516   113512   113510   113505   113493 
  113485   113503   113545   113580   113587   113568   113547   113537 
  113543   113556   113576   113603   113636   113665   113670   113643 
  113606   113572   113545   113535   113543   113564   113578   113579 
  113575   113567   113566   113566   113560   113556   113563   113566 
  113545   113521   113510   113502   113486   113479   113502   113544 
  113591   113630   113637   113607   113572   113562   113578   113607 
  113634   113655   113684   113715   113730   113732   113729   113719 
  113702   113678   113663   113663   113668   113660   113629   113587 
  113545   113510   113487   113485   113491   113508   113544   113582 
  113594   113594   113617   113670   113722   113748   113757   113771 
  113787   113794   113783   113757   113728   113690   113644   113613 
  113606   113593   113555   113505   113467   113451   113433   113398 
  113368   113366   113379   113398   113416   113435   113455   113482 
  113524   113574   113614   113629   113626   113637   113668   113687 
  113670   113636   113617   113617   113620   113617   113614   113618 
  113621   113610   113599   113602   113616   113613   113587   113559 
  113544   113544   113548   113540   113521   113509   113513   113529 
  113543   113547   113543   113537   113551   113587   113609   113605 
  113598   113609   113630   113648   113645   113622   113593   113576 
  113572   113568   113563   113564   113583   113607   113624   113625 
  113611   113595   113586   113586   113589   113593   113599   113617 
  113638   113660   113686   113709   113710   113702   113706   113728 
  113753   113773   113783   113769   113742   113721   113701   113668 
  113638   113618   113605   113607   113620   113611   113574   113533 
  113508   113503   113512   113510   113498   113493   113501   113508 
  113510   113517   113533   113552   113568   113580   113595   113625 
  113657   113680   113694   113697   113686   113674   113665   113647 
  113611   113579   113570   113566   113553   113543   113553   113580 
  113599   113598   113582   113559   113548   113566   113583   113586 
  113591   113609   113626   113645   113672   113692   113698   113692 
  113683   113672   113651   113630   113616   113597   113586   113597 
  113613   113614   113609   113599   113580   113557   113533   113517 
  113513   113512   113512   113530   113563   113593   113613   113617 
  113611   113595   113574   113564   113572   113579   113575   113566 
  113551   113533   113516   113493   113470   113454   113436   113427 
  113431   113435   113429   113427   113429   113425   113420   113433 
  113458   113486   113530   113591   113648   113682   113703   113724 
  113738   113740   113740   113745   113753   113756   113751   113752 
  113753   113741   113725   113703   113680   113660   113636   113613 
  113598   113584   113574   113571   113566   113556   113548   113540 
  113532   113520   113508   113517   113524   113514   113518   113543 
  113572   113610   113641   113648   113649   113660   113671   113686 
  113701   113717   113733   113749   113769   113787   113784   113760 
  113734   113706   113664   113618   113583   113562   113557   113578 
  113609   113630   113630   113616   113601   113591   113583   113575 
  113567   113560   113548   113529   113505   113487   113476   113467 
  113455   113440   113425   113417   113417   113428   113449   113470 
  113482   113491   113516   113555   113590   113609   113617   113628 
  113637   113636   113632   113632   113637   113653   113663   113652 
  113633   113613   113580   113539   113491   113441   113414   113418 
  113433   113441   113443   113441   113445   113459   113471   113472 
  113478   113508   113552   113597   113629   113648   113664   113688 
  113703   113695   113692   113710   113725   113728   113729   113726 
  113726   113740   113756   113768   113778   113779   113769   113756 
  113752   113765   113778   113771   113753   113732   113707   113698 
  113698   113690   113674   113663   113648   113626   113606   113586 
  113566   113544   113524   113512   113505   113501   113495   113482 
  113472   113485   113505   113514   113533   113566   113601   113638 
  113680   113709   113721   113732   113740   113738   113737   113741 
  113745   113744   113729   113707   113680   113644   113605   113570 
  113541   113532   113533   113528   113516   113505   113499   113499 
  113505   113516   113526   113532   113547   113575   113593   113589 
  113580   113584   113594   113598   113591   113579   113574   113575 
  113572   113570   113578   113586   113589   113589   113589   113583 
  113586   113603   113626   113636   113632   113620   113599   113574 
  113560   113548   113514   113463   113417   113398   113394   113389 
  113387   113389   113387   113389   113400   113422   113451   113476 
  113494   113514   113544   113567   113575   113590   113610   113621 
  113624   113620   113609   113597   113589   113586   113590   113591 
  113586   113576   113563   113548   113522   113502   113495   113491 
  113491   113513   113547   113575   113593   113598   113597   113599 
  113598   113582   113566   113563   113574   113586   113587   113579 
  113563   113535   113506   113494   113489   113479   113472   113471 
  113472   113481   113495   113514   113545   113579   113609   113638 
  113670   113699   113729   113749   113764   113780   113796   113823 
  113856   113873   113879   113883   113883   113888   113900   113907 
  113900   113876   113846   113826   113807   113787   113765   113745 
  113732   113717   113690   113663   113652   113643   113637   113641 
  113652   113668   113680   113690   113705   113722   113737   113742 
  113736   113730   113728   113728   113740   113755   113752   113741 
  113722   113690   113653   113630   113613   113586   113551   113514 
  113474   113444   113433   113427   113417   113420   113433   113441 
  113443   113451   113460   113467   113481   113505   113528   113537 
  113532   113521   113521   113530   113543   113548   113547   113547 
  113549   113552   113544   113517   113486   113464   113448   113428 
  113406   113387   113371   113355   113340   113339   113343   113347 
  113352   113366   113383   113402   113422   113443   113466   113487 
  113499   113513   113532   113551   113578   113614   113640   113652 
  113655   113660   113674   113695   113703   113692   113682   113675 
  113665   113648   113626   113610   113607   113610   113609   113602 
  113602   113601   113599   113606   113614   113617   113609   113599 
  113601   113613   113622   113630   113644   113661   113671   113671 
  113671   113675   113678   113680   113679   113678   113682   113680 
  113667   113660   113660   113655   113648   113647   113652   113651 
  113643   113643   113655   113664   113664   113663   113665   113663 
  113649   113636   113628   113620   113613   113614   113620   113621 
  113614   113601   113589   113587   113597   113609   113625   113648 
  113661   113665   113675   113686   113686   113686   113683   113678 
  113674   113668   113663   113657   113637   113616   113610   113614 
  113609   113594   113578   113562   113545   113532   113518   113506 
  113503   113508   113516   113533   113552   113563   113568   113572 
  113572   113563   113549   113543   113544   113544   113548   113559 
  113564   113564   113568   113578   113587   113591   113586   113576 
  113571   113562   113553   113559   113575   113591   113597   113584 
  113570   113560   113559   113570   113575   113572   113570   113566 
  113560   113555   113547   113544   113548   113564   113576   113568 
  113556   113556   113549   113530   113517   113524   113547   113568 
  113580   113583   113586   113599   113624   113652   113683   113706 
  113711   113710   113705   113697   113690   113682   113663   113636 
  113614   113606   113594   113574   113555   113541   113525   113509 
  113493   113476   113466   113464   113476   113499   113518   113524 
  113530   113540   113540   113536   113532   113529   113541   113570 
  113590   113598   113602   113599   113598   113613   113634   113649 
  113663   113668   113663   113656   113652   113648   113641   113643 
  113648   113643   113636   113633   113625   113625   113636   113648 
  113657   113672   113688   113703   113713   113725   113738   113748 
  113761   113780   113790   113788   113779   113769   113765   113753 
  113729   113699   113667   113633   113597   113570   113559   113553 
  113532   113505   113491   113486   113482   113489   113506   113521 
  113530   113544   113559   113571   113578   113578   113578   113579 
  113579   113571   113555   113540   113529   113514   113494   113476 
  113463   113458   113462   113464   113460   113462   113464   113462 
  113458   113462   113478   113490   113491   113493   113499   113501 
  113497   113495   113502   113513   113524   113543   113564   113582 
  113605   113628   113651   113672   113682   113684   113684   113680 
  113680   113688   113695   113697   113690   113678   113667   113660 
  113655   113645   113636   113629   113620   113609   113598   113591 
  113586   113575   113567   113572   113582   113591   113607   113630 
  113649   113660   113672   113688   113699   113709   113722   113738 
  113752   113763   113771   113775   113782   113792   113795   113779 
  113751   113725   113705   113684   113663   113643   113620   113593 
  113564   113537   113514   113495   113478   113467   113466   113464 
  113454   113439   113439   113449   113460   113475   113495   113509 
  113526   113544   113551   113552   113551   113547   113543   113543 
  113544   113553   113568   113571   113556   113536   113522   113520 
  113525   113528   113524   113518   113512   113512   113522   113547 
  113566   113575   113591   113606   113613   113624   113636   113643 
  113645   113644   113638   113634   113637   113638   113637   113641 
  113643   113634   113621   113611   113605   113595   113589   113586 
  113580   113572   113572   113580   113582   113579   113579   113586 
  113597   113611   113630   113647   113664   113688   113714   113734 
  113734   113724   113718   113705   113676   113651   113628   113601 
  113567   113536   113517   113508   113499   113493   113491   113491 
  113487   113485   113491   113505   113528   113557   113591   113617 
  113630   113645   113670   113694   113717   113738   113748   113738 
  113729   113721   113711   113705   113703   113699   113692   113684 
  113675   113657   113632   113601   113578   113567   113557   113541 
  113525   113520   113520   113508   113483   113470   113472   113481 
  113489   113495   113505   113520   113535   113544   113553   113564 
  113579   113597   113616   113634   113644   113647   113649   113653 
  113656   113660   113661   113655   113647   113637   113628   113609 
  113584   113568   113557   113547   113545   113548   113552   113559 
  113564   113564   113562   113557   113553   113551   113551   113553 
  113563   113574   113579   113580   113580   113578   113582   113593 
  113595   113586   113580   113579   113571   113560   113552   113547 
  113548   113560   113575   113578   113576   113572   113562   113560 
