Origin Time       2025/06/03 22:18:00
Lat.              41.7
Long.             143.6
Depth. (km)       30
Mag.              5.2
Station Code      IWTH20
Station Lat.      39.3434
Station Long.     141.0473
Station Height(m) 106
Record Time       2025/06/03 22:19:57
Sampling Freq(Hz) 100Hz
Duration Time(s)  120
Dir.              5
Scale Factor      7845(gal)/8223790
Max. Acc. (gal)   0.271
Last Correction   2025/06/03 22:19:58
Memo.             
[...]
    1062     1061     1062     1059     1065     1070     1071     1078 
    1088     1090     1090     1086     1077     1075     1078     1078 
    1081     1088     1094     1102     1109     1116     1117     1111 
    1105     1104     1100     1093     1089     1082     1075     1073 
    1074     1077     1082     1088     1093     1101     1108     1112 
    1113     1112     1104     1093     1088     1085     1084     1092 
    1098     1101     1102     1100     1100     1109     1116     1121 
    1131     1135     1136     1138     1138     1139     1144     1151 
    1158     1158     1150     1140     1129     1113     1101     1090 
    1081     1073     1069     1066     1065     1065     1063     1055 
    1054     1061     1062     1062     1070     1077     1082     1089 
    1093     1097     1105     1112     1119     1123     1125     1125 
    1123     1116     1108     1102     1098     1094     1092     1090 
    1085     1078     1074     1069     1069     1075     1084     1086 
    1084     1074     1069     1066     1066     1070     1075     1078 
    1082     1086     1082     1073     1066     1057     1047     1044 
    1046     1054     1065     1071     1078     1084     1081     1082 
    1085     1093     1102     1109     1112     1115     1115     1113 
    1112     1108     1108     1115     1127     1136     1140     1140 
    1136     1124     1111     1098     1081     1069     1062     1059 
    1065     1069     1067     1070     1070     1061     1050     1040 
    1031     1028     1032     1040     1053     1062     1065     1066 
    1067     1067     1070     1070     1069     1069     1069     1069 
    1071     1074     1080     1089     1097     1102     1105     1104 
    1101     1098     1097     1101     1104     1108     1116     1127 
    1140     1159     1173     1181     1185     1178     1167     1156 
    1142     1127     1120     1115     1108     1105     1102     1100 
    1096     1092     1092     1094     1094     1094     1096     1100 
    1102     1100     1096     1097     1097     1097     1102     1111 
    1116     1112     1108     1104     1096     1089     1089     1086 
    1084     1082     1078     1078     1081     1086     1093     1092 
    1082     1074     1065     1055     1053     1054     1061     1073 
    1081     1081     1074     1065     1059     1059     1059     1063 
    1070     1071     1071     1071     1069     1063     1061     1062 
    1074     1090     1102     1116     1124     1120     1112     1107 
    1104     1111     1123     1135     1150     1163     1171     1167 
    1152     1139     1125     1108     1093     1078     1061     1046 
    1030     1019     1016     1020     1027     1036     1043     1047 
    1048     1044     1039     1042     1048     1057     1065     1078 
    1094     1105     1109     1113     1120     1125     1125     1117 
    1109     1096     1077     1066     1058     1054     1062     1071 
    1082     1098     1112     1121     1132     1138     1142     1148 
    1148     1143     1136     1129     1123     1120     1117     1113 
    1111     1111     1111     1108     1098     1086     1073     1065 
    1067     1074     1075     1075     1077     1080     1085     1089 
    1088     1084     1078     1077     1077     1078     1080     1081 
    1088     1097     1102     1105     1104     1100     1098     1101 
    1105     1113     1119     1117     1115     1107     1097     1086 
    1077     1071     1067     1069     1075     1084     1088     1096 
    1109     1123     1127     1125     1119     1105     1089     1078 
    1078     1084     1089     1093     1093     1090     1093     1096 
    1092     1090     1096     1104     1107     1101     1092     1077 
    1062     1053     1051     1053     1057     1059     1065     1081 
    1100     1116     1127     1129     1128     1131     1136     1143 
    1147     1148     1148     1148     1144     1132     1119     1107 
    1094     1086     1073     1057     1044     1036     1034     1039 
    1046     1053     1063     1074     1078     1081     1082     1075 
    1066     1061     1051     1042     1038     1038     1042     1054 
    1067     1078     1082     1074     1066     1061     1053     1048 
    1050     1053     1058     1067     1071     1075     1084     1094 
    1109     1123     1127     1117     1104     1090     1078     1069 
    1069     1080     1096     1119     1138     1143     1139     1131 
    1121     1116     1112     1105     1108     1116     1123     1128 
    1129     1128     1128     1124     1116     1112     1109     1105 
    1102     1098     1097     1097     1094     1093     1093     1096 
    1100     1104     1104     1101     1097     1094     1092     1088 
    1088     1090     1093     1098     1102     1098     1093     1090 
    1090     1088     1081     1075     1067     1059     1057     1063 
    1073     1080     1086     1089     1085     1081     1077     1074 
    1075     1081     1085     1088     1088     1085     1081     1080 
    1084     1082     1080     1082     1086     1093     1098     1094 
    1090     1092     1089     1092     1098     1107     1111     1115 
    1117     1119     1117     1113     1112     1112     1119     1129 
    1140     1154     1163     1162     1155     1142     1116     1092 
    1077     1065     1061     1061     1059     1063     1069     1070 
    1075     1080     1075     1071     1069     1065     1058     1057 
    1058     1054     1048     1046     1040     1032     1030     1031 
    1039     1050     1057     1063     1074     1081     1081     1082 
    1081     1078     1082     1089     1096     1105     1115     1124 
    1139     1156     1166     1169     1166     1163     1156     1148 
    1144     1140     1132     1125     1117     1104     1082     1065 
    1053     1044     1043     1051     1058     1061     1063     1058 
    1053     1053     1057     1065     1082     1098     1105     1111 
    1116     1121     1127     1131     1131     1129     1127     1125 
    1129     1129     1121     1113     1104     1089     1070     1061 
    1059     1055     1051     1051     1053     1053     1053     1053 
    1057     1062     1069     1080     1088     1090     1088     1078 
    1067     1058     1053     1050     1050     1051     1057     1065 
    1075     1090     1100     1104     1112     1128     1143     1152 
    1152     1146     1136     1121     1111     1108     1113     1123 
    1134     1142     1147     1144     1139     1132     1120     1105 
    1092     1078     1066     1057     1050     1048     1054     1063 
    1074     1084     1094     1109     1119     1125     1135     1139 
    1135     1127     1116     1107     1096     1088     1086     1089 
    1088     1088     1090     1093     1090     1082     1070     1063 
    1055     1044     1036     1027     1020     1024     1035     1044 
    1053     1059     1058     1051     1046     1048     1055     1071 
    1100     1127     1143     1151     1151     1147     1148     1150 
    1150     1154     1158     1161     1162     1161     1155     1144 
    1129     1116     1107     1093     1084     1080     1075     1073 
    1069     1062     1053     1043     1031     1024     1030     1042 
    1051     1061     1073     1084     1094     1108     1121     1131 
    1132     1119     1100     1085     1073     1061     1050     1042 
    1036     1040     1053     1065     1078     1092     1098     1096 
    1089     1086     1084     1080     1088     1102     1115     1124 
    1136     1144     1142     1132     1121     1105     1088     1078 
    1075     1073     1069     1065     1058     1044     1031     1020 
    1016     1017     1026     1042     1066     1093     1117     1136 
    1147     1150     1142     1131     1123     1109     1093     1082 
    1077     1080     1085     1086     1084     1085     1093     1104 
    1108     1116     1128     1142     1158     1178     1205     1237 
    1262     1273     1278     1273     1254     1227     1193     1156 
    1121     1085     1055     1030     1001      972      942      913 
     891      880      881      888      897      911      926      940 
     961      986     1016     1059     1107     1144     1169     1189 
    1200     1198     1189     1169     1140     1113     1088     1069 
    1065     1073     1088     1101     1101     1089     1065     1038 
    1021     1012     1015     1032     1062     1098     1142     1189 
    1232     1270     1301     1313     1302     1277     1233     1178 
    1124     1081     1047     1026     1009      992      976      969 
     967      977      993     1001     1001      997      994      996 
    1007     1024     1051     1089     1135     1181     1219     1235 
    1220     1182     1140     1100     1065     1046     1048     1067 
    1101     1138     1163     1182     1192     1185     1167     1144 
    1124     1108     1093     1088     1094     1117     1151     1182 
    1204     1217     1216     1193     1148     1088     1026      977 
     950      946      959      974      984      985      972      954 
     942      932      940      967     1005     1044     1077     1098 
    1113     1121     1131     1143     1154     1167     1185     1198 
    1209     1216     1205     1177     1148     1121     1094     1084 
    1092     1100     1109     1123     1131     1127     1117     1112 
    1107     1098     1093     1089     1080     1063     1050     1047 
    1051     1063     1077     1082     1075     1069     1065     1067 
    1078     1089     1093     1093     1088     1080     1074     1071 
    1074     1081     1082     1075     1057     1031     1004      986 
     978      986     1003     1027     1066     1115     1166     1223 
    1271     1297     1302     1293     1271     1252     1240     1231 
    1227     1228     1229     1227     1209     1181     1140     1081 
    1021      972      930      900      886      882      877      877 
     889      903      915      924      926      927      934      943 
     962      985     1008     1034     1065     1104     1148     1185 
    1210     1221     1220     1216     1208     1194     1183     1173 
    1161     1151     1155     1161     1161     1167     1175     1179 
    1185     1188     1179     1166     1154     1146     1147     1152 
    1169     1194     1213     1213     1197     1171     1131     1086 
    1050     1015      981      969      973      980      997     1024 
    1044     1058     1069     1078     1089     1089     1073     1053 
    1028     1004      996     1008     1039     1078     1105     1112 
    1101     1074     1040     1005      981      976      986     1009 
    1040     1077     1108     1132     1159     1185     1204     1212 
    1213     1212     1215     1212     1205     1197     1182     1156 
    1123     1085     1055     1030     1013     1013     1024     1032 
    1038     1032     1016      997      978      969      970      981 
     999     1030     1069     1100     1117     1123     1119     1113 
    1109     1102     1094     1084     1069     1055     1039     1021 
    1012     1009     1013     1034     1069     1102     1135     1155 
    1161     1158     1147     1131     1131     1142     1161     1190 
    1225     1250     1252     1225     1179     1124     1074     1044 
    1030     1021     1021     1026     1024     1015     1000      982 
     963      946      940      953      978     1013     1047     1074 
    1097     1117     1138     1162     1189     1221     1247     1260 
    1263     1258     1246     1232     1219     1206     1193     1183 
    1177     1167     1150     1127     1101     1077     1048     1019 
     988      957      931      915      911      924      954      993 
    1048     1107     1144     1158     1155     1135     1112     1089 
    1074     1074     1080     1089     1109     1129     1146     1155 
    1159     1158     1148     1129     1105     1077     1053     1034 
    1017     1001      990      986      994     1015     1042     1073 
    1105     1132     1156     1177     1186     1183     1178     1178 
    1179     1171     1161     1146     1125     1104     1089     1080 
    1073     1078     1094     1116     1134     1142     1139     1135 
    1131     1125     1128     1131     1127     1125     1120     1098 
    1066     1024      972      920      895      908      959     1024 
    1077     1109     1117     1102     1080     1054     1034     1027 
    1034     1042     1047     1047     1038     1031     1043     1075 
    1123     1175     1215     1220     1192     1144     1093     1044 
    1015     1013     1038     1077     1109     1120     1108     1086 
    1065     1050     1047     1059     1082     1107     1119     1117 
    1108     1094     1080     1071     1074     1086     1104     1125 
    1136     1120     1086     1047     1013     1001     1016     1058 
    1113     1171     1220     1251     1254     1228     1186     1142 
    1105     1096     1108     1131     1158     1188     1213     1233 
    1247     1252     1243     1221     1192     1151     1097     1042 
     994      961      953      980     1028     1080     1125     1155 
    1167     1166     1158     1143     1115     1080     1058     1054 
    1063     1085     1116     1146     1162     1166     1154     1121 
    1077     1032      992      951      908      866      831      808 
     812      845      897      953      997     1023     1043     1063 
    1082     1104     1119     1117     1117     1124     1134     1159 
    1186     1196     1188     1158     1111     1062     1026     1000 
     992     1001     1019     1031     1038     1044     1047     1048 
    1058     1071     1085     1102     1115     1117     1123     1135 
    1159     1197     1240     1271     1287     1287     1266     1228 
    1178     1123     1067     1021      990      977      980      994 
    1007     1016     1020     1021     1026     1035     1047     1062 
    1075     1086     1096     1108     1129     1166     1216     1264 
    1297     1302     1279     1235     1173     1102     1046     1013 
    1005     1019     1053     1093     1124     1132     1123     1108 
    1089     1070     1058     1051     1050     1053     1057     1067 
    1088     1112     1144     1185     1227     1250     1247     1231 
    1198     1155     1121     1104     1100     1113     1142     1166 
    1175     1162     1124     1067     1005      955      924      905 
     900      909      928      954      990     1036     1092     1147 
    1194     1231     1252     1258     1256     1247     1228     1200 
    1162     1115     1069     1028     1005      999      996      996 
     992      976      951      922      893      868      851      851 
     876      923      988     1061     1132     1193     1236     1254 
    1254     1250     1243     1246     1258     1270     1270     1242 
    1185     1116     1051     1001      980      977      984      988 
     980      966      958      959      969      990     1019     1048 
    1077     1100     1128     1161     1190     1216     1240     1252 
    1237     1196     1136     1077     1027      990      980      988 
     997     1003     1008     1015     1019     1026     1043     1071 
    1104     1139     1170     1190     1201     1202     1196     1188 
    1181     1170     1151     1136     1136     1143     1150     1158 
    1154     1129     1098     1067     1036     1020     1021     1039 
    1063     1090     1119     1139     1147     1152     1154     1156 
    1159     1150     1136     1121     1100     1077     1063     1055 
    1047     1040     1034     1027     1024     1028     1034     1036 
    1039     1038     1027     1015     1009     1012     1032     1063 
    1096     1125     1148     1162     1182     1206     1227     1250 
    1271     1273     1255     1228     1194     1170     1161     1154 
    1147     1134     1115     1092     1069     1047     1027     1009 
     996      982      972      961      947      935      931      942 
     967     1004     1035     1055     1070     1078     1074     1069 
    1067     1066     1065     1062     1063     1070     1075     1077 
    1070     1055     1034     1016     1007     1000      992      989 
     988      989     1000     1019     1038     1054     1070     1085 
    1096     1104     1109     1116     1120     1124     1139     1163 
    1189     1215     1236     1244     1248     1248     1251     1263 
    1271     1271     1267     1248     1224     1197     1162     1132 
    1117     1109     1104     1090     1065     1032     1003      982 
     972      972      978      986      994      999     1003     1012 
    1028     1057     1092     1123     1146     1161     1163     1156 
    1148     1142     1128     1108     1086     1065     1043     1032 
    1035     1048     1065     1075     1085     1092     1090     1093 
    1107     1124     1146     1165     1182     1202     1221     1232 
    1239     1239     1227     1202     1175     1152     1140     1142 
    1155     1173     1185     1193     1200     1209     1224     1250 
    1278     1296     1289     1263     1213     1148     1088     1036 
     994      974      977      984      993     1001      996      982 
     957      928      911      903      911      927      936      940 
     936      919      896      884      882      891      907      927 
     950      976     1000     1016     1026     1030     1034     1043 
    1062     1086     1109     1125     1138     1148     1155     1162 
    1169     1169     1159     1144     1128     1104     1066     1031 
    1004      985      980      992     1015     1043     1074     1104 
    1124     1135     1144     1144     1131     1119     1123     1136 
    1155     1175     1186     1189     1190     1185     1171     1151 
    1129     1108     1081     1042     1003      969      946      940 
     949      965      985     1007     1027     1046     1063     1080 
    1093     1102     1108     1115     1129     1151     1170     1181 
    1192     1197     1197     1193     1182     1175     1181     1197 
    1223     1243     1246     1237     1215     1181     1151     1138 
    1138     1143     1147     1147     1144     1139     1135     1140 
    1154     1170     1178     1186     1196     1198     1196     1201 
    1209     1215     1219     1213     1197     1175     1159     1144 
    1127     1107     1090     1077     1065     1061     1061     1059 
    1058     1055     1047     1035     1023     1019     1020     1021 
    1021     1015      997      974      959      954      958      978 
    1008     1038     1062     1080     1082     1074     1059     1036 
    1021     1027     1044     1071     1107     1143     1175     1193 
    1196     1186     1171     1151     1124     1090     1053     1016 
     992      981      982      996     1016     1039     1058     1069 
    1074     1078     1075     1078     1082     1085     1093     1107 
    1113     1112     1109     1102     1097     1097     1096     1088 
    1080     1070     1053     1035     1023     1009      986      965 
