Origin Time       2025/06/03 22:18:00
Lat.              41.7
Long.             143.6
Depth. (km)       30
Mag.              5.2
Station Code      IWTH20
Station Lat.      39.3434
Station Long.     141.0473
Station Height(m) -50.2
Record Time       2025/06/03 22:19:57
Sampling Freq(Hz) 100Hz
Duration Time(s)  120
Dir.              2
Scale Factor      2942(gal)/8224139
Max. Acc. (gal)   0.134
Last Correction   2025/06/03 22:19:58
Memo.             
[...]
   55501    55494    55506    55512    55507    55503    55501    55497 
   55494    55490    55479    55458    55444    55453    55468    55471 
   55474    55482    55493    55494    55483    55485    55493    55478 
   55459    55452    55439    55425    55433    55456    55467    55463 
   55455    55460    55482    55498    55502    55506    55505    55499 
   55506    55512    55503    55493    55491    55495    55499    55499 
   55507    55513    55502    55490    55487    55485    55480    55474 
   55464    55471    55487    55491    55486    55468    55449    55435 
   55421    55416    55422    55426    55424    55421    55437    55455 
   55455    55448    55451    55462    55479    55490    55493    55490 
   55489    55490    55502    55516    55517    55510    55510    55516 
   55520    55514    55498    55485    55487    55489    55479    55480 
   55494    55507    55517    55513    55502    55493    55485    55478 
   55475    55472    55476    55487    55489    55486    55480    55478 
   55493    55503    55491    55480    55471    55453    55444    55443 
   55443    55451    55459    55453    55455    55467    55476    55480 
   55485    55493    55509    55516    55499    55482    55479    55485 
   55489    55490    55494    55509    55514    55498    55479    55478 
   55486    55501    55513    55505    55490    55483    55486    55494 
   55509    55517    55507    55497    55493    55485    55480    55490 
   55505    55521    55534    55530    55521    55518    55516    55507 
   55505    55502    55502    55522    55533    55518    55498    55489 
   55491    55502    55510    55512    55513    55505    55489    55491 
   55502    55498    55491    55498    55509    55512    55503    55493 
   55476    55460    55455    55456    55443    55426    55416    55412 
   55420    55433    55443    55444    55437    55437    55436    55432 
   55435    55437    55444    55460    55466    55472    55494    55507 
   55516    55534    55544    55541    55539    55529    55520    55521 
   55520    55510    55501    55493    55490    55479    55472    55486 
   55493    55480    55474    55466    55443    55436    55436    55418 
   55406    55417    55426    55432    55456    55483    55490    55501 
   55514    55526    55545    55560    55568    55578    55590    55611 
   55633    55641    55632    55609    55587    55570    55557    55549 
   55544    55543    55530    55494    55462    55437    55404    55375 
   55360    55355    55356    55348    55344    55354    55351    55339 
   55344    55356    55364    55372    55374    55374    55386    55399 
   55410    55426    55448    55482    55517    55541    55566    55595 
   55620    55638    55661    55676    55667    55657    55668    55668 
   55642    55606    55572    55556    55556    55552    55537    55510 
   55478    55448    55413    55379    55367    55374    55379    55386 
   55387    55391    55405    55413    55420    55435    55449    55464 
   55479    55498    55521    55543    55557    55559    55548    55548 
   55566    55580    55587    55587    55574    55564    55563    55556 
   55545    55526    55495    55464    55445    55425    55405    55398 
   55391    55378    55356    55333    55332    55355    55366    55360 
   55362    55378    55401    55428    55459    55487    55520    55557 
   55587    55607    55621    55625    55618    55605    55593    55584 
   55576    55580    55594    55595    55587    55582    55568    55543 
   55513    55483    55468    55466    55463    55453    55433    55409 
   55408    55429    55447    55458    55485    55516    55528    55530 
   55533    55529    55518    55512    55510    55497    55464    55429 
   55410    55420    55441    55453    55458    55459    55458    55460 
   55476    55502    55510    55506    55507    55501    55486    55474 
   55458    55432    55412    55405    55401    55391    55378    55371 
   55377    55386    55391    55385    55374    55377    55393    55416 
   55448    55475    55501    55533    55566    55597    55625    55629 
   55609    55587    55572    55548    55507    55472    55466    55483 
   55502    55507    55516    55516    55503    55489    55482    55491 
   55514    55533    55557    55607    55664    55695    55696    55680 
   55647    55602    55570    55561    55559    55552    55560    55572 
   55575    55567    55539    55497    55448    55377    55313    55285 
   55278    55291    55318    55332    55317    55283    55256    55240 
   55233    55258    55306    55354    55406    55463    55494    55513 
   55548    55576    55584    55588    55586    55575    55572    55576 
   55582    55586    55580    55568    55551    55524    55483    55445 
   55426    55426    55421    55408    55404    55418    55448    55485 
   55510    55518    55509    55495    55490    55475    55462    55460 
   55460    55476    55509    55517    55501    55499    55513    55530 
   55552    55564    55559    55555    55552    55544    55525    55493 
   55470    55493    55536    55555    55561    55566    55539    55486 
   55435    55383    55339    55329    55358    55406    55456    55505 
   55551    55587    55611    55615    55590    55552    55509    55460 
   55443    55453    55460    55474    55499    55514    55505    55478 
   55437    55401    55389    55402    55432    55466    55470    55439 
   55408    55398    55401    55393    55377    55377    55386    55394 
   55413    55458    55507    55532    55528    55520    55510    55499 
   55497    55506    55536    55580    55630    55680    55710    55699 
   55671    55655    55651    55648    55636    55614    55598    55587 
   55572    55556    55540    55512    55456    55404    55371    55348 
   55339    55333    55308    55283    55269    55247    55239    55258 
   55291    55337    55367    55367    55372    55399    55426    55448 
   55478    55507    55537    55583    55637    55669    55690    55723 
   55755    55760    55748    55717    55674    55642    55621    55579 
   55509    55444    55409    55383    55352    55337    55348    55370 
   55398    55433    55449    55441    55425    55412    55410    55426 
   55455    55486    55521    55567    55607    55618    55605    55594 
   55588    55575    55559    55553    55539    55513    55502    55510 
   55514    55503    55478    55448    55420    55375    55302    55243 
   55220    55220    55233    55269    55328    55389    55443    55489 
   55528    55560    55580    55590    55583    55551    55510    55489 
   55507    55568    55636    55663    55638    55603    55597    55601 
   55582    55557    55552    55566    55580    55584    55595    55598 
   55559    55502    55467    55444    55401    55362    55355    55367 
   55379    55374    55362    55368    55379    55375    55387    55428 
   55482    55522    55533    55525    55512    55512    55533    55557 
   55572    55593    55598    55579    55567    55567    55553    55528 
   55503    55495    55498    55494    55486    55493    55505    55506 
   55489    55445    55389    55351    55341    55350    55378    55421 
   55448    55449    55439    55426    55426    55440    55455    55462 
   55452    55441    55455    55478    55485    55491    55505    55505 
   55490    55467    55448    55463    55520    55588    55637    55645 
   55610    55557    55512    55493    55503    55524    55541    55568 
   55584    55560    55509    55462    55441    55451    55478    55509 
   55539    55564    55576    55561    55541    55530    55520    55509 
   55495    55458    55405    55360    55340    55359    55397    55416 
   55414    55402    55379    55343    55308    55297    55320    55370 
   55428    55470    55495    55525    55553    55567    55559    55547 
   55547    55551    55534    55494    55453    55433    55431    55437 
   55449    55466    55475    55466    55439    55418    55428    55452 
   55466    55467    55464    55471    55503    55556    55617    55668 
   55694    55696    55682    55649    55611    55580    55572    55579 
   55570    55528    55479    55459    55452    55416    55366    55327 
   55290    55279    55286    55281    55278    55289    55294    55301 
   55318    55344    55379    55417    55444    55474    55522    55574 
   55598    55607    55633    55668    55679    55656    55629    55606 
   55576    55543    55522    55532    55564    55587    55590    55584 
   55571    55543    55516    55514    55534    55553    55559    55574 
   55590    55580    55552    55528    55507    55482    55451    55428 
   55421    55432    55447    55451    55440    55420    55399    55406 
   55429    55429    55436    55480    55514    55525    55539    55563 
   55584    55586    55557    55522    55514    55512    55503    55516 
   55533    55522    55487    55460    55447    55422    55371    55317 
   55287    55274    55273    55305    55363    55395    55401    55418 
   55437    55455    55467    55459    55439    55424    55437    55476 
   55505    55514    55518    55536    55583    55642    55675    55667 
   55647    55629    55590    55528    55480    55463    55463    55479 
   55509    55532    55532    55529    55533    55532    55517    55498 
   55490    55480    55449    55410    55374    55335    55313    55332 
   55389    55462    55516    55528    55503    55480    55470    55459 
   55447    55448    55493    55598    55725    55815    55836    55800 
   55730    55649    55582    55529    55489    55459    55428    55385 
   55341    55313    55300    55291    55287    55294    55301    55305 
   55321    55362    55420    55453    55455    55462    55499    55547 
   55595    55660    55709    55714    55701    55678    55630    55584 
   55559    55537    55521    55532    55543    55522    55487    55467 
   55449    55429    55432    55464    55502    55528    55539    55526 
   55497    55476    55475    55468    55431    55387    55370    55356 
   55328    55309    55310    55314    55312    55318    55332    55345 
   55374    55422    55475    55532    55575    55594    55603    55591 
   55552    55532    55547    55567    55571    55556    55522    55503 
   55520    55540    55543    55536    55526    55526    55532    55530 
   55517    55490    55455    55421    55410    55432    55467    55486 
   55486    55472    55441    55401    55383    55401    55422    55432 
   55459    55509    55557    55595    55613    55590    55540    55499 
   55483    55491    55525    55571    55609    55617    55609    55594 
   55574    55544    55506    55456    55408    55387    55389    55377 
   55332    55278    55243    55215    55185    55163    55163    55183 
   55210    55243    55286    55333    55387    55455    55526    55599 
   55656    55694    55737    55776    55798    55800    55782    55748 
   55714    55687    55669    55653    55636    55609    55576    55561 
   55571    55575    55548    55521    55522    55536    55544    55543 
   55533    55522    55503    55467    55439    55435    55436    55432 
   55435    55440    55437    55421    55395    55375    55377    55390 
   55390    55374    55355    55340    55341    55371    55410    55440 
   55460    55487    55517    55533    55517    55485    55485    55529 
   55574    55597    55610    55620    55628    55614    55583    55551 
   55513    55489    55493    55513    55536    55555    55559    55536 
   55502    55467    55443    55435    55440    55474    55536    55595 
   55615    55583    55537    55529    55545    55537    55522    55533 
   55555    55559    55532    55480    55420    55360    55302    55255 
   55233    55246    55289    55341    55363    55344    55327    55343 
   55383    55420    55441    55453    55463    55480    55497    55487 
   55455    55439    55460    55498    55534    55571    55597    55603 
   55587    55553    55526    55510    55491    55485    55498    55510 
   55502    55475    55441    55420    55404    55393    55405    55435 
   55460    55470    55466    55483    55522    55540    55520    55483 
   55460    55468    55497    55526    55536    55534    55545    55556 
   55544    55521    55502    55479    55445    55409    55395    55426 
   55475    55524    55576    55607    55593    55548    55510    55502 
   55521    55533    55513    55489    55482    55490    55505    55528 
   55549    55553    55533    55495    55439    55397    55406    55439 
   55464    55480    55485    55483    55483    55483    55483    55493 
   55516    55549    55579    55607    55633    55640    55613    55561 
   55502    55445    55412    55410    55428    55447    55447    55424 
   55405    55401    55401    55404    55409    55409    55414    55431 
   55455    55475    55480    55471    55459    55444    55435    55451 
   55489    55513    55509    55502    55498    55485    55468    55453 
   55443    55435    55422    55408    55401    55402    55405    55406 
   55425    55463    55499    55510    55503    55509    55526    55540 
   55555    55570    55582    55586    55574    55551    55517    55476 
   55451    55448    55448    55448    55453    55448    55424    55413 
   55444    55494    55539    55570    55578    55576    55586    55598 
   55613    55621    55603    55567    55528    55487    55455    55447 
   55452    55452    55448    55455    55449    55409    55358    55320 
   55287    55269    55289    55343    55382    55394    55398    55391 
   55381    55395    55416    55418    55436    55485    55534    55582 
   55629    55668    55701    55730    55760    55799    55842    55860 
   55854    55826    55773    55728    55691    55663    55655    55652 
   55630    55597    55576    55560    55522    55483    55460    55448 
   55448    55459    55456    55443    55420    55378    55333    55318 
   55335    55345    55341    55345    55354    55345    55329    55317 
   55314    55328    55366    55425    55475    55497    55497    55485 
   55472    55456    55417    55383    55379    55381    55378    55383 
   55393    55405    55420    55429    55426    55420    55413    55412 
   55422    55453    55491    55513    55507    55482    55456    55464 
   55502    55539    55571    55602    55614    55613    55613    55614 
   55607    55602    55611    55644    55678    55696    55707    55703 
   55668    55605    55537    55489    55452    55429    55418    55401 
   55360    55297    55237    55212    55206    55205    55209    55221 
   55237    55252    55267    55287    55301    55302    55304    55323 
   55360    55390    55393    55385    55377    55377    55406    55455 
   55485    55498    55521    55548    55555    55541    55520    55501 
   55486    55482    55501    55525    55543    55571    55599    55620 
   55647    55660    55636    55598    55561    55528    55517    55536 
   55572    55611    55638    55665    55688    55711    55750    55780 
   55786    55783    55768    55738    55710    55686    55672    55676 
   55672    55652    55620    55567    55490    55416    55359    55305 
   55255    55224    55201    55186    55196    55235    55286    55325 
   55358    55395    55426    55448    55475    55507    55525    55516 
   55489    55466    55449    55453    55493    55556    55613    55660 
   55707    55732    55713    55679    55664    55657    55651    55642 
   55617    55576    55533    55486    55435    55394    55372    55364 
   55367    55375    55374    55375    55399    55440    55472    55485 
   55476    55459    55440    55428    55425    55426    55431    55441 
   55453    55467    55489    55514    55522    55503    55475    55455 
   55440    55435    55451    55485    55497    55466    55424    55414 
   55428    55441    55441    55432    55432    55440    55435    55421 
   55417    55418    55432    55463    55479    55475    55472    55467 
   55451    55440    55441    55436    55429    55435    55437    55431 
   55435    55455    55468    55453    55431    55433    55459    55472 
   55462    55451    55435    55409    55391    55386    55386    55393 
   55398    55404    55422    55445    55456    55471    55503    55532 
   55540    55543    55560    55570    55563    55568    55588    55599 
   55595    55582    55564    55553    55552    55549    55530    55498 
   55482    55478    55472    55478    55490    55491    55486    55493 
   55513    55537    55561    55578    55578    55560    55518    55472 
   55448    55440    55429    55414    55394    55379    55379    55395 
   55412    55420    55429    55441    55455    55485    55520    55548 
   55571    55598    55626    55638    55628    55617    55617    55611 
   55587    55560    55541    55532    55528    55524    55524    55529 
   55524    55514    55514    55510    55490    55466    55455    55451 
   55439    55417    55391    55379    55377    55362    55347    55345 
   55344    55348    55367    55394    55413    55420    55433    55463 
   55495    55505    55498    55499    55516    55522    55510    55503 
   55513    55530    55541    55553    55570    55590    55633    55684 
   55705    55692    55661    55624    55593    55561    55533    55510 
   55491    55487    55493    55474    55439    55406    55375    55354 
   55343    55327    55324    55343    55345    55339    55355    55386 
   55413    55428    55431    55426    55416    55399    55385    55363 
   55340    55332    55335    55337    55345    55363    55387    55416 
   55444    55460    55472    55485    55494    55505    55520    55530 
   55545    55564    55571    55571    55583    55593    55587    55582 
   55601    55638    55672    55686    55678    55661    55647    55628 
   55611    55601    55582    55567    55559    55539    55512    55499 
   55493    55467    55435    55426    55425    55417    55414    55410 
   55405    55414    55433    55452    55467    55467    55462    55455 
   55443    55432    55424    55418    55425    55440    55463    55491 
   55517    55541    55563    55576    55599    55628    55651    55671 
   55687    55686    55668    55648    55638    55629    55603    55567 
   55532    55503    55487    55478    55474    55476    55470    55456 
   55453    55452    55447    55444    55452    55471    55498    55517 
   55524    55528    55532    55529    55520    55514    55521    55547 
   55564    55556    55529    55502    55494    55491    55482    55483 
   55493    55491    55483    55482    55482    55478    55470    55448 
   55418    55399    55390    55378    55360    55340    55313    55285 
   55263    55250    55243    55240    55242    55247    55244    55239 
   55244    55250    55242    55235    55243    55262    55278    55291 
   55301    55302    55301    55313    55337    55363    55368    55371 
   55405    55452    55494    55533    55574    55613    55638    55648 
   55649    55647    55637    55621    55602    55601    55617    55634 
   55644    55644    55640    55633    55621    55607    55598    55591 
   55586    55583    55576    55560    55548    55541    55533    55524 
   55514    55510    55501    55487    55487    55490    55494    55514 
   55551    55590    55617    55637    55659    55675    55683    55680 
   55664    55640    55621    55607    55584    55555    55532    55513 
   55494    55474    55453    55440    55431    55418    55416    55414 
   55398    55374    55360    55360    55375    55398    55409    55402 
