Origin Time       2025/06/03 22:18:00
Lat.              41.7
Long.             143.6
Depth. (km)       30
Mag.              5.2
Station Code      IWTH20
Station Lat.      39.3434
Station Long.     141.0473
Station Height(m) -50.2
Record Time       2025/06/03 22:19:57
Sampling Freq(Hz) 100Hz
Duration Time(s)  120
Dir.              1
Scale Factor      2942(gal)/8224139
Max. Acc. (gal)   0.137
Last Correction   2025/06/03 22:19:58
Memo.             
[...]
   41968    41985    42001    42010    42002    41970    41939    41935 
   41940    41933    41935    41953    41978    41986    41959    41910 
   41890    41894    41901    41916    41945    41987    42026    42041 
   42030    42002    41979    41979    42007    42044    42052    42029 
   42012    42012    42024    42055    42086    42110    42133    42130 
   42106    42079    42045    42016    42012    42024    42047    42074 
   42086    42063    42009    41948    41898    41867    41867    41877 
   41877    41875    41882    41901    41922    41943    41953    41968 
   41991    41993    41982    41989    42009    42039    42078    42105 
   42106    42075    42024    41974    41920    41883    41891    41916 
   41916    41894    41870    41848    41833    41856    41918    41978 
   42021    42056    42060    42020    41976    41955    41941    41943 
   41953    41960    41971    41991    42014    42040    42078    42118 
   42136    42133    42132    42129    42111    42082    42052    42045 
   42060    42080    42093    42091    42080    42060    42029    41995 
   41972    41951    41917    41891    41886    41872    41854    41858 
   41878    41902    41943    41990    42016    42013    41980    41947 
   41960    42001    42020    42026    42043    42055    42053    42036 
   42016    42018    42044    42066    42076    42079    42070    42052 
   42040    42032    42024    42021    42024    42033    42039    42017 
   41974    41959    41978    41993    41994    41972    41917    41866 
   41848    41851    41864    41886    41920    41949    41953    41937 
   41929    41933    41951    41990    42047    42097    42122    42136 
   42161    42203    42232    42225    42194    42152    42105    42057 
   42012    41979    41959    41937    41913    41899    41898    41887 
   41851    41798    41754    41733    41744    41786    41837    41860 
   41854    41850    41860    41885    41921    41956    41976    41982 
   41978    41968    41958    41949    41953    41982    42040    42103 
   42145    42155    42148    42145    42140    42122    42107    42094 
   42070    42072    42115    42157    42171    42145    42105    42080 
   42053    42007    41968    41951    41955    41974    41982    41970 
   41949    41928    41910    41913    41928    41941    41960    41986 
   42003    42016    42048    42088    42101    42076    42014    41945 
   41920    41940    41959    41940    41912    41899    41895    41910 
   41956    42002    42037    42059    42055    42043    42044    42052 
   42068    42098    42115    42099    42074    42056    42043    42032 
   42034    42026    41994    41974    41978    41983    41989    42002 
   42020    42039    42043    42021    42009    42036    42074    42090 
   42103    42120    42110    42082    42067    42068    42063    42033 
   41982    41940    41913    41872    41818    41778    41756    41764 
   41816    41871    41883    41875    41889    41933    41986    42021 
   42026    42013    42016    42043    42059    42040    42016    42021 
   42036    42034    42026    42013    41989    41972    41986    42030 
   42084    42120    42114    42072    42014    41975    41968    41967 
   41968    41983    41995    41998    41982    41943    41902    41877 
   41851    41825    41821    41858    41920    41976    42016    42039 
   42059    42079    42074    42033    41994    41979    41986    42007 
   42039    42075    42088    42066    42028    41990    41952    41924 
   41906    41898    41909    41933    41952    41962    41978    42003 
   42028    42041    42041    42051    42071    42086    42091    42086 
   42070    42047    42022    42013    42029    42061    42091    42099 
   42070    42025    41995    41994    42022    42057    42066    42053 
   42044    42037    42014    41975    41949    41966    42003    42012 
   41986    41959    41943    41926    41886    41821    41773    41778 
   41828    41901    41960    41986    41991    41986    41974    41956 
   41943    41949    41993    42064    42120    42148    42161    42163 
   42171    42207    42244    42246    42233    42209    42168    42126 
   42084    42039    42009    41997    41979    41949    41920    41898 
   41894    41908    41922    41916    41893    41870    41845    41833 
   41835    41843    41872    41931    41991    42022    42040    42059 
   42063    42053    42048    42056    42084    42117    42109    42053 
   42007    42018    42061    42084    42055    41991    41940    41929 
   41949    41987    42043    42102    42144    42163    42171    42172 
   42142    42087    42045    42017    41976    41914    41840    41783 
   41756    41742    41723    41712    41720    41736    41756    41783 
   41796    41783    41751    41723    41729    41775    41839    41893 
   41928    41960    42003    42036    42036    42030    42045    42055 
   42052    42064    42094    42129    42159    42156    42130    42114 
   42110    42094    42059    42024    42014    42020    42029    42047 
   42064    42075    42087    42091    42075    42040    42003    41966 
   41928    41906    41913    41933    41953    41971    41991    42017 
   42041    42052    42047    42043    42049    42067    42078    42074 
   42061    42047    42025    42010    42009    41999    41971    41940 
   41925    41936    41959    41966    41966    41974    41972    41971 
   41999    42045    42075    42080    42056    42014    41993    42022 
   42088    42147    42157    42125    42075    42037    42022    42012 
   41980    41939    41908    41898    41908    41908    41899    41887 
   41860    41837    41825    41806    41796    41814    41867    41935 
   41983    42010    42037    42057    42059    42057    42068    42074 
   42066    42059    42048    42034    42049    42093    42140    42175 
   42180    42160    42142    42132    42105    42051    41997    41976 
   41979    41985    41980    41955    41898    41837    41800    41779 
   41764    41751    41758    41797    41835    41867    41928    42018 
   42093    42136    42163    42186    42210    42240    42272    42302 
   42319    42318    42310    42299    42260    42180    42094    42024 
   41971    41941    41943    41952    41945    41936    41920    41881 
   41840    41812    41793    41797    41816    41823    41827    41823 
   41805    41800    41816    41844    41885    41928    41951    41943 
   41925    41914    41909    41918    41949    41982    42002    42024 
   42072    42141    42187    42184    42152    42125    42114    42101 
   42086    42076    42064    42048    42037    42029    42013    41989 
   41960    41921    41887    41874    41854    41821    41805    41805 
   41808    41835    41891    41941    41966    41980    41998    42024 
   42057    42087    42110    42126    42141    42165    42180    42171 
   42138    42105    42084    42067    42040    42014    42003    42013 
   42013    41993    41974    41951    41913    41886    41891    41904 
   41912    41928    41953    41974    41975    41964    41966    41986 
   42009    42021    42033    42063    42098    42117    42129    42151 
   42164    42168    42169    42157    42132    42111    42095    42071 
   42032    41999    41980    41958    41936    41917    41904    41902 
   41901    41879    41852    41854    41871    41867    41858    41872 
   41904    41922    41916    41891    41866    41836    41806    41804 
   41836    41885    41929    41953    41949    41945    41952    41962 
   41999    42071    42132    42174    42213    42228    42206    42171 
   42136    42118    42124    42136    42133    42113    42091    42090 
   42106    42113    42106    42102    42090    42071    42064    42067 
   42061    42047    42013    41964    41918    41899    41918    41949 
   41972    41989    42001    42007    42012    42002    41985    41976 
   41978    41985    41982    41968    41967    41983    41987    41989 
   41994    41983    41953    41916    41871    41844    41840    41840 
   41843    41851    41868    41910    41982    42048    42076    42066 
   42030    41985    41941    41910    41890    41881    41870    41851 
   41828    41797    41766    41763    41794    41835    41875    41908 
   41924    41931    41948    41979    42012    42037    42060    42075 
   42079    42084    42105    42144    42194    42230    42248    42242 
   42209    42174    42151    42124    42091    42075    42080    42093 
   42109    42114    42098    42080    42075    42060    42020    41968 
   41929    41916    41920    41913    41897    41895    41897    41877 
   41843    41809    41779    41766    41771    41800    41841    41870 
   41890    41925    41979    42028    42043    42034    42039    42045 
   42025    41993    41983    41999    42018    42018    42018    42037 
   42060    42068    42067    42059    42039    42017    41998    41966 
   41939    41947    41976    41997    42003    42003    42003    42001 
   41987    41966    41940    41913    41897    41891    41897    41920 
   41959    42009    42057    42091    42105    42097    42086    42088 
   42095    42098    42113    42141    42168    42183    42182    42161 
   42124    42090    42072    42060    42043    42028    42014    41989 
   41959    41941    41926    41905    41889    41895    41922    41958 
   41990    42009    42018    42032    42052    42068    42064    42040 
   42014    42006    42013    42025    42021    42010    42017    42036 
   42052    42044    42005    41976    41982    41999    42025    42044 
   42039    42016    41999    41995    41993    41993    41997    42002 
   42005    42002    41994    42003    42029    42055    42079    42091 
   42086    42083    42083    42074    42064    42055    42037    42028 
   42024    41995    41951    41912    41887    41871    41848    41825 
   41812    41809    41818    41825    41823    41818    41812    41808 
   41827    41870    41916    41949    41968    41970    41963    41978 
   42010    42040    42067    42088    42105    42120    42114    42084 
   42059    42063    42084    42098    42102    42099    42091    42078 
   42063    42048    42037    42032    42030    42020    41995    41967 
   41939    41920    41912    41913    41926    41952    41975    41991 
   42005    42021    42025    42009    41983    41966    41955    41936 
   41918    41917    41918    41902    41874    41852    41841    41827 
   41809    41804    41814    41821    41814    41809    41813    41823 
   41835    41851    41870    41883    41895    41914    41940    41982 
   42032    42067    42094    42128    42168    42207    42237    42252 
   42256    42242    42213    42178    42149    42137    42140    42140 
   42133    42120    42093    42056    42029    42003    41980    41980 
   42005    42030    42044    42047    42030    41997    41968    41956 
   41958    41974    41997    42025    42063    42099    42109    42091 
   42070    42048    42024    42020    42043    42061    42061    42052 
   42034    42012    42009    42024    42022    42007    41998    41979 
   41958    41949    41953    41968    41999    42040    42075    42093 
   42091    42082    42070    42052    42033    42033    42064    42118 
   42172    42201    42203    42199    42199    42201    42190    42159 
   42113    42068    42029    41980    41932    41904    41878    41848 
   41827    41809    41802    41802    41800    41796    41790    41786 
   41794    41809    41818    41827    41829    41837    41867    41904 
   41922    41914    41890    41874    41877    41885    41895    41905 
   41905    41883    41850    41836    41854    41887    41925    41960 
   41994    42024    42039    42044    42051    42052    42056    42064 
   42071    42084    42098    42099    42086    42056    42037    42029 
   42017    42012    42009    42002    42012    42034    42036    42018 
   42010    41998    41975    41962    41964    41968    41971    41976 
   41986    41991    41968    41926    41894    41870    41863    41882 
   41898    41908    41920    41925    41914    41906    41912    41933 
   41951    41959    41966    41974    41982    41991    42009    42039 
   42079    42114    42126    42124    42121    42126    42142    42165 
   42175    42157    42138    42138    42137    42117    42086    42059 
   42045    42043    42047    42045    42037    42032    42033    42039 
   42043    42034    42007    41971    41933    41901    41875    41868 
   41882    41889    41881    41877    41882    41894    41912    41932 
   41953    41970    41978    41983    42003    42034    42057    42070 
   42070    42068    42082    42103    42118    42121    42111    42094 
   42072    42059    42060    42064    42082    42122    42157    42167 
   42160    42153    42161    42176    42176    42169    42168    42165 
   42149    42115    42080    42055    42029    42006    41995    41987 
   41967    41935    41904    41875    41854    41844    41831    41810 
   41800    41793    41785    41779    41777    41771    41764    41771 
   41798    41832    41866    41894    41902    41897    41908    41945 
   41985    42012    42033    42041    42034    42025    42012    42001 
   42006    42021    42032    42040    42059    42091    42120    42129 
   42124    42117    42106    42101    42097    42093    42095    42097 
   42095    42097    42087    42066    42044    42032    42037    42047 
   42047    42048    42051    42037    42013    41999    42003    42013 
   42003    41968    41926    41887    41855    41832    41806    41771 
   41731    41698    41665    41624    41613    41639    41659    41671 
   41698    41736    41770    41785    41791    41816    41863    41904 
   41916    41916    41921    41937    41956    41975    41998    42020 
   42040    42059    42076    42082    42080    42091    42118    42149 
   42179    42202    42203    42196    42201    42211    42219    42223 
   42210    42182    42163    42153    42140    42126    42120    42114 
   42114    42121    42125    42129    42134    42144    42156    42155 
   42152    42163    42171    42178    42190    42191    42174    42155 
   42148    42153    42155    42137    42113    42102    42098    42082 
   42048    42010    41970    41926    41902    41901    41897    41882 
   41858    41824    41790    41771    41771    41783    41796    41790 
   41773    41778    41812    41833    41836    41852    41879    41904 
   41929    41955    41972    41987    42006    42028    42043    42043 
   42030    42017    42014    42021    42025    42026    42026    42025 
   42029    42028    42013    41995    41979    41960    41948    41937 
   41918    41898    41887    41882    41883    41902    41926    41947 
   41967    41993    42022    42056    42083    42109    42133    42136 
   42126    42129    42141    42151    42155    42153    42142    42122 
   42106    42097    42080    42052    42017    41976    41926    41877 
   41845    41824    41801    41781    41775    41781    41790    41796 
   41805    41818    41818    41821    41836    41839    41835    41843 
   41862    41877    41883    41890    41914    41960    41993    41994 
   41990    41989    41989    42005    42026    42040    42051    42051 
   42030    42003    41982    41967    41966    41974    41983    41990 
   41987    41983    41995    42017    42025    42018    42005    41991 
   41987    41995    42002    41998    41990    41979    41974    41975 
   41978    41990    42006    42017    42032    42055    42075    42088 
   42094    42097    42103    42107    42102    42090    42080    42066 
   42049    42041    42049    42068    42082    42091    42113    42136 
   42145    42141    42133    42121    42109    42101    42103    42106 
   42098    42083    42072    42057    42039    42022    42009    42001 
   41994    41985    41976    41971    41974    41980    41980    41978 
   41974    41968    41966    41960    41948    41937    41936    41940 
   41936    41924    41920    41928    41932    41945    41980    42022 
   42057    42086    42103    42122    42148    42168    42188    42201 
   42199    42182    42156    42132    42109    42088    42086    42088 
   42072    42045    42016    41976    41944    41928    41921    41920 
   41914    41905    41899    41890    41882    41879    41878    41870 
   41860    41859    41860    41848    41825    41814    41821    41839 
   41860    41868    41863    41870    41890    41906    41918    41937 
   41955    41970    41987    42005    42009    42003    42007    42028 
   42052    42071    42082    42084    42087    42095    42099    42090 
   42076    42063    42053    42051    42048    42039    42018    41987 
   41959    41932    41905    41886    41866    41845    41836    41831 
   41824    41820    41818    41823    41836    41859    41893    41917 
   41924    41935    41956    41974    41985    42005    42030    42045 
   42053    42064    42068    42070    42080    42094    42102    42111 
   42126    42145    42165    42168    42152    42140    42141    42148 
   42165    42188    42205    42203    42186    42165    42159    42160 
   42152    42148    42142    42124    42098    42079    42063    42041 
   42029    42030    42026    42007    41983    41963    41953    41941 
   41924    41912    41909    41913    41916    41920    41926    41929 
   41924    41916    41917    41928    41936    41935    41935    41948 
   41963    41963    41951    41936    41924    41912    41895    41881 
   41877    41878    41877    41874    41872    41885    41905    41920 
   41922    41922    41931    41936    41933    41941    41953    41953 
   41958    41974    41980    41972    41970    41985    42006    42010 
   41997    41991    41999    42006    42006    41998    41993    41999 
   42012    42020    42028    42037    42040    42025    42007    42009 
   42021    42025    42020    42020    42024    42017    42006    41993 
   41972    41955    41948    41948    41952    41949    41947    41952 
   41964    41975    41986    41997    41998    41994    41990    41982 
   41970    41963    41956    41952    41967    41980    41976    41975 
   41979    41974    41960    41948    41941    41939    41937    41948 
   41963    41958    41941    41933    41940    41953    41955    41953 
   41963    41975    41987    41994    41991    41991    42003    42020 
   42032    42048    42071    42097    42117    42130    42138    42144 
   42152    42168    42183    42188    42190    42191    42183    42161 
   42147    42141    42134    42134    42151    42167    42167    42161 
   42161    42163    42157    42145    42124    42103    42099    42088 
   42056    42024    42002    41989    41972    41958    41949    41941 
   41937    41944    41949    41947    41937    41924    41920    41937 
   41956    41972    42001    42025    42028    42020    42005    41989 
   41982    41985    41983    41980    41972    41958    41958    41971 
   41975    41983    41997    41998    41994    41982    41971    41971 
   41975    41976    41972    41953    41931    41922    41926    41928 
   41922    41910    41899    41894    41890    41893    41899    41898 
   41893    41889    41885    41883    41882    41875    41872    41879 
   41886    41882    41874    41867    41868    41870    41870    41877 
   41895    41921    41943    41951    41943    41932    41936    41943 
   41935    41924    41921    41924    41922    41925    41926    41925 
