Origin Time       2025/06/03 22:18:00
Lat.              41.7
Long.             143.6
Depth. (km)       30
Mag.              5.2
Station Code      IWTH20
Station Lat.      39.3434
Station Long.     141.0473
Station Height(m) 106
Record Time       2025/06/03 22:19:57
Sampling Freq(Hz) 100Hz
Duration Time(s)  120
Dir.              6
Scale Factor      7845(gal)/8223790
Max. Acc. (gal)   0.146
Last Correction   2025/06/03 22:19:58
Memo.             
[...]
  -16213   -16217   -16221   -16221   -16217   -16217   -16218   -16221 
  -16227   -16229   -16229   -16224   -16217   -16218   -16216   -16208 
  -16205   -16201   -16195   -16197   -16202   -16210   -16220   -16221 
  -16224   -16232   -16233   -16231   -16228   -16228   -16239   -16244 
  -16245   -16258   -16262   -16266   -16279   -16276   -16272   -16282 
  -16274   -16267   -16272   -16268   -16266   -16263   -16256   -16259 
  -16263   -16254   -16251   -16249   -16237   -16236   -16237   -16239 
  -16243   -16240   -16231   -16224   -16218   -16220   -16224   -16222 
  -16225   -16235   -16235   -16229   -16221   -16214   -16216   -16217 
  -16213   -16212   -16212   -16212   -16217   -16218   -16220   -16220 
  -16212   -16212   -16217   -16209   -16202   -16208   -16206   -16209 
  -16224   -16232   -16240   -16249   -16248   -16248   -16243   -16231 
  -16227   -16222   -16220   -16229   -16235   -16233   -16239   -16244 
  -16241   -16232   -16227   -16232   -16235   -16231   -16232   -16233 
  -16233   -16235   -16228   -16220   -16228   -16240   -16245   -16248 
  -16244   -16247   -16251   -16244   -16244   -16255   -16258   -16255 
  -16245   -16239   -16240   -16237   -16236   -16244   -16247   -16249 
  -16254   -16247   -16243   -16235   -16221   -16229   -16243   -16244 
  -16248   -16245   -16231   -16228   -16229   -16227   -16224   -16210 
  -16202   -16206   -16204   -16205   -16204   -16195   -16205   -16221 
  -16224   -16233   -16245   -16241   -16243   -16247   -16243   -16245 
  -16254   -16254   -16255   -16255   -16251   -16248   -16244   -16243 
  -16244   -16244   -16244   -16241   -16235   -16240   -16245   -16236 
  -16229   -16221   -16209   -16201   -16194   -16197   -16208   -16209 
  -16210   -16218   -16218   -16216   -16221   -16220   -16216   -16212 
  -16206   -16210   -16210   -16208   -16216   -16214   -16208   -16216 
  -16217   -16213   -16221   -16225   -16227   -16235   -16233   -16227 
  -16222   -16218   -16220   -16221   -16221   -16232   -16240   -16241 
  -16245   -16239   -16233   -16236   -16235   -16237   -16251   -16251 
  -16251   -16258   -16259   -16256   -16258   -16260   -16267   -16268 
  -16268   -16272   -16275   -16278   -16275   -16259   -16256   -16262 
  -16259   -16262   -16263   -16249   -16245   -16251   -16251   -16252 
  -16249   -16239   -16235   -16236   -16229   -16227   -16229   -16236 
  -16245   -16245   -16233   -16225   -16220   -16220   -16222   -16216 
  -16214   -16214   -16204   -16204   -16206   -16206   -16210   -16212 
  -16213   -16222   -16225   -16221   -16220   -16214   -16213   -16213 
  -16200   -16197   -16205   -16204   -16206   -16216   -16217   -16217 
  -16216   -16216   -16218   -16218   -16225   -16239   -16244   -16243 
  -16244   -16241   -16245   -16251   -16249   -16255   -16263   -16262 
  -16260   -16262   -16258   -16252   -16240   -16229   -16231   -16227 
  -16222   -16225   -16221   -16221   -16227   -16222   -16227   -16239 
  -16241   -16243   -16248   -16245   -16240   -16239   -16239   -16239 
  -16236   -16232   -16235   -16236   -16237   -16243   -16245   -16247 
  -16247   -16235   -16231   -16235   -16236   -16245   -16252   -16243 
  -16241   -16240   -16236   -16245   -16247   -16233   -16228   -16222 
  -16218   -16221   -16222   -16220   -16216   -16216   -16222   -16222 
  -16220   -16222   -16216   -16206   -16218   -16228   -16228   -16233 
  -16225   -16217   -16221   -16220   -16214   -16213   -16206   -16208 
  -16216   -16213   -16212   -16218   -16222   -16227   -16229   -16224 
  -16220   -16214   -16216   -16229   -16235   -16233   -16235   -16231 
  -16232   -16240   -16237   -16237   -16240   -16239   -16245   -16247 
  -16240   -16237   -16235   -16236   -16245   -16248   -16245   -16243 
  -16235   -16233   -16231   -16221   -16222   -16225   -16225   -16233 
  -16233   -16227   -16232   -16239   -16239   -16241   -16240   -16237 
  -16239   -16233   -16228   -16225   -16216   -16221   -16239   -16245 
  -16248   -16252   -16255   -16260   -16262   -16259   -16256   -16249 
  -16248   -16256   -16258   -16262   -16270   -16264   -16263   -16270 
  -16263   -16252   -16251   -16245   -16243   -16244   -16247   -16255 
  -16258   -16254   -16254   -16245   -16237   -16233   -16222   -16225 
  -16241   -16240   -16233   -16232   -16222   -16220   -16229   -16229 
  -16227   -16217   -16202   -16198   -16194   -16189   -16189   -16190 
  -16195   -16209   -16209   -16200   -16200   -16198   -16198   -16200 
  -16198   -16202   -16209   -16216   -16228   -16228   -16213   -16216 
  -16222   -16218   -16220   -16221   -16227   -16236   -16237   -16243 
  -16249   -16243   -16237   -16241   -16241   -16244   -16241   -16231 
  -16228   -16233   -16244   -16248   -16233   -16228   -16241   -16245 
  -16239   -16235   -16224   -16214   -16214   -16217   -16225   -16229 
  -16225   -16224   -16218   -16206   -16204   -16205   -16206   -16221 
  -16225   -16214   -16208   -16201   -16201   -16214   -16220   -16218 
  -16217   -16213   -16216   -16224   -16224   -16232   -16240   -16239 
  -16241   -16244   -16245   -16248   -16244   -16245   -16254   -16258 
  -16259   -16264   -16264   -16267   -16267   -16259   -16258   -16258 
  -16254   -16256   -16262   -16264   -16258   -16243   -16237   -16235 
  -16218   -16217   -16231   -16233   -16235   -16235   -16227   -16224 
  -16218   -16208   -16214   -16222   -16222   -16224   -16227   -16237 
  -16247   -16239   -16231   -16227   -16222   -16228   -16240   -16243 
  -16245   -16252   -16260   -16268   -16263   -16245   -16237   -16243 
  -16251   -16258   -16258   -16248   -16228   -16205   -16197   -16202 
  -16209   -16216   -16213   -16209   -16217   -16216   -16204   -16202 
  -16205   -16204   -16212   -16222   -16229   -16235   -16231   -16231 
  -16233   -16228   -16231   -16243   -16243   -16235   -16235   -16239 
  -16252   -16267   -16274   -16278   -16271   -16258   -16254   -16248 
  -16236   -16237   -16244   -16245   -16244   -16235   -16224   -16214 
  -16204   -16201   -16200   -16198   -16205   -16214   -16220   -16227 
  -16236   -16243   -16243   -16244   -16247   -16240   -16231   -16233 
  -16241   -16247   -16260   -16266   -16251   -16244   -16248   -16251 
  -16259   -16267   -16260   -16245   -16224   -16204   -16194   -16191 
  -16200   -16218   -16227   -16220   -16213   -16209   -16210   -16220 
  -16232   -16244   -16247   -16248   -16255   -16249   -16239   -16237 
  -16235   -16232   -16236   -16233   -16227   -16224   -16224   -16227 
  -16221   -16209   -16197   -16183   -16178   -16185   -16185   -16178 
  -16186   -16201   -16218   -16240   -16248   -16249   -16256   -16262 
  -16266   -16262   -16245   -16244   -16248   -16235   -16224   -16216 
  -16200   -16195   -16204   -16214   -16231   -16241   -16243   -16245 
  -16236   -16220   -16213   -16213   -16217   -16220   -16214   -16217 
  -16225   -16232   -16251   -16271   -16272   -16267   -16263   -16258 
  -16258   -16252   -16245   -16254   -16262   -16267   -16281   -16285 
  -16279   -16274   -16262   -16251   -16235   -16206   -16189   -16185 
  -16186   -16201   -16225   -16236   -16240   -16239   -16235   -16231 
  -16217   -16206   -16213   -16217   -16220   -16227   -16232   -16241 
  -16256   -16268   -16267   -16256   -16249   -16248   -16229   -16209 
  -16209   -16206   -16201   -16216   -16231   -16240   -16251   -16247 
  -16239   -16229   -16214   -16217   -16225   -16220   -16224   -16231 
  -16222   -16217   -16225   -16243   -16258   -16260   -16262   -16267 
  -16267   -16270   -16263   -16243   -16236   -16240   -16240   -16244 
  -16237   -16220   -16205   -16191   -16181   -16189   -16200   -16206 
  -16212   -16206   -16208   -16216   -16220   -16236   -16254   -16252 
  -16244   -16228   -16212   -16213   -16222   -16227   -16228   -16220 
  -16213   -16217   -16216   -16214   -16217   -16205   -16198   -16202 
  -16205   -16214   -16225   -16229   -16240   -16251   -16255   -16258 
  -16255   -16256   -16264   -16262   -16255   -16252   -16239   -16236 
  -16249   -16251   -16251   -16252   -16243   -16239   -16244   -16241 
  -16236   -16235   -16236   -16249   -16266   -16279   -16294   -16298 
  -16289   -16274   -16252   -16236   -16227   -16214   -16216   -16217 
  -16210   -16213   -16213   -16209   -16216   -16216   -16208   -16212 
  -16209   -16202   -16212   -16224   -16229   -16237   -16241   -16244 
  -16248   -16243   -16239   -16236   -16233   -16240   -16233   -16209 
  -16193   -16186   -16185   -16198   -16214   -16224   -16233   -16244 
  -16249   -16244   -16232   -16228   -16221   -16204   -16194   -16193 
  -16193   -16212   -16241   -16272   -16294   -16290   -16275   -16268 
  -16259   -16249   -16241   -16232   -16236   -16243   -16232   -16217 
  -16208   -16198   -16202   -16212   -16213   -16206   -16193   -16189 
  -16198   -16191   -16191   -16218   -16232   -16229   -16229   -16228 
  -16235   -16245   -16254   -16271   -16289   -16295   -16295   -16290 
  -16290   -16303   -16299   -16276   -16258   -16236   -16218   -16214 
  -16209   -16210   -16216   -16214   -16212   -16202   -16187   -16181 
  -16175   -16178   -16190   -16194   -16197   -16208   -16214   -16224 
  -16232   -16217   -16204   -16205   -16204   -16205   -16208   -16202 
  -16200   -16208   -16218   -16228   -16228   -16224   -16231   -16237 
  -16237   -16235   -16231   -16243   -16263   -16270   -16271   -16259 
  -16229   -16214   -16232   -16256   -16272   -16272   -16260   -16251 
  -16243   -16228   -16224   -16233   -16255   -16282   -16299   -16306 
  -16309   -16305   -16306   -16309   -16295   -16276   -16264   -16258 
  -16266   -16272   -16272   -16275   -16274   -16267   -16274   -16270 
  -16252   -16233   -16210   -16198   -16204   -16198   -16195   -16202 
  -16202   -16206   -16218   -16222   -16232   -16239   -16231   -16225 
  -16228   -16231   -16227   -16212   -16202   -16195   -16185   -16194 
  -16204   -16194   -16193   -16191   -16185   -16190   -16200   -16197 
  -16191   -16183   -16174   -16171   -16175   -16186   -16201   -16208 
  -16210   -16214   -16218   -16235   -16254   -16268   -16289   -16295 
  -16286   -16279   -16267   -16248   -16240   -16228   -16222   -16239 
  -16248   -16240   -16233   -16221   -16205   -16186   -16168   -16163 
  -16163   -16175   -16201   -16210   -16210   -16222   -16228   -16225 
  -16229   -16218   -16202   -16209   -16231   -16248   -16260   -16271 
  -16286   -16294   -16289   -16286   -16282   -16272   -16270   -16268 
  -16256   -16240   -16231   -16233   -16237   -16232   -16224   -16212 
  -16193   -16187   -16205   -16224   -16240   -16256   -16260   -16252 
  -16247   -16248   -16249   -16248   -16249   -16259   -16267   -16279 
  -16301   -16302   -16283   -16263   -16247   -16243   -16247   -16248 
  -16255   -16258   -16248   -16241   -16236   -16221   -16220   -16222 
  -16220   -16220   -16222   -16227   -16221   -16205   -16197   -16201 
  -16200   -16204   -16220   -16233   -16245   -16259   -16258   -16241 
  -16214   -16200   -16213   -16222   -16218   -16222   -16227   -16218 
  -16214   -16212   -16210   -16216   -16216   -16216   -16221   -16229 
  -16237   -16227   -16198   -16175   -16163   -16158   -16159   -16160 
  -16181   -16220   -16241   -16251   -16255   -16243   -16237   -16243 
  -16235   -16228   -16239   -16248   -16251   -16247   -16241   -16256 
  -16285   -16310   -16330   -16329   -16314   -16299   -16281   -16270 
  -16270   -16259   -16247   -16241   -16239   -16249   -16270   -16287 
  -16298   -16299   -16289   -16272   -16255   -16235   -16222   -16214 
  -16209   -16204   -16190   -16177   -16160   -16150   -16163   -16181 
  -16181   -16179   -16182   -16179   -16183   -16190   -16198   -16210 
  -16213   -16214   -16220   -16214   -16209   -16216   -16217   -16228 
  -16237   -16220   -16204   -16208   -16216   -16231   -16237   -16220 
  -16200   -16185   -16179   -16191   -16206   -16216   -16231   -16244 
  -16251   -16251   -16240   -16235   -16232   -16224   -16231   -16245 
  -16247   -16252   -16263   -16266   -16270   -16266   -16254   -16256 
  -16263   -16262   -16260   -16263   -16281   -16305   -16317   -16321 
  -16302   -16274   -16268   -16264   -16254   -16249   -16237   -16218 
  -16213   -16209   -16204   -16194   -16171   -16158   -16160   -16156 
  -16144   -16128   -16121   -16136   -16163   -16189   -16218   -16239 
  -16247   -16263   -16274   -16279   -16298   -16308   -16308   -16320 
  -16329   -16321   -16320   -16325   -16320   -16297   -16270   -16262 
  -16262   -16262   -16266   -16260   -16245   -16240   -16229   -16216 
  -16208   -16190   -16179   -16182   -16179   -16182   -16189   -16175 
  -16163   -16170   -16185   -16212   -16233   -16227   -16213   -16205 
  -16205   -16225   -16251   -16267   -16274   -16270   -16258   -16239 
  -16217   -16208   -16208   -16210   -16218   -16209   -16185   -16174 
  -16170   -16178   -16205   -16231   -16244   -16258   -16263   -16270 
  -16285   -16285   -16275   -16278   -16283   -16283   -16276   -16262 
  -16248   -16243   -16241   -16239   -16222   -16200   -16186   -16174 
  -16170   -16179   -16182   -16194   -16210   -16209   -16205   -16206 
  -16198   -16194   -16200   -16206   -16222   -16237   -16248   -16263 
  -16274   -16279   -16285   -16281   -16274   -16266   -16252   -16240 
  -16222   -16197   -16191   -16195   -16194   -16198   -16201   -16194 
  -16187   -16189   -16201   -16220   -16232   -16240   -16249   -16266 
  -16294   -16326   -16347   -16371   -16386   -16371   -16356   -16344 
  -16317   -16295   -16279   -16249   -16218   -16195   -16182   -16179 
  -16171   -16163   -16160   -16148   -16141   -16152   -16159   -16167 
  -16175   -16174   -16173   -16178   -16187   -16198   -16208   -16214 
  -16224   -16227   -16227   -16225   -16217   -16213   -16204   -16178 
  -16170   -16187   -16200   -16208   -16217   -16220   -16222   -16224 
  -16225   -16232   -16240   -16256   -16286   -16312   -16322   -16314 
  -16287   -16266   -16259   -16245   -16239   -16241   -16233   -16227 
  -16228   -16229   -16239   -16254   -16264   -16268   -16254   -16228 
  -16217   -16206   -16194   -16200   -16213   -16229   -16245   -16236 
  -16225   -16233   -16233   -16232   -16241   -16245   -16252   -16258 
  -16249   -16237   -16222   -16205   -16198   -16195   -16201   -16220 
  -16229   -16231   -16240   -16241   -16240   -16249   -16254   -16254 
  -16260   -16274   -16299   -16322   -16330   -16337   -16336   -16324 
  -16317   -16313   -16310   -16316   -16313   -16302   -16293   -16271 
  -16248   -16236   -16221   -16210   -16205   -16191   -16183   -16171 
  -16148   -16131   -16117   -16105   -16109   -16125   -16144   -16171 
  -16197   -16209   -16213   -16216   -16221   -16222   -16222   -16237 
  -16249   -16240   -16229   -16217   -16206   -16220   -16236   -16231 
  -16222   -16209   -16189   -16177   -16167   -16159   -16166   -16178 
  -16193   -16205   -16208   -16213   -16216   -16218   -16231   -16239 
  -16241   -16247   -16244   -16241   -16254   -16262   -16266   -16268 
  -16266   -16264   -16259   -16249   -16254   -16262   -16256   -16255 
  -16254   -16245   -16244   -16251   -16259   -16266   -16266   -16264 
  -16263   -16255   -16249   -16247   -16245   -16252   -16262   -16266 
  -16266   -16254   -16232   -16218   -16208   -16200   -16201   -16195 
  -16181   -16173   -16163   -16156   -16162   -16168   -16178   -16186 
  -16182   -16178   -16178   -16183   -16200   -16213   -16227   -16244 
  -16252   -16255   -16263   -16267   -16266   -16267   -16266   -16266 
  -16266   -16267   -16274   -16276   -16267   -16259   -16252   -16243 
  -16236   -16222   -16220   -16240   -16251   -16245   -16248   -16249 
  -16251   -16260   -16270   -16285   -16293   -16285   -16285   -16286 
  -16275   -16271   -16268   -16262   -16260   -16255   -16248   -16248 
  -16240   -16225   -16222   -16224   -16227   -16227   -16213   -16194 
  -16185   -16181   -16183   -16183   -16182   -16189   -16193   -16187 
  -16181   -16173   -16166   -16173   -16183   -16193   -16208   -16218 
  -16222   -16231   -16240   -16248   -16262   -16281   -16293   -16291 
  -16276   -16256   -16240   -16231   -16227   -16221   -16218   -16224 
  -16216   -16193   -16185   -16186   -16190   -16201   -16204   -16198 
  -16201   -16208   -16218   -16233   -16244   -16248   -16245   -16247 
  -16256   -16258   -16259   -16266   -16266   -16267   -16268   -16263 
  -16264   -16255   -16229   -16221   -16214   -16200   -16201   -16210 
  -16209   -16213   -16218   -16216   -16217   -16224   -16222   -16222 
  -16228   -16239   -16245   -16244   -16244   -16251   -16247   -16245 
  -16252   -16249   -16251   -16262   -16263   -16264   -16270   -16274 
  -16276   -16272   -16267   -16264   -16256   -16248   -16247   -16247 
  -16256   -16264   -16258   -16262   -16272   -16262   -16248   -16245 
  -16245   -16254   -16264   -16271   -16283   -16289   -16285   -16278 
  -16267   -16259   -16254   -16244   -16239   -16229   -16217   -16224 
  -16236   -16237   -16239   -16229   -16205   -16194   -16193   -16191 
  -16194   -16182   -16166   -16151   -16133   -16128   -16127   -16120 
  -16125   -16131   -16132   -16146   -16156   -16158   -16166   -16173 
  -16181   -16200   -16216   -16229   -16249   -16267   -16281   -16291 
  -16293   -16293   -16301   -16303   -16299   -16289   -16268   -16254 
  -16245   -16227   -16210   -16198   -16183   -16175   -16174   -16175 
  -16178   -16174   -16171   -16167   -16152   -16150   -16163   -16178 
  -16194   -16209   -16221   -16232   -16237   -16245   -16266   -16271 
  -16267   -16266   -16258   -16259   -16266   -16259   -16252   -16249 
  -16236   -16225   -16220   -16218   -16227   -16235   -16227   -16216 
  -16204   -16195   -16197   -16194   -16200   -16214   -16214   -16214 
  -16228   -16233   -16243   -16259   -16266   -16268   -16272   -16271 
  -16268   -16266   -16263   -16270   -16271   -16264   -16268   -16271 
  -16276   -16291   -16294   -16290   -16287   -16275   -16272   -16283 
  -16283   -16290   -16301   -16301   -16305   -16312   -16308   -16299 
  -16287   -16276   -16274   -16268   -16263   -16260   -16254   -16252 
  -16255   -16244   -16241   -16248   -16249   -16248   -16248   -16248 
  -16255   -16268   -16281   -16293   -16293   -16286   -16283   -16270 
  -16254   -16240   -16220   -16213   -16217   -16209   -16201   -16200 
  -16189   -16181   -16183   -16189   -16191   -16190   -16191   -16202 
  -16208   -16217   -16236   -16240   -16237   -16243   -16241   -16244 
  -16251   -16248   -16245   -16251   -16256   -16263   -16262   -16256 
  -16262   -16268   -16272   -16272   -16264   -16262   -16259   -16239 
  -16224   -16217   -16200   -16185   -16178   -16164   -16154   -16141 
  -16124   -16119   -16123   -16120   -16114   -16109   -16102   -16102 
  -16100   -16096   -16104   -16114   -16124   -16129   -16129   -16133 
  -16146   -16159   -16177   -16193   -16200   -16208   -16218   -16224 
  -16224   -16213   -16210   -16213   -16206   -16209   -16222   -16227 
  -16225   -16217   -16197   -16187   -16183   -16173   -16175   -16183 
  -16185   -16189   -16189   -16190   -16202   -16217   -16235   -16254 
  -16266   -16275   -16278   -16267   -16268   -16278   -16274   -16275 
  -16285   -16287   -16291   -16298   -16303   -16309   -16309   -16309 
