Origin Time       2025/06/03 22:18:00
Lat.              41.7
Long.             143.6
Depth. (km)       30
Mag.              5.2
Station Code      KKWH14
Station Lat.      43.3841
Station Long.     142.5245
Station Height(m) 239
Record Time       2025/06/03 22:19:33
Sampling Freq(Hz) 100Hz
Duration Time(s)  120
Dir.              1
Scale Factor      2942(gal)/8224139
Max. Acc. (gal)   0.135
Last Correction   2025/06/03 22:19:34
Memo.             
[...]
  137956   137940   137921   137902   137887   137884   137893   137910 
  137932   137948   137961   137974   137983   137991   137991   137984 
  137978   137965   137949   137929   137907   137889   137875   137866 
  137852   137830   137805   137782   137763   137749   137743   137747 
  137759   137775   137795   137816   137830   137837   137840   137843 
  137844   137843   137839   137837   137836   137839   137844   137853 
  137864   137882   137903   137924   137938   137948   137945   137933 
  137916   137891   137862   137839   137830   137833   137848   137868 
  137887   137903   137920   137937   137952   137960   137960   137957 
  137949   137933   137917   137905   137897   137898   137917   137947 
  137976   137998   138015   138029   138037   138036   138029   138014 
  137997   137976   137953   137926   137903   137889   137879   137871 
  137866   137866   137864   137863   137864   137868   137876   137878 
  137868   137860   137848   137835   137828   137826   137824   137825 
  137835   137847   137855   137860   137864   137866   137875   137889 
  137903   137924   137949   137974   137994   138006   138013   138014 
  138013   138006   137991   137982   137984   137988   137986   137984 
  137976   137960   137941   137918   137895   137880   137872   137870 
  137871   137870   137863   137849   137830   137816   137810   137810 
  137814   137825   137840   137855   137867   137880   137895   137906 
  137911   137914   137921   137926   137930   137930   137925   137916 
  137903   137884   137863   137848   137839   137835   137835   137835 
  137830   137825   137817   137801   137779   137763   137754   137748 
  137748   137749   137755   137764   137771   137781   137794   137809 
  137822   137833   137841   137847   137852   137852   137852   137852 
  137857   137868   137878   137884   137897   137913   137929   137948 
  137965   137980   137991   137990   137975   137953   137924   137887 
  137853   137822   137795   137778   137771   137766   137760   137755 
  137754   137756   137764   137774   137787   137808   137836   137860 
  137872   137880   137886   137890   137897   137906   137918   137934 
  137952   137960   137963   137960   137953   137944   137940   137941 
  137951   137972   137999   138028   138052   138072   138092   138105 
  138113   138121   138115   138099   138080   138057   138029   138005 
  137978   137949   137922   137898   137880   137867   137855   137844 
  137839   137839   137840   137843   137852   137867   137883   137901 
  137920   137933   137945   137959   137971   137971   137963   137949 
  137929   137909   137884   137859   137841   137828   137820   137816 
  137812   137805   137795   137783   137763   137741   137718   137701 
  137697   137705   137722   137740   137755   137770   137786   137795 
  137802   137808   137812   137821   137840   137863   137880   137894 
  137905   137917   137921   137916   137895   137870   137844   137821 
  137805   137802   137803   137805   137810   137816   137822   137832 
  137839   137845   137848   137847   137847   137845   137843   137844 
  137853   137868   137887   137902   137910   137911   137909   137903 
  137898   137894   137894   137906   137925   137944   137965   137991 
  138017   138034   138049   138059   138060   138057   138055   138048 
  138040   138028   138007   137984   137964   137944   137921   137895 
  137870   137855   137853   137862   137875   137890   137905   137920 
  137932   137941   137951   137959   137964   137970   137972   137972 
  137972   137971   137968   137965   137967   137967   137970   137968 
  137963   137963   137960   137952   137949   137947   137940   137934 
  137933   137930   137933   137941   137947   137941   137932   137918 
  137905   137886   137859   137836   137813   137791   137771   137755 
  137733   137709   137683   137659   137639   137623   137617   137623 
  137636   137656   137683   137710   137736   137764   137794   137816 
  137826   137839   137845   137841   137836   137836   137835   137829 
  137822   137817   137806   137794   137790   137783   137772   137768 
  137771   137774   137778   137793   137812   137826   137843   137860 
  137882   137907   137929   137945   137959   137971   137983   137997 
  138015   138040   138067   138099   138136   138165   138194   138218 
  138237   138245   138241   138235   138227   138210   138190   138171 
  138148   138123   138098   138068   138040   138007   137967   137934 
  137913   137894   137876   137860   137847   137832   137812   137794 
  137781   137768   137763   137764   137772   137786   137799   137817 
  137840   137860   137875   137891   137902   137907   137913   137921 
  137930   137937   137943   137952   137963   137968   137963   137947 
  137925   137906   137883   137862   137847   137829   137803   137781 
  137762   137747   137747   137762   137776   137790   137799   137808 
  137813   137814   137812   137813   137817   137821   137824   137825 
  137824   137818   137814   137813   137810   137805   137799   137794 
  137791   137787   137789   137801   137814   137826   137843   137857 
  137870   137887   137907   137928   137944   137953   137959   137963 
  137965   137967   137961   137952   137944   137930   137914   137903 
  137893   137880   137871   137870   137872   137880   137894   137902 
  137899   137893   137883   137872   137862   137852   137847   137848 
  137848   137844   137837   137829   137817   137805   137795   137786 
  137785   137797   137816   137833   137847   137859   137862   137859 
  137855   137843   137832   137832   137833   137835   137840   137843 
  137835   137820   137802   137783   137766   137748   137732   137728 
  137736   137752   137768   137779   137789   137798   137802   137797 
  137794   137795   137798   137805   137814   137821   137836   137856 
  137875   137895   137920   137936   137945   137957   137970   137982 
  137992   138002   138007   138011   138019   138028   138036   138042 
  138053   138060   138060   138061   138061   138055   138049   138045 
  138038   138026   138009   137986   137963   137943   137921   137903 
  137890   137878   137871   137872   137878   137889   137903   137917 
  137932   137945   137956   137960   137960   137953   137947   137941 
  137936   137932   137928   137920   137910   137903   137891   137874 
  137853   137836   137830   137830   137835   137840   137849   137857 
  137867   137871   137870   137860   137847   137833   137825   137822 
  137825   137833   137851   137870   137884   137898   137907   137910 
  137911   137914   137913   137914   137914   137911   137913   137918 
  137929   137938   137945   137949   137951   137953   137960   137967 
  137971   137972   137972   137968   137967   137968   137961   137951 
  137940   137928   137916   137905   137894   137886   137884   137889 
  137897   137910   137930   137952   137972   137987   137998   138001 
  137992   137976   137959   137937   137914   137894   137874   137851 
  137829   137810   137793   137774   137763   137756   137743   137731 
  137727   137724   137725   137737   137751   137764   137776   137782 
  137785   137787   137786   137787   137790   137793   137799   137812 
  137822   137835   137844   137851   137859   137870   137882   137887 
  137887   137886   137886   137882   137880   137884   137884   137884 
  137893   137905   137917   137929   137937   137944   137949   137952 
  137953   137957   137960   137963   137970   137980   137992   138002 
  138007   138013   138013   138007   138001   137987   137972   137956 
  137934   137909   137890   137872   137847   137822   137802   137783 
  137768   137755   137743   137741   137751   137760   137767   137774 
  137782   137791   137808   137824   137836   137848   137860   137870 
  137880   137889   137898   137906   137909   137918   137938   137957 
  137978   138001   138019   138036   138049   138059   138061   138060 
  138061   138061   138061   138064   138071   138076   138083   138084 
  138083   138078   138067   138056   138044   138029   138013   137992 
  137972   137957   137936   137917   137903   137887   137875   137868 
  137860   137853   137851   137847   137840   137839   137840   137837 
  137839   137841   137840   137835   137832   137830   137829   137830 
  137833   137844   137857   137870   137876   137879   137876   137866 
  137848   137826   137802   137779   137759   137744   137739   137739 
  137740   137739   137733   137725   137718   137716   137712   137717 
  137731   137749   137776   137810   137841   137868   137887   137895 
  137901   137906   137907   137903   137897   137887   137872   137856 
  137840   137826   137813   137799   137782   137767   137751   137737 
  137728   137722   137721   137727   137735   137745   137759   137771 
  137776   137779   137783   137786   137786   137786   137794   137803 
  137816   137829   137847   137872   137895   137910   137924   137936 
  137938   137940   137940   137930   137918   137906   137897   137890 
  137889   137890   137895   137903   137911   137925   137941   137960 
  137976   137992   138010   138022   138029   138030   138028   138019 
  138013   138010   138009   138003   137995   137988   137979   137968 
  137964   137970   137976   137982   137988   137991   137994   137998 
  138003   138003   138003   138006   138011   138015   138014   138010 
  138002   137990   137976   137960   137938   137917   137895   137871 
  137847   137829   137814   137806   137806   137812   137820   137835 
  137860   137884   137909   137934   137959   137979   137997   138007 
  138013   138014   138011   138009   138006   138001   137994   137988 
  137984   137979   137972   137964   137959   137953   137947   137938 
  137926   137916   137906   137893   137879   137875   137870   137859 
  137853   137849   137843   137836   137826   137822   137824   137825 
  137825   137826   137829   137829   137826   137816   137805   137794 
  137781   137767   137756   137747   137740   137737   137736   137740 
  137748   137763   137783   137805   137828   137849   137874   137894 
  137906   137913   137918   137922   137922   137925   137930   137938 
  137945   137949   137951   137945   137936   137926   137920   137909 
  137901   137895   137889   137884   137886   137887   137891   137903 
  137914   137924   137936   137944   137952   137961   137963   137959 
  137953   137945   137934   137926   137914   137899   137890   137879 
  137864   137847   137826   137803   137787   137772   137760   137751 
  137741   137733   137725   137716   137709   137704   137702   137708 
  137721   137736   137754   137778   137803   137829   137852   137874 
  137891   137903   137911   137918   137925   137932   137933   137936 
  137941   137944   137948   137952   137951   137947   137940   137930 
  137918   137907   137902   137898   137895   137895   137898   137893 
  137883   137878   137876   137879   137884   137889   137893   137898 
  137899   137899   137906   137913   137922   137934   137947   137959 
  137970   137976   137983   137984   137979   137976   137976   137974 
  137965   137960   137955   137948   137938   137929   137918   137907 
  137898   137893   137891   137893   137895   137902   137909   137916 
  137925   137936   137945   137952   137956   137959   137960   137960 
  137955   137947   137940   137933   137929   137930   137934   137933 
  137929   137928   137924   137913   137903   137897   137891   137886 
  137883   137878   137872   137870   137868   137864   137862   137857 
  137848   137835   137826   137822   137817   137814   137816   137813 
  137813   137814   137814   137814   137813   137809   137803   137799 
  137793   137779   137766   137756   137751   137745   137743   137740 
  137739   137739   137737   137740   137744   137747   137747   137745 
  137745   137748   137751   137754   137760   137764   137771   137779 
  137785   137791   137798   137805   137810   137816   137824   137835 
  137847   137863   137883   137903   137922   137937   137948   137959 
  137972   137987   138002   138015   138028   138038   138045   138053 
  138057   138060   138063   138063   138057   138051   138044   138037 
  138029   138022   138017   138013   138013   138013   138013   138018 
  138026   138032   138036   138042   138048   138051   138049   138048 
  138049   138046   138038   138030   138015   137994   137976   137957 
  137936   137913   137891   137866   137837   137817   137802   137783 
  137767   137758   137748   137736   137729   137725   137722   137724 
  137729   137732   137736   137745   137752   137756   137764   137770 
  137774   137781   137790   137803   137820   137825   137828   137829 
  137828   137826   137825   137824   137821   137822   137828   137829 
  137830   137837   137845   137851   137859   137867   137875   137887 
  137903   137914   137929   137948   137963   137976   137994   138011 
  138032   138056   138076   138092   138107   138122   138136   138148 
  138160   138168   138175   138177   138173   138171   138168   138163 
  138153   138144   138136   138123   138111   138098   138082   138068 
  138057   138049   138040   138034   138033   138029   138022   138017 
  138013   138005   137994   137982   137968   137955   137940   137921 
  137901   137880   137857   137833   137810   137787   137760   137733 
  137704   137668   137637   137609   137582   137562   137547   137535 
  137525   137520   137515   137512   137512   137519   137527   137533 
  137538   137547   137558   137567   137579   137593   137606   137623 
  137640   137660   137685   137710   137735   137755   137778   137801 
  137822   137841   137864   137884   137898   137913   137930   137947 
  137963   137979   137990   137997   138003   138010   138013   138017 
  138024   138028   138032   138034   138036   138033   138030   138021 
  138011   138006   138002   137998   138002   138003   138003   138006 
  138006   138005   138007   138007   138003   137997   137988   137976 
  137963   137956   137948   137941   137934   137930   137922   137917 
  137914   137911   137910   137905   137899   137895   137891   137886 
  137880   137875   137871   137866   137857   137849   137840   137830 
  137820   137806   137799   137791   137781   137772   137764   137758 
  137755   137755   137754   137754   137756   137762   137774   137786 
  137799   137816   137833   137847   137857   137870   137879   137890 
  137903   137911   137917   137929   137941   137952   137964   137980 
  137992   138002   138013   138024   138033   138036   138036   138038 
  138037   138032   138026   138024   138018   138010   138006   138001 
  137992   137990   137984   137980   137978   137968   137956   137945 
  137929   137913   137899   137884   137866   137852   137839   137820 
  137803   137791   137779   137768   137762   137756   137756   137755 
  137755   137756   137759   137762   137762   137762   137767   137771 
  137772   137774   137774   137776   137778   137778   137781   137783 
  137786   137790   137793   137794   137799   137803   137805   137805 
  137806   137806   137806   137808   137809   137809   137808   137812 
  137816   137820   137825   137830   137839   137849   137856   137868 
  137884   137898   137909   137924   137937   137951   137961   137970 
  137976   137983   137988   137990   137987   137984   137980   137972 
  137965   137957   137948   137941   137937   137933   137930   137929 
  137924   137916   137914   137917   137918   137926   137937   137945 
  137959   137972   137980   137990   138001   138007   138014   138024 
  138034   138042   138052   138061   138063   138060   138057   138051 
  138034   138019   138006   137990   137974   137960   137947   137936 
  137928   137918   137914   137916   137914   137913   137916   137917 
  137916   137917   137918   137918   137924   137933   137940   137948 
  137959   137970   137976   137982   137986   137990   137991   137990 
  137987   137982   137976   137971   137968   137963   137955   137948 
  137943   137930   137918   137909   137897   137883   137872   137863 
  137853   137844   137833   137824   137816   137809   137805   137803 
  137802   137799   137794   137790   137789   137789   137782   137776 
  137778   137781   137779   137779   137783   137787   137790   137798 
  137808   137817   137825   137832   137840   137851   137857   137863 
  137871   137878   137880   137882   137884   137889   137891   137898 
  137902   137905   137906   137907   137906   137905   137902   137895 
  137891   137887   137878   137866   137857   137847   137839   137835 
  137830   137826   137830   137833   137835   137837   137843   137851 
  137859   137864   137871   137876   137880   137884   137889   137895 
  137901   137905   137909   137911   137916   137922   137926   137929 
  137929   137928   137925   137918   137910   137901   137890   137876 
  137860   137844   137828   137814   137803   137797   137791   137787 
  137779   137770   137762   137754   137745   137737   137732   137729 
  137729   137728   137727   137725   137728   137729   137729   137729 
  137732   137732   137731   137728   137722   137717   137713   137714 
  137714   137713   137714   137721   137733   137743   137754   137766 
  137779   137794   137810   137825   137840   137856   137871   137883 
  137893   137902   137911   137920   137929   137941   137945   137947 
  137953   137961   137965   137968   137976   137984   137990   137997 
  138007   138018   138028   138041   138056   138071   138083   138095 
  138105   138110   138113   138114   138117   138115   138113   138107 
  138099   138092   138086   138075   138065   138059   138049   138042 
  138036   138026   138015   138009   137999   137984   137975   137968 
  137960   137955   137949   137941   137934   137930   137929   137930 
  137930   137930   137926   137921   137922   137924   137922   137921 
  137922   137925   137929   137934   137938   137943   137945   137949 
  137951   137951   137947   137940   137934   137928   137921   137914 
  137903   137891   137884   137876   137863   137855   137851   137848 
  137848   137851   137856   137860   137867   137875   137880   137887 
  137897   137905   137909   137911   137910   137907   137909   137909 
  137906   137906   137906   137901   137894   137887   137880   137874 
  137866   137860   137856   137849   137840   137835   137830   137821 
  137813   137805   137793   137779   137768   137752   137735   137722 
  137709   137697   137689   137681   137675   137670   137666   137664 
  137663   137663   137666   137673   137681   137689   137698   137713 
  137731   137745   137763   137781   137799   137822   137845   137863 
  137883   137902   137916   137930   137947   137960   137971   137976 
  137980   137986   137990   137988   137986   137983   137979   137979 
  137978   137976   137975   137976   137980   137986   137987   137987 
  137992   137995   137995   137998   138001   138002   138006   138009 
  138011   138010   138010   138013   138010   138006   138005   138002 
  137994   137987   137982   137972   137964   137959   137949   137940 
  137930   137918   137906   137897   137884   137874   137864   137856 
  137849   137843   137837   137830   137824   137820   137817   137813 
