Origin Time       2025/06/03 22:18:00
Lat.              41.7
Long.             143.6
Depth. (km)       30
Mag.              5.2
Station Code      KKWH14
Station Lat.      43.3841
Station Long.     142.5245
Station Height(m) 389
Record Time       2025/06/03 22:19:33
Sampling Freq(Hz) 100Hz
Duration Time(s)  120
Dir.              6
Scale Factor      7845(gal)/8223790
Max. Acc. (gal)   0.199
Last Correction   2025/06/03 22:19:34
Memo.             
    5512     5537     5556     5566     5568     5568     5563     5553 
    5544     5543     5552     5564     5572     5575     5575     5574 
    5562     5535     5508     5499     5512     5537     5562     5575 
    5583     5598     5620     5633     5630     5606     5571     5548 
    5544     5551     5555     5555     5552     5545     5533     5518 
    5506     5509     5528     5552     5575     5580     5568     5553 
    5548     5556     5564     5560     5548     5526     5499     5474 
    5455     5447     5452     5463     5478     5490     5497     5503 
    5513     5530     5553     5572     5587     5593     5587     5578 
    5563     5548     5544     5545     5544     5545     5555     5571 
    5591     5611     5622     5620     5606     5591     5578     5571 
    5575     5583     5597     5607     5607     5591     5570     5551 
    5539     5536     5547     5562     5576     5584     5582     5579 
    5584     5582     5563     5540     5517     5498     5497     5514 
    5540     5572     5605     5620     5606     5568     5528     5503 
    5499     5509     5533     5563     5589     5602     5591     5557 
    5517     5483     5463     5456     5464     5483     5514     5547 
    5570     5580     5583     5587     5586     5567     5537     5510 
    5495     5494     5501     5510     5516     5510     5494     5482 
    5482     5489     5498     5517     5545     5568     5575     5576 
    5580     5582     5572     5557     5552     5557     5566     5576 
    5591     5607     5609     5594     5574     5552     5536     5525 
    5529     5533     5517     5494     5486     5491     5498     5505 
    5512     5524     5536     5543     5541     5536     5530     5532 
    5537     5547     5553     5549     5537     5526     5526     5539 
    5552     5567     5583     5593     5594     5589     5578     5563 
    5549     5547     5556     5564     5564     5557     5552     5549 
    5548     5551     5556     5560     5559     5555     5551     5545 
    5532     5517     5510     5509     5508     5506     5509     5512 
    5514     5517     5522     5529     5537     5539     5539     5549 
    5568     5583     5589     5583     5564     5547     5539     5540 
    5556     5579     5598     5599     5583     5562     5543     5529 
    5525     5525     5524     5526     5537     5544     5541     5543 
    5557     5575     5583     5591     5591     5575     5555     5536 
    5520     5520     5530     5537     5536     5530     5526     5528 
    5533     5541     5556     5576     5591     5595     5595     5593 
    5591     5583     5564     5540     5513     5498     5503     5514 
    5524     5539     5552     5560     5563     5572     5590     5602 
    5598     5583     5568     5560     5560     5562     5570     5575 
    5572     5574     5589     5606     5621     5629     5622     5603 
    5586     5578     5578     5586     5594     5597     5589     5578 
    5574     5576     5576     5562     5535     5503     5475     5467 
    5487     5518     5548     5575     5586     5575     5548     5520 
    5501     5497     5510     5543     5575     5587     5574     5544 
    5514     5490     5478     5487     5505     5517     5522     5530 
    5533     5529     5532     5551     5576     5598     5613     5616 
    5603     5575     5537     5498     5470     5466     5481     5495 
    5506     5516     5520     5510     5490     5474     5467     5462 
    5459     5464     5474     5491     5518     5545     5567     5570 
    5555     5532     5512     5499     5505     5522     5557     5603 
    5641     5659     5663     5652     5632     5614     5598     5582 
    5575     5571     5563     5553     5547     5537     5525     5514 
    5510     5522     5544     5564     5583     5595     5595     5583 
    5571     5564     5567     5578     5593     5602     5602     5591 
    5566     5536     5524     5521     5505     5482     5466     5464 
    5476     5494     5502     5506     5522     5548     5570     5584 
    5594     5605     5614     5621     5616     5602     5579     5552 
    5526     5505     5485     5472     5476     5497     5525     5553 
    5571     5574     5570     5567     5567     5570     5567     5555 
    5535     5516     5506     5505     5510     5520     5535     5556 
    5594     5648     5694     5714     5701     5647     5559     5464 
    5389     5346     5339     5364     5421     5498     5576     5640 
    5670     5656     5609     5553     5509     5486     5487     5509 
    5551     5605     5655     5687     5688     5661     5607     5537 
    5474     5433     5424     5451     5508     5580     5645     5678 
    5663     5610     5551     5499     5460     5444     5459     5501 
    5548     5580     5599     5613     5617     5606     5575     5539 
    5513     5509     5524     5548     5568     5576     5556     5503 
    5445     5409     5412     5456     5521     5579     5614     5622 
    5610     5591     5575     5564     5564     5576     5594     5611 
    5624     5630     5630     5624     5610     5589     5566     5544 
    5525     5513     5517     5537     5566     5583     5578     5553 
    5525     5497     5472     5466     5489     5522     5539     5526 
    5491     5454     5436     5455     5508     5572     5628     5661 
    5664     5644     5609     5566     5522     5487     5463     5454 
    5470     5514     5572     5620     5638     5625     5586     5539 
    5493     5449     5421     5420     5441     5483     5533     5570 
    5582     5575     5549     5517     5491     5493     5520     5540 
    5536     5510     5483     5476     5498     5533     5566     5586 
    5603     5624     5643     5655     5659     5651     5628     5590 
    5541     5505     5506     5536     5564     5579     5579     5562 
    5533     5505     5482     5470     5471     5487     5518     5549 
    5578     5602     5620     5629     5629     5630     5634     5626 
    5599     5570     5553     5551     5551     5545     5540     5536 
    5524     5495     5464     5451     5466     5494     5521     5547 
    5562     5559     5541     5513     5479     5452     5441     5459 
    5506     5563     5617     5664     5687     5672     5630     5578 
    5532     5512     5518     5547     5586     5622     5641     5640 
    5621     5587     5547     5513     5499     5506     5520     5532 
    5544     5553     5548     5536     5536     5551     5570     5576 
    5572     5568     5560     5539     5512     5486     5464     5445 
    5432     5425     5424     5431     5447     5471     5499     5536 
    5570     5599     5621     5625     5613     5595     5583     5578 
    5576     5582     5594     5606     5611     5606     5594     5582 
    5567     5551     5539     5540     5553     5570     5575     5568 
    5555     5545     5543     5540     5536     5533     5539     5543 
    5535     5524     5526     5541     5551     5548     5535     5520 
    5510     5513     5524     5536     5552     5578     5602     5618 
    5618     5601     5579     5557     5541     5533     5524     5512 
    5506     5510     5524     5544     5576     5607     5624     5620 
    5602     5567     5512     5454     5414     5409     5433     5468 
    5510     5571     5640     5697     5730     5726     5682     5611 
    5537     5478     5445     5445     5472     5520     5571     5603 
    5609     5590     5552     5513     5485     5472     5479     5502 
    5539     5578     5613     5637     5652     5653     5645     5633 
    5611     5589     5572     5563     5549     5524     5494     5467 
    5451     5452     5460     5472     5479     5478     5470     5455 
    5445     5452     5470     5490     5506     5518     5526     5532 
    5537     5544     5562     5591     5624     5645     5644     5621 
    5586     5551     5530     5530     5539     5552     5568     5582 
    5586     5578     5564     5545     5520     5494     5474     5464 
    5471     5489     5510     5524     5517     5493     5470     5463 
    5476     5505     5532     5557     5586     5609     5616     5613 
    5613     5621     5634     5648     5647     5630     5610     5589 
    5568     5562     5572     5591     5610     5622     5628     5637 
    5651     5656     5640     5603     5555     5514     5497     5503 
    5522     5545     5560     5562     5564     5576     5594     5606 
    5595     5564     5533     5512     5497     5486     5487     5506 
    5529     5536     5520     5491     5464     5449     5448     5456 
    5471     5495     5522     5547     5563     5567     5556     5530 
    5501     5481     5474     5489     5524     5571     5621     5652 
    5652     5630     5602     5575     5551     5536     5536     5545 
    5556     5560     5564     5568     5562     5552     5547     5540 
    5528     5508     5489     5482     5482     5485     5489     5493 
    5498     5509     5520     5535     5553     5578     5607     5634 
    5643     5630     5610     5594     5583     5575     5571     5570 
    5563     5552     5544     5545     5557     5575     5589     5591 
    5580     5557     5539     5532     5530     5529     5525     5521 
    5517     5514     5518     5525     5524     5517     5513     5513 
    5524     5541     5556     5566     5564     5552     5537     5525 
    5518     5524     5543     5574     5607     5634     5644     5634 
    5613     5591     5572     5560     5560     5575     5601     5629 
    5637     5622     5598     5571     5552     5547     5547     5548 
    5543     5533     5528     5526     5529     5536     5536     5522 
    5498     5476     5460     5460     5478     5499     5512     5514 
    5509     5495     5483     5476     5470     5458     5452     5459 
    5471     5487     5510     5535     5553     5563     5572     5589 
    5611     5628     5626     5609     5590     5574     5564     5564 
    5564     5557     5553     5552     5549     5552     5556     5555 
    5557     5571     5590     5605     5614     5613     5598     5580 
    5570     5564     5575     5593     5594     5579     5548     5503 
    5470     5456     5464     5490     5529     5568     5591     5593 
    5578     5551     5517     5474     5432     5410     5413     5439 
    5478     5518     5556     5586     5605     5616     5617     5607 
    5593     5580     5571     5564     5557     5556     5564     5583 
    5609     5624     5621     5603     5580     5566     5562     5566 
    5578     5594     5610     5618     5613     5597     5574     5549 
    5526     5513     5516     5529     5540     5551     5566     5576 
    5583     5583     5571     5556     5541     5522     5506     5493 
    5481     5468     5458     5444     5440     5454     5474     5493 
    5501     5491     5481     5481     5485     5495     5514     5540 
    5575     5614     5647     5675     5690     5676     5637     5595 
    5557     5532     5521     5528     5551     5572     5584     5595 
    5602     5593     5568     5539     5510     5494     5494     5510 
    5552     5609     5655     5678     5683     5675     5655     5629 
    5599     5571     5547     5533     5526     5524     5524     5522 
    5517     5509     5503     5505     5517     5537     5553     5564 
    5563     5552     5543     5541     5547     5557     5578     5599 
    5611     5618     5613     5593     5566     5537     5516     5497 
    5481     5475     5475     5481     5494     5513     5530     5529 
    5512     5486     5459     5440     5440     5460     5499     5552 
    5606     5643     5660     5657     5629     5584     5530     5478 
    5436     5416     5418     5444     5487     5535     5571     5589 
    5590     5576     5555     5535     5522     5520     5526     5543 
    5557     5566     5570     5567     5560     5556     5562     5570 
    5570     5559     5543     5528     5517     5503     5493     5490 
    5495     5501     5506     5517     5532     5544     5548     5547 
    5545     5551     5560     5574     5593     5611     5624     5630 
    5636     5637     5633     5621     5602     5576     5551     5537 
    5530     5530     5545     5564     5583     5598     5594     5568 
    5535     5505     5485     5471     5468     5476     5491     5509 
    5525     5533     5536     5541     5547     5543     5533     5526 
    5520     5513     5503     5493     5491     5505     5528     5556 
    5587     5618     5634     5634     5624     5609     5597     5589 
    5582     5576     5575     5576     5572     5564     5552     5533 
    5513     5501     5493     5486     5489     5506     5536     5559 
    5568     5567     5562     5540     5509     5483     5459     5435 
    5416     5410     5421     5448     5478     5508     5536     5549 
    5551     5545     5536     5530     5528     5526     5526     5533 
    5543     5557     5583     5610     5626     5632     5625     5620 
    5626     5640     5651     5660     5657     5641     5628     5621 
    5616     5603     5579     5549     5517     5481     5444     5420 
    5412     5427     5452     5482     5516     5545     5571     5598 
    5616     5630     5644     5651     5653     5657     5656     5648 
    5640     5630     5616     5599     5582     5570     5572     5590 
    5610     5625     5634     5634     5626     5620     5613     5599 
    5582     5563     5549     5541     5539     5537     5530     5514 
    5493     5478     5470     5466     5466     5472     5485     5503 
    5522     5536     5548     5556     5552     5541     5528     5517 
    5514     5520     5525     5530     5539     5549     5556     5562 
    5570     5574     5567     5549     5526     5505     5490     5483 
    5478     5474     5475     5479     5481     5478     5466     5451 
    5440     5436     5440     5455     5474     5490     5509     5530 
    5551     5564     5567     5562     5553     5541     5526     5509 
    5498     5499     5512     5535     5562     5586     5603     5611 
    5607     5594     5582     5583     5590     5597     5601     5606 
    5607     5598     5583     5572     5566     5568     5579     5591 
    5603     5618     5625     5616     5601     5579     5549     5526 
    5518     5520     5526     5536     5540     5530     5517     5503 
    5491     5487     5495     5512     5533     5560     5582     5593 
    5593     5583     5570     5564     5564     5566     5571     5576 
    5570     5559     5556     5553     5549     5548     5548     5552 
    5559     5562     5566     5570     5572     5579     5590     5597 
    5595     5591     5574     5547     5522     5506     5493     5490 
    5494     5498     5505     5505     5501     5499     5502     5498 
    5502     5522     5551     5579     5605     5617     5618     5609 
    5587     5564     5553     5557     5572     5589     5598     5598 
    5584     5563     5541     5524     5514     5514     5522     5530 
    5539     5547     5548     5539     5521     5499     5476     5460 
    5462     5475     5491     5506     5518     5536     5552     5562 
    5566     5572     5576     5580     5579     5576     5579     5582 
    5590     5599     5605     5601     5595     5591     5583     5571 
    5559     5553     5545     5529     5513     5502     5495     5491 
    5493     5495     5495     5485     5460     5436     5425     5431 
    5452     5481     5508     5528     5535     5532     5529     5529 
    5533     5541     5552     5564     5578     5594     5614     5632 
    5645     5651     5651     5649     5651     5653     5657     5659 
    5660     5660     5655     5645     5640     5630     5618     5616 
    5613     5609     5602     5590     5575     5560     5545     5535 
    5529     5525     5524     5522     5517     5509     5505     5503 
    5503     5508     5508     5498     5487     5485     5487     5491 
    5493     5497     5506     5513     5514     5514     5518     5517 
    5509     5501     5495     5490     5485     5479     5475     5474 
    5475     5476     5475     5472     5472     5475     5485     5506 
    5533     5555     5563     5557     5535     5513     5501     5491 
    5487     5486     5486     5497     5508     5513     5525     5539 
    5551     5560     5568     5576     5587     5599     5607     5613 
    5621     5632     5638     5638     5630     5609     5584     5570 
    5563     5563     5568     5574     5579     5584     5583     5575 
    5559     5540     5522     5510     5501     5505     5524     5551 
    5582     5611     5633     5645     5653     5648     5630     5610 
    5595     5583     5579     5586     5597     5603     5606     5601 
    5584     5563     5548     5536     5529     5533     5543     5551 
    5562     5576     5587     5582     5568     5557     5548     5544 
    5543     5536     5526     5513     5501     5494     5491     5493 
    5501     5509     5517     5525     5529     5535     5539     5532 
    5521     5514     5505     5497     5499     5505     5506     5508 
    5516     5528     5539     5553     5574     5593     5606     5613 
    5617     5621     5620     5618     5621     5629     5640     5649 
    5660     5663     5656     5641     5618     5591     5571     5555 
    5539     5524     5514     5508     5505     5503     5502     5493 
    5481     5468     5455     5441     5429     5428     5437     5455 
    5472     5479     5486     5494     5498     5494     5486     5478 
    5472     5472     5471     5471     5476     5478     5479     5479 
    5474     5472     5475     5482     5494     5512     5530     5545 
    5559     5570     5576     5578     5578     5583     5591     5598 
    5598     5594     5591     5584     5579     5579     5579     5584 
    5595     5602     5606     5607     5609     5622     5640     5652 
    5660     5657     5644     5621     5597     5575     5555     5539 
    5536     5537     5536     5528     5513     5494     5479     5470 
    5463     5463     5474     5483     5494     5513     5530     5537 
    5539     5536     5535     5539     5544     5544     5544     5547 
    5551     5551     5543     5536     5532     5532     5537     5547 
    5560     5579     5599     5621     5636     5640     5638     5634 
    5620     5594     5574     5559     5553     5557     5571     5589 
    5603     5606     5601     5591     5582     5575     5571     5574 
    5582     5587     5590     5593     5590     5583     5574     5564 
    5560     5563     5562     5562     5562     5556     5553     5556 
    5553     5549     5549     5548     5547     5551     5556     5557 
    5551     5536     5516     5495     5476     5458     5444     5439 
    5439     5445     5455     5463     5470     5474     5475     5479 
    5487     5498     5512     5525     5530     5525     5512     5498 
    5494     5498     5501     5502     5510     5517     5518     5521 
    5524     5530     5541     5552     5559     5566     5567     5560 
    5544     5525     5512     5506     5509     5517     5528     5537 
    5552     5568     5580     5591     5599     5609     5616     5613 
    5607     5607     5613     5620     5624     5625     5628     5626 
