Origin Time       2025/06/03 22:18:00
Lat.              41.7
Long.             143.6
Depth. (km)       30
Mag.              5.2
Station Code      KKWH14
Station Lat.      43.3841
Station Long.     142.5245
Station Height(m) 239
Record Time       2025/06/03 22:19:33
Sampling Freq(Hz) 100Hz
Duration Time(s)  120
Dir.              3
Scale Factor      2942(gal)/8224139
Max. Acc. (gal)   0.128
Last Correction   2025/06/03 22:19:34
Memo.             
[...]
  120459   120459   120460   120459   120459   120463   120464   120460 
  120455   120445   120429   120413   120403   120394   120386   120383 
  120388   120398   120409   120415   120414   120406   120393   120379 
  120370   120360   120355   120353   120352   120351   120351   120352 
  120361   120374   120384   120397   120409   120421   120433   120442 
  120444   120440   120429   120414   120403   120397   120394   120394 
  120402   120415   120432   120448   120460   120469   120476   120474 
  120468   120459   120444   120420   120390   120355   120324   120299 
  120275   120255   120243   120240   120241   120240   120240   120240 
  120237   120241   120249   120259   120272   120289   120305   120317 
  120322   120329   120337   120351   120370   120397   120426   120457 
  120487   120510   120523   120532   120536   120534   120529   120523 
  120523   120526   120529   120528   120514   120491   120457   120417 
  120374   120334   120302   120280   120274   120283   120301   120322 
  120339   120353   120370   120384   120398   120418   120444   120471 
  120502   120532   120553   120579   120600   120614   120625   120633 
  120638   120646   120653   120653   120653   120653   120649   120640 
  120627   120610   120582   120555   120533   120513   120494   120482 
  120471   120459   120442   120426   120411   120398   120388   120382 
  120371   120359   120347   120332   120316   120301   120280   120264 
  120259   120256   120249   120245   120248   120258   120272   120293 
  120320   120345   120371   120393   120411   120421   120418   120407 
  120394   120376   120353   120330   120313   120297   120275   120259 
  120253   120248   120241   120241   120240   120233   120226   120222 
  120217   120216   120220   120217   120217   120222   120226   120232 
  120240   120248   120259   120268   120280   120293   120305   120321 
  120343   120372   120399   120421   120437   120451   120460   120465 
  120469   120475   120480   120484   120488   120498   120510   120519 
  120530   120537   120537   120533   120525   120511   120501   120488 
  120469   120453   120442   120430   120424   120421   120417   120413 
  120413   120409   120406   120413   120421   120426   120436   120444 
  120447   120447   120440   120429   120420   120415   120411   120409 
  120409   120413   120421   120428   120440   120453   120464   120469 
  120475   120476   120474   120469   120464   120453   120445   120445 
  120451   120451   120451   120449   120440   120422   120405   120393 
  120383   120374   120368   120361   120357   120359   120359   120357 
  120360   120364   120360   120351   120347   120347   120352   120360 
  120370   120380   120390   120399   120403   120405   120411   120417 
  120415   120418   120426   120432   120432   120426   120420   120407 
  120387   120366   120348   120337   120334   120334   120336   120339 
  120341   120344   120343   120336   120336   120336   120329   120330 
  120340   120348   120360   120379   120398   120413   120425   120438 
  120449   120464   120479   120488   120498   120510   120517   120518 
  120519   120517   120509   120495   120483   120472   120455   120434 
  120413   120388   120371   120351   120325   120301   120280   120263 
  120251   120244   120237   120226   120220   120214   120205   120201 
  120206   120217   120235   120256   120274   120294   120317   120337 
  120357   120378   120399   120425   120455   120484   120517   120549 
  120577   120599   120618   120631   120640   120645   120642   120637 
  120630   120619   120607   120594   120573   120556   120546   120536 
  120523   120514   120503   120494   120484   120472   120459   120447 
  120432   120411   120388   120370   120355   120345   120339   120333 
  120329   120325   120316   120305   120301   120299   120297   120295 
  120293   120294   120298   120302   120306   120309   120312   120313 
  120307   120298   120293   120283   120278   120275   120274   120276 
  120280   120276   120266   120252   120239   120226   120216   120206 
  120202   120205   120213   120216   120220   120228   120235   120240 
  120253   120275   120299   120329   120361   120394   120428   120460 
  120488   120510   120526   120536   120545   120549   120552   120556 
  120559   120560   120560   120559   120556   120549   120537   120522 
  120509   120492   120480   120471   120464   120456   120448   120441 
  120434   120430   120429   120429   120430   120430   120433   120436 
  120441   120448   120451   120456   120465   120475   120483   120494 
  120498   120499   120498   120492   120486   120480   120478   120482 
  120484   120482   120483   120484   120479   120468   120453   120434 
  120415   120397   120379   120367   120357   120351   120348   120349 
  120353   120353   120352   120348   120339   120328   120317   120302 
  120291   120285   120279   120282   120289   120294   120301   120306 
  120317   120334   120359   120390   120421   120442   120461   120483 
  120501   120511   120519   120529   120541   120552   120560   120565 
  120571   120575   120579   120582   120582   120582   120575   120564 
  120550   120528   120496   120468   120441   120410   120376   120341 
  120309   120276   120243   120214   120194   120182   120174   120171 
  120174   120174   120170   120167   120170   120174   120177   120178 
  120182   120191   120206   120220   120229   120239   120249   120258 
  120266   120270   120274   120280   120290   120305   120321   120336 
  120348   120359   120368   120370   120370   120372   120375   120380 
  120388   120397   120410   120425   120438   120451   120457   120464 
  120472   120480   120491   120499   120507   120519   120534   120548 
  120560   120565   120571   120572   120565   120556   120546   120536 
  120525   120521   120517   120507   120498   120483   120461   120434 
  120411   120387   120363   120341   120324   120312   120301   120297 
  120298   120305   120312   120324   120336   120345   120356   120368 
  120378   120384   120390   120397   120402   120405   120405   120403 
  120401   120406   120413   120414   120418   120424   120429   120433 
  120434   120438   120449   120456   120464   120475   120484   120490 
  120495   120498   120498   120495   120491   120486   120480   120479 
  120480   120480   120479   120479   120479   120478   120471   120463 
  120455   120447   120438   120428   120418   120414   120413   120413 
  120414   120414   120413   120417   120426   120433   120436   120437 
  120437   120436   120429   120422   120411   120395   120376   120355 
  120329   120305   120282   120260   120244   120232   120221   120212 
  120204   120199   120197   120197   120198   120201   120209   120218 
  120228   120239   120249   120262   120275   120287   120305   120324 
  120341   120357   120372   120384   120398   120409   120421   120424 
  120415   120407   120398   120387   120379   120374   120368   120361 
  120361   120366   120366   120368   120374   120379   120384   120393 
  120397   120402   120413   120425   120438   120452   120467   120482 
  120498   120515   120528   120540   120552   120563   120575   120590 
  120607   120621   120629   120634   120640   120640   120637   120634 
  120629   120619   120609   120602   120598   120592   120584   120576 
  120568   120561   120555   120550   120545   120540   120537   120533 
  120522   120509   120492   120475   120453   120428   120402   120376 
  120353   120336   120324   120313   120302   120294   120291   120287 
  120283   120279   120275   120267   120260   120256   120251   120241 
  120232   120221   120208   120198   120187   120178   120171   120164 
  120160   120158   120154   120154   120154   120152   120148   120144 
  120147   120150   120151   120155   120163   120172   120185   120204 
  120221   120240   120267   120297   120320   120344   120370   120394 
  120420   120449   120476   120503   120530   120550   120568   120584 
  120598   120607   120611   120609   120598   120586   120573   120559 
  120541   120525   120509   120488   120474   120460   120442   120428 
  120414   120394   120374   120364   120360   120351   120345   120348 
  120349   120348   120351   120356   120366   120380   120394   120406 
  120420   120434   120451   120465   120476   120483   120487   120487 
  120486   120487   120487   120487   120490   120490   120484   120476 
  120468   120461   120459   120453   120448   120449   120451   120451 
  120451   120449   120448   120448   120449   120452   120452   120453 
  120453   120451   120445   120437   120433   120433   120428   120422 
  120425   120425   120424   120420   120411   120406   120399   120386 
  120371   120359   120344   120324   120305   120290   120279   120271 
  120267   120263   120264   120272   120283   120294   120295   120298 
  120303   120305   120307   120316   120320   120330   120352   120372 
  120390   120411   120429   120442   120457   120469   120480   120487 
  120494   120503   120513   120521   120529   120536   120536   120533 
  120530   120529   120526   120521   120510   120499   120492   120486 
  120478   120471   120460   120447   120434   120426   120418   120407 
  120394   120379   120366   120359   120352   120341   120333   120330 
  120328   120322   120317   120316   120316   120312   120310   120307 
  120297   120285   120276   120271   120266   120264   120266   120268 
  120276   120285   120293   120301   120305   120303   120303   120307 
  120310   120309   120303   120303   120312   120316   120317   120321 
  120325   120332   120343   120356   120371   120383   120394   120405 
  120417   120429   120440   120451   120464   120476   120487   120492 
  120492   120494   120498   120502   120509   120519   120530   120537 
  120540   120545   120546   120544   120542   120536   120522   120513 
  120501   120487   120480   120472   120464   120455   120444   120432 
  120418   120405   120387   120370   120353   120341   120333   120326 
  120318   120309   120303   120301   120295   120293   120297   120302 
  120309   120317   120324   120330   120336   120341   120352   120361 
  120368   120374   120382   120393   120402   120409   120418   120428 
  120436   120444   120447   120447   120452   120452   120449   120451 
  120451   120451   120448   120441   120440   120442   120442   120442 
  120445   120448   120444   120438   120436   120429   120418   120409 
  120398   120388   120380   120371   120361   120352   120343   120332 
  120321   120310   120298   120291   120291   120291   120294   120297 
  120301   120306   120317   120329   120343   120356   120367   120376 
  120382   120383   120387   120390   120393   120397   120401   120402 
  120401   120402   120403   120402   120407   120415   120420   120424 
  120428   120428   120425   120425   120422   120421   120422   120420 
  120417   120421   120424   120425   120432   120434   120434   120436 
  120436   120437   120434   120426   120417   120407   120399   120394 
  120390   120387   120383   120380   120382   120376   120370   120366 
  120361   120357   120352   120345   120337   120330   120324   120322 
  120325   120328   120330   120340   120349   120361   120376   120391 
  120407   120422   120440   120457   120472   120487   120506   120523 
  120538   120556   120573   120584   120595   120606   120614   120619 
  120623   120626   120623   120619   120611   120598   120588   120577 
  120561   120545   120530   120513   120496   120479   120461   120447 
  120437   120425   120414   120403   120395   120388   120379   120371 
  120364   120355   120345   120340   120333   120329   120333   120336 
  120339   120344   120352   120361   120368   120374   120378   120382 
  120383   120379   120375   120374   120370   120361   120355   120351 
  120345   120336   120328   120324   120317   120307   120302   120297 
  120293   120293   120293   120294   120294   120295   120299   120305 
  120309   120318   120333   120347   120359   120372   120390   120405 
  120421   120442   120461   120478   120495   120502   120507   120517 
  120519   120519   120521   120519   120513   120507   120501   120492 
  120484   120479   120471   120460   120447   120430   120414   120397 
  120380   120364   120349   120339   120325   120312   120299   120287 
  120278   120270   120262   120253   120249   120244   120241   120243 
  120244   120241   120243   120247   120249   120252   120258   120264 
  120272   120279   120285   120291   120299   120303   120303   120305 
  120307   120313   120318   120321   120326   120334   120340   120345 
  120352   120355   120360   120366   120366   120367   120372   120372 
  120370   120368   120372   120378   120379   120382   120387   120393 
  120397   120401   120409   120415   120422   120434   120447   120453 
  120461   120476   120486   120492   120506   120515   120515   120518 
  120526   120530   120530   120529   120522   120511   120503   120495 
  120487   120476   120465   120460   120456   120449   120445   120447 
  120447   120447   120451   120457   120465   120475   120483   120490 
  120496   120503   120509   120515   120526   120537   120548   120560 
  120569   120577   120587   120598   120609   120614   120614   120614 
  120610   120603   120594   120583   120572   120557   120538   120518 
  120496   120471   120442   120413   120386   120360   120330   120305 
  120282   120256   120232   120208   120179   120155   120136   120117 
  120100   120083   120067   120055   120047   120043   120042   120044 
  120047   120052   120058   120070   120085   120096   120112   120132 
  120144   120160   120189   120217   120241   120270   120297   120322 
  120344   120370   120397   120418   120437   120457   120475   120491 
  120507   120521   120536   120546   120556   120568   120577   120584 
  120592   120600   120607   120611   120614   120618   120618   120617 
  120615   120611   120607   120607   120602   120592   120586   120579 
  120569   120560   120550   120541   120534   120532   120528   120526 
  120522   120517   120517   120517   120510   120506   120505   120496 
  120488   120482   120471   120459   120448   120434   120424   120414 
  120403   120393   120386   120380   120372   120363   120353   120348 
  120344   120333   120326   120326   120321   120313   120307   120301 
  120297   120294   120285   120276   120270   120263   120253   120248 
  120248   120245   120243   120247   120249   120248   120252   120255 
  120252   120252   120252   120251   120251   120248   120243   120241 
  120240   120237   120235   120233   120236   120240   120245   120255 
  120267   120278   120294   120312   120332   120352   120368   120390 
  120413   120433   120449   120460   120469   120480   120487   120494 
  120502   120510   120518   120528   120538   120550   120563   120572 
  120577   120584   120588   120591   120594   120596   120600   120609 
  120613   120615   120618   120617   120617   120614   120611   120606 
  120595   120584   120573   120560   120544   120523   120501   120479 
  120457   120433   120409   120386   120367   120351   120332   120313 
  120297   120283   120272   120260   120251   120247   120244   120240 
  120240   120243   120243   120244   120247   120253   120263   120272 
  120285   120295   120302   120313   120326   120336   120343   120355 
  120363   120370   120379   120383   120384   120387   120387   120391 
  120395   120399   120402   120410   120418   120422   120426   120434 
  120437   120436   120438   120442   120447   120449   120449   120453 
  120459   120461   120467   120472   120476   120484   120490   120495 
  120498   120503   120507   120511   120510   120505   120503   120502 
  120498   120495   120495   120496   120501   120503   120503   120506 
  120510   120509   120510   120514   120513   120511   120513   120513 
  120511   120514   120517   120513   120505   120498   120491   120480 
  120465   120445   120425   120403   120383   120366   120345   120325 
  120307   120289   120270   120252   120237   120224   120210   120199 
  120190   120183   120177   120171   120168   120167   120168   120170 
  120168   120168   120171   120174   120181   120187   120191   120198 
  120206   120213   120218   120226   120240   120256   120266   120274 
  120286   120295   120302   120312   120321   120326   120334   120343 
  120347   120352   120359   120366   120374   120383   120393   120398 
  120405   120413   120420   120429   120434   120440   120448   120457 
  120468   120474   120479   120487   120494   120495   120501   120509 
  120510   120510   120513   120515   120514   120510   120503   120498 
  120492   120488   120483   120479   120476   120476   120472   120469 
  120468   120471   120471   120469   120468   120464   120456   120448 
  120441   120432   120422   120417   120409   120399   120393   120382 
  120372   120368   120363   120355   120351   120347   120344   120349 
  120353   120356   120361   120364   120371   120379   120386   120390 
  120394   120399   120407   120411   120414   120417   120417   120417 
  120418   120417   120420   120421   120415   120409   120407   120405 
  120399   120394   120390   120383   120376   120370   120366   120366 
  120361   120359   120359   120363   120366   120366   120367   120370 
  120375   120376   120380   120386   120391   120399   120407   120411 
  120418   120429   120436   120441   120448   120449   120451   120457 
  120459   120461   120467   120467   120463   120464   120464   120460 
  120460   120463   120463   120465   120467   120465   120465   120471 
  120472   120469   120469   120469   120467   120467   120467   120461 
  120459   120460   120456   120451   120447   120445   120438   120430 
  120424   120417   120409   120401   120394   120387   120380   120370 
  120360   120355   120349   120341   120334   120332   120329   120326 
  120322   120318   120316   120314   120313   120310   120310   120310 
  120310   120312   120317   120318   120316   120314   120318   120321 
  120322   120322   120322   120328   120333   120329   120330   120337 
  120336   120334   120336   120336   120339   120345   120352   120357 
  120359   120364   120371   120374   120378   120384   120393   120402 
  120413   120422   120430   120440   120452   120465   120475   120483 
  120495   120507   120515   120525   120534   120541   120550   120557 
  120565   120575   120580   120584   120587   120586   120586   120586 
  120580   120573   120569   120561   120549   120536   120519   120501 
  120482   120463   120437   120413   120393   120370   120348   120328 
  120307   120293   120280   120264   120251   120244   120237   120232 
  120231   120229   120229   120233   120237   120240   120248   120251 
  120255   120264   120275   120282   120291   120302   120312   120321 
  120330   120337   120345   120353   120360   120370   120382   120390 
  120398   120409   120417   120422   120428   120432   120436   120444 
  120449   120447   120447   120447   120444   120441   120441   120438 
  120434   120432   120429   120421   120420   120421   120418   120420 
  120428   120430   120429   120433   120437   120438   120438   120438 
  120441   120444   120448   120452   120455   120460   120464   120471 
  120479   120482   120483   120488   120488   120484   120484   120482 
