Origin Time       2025/06/03 22:18:00
Lat.              41.7
Long.             143.6
Depth. (km)       30
Mag.              5.2
Station Code      KKWH08
Station Lat.      43.0406
Station Long.     142.6562
Station Height(m) 469
Record Time       2025/06/03 22:19:17
Sampling Freq(Hz) 100Hz
Duration Time(s)  120
Dir.              3
Scale Factor      2942(gal)/8224139
Max. Acc. (gal)   0.156
Last Correction   2025/06/03 22:19:17
Memo.             
[...]
 -126663  -126617  -126576  -126550  -126530  -126527  -126554  -126578 
 -126584  -126601  -126630  -126661  -126708  -126744  -126758  -126773 
 -126793  -126805  -126810  -126805  -126786  -126760  -126739  -126736 
 -126750  -126751  -126731  -126704  -126671  -126634  -126611  -126598 
 -126589  -126592  -126596  -126594  -126601  -126604  -126592  -126574 
 -126559  -126553  -126551  -126526  -126499  -126493  -126482  -126473 
 -126490  -126511  -126516  -126535  -126569  -126594  -126617  -126651 
 -126667  -126654  -126651  -126663  -126657  -126670  -126719  -126742 
 -126748  -126770  -126775  -126759  -126751  -126738  -126728  -126746 
 -126751  -126740  -126752  -126758  -126728  -126711  -126713  -126708 
 -126709  -126727  -126735  -126724  -126708  -126702  -126698  -126698 
 -126717  -126731  -126717  -126709  -126712  -126717  -126736  -126750 
 -126739  -126729  -126717  -126693  -126685  -126696  -126686  -126661 
 -126655  -126667  -126674  -126675  -126671  -126652  -126643  -126652 
 -126658  -126651  -126643  -126631  -126607  -126597  -126609  -126605 
 -126576  -126555  -126554  -126551  -126561  -126585  -126596  -126605 
 -126643  -126685  -126715  -126740  -126751  -126743  -126723  -126704 
 -126709  -126723  -126715  -126708  -126708  -126685  -126654  -126654 
 -126669  -126661  -126650  -126643  -126619  -126597  -126604  -126612 
 -126621  -126654  -126677  -126685  -126711  -126736  -126728  -126727 
 -126751  -126752  -126735  -126742  -126750  -126747  -126756  -126763 
 -126769  -126792  -126794  -126774  -126771  -126770  -126743  -126711 
 -126689  -126673  -126667  -126675  -126671  -126644  -126612  -126582 
 -126557  -126544  -126550  -126569  -126574  -126566  -126565  -126570 
 -126577  -126584  -126589  -126600  -126611  -126619  -126628  -126643 
 -126665  -126690  -126712  -126720  -126716  -126692  -126650  -126624 
 -126625  -126634  -126651  -126677  -126698  -126716  -126719  -126716 
 -126728  -126739  -126742  -126758  -126771  -126767  -126758  -126736 
 -126700  -126670  -126654  -126657  -126667  -126669  -126674  -126678 
 -126679  -126696  -126711  -126702  -126690  -126682  -126670  -126655 
 -126655  -126666  -126684  -126701  -126715  -126733  -126760  -126793 
 -126827  -126846  -126846  -126821  -126778  -126735  -126692  -126644 
 -126611  -126580  -126538  -126509  -126508  -126513  -126504  -126501 
 -126530  -126558  -126567  -126577  -126581  -126571  -126555  -126540 
 -126534  -126527  -126517  -126516  -126535  -126573  -126617  -126654 
 -126665  -126652  -126631  -126603  -126584  -126590  -126617  -126640 
 -126643  -126638  -126644  -126651  -126661  -126678  -126671  -126644 
 -126627  -126631  -126644  -126651  -126652  -126651  -126646  -126662 
 -126720  -126786  -126823  -126848  -126877  -126878  -126873  -126897 
 -126908  -126889  -126871  -126841  -126796  -126770  -126758  -126733 
 -126724  -126729  -126712  -126686  -126677  -126670  -126658  -126639 
 -126619  -126607  -126592  -126580  -126589  -126598  -126607  -126631 
 -126652  -126658  -126662  -126646  -126621  -126615  -126601  -126578 
 -126570  -126565  -126565  -126586  -126597  -126596  -126608  -126598 
 -126571  -126571  -126590  -126609  -126625  -126634  -126643  -126651 
 -126650  -126663  -126690  -126704  -126712  -126740  -126767  -126786 
 -126827  -126863  -126862  -126854  -126851  -126832  -126806  -126786 
 -126766  -126748  -126740  -126731  -126727  -126732  -126738  -126743 
 -126762  -126783  -126786  -126765  -126720  -126678  -126654  -126636 
 -126630  -126638  -126644  -126646  -126652  -126638  -126608  -126604 
 -126608  -126598  -126604  -126608  -126578  -126555  -126570  -126603 
 -126642  -126674  -126679  -126659  -126646  -126642  -126627  -126616 
 -126619  -126601  -126566  -126553  -126555  -126555  -126577  -126624 
 -126659  -126669  -126682  -126706  -126728  -126735  -126727  -126735 
 -126754  -126748  -126746  -126778  -126809  -126828  -126852  -126856 
 -126844  -126839  -126817  -126783  -126767  -126755  -126736  -126709 
 -126665  -126627  -126604  -126584  -126590  -126621  -126636  -126639 
 -126632  -126612  -126592  -126576  -126554  -126540  -126528  -126517 
 -126540  -126588  -126615  -126631  -126652  -126651  -126627  -126605 
 -126585  -126573  -126585  -126619  -126657  -126678  -126690  -126712 
 -126728  -126742  -126754  -126752  -126750  -126744  -126719  -126694 
 -126689  -126663  -126624  -126613  -126617  -126615  -126617  -126630 
 -126634  -126628  -126631  -126648  -126678  -126719  -126752  -126769 
 -126773  -126771  -126755  -126738  -126723  -126684  -126628  -126584 
 -126542  -126501  -126496  -126526  -126570  -126636  -126701  -126740 
 -126765  -126773  -126748  -126715  -126686  -126654  -126621  -126608 
 -126605  -126605  -126620  -126650  -126686  -126733  -126770  -126790 
 -126806  -126817  -126839  -126877  -126893  -126873  -126856  -126841 
 -126800  -126755  -126727  -126694  -126659  -126650  -126657  -126655 
 -126650  -126651  -126655  -126659  -126658  -126647  -126638  -126636 
 -126648  -126671  -126688  -126690  -126690  -126686  -126674  -126666 
 -126654  -126634  -126623  -126620  -126621  -126648  -126694  -126724 
 -126738  -126740  -126717  -126688  -126673  -126644  -126590  -126553 
 -126531  -126496  -126477  -126490  -126508  -126524  -126535  -126531 
 -126530  -126520  -126480  -126442  -126412  -126378  -126377  -126408 
 -126441  -126481  -126530  -126574  -126623  -126665  -126686  -126711 
 -126738  -126748  -126756  -126771  -126777  -126775  -126777  -126777 
 -126797  -126825  -126825  -126804  -126785  -126766  -126742  -126713 
 -126686  -126666  -126643  -126642  -126662  -126662  -126646  -126647 
 -126658  -126657  -126651  -126663  -126682  -126684  -126688  -126702 
 -126696  -126690  -126719  -126744  -126736  -126735  -126762  -126775 
 -126773  -126792  -126821  -126836  -126840  -126846  -126851  -126858 
 -126870  -126887  -126893  -126878  -126859  -126839  -126814  -126802 
 -126806  -126789  -126742  -126694  -126658  -126639  -126635  -126634 
 -126623  -126598  -126574  -126555  -126522  -126484  -126482  -126492 
 -126472  -126468  -126485  -126481  -126472  -126481  -126489  -126500 
 -126522  -126531  -126539  -126558  -126562  -126559  -126577  -126605 
 -126625  -126642  -126661  -126682  -126689  -126678  -126685  -126717 
 -126731  -126746  -126797  -126831  -126829  -126850  -126879  -126875 
 -126868  -126868  -126841  -126792  -126746  -126702  -126662  -126630 
 -126609  -126593  -126582  -126581  -126570  -126550  -126538  -126546 
 -126561  -126554  -126515  -126472  -126443  -126423  -126428  -126470 
 -126526  -126580  -126630  -126663  -126698  -126739  -126762  -126783 
 -126816  -126821  -126797  -126778  -126765  -126750  -126750  -126775 
 -126801  -126814  -126825  -126843  -126860  -126882  -126910  -126925 
 -126922  -126918  -126908  -126886  -126866  -126848  -126831  -126819 
 -126792  -126752  -126725  -126697  -126675  -126681  -126681  -126670 
 -126661  -126621  -126569  -126557  -126557  -126515  -126466  -126438 
 -126395  -126347  -126338  -126349  -126362  -126401  -126454  -126484 
 -126513  -126569  -126605  -126598  -126581  -126557  -126522  -126504 
 -126511  -126523  -126535  -126544  -126549  -126565  -126594  -126612 
 -126627  -126655  -126674  -126673  -126670  -126665  -126661  -126677 
 -126711  -126729  -126723  -126719  -126708  -126681  -126673  -126694 
 -126712  -126735  -126782  -126832  -126878  -126921  -126952  -126968 
 -126986  -126995  -126979  -126940  -126891  -126832  -126742  -126640 
 -126569  -126511  -126465  -126465  -126481  -126485  -126499  -126524 
 -126546  -126569  -126601  -126638  -126650  -126644  -126648  -126657 
 -126663  -126698  -126747  -126779  -126817  -126848  -126846  -126844 
 -126847  -126823  -126796  -126783  -126752  -126709  -126682  -126665 
 -126644  -126627  -126617  -126601  -126566  -126534  -126522  -126512 
 -126517  -126553  -126576  -126576  -126593  -126619  -126627  -126639 
 -126665  -126679  -126686  -126692  -126689  -126697  -126716  -126728 
 -126733  -126740  -126736  -126729  -126738  -126746  -126748  -126760 
 -126769  -126775  -126794  -126816  -126833  -126851  -126854  -126837 
 -126821  -126797  -126744  -126686  -126638  -126585  -126530  -126480 
 -126431  -126374  -126316  -126277  -126270  -126291  -126323  -126365 
 -126414  -126455  -126486  -126511  -126530  -126555  -126592  -126631 
 -126679  -126721  -126751  -126792  -126846  -126891  -126922  -126939 
 -126933  -126905  -126858  -126810  -126778  -126748  -126723  -126708 
 -126698  -126702  -126728  -126746  -126744  -126752  -126755  -126733 
 -126717  -126719  -126711  -126693  -126671  -126643  -126638  -126658 
 -126658  -126648  -126663  -126679  -126692  -126716  -126736  -126742 
 -126732  -126711  -126697  -126713  -126738  -126750  -126756  -126762 
 -126748  -126724  -126723  -126731  -126720  -126706  -126686  -126640 
 -126594  -126569  -126549  -126538  -126539  -126562  -126601  -126635 
 -126661  -126679  -126690  -126700  -126696  -126686  -126677  -126643 
 -126592  -126549  -126513  -126488  -126466  -126447  -126438  -126430 
 -126424  -126430  -126438  -126441  -126442  -126445  -126458  -126485 
 -126524  -126558  -126570  -126570  -126567  -126580  -126611  -126628 
 -126643  -126675  -126701  -126711  -126735  -126775  -126793  -126793 
 -126808  -126808  -126798  -126816  -126841  -126851  -126856  -126864 
 -126871  -126883  -126906  -126941  -126975  -126986  -126967  -126944 
 -126943  -126937  -126909  -126889  -126879  -126851  -126819  -126809 
 -126800  -126777  -126755  -126720  -126666  -126639  -126627  -126593 
 -126563  -126546  -126520  -126499  -126508  -126535  -126562  -126578 
 -126578  -126570  -126555  -126530  -126526  -126540  -126539  -126536 
 -126550  -126559  -126569  -126590  -126611  -126627  -126642  -126662 
 -126689  -126711  -126728  -126748  -126758  -126751  -126759  -126778 
 -126778  -126770  -126762  -126742  -126724  -126728  -126729  -126717 
 -126701  -126663  -126624  -126615  -126605  -126590  -126600  -126605 
 -126584  -126578  -126585  -126574  -126563  -126555  -126528  -126501 
 -126509  -126535  -126554  -126581  -126619  -126648  -126681  -126727 
 -126765  -126781  -126794  -126817  -126837  -126844  -126839  -126832 
 -126820  -126790  -126755  -126725  -126678  -126611  -126557  -126517 
 -126474  -126428  -126377  -126312  -126265  -126253  -126254  -126272 
 -126306  -126326  -126333  -126353  -126377  -126392  -126408  -126434 
 -126458  -126473  -126495  -126532  -126571  -126609  -126658  -126706 
 -126747  -126773  -126793  -126832  -126881  -126917  -126943  -126959 
 -126959  -126958  -126971  -126987  -126998  -127003  -126987  -126963 
 -126966  -126979  -126978  -126993  -127026  -127040  -127041  -127047 
 -127037  -127020  -127009  -126987  -126948  -126902  -126855  -126821 
 -126801  -126778  -126760  -126756  -126751  -126748  -126756  -126755 
 -126735  -126725  -126719  -126689  -126636  -126577  -126516  -126459 
 -126411  -126373  -126351  -126353  -126361  -126361  -126370  -126391 
 -126416  -126441  -126453  -126458  -126466  -126463  -126463  -126484 
 -126507  -126530  -126574  -126632  -126674  -126708  -126751  -126797 
 -126831  -126855  -126860  -126844  -126816  -126782  -126751  -126720 
 -126681  -126648  -126635  -126616  -126588  -126588  -126611  -126611 
 -126612  -126643  -126677  -126693  -126716  -126746  -126766  -126773 
 -126785  -126813  -126827  -126821  -126828  -126843  -126846  -126841 
 -126843  -126844  -126836  -126827  -126821  -126813  -126790  -126762 
 -126732  -126694  -126659  -126628  -126597  -126574  -126566  -126562 
 -126557  -126551  -126543  -126530  -126522  -126523  -126505  -126478 
 -126461  -126441  -126419  -126427  -126449  -126462  -126490  -126534 
 -126569  -126611  -126655  -126681  -126698  -126715  -126723  -126721 
 -126713  -126711  -126700  -126667  -126635  -126611  -126578  -126550 
 -126527  -126501  -126486  -126474  -126450  -126438  -126441  -126434 
 -126431  -126445  -126465  -126489  -126523  -126567  -126625  -126686 
 -126740  -126794  -126839  -126867  -126902  -126963  -127003  -127013 
 -127029  -127037  -127009  -126962  -126928  -126904  -126860  -126804 
 -126758  -126701  -126642  -126627  -126647  -126651  -126644  -126644 
 -126644  -126638  -126635  -126644  -126659  -126661  -126661  -126662 
 -126654  -126657  -126684  -126716  -126746  -126783  -126821  -126837 
 -126836  -126836  -126847  -126864  -126886  -126895  -126883  -126871 
 -126859  -126829  -126785  -126735  -126678  -126616  -126562  -126531 
 -126508  -126482  -126469  -126463  -126453  -126449  -126463  -126484 
 -126496  -126500  -126505  -126516  -126538  -126567  -126604  -126640 
 -126666  -126673  -126669  -126670  -126681  -126692  -126690  -126686 
 -126685  -126674  -126655  -126652  -126663  -126671  -126677  -126679 
 -126678  -126678  -126681  -126677  -126661  -126639  -126615  -126596 
 -126577  -126562  -126563  -126561  -126549  -126554  -126565  -126558 
 -126546  -126543  -126546  -126553  -126569  -126586  -126592  -126586 
 -126584  -126580  -126565  -126543  -126519  -126488  -126472  -126468 
 -126454  -126446  -126453  -126454  -126454  -126455  -126453  -126457 
 -126474  -126501  -126540  -126592  -126636  -126689  -126754  -126812 
 -126864  -126916  -126967  -127012  -127049  -127083  -127098  -127097 
 -127105  -127107  -127093  -127084  -127084  -127070  -127059  -127062 
 -127049  -127028  -127021  -127008  -126978  -126951  -126916  -126864 
 -126810  -126766  -126740  -126732  -126716  -126692  -126684  -126682 
 -126674  -126675  -126684  -126688  -126686  -126689  -126689  -126688 
 -126689  -126692  -126700  -126701  -126693  -126697  -126711  -126724 
 -126733  -126735  -126731  -126724  -126712  -126702  -126701  -126697 
 -126682  -126663  -126650  -126643  -126624  -126582  -126544  -126511 
 -126462  -126419  -126391  -126364  -126335  -126310  -126284  -126257 
 -126241  -126239  -126246  -126256  -126279  -126314  -126349  -126384 
 -126426  -126466  -126496  -126522  -126551  -126581  -126603  -126620 
 -126643  -126667  -126689  -126715  -126743  -126771  -126793  -126813 
 -126832  -126855  -126883  -126906  -126927  -126947  -126945  -126939 
 -126949  -126955  -126943  -126927  -126902  -126868  -126840  -126816 
 -126797  -126783  -126758  -126719  -126685  -126673  -126673  -126669 
 -126665  -126661  -126646  -126628  -126625  -126628  -126634  -126644 
 -126655  -126662  -126657  -126628  -126588  -126559  -126540  -126516 
 -126497  -126477  -126451  -126445  -126454  -126457  -126454  -126458 
 -126462  -126458  -126458  -126472  -126489  -126504  -126515  -126524 
 -126532  -126542  -126550  -126555  -126558  -126569  -126582  -126586 
 -126597  -126623  -126646  -126666  -126688  -126698  -126697  -126705 
 -126716  -126720  -126743  -126782  -126806  -126823  -126841  -126848 
 -126840  -126831  -126824  -126805  -126769  -126736  -126716  -126698 
 -126675  -126663  -126661  -126636  -126603  -126592  -126594  -126600 
 -126613  -126631  -126636  -126634  -126638  -126658  -126684  -126702 
 -126720  -126731  -126732  -126733  -126735  -126746  -126766  -126778 
 -126789  -126798  -126796  -126794  -126800  -126797  -126794  -126800 
 -126794  -126778  -126765  -126754  -126746  -126739  -126721  -126700 
 -126686  -126675  -126661  -126644  -126630  -126612  -126603  -126608 
 -126623  -126639  -126654  -126675  -126711  -126747  -126781  -126819 
 -126862  -126891  -126904  -126916  -126928  -126928  -126922  -126935 
 -126945  -126936  -126922  -126909  -126887  -126864  -126832  -126789 
 -126756  -126738  -126725  -126712  -126689  -126659  -126638  -126624 
 -126615  -126615  -126613  -126597  -126578  -126559  -126539  -126520 
 -126513  -126522  -126530  -126528  -126523  -126505  -126482  -126469 
 -126462  -126449  -126428  -126408  -126389  -126378  -126385  -126409 
 -126441  -126472  -126507  -126553  -126597  -126630  -126669  -126716 
 -126746  -126758  -126779  -126796  -126793  -126796  -126820  -126841 
 -126840  -126836  -126847  -126851  -126835  -126810  -126778  -126736 
 -126697  -126667  -126634  -126596  -126567  -126559  -126557  -126554 
 -126562  -126582  -126605  -126631  -126665  -126696  -126709  -126709 
 -126698  -126690  -126679  -126654  -126621  -126594  -126563  -126536 
 -126526  -126531  -126544  -126569  -126600  -126623  -126631  -126639 
 -126651  -126658  -126670  -126692  -126686  -126661  -126646  -126627 
 -126597  -126580  -126576  -126576  -126571  -126563  -126558  -126557 
 -126558  -126571  -126590  -126608  -126632  -126659  -126678  -126692 
 -126713  -126731  -126744  -126758  -126767  -126773  -126777  -126783 
 -126805  -126824  -126819  -126814  -126823  -126827  -126824  -126819 
 -126805  -126796  -126793  -126787  -126790  -126798  -126796  -126782 
 -126773  -126765  -126755  -126747  -126739  -126728  -126717  -126711 
 -126705  -126697  -126689  -126674  -126647  -126625  -126609  -126585 
 -126569  -126567  -126559  -126553  -126555  -126566  -126590  -126617 
 -126628  -126634  -126644  -126655  -126663  -126674  -126675  -126663 
 -126647  -126630  -126609  -126589  -126582  -126584  -126584  -126590 
 -126611  -126631  -126651  -126675  -126698  -126723  -126736  -126739 
 -126744  -126747  -126736  -126724  -126723  -126716  -126704  -126705 
 -126715  -126723  -126733  -126740  -126742  -126744  -126746  -126740 
 -126735  -126732  -126728  -126713  -126697  -126694  -126690  -126681 
 -126682  -126688  -126681  -126674  -126669  -126670  -126675  -126674 
 -126669  -126661  -126650  -126646  -126650  -126647  -126640  -126640 
 -126638  -126628  -126621  -126611  -126593  -126567  -126540  -126524 
 -126512  -126499  -126489  -126485  -126484  -126486  -126503  -126530 
 -126549  -126557  -126565  -126573  -126578  -126597  -126620  -126628 
 -126635  -126648  -126658  -126675  -126701  -126727  -126760  -126790 
 -126810  -126829  -126844  -126848  -126851  -126846  -126829  -126809 
 -126779  -126742  -126711  -126684  -126659  -126648  -126640  -126628 
 -126612  -126594  -126576  -126558  -126554  -126557  -126554  -126551 
 -126561  -126567  -126569  -126573  -126582  -126603  -126623  -126634 
 -126643  -126655  -126671  -126696  -126725  -126755  -126777  -126797 
 -126814  -126817  -126814  -126821  -126825  -126821  -126809  -126797 
 -126793  -126787  -126773  -126762  -126762  -126758  -126752  -126760 
 -126765  -126763  -126770  -126770  -126762  -126752  -126740  -126725 
 -126709  -126690  -126678  -126669  -126665  -126667  -126659  -126639 
 -126620  -126605  -126596  -126596  -126594  -126588  -126582  -126571 
 -126555  -126554  -126563  -126571  -126585  -126594  -126584  -126563 
 -126558  -126562  -126562  -126565  -126573  -126576  -126573  -126578 
 -126594  -126609  -126624  -126644  -126665  -126679  -126688  -126689 
 -126696  -126711  -126716  -126713  -126719  -126735  -126747  -126747 
 -126747  -126748  -126746  -126748  -126750  -126746  -126750  -126762 
 -126775  -126789  -126804  -126816  -126820  -126814  -126816  -126820 
 -126817  -126813  -126809  -126802  -126794  -126785  -126773  -126756 
 -126748  -126744  -126728  -126709  -126689  -126658  -126630  -126619 
