Origin Time       2025/06/03 22:18:00
Lat.              41.7
Long.             143.6
Depth. (km)       30
Mag.              5.2
Station Code      KKWH14
Station Lat.      43.3841
Station Long.     142.5245
Station Height(m) 389
Record Time       2025/06/03 22:19:33
Sampling Freq(Hz) 100Hz
Duration Time(s)  120
Dir.              5
Scale Factor      7845(gal)/8223790
Max. Acc. (gal)   0.394
Last Correction   2025/06/03 22:19:34
Memo.             
   37116    37106    37096    37089    37080    37069    37053    37031 
   37014    37007    37017    37046    37085    37129    37172    37208 
   37228    37224    37196    37164    37141    37134    37149    37174 
   37188    37191    37181    37166    37153    37147    37152    37161 
   37169    37166    37153    37145    37154    37173    37185    37180 
   37153    37116    37088    37079    37085    37098    37099    37088 
   37073    37064    37058    37061    37075    37099    37125    37147 
   37157    37150    37137    37126    37119    37115    37116    37116 
   37107    37091    37071    37057    37054    37062    37077    37087 
   37092    37095    37099    37108    37120    37122    37119    37126 
   37143    37165    37181    37184    37170    37141    37107    37087 
   37081    37091    37110    37120    37114    37100    37095    37104 
   37127    37150    37152    37129    37093    37057    37044    37066 
   37112    37166    37212    37228    37214    37187    37164    37160 
   37174    37197    37208    37189    37139    37073    37019    37003 
   37026    37071    37110    37116    37099    37077    37064    37071 
   37104    37150    37189    37203    37179    37134    37091    37061 
   37054    37062    37072    37077    37084    37099    37127    37164 
   37193    37200    37180    37134    37076    37030    37006    37011 
   37041    37073    37099    37115    37126    37139    37158    37181 
   37200    37207    37196    37168    37134    37106    37092    37096 
   37114    37125    37116    37091    37057    37034    37037    37065 
   37106    37141    37152    37138    37119    37114    37123    37143 
   37160    37160    37139    37108    37076    37053    37052    37065 
   37083    37093    37103    37116    37138    37160    37181    37195 
   37193    37176    37153    37130    37108    37088    37071    37056 
   37049    37054    37075    37102    37126    37154    37183    37206 
   37223    37220    37195    37161    37133    37114    37110    37116 
   37127    37142    37158    37174    37193    37207    37206    37188 
   37154    37103    37048    37003    36979    36977    37002    37049 
   37103    37149    37172    37173    37166    37162    37168    37174 
   37174    37162    37139    37111    37085    37076    37092    37116 
   37139    37156    37156    37142    37125    37111    37106    37108 
   37111    37106    37099    37104    37126    37154    37184    37201 
   37197    37174    37138    37103    37080    37062    37046    37035 
   37022    37003    36992    36995    37002    37017    37045    37076 
   37100    37114    37118    37112    37103    37102    37115    37139 
   37158    37165    37157    37142    37137    37154    37188    37226 
   37264    37291    37304    37311    37307    37285    37251    37208 
   37162    37116    37079    37057    37057    37081    37118    37149 
   37161    37141    37087    37023    36985    36995    37057    37146 
   37223    37262    37258    37218    37157    37106    37080    37079 
   37091    37114    37139    37153    37153    37142    37110    37060 
   37012    36983    36979    37003    37046    37084    37103    37102 
   37095    37100    37125    37170    37228    37282    37316    37319 
   37287    37233    37169    37115    37084    37081    37095    37112 
   37123    37122    37106    37069    37015    36957    36913    36892 
   36909    36956    37006    37038    37037    37015    37000    37003 
   37030    37073    37111    37139    37160    37173    37189    37210 
   37231    37245    37243    37226    37193    37137    37068    37012 
   36987    36994    37026    37073    37123    37170    37215    37257 
   37288    37295    37258    37179    37083    36996    36942    36934 
   36960    37014    37080    37139    37195    37243    37253    37211 
   37123    37011    36917    36891    36958    37095    37239    37328 
   37330    37262    37166    37092    37072    37099    37156    37218 
   37257    37265    37247    37214    37174    37139    37119    37134 
   37187    37270    37369    37446    37469    37427    37330    37200 
   37068    36956    36882    36867    36919    37010    37103    37169 
   37179    37125    37033    36944    36891    36899    36964    37060 
   37150    37216    37251    37255    37238    37211    37164    37083 
   36980    36879    36810    36809    36887    37025    37168    37264 
   37281    37226    37137    37061    37039    37071    37133    37191 
   37216    37206    37172    37130    37095    37075    37069    37084 
   37118    37152    37181    37204    37206    37181    37131    37049 
   36946    36852    36801    36823    36931    37103    37288    37428 
   37489    37474    37409    37328    37261    37218    37195    37185 
   37181    37173    37161    37153    37147    37127    37081    37012 
   36936    36871    36845    36876    36960    37073    37170    37197 
   37141    37030    36927    36892    36952    37083    37228    37334 
   37366    37336    37284    37250    37241    37230    37192    37120 
   37034    36968    36961    37030    37150    37265    37336    37347 
   37301    37211    37106    37017    36948    36899    36869    36848 
   36825    36813    36833    36892    36992    37126    37250    37330 
   37359    37350    37323    37303    37297    37289    37251    37170 
   37057    36942    36872    36876    36950    37068    37180    37254 
   37280    37277    37274    37288    37305    37304    37258    37158 
   37035    36946    36922    36963    37037    37103    37125    37099 
   37061    37048    37075    37142    37219    37268    37272    37230 
   37149    37050    36960    36892    36859    36863    36903    36973 
   37060    37149    37219    37261    37273    37261    37235    37216 
   37210    37215    37227    37238    37226    37180    37107    37029 
   36960    36919    36918    36949    36995    37050    37118    37189 
   37249    37287    37295    37273    37243    37228    37230    37242 
   37239    37214    37170    37129    37115    37141    37187    37216 
   37193    37119    37027    36958    36938    36965    37008    37035 
   37023    36969    36898    36840    36817    36841    36906    36980 
   37039    37083    37115    37147    37196    37257    37299    37307 
   37284    37241    37197    37169    37158    37164    37179    37200 
   37226    37254    37276    37274    37255    37233    37206    37172 
   37142    37114    37079    37042    37021    37025    37049    37076 
   37091    37093    37098    37111    37135    37173    37203    37197 
   37146    37062    36979    36933    36949    37018    37108    37183 
   37215    37197    37154    37116    37102    37112    37143    37173 
   37185    37181    37174    37180    37199    37218    37219    37183 
   37102    37000    36910    36865    36887    36967    37077    37181 
   37241    37243    37197    37126    37069    37058    37088    37134 
   37168    37170    37152    37127    37115    37111    37104    37095 
   37083    37076    37084    37114    37169    37230    37272    37285 
   37274    37242    37204    37173    37158    37147    37114    37046 
   36949    36842    36763    36745    36809    36941    37102    37247 
   37351    37388    37357    37280    37176    37073    36994    36953 
   36967    37030    37131    37255    37381    37481    37534    37520 
   37447    37336    37215    37122    37073    37045    37011    36952 
   36871    36802    36787    36833    36910    36979    37002    36977 
   36934    36913    36948    37033    37131    37206    37234    37208 
   37149    37100    37092    37126    37183    37219    37208    37153 
   37069    36992    36956    36968    37014    37054    37069    37064 
   37064    37099    37179    37287    37377    37408    37376    37309 
   37243    37203    37199    37212    37223    37223    37212    37206 
   37216    37234    37237    37207    37149    37076    37011    36972 
   36964    36976    36985    36984    36973    36958    36953    36969 
   37011    37073    37146    37212    37260    37277    37260    37220 
   37181    37154    37146    37161    37193    37231    37260    37272 
   37268    37245    37204    37172    37158    37164    37183    37189 
   37160    37093    37007    36923    36871    36872    36921    36996 
   37084    37166    37230    37266    37274    37245    37188    37127 
   37075    37044    37042    37064    37092    37122    37149    37173 
   37203    37226    37223    37187    37127    37056    36998    36981 
   37006    37048    37081    37092    37081    37060    37046    37056 
   37083    37111    37123    37108    37081    37068    37073    37088 
   37103    37095    37054    36994    36941    36927    36949    36983 
   37011    37017    37000    36995    37015    37068    37147    37230 
   37282    37303    37304    37292    37276    37262    37243    37219 
   37188    37158    37145    37150    37157    37160    37156    37137 
   37112    37107    37127    37173    37237    37295    37324    37322 
   37300    37281    37278    37295    37309    37301    37258    37188 
   37119    37071    37050    37048    37053    37065    37084    37111 
   37147    37169    37157    37112    37046    36973    36923    36915 
   36942    36985    37023    37046    37060    37062    37056    37035 
   37002    36957    36915    36898    36919    36968    37025    37065 
   37085    37095    37110    37131    37156    37162    37142    37112 
   37096    37115    37173    37241    37287    37301    37289    37270 
   37268    37284    37303    37297    37257    37191    37118    37061 
   37035    37035    37038    37030    37007    36968    36934    36931 
   36957    36992    37021    37044    37061    37073    37077    37075 
   37065    37035    36994    36967    36968    36996    37050    37102 
   37137    37165    37196    37235    37284    37334    37377    37409 
   37426    37417    37388    37339    37273    37199    37133    37093 
   37081    37085    37095    37103    37104    37096    37091    37087 
   37087    37096    37115    37135    37157    37179    37189    37192 
   37189    37189    37191    37185    37169    37139    37096    37052 
   37021    37015    37038    37075    37112    37150    37183    37201 
   37218    37233    37227    37199    37156    37100    37045    37006 
   36994    37004    37022    37041    37058    37075    37099    37134 
   37168    37185    37183    37154    37107    37066    37046    37045 
   37056    37060    37042    37014    36987    36975    36980    36998 
   37029    37065    37102    37142    37172    37179    37168    37133 
   37079    37033    37011    37017    37041    37071    37104    37141 
   37177    37210    37231    37239    37238    37219    37191    37164 
   37138    37106    37061    37002    36948    36917    36925    36977 
   37064    37152    37216    37237    37214    37172    37130    37099 
   37073    37056    37048    37054    37083    37130    37181    37220 
   37234    37212    37177    37156    37158    37185    37216    37233 
   37230    37214    37196    37188    37197    37212    37218    37211 
   37204    37204    37210    37220    37227    37220    37193    37150 
   37114    37098    37107    37145    37191    37220    37220    37192 
   37145    37100    37080    37087    37108    37125    37127    37110 
   37081    37057    37039    37029    37019    37015    37023    37031 
   37042    37048    37038    37017    36990    36965    36950    36950 
   36968    37002    37042    37084    37123    37158    37185    37204 
   37215    37218    37214    37210    37210    37211    37206    37196 
   37191    37191    37203    37231    37261    37284    37292    37280 
   37245    37199    37157    37122    37098    37084    37080    37079 
   37079    37087    37102    37118    37125    37120    37095    37049 
   37003    36969    36961    36985    37031    37081    37125    37157 
   37176    37191    37208    37227    37246    37258    37254    37241 
   37220    37189    37150    37116    37091    37080    37087    37110 
   37145    37180    37189    37164    37116    37057    36999    36963 
   36957    36967    36973    36968    36945    36914    36895    36887 
   36887    36891    36894    36894    36904    36934    36984    37045 
   37098    37126    37133    37127    37123    37133    37160    37195 
   37230    37257    37270    37276    37278    37278    37268    37241 
   37201    37153    37103    37058    37023    37002    36994    36996 
   37011    37035    37065    37100    37138    37170    37188    37189 
   37181    37170    37174    37199    37226    37246    37260    37261 
   37245    37218    37181    37137    37091    37044    36991    36941 
   36910    36900    36915    36958    37023    37093    37161    37220 
   37268    37303    37323    37327    37309    37277    37242    37218 
   37218    37231    37238    37235    37222    37204    37193    37199 
   37207    37212    37206    37184    37153    37120    37091    37060 
   37025    36995    36976    36977    37008    37062    37123    37174 
   37210    37223    37215    37196    37169    37131    37091    37057 
   37034    37031    37052    37081    37111    37133    37137    37133 
   37127    37120    37116    37114    37115    37120    37122    37114 
   37088    37042    36976    36903    36845    36823    36844    36899 
   36972    37048    37116    37173    37211    37226    37220    37203 
   37181    37161    37153    37157    37165    37174    37185    37187 
   37173    37152    37127    37104    37095    37107    37135    37169 
   37199    37220    37231    37239    37251    37264    37269    37269 
   37255    37230    37199    37168    37147    37141    37139    37142 
   37145    37141    37133    37120    37104    37093    37092    37095 
   37098    37102    37103    37095    37084    37080    37085    37111 
   37162    37220    37268    37295    37292    37266    37234    37203 
   37176    37152    37129    37112    37106    37107    37115    37119 
   37115    37102    37080    37050    37017    36979    36940    36902 
   36869    36845    36833    36837    36860    36907    36977    37058 
   37129    37180    37208    37207    37179    37137    37080    37025 
   36981    36954    36948    36960    36984    37018    37053    37087 
   37112    37126    37129    37119    37102    37087    37084    37092 
   37111    37138    37161    37168    37149    37106    37044    36973 
   36913    36883    36884    36910    36950    36985    37004    37014 
   37023    37039    37068    37103    37139    37169    37192    37210 
   37228    37258    37301    37351    37397    37428    37440    37446 
   37455    37470    37488    37498    37489    37466    37439    37417 
   37413    37423    37431    37424    37393    37342    37282    37230 
   37203    37204    37216    37234    37243    37231    37201    37162 
   37112    37045    36973    36914    36867    36840    36837    36849 
   36860    36856    36836    36807    36790    36790    36815    36860 
   36904    36938    36967    36984    36999    37023    37048    37072 
   37099    37123    37138    37149    37160    37165    37162    37152 
   37130    37102    37080    37068    37068    37095    37141    37189 
   37233    37260    37262    37243    37210    37172    37141    37111 
   37087    37069    37061    37068    37084    37104    37122    37127 
   37119    37104    37084    37068    37064    37062    37064    37071 
   37069    37064    37071    37085    37100    37107    37106    37093 
   37077    37062    37053    37054    37069    37096    37125    37146 
   37157    37157    37150    37146    37153    37174    37203    37230 
   37243    37246    37250    37261    37281    37312    37342    37361 
   37362    37343    37316    37287    37249    37206    37149    37075 
   36996    36921    36860    36822    36806    36814    36840    36871 
   36900    36921    36933    36936    36945    36964    36985    37010 
   37039    37072    37112    37168    37231    37291    37334    37353 
   37353    37347    37345    37347    37354    37342    37300    37239 
   37166    37096    37042    37006    36985    36984    37000    37030 
   37066    37104    37131    37149    37157    37157    37154    37147 
   37133    37114    37089    37056    37018    36988    36977    36987 
   37015    37048    37077    37106    37131    37158    37193    37218 
   37216    37196    37161    37123    37107    37119    37146    37176 
   37193    37188    37174    37166    37165    37172    37187    37201 
   37212    37216    37218    37211    37200    37191    37187    37188 
   37197    37214    37224    37227    37218    37195    37166    37137 
   37111    37098    37093    37098    37110    37122    37138    37156 
   37161    37153    37134    37104    37073    37049    37033    37012 
   36987    36965    36948    36933    36925    36927    36941    36961 
   36988    37018    37048    37073    37091    37091    37081    37079 
   37076    37076    37083    37089    37096    37100    37104    37114 
   37129    37141    37152    37158    37154    37139    37120    37098 
   37073    37054    37045    37038    37031    37029    37030    37033 
   37039    37058    37088    37123    37161    37195    37219    37237 
   37249    37261    37277    37296    37309    37304    37287    37260 
   37226    37196    37183    37174    37166    37156    37145    37143 
   37160    37189    37219    37234    37224    37196    37164    37138 
   37129    37141    37160    37173    37177    37165    37153    37153 
   37161    37174    37187    37185    37172    37149    37125    37108 
   37107    37111    37111    37103    37087    37062    37035    37019 
   37017    37019    37023    37029    37035    37041    37045    37049 
   37048    37041    37026    37011    37008    37012    37029    37066 
   37112    37153    37188    37204    37199    37184    37158    37126 
   37103    37087    37077    37075    37080    37092    37108    37130 
   37156    37181    37193    37189    37177    37164    37150    37145 
   37141    37133    37116    37091    37069    37054    37041    37034 
   37034    37029    37021    37019    37023    37031    37044    37058 
   37077    37098    37118    37138    37154    37164    37166    37165 
   37164    37169    37179    37185    37189    37195    37204    37216 
   37227    37233    37222    37196    37166    37141    37127    37125 
   37125    37120    37106    37084    37061    37042    37034    37037 
   37050    37068    37084    37102    37118    37126    37130    37127 
   37110    37087    37066    37045    37022    37002    36983    36965 
   36953    36953    36960    36976    37007    37048    37093    37139 
   37179    37201    37207    37203    37196    37183    37165    37143 
   37122    37108    37099    37092    37095    37099    37091    37080 
   37072    37076    37098    37130    37160    37184    37199    37204 
   37206    37206    37203    37197    37188    37174    37160    37147 
   37145    37160    37187    37215    37238    37247    37246    37239 
   37233    37230    37228    37216    37187    37147    37104    37071 
   37056    37062    37076    37093    37112    37129    37147    37170 
   37200    37231    37250    37250    37231    37197    37157    37122 
