Origin Time       2025/06/03 22:18:00
Lat.              41.7
Long.             143.6
Depth. (km)       30
Mag.              5.2
Station Code      KKWH08
Station Lat.      43.0406
Station Long.     142.6562
Station Height(m) 569
Record Time       2025/06/03 22:19:17
Sampling Freq(Hz) 100Hz
Duration Time(s)  120
Dir.              4
Scale Factor      7845(gal)/8223790
Max. Acc. (gal)   1.498
Last Correction   2025/06/03 22:19:17
Memo.             
[...]
    4708     4654     4610     4564     4518     4484     4476     4484 
    4496     4513     4525     4513     4483     4446     4401     4342 
    4278     4218     4178     4148     4141     4170     4213     4263 
    4329     4409     4496     4591     4672     4725     4754     4764 
    4754     4737     4720     4702     4677     4653     4631     4607 
    4591     4580     4558     4530     4502     4464     4418     4367 
    4311     4259     4222     4201     4194     4201     4201     4179 
    4158     4158     4185     4248     4352     4490     4635     4758 
    4839     4872     4864     4827     4772     4716     4685     4676 
    4677     4679     4666     4637     4600     4560     4510     4459 
    4419     4395     4380     4378     4382     4383     4376     4351 
    4301     4241     4183     4135     4110     4113     4129     4160 
    4210     4282     4360     4436     4515     4591     4662     4737 
    4806     4869     4926     4955     4954     4931     4878     4801 
    4716     4617     4514     4437     4380     4333     4307     4307 
    4318     4333     4351     4364     4367     4353     4322     4288 
    4267     4256     4267     4321     4414     4518     4608     4675 
    4720     4741     4739     4723     4687     4626     4553     4491 
    4448     4415     4396     4386     4368     4349     4347     4360 
    4388     4437     4500     4546     4563     4568     4567     4557 
    4533     4490     4446     4411     4376     4349     4352     4378 
    4407     4450     4511     4568     4600     4604     4590     4552 
    4500     4460     4433     4415     4399     4384     4383     4405 
    4445     4488     4523     4540     4514     4440     4356     4302 
    4276     4278     4309     4356     4386     4395     4407     4419 
    4445     4499     4575     4657     4733     4777     4781     4753 
    4691     4611     4554     4536     4541     4552     4558     4557 
    4550     4550     4560     4579     4604     4626     4633     4621 
    4588     4536     4467     4401     4347     4301     4272     4272 
    4291     4305     4311     4313     4315     4329     4352     4384 
    4417     4438     4449     4450     4442     4436     4433     4433 
    4440     4450     4471     4504     4538     4565     4581     4575 
    4558     4549     4554     4576     4619     4675     4720     4742 
    4745     4720     4658     4571     4465     4355     4256     4189 
    4176     4209     4252     4284     4303     4301     4288     4291 
    4320     4359     4399     4440     4480     4514     4544     4569 
    4598     4639     4698     4760     4812     4843     4845     4818 
    4773     4733     4711     4707     4698     4658     4580     4473 
    4351     4244     4182     4159     4156     4170     4197     4230 
    4263     4288     4307     4310     4288     4267     4267     4290 
    4337     4401     4452     4506     4573     4648     4730     4807 
    4857     4876     4868     4818     4730     4630     4540     4456 
    4392     4364     4364     4375     4379     4368     4338     4297 
    4261     4251     4259     4271     4287     4322     4382     4438 
    4469     4477     4473     4464     4455     4460     4491     4542 
    4596     4634     4661     4688     4727     4774     4804     4812 
    4799     4758     4706     4654     4608     4568     4522     4464 
    4403     4345     4291     4251     4229     4221     4220     4225 
    4239     4251     4261     4276     4286     4294     4310     4330 
    4361     4414     4486     4569     4654     4734     4795     4827 
    4835     4826     4808     4801     4819     4847     4861     4854 
    4814     4716     4572     4413     4268     4166     4117     4098 
    4093     4094     4093     4089     4098     4133     4194     4272 
    4355     4415     4442     4444     4429     4407     4398     4419 
    4488     4590     4689     4770     4835     4868     4854     4833 
    4827     4834     4850     4866     4851     4788     4689     4587 
    4504     4456     4430     4406     4361     4288     4198     4116 
    4052     4008     3985     3989     4017     4074     4159     4266 
    4378     4463     4504     4514     4506     4494     4498     4527 
    4583     4649     4700     4741     4772     4783     4777     4772 
    4765     4752     4738     4711     4668     4621     4581     4549 
    4525     4498     4452     4387     4318     4253     4209     4197 
    4199     4201     4207     4217     4220     4228     4268     4345 
    4440     4542     4637     4681     4660     4587     4496     4434 
    4430     4482     4563     4637     4673     4662     4618     4556 
    4490     4442     4434     4463     4514     4575     4615     4612 
    4567     4490     4403     4337     4311     4328     4371     4437 
    4523     4591     4626     4637     4612     4568     4537     4523 
    4522     4527     4522     4496     4453     4395     4337     4299 
    4280     4278     4293     4325     4368     4415     4453     4471 
    4461     4444     4433     4421     4414     4425     4446     4480 
    4522     4556     4587     4623     4656     4672     4679     4669 
    4645     4623     4611     4592     4568     4545     4521     4494 
    4475     4464     4463     4456     4436     4414     4399     4382 
    4355     4326     4303     4271     4226     4197     4193     4213 
    4251     4305     4372     4441     4499     4546     4588     4626 
    4653     4681     4706     4720     4725     4720     4711     4704 
    4698     4679     4645     4595     4541     4490     4449     4432 
    4438     4444     4419     4364     4290     4221     4178     4171 
    4205     4263     4324     4372     4409     4448     4500     4560 
    4619     4666     4673     4639     4591     4552     4540     4565 
    4625     4698     4750     4758     4720     4642     4544     4467 
    4432     4440     4483     4537     4561     4540     4484     4415 
    4360     4344     4363     4391     4407     4406     4391     4379 
    4380     4395     4418     4430     4415     4402     4418     4464 
    4519     4563     4579     4561     4525     4499     4500     4523 
    4564     4602     4612     4599     4569     4531     4498     4467 
    4433     4414     4422     4442     4459     4468     4463     4452 
    4444     4434     4418     4403     4399     4409     4429     4468 
    4513     4538     4542     4531     4510     4494     4480     4460 
    4444     4438     4444     4465     4509     4568     4619     4652 
    4675     4679     4652     4596     4531     4464     4387     4315 
    4268     4244     4237     4256     4295     4344     4399     4457 
    4500     4522     4526     4525     4521     4527     4557     4594 
    4617     4627     4638     4658     4687     4700     4689     4672 
    4657     4650     4656     4665     4656     4607     4519     4414 
    4309     4225     4172     4139     4106     4079     4066     4081 
    4124     4187     4251     4307     4349     4375     4401     4452 
    4536     4637     4741     4823     4862     4850     4793     4726 
    4679     4662     4687     4742     4791     4800     4756     4666 
    4560     4457     4380     4347     4342     4340     4317     4278 
    4226     4168     4116     4066     4035     4043     4087     4149 
    4232     4328     4426     4504     4534     4519     4488     4471 
    4500     4590     4720     4861     4949     4945     4861     4727 
    4606     4569     4637     4762     4885     4939     4892     4752 
    4563     4383     4252     4195     4201     4243     4299     4355 
    4392     4406     4387     4337     4276     4226     4202     4216 
    4271     4357     4452     4529     4580     4602     4606     4619 
    4657     4712     4766     4787     4758     4692     4619     4568 
    4561     4592     4626     4635     4611     4548     4453     4361 
    4302     4286     4311     4368     4428     4461     4460     4423 
    4353     4279     4224     4186     4168     4172     4198     4257 
    4348     4457     4563     4642     4689     4711     4720     4735 
    4750     4742     4699     4630     4565     4519     4503     4525 
    4558     4573     4548     4469     4359     4251     4178     4162 
    4221     4351     4507     4639     4720     4734     4665     4537 
    4405     4322     4307     4359     4446     4522     4554     4537 
    4473     4407     4380     4392     4436     4482     4475     4403 
    4307     4222     4182     4205     4275     4375     4469     4538 
    4591     4630     4657     4676     4684     4685     4696     4711 
    4706     4668     4588     4467     4345     4271     4257     4303 
    4394     4499     4603     4707     4803     4868     4872     4793 
    4630     4405     4167     3974     3869     3870     3969     4143 
    4356     4564     4726     4811     4810     4742     4649     4563 
    4510     4503     4523     4530     4503     4457     4422     4423 
    4459     4502     4545     4580     4599     4617     4637     4661 
    4689     4699     4660     4560     4414     4248     4078     3932 
    3851     3856     3948     4113     4317     4515     4672     4768 
    4811     4806     4745     4641     4527     4433     4365     4347 
    4382     4442     4503     4560     4604     4625     4610     4573 
    4541     4518     4502     4517     4571     4633     4676     4681 
    4649     4608     4579     4552     4519     4471     4410     4374 
    4380     4429     4511     4604     4673     4695     4652     4540 
    4374     4182     4005     3896     3890     3987     4167     4388 
    4584     4699     4735     4706     4610     4460     4283     4113 
    3994     3971     4071     4271     4503     4693     4793     4816 
    4806     4810     4876     5009     5169     5292     5316     5211 
    4977     4660     4332     4072     3943     3967     4128     4368 
    4604     4768     4843     4839     4764     4642     4511     4396 
    4306     4229     4147     4055     3950     3842     3750     3704 
    3734     3854     4062     4332     4614     4869     5076     5213 
    5263     5209     5054     4838     4610     4407     4252     4171 
    4182     4288     4464     4671     4870     5024     5093     5057 
    4914     4703     4482     4311     4229     4233     4291     4341 
    4338     4283     4193     4094     4028     4012     4025     4047 
    4081     4131     4189     4245     4305     4368     4438     4517 
    4590     4657     4725     4768     4772     4745     4695     4637 
    4603     4619     4685     4762     4818     4820     4749     4633 
    4496     4360     4280     4301     4413     4579     4739     4851 
    4884     4806     4629     4392     4147     3939     3808     3759 
    3781     3862     3982     4118     4253     4383     4521     4664 
    4791     4878     4915     4896     4839     4796     4796     4823 
    4851     4869     4857     4796     4703     4622     4580     4561 
    4575     4615     4639     4622     4556     4413     4189     3928 
    3711     3595     3585     3678     3842     3997     4124     4260 
    4421     4614     4853     5117     5320     5373     5281     5107 
    4920     4776     4689     4652     4633     4583     4486     4356 
    4228     4148     4158     4257     4411     4568     4687     4746 
    4734     4658     4537     4396     4256     4113     3962     3813 
    3697     3647     3699     3848     4054     4268     4459     4611 
    4737     4862     4996     5130     5250     5313     5281     5155 
    4957     4722     4495     4307     4191     4156     4178     4236 
    4301     4326     4295     4233     4167     4105     4054     4010 
    3962     3894     3811     3746     3761     3913     4190     4526 
    4865     5157     5355     5456     5487     5468     5385     5242 
    5062     4860     4664     4503     4390     4332     4318     4318 
    4321     4341     4396     4483     4575     4638     4653     4599 
    4467     4282     4082     3897     3771     3738     3811     3973 
    4190     4433     4656     4823     4924     4957     4924     4853 
    4780     4727     4704     4720     4762     4791     4789     4754 
    4691     4639     4639     4699     4787     4847     4850     4792 
    4677     4526     4380     4257     4160     4078     4002     3942 
    3897     3878     3906     3982     4102     4244     4382     4517 
    4642     4720     4733     4668     4523     4328     4131     3983 
    3931     3987     4129     4317     4510     4675     4785     4847 
    4885     4900     4895     4882     4868     4847     4816     4780 
    4741     4683     4603     4529     4464     4414     4380     4353 
    4336     4329     4326     4324     4307     4260     4178     4052 
    3909     3789     3709     3678     3709     3820     4005     4234 
    4488     4739     4946     5082     5142     5143     5121     5104 
    5111     5143     5174     5189     5171     5105     4993     4869 
    4769     4708     4707     4754     4811     4846     4828     4731 
    4548     4299     4028     3777     3593     3511     3519     3589 
    3692     3786     3856     3920     3987     4054     4105     4131 
    4125     4095     4078     4106     4194     4347     4537     4711 
    4845     4953     5063     5208     5402     5636     5865     6025 
    6053     5934     5709     5428     5116     4808     4538     4306 
    4095     3904     3753     3655     3603     3582     3577     3547 
    3476     3375     3272     3203     3183     3222     3315     3441 
    3589     3774     3993     4248     4537     4838     5121     5354 
    5518     5617     5667     5703     5755     5821     5868     5845 
    5715     5483     5178     4860     4607     4465     4429     4445 
    4445     4388     4286     4172     4085     4031     3985     3919 
    3839     3751     3669     3622     3639     3739     3909     4113 
    4299     4448     4553     4600     4604     4608     4626     4646 
    4649     4623     4571     4506     4457     4477     4584     4745 
    4903     5020     5059     4997     4864     4702     4550     4442 
    4401     4425     4482     4510     4480     4386     4224     4040 
    3905     3854     3885     3981     4102     4228     4336     4405 
    4440     4452     4450     4459     4502     4585     4691     4796 
    4889     4966     5034     5097     5152     5190     5175     5080 
    4911     4704     4509     4371     4299     4287     4334     4429 
    4544     4653     4726     4737     4681     4580     4459     4333 
    4237     4186     4151     4120     4102     4095     4104     4117 
    4114     4075     4002     3910     3824     3774     3786     3885 
    4070     4310     4560     4781     4946     5040     5084     5103 
    5125     5182     5277     5378     5441     5428     5329     5162 
    4955     4741     4557     4423     4340     4297     4267     4216 
    4124     4002     3867     3727     3609     3543     3516     3507 
    3508     3531     3592     3711     3898     4140     4392     4614 
    4791     4915     4986     5024     5049     5047     4990     4895 
    4808     4745     4712     4760     4896     5050     5144     5142 
    5023     4804     4540     4297     4122     4050     4078     4153 
    4228     4272     4278     4249     4203     4170     4179     4229 
    4311     4417     4518     4608     4691     4773     4865     4961 
    5047     5132     5190     5198     5171     5140     5097     5034 
    4945     4820     4654     4482     4336     4225     4152     4113 
    4101     4121     4172     4243     4315     4340     4279     4160 
    4031     3921     3873     3898     3970     4056     4156     4268 
    4390     4522     4664     4789     4878     4912     4877     4772 
    4615     4444     4294     4189     4136     4125     4131     4136 
    4137     4126     4117     4132     4163     4195     4206     4183 
    4141     4118     4132     4180     4268     4401     4568     4762 
    4982     5209     5414     5576     5664     5643     5516     5317 
    5089     4869     4677     4531     4430     4360     4303     4243 
    4182     4126     4086     4078     4099     4128     4147     4139 
    4090     4021     3962     3942     3978     4070     4212     4363 
    4473     4550     4621     4693     4787     4897     4997     5050 
    5050     5000     4915     4819     4743     4696     4672     4657 
    4638     4626     4627     4631     4629     4619     4598     4560 
    4514     4461     4390     4293     4185     4085     3998     3933 
    3896     3888     3908     3942     3985     4056     4164     4294 
    4419     4536     4637     4708     4747     4757     4731     4685 
    4645     4612     4596     4599     4614     4646     4700     4765 
    4834     4900     4947     4962     4924     4822     4673     4511 
    4367     4255     4176     4128     4097     4068     4036     4012 
    4008     4041     4117     4210     4293     4353     4382     4369 
    4341     4317     4290     4268     4256     4251     4257     4301 
    4402     4556     4742     4927     5070     5143     5148     5107 
    5040     4990     4972     4989     5020     5027     5001     4949 
    4869     4788     4729     4689     4669     4650     4629     4598 
    4536     4446     4348     4233     4104     3971     3836     3708 
    3603     3535     3518     3555     3643     3763     3902     4064 
    4247     4438     4617     4757     4849     4896     4905     4893 
    4887     4901     4927     4950     4965     4963     4946     4934 
    4951     4986     5013     5016     4973     4847     4630     4353 
    4075     3842     3674     3568     3504     3466     3457     3491 
    3592     3757     3950     4147     4314     4411     4441     4448 
    4467     4491     4509     4530     4567     4617     4706     4845 
    5015     5204     5389     5529     5593     5578     5503     5395 
    5255     5096     4930     4766     4610     4463     4317     4174 
    4062     4004     3993     4008     4020     3997     3935     3856 
    3798     3786     3843     3971     4133     4279     4383     4450 
    4504     4573     4677     4819     4976     5094     5147     5136 
    5063     4932     4770     4600     4440     4303     4205     4148 
    4120     4116     4132     4148     4152     4152     4152     4162 
    4187     4236     4314     4421     4550     4695     4818     4885 
    4885     4826     4719     4595     4500     4459     4453     4471 
    4507     4544     4561     4554     4531     4495     4436     4359 
    4271     4180     4090     4009     3952     3931     3944     3987 
    4068     4187     4324     4452     4577     4729     4904     5082 
    5263     5424     5517     5521     5447     5309     5131     4946 
    4779     4629     4492     4374     4280     4206     4133     4060 
    3986     3917     3852     3797     3762     3754     3762     3794 
    3855     3935     4025     4136     4276     4426     4561     4685 
    4804     4907     4990     5055     5098     5121     5123     5092 
    5031     4970     4926     4911     4935     4968     4973     4938 
