Origin Time       2025/06/03 22:18:00
Lat.              41.7
Long.             143.6
Depth. (km)       30
Mag.              5.2
Station Code      KKWH08
Station Lat.      43.0406
Station Long.     142.6562
Station Height(m) 569
Record Time       2025/06/03 22:19:17
Sampling Freq(Hz) 100Hz
Duration Time(s)  120
Dir.              5
Scale Factor      7845(gal)/8223790
Max. Acc. (gal)   1.090
Last Correction   2025/06/03 22:19:17
Memo.             
[...]
  -48292   -48348   -48423   -48473   -48462   -48388   -48266   -48132 
  -48031   -47988   -48012   -48088   -48172   -48240   -48259   -48208 
  -48123   -48053   -48015   -47999   -48003   -48034   -48060   -48039 
  -47983   -47927   -47881   -47842   -47829   -47858   -47926   -48015 
  -48103   -48165   -48201   -48231   -48277   -48346   -48413   -48455 
  -48465   -48436   -48363   -48262   -48158   -48085   -48062   -48089 
  -48134   -48165   -48181   -48180   -48151   -48111   -48089   -48099 
  -48126   -48158   -48188   -48207   -48205   -48186   -48157   -48115 
  -48081   -48082   -48122   -48182   -48259   -48338   -48389   -48385 
  -48336   -48271   -48199   -48123   -48069   -48054   -48057   -48051 
  -48038   -48024   -48008   -47979   -47933   -47893   -47877   -47893 
  -47954   -48058   -48168   -48242   -48285   -48290   -48251   -48199 
  -48165   -48147   -48161   -48205   -48250   -48278   -48304   -48330 
  -48343   -48328   -48286   -48242   -48205   -48178   -48172   -48190 
  -48209   -48201   -48163   -48108   -48042   -47980   -47933   -47895 
  -47862   -47835   -47839   -47911   -48038   -48178   -48301   -48384 
  -48419   -48400   -48330   -48250   -48196   -48162   -48138   -48126 
  -48134   -48155   -48170   -48182   -48196   -48199   -48182   -48161 
  -48146   -48134   -48119   -48108   -48099   -48084   -48066   -48061 
  -48065   -48054   -48019   -47985   -47972   -47981   -48023   -48100 
  -48185   -48259   -48313   -48328   -48301   -48258   -48232   -48223 
  -48223   -48246   -48293   -48332   -48347   -48332   -48294   -48249 
  -48205   -48182   -48172   -48145   -48099   -48050   -48003   -47964 
  -47937   -47929   -47939   -47956   -47980   -48020   -48072   -48124 
  -48172   -48201   -48205   -48199   -48209   -48249   -48296   -48332 
  -48348   -48335   -48297   -48242   -48184   -48146   -48130   -48116 
  -48096   -48072   -48054   -48046   -48034   -48027   -48027   -48020 
  -48018   -48046   -48112   -48184   -48227   -48235   -48216   -48174 
  -48122   -48080   -48057   -48055   -48074   -48105   -48138   -48163 
  -48162   -48126   -48072   -48031   -48026   -48064   -48138   -48219 
  -48282   -48300   -48255   -48182   -48130   -48108   -48105   -48115 
  -48132   -48153   -48174   -48193   -48216   -48238   -48255   -48277 
  -48296   -48304   -48316   -48324   -48307   -48263   -48216   -48176 
  -48143   -48111   -48077   -48047   -48016   -47977   -47954   -47960 
  -47976   -47996   -48023   -48054   -48095   -48146   -48204   -48267 
  -48325   -48352   -48350   -48340   -48338   -48334   -48313   -48280 
  -48240   -48196   -48161   -48149   -48146   -48143   -48139   -48136 
  -48142   -48143   -48130   -48108   -48084   -48053   -48012   -47972 
  -47939   -47911   -47877   -47841   -47830   -47868   -47934   -48004 
  -48076   -48146   -48209   -48263   -48303   -48332   -48351   -48347 
  -48309   -48250   -48189   -48132   -48088   -48077   -48111   -48170 
  -48246   -48325   -48385   -48413   -48412   -48378   -48316   -48235 
  -48154   -48082   -48014   -47954   -47912   -47885   -47884   -47914 
  -47970   -48039   -48099   -48132   -48139   -48134   -48139   -48154 
  -48177   -48223   -48281   -48330   -48352   -48342   -48294   -48231 
  -48170   -48135   -48138   -48177   -48226   -48261   -48276   -48263 
  -48222   -48170   -48135   -48130   -48153   -48197   -48230   -48216 
  -48145   -48037   -47930   -47842   -47791   -47790   -47823   -47861 
  -47879   -47881   -47891   -47927   -48015   -48159   -48313   -48432 
  -48502   -48514   -48479   -48429   -48400   -48398   -48402   -48389 
  -48365   -48324   -48247   -48153   -48082   -48058   -48082   -48146 
  -48231   -48303   -48330   -48305   -48236   -48142   -48045   -47957 
  -47881   -47830   -47814   -47823   -47856   -47915   -47987   -48053 
  -48105   -48142   -48158   -48168   -48188   -48219   -48253   -48281 
  -48288   -48262   -48211   -48155   -48104   -48058   -48038   -48060 
  -48114   -48170   -48224   -48274   -48300   -48269   -48193   -48100 
  -48008   -47938   -47927   -47991   -48104   -48216   -48284   -48285 
  -48219   -48119   -48033   -47992   -48016   -48096   -48205   -48309 
  -48361   -48344   -48278   -48195   -48124   -48093   -48105   -48143 
  -48184   -48209   -48199   -48154   -48107   -48076   -48060   -48065 
  -48096   -48142   -48203   -48262   -48298   -48313   -48301   -48263 
  -48220   -48182   -48165   -48166   -48161   -48145   -48130   -48128 
  -48145   -48174   -48203   -48217   -48217   -48215   -48208   -48197 
  -48190   -48192   -48201   -48196   -48162   -48115   -48080   -48057 
  -48042   -48042   -48058   -48080   -48105   -48142   -48181   -48216 
  -48243   -48259   -48266   -48263   -48240   -48207   -48189   -48182 
  -48170   -48150   -48131   -48112   -48096   -48080   -48042   -47984 
  -47929   -47893   -47895   -47949   -48058   -48190   -48301   -48374 
  -48397   -48350   -48247   -48145   -48084   -48069   -48087   -48132 
  -48181   -48199   -48180   -48138   -48099   -48064   -48033   -48008 
  -47995   -48004   -48026   -48042   -48058   -48073   -48057   -47997 
  -47922   -47883   -47906   -47984   -48101   -48240   -48359   -48431 
  -48459   -48450   -48409   -48358   -48316   -48286   -48265   -48244 
  -48222   -48199   -48176   -48150   -48127   -48122   -48132   -48134 
  -48105   -48061   -48028   -48027   -48054   -48096   -48135   -48149 
  -48126   -48080   -48031   -48015   -48066   -48184   -48312   -48398 
  -48424   -48379   -48288   -48200   -48143   -48127   -48158   -48205 
  -48242   -48255   -48240   -48203   -48150   -48084   -48012   -47957 
  -47927   -47916   -47916   -47926   -47941   -47970   -48012   -48060 
  -48124   -48200   -48262   -48300   -48323   -48340   -48347   -48346 
  -48338   -48316   -48277   -48231   -48196   -48168   -48147   -48132 
  -48116   -48108   -48120   -48134   -48130   -48122   -48111   -48081 
  -48034   -47996   -47988   -47992   -48004   -48030   -48070   -48109 
  -48131   -48139   -48155   -48190   -48251   -48340   -48447   -48546 
  -48594   -48571   -48498   -48389   -48258   -48143   -48061   -48019 
  -48004   -47988   -47962   -47930   -47888   -47838   -47802   -47806 
  -47845   -47896   -47935   -47953   -47977   -48024   -48082   -48139 
  -48192   -48222   -48217   -48197   -48184   -48195   -48231   -48277 
  -48319   -48343   -48340   -48308   -48274   -48262   -48259   -48257 
  -48262   -48271   -48270   -48258   -48238   -48211   -48177   -48135 
  -48108   -48105   -48119   -48147   -48177   -48174   -48130   -48070 
  -48016   -47980   -47960   -47953   -47952   -47953   -47964   -47992 
  -48038   -48095   -48163   -48240   -48321   -48400   -48465   -48502 
  -48512   -48492   -48431   -48336   -48236   -48147   -48076   -48038 
  -48033   -48035   -48007   -47933   -47834   -47749   -47714   -47742 
  -47829   -47949   -48068   -48161   -48223   -48259   -48280   -48298 
  -48330   -48363   -48381   -48382   -48384   -48377   -48352   -48312 
  -48246   -48145   -48019   -47903   -47841   -47871   -47989   -48150 
  -48281   -48315   -48226   -48060   -47889   -47794   -47829   -48001 
  -48247   -48467   -48585   -48554   -48384   -48153   -47960   -47848 
  -47826   -47891   -48015   -48155   -48267   -48331   -48359   -48371 
  -48377   -48389   -48413   -48439   -48456   -48459   -48428   -48348 
  -48235   -48114   -47999   -47892   -47796   -47721   -47676   -47672 
  -47726   -47845   -47996   -48135   -48234   -48269   -48247   -48211 
  -48195   -48228   -48323   -48462   -48604   -48699   -48716   -48644 
  -48519   -48388   -48266   -48158   -48070   -47988   -47898   -47802 
  -47696   -47605   -47548   -47518   -47505   -47525   -47595   -47715 
  -47865   -48038   -48212   -48366   -48492   -48586   -48649   -48682 
  -48667   -48606   -48524   -48450   -48396   -48348   -48290   -48217 
  -48115   -47980   -47848   -47768   -47758   -47833   -47999   -48203 
  -48358   -48415   -48362   -48234   -48080   -47956   -47900   -47907 
  -47937   -47961   -47969   -47965   -47956   -47965   -48010   -48105 
  -48250   -48402   -48540   -48643   -48664   -48591   -48465   -48344 
  -48281   -48282   -48313   -48316   -48242   -48087   -47910   -47781 
  -47730   -47772   -47912   -48093   -48223   -48254   -48196   -48073 
  -47930   -47829   -47808   -47868   -47974   -48088   -48188   -48269 
  -48328   -48388   -48465   -48558   -48645   -48671   -48605   -48478 
  -48354   -48282   -48285   -48342   -48377   -48315   -48130   -47866 
  -47601   -47406   -47320   -47353   -47502   -47721   -47939   -48097 
  -48174   -48181   -48147   -48108   -48109   -48181   -48301   -48416 
  -48471   -48448   -48369   -48280   -48228   -48228   -48265   -48303 
  -48307   -48257   -48165   -48078   -48049   -48085   -48149   -48203 
  -48216   -48166   -48064   -47933   -47818   -47772   -47810   -47902 
  -48014   -48115   -48190   -48231   -48254   -48288   -48359   -48470 
  -48600   -48702   -48748   -48729   -48631   -48460   -48271   -48104 
  -47974   -47906   -47911   -47956   -47976   -47950   -47910   -47880 
  -47866   -47872   -47892   -47911   -47902   -47861   -47823   -47815 
  -47841   -47893   -47961   -48038   -48131   -48251   -48402   -48556 
  -48674   -48739   -48740   -48685   -48614   -48563   -48528   -48500 
  -48470   -48425   -48343   -48216   -48060   -47887   -47702   -47530 
  -47406   -47368   -47410   -47490   -47592   -47715   -47842   -47965 
  -48099   -48246   -48384   -48493   -48577   -48633   -48643   -48605 
  -48541   -48467   -48377   -48274   -48189   -48162   -48195   -48254 
  -48312   -48344   -48325   -48238   -48078   -47858   -47621   -47433 
  -47349   -47380   -47514   -47721   -47952   -48168   -48348   -48485 
  -48577   -48628   -48636   -48604   -48546   -48489   -48456   -48454 
  -48450   -48396   -48263   -48061   -47831   -47646   -47579   -47665 
  -47883   -48154   -48385   -48513   -48517   -48413   -48259   -48120 
  -48043   -48047   -48138   -48294   -48448   -48523   -48501   -48394 
  -48220   -48023   -47871   -47812   -47860   -47984   -48124   -48222 
  -48239   -48163   -48006   -47788   -47576   -47441   -47418   -47513 
  -47719   -47997   -48281   -48517   -48689   -48780   -48780   -48724 
  -48655   -48602   -48556   -48493   -48428   -48382   -48323   -48228 
  -48134   -48078   -48068   -48084   -48112   -48123   -48085   -47989 
  -47865   -47769   -47758   -47837   -47981   -48151   -48296   -48366 
  -48335   -48208   -48035   -47873   -47737   -47649   -47641   -47707 
  -47821   -47941   -48050   -48182   -48371   -48593   -48779   -48864 
  -48813   -48621   -48315   -47984   -47750   -47673   -47713   -47792 
  -47854   -47853   -47784   -47723   -47764   -47934   -48193   -48471 
  -48687   -48759   -48645   -48396   -48112   -47916   -47875   -47966 
  -48123   -48266   -48335   -48309   -48211   -48105   -48099   -48235 
  -48446   -48624   -48689   -48594   -48377   -48151   -48012   -47983 
  -48027   -48101   -48142   -48080   -47923   -47767   -47698   -47733 
  -47858   -48034   -48181   -48239   -48224   -48185   -48157   -48176 
  -48273   -48419   -48528   -48525   -48388   -48139   -47857   -47656 
  -47610   -47703   -47879   -48065   -48176   -48176   -48108   -48060 
  -48101   -48236   -48412   -48555   -48598   -48524   -48381   -48231 
  -48107   -48020   -47983   -47958   -47903   -47823   -47776   -47794 
  -47869   -47979   -48103   -48224   -48319   -48389   -48454   -48520 
  -48566   -48577   -48554   -48498   -48412   -48331   -48292   -48296 
  -48331   -48373   -48384   -48342   -48250   -48134   -48024   -47950 
  -47927   -47941   -47956   -47961   -47954   -47915   -47841   -47765 
  -47713   -47682   -47676   -47734   -47885   -48108   -48354   -48585 
  -48772   -48874   -48848   -48718   -48555   -48401   -48254   -48116 
  -48006   -47929   -47869   -47821   -47788   -47769   -47776   -47815 
  -47892   -48027   -48235   -48482   -48706   -48859   -48895   -48790 
  -48563   -48265   -47961   -47715   -47571   -47522   -47544   -47615 
  -47710   -47796   -47866   -47939   -48028   -48126   -48219   -48300 
  -48363   -48393   -48377   -48319   -48235   -48147   -48076   -48030 
  -48000   -47976   -47960   -47954   -47962   -48006   -48095   -48204 
  -48292   -48344   -48362   -48348   -48320   -48315   -48350   -48419 
  -48496   -48558   -48590   -48579   -48509   -48386   -48249   -48139 
  -48085   -48077   -48082   -48064   -47977   -47800   -47565   -47343 
  -47198   -47187   -47331   -47575   -47835   -48050   -48190   -48257 
  -48280   -48297   -48328   -48363   -48396   -48427   -48440   -48439 
  -48455   -48490   -48531   -48564   -48575   -48550   -48496   -48439 
  -48412   -48425   -48452   -48448   -48385   -48270   -48134   -48026 
  -47983   -48016   -48101   -48193   -48258   -48270   -48219   -48138 
  -48058   -47984   -47918   -47862   -47821   -47784   -47761   -47777 
  -47837   -47910   -47964   -47981   -47957   -47876   -47740   -47599 
  -47529   -47574   -47734   -47972   -48227   -48458   -48635   -48721 
  -48729   -48714   -48722   -48757   -48802   -48833   -48817   -48745 
  -48624   -48466   -48300   -48139   -47973   -47796   -47628   -47497 
  -47439   -47456   -47534   -47650   -47757   -47808   -47792   -47726 
  -47646   -47592   -47576   -47602   -47667   -47765   -47892   -48054 
  -48251   -48466   -48682   -48876   -49034   -49150   -49218   -49234 
  -49242   -49268   -49292   -49285   -49223   -49099   -48932   -48729 
  -48513   -48335   -48219   -48141   -48061   -47949   -47787   -47590 
  -47410   -47299   -47274   -47305   -47348   -47370   -47353   -47310 
  -47268   -47266   -47322   -47456   -47648   -47857   -48050   -48196 
  -48273   -48303   -48334   -48384   -48454   -48528   -48573   -48559 
  -48479   -48350   -48215   -48109   -48037   -47974   -47919   -47888 
  -47875   -47857   -47846   -47860   -47895   -47958   -48061   -48193 
  -48305   -48352   -48339   -48281   -48178   -48062   -47972   -47923 
  -47912   -47930   -47983   -48070   -48176   -48292   -48409   -48498 
  -48555   -48597   -48627   -48627   -48595   -48546   -48482   -48415 
  -48366   -48361   -48401   -48470   -48527   -48546   -48531   -48489 
  -48431   -48374   -48339   -48328   -48324   -48303   -48259   -48186 
  -48087   -47988   -47922   -47898   -47902   -47914   -47923   -47910 
  -47864   -47804   -47763   -47749   -47768   -47818   -47877   -47934 
  -47987   -48010   -47968   -47876   -47787   -47722   -47704   -47776 
  -47938   -48151   -48358   -48504   -48558   -48510   -48379   -48238 
  -48150   -48124   -48143   -48193   -48246   -48255   -48205   -48131 
  -48064   -48019   -48006   -48028   -48095   -48199   -48307   -48378 
  -48408   -48408   -48374   -48286   -48158   -48031   -47927   -47860 
  -47849   -47895   -47981   -48078   -48149   -48181   -48188   -48185 
  -48211   -48276   -48371   -48489   -48579   -48587   -48494   -48331 
  -48155   -48026   -47968   -47984   -48038   -48101   -48157   -48197 
  -48228   -48271   -48347   -48446   -48514   -48527   -48500   -48429 
  -48321   -48211   -48128   -48069   -48022   -47983   -47947   -47899 
  -47827   -47763   -47734   -47745   -47784   -47839   -47900   -47935 
  -47931   -47926   -47942   -47987   -48070   -48180   -48284   -48359 
  -48396   -48384   -48324   -48236   -48134   -48016   -47908   -47857 
  -47883   -47976   -48114   -48257   -48373   -48442   -48455   -48432 
  -48392   -48330   -48244   -48143   -48033   -47929   -47834   -47752 
  -47695   -47676   -47699   -47773   -47900   -48054   -48199   -48319 
  -48406   -48431   -48398   -48344   -48290   -48238   -48180   -48112 
  -48045   -47983   -47927   -47898   -47914   -47997   -48151   -48340 
  -48512   -48616   -48635   -48582   -48486   -48393   -48340   -48335 
  -48370   -48413   -48432   -48435   -48432   -48424   -48421   -48431 
  -48462   -48496   -48485   -48409   -48273   -48101   -47935   -47808 
  -47726   -47677   -47638   -47603   -47567   -47521   -47475   -47448 
  -47451   -47499   -47602   -47750   -47912   -48061   -48176   -48266 
  -48361   -48485   -48635   -48779   -48882   -48924   -48925   -48909 
  -48882   -48849   -48809   -48744   -48637   -48501   -48370   -48273 
  -48220   -48197   -48184   -48166   -48128   -48051   -47930   -47780 
  -47621   -47476   -47378   -47329   -47326   -47380   -47479   -47603 
  -47733   -47852   -47968   -48101   -48247   -48400   -48551   -48664 
  -48701   -48667   -48590   -48486   -48377   -48298   -48257   -48223 
  -48173   -48114   -48045   -47960   -47860   -47753   -47652   -47561 
  -47501   -47484   -47507   -47551   -47603   -47659   -47703   -47737 
  -47780   -47850   -47950   -48082   -48238   -48402   -48562   -48703 
  -48822   -48913   -48971   -48984   -48951   -48874   -48771   -48651 
  -48533   -48425   -48327   -48239   -48161   -48084   -48015   -47964 
  -47950   -47983   -48047   -48134   -48239   -48340   -48416   -48454 
  -48446   -48401   -48342   -48305   -48317   -48371   -48436   -48479 
  -48467   -48393   -48297   -48224   -48200   -48224   -48277   -48320 
  -48303   -48200   -48041   -47873   -47726   -47617   -47540   -47474 
  -47402   -47329   -47290   -47309   -47403   -47579   -47798   -47996 
  -48149   -48251   -48307   -48335   -48379   -48462   -48573   -48678 
  -48757   -48794   -48770   -48695   -48600   -48497   -48386   -48281 
  -48212   -48182   -48155   -48103   -48010   -47892   -47777   -47679 
  -47606   -47563   -47552   -47568   -47591   -47607   -47621   -47645 
  -47680   -47711   -47734   -47765   -47844   -47987   -48180   -48385 
  -48570   -48702   -48766   -48789   -48809   -48840   -48892   -48946 
  -48959   -48903   -48780   -48617   -48456   -48330   -48254   -48224 
  -48223   -48238   -48244   -48223   -48174   -48109   -48033   -47941 
  -47829   -47703   -47576   -47471   -47413   -47402   -47440   -47532 
  -47649   -47757   -47858   -47968   -48073   -48161   -48236   -48308 
  -48363   -48379   -48355   -48307   -48250   -48190   -48146   -48142 
  -48174   -48223   -48269   -48298   -48311   -48311   -48308   -48300 
  -48284   -48249   -48184   -48099   -48011   -47930   -47854   -47794 
  -47750   -47725   -47731   -47783   -47871   -47983   -48105   -48227 
  -48339   -48444   -48551   -48662   -48740   -48749   -48687   -48563 
  -48394   -48226   -48104   -48042   -48019   -48016   -48010   -47973 
  -47912   -47864   -47857   -47904   -47989   -48091   -48186   -48249 
  -48258   -48238   -48230   -48243   -48270   -48311   -48373   -48447 
  -48525   -48597   -48655   -48693   -48675   -48597   -48479   -48330 
  -48170   -48045   -47962   -47907   -47869   -47845   -47834   -47831 
  -47830   -47841   -47883   -47962   -48070   -48192   -48308   -48405 
  -48475   -48517   -48529   -48502   -48439   -48339   -48217   -48103 
  -48011   -47960   -47964   -48012   -48069   -48092   -48061   -47999 
  -47945   -47934   -47981   -48066   -48162   -48238   -48267   -48254 
  -48192   -48078   -47947   -47823   -47713   -47626   -47586   -47605 
  -47682   -47794   -47926   -48050   -48131   -48149   -48112   -48039 
  -47966   -47918   -47911   -47947   -48018   -48103   -48181   -48247 
  -48309   -48365   -48415   -48466   -48512   -48540   -48547   -48532 
