Origin Time       2025/06/03 22:18:00
Lat.              41.7
Long.             143.6
Depth. (km)       30
Mag.              5.2
Station Code      KKWH08
Station Lat.      43.0406
Station Long.     142.6562
Station Height(m) 569
Record Time       2025/06/03 22:19:17
Sampling Freq(Hz) 100Hz
Duration Time(s)  120
Dir.              6
Scale Factor      7845(gal)/8223790
Max. Acc. (gal)   0.324
Last Correction   2025/06/03 22:19:17
Memo.             
[...]
   -3707    -3720    -3753    -3769    -3758    -3736    -3697    -3651 
   -3603    -3545    -3505    -3500    -3522    -3551    -3569    -3582 
   -3600    -3615    -3630    -3624    -3603    -3600    -3599    -3581 
   -3589    -3615    -3603    -3570    -3562    -3570    -3585    -3604 
   -3622    -3643    -3653    -3643    -3645    -3630    -3596    -3589 
   -3604    -3631    -3669    -3666    -3620    -3582    -3568    -3586 
   -3638    -3674    -3669    -3646    -3632    -3630    -3626    -3609 
   -3578    -3541    -3526    -3541    -3569    -3612    -3655    -3689 
   -3731    -3769    -3781    -3767    -3736    -3699    -3658    -3597 
   -3542    -3526    -3532    -3545    -3564    -3581    -3582    -3562 
   -3549    -3562    -3580    -3597    -3613    -3620    -3628    -3640 
   -3638    -3622    -3604    -3592    -3586    -3578    -3568    -3562 
   -3568    -3580    -3595    -3630    -3680    -3703    -3703    -3704 
   -3697    -3685    -3666    -3634    -3615    -3613    -3623    -3654 
   -3676    -3658    -3634    -3632    -3623    -3582    -3554    -3551 
   -3558    -3595    -3651    -3686    -3688    -3663    -3631    -3596 
   -3555    -3530    -3538    -3581    -3640    -3686    -3711    -3726 
   -3723    -3697    -3669    -3653    -3654    -3673    -3700    -3732 
   -3754    -3750    -3730    -3700    -3667    -3639    -3609    -3604 
   -3613    -3605    -3585    -3578    -3599    -3619    -3626    -3649 
   -3659    -3618    -3561    -3501    -3429    -3402    -3442    -3493 
   -3539    -3585    -3605    -3609    -3632    -3666    -3677    -3655 
   -3619    -3595    -3597    -3599    -3580    -3570    -3582    -3582 
   -3588    -3619    -3642    -3643    -3643    -3646    -3649    -3642 
   -3628    -3635    -3645    -3623    -3600    -3609    -3623    -3630 
   -3632    -3612    -3584    -3580    -3600    -3634    -3658    -3646 
   -3620    -3609    -3601    -3603    -3615    -3623    -3645    -3667 
   -3670    -3669    -3665    -3638    -3604    -3593    -3607    -3609 
   -3603    -3630    -3689    -3728    -3739    -3728    -3703    -3674 
   -3653    -3649    -3662    -3673    -3676    -3665    -3646    -3639 
   -3620    -3580    -3541    -3511    -3507    -3532    -3558    -3581 
   -3591    -3584    -3582    -3601    -3627    -3636    -3608    -3578 
   -3593    -3636    -3674    -3690    -3686    -3666    -3649    -3643 
   -3627    -3601    -3595    -3605    -3616    -3626    -3622    -3609 
   -3605    -3608    -3620    -3635    -3611    -3561    -3554    -3573 
   -3599    -3646    -3682    -3678    -3655    -3622    -3601    -3596 
   -3592    -3595    -3605    -3626    -3658    -3673    -3659    -3653 
   -3659    -3665    -3676    -3692    -3692    -3665    -3634    -3619 
   -3631    -3645    -3627    -3599    -3595    -3603    -3604    -3597 
   -3585    -3576    -3576    -3582    -3597    -3611    -3618    -3627 
   -3638    -3647    -3653    -3643    -3623    -3607    -3601    -3608 
   -3618    -3616    -3607    -3603    -3613    -3620    -3613    -3612 
   -3627    -3655    -3674    -3670    -3653    -3620    -3569    -3537 
   -3555    -3597    -3642    -3688    -3716    -3713    -3685    -3645 
   -3615    -3603    -3596    -3592    -3589    -3596    -3615    -3630 
   -3638    -3642    -3630    -3601    -3580    -3585    -3600    -3603 
   -3603    -3609    -3613    -3613    -3613    -3607    -3595    -3600 
   -3616    -3635    -3659    -3674    -3670    -3665    -3669    -3663 
   -3638    -3627    -3632    -3630    -3640    -3672    -3692    -3699 
   -3684    -3651    -3619    -3597    -3600    -3613    -3605    -3572 
   -3534    -3512    -3518    -3537    -3566    -3586    -3569    -3546 
   -3555    -3584    -3599    -3604    -3615    -3622    -3638    -3678 
   -3711    -3711    -3677    -3627    -3597    -3600    -3635    -3694 
   -3738    -3750    -3750    -3732    -3699    -3662    -3630    -3608 
   -3597    -3589    -3584    -3588    -3603    -3609    -3603    -3599 
   -3589    -3572    -3573    -3609    -3653    -3667    -3650    -3631 
   -3609    -3576    -3564    -3577    -3592    -3627    -3678    -3692 
   -3672    -3653    -3640    -3636    -3638    -3642    -3640    -3628 
   -3612    -3607    -3626    -3650    -3638    -3613    -3595    -3564 
   -3542    -3541    -3553    -3576    -3591    -3611    -3657    -3688 
   -3696    -3686    -3642    -3588    -3551    -3537    -3545    -3569 
   -3601    -3649    -3697    -3720    -3705    -3674    -3657    -3654 
   -3657    -3662    -3667    -3662    -3639    -3612    -3612    -3634 
   -3657    -3688    -3705    -3693    -3661    -3608    -3569    -3555 
   -3551    -3585    -3639    -3659    -3658    -3643    -3628    -3630 
   -3635    -3646    -3665    -3673    -3662    -3657    -3672    -3676 
   -3654    -3624    -3589    -3566    -3576    -3604    -3626    -3628 
   -3607    -3593    -3611    -3642    -3654    -3628    -3574    -3523 
   -3492    -3481    -3483    -3504    -3562    -3628    -3669    -3699 
   -3720    -3716    -3693    -3662    -3619    -3568    -3530    -3532 
   -3585    -3659    -3716    -3742    -3735    -3696    -3643    -3595 
   -3565    -3570    -3603    -3635    -3638    -3615    -3596    -3586 
   -3582    -3605    -3638    -3647    -3636    -3628    -3631    -3639 
   -3642    -3624    -3591    -3574    -3582    -3605    -3631    -3631 
   -3628    -3635    -3620    -3604    -3601    -3597    -3608    -3624 
   -3615    -3609    -3618    -3615    -3615    -3628    -3654    -3689 
   -3700    -3674    -3634    -3582    -3550    -3542    -3524    -3503 
   -3510    -3534    -3559    -3578    -3588    -3578    -3553    -3543 
   -3559    -3574    -3596    -3623    -3627    -3618    -3623    -3632 
   -3638    -3662    -3690    -3689    -3678    -3658    -3630    -3616 
   -3607    -3595    -3615    -3649    -3673    -3704    -3730    -3728 
   -3711    -3682    -3653    -3639    -3646    -3655    -3653    -3640 
   -3634    -3642    -3643    -3631    -3618    -3592    -3566    -3562 
   -3568    -3596    -3645    -3655    -3636    -3627    -3618    -3597 
   -3584    -3580    -3584    -3603    -3645    -3684    -3703    -3694 
   -3658    -3616    -3604    -3608    -3603    -3593    -3599    -3612 
   -3620    -3631    -3628    -3595    -3555    -3537    -3554    -3589 
   -3624    -3645    -3636    -3639    -3682    -3708    -3696    -3669 
   -3647    -3638    -3608    -3570    -3576    -3599    -3608    -3623 
   -3635    -3623    -3601    -3588    -3569    -3535    -3507    -3503 
   -3528    -3588    -3655    -3703    -3739    -3750    -3712    -3669 
   -3651    -3636    -3620    -3624    -3643    -3643    -3634    -3646 
   -3672    -3696    -3715    -3708    -3693    -3688    -3666    -3650 
   -3661    -3667    -3659    -3635    -3585    -3547    -3551    -3580 
   -3605    -3601    -3565    -3522    -3497    -3496    -3515    -3551 
   -3582    -3599    -3613    -3627    -3634    -3631    -3623    -3622 
   -3630    -3639    -3639    -3640    -3654    -3674    -3685    -3686 
   -3682    -3661    -3626    -3601    -3591    -3584    -3585    -3597 
   -3623    -3655    -3672    -3682    -3690    -3666    -3616    -3573 
   -3542    -3534    -3551    -3584    -3626    -3653    -3665    -3686 
   -3697    -3694    -3699    -3685    -3665    -3649    -3604    -3550 
   -3511    -3489    -3508    -3553    -3607    -3672    -3716    -3726 
   -3717    -3694    -3673    -3661    -3657    -3655    -3642    -3622 
   -3615    -3608    -3584    -3550    -3524    -3526    -3549    -3586 
   -3651    -3723    -3753    -3746    -3711    -3631    -3523    -3433 
   -3395    -3419    -3481    -3554    -3613    -3647    -3643    -3603 
   -3558    -3527    -3516    -3530    -3555    -3578    -3597    -3609 
   -3613    -3613    -3608    -3593    -3585    -3623    -3707    -3796 
   -3863    -3875    -3821    -3734    -3639    -3562    -3518    -3473 
   -3453    -3485    -3537    -3611    -3690    -3724    -3715    -3690 
   -3651    -3596    -3558    -3561    -3577    -3605    -3658    -3696 
   -3720    -3758    -3790    -3805    -3802    -3763    -3700    -3636 
   -3574    -3531    -3530    -3562    -3619    -3684    -3721    -3719 
   -3685    -3630    -3580    -3539    -3489    -3434    -3399    -3411 
   -3480    -3570    -3632    -3642    -3595    -3522    -3493    -3519 
   -3559    -3627    -3703    -3735    -3728    -3707    -3697    -3708 
   -3690    -3640    -3605    -3585    -3573    -3582    -3603    -3628 
   -3677    -3736    -3782    -3813    -3817    -3759    -3649    -3541 
   -3465    -3414    -3402    -3447    -3553    -3694    -3812    -3866 
   -3852    -3781    -3684    -3597    -3564    -3596    -3655    -3697 
   -3707    -3686    -3642    -3582    -3543    -3547    -3581    -3623 
   -3649    -3645    -3622    -3605    -3582    -3559    -3564    -3574 
   -3576    -3576    -3559    -3549    -3557    -3554    -3542    -3535 
   -3549    -3593    -3630    -3645    -3657    -3649    -3639    -3649 
   -3659    -3672    -3684    -3677    -3654    -3624    -3597    -3591 
   -3608    -3631    -3650    -3672    -3697    -3704    -3703    -3709 
   -3731    -3775    -3802    -3771    -3709    -3632    -3543    -3476 
   -3438    -3443    -3504    -3564    -3604    -3636    -3632    -3619 
   -3627    -3623    -3620    -3620    -3607    -3612    -3640    -3646 
   -3622    -3582    -3538    -3524    -3564    -3618    -3645    -3650 
   -3639    -3619    -3605    -3595    -3593    -3616    -3643    -3653 
   -3653    -3646    -3643    -3658    -3669    -3643    -3570    -3495 
   -3481    -3514    -3547    -3604    -3672    -3715    -3728    -3721 
   -3694    -3649    -3582    -3519    -3477    -3465    -3492    -3549 
   -3627    -3721    -3797    -3834    -3834    -3789    -3707    -3622 
   -3543    -3499    -3501    -3528    -3573    -3624    -3663    -3682 
   -3689    -3694    -3678    -3632    -3586    -3545    -3505    -3488 
   -3476    -3483    -3524    -3574    -3619    -3666    -3701    -3721 
   -3731    -3730    -3717    -3711    -3723    -3738    -3738    -3715 
   -3650    -3576    -3566    -3616    -3670    -3712    -3735    -3730 
   -3694    -3647    -3605    -3566    -3539    -3532    -3537    -3550 
   -3581    -3627    -3678    -3720    -3732    -3709    -3655    -3577 
   -3515    -3501    -3528    -3588    -3662    -3717    -3757    -3778 
   -3774    -3759    -3720    -3653    -3591    -3524    -3453    -3419 
   -3418    -3407    -3396    -3420    -3466    -3518    -3570    -3600 
   -3613    -3626    -3608    -3573    -3543    -3497    -3468    -3488 
   -3531    -3597    -3690    -3766    -3807    -3823    -3808    -3766 
   -3717    -3650    -3578    -3541    -3534    -3555    -3605    -3649 
   -3658    -3651    -3636    -3628    -3661    -3701    -3688    -3636 
   -3586    -3550    -3528    -3511    -3514    -3537    -3547    -3558 
   -3577    -3582    -3600    -3626    -3639    -3628    -3604    -3615 
   -3669    -3723    -3782    -3829    -3809    -3758    -3716    -3669 
   -3628    -3605    -3596    -3597    -3591    -3584    -3593    -3613 
   -3658    -3731    -3805    -3846    -3861    -3869    -3821    -3716 
   -3626    -3573    -3554    -3576    -3604    -3595    -3547    -3501 
   -3507    -3568    -3654    -3735    -3780    -3765    -3701    -3592 
   -3443    -3325    -3295    -3337    -3410    -3500    -3596    -3666 
   -3704    -3699    -3653    -3613    -3595    -3586    -3609    -3642 
   -3650    -3649    -3651    -3661    -3666    -3659    -3673    -3686 
   -3634    -3534    -3449    -3414    -3438    -3522    -3646    -3748 
   -3789    -3807    -3798    -3763    -3734    -3689    -3620    -3550 
   -3485    -3449    -3451    -3491    -3576    -3662    -3708    -3704 
   -3646    -3574    -3534    -3541    -3582    -3608    -3605    -3619 
   -3653    -3686    -3727    -3761    -3762    -3728    -3663    -3600 
   -3573    -3564    -3550    -3554    -3584    -3604    -3593    -3564 
   -3539    -3535    -3555    -3597    -3638    -3654    -3646    -3626 
   -3618    -3634    -3686    -3761    -3831    -3886    -3927    -3943 
   -3925    -3865    -3793    -3721    -3619    -3516    -3449    -3411 
   -3429    -3484    -3530    -3592    -3651    -3654    -3638    -3650 
   -3665    -3655    -3626    -3586    -3543    -3507    -3495    -3503 
   -3508    -3511    -3499    -3464    -3447    -3461    -3469    -3480 
   -3519    -3578    -3636    -3666    -3657    -3626    -3599    -3577 
   -3545    -3522    -3512    -3508    -3527    -3566    -3597    -3626 
   -3650    -3672    -3704    -3755    -3816    -3842    -3813    -3771 
   -3711    -3645    -3622    -3619    -3622    -3653    -3693    -3731 
   -3761    -3757    -3731    -3686    -3646    -3630    -3592    -3537 
   -3514    -3507    -3491    -3474    -3468    -3476    -3504    -3547 
   -3581    -3591    -3584    -3581    -3586    -3593    -3624    -3685 
   -3736    -3770    -3792    -3786    -3786    -3812    -3831    -3838 
   -3823    -3759    -3663    -3589    -3547    -3532    -3554    -3586 
   -3597    -3580    -3558    -3566    -3592    -3599    -3585    -3558 
   -3518    -3493    -3500    -3518    -3542    -3568    -3573    -3562 
   -3565    -3607    -3678    -3743    -3770    -3754    -3701    -3631 
   -3565    -3535    -3545    -3569    -3613    -3666    -3700    -3731 
   -3754    -3738    -3713    -3704    -3699    -3712    -3742    -3761 
   -3771    -3771    -3746    -3701    -3642    -3558    -3457    -3368 
   -3306    -3283    -3298    -3331    -3396    -3476    -3528    -3562 
   -3580    -3564    -3519    -3469    -3453    -3489    -3550    -3616 
   -3690    -3781    -3871    -3932    -3947    -3906    -3823    -3732 
   -3649    -3584    -3553    -3543    -3565    -3618    -3658    -3682 
   -3711    -3728    -3731    -3728    -3715    -3708    -3721    -3716 
   -3670    -3612    -3549    -3483    -3443    -3442    -3465    -3493 
   -3514    -3531    -3581    -3646    -3677    -3697    -3734    -3759 
   -3769    -3755    -3703    -3632    -3561    -3508    -3518    -3586 
   -3674    -3758    -3809    -3805    -3747    -3655    -3572    -3493 
   -3418    -3373    -3357    -3364    -3423    -3512    -3604    -3681 
   -3728    -3782    -3824    -3800    -3747    -3681    -3613    -3578 
   -3555    -3550    -3585    -3623    -3657    -3680    -3680    -3678 
   -3653    -3600    -3555    -3507    -3468    -3458    -3446    -3435 
   -3445    -3474    -3532    -3593    -3630    -3645    -3620    -3574 
   -3545    -3545    -3569    -3585    -3596    -3627    -3651    -3658 
   -3667    -3653    -3618    -3609    -3624    -3653    -3711    -3790 
   -3852    -3865    -3834    -3786    -3742    -3713    -3711    -3734 
   -3755    -3746    -3717    -3709    -3723    -3735    -3734    -3726 
   -3708    -3678    -3636    -3585    -3519    -3451    -3402    -3356 
   -3343    -3395    -3469    -3545    -3616    -3672    -3708    -3711 
   -3689    -3690    -3708    -3712    -3713    -3696    -3640    -3582 
   -3554    -3555    -3584    -3632    -3685    -3724    -3740    -3735 
   -3717    -3689    -3653    -3616    -3581    -3537    -3493    -3466 
   -3445    -3442    -3495    -3559    -3597    -3622    -3631    -3624 
   -3619    -3607    -3584    -3559    -3547    -3558    -3597    -3646 
   -3686    -3723    -3746    -3734    -3711    -3701    -3674    -3626 
   -3580    -3534    -3496    -3492    -3530    -3582    -3626    -3658 
   -3680    -3681    -3667    -3646    -3623    -3605    -3599    -3619 
   -3650    -3655    -3646    -3649    -3651    -3635    -3612    -3597 
   -3585    -3568    -3554    -3538    -3500    -3449    -3400    -3376 
   -3395    -3443    -3500    -3561    -3608    -3620    -3615    -3618 
   -3622    -3619    -3607    -3612    -3647    -3684    -3701    -3705 
   -3697    -3672    -3635    -3609    -3605    -3597    -3603    -3639 
   -3678    -3712    -3724    -3696    -3661    -3638    -3613    -3589 
   -3576    -3581    -3607    -3659    -3738    -3815    -3870    -3915 
   -3942    -3940    -3920    -3886    -3851    -3827    -3794    -3753 
   -3704    -3658    -3646    -3663    -3667    -3657    -3647    -3640 
   -3626    -3612    -3618    -3624    -3616    -3588    -3527    -3453 
   -3389    -3339    -3322    -3337    -3361    -3400    -3456    -3507 
   -3542    -3553    -3546    -3545    -3551    -3558    -3564    -3570 
   -3577    -3585    -3613    -3662    -3709    -3757    -3802    -3815 
   -3774    -3703    -3647    -3630    -3649    -3701    -3765    -3804 
   -3815    -3796    -3748    -3684    -3616    -3569    -3558    -3543 
   -3519    -3526    -3530    -3510    -3500    -3505    -3524    -3557 
   -3591    -3638    -3690    -3719    -3723    -3708    -3680    -3659 
   -3651    -3654    -3663    -3663    -3669    -3688    -3711    -3747 
   -3785    -3800    -3794    -3767    -3712    -3643    -3570    -3505 
   -3464    -3442    -3433    -3426    -3420    -3424    -3441    -3468 
   -3508    -3549    -3569    -3569    -3555    -3528    -3504    -3510 
   -3530    -3546    -3576    -3615    -3655    -3700    -3726    -3720 
   -3705    -3693    -3699    -3724    -3739    -3751    -3762    -3751 
   -3716    -3653    -3581    -3519    -3451    -3392    -3364    -3350 
   -3366    -3431    -3523    -3618    -3678    -3688    -3686    -3685 
   -3682    -3713    -3766    -3788    -3777    -3753    -3715    -3672 
   -3654    -3662    -3666    -3654    -3646    -3643    -3628    -3604 
   -3611    -3646    -3662    -3655    -3647    -3627    -3593    -3574 
   -3577    -3580    -3568    -3545    -3528    -3520    -3524    -3566 
   -3640    -3728    -3809    -3843    -3831    -3807    -3784    -3774 
   -3771    -3758    -3721    -3658    -3600    -3565    -3547    -3565 
   -3600    -3612    -3623    -3639    -3643    -3647    -3638    -3599 
   -3554    -3505    -3462    -3451    -3461    -3481    -3510    -3534 
   -3555    -3589    -3640    -3701    -3742    -3758    -3754    -3727 
   -3694    -3670    -3643    -3628    -3619    -3595    -3562    -3538 
   -3526    -3527    -3535    -3551    -3566    -3574    -3584    -3603 
   -3638    -3663    -3661    -3649    -3634    -3605    -3572    -3543 
   -3522    -3511    -3515    -3534    -3551    -3568    -3597    -3622 
   -3634    -3647    -3646    -3638    -3630    -3622    -3628    -3634 
   -3618    -3600    -3585    -3580    -3593    -3596    -3573    -3532 
   -3487    -3468    -3488    -3520    -3553    -3581    -3591    -3582 
   -3565    -3547    -3537    -3534    -3545    -3569    -3596    -3627 
   -3665    -3716    -3770    -3801    -3817    -3836    -3847    -3854 
   -3862    -3874    -3867    -3835    -3801    -3778    -3763    -3759 
   -3751    -3735    -3721    -3696    -3647    -3601    -3573    -3561 
   -3561    -3553    -3538    -3531    -3530    -3551    -3604    -3659 
   -3705    -3750    -3782    -3793    -3789    -3781    -3773    -3762 
   -3750    -3728    -3701    -3690    -3680    -3654    -3620    -3578 
   -3535    -3514    -3510    -3518    -3523    -3516    -3510    -3516 
   -3545    -3578    -3592    -3600    -3603    -3599    -3609    -3631 
   -3634    -3620    -3601    -3588    -3576    -3557    -3532    -3519 
   -3511    -3500    -3491    -3487    -3497    -3534    -3580    -3601 
   -3589    -3564    -3539    -3519    -3507    -3516    -3543    -3566 
