Origin Time       2025/06/03 22:18:00
Lat.              41.7
Long.             143.6
Depth. (km)       30
Mag.              5.2
Station Code      KKWH14
Station Lat.      43.3841
Station Long.     142.5245
Station Height(m) 389
Record Time       2025/06/03 22:19:33
Sampling Freq(Hz) 100Hz
Duration Time(s)  120
Dir.              4
Scale Factor      7845(gal)/8223790
Max. Acc. (gal)   0.426
Last Correction   2025/06/03 22:19:34
Memo.             
  -37399   -37436   -37455   -37450   -37431   -37411   -37395   -37386 
  -37390   -37393   -37384   -37363   -37332   -37299   -37284   -37296 
  -37330   -37374   -37416   -37446   -37461   -37459   -37450   -37439 
  -37436   -37439   -37436   -37422   -37385   -37326   -37258   -37210 
  -37188   -37201   -37250   -37319   -37386   -37442   -37473   -37470 
  -37440   -37403   -37376   -37369   -37374   -37384   -37378   -37358 
  -37332   -37309   -37299   -37307   -37334   -37376   -37426   -37466 
  -37493   -37512   -37525   -37538   -37552   -37562   -37557   -37539 
  -37509   -37477   -37447   -37417   -37388   -37361   -37330   -37292 
  -37255   -37235   -37243   -37280   -37328   -37372   -37388   -37374 
  -37341   -37301   -37270   -37255   -37260   -37274   -37285   -37288 
  -37276   -37250   -37238   -37255   -37304   -37369   -37428   -37459 
  -37455   -37419   -37363   -37318   -37304   -37332   -37390   -37453 
  -37489   -37474   -37411   -37328   -37249   -37200   -37206   -37254 
  -37323   -37390   -37434   -37440   -37415   -37370   -37336   -37335 
  -37362   -37403   -37440   -37453   -37436   -37405   -37368   -37346 
  -37353   -37384   -37430   -37480   -37511   -37517   -37504   -37478 
  -37455   -37438   -37420   -37400   -37380   -37353   -37319   -37288 
  -37270   -37269   -37285   -37305   -37326   -37349   -37373   -37397 
  -37420   -37436   -37449   -37453   -37449   -37434   -37405   -37366 
  -37327   -37296   -37281   -37282   -37293   -37308   -37324   -37338 
  -37349   -37362   -37380   -37411   -37449   -37477   -37485   -37462 
  -37407   -37338   -37273   -37238   -37251   -37307   -37390   -37476 
  -37535   -37554   -37530   -37467   -37390   -37327   -37287   -37277 
  -37299   -37328   -37354   -37377   -37392   -37401   -37420   -37451 
  -37485   -37507   -37504   -37478   -37439   -37405   -37382   -37365 
  -37349   -37332   -37311   -37289   -37276   -37284   -37320   -37380 
  -37438   -37476   -37477   -37438   -37372   -37299   -37231   -37199 
  -37211   -37261   -37336   -37412   -37461   -37473   -37444   -37384 
  -37312   -37262   -37249   -37274   -37327   -37392   -37447   -37467 
  -37449   -37403   -37349   -37301   -37273   -37273   -37297   -37334 
  -37368   -37388   -37392   -37380   -37357   -37330   -37305   -37292 
  -37292   -37308   -37339   -37370   -37393   -37407   -37411   -37413 
  -37424   -37438   -37450   -37454   -37446   -37424   -37396   -37378 
  -37366   -37358   -37365   -37395   -37444   -37503   -37555   -37582 
  -37563   -37493   -37392   -37282   -37191   -37150   -37172   -37234 
  -37309   -37377   -37411   -37409   -37384   -37350   -37335   -37346 
  -37373   -37404   -37432   -37449   -37440   -37411   -37369   -37323 
  -37289   -37276   -37292   -37334   -37385   -37431   -37455   -37447 
  -37419   -37378   -37338   -37314   -37322   -37354   -37389   -37413 
  -37424   -37426   -37426   -37431   -37450   -37481   -37511   -37531 
  -37538   -37517   -37470   -37403   -37328   -37277   -37269   -37308 
  -37378   -37453   -37498   -37494   -37444   -37363   -37274   -37203 
  -37172   -37192   -37251   -37335   -37420   -37482   -37505   -37489 
  -37446   -37389   -37326   -37266   -37214   -37169   -37146   -37162 
  -37210   -37284   -37370   -37428   -37426   -37359   -37246   -37118 
  -37011   -36961   -36984   -37079   -37223   -37384   -37525   -37617 
  -37643   -37611   -37543   -37470   -37413   -37382   -37369   -37362 
  -37357   -37362   -37384   -37427   -37490   -37552   -37582   -37565 
  -37489   -37374   -37258   -37179   -37164   -37219   -37320   -37434 
  -37521   -37546   -37503   -37419   -37332   -37289   -37305   -37376 
  -37473   -37557   -37594   -37582   -37536   -37482   -37447   -37447 
  -37478   -37509   -37516   -37492   -37439   -37376   -37328   -37312 
  -37319   -37327   -37320   -37297   -37261   -37231   -37233   -37277 
  -37355   -37440   -37505   -37524   -37484   -37396   -37289   -37203 
  -37164   -37192   -37278   -37396   -37490   -37524   -37489   -37409 
  -37328   -37299   -37331   -37403   -37473   -37490   -37430   -37307 
  -37169   -37065   -37033   -37084   -37191   -37312   -37409   -37447 
  -37428   -37380   -37326   -37284   -37258   -37239   -37226   -37223 
  -37238   -37284   -37357   -37453   -37557   -37638   -37663   -37616 
  -37503   -37358   -37227   -37156   -37177   -37295   -37477   -37667 
  -37794   -37814   -37725   -37561   -37384   -37246   -37169   -37153 
  -37184   -37255   -37346   -37436   -37516   -37554   -37532   -37457 
  -37336   -37199   -37096   -37065   -37118   -37242   -37411   -37570 
  -37671   -37693   -37644   -37552   -37440   -37332   -37253   -37199 
  -37164   -37152   -37160   -37183   -37215   -37254   -37300   -37362 
  -37435   -37507   -37565   -37588   -37563   -37494   -37393   -37291 
  -37214   -37172   -37166   -37203   -37278   -37382   -37503   -37609 
  -37673   -37670   -37581   -37419   -37226   -37052   -36940   -36927 
  -37015   -37173   -37357   -37517   -37617   -37647   -37609   -37527 
  -37438   -37377   -37359   -37370   -37390   -37407   -37411   -37412 
  -37436   -37500   -37596   -37686   -37721   -37667   -37524   -37330 
  -37156   -37064   -37083   -37204   -37378   -37532   -37612   -37600 
  -37515   -37399   -37308   -37273   -37282   -37307   -37324   -37312 
  -37277   -37235   -37211   -37222   -37272   -37351   -37442   -37512 
  -37539   -37523   -37466   -37373   -37265   -37177   -37127   -37125 
  -37172   -37250   -37338   -37422   -37481   -37509   -37508   -37477 
  -37426   -37378   -37349   -37339   -37342   -37355   -37376   -37392 
  -37407   -37434   -37476   -37517   -37550   -37558   -37527   -37461 
  -37389   -37335   -37316   -37331   -37355   -37362   -37343   -37296 
  -37226   -37160   -37127   -37137   -37181   -37245   -37299   -37327 
  -37338   -37351   -37382   -37424   -37467   -37497   -37493   -37453 
  -37397   -37347   -37322   -37322   -37332   -37345   -37349   -37347 
  -37354   -37381   -37435   -37516   -37606   -37683   -37729   -37728 
  -37682   -37604   -37504   -37411   -37346   -37318   -37318   -37330 
  -37339   -37339   -37323   -37295   -37268   -37247   -37235   -37241 
  -37255   -37268   -37284   -37309   -37335   -37366   -37401   -37434 
  -37446   -37427   -37380   -37322   -37266   -37230   -37224   -37251 
  -37304   -37376   -37454   -37535   -37609   -37662   -37673   -37633 
  -37547   -37430   -37304   -37197   -37134   -37114   -37130   -37170 
  -37224   -37281   -37339   -37397   -37449   -37478   -37478   -37447 
  -37389   -37320   -37268   -37249   -37258   -37297   -37350   -37393 
  -37415   -37412   -37385   -37346   -37308   -37282   -37276   -37288 
  -37318   -37358   -37392   -37400   -37381   -37350   -37320   -37301 
  -37314   -37357   -37415   -37470   -37508   -37513   -37484   -37432 
  -37377   -37336   -37323   -37335   -37368   -37412   -37450   -37470 
  -37470   -37447   -37417   -37401   -37403   -37417   -37428   -37417 
  -37374   -37299   -37223   -37185   -37210   -37295   -37415   -37523 
  -37569   -37544   -37463   -37355   -37260   -37197   -37170   -37166 
  -37172   -37181   -37206   -37243   -37299   -37370   -37438   -37488 
  -37519   -37521   -37509   -37500   -37497   -37500   -37505   -37503 
  -37492   -37474   -37447   -37409   -37370   -37331   -37295   -37276 
  -37277   -37296   -37331   -37370   -37413   -37459   -37493   -37503 
  -37488   -37455   -37417   -37392   -37393   -37416   -37451   -37481 
  -37478   -37422   -37322   -37215   -37130   -37102   -37143   -37223 
  -37304   -37361   -37373   -37342   -37297   -37276   -37296   -37363 
  -37462   -37561   -37624   -37629   -37573   -37471   -37346   -37226 
  -37152   -37138   -37181   -37262   -37350   -37411   -37423   -37392 
  -37334   -37278   -37246   -37245   -37264   -37289   -37316   -37355 
  -37408   -37463   -37503   -37508   -37463   -37373   -37261   -37164 
  -37116   -37141   -37230   -37350   -37462   -37546   -37584   -37575 
  -37539   -37498   -37466   -37454   -37463   -37482   -37496   -37494 
  -37467   -37412   -37334   -37250   -37183   -37162   -37196   -37261 
  -37332   -37389   -37404   -37373   -37305   -37231   -37189   -37206 
  -37280   -37396   -37519   -37617   -37671   -37675   -37635   -37569 
  -37498   -37450   -37431   -37449   -37490   -37532   -37557   -37548 
  -37498   -37419   -37332   -37249   -37187   -37147   -37129   -37127 
  -37154   -37210   -37281   -37353   -37413   -37450   -37459   -37444 
  -37411   -37373   -37347   -37335   -37335   -37349   -37361   -37355 
  -37334   -37305   -37285   -37293   -37335   -37407   -37504   -37604 
  -37686   -37744   -37760   -37725   -37642   -37528   -37403   -37289 
  -37212   -37183   -37203   -37257   -37319   -37370   -37404   -37412 
  -37393   -37346   -37281   -37215   -37162   -37147   -37185   -37265 
  -37363   -37457   -37517   -37535   -37512   -37455   -37376   -37285 
  -37195   -37111   -37046   -37008   -37008   -37056   -37142   -37245 
  -37336   -37405   -37439   -37434   -37412   -37401   -37403   -37423 
  -37459   -37494   -37517   -37527   -37521   -37507   -37500   -37505 
  -37521   -37554   -37593   -37613   -37602   -37554   -37474   -37392 
  -37338   -37326   -37361   -37413   -37446   -37432   -37366   -37274 
  -37197   -37165   -37192   -37268   -37358   -37420   -37439   -37417 
  -37366   -37311   -37268   -37243   -37237   -37226   -37206   -37188 
  -37185   -37196   -37233   -37303   -37389   -37466   -37519   -37534 
  -37513   -37470   -37417   -37376   -37346   -37322   -37308   -37299 
  -37284   -37270   -37262   -37273   -37312   -37370   -37431   -37478 
  -37493   -37476   -37440   -37413   -37417   -37454   -37507   -37559 
  -37589   -37582   -37548   -37509   -37488   -37497   -37530   -37559 
  -37561   -37521   -37447   -37357   -37276   -37226   -37206   -37210 
  -37230   -37250   -37262   -37273   -37284   -37299   -37322   -37353 
  -37380   -37390   -37378   -37341   -37281   -37216   -37170   -37164 
  -37203   -37284   -37382   -37461   -37500   -37496   -37461   -37413 
  -37378   -37368   -37369   -37363   -37347   -37318   -37284   -37269 
  -37284   -37327   -37390   -37450   -37476   -37458   -37405   -37332 
  -37251   -37185   -37146   -37142   -37176   -37239   -37316   -37399 
  -37471   -37519   -37543   -37554   -37551   -37548   -37555   -37566 
  -37566   -37550   -37520   -37474   -37416   -37354   -37296   -37255 
  -37241   -37247   -37272   -37309   -37353   -37384   -37393   -37376 
  -37335   -37293   -37265   -37260   -37274   -37305   -37343   -37373 
  -37393   -37405   -37408   -37397   -37368   -37330   -37289   -37255 
  -37234   -37234   -37262   -37314   -37372   -37422   -37454   -37473 
  -37484   -37486   -37493   -37504   -37513   -37511   -37489   -37450 
  -37396   -37336   -37288   -37257   -37245   -37242   -37242   -37246 
  -37255   -37276   -37304   -37341   -37388   -37443   -37486   -37509 
  -37508   -37473   -37417   -37361   -37323   -37323   -37361   -37426 
  -37492   -37534   -37546   -37525   -37474   -37417   -37372   -37339 
  -37315   -37303   -37300   -37308   -37328   -37357   -37386   -37413 
  -37430   -37427   -37409   -37385   -37355   -37335   -37338   -37366 
  -37413   -37469   -37515   -37538   -37531   -37492   -37428   -37363 
  -37309   -37268   -37242   -37231   -37226   -37230   -37247   -37278 
  -37327   -37395   -37470   -37543   -37602   -37632   -37631   -37608 
  -37563   -37515   -37470   -37428   -37389   -37358   -37330   -37304 
  -37284   -37276   -37281   -37289   -37293   -37292   -37287   -37278 
  -37268   -37265   -37272   -37288   -37312   -37335   -37353   -37361 
  -37365   -37374   -37386   -37395   -37389   -37359   -37314   -37261 
  -37211   -37177   -37160   -37160   -37176   -37196   -37223   -37264 
  -37311   -37359   -37407   -37439   -37451   -37444   -37424   -37399 
  -37378   -37374   -37386   -37405   -37426   -37440   -37443   -37436 
  -37427   -37420   -37419   -37427   -37444   -37467   -37488   -37507 
  -37511   -37494   -37471   -37446   -37422   -37404   -37396   -37393 
  -37390   -37378   -37361   -37341   -37332   -37342   -37359   -37378 
  -37389   -37378   -37347   -37318   -37303   -37304   -37326   -37362 
  -37390   -37400   -37385   -37354   -37323   -37312   -37327   -37365 
  -37412   -37449   -37467   -37465   -37447   -37430   -37432   -37461 
  -37513   -37582   -37646   -37674   -37648   -37571   -37461   -37339 
  -37241   -37191   -37196   -37241   -37305   -37366   -37399   -37393 
  -37361   -37319   -37282   -37255   -37243   -37251   -37269   -37287 
  -37308   -37338   -37366   -37381   -37378   -37354   -37318   -37291 
  -37285   -37305   -37349   -37399   -37442   -37470   -37474   -37450 
  -37416   -37380   -37346   -37330   -37332   -37342   -37358   -37372 
  -37363   -37334   -37284   -37226   -37184   -37173   -37193   -37241 
  -37300   -37346   -37370   -37372   -37353   -37326   -37300   -37281 
  -37273   -37270   -37266   -37266   -37273   -37287   -37308   -37341 
  -37378   -37428   -37485   -37544   -37608   -37656   -37681   -37685 
  -37677   -37658   -37631   -37594   -37540   -37467   -37381   -37293 
  -37215   -37154   -37122   -37119   -37138   -37166   -37201   -37242 
  -37280   -37312   -37336   -37349   -37351   -37351   -37347   -37349 
  -37369   -37408   -37457   -37509   -37561   -37596   -37605   -37597 
  -37582   -37569   -37565   -37578   -37608   -37646   -37687   -37724 
  -37739   -37717   -37659   -37575   -37488   -37419   -37373   -37339 
  -37314   -37278   -37228   -37174   -37126   -37096   -37093   -37111 
  -37139   -37164   -37165   -37147   -37120   -37091   -37075   -37080 
  -37107   -37157   -37215   -37272   -37323   -37362   -37384   -37377 
  -37341   -37281   -37219   -37168   -37141   -37147   -37192   -37268 
  -37359   -37447   -37515   -37550   -37557   -37543   -37519   -37485 
  -37458   -37447   -37439   -37426   -37413   -37411   -37420   -37440 
  -37469   -37497   -37511   -37503   -37471   -37430   -37388   -37358 
  -37346   -37350   -37354   -37350   -37335   -37305   -37273   -37254 
  -37260   -37291   -37343   -37396   -37424   -37419   -37386   -37335 
  -37288   -37268   -37276   -37316   -37382   -37455   -37516   -37552 
  -37561   -37535   -37488   -37440   -37407   -37395   -37407   -37432 
  -37458   -37466   -37450   -37404   -37339   -37270   -37208   -37169 
  -37166   -37199   -37255   -37331   -37416   -37488   -37531   -37542 
  -37525   -37496   -37471   -37465   -37481   -37513   -37550   -37581 
  -37588   -37561   -37508   -37435   -37351   -37266   -37199   -37160 
  -37152   -37173   -37208   -37238   -37262   -37280   -37287   -37295 
  -37312   -37335   -37353   -37358   -37345   -37318   -37287   -37265 
  -37265   -37284   -37309   -37339   -37366   -37386   -37405   -37427 
  -37449   -37469   -37485   -37496   -37511   -37528   -37546   -37567 
  -37592   -37616   -37639   -37656   -37663   -37654   -37620   -37551 
  -37454   -37347   -37254   -37203   -37204   -37250   -37320   -37388 
  -37422   -37424   -37405   -37373   -37342   -37326   -37318   -37316 
  -37314   -37301   -37287   -37273   -37269   -37281   -37303   -37330 
  -37361   -37385   -37395   -37392   -37386   -37378   -37376   -37382 
  -37393   -37404   -37411   -37411   -37407   -37389   -37362   -37339 
  -37324   -37311   -37297   -37288   -37278   -37274   -37277   -37289 
  -37308   -37324   -37330   -37322   -37299   -37276   -37265   -37276 
  -37311   -37358   -37397   -37412   -37403   -37372   -37330   -37293 
  -37270   -37273   -37297   -37335   -37378   -37413   -37431   -37430 
  -37417   -37405   -37401   -37407   -37420   -37436   -37454   -37466 
  -37469   -37470   -37474   -37476   -37477   -37469   -37442   -37396 
  -37345   -37300   -37280   -37297   -37346   -37411   -37474   -37512 
  -37509   -37473   -37413   -37347   -37297   -37273   -37266   -37270 
  -37280   -37289   -37300   -37316   -37338   -37361   -37378   -37386 
  -37382   -37368   -37355   -37350   -37357   -37386   -37427   -37466 
  -37501   -37524   -37521   -37494   -37446   -37388   -37332   -37280 
  -37242   -37216   -37193   -37177   -37173   -37174   -37191   -37216 
  -37246   -37281   -37315   -37339   -37354   -37359   -37365   -37372 
  -37382   -37400   -37413   -37413   -37404   -37392   -37378   -37368 
  -37366   -37374   -37386   -37401   -37416   -37432   -37447   -37462 
  -37469   -37463   -37453   -37434   -37417   -37419   -37431   -37439 
  -37439   -37430   -37413   -37396   -37382   -37381   -37390   -37400 
  -37409   -37419   -37416   -37411   -37408   -37407   -37419   -37444 
  -37473   -37500   -37520   -37523   -37503   -37462   -37408   -37346 
  -37281   -37224   -37192   -37184   -37200   -37228   -37255   -37274 
  -37282   -37287   -37296   -37314   -37343   -37384   -37423   -37453 
  -37470   -37474   -37462   -37436   -37404   -37373   -37346   -37323 
  -37311   -37305   -37299   -37291   -37280   -37272   -37265   -37266 
  -37288   -37331   -37386   -37446   -37497   -37535   -37550   -37547 
  -37539   -37524   -37508   -37500   -37492   -37488   -37492   -37492 
  -37482   -37459   -37423   -37380   -37343   -37320   -37318   -37334 
  -37358   -37385   -37403   -37401   -37385   -37362   -37332   -37301 
  -37268   -37231   -37195   -37165   -37146   -37133   -37126   -37138 
  -37161   -37192   -37233   -37274   -37311   -37328   -37328   -37309 
  -37277   -37246   -37228   -37224   -37238   -37273   -37322   -37373 
  -37419   -37450   -37467   -37470   -37465   -37455   -37454   -37463 
  -37482   -37511   -37538   -37554   -37561   -37552   -37527   -37493 
  -37459   -37428   -37404   -37385   -37372   -37368   -37368   -37365 
  -37365   -37365   -37358   -37346   -37334   -37323   -37315   -37308 
  -37305   -37314   -37323   -37324   -37319   -37315   -37309   -37301 
  -37305   -37319   -37342   -37373   -37401   -37424   -37446   -37465 
  -37484   -37507   -37534   -37569   -37602   -37624   -37629   -37611 
  -37569   -37519   -37474   -37439   -37423   -37428   -37434   -37432 
  -37427   -37416   -37405   -37405   -37415   -37428   -37443   -37458 
  -37458   -37443   -37416   -37382   -37349   -37324   -37312   -37308 
  -37304   -37299   -37291   -37278   -37268   -37266   -37276   -37291 
  -37307   -37319   -37332   -37343   -37357   -37378   -37405   -37424 
  -37431   -37426   -37407   -37376   -37351   -37338   -37328   -37326 
  -37323   -37311   -37300   -37288   -37274   -37277   -37296   -37324 
  -37358   -37385   -37401   -37403   -37389   -37370   -37357   -37350 
  -37350   -37355   -37353   -37346   -37345   -37349   -37359   -37381 
  -37405   -37426   -37435   -37434   -37426   -37417   -37411   -37416 
  -37428   -37434   -37428   -37409   -37376   -37336   -37299   -37266 
  -37242   -37228   -37220   -37216   -37214   -37212   -37220   -37241 
  -37277   -37324   -37362   -37384   -37389   -37380   -37361   -37349 
  -37351   -37376   -37409   -37442   -37457   -37446   -37411   -37365 
  -37330   -37312   -37319   -37345   -37377   -37401   -37407   -37396 
  -37384   -37373   -37363   -37359   -37359   -37354   -37342   -37323 
  -37299   -37274   -37262   -37264   -37278   -37305   -37338   -37363 
