Origin Time       2025/06/03 22:18:00
Lat.              41.7
Long.             143.6
Depth. (km)       30
Mag.              5.2
Station Code      KKWH08
Station Lat.      43.0406
Station Long.     142.6562
Station Height(m) 469
Record Time       2025/06/03 22:19:17
Sampling Freq(Hz) 100Hz
Duration Time(s)  120
Dir.              2
Scale Factor      2942(gal)/8224139
Max. Acc. (gal)   0.186
Last Correction   2025/06/03 22:19:17
Memo.             
[...]
   27557    27572    27560    27550    27557    27556    27541    27518 
   27484    27446    27407    27373    27353    27337    27329    27333 
   27342    27364    27395    27409    27409    27421    27433    27438 
   27452    27465    27467    27469    27483    27496    27503    27503 
   27511    27527    27541    27550    27560    27568    27575    27587 
   27608    27621    27627    27638    27633    27606    27591    27594 
   27589    27583    27575    27561    27533    27490    27454    27453 
   27463    27464    27477    27500    27513    27519    27533    27540 
   27521    27506    27508    27511    27506    27496    27490    27487 
   27477    27459    27454    27450    27427    27417    27429    27437 
   27433    27433    27434    27430    27426    27434    27442    27450 
   27457    27457    27446    27432    27425    27434    27457    27472 
   27476    27481    27480    27473    27471    27467    27459    27450 
   27436    27417    27415    27421    27421    27427    27442    27448 
   27438    27419    27413    27417    27413    27411    27419    27423 
   27415    27406    27413    27423    27422    27425    27444    27469 
   27488    27490    27487    27491    27494    27491    27488    27490 
   27499    27523    27553    27568    27560    27540    27515    27498 
   27494    27491    27486    27484    27480    27480    27488    27492 
   27498    27506    27513    27514    27517    27531    27549    27558 
   27569    27575    27564    27548    27541    27552    27569    27579 
   27591    27607    27612    27603    27598    27596    27589    27584 
   27583    27579    27573    27562    27545    27538    27529    27510 
   27508    27527    27529    27517    27508    27498    27484    27475 
   27464    27454    27456    27471    27487    27487    27471    27450 
   27434    27433    27440    27441    27442    27452    27461    27471 
   27487    27496    27492    27483    27483    27496    27510    27519 
   27523    27515    27496    27479    27467    27469    27483    27496 
   27503    27499    27499    27514    27525    27523    27523    27525 
   27521    27519    27513    27492    27480    27473    27463    27456 
   27452    27452    27464    27480    27487    27488    27495    27513 
   27525    27515    27502    27492    27471    27464    27481    27484 
   27473    27472    27471    27465    27456    27459    27473    27475 
   27467    27475    27498    27518    27522    27510    27495    27472 
   27441    27417    27399    27390    27387    27396    27418    27448 
   27473    27481    27480    27494    27514    27531    27548    27558 
   27560    27565    27575    27573    27567    27571    27565    27546 
   27545    27558    27565    27567    27575    27583    27571    27549 
   27554    27575    27577    27573    27575    27577    27576    27568 
   27564    27565    27556    27533    27519    27517    27504    27480 
   27465    27453    27426    27406    27406    27403    27392    27400 
   27421    27436    27452    27469    27476    27483    27488    27483 
   27479    27483    27481    27480    27476    27452    27414    27373 
   27342    27336    27345    27355    27369    27396    27426    27454 
   27488    27525    27546    27553    27572    27604    27622    27622 
   27615    27610    27603    27596    27589    27558    27508    27477 
   27464    27446    27440    27444    27452    27454    27442    27427 
   27440    27475    27502    27517    27533    27544    27533    27503 
   27479    27480    27503    27548    27596    27612    27611    27602 
   27568    27530    27508    27487    27461    27465    27502    27538 
   27561    27581    27604    27606    27576    27531    27487    27450 
   27427    27414    27396    27372    27357    27355    27353    27363 
   27387    27413    27440    27473    27503    27540    27580    27599 
   27602    27602    27589    27569    27548    27530    27515    27494 
   27463    27426    27384    27345    27330    27337    27334    27325 
   27336    27359    27380    27413    27460    27491    27511    27549 
   27587    27604    27621    27635    27635    27642    27658    27649 
   27616    27589    27576    27553    27521    27502    27502    27502 
   27498    27491    27481    27479    27479    27459    27433    27421 
   27418    27437    27487    27561    27614    27612    27594    27576 
   27545    27527    27529    27508    27491    27503    27513    27508 
   27513    27515    27514    27531    27552    27556    27554    27546 
   27525    27484    27426    27372    27333    27309    27307    27307 
   27292    27292    27324    27368    27411    27456    27503    27540 
   27561    27568    27556    27519    27475    27445    27445    27471 
   27490    27488    27491    27500    27499    27494    27499    27500 
   27488    27473    27454    27430    27425    27441    27452    27446 
   27448    27446    27433    27417    27399    27386    27387    27410 
   27445    27491    27552    27603    27618    27611    27589    27558 
   27548    27558    27558    27542    27526    27518    27523    27540 
   27549    27554    27571    27581    27577    27583    27595    27602 
   27611    27614    27602    27598    27596    27575    27540    27500 
   27467    27450    27453    27452    27440    27438    27446    27452 
   27461    27475    27475    27461    27442    27438    27457    27473 
   27465    27437    27411    27390    27364    27349    27356    27367 
   27367    27364    27371    27395    27432    27477    27523    27542 
   27531    27523    27527    27525    27510    27502    27525    27569 
   27598    27608    27634    27654    27639    27603    27556    27494 
   27444    27433    27442    27448    27454    27473    27487    27475 
   27430    27363    27299    27280    27317    27375    27421    27449 
   27473    27514    27569    27608    27626    27642    27653    27645 
   27627    27599    27548    27500    27488    27488    27467    27449 
   27480    27530    27549    27562    27589    27612    27635    27646 
   27638    27637    27646    27641    27637    27643    27646    27633 
   27599    27550    27519    27511    27506    27511    27531    27531 
   27506    27476    27445    27411    27383    27364    27344    27311 
   27278    27256    27261    27310    27387    27468    27535    27580 
   27594    27580    27552    27518    27491    27475    27454    27446 
   27464    27477    27463    27433    27392    27348    27341    27364 
   27375    27375    27402    27449    27480    27500    27517    27510 
   27495    27486    27480    27476    27472    27467    27461    27457 
   27465    27483    27488    27468    27440    27425    27425    27438 
   27471    27507    27517    27500    27499    27523    27525    27496 
   27486    27484    27457    27417    27379    27353    27360    27396 
   27427    27438    27448    27453    27438    27415    27405    27391 
   27371    27375    27425    27491    27537    27561    27584    27608 
   27622    27622    27611    27611    27623    27615    27577    27556 
   27585    27656    27719    27742    27734    27716    27695    27662 
   27631    27614    27599    27595    27604    27594    27552    27503 
   27476    27484    27500    27515    27534    27554    27571    27583 
   27584    27581    27575    27573    27565    27527    27472    27437 
   27413    27384    27376    27388    27400    27406    27419    27434 
   27438    27450    27469    27463    27440    27437    27445    27449 
   27472    27506    27500    27463    27445    27448    27442    27421 
   27395    27386    27395    27415    27441    27461    27479    27500 
   27517    27506    27477    27469    27481    27492    27518    27564 
   27584    27560    27513    27476    27456    27432    27417    27436 
   27441    27429    27453    27495    27506    27499    27488    27476 
   27472    27471    27476    27499    27521    27525    27522    27525 
   27522    27510    27510    27522    27513    27487    27461    27415 
   27346    27295    27283    27297    27322    27371    27418    27449 
   27496    27552    27577    27577    27568    27549    27514    27486 
   27480    27477    27475    27477    27475    27459    27423    27382 
   27371    27388    27399    27411    27449    27503    27541    27571 
   27615    27650    27660    27656    27654    27661    27660    27639 
   27616    27607    27594    27568    27530    27481    27442    27434 
   27446    27452    27459    27473    27475    27453    27442    27453 
   27464    27461    27450    27449    27461    27472    27476    27495 
   27527    27552    27573    27603    27627    27643    27653    27645 
   27629    27622    27614    27589    27552    27521    27525    27541 
   27537    27530    27519    27491    27463    27457    27459    27446 
   27418    27388    27365    27353    27349    27349    27352    27356 
   27360    27353    27344    27359    27384    27406    27450    27510 
   27562    27615    27654    27673    27689    27704    27706    27689 
   27660    27635    27615    27585    27568    27584    27621    27653 
   27672    27666    27639    27607    27589    27568    27526    27486 
   27456    27415    27367    27336    27322    27322    27344    27365 
   27371    27361    27342    27329    27345    27364    27345    27311 
   27286    27256    27238    27257    27287    27301    27305    27311 
   27325    27336    27349    27382    27432    27488    27560    27641 
   27707    27758    27797    27822    27841    27846    27822    27777 
   27714    27650    27607    27556    27483    27430    27415    27407 
   27375    27351    27364    27392    27432    27492    27556    27614 
   27661    27679    27669    27650    27627    27599    27571    27533 
   27490    27461    27440    27427    27437    27459    27476    27486 
   27487    27492    27499    27492    27472    27459    27445    27415 
   27384    27351    27309    27264    27221    27197    27193    27187 
   27176    27184    27198    27194    27198    27216    27222    27232 
   27255    27263    27244    27226    27229    27243    27251    27252 
   27264    27294    27321    27348    27387    27434    27487    27549 
   27614    27677    27743    27808    27853    27872    27881    27896 
   27901    27891    27877    27870    27862    27851    27843    27838 
   27824    27811    27819    27851    27870    27854    27831    27823 
   27811    27788    27776    27765    27735    27697    27681    27675 
   27656    27637    27643    27662    27656    27626    27595    27558 
   27521    27487    27453    27410    27361    27336    27332    27330 
   27326    27318    27306    27297    27284    27272    27260    27232 
   27186    27143    27116    27099    27086    27090    27109    27124 
   27151    27186    27194    27178    27153    27125    27114    27113 
   27114    27143    27198    27257    27319    27387    27456    27517 
   27567    27614    27649    27688    27756    27822    27851    27857 
   27859    27853    27828    27814    27811    27788    27754    27745 
   27742    27722    27696    27684    27669    27642    27608    27584 
   27569    27546    27526    27514    27496    27472    27449    27433 
   27436    27446    27448    27449    27464    27488    27511    27519 
   27502    27487    27498    27510    27502    27492    27492    27484 
   27465    27441    27409    27378    27352    27328    27302    27294 
   27302    27305    27283    27264    27268    27280    27297    27328 
   27356    27363    27359    27364    27383    27403    27423    27457 
   27508    27565    27621    27668    27692    27696    27692    27683 
   27662    27637    27610    27588    27584    27604    27643    27673 
   27684    27699    27724    27730    27714    27697    27688    27668 
   27641    27621    27596    27584    27594    27599    27589    27596 
   27616    27625    27625    27621    27603    27579    27568    27567 
   27556    27523    27480    27450    27432    27415    27400    27394 
   27405    27432    27460    27477    27484    27488    27483    27467 
   27472    27483    27471    27465    27475    27459    27421    27405 
   27415    27425    27406    27379    27379    27407    27441    27460 
   27459    27456    27467    27491    27518    27521    27503    27484 
   27460    27444    27456    27472    27463    27442    27433    27430 
   27421    27395    27364    27360    27382    27399    27406    27414 
   27425    27427    27415    27407    27406    27402    27414    27445 
   27467    27476    27508    27561    27595    27606    27615    27623 
   27626    27630    27621    27592    27572    27556    27527    27490 
   27454    27422    27398    27387    27380    27371    27359    27352 
   27348    27334    27317    27299    27288    27282    27268    27259 
   27264    27276    27291    27299    27299    27305    27319    27328 
   27332    27345    27359    27378    27406    27434    27461    27487 
   27507    27538    27594    27648    27695    27739    27765    27765 
   27765    27773    27776    27766    27745    27735    27751    27774 
   27793    27810    27814    27814    27823    27831    27842    27855 
   27861    27857    27849    27828    27795    27753    27715    27679 
   27637    27592    27556    27529    27504    27488    27471    27450 
   27440    27448    27461    27471    27483    27492    27487    27472 
   27464    27454    27426    27384    27338    27286    27228    27178 
   27144    27121    27094    27078    27072    27045    27009    26993 
   26982    26973    26979    26993    26991    26978    26979    27006 
   27043    27078    27132    27205    27275    27337    27410    27495 
   27573    27639    27703    27756    27783    27787    27778    27766 
   27760    27762    27772    27766    27746    27735    27729    27710 
   27673    27623    27573    27523    27486    27476    27465    27442 
   27426    27415    27400    27391    27402    27432    27473    27503 
   27511    27529    27572    27622    27654    27670    27685    27706 
   27727    27734    27727    27733    27757    27773    27765    27747 
   27738    27727    27706    27684    27660    27622    27581    27540 
   27498    27456    27422    27396    27367    27337    27324    27313 
   27295    27283    27275    27267    27271    27283    27307    27348 
   27383    27402    27422    27446    27472    27491    27504    27519 
   27521    27507    27508    27521    27522    27522    27522    27515 
   27515    27518    27522    27545    27572    27584    27595    27608 
   27607    27602    27606    27618    27627    27633    27634    27641 
   27646    27643    27637    27630    27629    27638    27654    27675 
   27687    27684    27677    27666    27642    27610    27579    27550 
   27517    27486    27465    27442    27399    27356    27322    27292 
   27276    27282    27298    27319    27351    27390    27430    27471 
   27504    27530    27550    27565    27569    27581    27596    27579 
   27541    27511    27488    27460    27430    27409    27394    27378 
   27364    27352    27341    27328    27317    27309    27307    27299 
   27276    27270    27286    27284    27265    27267    27283    27282 
   27265    27264    27274    27282    27291    27302    27305    27298 
   27299    27298    27288    27286    27294    27309    27345    27391 
   27429    27464    27494    27510    27518    27525    27535    27546 
   27554    27561    27565    27575    27598    27615    27626    27634 
   27630    27616    27619    27634    27648    27656    27662    27670 
   27680    27684    27689    27714    27739    27749    27756    27769 
   27784    27801    27826    27843    27847    27847    27847    27843 
   27828    27796    27750    27710    27677    27643    27608    27577 
   27549    27533    27527    27527    27535    27537    27526    27514 
   27502    27481    27460    27436    27411    27395    27388    27386 
   27394    27410    27430    27464    27510    27548    27568    27583 
   27591    27584    27565    27541    27510    27483    27471    27452 
   27415    27383    27349    27307    27261    27220    27184    27152 
   27118    27097    27094    27093    27094    27110    27139    27171 
   27216    27263    27309    27367    27423    27456    27477    27498 
   27514    27533    27556    27581    27603    27611    27626    27637 
   27623    27598    27587    27583    27573    27562    27553    27545 
   27542    27541    27535    27535    27541    27545    27546    27545 
   27538    27538    27552    27558    27554    27552    27552    27554 
   27553    27550    27557    27561    27550    27538    27533    27529 
   27517    27498    27486    27480    27467    27448    27425    27396 
   27375    27364    27357    27353    27355    27360    27367    27372 
   27383    27398    27407    27413    27427    27450    27477    27506 
   27526    27534    27534    27522    27495    27468    27459    27452 
   27438    27422    27406    27391    27386    27382    27380    27391 
   27407    27407    27399    27394    27390    27391    27395    27405 
   27432    27460    27480    27502    27526    27565    27630    27692 
   27733    27768    27799    27827    27862    27889    27896    27891 
   27885    27876    27858    27834    27801    27773    27753    27733 
   27710    27680    27649    27619    27591    27576    27581    27584 
   27571    27554    27537    27508    27483    27479    27468    27429 
   27386    27360    27344    27330    27309    27283    27268    27259 
   27251    27245    27234    27222    27217    27214    27213    27221 
   27233    27248    27268    27291    27311    27328    27348    27363 
   27372    27378    27378    27373    27376    27378    27384    27403 
   27426    27452    27491    27525    27549    27580    27608    27618 
   27622    27622    27610    27591    27580    27577    27573    27567 
   27560    27560    27576    27596    27607    27627    27654    27660 
   27649    27638    27625    27600    27575    27550    27527    27504 
   27495    27495    27477    27446    27426    27417    27400    27368 
   27326    27295    27290    27302    27309    27310    27315    27322 
   27336    27355    27372    27400    27432    27454    27467    27471 
   27473    27483    27503    27521    27527    27544    27573    27595 
   27604    27619    27637    27634    27611    27592    27571    27537 
   27500    27476    27461    27453    27446    27446    27453    27463 
   27469    27473    27481    27492    27507    27519    27526    27525 
   27518    27517    27523    27519    27510    27534    27575    27588 
   27587    27600    27622    27631    27622    27604    27598    27599 
   27604    27607    27592    27567    27549    27541    27535    27533 
   27527    27504    27473    27446    27423    27400    27380    27367 
   27356    27349    27351    27352    27346    27342    27356    27382 
   27400    27415    27432    27445    27464    27495    27525    27537 
   27549    27564    27568    27565    27567    27575    27579    27577 
   27583    27587    27584    27573    27556    27545    27553    27562 
   27561    27561    27569    27571    27567    27561    27546    27526 
   27510    27492    27479    27475    27464    27453    27452    27441 
   27415    27400    27402    27406    27410    27411    27403    27388 
   27375    27355    27336    27332    27340    27345    27338    27326 
