Origin Time       2025/06/03 22:18:00
Lat.              41.7
Long.             143.6
Depth. (km)       30
Mag.              5.2
Station Code      KKWH14
Station Lat.      43.3841
Station Long.     142.5245
Station Height(m) 239
Record Time       2025/06/03 22:19:33
Sampling Freq(Hz) 100Hz
Duration Time(s)  120
Dir.              2
Scale Factor      2942(gal)/8224139
Max. Acc. (gal)   0.170
Last Correction   2025/06/03 22:19:34
Memo.             
[...]
  157939   157932   157931   157933   157939   157951   157970   157989 
  158004   158020   158029   158035   158041   158040   158033   158028 
  158033   158043   158049   158049   158045   158039   158029   158022 
  158014   158002   157993   157983   157972   157967   157968   157974 
  157979   157982   157981   157982   157991   157999   158005   158009 
  158009   158004   157998   157997   157998   157999   158001   158001 
  157999   158001   158005   158008   158013   158022   158032   158037 
  158037   158036   158039   158040   158035   158032   158031   158031 
  158033   158036   158035   158031   158025   158024   158025   158026 
  158024   158020   158016   158018   158028   158037   158047   158049 
  158043   158032   158020   158006   157994   157985   157978   157977 
  157986   158001   158013   158022   158031   158041   158047   158045 
  158045   158045   158041   158039   158037   158035   158035   158035 
  158033   158029   158025   158021   158016   158010   158005   157998 
  157994   157989   157986   157989   157998   158009   158021   158032 
  158040   158043   158039   158035   158033   158033   158036   158037 
  158036   158031   158025   158020   158012   157997   157983   157966 
  157947   157931   157916   157908   157905   157904   157912   157932 
  157947   157952   157954   157954   157958   157974   157997   158017 
  158035   158048   158062   158075   158085   158098   158106   158107 
  158105   158101   158091   158087   158086   158078   158063   158052 
  158047   158041   158036   158033   158039   158049   158067   158086 
  158106   158118   158117   158110   158102   158099   158103   158112 
  158124   158133   158140   158143   158136   158120   158099   158075 
  158051   158031   158008   157983   157955   157923   157893   157873 
  157863   157870   157896   157933   157979   158022   158055   158074 
  158078   158070   158049   158032   158024   158026   158033   158039 
  158032   158010   157978   157945   157921   157905   157891   157883 
  157881   157887   157908   157933   157956   157981   158002   158016 
  158018   158013   158005   157990   157971   157962   157960   157964 
  157974   157987   157998   158008   158018   158026   158025   158010 
  157985   157950   157910   157878   157856   157847   157844   157846 
  157851   157867   157891   157913   157928   157935   157941   157963 
  157995   158033   158064   158089   158107   158116   158110   158098 
  158080   158060   158044   158033   158029   158032   158040   158043 
  158041   158043   158045   158047   158041   158032   158025   158022 
  158024   158024   158020   158013   158013   158018   158033   158056 
  158089   158122   158151   158174   158186   158180   158164   158145 
  158129   158110   158093   158083   158076   158066   158062   158064 
  158072   158089   158105   158112   158112   158113   158113   158106 
  158091   158075   158066   158067   158075   158087   158101   158102 
  158082   158044   157998   157954   157917   157890   157870   157858 
  157851   157850   157854   157860   157866   157870   157869   157867 
  157878   157902   157937   157975   158009   158037   158056   158071 
  158086   158093   158089   158074   158049   158020   157987   157960 
  157941   157924   157905   157896   157890   157886   157891   157910 
  157928   157944   157958   157972   157999   158039   158080   158116 
  158139   158143   158133   158113   158091   158074   158067   158066 
  158063   158055   158043   158021   157987   157952   157925   157905 
  157890   157887   157893   157908   157935   157968   158002   158035 
  158060   158082   158098   158110   158117   158114   158103   158091 
  158089   158093   158095   158089   158080   158068   158056   158053 
  158066   158082   158101   158118   158121   158105   158074   158028 
  157977   157933   157900   157881   157879   157890   157905   157921 
  157940   157954   157960   157964   157967   157972   157978   157985 
  157990   157991   157983   157974   157974   157986   158005   158024 
  158040   158051   158056   158053   158043   158029   158016   157999 
  157987   157982   157982   157991   158009   158026   158036   158033 
  158022   158006   157989   157971   157955   157940   157933   157939 
  157945   157955   157968   157981   157989   157995   158005   158014 
  158026   158041   158048   158045   158036   158020   158008   158004 
  158009   158025   158049   158078   158099   158106   158098   158078 
  158049   158020   157995   157979   157966   157959   157954   157945 
  157939   157939   157932   157924   157928   157937   157956   157983 
  158004   158016   158022   158029   158041   158062   158087   158112 
  158129   158140   158147   158152   158152   158144   158125   158101 
  158074   158052   158037   158021   157999   157977   157959   157950 
  157948   157955   157963   157968   157971   157970   157962   157947 
  157937   157940   157948   157959   157971   157981   157985   157979 
  157971   157967   157962   157955   157950   157940   157928   157920 
  157916   157916   157928   157950   157974   158004   158035   158062 
  158074   158072   158068   158070   158082   158099   158117   158130 
  158130   158121   158107   158090   158074   158063   158059   158064 
  158074   158076   158068   158052   158026   157999   157977   157959 
  157944   157929   157916   157910   157914   157928   157943   157960 
  157975   157987   157993   157994   158001   158012   158026   158041 
  158062   158075   158079   158082   158085   158083   158079   158071 
  158056   158036   158020   158009   158001   157995   157998   158008 
  158021   158039   158055   158064   158066   158063   158058   158055 
  158058   158064   158072   158083   158087   158087   158083   158062 
  158020   157967   157908   157854   157813   157779   157755   157752 
  157766   157789   157821   157856   157890   157928   157970   158009 
  158048   158091   158132   158171   158209   158240   158265   158282 
  158279   158255   158215   158172   158134   158110   158107   158113 
  158112   158099   158074   158040   158006   157968   157928   157891 
  157859   157828   157802   157783   157774   157775   157792   157823 
  157862   157902   157935   157959   157977   157985   157983   157974 
  157955   157935   157918   157906   157900   157896   157898   157910 
  157924   157935   157945   157955   157956   157958   157967   157977 
  157987   158001   158016   158036   158060   158086   158110   158129 
  158143   158151   158152   158144   158125   158098   158066   158033 
  158002   157975   157955   157947   157952   157971   157989   158005 
  158024   158040   158052   158071   158093   158110   158126   158143 
  158155   158164   158176   158193   158206   158211   158210   158201 
  158182   158153   158113   158076   158048   158016   157986   157968 
  157950   157925   157900   157877   157862   157859   157869   157897 
  157940   157991   158043   158087   158120   158139   158151   158157 
  158157   158152   158147   158147   158159   158175   158184   158183 
  158172   158152   158125   158095   158066   158041   158024   158004 
  157981   157955   157927   157894   157862   157837   157815   157793 
  157782   157778   157775   157777   157790   157810   157835   157858 
  157878   157886   157885   157883   157877   157867   157871   157886 
  157909   157941   157974   157999   158022   158041   158052   158058 
  158063   158068   158072   158074   158068   158055   158036   158010 
  157986   157974   157970   157966   157960   157954   157944   157931 
  157914   157901   157893   157893   157908   157935   157968   158010 
  158053   158086   158112   158143   158175   158206   158233   158253 
  158257   158255   158255   158252   158241   158232   158224   158211 
  158203   158201   158191   158179   158168   158155   158143   158130 
  158121   158117   158117   158114   158106   158089   158066   158043 
  158016   157983   157955   157925   157897   157875   157858   157846 
  157842   157843   157846   157847   157850   157852   157847   157832 
  157819   157812   157813   157817   157825   157835   157847   157867 
  157891   157920   157952   157989   158026   158062   158090   158109 
  158116   158112   158098   158080   158062   158036   158005   157971 
  157941   157917   157898   157886   157885   157879   157871   157867 
  157859   157846   157836   157836   157844   157859   157878   157904 
  157927   157948   157964   157982   158004   158031   158063   158095 
  158124   158145   158159   158167   158164   158159   158161   158168 
  158178   158184   158179   158166   158144   158114   158083   158052 
  158020   157998   157994   157995   158004   158020   158040   158064 
  158090   158118   158145   158168   158182   158190   158191   158184 
  158174   158159   158141   158121   158103   158085   158074   158078 
  158091   158107   158121   158121   158110   158090   158058   158018 
  157979   157939   157906   157887   157878   157877   157885   157898 
  157910   157925   157940   157956   157970   157981   157990   158002 
  158016   158029   158033   158032   158026   158021   158024   158031 
  158035   158036   158033   158028   158021   158010   157994   157972 
  157950   157928   157905   157883   157869   157860   157850   157839 
  157832   157831   157829   157829   157837   157848   157860   157874 
  157883   157889   157900   157909   157917   157935   157956   157974 
  157997   158013   158024   158035   158041   158040   158035   158026 
  158020   158017   158013   158009   158008   158012   158018   158028 
  158040   158049   158055   158055   158055   158058   158063   158067 
  158068   158070   158074   158082   158093   158101   158102   158098 
  158094   158087   158082   158086   158098   158113   158129   158145 
  158163   158175   158183   158180   158161   158136   158114   158094 
  158076   158063   158048   158036   158026   158018   158016   158020 
  158024   158026   158032   158040   158045   158053   158062   158072 
  158079   158086   158091   158097   158099   158103   158103   158101 
  158090   158066   158033   157999   157963   157929   157898   157867 
  157842   157821   157809   157800   157794   157800   157812   157821 
  157831   157850   157879   157917   157962   158006   158056   158107 
  158148   158175   158193   158197   158184   158168   158155   158140 
  158129   158117   158105   158097   158091   158082   158072   158064 
  158059   158053   158045   158032   158013   157999   157990   157979 
  157975   157979   157989   157999   158013   158025   158032   158035 
  158040   158044   158047   158051   158059   158071   158083   158095 
  158107   158118   158128   158134   158136   158126   158110   158089 
  158063   158036   158012   157982   157952   157928   157905   157885 
  157875   157869   157856   157840   157821   157801   157785   157777 
  157770   157762   157755   157746   157735   157729   157727   157728 
  157735   157747   157767   157792   157815   157835   157858   157879 
  157896   157912   157929   157944   157962   157985   158009   158028 
  158036   158039   158040   158040   158040   158040   158039   158040 
  158049   158062   158078   158097   158113   158126   158139   158143 
  158137   158129   158117   158098   158075   158055   158033   158010 
  157994   157983   157974   157967   157962   157959   157958   157964 
  157978   157991   158006   158026   158043   158051   158055   158062 
  158075   158095   158113   158125   158132   158133   158136   158137 
  158136   158130   158120   158107   158098   158093   158085   158072 
  158062   158045   158026   158009   157997   157987   157986   157991 
  158006   158029   158060   158093   158122   158148   158166   158174 
  158175   158178   158180   158179   158179   158180   158179   158178 
  158175   158163   158140   158110   158074   158036   157999   157968 
  157944   157920   157893   157866   157843   157817   157794   157781 
  157774   157774   157783   157797   157812   157828   157846   157869 
  157894   157918   157943   157966   157983   157993   157998   157997 
  157993   157994   157997   158001   158010   158017   158021   158028 
  158033   158036   158040   158047   158056   158071   158089   158107 
  158121   158128   158134   158134   158122   158103   158083   158066 
  158048   158032   158016   157999   157990   157987   157986   157987 
  157995   158008   158029   158058   158086   158112   158140   158166 
  158187   158205   158221   158238   158251   158259   158256   158248 
  158237   158218   158191   158164   158137   158109   158082   158059 
  158037   158013   157991   157968   157943   157923   157909   157901 
  157893   157883   157875   157873   157873   157873   157877   157893 
  157912   157928   157943   157955   157963   157968   157967   157966 
  157962   157954   157945   157933   157917   157902   157885   157860 
  157839   157821   157800   157781   157762   157743   157728   157716 
  157705   157701   157705   157711   157724   157744   157765   157782 
  157794   157797   157798   157805   157815   157827   157844   157867 
  157891   157913   157929   157939   157948   157956   157960   157966 
  157977   157993   158012   158033   158063   158093   158121   158151 
  158176   158197   158215   158232   158245   158253   158259   158264 
  158268   158272   158279   158290   158301   158305   158307   158315 
  158328   158346   158372   158403   158438   158465   158481   158487 
  158481   158468   158446   158418   158387   158355   158323   158295 
  158264   158233   158202   158168   158129   158090   158055   158024 
  157994   157963   157931   157897   157863   157833   157804   157777 
  157758   157742   157725   157713   157705   157693   157684   157684 
  157688   157697   157712   157732   157756   157785   157812   157835 
  157856   157875   157889   157901   157912   157921   157928   157932 
  157935   157933   157927   157920   157918   157916   157914   157917 
  157920   157925   157935   157939   157941   157945   157947   157944 
  157939   157933   157929   157929   157936   157950   157966   157990 
  158018   158037   158043   158039   158037   158032   158025   158021 
  158016   158006   157999   157998   158005   158016   158026   158040 
  158056   158071   158085   158101   158117   158133   158149   158167 
  158184   158199   158209   158211   158210   158206   158202   158194 
  158183   158175   158164   158140   158106   158070   158032   158004 
  157982   157960   157939   157924   157910   157897   157887   157877 
  157866   157860   157862   157864   157873   157885   157902   157917 
  157925   157927   157920   157910   157902   157894   157891   157894 
  157900   157910   157928   157943   157959   157979   157998   158016 
  158036   158055   158071   158085   158099   158116   158128   158139 
  158153   158171   158182   158184   158178   158156   158124   158087 
  158049   158018   157994   157971   157950   157935   157927   157917 
  157902   157891   157887   157885   157887   157901   157924   157948 
  157970   157991   158013   158031   158047   158062   158076   158087 
  158095   158103   158114   158121   158125   158132   158139   158148 
  158160   158171   158183   158197   158213   158228   158238   158242 
  158244   158244   158244   158240   158230   158221   158213   158201 
  158182   158159   158132   158101   158068   158035   158002   157972 
  157945   157918   157890   157869   157852   157836   157821   157810 
  157800   157792   157789   157790   157794   157810   157835   157856 
  157873   157889   157905   157913   157920   157923   157921   157918 
  157913   157901   157889   157881   157878   157877   157879   157887 
  157897   157909   157918   157927   157935   157943   157952   157958 
  157962   157967   157970   157971   157971   157963   157951   157941 
  157936   157933   157935   157943   157956   157968   157983   158001 
  158016   158031   158047   158066   158082   158095   158106   158121 
  158137   158152   158172   158194   158213   158229   158240   158248 
  158251   158245   158236   158225   158214   158198   158179   158163 
  158148   158139   158130   158121   158109   158094   158080   158070 
  158063   158053   158043   158040   158043   158043   158040   158044 
  158053   158062   158074   158091   158110   158125   158134   158140 
  158144   158145   158139   158126   158107   158083   158059   158036 
  158014   157994   157977   157960   157941   157918   157894   157871 
  157846   157823   157805   157790   157782   157779   157782   157789 
  157805   157819   157829   157842   157852   157860   157871   157885 
  157897   157912   157932   157951   157966   157981   157993   158002 
  158010   158016   158018   158022   158026   158032   158040   158049 
  158062   158071   158080   158095   158107   158114   158118   158114 
  158102   158089   158076   158058   158033   158009   157982   157954 
  157923   157893   157869   157850   157840   157840   157848   157863 
  157886   157913   157944   157981   158016   158047   158076   158101 
  158116   158122   158129   158132   158130   158124   158117   158107 
  158097   158080   158064   158051   158035   158014   157998   157983 
  157962   157943   157927   157909   157893   157883   157882   157882 
  157882   157882   157877   157869   157862   157863   157871   157879 
  157887   157898   157913   157928   157940   157952   157963   157971 
  157978   157990   158002   158016   158032   158043   158048   158053 
  158059   158058   158053   158043   158028   158016   158008   157995 
  157987   157978   157967   157960   157959   157960   157968   157981 
  157993   158009   158028   158047   158070   158091   158113   158134 
  158156   158178   158198   158215   158234   158255   158269   158284 
  158296   158303   158309   158313   158313   158306   158294   158275 
  158251   158222   158188   158149   158110   158071   158033   157995 
  157960   157932   157913   157900   157891   157890   157894   157905 
  157920   157936   157950   157964   157975   157982   157994   158004 
  158004   158004   157999   157995   157995   157995   157995   157995 
  157993   157989   157986   157981   157971   157962   157950   157935 
  157918   157904   157893   157885   157881   157879   157879   157881 
  157885   157885   157885   157889   157894   157900   157909   157918 
  157933   157951   157971   157998   158026   158051   158074   158097 
  158116   158134   158148   158159   158168   158176   158183   158187 
  158184   158178   158166   158149   158129   158107   158082   158058 
  158028   157997   157968   157943   157917   157894   157875   157860 
  157848   157837   157831   157825   157821   157819   157820   157819 
  157815   157810   157806   157802   157797   157792   157789   157790 
  157797   157802   157808   157820   157835   157851   157866   157878 
  157887   157896   157906   157917   157929   157944   157960   157972 
  157985   157997   158010   158021   158031   158041   158048   158053 
  158060   158062   158064   158071   158079   158086   158099   158114 
  158125   158140   158153   158164   158179   158199   158218   158234 
  158251   158263   158276   158288   158292   158298   158305   158306 
