Origin Time       2025/06/03 22:18:00
Lat.              41.7
Long.             143.6
Depth. (km)       30
Mag.              5.2
Station Code      KKWH08
Station Lat.      43.0406
Station Long.     142.6562
Station Height(m) 469
Record Time       2025/06/03 22:19:17
Sampling Freq(Hz) 100Hz
Duration Time(s)  120
Dir.              1
Scale Factor      2942(gal)/8224139
Max. Acc. (gal)   0.193
Last Correction   2025/06/03 22:19:17
Memo.             
[...]
  369261   369256   369241   369254   369245   369223   369208   369202 
  369226   369234   369223   369227   369215   369184   369173   369195 
  369212   369198   369206   369245   369243   369227   369253   369249 
  369220   369226   369245   369257   369252   369258   369304   369326 
  369314   369326   369345   369355   369373   369389   369397   369377 
  369335   369324   369323   369308   369312   369315   369306   369307 
  369295   369279   369280   369280   369260   369239   369239   369245 
  369234   369219   369210   369208   369210   369204   369198   369204 
  369219   369230   369253   369266   369260   369273   369288   369273 
  369269   369277   369266   369262   369283   369283   369262   369243 
  369215   369196   369189   369187   369207   369237   369256   369268 
  369262   369249   369258   369268   369229   369180   369149   369127 
  369133   369141   369135   369135   369141   369133   369133   369150 
  369153   369145   369172   369176   369135   369148   369210   369249 
  369266   369264   369249   369254   369283   369287   369273   369301 
  369327   369304   369281   369268   369252   369252   369266   369285 
  369295   369300   369315   369315   369295   369287   369287   369303 
  369349   369381   369381   369372   369369   369357   369319   369288 
  369304   369327   369311   369315   369346   369315   369283   369295 
  369288   369277   369258   369219   369212   369234   369227   369198 
  369192   369206   369195   369172   369164   369165   369171   369172 
  369179   369177   369145   369133   369153   369160   369171   369193 
  369211   369223   369222   369229   369246   369234   369215   369189 
  369142   369145   369171   369175   369192   369211   369234   369242 
  369215   369208   369226   369227   369239   369274   369288   369296 
  369311   369287   369261   369269   369273   369270   369274   369280 
  369260   369238   369243   369237   369247   369299   369312   369289 
  369287   369270   369261   369284   369300   369314   369338   369338 
  369323   369341   369354   369328   369322   369335   369322   369284 
  369256   369258   369260   369233   369226   369237   369212   369188 
  369215   369226   369207   369241   369264   369227   369219   369222 
  369206   369211   369206   369189   369195   369177   369149   369158 
  369153   369145   369169   369185   369181   369169   369158   369183 
  369242   369272   369264   369273   369277   369257   369257   369268 
  369254   369245   369249   369222   369215   369262   369272   369252 
  369261   369261   369247   369250   369245   369229   369226   369227 
  369234   369253   369287   369320   369297   369261   369292   369296 
  369233   369214   369258   369273   369256   369258   369256   369235 
  369216   369227   369252   369249   369269   369301   369277   369262 
  369283   369289   369312   369343   369341   369335   369349   369362 
  369366   369361   369351   369351   369328   369280   369269   369279 
  369253   369231   369233   369206   369176   369195   369204   369192 
  369215   369220   369184   369185   369210   369193   369169   369153 
  369156   369187   369223   369258   369261   369239   369258   369281 
  369260   369247   369273   369303   369303   369283   369277   369266 
  369268   369306   369297   369256   369269   369277   369242   369241 
  369262   369261   369262   369260   369231   369234   369260   369239 
  369239   369285   369276   369253   369258   369247   369226   369208 
  369216   369233   369219   369211   369216   369233   369229   369208 
  369211   369198   369165   369162   369180   369195   369189   369188 
  369218   369238   369218   369206   369229   369249   369243   369247 
  369270   369260   369227   369225   369212   369199   369223   369222 
  369206   369245   369249   369203   369216   369260   369268   369261 
  369246   369237   369235   369227   369214   369215   369252   369279 
  369274   369276   369253   369215   369220   369239   369242   369260 
  369288   369276   369249   369262   369276   369262   369256   369245 
  369239   369270   369299   369308   369307   369274   369229   369227 
  369252   369262   369279   369287   369284   369303   369315   369315 
  369323   369327   369327   369320   369306   369299   369296   369279 
  369262   369264   369253   369223   369215   369220   369199   369160 
  369138   369149   369176   369207   369229   369220   369216   369237 
  369241   369237   369261   369303   369311   369284   369306   369337 
  369284   369226   369245   369270   369265   369260   369265   369268 
  369265   369256   369226   369202   369210   369219   369206   369181 
  369162   369162   369157   369148   369164   369172   369169   369179 
  369181   369181   369179   369188   369223   369239   369225   369207 
  369187   369176   369189   369206   369216   369238   369260   369222 
  369184   369218   369227   369202   369216   369225   369216   369246 
  369285   369270   369230   369235   369246   369239   369274   369301 
  369283   369287   369301   369288   369280   369293   369304   369288 
  369273   369291   369300   369291   369288   369284   369289   369306 
  369308   369297   369297   369319   369337   369328   369345   369377 
  369361   369342   369361   369369   369369   369373   369343   369320 
  369311   369266   369226   369226   369253   369269   369243   369222 
  369229   369223   369195   369168   369188   369242   369249   369225 
  369239   369258   369257   369257   369265   369264   369242   369234 
  369237   369233   369233   369215   369218   369260   369258   369264 
  369303   369270   369227   369257   369277   369247   369212   369207 
  369227   369234   369229   369250   369273   369265   369258   369257 
  369241   369241   369223   369196   369219   369242   369257   369288 
  369297   369289   369291   369312   369331   369311   369288   369274 
  369235   369195   369192   369195   369172   369154   369145   369154 
  369184   369187   369175   369180   369200   369227   369229   369234 
  369280   369308   369301   369311   369333   369341   369327   369308 
  369314   369315   369308   369326   369319   369304   369320   369293 
  369234   369237   369253   369225   369218   369237   369225   369212 
  369208   369176   369177   369223   369210   369168   369171   369185 
  369199   369220   369243   369273   369293   369295   369312   369333 
  369311   369284   369281   369287   369291   369281   369273   369285 
  369299   369274   369220   369188   369160   369125   369126   369153 
  369191   369196   369179   369184   369150   369118   369158   369171 
  369184   369241   369233   369216   369262   369272   369253   369247 
  369227   369211   369210   369210   369208   369200   369196   369203 
  369203   369198   369218   369242   369239   369234   369239   369233 
  369238   369266   369284   369295   369319   369328   369311   369311 
  369334   369330   369312   369310   369306   369304   369288   369252 
  369272   369320   369316   369323   369364   369361   369346   369391 
  369439   369419   369388   369392   369396   369378   369339   369311 
  369327   369339   369316   369308   369308   369284   369260   369225 
  369179   369137   369112   369148   369204   369229   369230   369231 
  369272   369319   369323   369322   369347   369361   369318   369292 
  369323   369297   369246   369245   369239   369211   369172   369123 
  369087   369094   369134   369150   369144   369160   369188   369222 
  369262   369272   369256   369254   369238   369216   369215   369191 
  369156   369157   369172   369184   369200   369208   369219   369234 
  369233   369222   369203   369188   369220   369256   369250   369268 
  369274   369223   369223   369265   369252   369241   369274   369296 
  369258   369220   369229   369211   369172   369162   369160   369139 
  369111   369107   369141   369179   369193   369208   369230   369245 
  369288   369323   369291   369247   369219   369199   369207   369206 
  369204   369246   369288   369314   369361   369405   369414   369393 
  369349   369316   369304   369277   369264   369264   369256   369264 
  369249   369212   369233   369264   369250   369233   369223   369227 
  369253   369256   369241   369277   369308   369269   369234   369237 
  369239   369237   369233   369210   369198   369208   369203   369219 
  369269   369287   369299   369312   369297   369303   369293   369238 
  369192   369171   369158   369138   369130   369150   369150   369130 
  369122   369103   369095   369118   369130   369137   369150   369161 
  369176   369187   369202   369220   369216   369211   369233   369256 
  369268   369299   369357   369396   369401   369399   369377   369335 
  369306   369289   369292   369328   369370   369378   369365   369338 
  369311   369308   369307   369297   369272   369247   369256   369260 
  369250   369245   369214   369172   369144   369123   369126   369149 
  369183   369223   369257   369284   369292   369264   369241   369239 
  369214   369168   369138   369129   369134   369137   369121   369117 
  369152   369185   369177   369188   369252   369297   369304   369331 
  369351   369308   369272   369293   369306   369303   369334   369357 
  369349   369365   369378   369370   369382   369409   369419   369409 
  369434   369486   369481   369443   369419   369354   369239   369142 
  369072   369010   368995   369026   369064   369121   369196   369266 
  369326   369364   369370   369358   369345   369323   369310   369315 
  369287   369261   369291   369301   369287   369270   369239   369204 
  369176   369188   369183   369135   369172   369247   369266   369312 
  369374   369397   369409   369395   369361   369327   369269   369222 
  369185   369131   369111   369123   369126   369135   369141   369129 
  369142   369169   369176   369175   369184   369203   369208   369215 
  369223   369218   369220   369218   369208   369215   369220   369212 
  369195   369161   369122   369096   369107   369133   369145   369173 
  369212   369218   369237   369304   369349   369349   369366   369392 
  369388   369365   369322   369292   369284   369284   369331   369388 
  369403   369428   369462   369436   369350   369274   369238   369191 
  369131   369114   369127   369148   369195   369270   369322   369331 
  369326   369306   369279   369247   369195   369156   369164   369171 
  369138   369100   369065   369041   369057   369080   369098   369144 
  369177   369198   369239   369276   369316   369376   369430   369488 
  369520   369512   369522   369519   369451   369426   369447   369389 
  369311   369280   369226   369172   369164   369179   369179   369156 
  369154   369173   369185   369225   369264   369277   369289   369264 
  369214   369181   369142   369107   369100   369096   369091   369095 
  369114   369149   369219   369312   369360   369370   369369   369326 
  369277   369280   369277   369227   369177   369149   369122   369076 
  369052   369083   369104   369079   369060   369050   369033   369033 
  369056   369053   369027   369019   369000   368964   368960   368976 
  369021   369103   369149   369173   369260   369351   369399   369463 
  369511   369509   369522   369523   369484   369449   369422   369385 
  369354   369353   369360   369355   369366   369366   369360   369369 
  369369   369368   369372   369353   369334   369304   369264   369254 
  369241   369226   369252   369268   369261   369265   369289   369338 
  369387   369399   369405   369446   369484   369493   369515   369536 
  369523   369497   369486   369481   369486   369524   369549   369517 
  369476   369450   369426   369408   369381   369333   369291   369274 
  369237   369175   369141   369110   369064   369038   369017   368986 
  368961   368969   369010   369052   369088   369100   369092   369102 
  369100   369085   369088   369125   369173   369183   369188   369210 
  369223   369260   369285   369287   369301   369285   369234   369206 
  369181   369135   369102   369056   369007   369013   369033   369040 
  369050   369061   369080   369117   369164   369202   369219   369269 
  369323   369315   369276   369239   369198   369158   369117   369073 
  369060   369069   369071   369099   369153   369187   369225   369272 
  369292   369319   369370   369403   369438   369497   369544   369570 
  369582   369581   369589   369593   369578   369571   369576   369571 
  369544   369500   369447   369400   369355   369300   369261   369243 
  369218   369203   369183   369149   369152   369169   369171   369160 
  369123   369080   369090   369122   369122   369141   369185   369189 
  369196   369227   369238   369260   369284   369273   369291   369331 
  369322   369319   369357   369372   369388   369407   369360   369285 
  369254   369243   369206   369172   369177   369154   369121   369130 
  369134   369111   369096   369084   369061   369037   369021   368967 
  368887   368863   368868   368867   368887   368901   368903   368925 
  368955   368999   369054   369098   369148   369210   369252   369303 
  369381   369449   369484   369485   369492   369503   369462   369419 
  369424   369445   369462   369462   369451   369442   369416   369391 
  369388   369388   369387   369411   369432   369431   369443   369480 
  369527   369559   369558   369563   369592   369603   369593   369563 
  369540   369512   369419   369337   369339   369315   369242   369189 
  369137   369067   369004   368934   368861   368814   368772   368728 
  368707   368725   368775   368815   368820   368833   368868   368871 
  368869   368917   368983   369031   369061   369095   369114   369112 
  369131   369150   369137   369114   369088   369087   369121   369129 
  369131   369180   369247   369304   369360   369415   369466   369530 
  369569   369549   369528   369534   369527   369524   369517   369501 
  369543   369596   369600   369589   369577   369546   369489   369465 
  369476   369445   369428   369461   369468   369470   369489   369508 
  369508   369485   369462   369423   369355   369291   369233   369177 
  369131   369131   369165   369185   369216   369253   369257   369265 
  369288   369299   369308   369314   369299   369268   369234   369183 
  369129   369099   369088   369088   369073   369057   369085   369114 
  369112   369125   369152   369152   369127   369125   369130   369102 
  369072   369063   369053   369048   369060   369071   369058   369044 
  369030   368998   368991   369030   369052   369057   369071   369069 
  369056   369050   369046   369048   369069   369106   369118   369118 
  369129   369114   369122   369183   369199   369187   369207   369230 
  369262   369312   369350   369382   369415   369446   369468   369455 
  369454   369481   369486   369492   369504   369490   369481   369488 
  369497   369532   369584   369615   369650   369692   369701   369690 
  369671   369639   369615   369581   369544   369532   369500   369457 
  369436   369424   369432   369439   369416   369407   369414   369385 
  369330   369296   369273   369242   369203   369162   369149   369122 
  369067   369064   369083   369072   369058   369033   369003   368972 
  368936   368915   368891   368874   368879   368872   368841   368803 
  368788   368776   368747   368755   368788   368799   368814   368838 
  368863   368894   368911   368926   368953   368982   369019   369068 
  369125   369177   369223   369280   369323   369351   369392   369426 
  369434   369427   369431   369459   369463   369453   369465   369476 
  369472   369476   369493   369500   369489   369466   369462   369493 
  369507   369477   369439   369419   369408   369364   369299   369270 
  369262   369252   369227   369204   369208   369216   369222   369237 
  369230   369237   369281   369292   369277   369306   369339   369327 
  369334   369361   369355   369368   369418   369446   369441   369441 
  369453   369455   369468   369458   369401   369355   369326   369280 
  369225   369200   369188   369131   369094   369108   369094   369085 
  369144   369192   369188   369198   369226   369222   369227   369266 
  369292   369311   369312   369296   369312   369319   369311   369316 
  369304   369295   369303   369292   369265   369257   369235   369175 
  369148   369146   369090   369040   369027   369002   368967   368942 
  368933   368937   368932   368928   368952   368960   368933   368937 
  368953   368940   368949   368979   368977   368972   369003   369054 
  369084   369112   369176   369249   369314   369361   369405   369454 
  369485   369515   369526   369508   369531   369571   369577   369578 
  369582   369555   369522   369509   369500   369503   369523   369535 
  369544   369550   369555   369586   369605   369609   369628   369609 
  369569   369563   369547   369508   369476   369453   369442   369441 
  369443   369450   369447   369439   369431   369403   369350   369307 
  369260   369173   369111   369107   369076   369009   368990   368995 
  368973   368969   369009   369036   369063   369121   369152   369141 
  369119   369069   369040   369046   369011   368965   368952   368921 
  368886   368891   368919   368950   368980   369004   369010   369009 
  369034   369084   369119   369133   369142   369139   369119   369114 
  369131   369160   369173   369168   369184   369208   369214   369239 
  369287   369326   369343   369346   369343   369353   369376   369376 
  369381   369415   369441   369468   369511   369519   369495   369500 
  369504   369484   369485   369500   369526   369532   369511   369515 
  369504   369462   369442   369416   369376   369349   369318   369276 
  369219   369166   369160   369160   369127   369102   369098   369077 
  369048   369044   369049   369037   369015   368986   368982   369011 
  369023   369029   369049   369091   369131   369142   369175   369202 
  369168   369158   369175   369134   369076   369056   369041   369018 
  369018   369025   369023   369034   369052   369073   369100   369138 
  369198   369243   369268   369295   369320   369327   369334   369337 
  369334   369353   369362   369338   369320   369304   369296   369312 
  369319   369330   369358   369369   369384   369408   369409   369397 
  369377   369353   369342   369316   369289   369274   369243   369225 
  369227   369231   369256   369281   369300   369328   369333   369323 
  369338   369353   369360   369360   369358   369358   369342   369339 
  369362   369353   369338   369338   369315   369296   369277   369247 
  369241   369235   369230   369250   369274   369303   369337   369357 
  369372   369381   369365   369342   369337   369333   369300   369249 
  369206   369189   369185   369179   369171   369164   369149   369127 
  369119   369111   369100   369121   369138   369131   369129   369144 
  369157   369183   369242   369288   369291   369304   369327   369324 
  369316   369301   369274   369264   369234   369184   369154   369129 
  369122   369139   369138   369123   369111   369094   369069   369054 
  369056   369084   369108   369100   369114   369141   369156   369180 
  369191   369212   369260   369274   369285   369315   369328   369347 
  369373   369351   369319   369328   369362   369389   369399   369403 
  369399   369378   369355   369326   369310   369315   369299   369300 
  369345   369370   369412   369462   369455   369469   369499   369484 
