Origin Time       2025/06/03 22:18:00
Lat.              41.7
Long.             143.6
Depth. (km)       30
Mag.              5.2
Station Code      KSRH07
Station Lat.      43.1359
Station Long.     144.3274
Station Height(m) -184
Record Time       2025/06/03 22:19:14
Sampling Freq(Hz) 100Hz
Duration Time(s)  120
Dir.              2
Scale Factor      2942(gal)/8224139
Max. Acc. (gal)   0.528
Last Correction   2025/06/03 22:19:14
Memo.             
[...]
   60681    60697    60681    60674    60696    60720    60756    60793 
   60760    60696    60671    60640    60594    60616    60678    60717 
   60725    60662    60579    60589    60625    60613    60612    60658 
   60720    60755    60723    60669    60669    60690    60683    60669 
   60683    60735    60775    60751    60714    60700    60671    60639 
   60633    60642    60643    60640    60675    60736    60758    60745 
   60718    60658    60625    60655    60706    60791    60863    60832 
   60752    60693    60640    60586    60521    60467    60513    60632 
   60709    60723    60720    60739    60764    60745    60677    60594 
   60543    60550    60575    60612    60701    60767    60737    60709 
   60718    60706    60690    60664    60605    60596    60646    60658 
   60636    60637    60670    60728    60758    60713    60654    60636 
   60632    60646    60710    60786    60774    60675    60593    60567 
   60569    60590    60617    60627    60643    60655    60620    60592 
   60632    60705    60758    60795    60820    60802    60766    60781 
   60806    60755    60666    60604    60558    60543    60582    60623 
   60633    60659    60710    60739    60713    60659    60642    60673 
   60712    60740    60744    60723    60712    60705    60678    60637 
   60605    60583    60581    60629    60729    60785    60736    60663 
   60617    60597    60625    60647    60609    60605    60650    60662 
   60642    60602    60561    60569    60617    60656    60685    60717 
   60768    60822    60826    60791    60770    60751    60723    60714 
   60708    60687    60679    60667    60652    60673    60693    60673 
   60648    60627    60590    60571    60588    60620    60681    60755 
   60763    60723    60712    60700    60678    60720    60774    60762 
   60736    60701    60640    60625    60642    60617    60574    60550 
   60575    60636    60664    60690    60748    60759    60737    60752 
   60716    60632    60619    60651    60687    60768    60831    60836 
   60828    60783    60708    60654    60590    60498    60442    60423 
   60421    60463    60524    60550    60570    60609    60636    60660 
   60702    60754    60795    60791    60727    60633    60558    60543 
   60581    60615    60633    60678    60732    60733    60687    60667 
   60697    60750    60805    60833    60813    60783    60756    60723 
   60725    60758    60747    60702    60673    60666    60704    60763 
   60739    60669    60669    60718    60763    60786    60758    60716 
   60721    60702    60627    60583    60573    60555    60555    60571 
   60575    60578    60586    60624    60691    60735    60744    60741 
   60708    60659    60621    60590    60605    60664    60670    60627 
   60627    60675    60732    60804    60868    60859    60778    60674 
   60579    60538    60578    60658    60741    60808    60779    60656 
   60574    60561    60529    60501    60546    60608    60629    60637 
   60651    60666    60666    60648    60646    60654    60648    60644 
   60623    60581    60574    60563    60519    60546    60650    60743 
   60794    60798    60772    60743    60712    60704    60708    60685 
   60687    60752    60810    60818    60783    60768    60812    60826 
   60778    60743    60723    60678    60643    60637    60659    60678 
   60667    60651    60648    60648    60632    60574    60527    60547 
   60602    60687    60797    60852    60835    60791    60728    60666 
   60647    60678    60708    60671    60608    60592    60597    60593 
   60601    60583    60523    60486    60508    60554    60590    60625 
   60682    60725    60739    60767    60775    60744    60751    60760 
   60724    60724    60748    60745    60779    60831    60821    60782 
   60689    60540    60461    60440    60411    60442    60504    60521 
   60582    60716    60840    60934    60983    60964    60891    60760 
   60616    60544    60552    60601    60642    60617    60563    60550 
   60569    60623    60690    60677    60579    60547    60636    60717 
   60702    60663    60682    60727    60732    60709    60736    60794 
   60779    60693    60619    60594    60632    60683    60700    60716 
   60725    60693    60679    60690    60664    60651    60702    60768 
   60782    60729    60664    60635    60623    60601    60570    60569 
   60621    60675    60724    60817    60891    60864    60790    60728 
   60659    60578    60507    60496    60563    60632    60636    60610 
   60617    60658    60696    60716    60741    60762    60758    60767 
   60755    60671    60623    60631    60604    60606    60694    60760 
   60777    60787    60786    60783    60793    60770    60705    60644 
   60592    60520    60467    60504    60600    60660    60677    60690 
   60702    60718    60736    60727    60682    60648    60673    60704 
   60681    60664    60690    60696    60702    60716    60667    60609 
   60593    60570    60554    60554    60539    60539    60539    60517 
   60551    60637    60681    60678    60651    60620    60639    60700 
   60747    60786    60829    60844    60836    60845    60849    60795 
   60706    60625    60575    60586    60627    60609    60565    60604 
   60710    60798    60849    60871    60862    60852    60836    60786 
   60739    60727    60713    60678    60633    60598    60590    60594 
   60593    60608    60633    60678    60724    60690    60617    60615 
   60659    60681    60663    60589    60486    60431    60454    60521 
   60548    60529    60563    60663    60740    60799    60849    60862 
   60851    60828    60760    60646    60548    60525    60546    60569 
   60581    60562    60554    60608    60640    60578    60486    60442 
   60494    60642    60754    60762    60756    60771    60760    60758 
   60777    60764    60754    60775    60808    60851    60874    60848 
   60799    60731    60664    60623    60548    60465    60442    60455 
   60505    60589    60596    60523    60486    60492    60504    60515 
   60525    60555    60601    60632    60673    60732    60762    60775 
   60809    60833    60835    60837    60820    60777    60762    60747 
   60673    60612    60612    60585    60515    60451    60427    60484 
   60612    60760    60894    60951    60924    60898    60871    60805 
   60729    60673    60660    60704    60763    60798    60771    60667 
   60598    60598    60577    60578    60655    60682    60640    60640 
   60644    60610    60581    60525    60466    60488    60558    60625 
   60700    60740    60772    60859    60909    60855    60802    60805 
   60824    60845    60808    60712    60671    60686    60696    60716 
   60744    60760    60760    60685    60563    60536    60590    60620 
   60633    60647    60658    60679    60674    60604    60492    60403 
   60431    60585    60728    60754    60721    60728    60779    60856 
   60932    60928    60870    60922    61072    61117    60982    60721 
   60434    60247    60208    60318    60542    60683    60627    60515 
   60486    60536    60565    60486    60447    60635    60933    61141 
   61182    61045    60863    60801    60801    60756    60666    60528 
   60463    60640    60914    60995    60852    60654    60535    60569 
   60724    60840    60770    60542    60327    60278    60396    60536 
   60602    60646    60737    60859    60885    60760    60623    60554 
   60543    60628    60724    60690    60675    60828    61003    61044 
   60916    60718    60586    60475    60365    60386    60517    60639 
   60724    60693    60574    60589    60735    60891    61075    61236 
   61296    61280    61196    61056    60890    60712    60582    60542 
   60578    60690    60775    60697    60519    60377    60343    60416 
   60453    60399    60424    60574    60760    60930    60939    60755 
   60617    60596    60567    60534    60517    60529    60612    60679 
   60658    60610    60573    60620    60826    60991    60889    60643 
   60488    60481    60546    60604    60640    60660    60642    60597 
   60579    60633    60735    60783    60758    60729    60698    60644 
   60600    60528    60378    60193    60076    60161    60463    60817 
   61079    61168    61053    60840    60698    60720    60812    60809 
   60743    60735    60747    60706    60625    60542    60550    60654 
   60690    60619    60548    60529    60538    60497    60394    60394 
   60500    60538    60586    60802    61045    61115    60948    60651 
   60469    60509    60728    61036    61230    61184    61015    60847 
   60704    60593    60525    60550    60651    60716    60740    60801 
   60889    60916    60767    60471    60231    60154    60203    60292 
   60312    60292    60403    60652    60905    61074    61119    61102 
   61114    61105    60987    60795    60586    60428    60430    60588 
   60767    60829    60706    60484    60347    60370    60501    60674 
   60771    60759    60745    60743    60678    60573    60470    60420 
   60482    60554    60525    60540    60710    60930    61063    61007 
   60816    60687    60654    60654    60766    60920    60885    60673 
   60439    60251    60164    60191    60282    60426    60609    60794 
   60943    60951    60808    60685    60588    60412    60293    60319 
   60388    60509    60650    60679    60664    60698    60712    60693 
   60670    60652    60689    60739    60732    60678    60569    60470 
   60508    60623    60723    60798    60774    60728    60844    60959 
   60901    60899    61055    61191    61241    61160    60941    60723 
   60570    60489    60502    60511    60477    60511    60565    60547 
   60521    60519    60555    60669    60759    60787    60833    60829 
   60689    60575    60616    60681    60612    60471    60404    60415 
   60482    60648    60810    60794    60663    60605    60642    60669 
   60631    60586    60582    60578    60582    60651    60743    60774 
   60766    60786    60847    60939    61007    60964    60821    60675 
   60586    60590    60628    60569    60447    60397    60427    60447 
   60390    60312    60338    60447    60520    60502    60384    60293 
   60394    60596    60736    60801    60797    60782    60818    60878 
   60972    61092    61132    61091    61006    60875    60795    60752 
   60615    60488    60474    60488    60567    60752    60859    60808 
   60678    60473    60269    60219    60339    60535    60674    60685 
   60670    60759    60957    61183    61288    61248    61209    61225 
   61199    61072    60860    60616    60427    60366    60392    60393 
   60338    60280    60242    60269    60416    60594    60623    60481 
   60327    60319    60493    60747    60917    60983    61021    61010 
   60955    60937    60895    60739    60592    60579    60643    60725 
   60798    60813    60783    60775    60777    60740    60660    60536 
   60349    60143    60026    60042    60165    60357    60579    60806 
   61045    61240    61280    61218    61182    61118    60994    60913 
   60859    60760    60674    60588    60443    60319    60224    60111 
   60083    60201    60386    60532    60589    60600    60578    60509 
   60548    60739    60794    60623    60484    60494    60597    60768 
   60974    61191    61392    61457    61322    61129    61029    60986 
   60845    60569    60272    60073    59983    59972    60037    60149 
   60235    60282    60353    60459    60596    60820    61149    61481 
   61695    61761    61711    61558    61311    61042    60848    60725 
   60586    60408    60272    60249    60319    60424    60508    60475 
   60264    59968    59775    59795    59984    60207    60384    60561 
   60751    60930    61123    61296    61329    61203    61024    60902 
   60844    60732    60610    60650    60763    60733    60577    60435 
   60358    60365    60521    60809    61048    61113    61025    60828 
   60635    60624    60772    60936    61099    61215    61176    61065 
   61010    60952    60809    60627    60471    60381    60365    60388 
   60423    60466    60450    60308    60127    60033    59998    59991 
   60103    60284    60339    60300    60336    60403    60384    60355 
   60419    60529    60604    60647    60706    60804    60901    60922 
   60860    60851    60925    60906    60720    60485    60295    60226 
   60349    60515    60465    60253    60162    60299    60552    60786 
   60902    60986    61237    61614    61898    62037    62082    62044 
   61963    61863    61661    61288    60829    60470    60307    60255 
   60195    60088    59953    59903    60012    60147    60203    60211 
   60131    60034    60177    60567    60949    61175    61253    61300 
   61443    61639    61780    61830    61773    61619    61376    61025 
   60706    60542    60370    60096    59856    59688    59563    59517 
   59560    59718    59960    60129    60224    60361    60563    60874 
   61183    61231    61055    60853    60709    60712    60817    60810 
   60693    60588    60498    60471    60511    60536    60578    60627 
   60569    60447    60369    60355    60388    60374    60332    60405 
   60444    60274    60131    60219    60482    60859    61179    61310 
   61393    61520    61631    61782    61992    62056    61843    61464 
   61099    60798    60532    60350    60234    60053    59894    59968 
   60201    60350    60338    60273    60311    60497    60764    61030 
   61210    61317    61492    61713    61815    61749    61557    61344 
   61179    60922    60486    59998    59535    59202    59197    59447 
   59663    59701    59606    59551    59641    59746    59775    59841 
   60077    60542    61067    61321    61338    61434    61658    61925 
   62132    62024    61588    61159    60907    60759    60608    60372 
   60093    59877    59761    59782    59877    59908    59919    59985 
   60068    60232    60426    60453    60439    60566    60723    60856 
   61033    61198    61268    61271    61317    61423    61472    61466 
   61522    61591    61580    61512    61404    61229    60934    60538 
   60210    60007    59852    59822    59965    60100    60131    60099 
   60077    60235    60567    60795    60880    61013    61171    61263 
   61362    61504    61595    61546    61412    61265    60999    60581 
   60215    59971    59738    59572    59590    59756    59991    60230 
   60450    60647    60762    60801    60848    60910    60970    61018 
   61013    61017    61129    61237    61191    61001    60741    60558 
   60579    60729    60779    60578    60281    60205    60327    60392 
   60389    60393    60359    60299    60241    60151    60037    59918 
   59873    60025    60259    60347    60373    60601    61032    61416 
   61542    61420    61267    61217    61217    61173    61013    60750 
   60546    60525    60655    60812    60855    60775    60717    60744 
   60820    60920    60967    60895    60813    60831    60870    60839 
   60755    60646    60561    60590    60660    60588    60416    60330 
   60399    60637    60916    60934    60689    60461    60343    60308 
   60415    60582    60662    60698    60801    60999    61236    61410 
   61500    61519    61415    61186    60901    60629    60434    60297 
   60183    60154    60220    60293    60370    60496    60624    60651 
   60504    60315    60297    60365    60293    60139    60096    60226 
   60474    60669    60673    60598    60627    60767    60876    60816 
   60655    60615    60700    60751    60744    60766    60868    61018 
   61091    61020    60897    60768    60561    60376    60453    60745 
   60995    61118    61207    61300    61361    61379    61369    61295 
   61186    61173    61210    61129    60995    60933    60947    61041 
   61107    60956    60663    60396    60174    60037    59999    59964 
   59930    59956    60035    60156    60223    60145    60022    59946 
   59853    59761    59806    60003    60222    60319    60311    60318 
   60416    60612    60772    60772    60802    61030    61213    61192 
   61125    61107    61134    61222    61283    61176    60914    60654 
   60496    60431    60458    60552    60586    60509    60442    60461 
   60535    60651    60759    60702    60490    60408    60524    60608 
   60650    60809    61005    61078    61051    60976    60917    60936 
   61015    61094    61045    60804    60604    60616    60670    60670 
   60660    60650    60718    60816    60760    60651    60660    60733 
   60879    61137    61348    61404    61375    61323    61236    61074 
   60910    60825    60755    60647    60513    60347    60219    60199 
   60174    60079    60035    60083    60137    60199    60301    60416 
   60421    60239    60008    59930    60072    60365    60581    60586 
   60558    60644    60750    60760    60651    60500    60443    60508 
   60633    60745    60806    60870    60943    60929    60840    60740 
   60636    60573    60589    60635    60671    60660    60619    60687 
   60847    60886    60797    60745    60778    60851    60898    60858 
   60756    60656    60585    60555    60563    60588    60639    60740 
   60851    60875    60843    60920    61114    61227    61171    61029 
   60879    60752    60685    60700    60777    60835    60786    60696 
   60704    60779    60797    60721    60546    60326    60193    60181 
   60226    60264    60228    60160    60160    60156    60038    59930 
   59999    60195    60343    60393    60434    60482    60515    60656 
   60933    61144    61198    61183    61177    61230    61294    61254 
   61103    60886    60705    60747    60971    61115    61064    60859 
   60666    60694    60848    60906    60910    60939    60978    61072 
   61161    61126    61025    60948    60951    61030    60995    60782 
   60609    60523    60390    60270    60205    60126    60106    60191 
   60272    60326    60385    60415    60453    60532    60600    60617 
   60542    60385    60301    60320    60363    60439    60501    60508 
   60579    60702    60736    60714    60681    60616    60636    60741 
   60718    60550    60416    60331    60232    60156    60114    60120 
   60227    60393    60571    60754    60845    60833    60889    61044 
   61125    61072    60988    60997    61122    61269    61357    61358 
   61273    61176    61117    61017    60860    60689    60490    60326 
   60251    60181    60093    60100    60232    60419    60559    60575 
   60519    60507    60583    60735    60940    61099    61150    61146 
   61107    61024    60972    61010    61065    61007    60794    60552 
   60409    60385    60454    60552    60604    60605    60582    60532 
   60489    60497    60574    60716    60901    61092    61219    61209 
   61103    61002    60885    60698    60496    60331    60205    60187 
   60355    60631    60814    60836    60794    60733    60624    60493 
   60353    60208    60153    60204    60258    60319    60439    60555 
   60632    60735    60858    60885    60805    60733    60727    60732 
   60731    60741    60766    60820    60917    60960    60864    60728 
   60662    60596    60446    60254    60099    60077    60273    60565 
   60768    60880    60945    60934    60853    60745    60658    60623 
   60662    60791    60893    60798    60633    60600    60669    60798 
   60948    60974    60876    60813    60820    60863    60922    60925 
