Origin Time       2025/06/03 22:18:00
Lat.              41.7
Long.             143.6
Depth. (km)       30
Mag.              5.2
Station Code      KSRH05
Station Lat.      43.2556
Station Long.     144.2338
Station Height(m) 114
Record Time       2025/06/03 22:19:21
Sampling Freq(Hz) 100Hz
Duration Time(s)  120
Dir.              6
Scale Factor      7845(gal)/8223790
Max. Acc. (gal)   0.403
Last Correction   2025/06/03 22:19:21
Memo.             
   18175    18193    18206    18212    18230    18260    18283    18277 
   18261    18268    18289    18299    18299    18296    18299    18300 
   18285    18258    18254    18283    18303    18283    18227    18180 
   18165    18162    18164    18177    18207    18235    18242    18250 
   18280    18324    18365    18387    18378    18347    18327    18342 
   18365    18345    18273    18199    18172    18198    18233    18226 
   18169    18118    18139    18220    18274    18256    18195    18153 
   18164    18192    18181    18137    18103    18104    18138    18173 
   18176    18157    18153    18177    18212    18234    18212    18156 
   18131    18177    18245    18262    18216    18162    18162    18218 
   18272    18276    18249    18230    18229    18229    18220    18206 
   18187    18160    18134    18121    18119    18117    18098    18088 
   18114    18141    18131    18095    18072    18104    18183    18235 
   18211    18142    18103    18134    18206    18237    18199    18161 
   18192    18273    18326    18296    18214    18158    18177    18242 
   18277    18249    18198    18198    18265    18330    18341    18324 
   18326    18346    18353    18343    18337    18331    18311    18269 
   18220    18188    18187    18212    18229    18202    18156    18149 
   18184    18223    18247    18268    18279    18266    18238    18214 
   18215    18246    18287    18318    18328    18320    18316    18323 
   18322    18301    18281    18283    18295    18281    18215    18141 
   18108    18131    18173    18179    18123    18063    18069    18135 
   18173    18133    18060    18019    18015    18022    18017    18007 
   18023    18061    18084    18098    18130    18191    18254    18273 
   18234    18208    18265    18372    18431    18387    18293    18243 
   18266    18303    18292    18243    18215    18231    18253    18231 
   18171    18135    18171    18253    18308    18293    18239    18206 
   18216    18250    18265    18242    18203    18176    18173    18188 
   18206    18211    18202    18183    18175    18192    18230    18265 
   18272    18245    18202    18179    18189    18199    18168    18110 
   18071    18077    18106    18118    18110    18111    18138    18175 
   18202    18222    18235    18239    18238    18242    18257    18262 
   18237    18187    18144    18126    18137    18166    18196    18220 
   18231    18220    18196    18189    18216    18249    18246    18212 
   18189    18179    18164    18144    18126    18139    18195    18242 
   18231    18189    18185    18258    18358    18396    18351    18292 
   18277    18318    18365    18349    18277    18223    18218    18233 
   18212    18139    18061    18049    18106    18162    18173    18154 
   18150    18169    18199    18219    18218    18208    18204    18198 
   18198    18215    18216    18179    18133    18130    18184    18239 
   18233    18172    18126    18141    18189    18207    18175    18139 
   18149    18202    18258    18287    18283    18265    18268    18310 
   18365    18370    18301    18225    18218    18261    18274    18227 
   18157    18119    18130    18168    18198    18208    18216    18238 
   18262    18273    18258    18238    18227    18214    18210    18220 
   18203    18149    18104    18110    18164    18212    18202    18125 
   18031    18002    18072    18202    18293    18289    18230    18198 
   18215    18234    18208    18150    18121    18157    18216    18216 
   18156    18119    18166    18241    18246    18191    18152    18177 
   18250    18292    18253    18164    18088    18069    18115    18189 
   18245    18260    18237    18223    18265    18335    18370    18333 
   18253    18223    18287    18376    18404    18358    18297    18296 
   18347    18362    18289    18188    18148    18179    18219    18218 
   18172    18141    18153    18189    18218    18225    18211    18196 
   18199    18230    18279    18319    18327    18297    18254    18230 
   18235    18256    18247    18200    18150    18148    18200    18250 
   18239    18176    18130    18175    18281    18333    18273    18176 
   18152    18219    18292    18291    18242    18208    18207    18207 
   18183    18139    18103    18094    18110    18142    18180    18211 
   18222    18202    18179    18189    18208    18193    18156    18157 
   18220    18283    18268    18181    18099    18080    18127    18193 
   18214    18173    18111    18075    18064    18045    18009    17995 
   18037    18119    18191    18216    18198    18176    18202    18262 
   18293    18258    18218    18242    18293    18301    18265    18250 
   18310    18391    18395    18315    18241    18238    18304    18361 
   18338    18264    18214    18237    18327    18412    18414    18331 
   18216    18137    18135    18180    18198    18162    18123    18131 
   18173    18175    18098    18006    18010    18117    18216    18222 
   18150    18090    18102    18172    18231    18218    18154    18117 
   18131    18168    18199    18214    18207    18198    18202    18204 
   18189    18148    18102    18104    18172    18253    18289    18261 
   18211    18200    18227    18241    18222    18208    18250    18334 
   18381    18350    18292    18272    18293    18314    18318    18327 
   18343    18345    18323    18270    18207    18179    18191    18210 
   18233    18269    18289    18273    18219    18150    18094    18054 
   18029    18033    18083    18152    18183    18137    18040    17976 
   18010    18108    18181    18183    18144    18127    18149    18179 
   18189    18180    18171    18181    18191    18165    18141    18177 
   18241    18249    18179    18112    18158    18306    18418    18395 
   18291    18253    18339    18441    18416    18273    18171    18215 
   18342    18399    18328    18206    18123    18102    18098    18084 
   18065    18069    18096    18123    18153    18207    18262    18254 
   18176    18098    18104    18211    18330    18358    18299    18245 
   18284    18384    18415    18339    18268    18285    18349    18362 
   18283    18187    18185    18265    18296    18219    18118    18107 
   18191    18233    18130    17980    17979    18154    18326    18330 
   18211    18146    18214    18297    18261    18115    18007    18046 
   18184    18281    18264    18191    18165    18193    18206    18192 
   18199    18230    18276    18308    18301    18264    18220    18171 
   18121    18110    18153    18211    18235    18215    18183    18184 
   18227    18265    18231    18135    18076    18117    18222    18314 
   18328    18258    18144    18052    18034    18071    18088    18053 
   18031    18111    18264    18385    18395    18284    18133    18069 
   18158    18310    18373    18315    18237    18229    18273    18293 
   18245    18172    18162    18257    18397    18465    18407    18307 
   18293    18369    18420    18366    18254    18189    18212    18269 
   18287    18237    18154    18103    18110    18149    18196    18226 
   18219    18184    18134    18081    18045    18031    18038    18072 
   18137    18202    18230    18241    18264    18277    18231    18134 
   18050    18053    18133    18208    18235    18219    18196    18219 
   18268    18262    18191    18119    18103    18139    18184    18202 
   18185    18160    18142    18121    18096    18098    18119    18135 
   18152    18164    18171    18193    18212    18188    18154    18164 
   18195    18204    18192    18188    18202    18231    18260    18283 
   18311    18358    18401    18405    18354    18311    18347    18414 
   18411    18345    18274    18245    18235    18175    18064    18004 
   18063    18193    18288    18276    18204    18187    18237    18272 
   18235    18171    18168    18241    18323    18357    18327    18273 
   18241    18210    18135    18072    18115    18279    18468    18558 
   18512    18403    18311    18257    18226    18203    18171    18146 
   18168    18220    18253    18257    18245    18226    18204    18203 
   18207    18166    18090    18054    18110    18195    18198    18073 
   17891    17786    17842    18017    18183    18243    18207    18166 
   18177    18193    18156    18083    18049    18118    18243    18293 
   18223    18102    18014    18021    18100    18148    18127    18112 
   18161    18265    18373    18422    18392    18324    18280    18279 
   18296    18312    18335    18365    18397    18414    18392    18322 
   18231    18161    18119    18098    18084    18060    18021    18014 
   18069    18168    18247    18223    18088    17976    18011    18154 
   18264    18253    18188    18212    18347    18469    18449    18279 
   18099    18080    18220    18350    18347    18246    18162    18157 
   18200    18241    18233    18185    18171    18220    18266    18247 
   18181    18125    18103    18099    18092    18099    18129    18165 
   18195    18225    18247    18254    18252    18247    18245    18253 
   18287    18331    18330    18281    18257    18307    18403    18465 
   18435    18361    18315    18297    18254    18184    18142    18200 
   18328    18389    18312    18199    18180    18264    18330    18279 
   18152    18085    18156    18281    18300    18162    18000    17963 
   18060    18162    18142    18036    17992    18088    18245    18322 
   18253    18126    18080    18146    18265    18357    18372    18315 
   18235    18192    18222    18285    18284    18198    18125    18158 
   18281    18392    18395    18293    18192    18184    18235    18239 
   18160    18076    18085    18180    18252    18220    18121    18056 
   18098    18204    18272    18270    18243    18231    18230    18212 
   18192    18199    18230    18262    18262    18199    18096    18019 
   18014    18065    18117    18133    18135    18161    18218    18281 
   18304    18242    18111    18007    18013    18103    18192    18215 
   18172    18100    18044    18033    18046    18036    18013    18048 
   18150    18265    18338    18324    18214    18081    18015    18034 
   18088    18121    18139    18187    18249    18265    18239    18226 
   18237    18204    18088    17975    18003    18202    18459    18624 
   18621    18523    18454    18466    18493    18450    18361    18314 
   18337    18388    18418    18391    18314    18242    18227    18276 
   18310    18247    18144    18108    18160    18245    18283    18219 
   18119    18098    18175    18269    18293    18223    18126    18092 
   18148    18241    18307    18333    18330    18315    18300    18265 
   18200    18144    18141    18189    18234    18222    18162    18115 
   18144    18234    18291    18245    18112    17995    18000    18122 
   18225    18185    18041    17961    18033    18164    18218    18169 
   18117    18165    18276    18324    18257    18157    18150    18238 
   18292    18238    18127    18083    18165    18284    18316    18250 
   18177    18171    18247    18362    18436    18431    18382    18349 
   18335    18284    18172    18065    18057    18149    18235    18222 
   18134    18075    18118    18242    18328    18299    18208    18145 
   18123    18135    18142    18127    18135    18188    18229    18226 
   18212    18200    18187    18184    18207    18247    18276    18273 
   18254    18234    18227    18241    18257    18264    18285    18326 
   18360    18364    18334    18308    18312    18297    18227    18144 
   18114    18157    18210    18196    18134    18126    18198    18274 
   18300    18276    18241    18220    18185    18106    18026    18009 
   18076    18172    18189    18104    18022    18031    18098    18129 
   18073    17976    17913    17919    18002    18131    18230    18235 
   18154    18054    18029    18104    18207    18252    18215    18162 
   18175    18233    18264    18265    18262    18268    18283    18296 
   18292    18272    18235    18212    18237    18281    18307    18338 
   18408    18495    18526    18477    18414    18405    18438    18430 
   18354    18283    18300    18380    18407    18323    18212    18204 
   18320    18442    18455    18382    18338    18365    18412    18418 
   18364    18287    18233    18220    18231    18227    18188    18134 
   18106    18114    18119    18075    17971    17869    17842    17887 
   17955    18022    18085    18139    18189    18199    18125    18030 
   18023    18102    18191    18243    18239    18188    18127    18087 
   18069    18094    18161    18220    18220    18219    18297    18411 
   18449    18376    18272    18215    18187    18119    18017    17965 
   18017    18119    18172    18142    18092    18100    18165    18216 
   18189    18098    18022    18014    18063    18115    18103    18033 
   18002    18061    18164    18243    18268    18274    18312    18368 
   18376    18312    18229    18183    18188    18234    18288    18328 
   18347    18328    18280    18253    18308    18414    18462    18400 
   18287    18216    18203    18185    18142    18122    18154    18222 
   18276    18254    18165    18088    18100    18196    18300    18355 
   18364    18328    18247    18154    18112    18135    18183    18220 
   18250    18280    18303    18312    18289    18220    18137    18133 
   18231    18331    18350    18304    18256    18242    18227    18148 
   18030    17960    17990    18072    18111    18063    17991    17972 
   17999    17998    17946    17906    17949    18068    18175    18200 
   18168    18146    18192    18289    18351    18342    18320    18372 
   18489    18576    18570    18495    18416    18372    18334    18258 
   18144    18029    17959    17971    18056    18152    18202    18220 
   18279    18389    18477    18476    18370    18249    18247    18387 
   18526    18519    18374    18241    18230    18292    18306    18219 
   18092    18017    18030    18114    18202    18220    18179    18133 
   18134    18185    18230    18220    18185    18180    18229    18324 
   18388    18351    18260    18206    18235    18312    18338    18257 
   18122    18044    18087    18187    18191    18067    17959    18003 
   18160    18246    18175    18057    18065    18214    18357    18361 
   18265    18208    18254    18341    18380    18345    18285    18261 
   18269    18260    18229    18233    18284    18297    18212    18099 
   18063    18122    18215    18264    18247    18200    18154    18114 
   18080    18068    18099    18152    18188    18208    18212    18168 
   18061    17921    17810    17801    17890    18007    18118    18233 
   18320    18328    18260    18169    18130    18148    18165    18157 
   18145    18157    18204    18254    18270    18241    18162    18075 
   18023    18013    18041    18112    18193    18227    18192    18125 
   18092    18111    18153    18193    18223    18246    18245    18219 
   18215    18277    18358    18377    18322    18262    18280    18369 
   18424    18380    18299    18280    18358    18462    18477    18374 
   18273    18285    18376    18435    18422    18349    18258    18219 
   18277    18384    18436    18373    18227    18094    18052    18095 
   18154    18173    18153    18122    18110    18108    18094    18084 
   18104    18119    18115    18127    18191    18307    18430    18496 
   18469    18362    18239    18175    18187    18218    18211    18176 
   18154    18161    18173    18146    18083    18054    18119    18247 
   18324    18281    18176    18119    18165    18266    18339    18328 
   18261    18210    18214    18230    18207    18158    18133    18142 
   18180    18242    18277    18220    18090    17980    17986    18104 
   18225    18230    18129    18048    18092    18223    18296    18229 
   18094    18046    18142    18289    18368    18335    18260    18234 
   18270    18307    18299    18260    18234    18256    18319    18381 
   18400    18368    18318    18289    18279    18250    18189    18110 
   18046    18056    18145    18243    18256    18156    18027    17972 
   17999    18041    18044    18031    18084    18225    18372    18422 
   18346    18215    18123    18119    18206    18328    18423    18469 
   18466    18423    18357    18279    18200    18164    18210    18304 
   18345    18257    18081    17948    17956    18069    18181    18227 
   18211    18175    18173    18206    18218    18177    18117    18106 
   18187    18314    18373    18297    18134    18009    18002    18094 
   18183    18198    18179    18222    18335    18428    18409    18272 
   18139    18130    18226    18323    18341    18299    18293    18369 
   18454    18446    18339    18227    18199    18254    18303    18268 
   18162    18065    18022    18017    18002    17969    17969    18037 
   18146    18241    18265    18200    18098    18057    18115    18216 
   18268    18234    18166    18125    18123    18138    18150    18156 
   18176    18219    18254    18253    18235    18258    18337    18415 
   18441    18408    18338    18261    18219    18226    18247    18226 
   18162    18145    18245    18407    18484    18395    18202    18077 
   18134    18280    18316    18169    17975    17922    18033    18146 
   18122    18003    17950    18034    18150    18179    18131    18087 
   18088    18119    18138    18133    18125    18115    18091    18071 
   18075    18085    18088    18104    18150    18214    18268    18304 
   18330    18343    18319    18250    18177    18144    18138    18117 
   18080    18080    18139    18216    18250    18229    18192    18195 
   18250    18311    18323    18299    18303    18372    18461    18499 
   18465    18380    18287    18235    18258    18342    18411    18408 
   18351    18292    18257    18229    18183    18134    18133    18191 
   18264    18289    18247    18189    18173    18184    18166    18118 
   18091    18130    18215    18289    18318    18291    18222    18148 
   18106    18111    18142    18162    18161    18150    18150    18157 
   18129    18077    18081    18172    18287    18342    18307    18225 
   18179    18189    18193    18139    18075    18088    18192    18303 
   18349    18326    18272    18252    18292    18349    18358    18291 
   18185    18138    18176    18241    18264    18219    18160    18166 
   18249    18337    18357    18303    18247    18252    18291    18285 
   18199    18079    18013    18042    18138    18225    18233    18168 
   18099    18090    18142    18211    18249    18247    18238    18237 
   18229    18196    18144    18083    18045    18073    18169    18265 
   18299    18264    18188    18130    18129    18161    18177    18175 
   18193    18252    18316    18334    18289    18216    18171    18156 
   18153    18179    18241    18296    18299    18247    18179    18126 
   18091    18075    18100    18162    18199    18171    18104    18044 
   18025    18061    18130    18188    18229    18241    18212    18150 
   18096    18088    18118    18138    18123    18106    18117    18145 
   18152    18104    18022    17967    17983    18072    18195    18287 
   18320    18322    18324    18345    18354    18323    18257    18191 
   18165    18202    18260    18287    18291    18314    18360    18393 
   18368    18303    18268    18304    18396    18485    18520    18507 
   18488    18472    18445    18420    18418    18423    18411    18373 
