Origin Time       2025/06/03 22:18:00
Lat.              41.7
Long.             143.6
Depth. (km)       30
Mag.              5.2
Station Code      KSRH08
Station Lat.      43.1603
Station Long.     143.8936
Station Height(m) 74
Record Time       2025/06/03 22:19:02
Sampling Freq(Hz) 100Hz
Duration Time(s)  120
Dir.              2
Scale Factor      2942(gal)/8224139
Max. Acc. (gal)   0.250
Last Correction   2025/06/03 22:19:03
Memo.             
[...]
   27433    27379    27332    27292    27249    27206    27178    27172 
   27189    27220    27265    27324    27369    27386    27390    27396 
   27418    27457    27508    27556    27592    27629    27665    27687 
   27673    27637    27592    27534    27483    27459    27442    27421 
   27405    27396    27394    27379    27357    27353    27373    27400 
   27422    27434    27440    27440    27429    27400    27371    27337 
   27286    27225    27162    27082    26985    26897    26859    26902 
   27013    27149    27287    27425    27580    27741    27855    27892 
   27847    27741    27619    27533    27499    27484    27442    27384 
   27341    27318    27318    27345    27407    27498    27580    27621 
   27621    27592    27542    27475    27406    27340    27271    27206 
   27170    27172    27209    27272    27336    27365    27368    27359 
   27334    27307    27288    27271    27247    27206    27156    27122 
   27128    27178    27267    27369    27459    27521    27571    27633 
   27687    27706    27708    27703    27688    27662    27625    27599 
   27598    27611    27626    27642    27666    27688    27697    27679 
   27627    27564    27498    27442    27419    27437    27475    27515 
   27540    27527    27491    27449    27419    27405    27406    27418 
   27425    27414    27383    27337    27271    27179    27091    27036 
   27014    27020    27039    27064    27105    27160    27216    27257 
   27278    27298    27342    27398    27441    27483    27522    27545 
   27564    27583    27585    27567    27534    27495    27467    27445 
   27400    27344    27303    27290    27287    27263    27224    27193 
   27170    27157    27153    27166    27201    27243    27268    27275 
   27278    27287    27301    27319    27344    27376    27399    27407 
   27422    27450    27490    27534    27579    27635    27699    27747 
   27765    27742    27699    27673    27684    27716    27757    27807 
   27861    27916    27961    27972    27938    27893    27878    27889 
   27911    27954    28011    28050    28059    28044    27994    27903 
   27800    27714    27648    27602    27558    27500    27421    27333 
   27265    27207    27139    27076    27027    26993    26978    26979 
   26997    27006    26986    26944    26887    26825    26770    26740 
   26746    26781    26828    26865    26871    26855    26838    26851 
   26893    26943    27005    27093    27201    27313    27411    27499 
   27591    27665    27692    27683    27660    27643    27645    27645 
   27633    27629    27650    27683    27707    27727    27750    27750 
   27710    27642    27565    27492    27433    27379    27340    27322 
   27307    27287    27264    27247    27244    27267    27303    27346 
   27386    27410    27444    27499    27548    27565    27560    27545 
   27519    27484    27450    27419    27375    27311    27261    27257 
   27286    27336    27410    27492    27554    27600    27639    27660 
   27668    27676    27679    27669    27662    27649    27616    27572 
   27514    27459    27430    27421    27414    27410    27407    27399 
   27364    27295    27211    27124    27049    27013    27016    27041 
   27074    27120    27193    27278    27344    27395    27445    27477 
   27490    27486    27463    27437    27414    27386    27346    27309 
   27288    27291    27310    27328    27329    27319    27298    27270 
   27264    27294    27341    27390    27422    27426    27405    27378 
   27367    27387    27419    27434    27437    27425    27390    27359 
   27348    27353    27357    27340    27315    27309    27307    27294 
   27260    27198    27126    27106    27157    27240    27311    27375 
   27441    27498    27530    27544    27550    27560    27579    27611 
   27649    27679    27688    27669    27629    27588    27576    27608 
   27681    27774    27859    27908    27920    27912    27900    27895 
   27878    27851    27842    27838    27800    27720    27618    27521 
   27442    27391    27361    27363    27414    27494    27552    27595 
   27630    27639    27618    27571    27506    27426    27336    27249 
   27176    27125    27110    27126    27160    27207    27259    27310 
   27357    27376    27357    27318    27279    27251    27229    27216 
   27221    27226    27220    27203    27176    27166    27184    27229 
   27286    27337    27368    27382    27383    27378    27353    27310 
   27252    27194    27167    27193    27264    27357    27460    27554 
   27614    27626    27598    27541    27484    27448    27413    27361 
   27307    27275    27274    27298    27338    27373    27388    27402 
   27445    27517    27583    27621    27633    27618    27596    27587 
   27581    27575    27572    27575    27583    27595    27598    27591 
   27591    27595    27603    27618    27625    27612    27592    27575 
   27556    27535    27518    27511    27507    27487    27448    27400 
   27351    27314    27313    27338    27375    27399    27398    27364 
   27305    27225    27139    27056    26981    26913    26869    26843 
   26823    26800    26782    26796    26842    26896    26948    27012 
   27085    27140    27176    27194    27190    27183    27180    27194 
   27234    27288    27352    27436    27530    27625    27693    27718 
   27722    27743    27783    27796    27766    27710    27635    27557 
   27496    27475    27487    27503    27526    27571    27633    27700 
   27730    27699    27637    27573    27515    27471    27441    27432 
   27445    27461    27453    27437    27437    27446    27463    27488 
   27523    27577    27642    27684    27692    27684    27662    27626 
   27585    27537    27488    27460    27440    27403    27359    27341 
   27351    27363    27375    27405    27440    27467    27480    27484 
   27483    27480    27463    27426    27373    27318    27288    27297 
   27315    27317    27311    27313    27314    27337    27386    27449 
   27519    27579    27603    27598    27575    27531    27469    27402 
   27342    27302    27278    27261    27263    27284    27315    27353 
   27392    27440    27496    27549    27588    27629    27677    27702 
   27695    27662    27608    27548    27500    27487    27510    27553 
   27588    27596    27581    27545    27481    27414    27352    27280 
   27220    27180    27140    27093    27059    27024    26986    26978 
   27016    27075    27125    27157    27175    27190    27207    27216 
   27220    27213    27193    27180    27184    27187    27190    27197 
   27195    27186    27174    27160    27148    27145    27151    27149 
   27151    27172    27201    27236    27283    27334    27409    27510 
   27596    27656    27699    27726    27747    27760    27762    27769 
   27783    27805    27837    27858    27868    27866    27841    27783 
   27723    27692    27673    27643    27610    27569    27542    27556 
   27585    27599    27595    27575    27530    27456    27359    27252 
   27155    27083    27037    27005    26989    27000    27039    27091 
   27147    27198    27232    27249    27267    27295    27329    27342 
   27345    27365    27400    27425    27434    27427    27422    27436 
   27467    27498    27500    27479    27465    27468    27473    27490 
   27519    27554    27595    27633    27646    27633    27618    27616 
   27614    27591    27562    27552    27553    27565    27589    27606 
   27588    27553    27515    27477    27433    27395    27388    27409 
   27417    27387    27332    27267    27206    27167    27151    27164 
   27203    27260    27321    27376    27414    27425    27413    27403 
   27405    27388    27356    27332    27329    27345    27357    27361 
   27380    27426    27480    27531    27568    27583    27571    27525 
   27469    27432    27400    27380    27390    27418    27450    27495 
   27553    27610    27649    27676    27685    27666    27638    27606 
   27561    27529    27506    27486    27487    27510    27538    27558 
   27575    27580    27572    27549    27507    27449    27406    27387 
   27376    27359    27340    27333    27329    27311    27290    27267 
   27237    27211    27209    27238    27288    27338    27371    27390 
   27414    27440    27457    27465    27463    27444    27417    27386 
   27353    27325    27298    27275    27248    27224    27213    27214 
   27216    27211    27202    27202    27216    27229    27230    27211 
   27170    27118    27075    27047    27014    26975    26958    26977 
   27018    27075    27144    27229    27326    27425    27506    27571 
   27625    27654    27658    27653    27660    27676    27685    27684 
   27672    27652    27638    27650    27689    27739    27780    27808 
   27814    27791    27741    27677    27621    27572    27526    27483 
   27438    27391    27346    27321    27310    27302    27303    27318 
   27336    27351    27363    27391    27442    27480    27486    27488 
   27498    27491    27486    27494    27495    27491    27486    27469 
   27449    27432    27407    27384    27378    27394    27415    27429 
   27429    27423    27415    27409    27402    27391    27379    27372 
   27375    27382    27376    27348    27325    27326    27344    27367 
   27391    27421    27453    27488    27515    27519    27494    27456 
   27427    27419    27422    27415    27399    27396    27407    27423 
   27437    27438    27430    27423    27432    27453    27468    27472 
   27491    27521    27542    27553    27542    27521    27511    27508 
   27500    27502    27513    27517    27515    27510    27490    27456 
   27422    27388    27361    27344    27326    27310    27283    27247 
   27224    27211    27190    27166    27149    27139    27136    27144 
   27155    27170    27187    27187    27166    27156    27172    27193 
   27213    27251    27310    27376    27440    27491    27537    27585 
   27637    27696    27760    27805    27818    27807    27791    27770 
   27749    27739    27743    27758    27777    27787    27789    27797 
   27814    27820    27807    27777    27743    27704    27662    27622 
   27576    27525    27472    27432    27430    27454    27483    27510 
   27523    27511    27477    27437    27406    27372    27324    27263 
   27199    27139    27089    27054    27022    26991    26975    26977 
   26985    26986    26982    26981    26978    26960    26933    26916 
   26913    26927    26959    27009    27074    27144    27209    27265 
   27315    27353    27371    27371    27369    27373    27388    27411 
   27441    27471    27504    27550    27596    27635    27662    27658 
   27631    27608    27588    27573    27560    27541    27529    27529 
   27533    27538    27538    27525    27506    27494    27490    27483 
   27465    27434    27398    27363    27332    27297    27261    27238 
   27228    27228    27232    27234    27237    27243    27257    27280 
   27303    27319    27332    27340    27357    27388    27421    27449 
   27480    27521    27571    27623    27669    27710    27735    27745 
   27746    27731    27702    27688    27687    27673    27645    27603 
   27560    27535    27531    27531    27526    27508    27477    27446 
   27430    27415    27392    27364    27330    27280    27222    27170 
   27121    27083    27062    27056    27064    27085    27105    27109 
   27093    27064    27045    27035    27032    27048    27079    27116 
   27157    27195    27222    27241    27248    27253    27276    27321 
   27369    27413    27445    27469    27496    27540    27594    27638 
   27664    27680    27703    27724    27737    27756    27773    27788 
   27808    27822    27824    27826    27816    27800    27776    27743 
   27715    27679    27635    27598    27558    27510    27472    27453 
   27444    27427    27396    27361    27329    27291    27249    27224 
   27216    27218    27234    27252    27265    27280    27298    27317 
   27340    27365    27392    27427    27480    27537    27592    27639 
   27666    27668    27660    27657    27649    27629    27615    27616 
   27618    27604    27575    27533    27483    27441    27413    27388 
   27356    27317    27290    27264    27224    27175    27133    27103 
   27089    27095    27113    27136    27166    27186    27194    27195 
   27189    27182    27191    27218    27259    27303    27353    27409 
   27453    27494    27534    27565    27589    27603    27604    27606 
   27622    27657    27693    27715    27719    27707    27685    27649 
   27606    27571    27531    27494    27464    27437    27407    27383 
   27365    27349    27338    27318    27276    27225    27174    27116 
   27062    27021    26985    26959    26964    26998    27054    27120 
   27189    27248    27290    27319    27344    27368    27392    27417 
   27437    27460    27490    27522    27562    27610    27642    27656 
   27661    27673    27707    27754    27801    27830    27835    27822 
   27793    27762    27733    27704    27683    27669    27653    27641 
   27638    27627    27596    27546    27486    27432    27394    27368 
   27340    27305    27272    27243    27216    27195    27182    27178 
   27183    27203    27238    27280    27321    27353    27384    27411 
   27438    27481    27535    27602    27677    27739    27787    27834 
   27880    27924    27974    28016    28038    28050    28061    28055 
   28026    27990    27963    27926    27869    27808    27741    27660 
   27575    27498    27425    27356    27295    27233    27168    27110 
   27056    27009    26956    26889    26820    26763    26728    26719 
   26731    26746    26762    26782    26796    26816    26854    26894 
   26925    26950    26975    27002    27025    27045    27072    27101 
   27124    27141    27160    27174    27187    27209    27230    27257 
   27284    27306    27321    27330    27337    27340    27329    27318 
   27317    27315    27307    27298    27295    27297    27298    27299 
   27303    27306    27302    27288    27271    27251    27230    27210 
   27193    27186    27182    27175    27175    27179    27193    27222 
   27265    27317    27378    27442    27507    27560    27592    27616 
   27637    27662    27691    27706    27719    27747    27778    27815 
   27851    27877    27904    27936    27972    28004    28019    28026 
   28040    28061    28074    28067    28053    28042    28015    27967 
   27915    27858    27800    27735    27669    27600    27523    27456 
   27410    27361    27318    27286    27245    27207    27174    27137 
   27105    27083    27072    27074    27085    27109    27149    27202 
   27261    27318    27376    27440    27494    27527    27560    27598 
   27618    27626    27641    27657    27668    27679    27680    27673 
   27673    27676    27669    27650    27621    27583    27542    27504 
   27468    27429    27392    27353    27319    27301    27287    27272 
   27260    27248    27233    27222    27211    27199    27187    27162 
   27125    27102    27087    27070    27063    27047    27014    26978 
   26932    26881    26838    26808    26797    26812    26846    26890 
   26946    27008    27078    27157    27234    27299    27356    27405 
   27444    27471    27495    27515    27529    27538    27549    27565 
   27598    27635    27675    27719    27765    27801    27827    27834 
   27816    27797    27777    27756    27741    27735    27734    27719 
   27679    27631    27587    27535    27484    27434    27386    27351 
   27328    27314    27302    27282    27271    27268    27259    27249 
   27240    27229    27233    27251    27261    27268    27270    27261 
   27249    27243    27249    27274    27305    27346    27391    27423 
   27449    27468    27476    27488    27500    27498    27488    27486 
   27492    27506    27519    27521    27511    27504    27500    27498 
   27506    27521    27535    27553    27568    27573    27571    27567 
   27564    27552    27537    27537    27542    27541    27535    27522 
   27500    27476    27449    27427    27415    27406    27398    27387 
   27368    27345    27321    27294    27261    27233    27213    27207 
   27216    27229    27243    27263    27287    27294    27292    27292 
   27294    27310    27330    27357    27409    27473    27534    27585 
   27615    27635    27649    27646    27641    27639    27634    27625 
   27615    27602    27584    27561    27535    27511    27492    27479 
   27465    27445    27423    27407    27398    27392    27384    27373 
   27367    27356    27341    27315    27280    27253    27241    27222 
   27207    27217    27241    27268    27301    27333    27364    27398 
   27436    27479    27519    27558    27599    27630    27648    27660 
   27665    27662    27652    27633    27616    27598    27573    27556 
   27548    27545    27541    27538    27540    27548    27556    27560 
   27560    27550    27527    27492    27450    27411    27376    27337 
   27292    27248    27207    27171    27136    27091    27039    26991 
   26952    26924    26916    26921    26932    26947    26958    26971 
   26989    27004    27022    27041    27055    27078    27103    27126 
   27157    27190    27222    27260    27298    27338    27394    27456 
   27507    27546    27585    27618    27630    27633    27637    27642 
   27650    27657    27661    27665    27670    27681    27692    27697 
   27703    27708    27716    27723    27724    27722    27708    27680 
   27652    27630    27604    27575    27561    27554    27546    27542 
   27542    27537    27537    27550    27569    27587    27606    27625 
   27638    27648    27653    27649    27630    27598    27564    27527 
   27491    27467    27460    27454    27440    27418    27396    27376 
   27352    27322    27292    27259    27226    27205    27183    27167 
   27160    27155    27152    27164    27186    27214    27248    27284 
   27322    27359    27395    27440    27481    27511    27531    27546 
   27560    27573    27572    27560    27550    27548    27545    27542 
   27545    27540    27521    27500    27476    27445    27415    27384 
   27348    27317    27298    27283    27267    27245    27233    27232 
   27232    27226    27224    27230    27237    27241    27245    27252 
   27267    27287    27311    27341    27372    27403    27433    27452 
   27469    27487    27495    27498    27504    27513    27521    27522 
   27518    27519    27518    27510    27502    27499    27504    27508 
   27507    27514    27522    27518    27514    27513    27508    27508 
   27511    27510    27511    27517    27508    27494    27484    27476 
   27463    27445    27429    27426    27436    27454    27477    27491 
   27498    27503    27507    27511    27519    27517    27495    27475 
   27454    27426    27409    27395    27375    27367    27368    27363 
   27359    27360    27363    27359    27345    27321    27292    27257 
   27217    27195    27183    27174    27171    27176    27178    27182 
   27190    27201    27211    27229    27255    27275    27292    27310 
   27318    27326    27342    27368    27403    27436    27461    27484 
   27504    27519    27527    27519    27504    27495    27487    27477 
   27465    27448    27425    27403    27388    27373    27361    27356 
   27352    27353    27365    27373    27371    27367    27365    27365 
   27368    27363    27349    27341    27346    27355    27364    27376 
