Origin Time       2025/06/03 22:18:00
Lat.              41.7
Long.             143.6
Depth. (km)       30
Mag.              5.2
Station Code      KSRH04
Station Lat.      43.2139
Station Long.     144.6804
Station Height(m) 30
Record Time       2025/06/03 22:19:16
Sampling Freq(Hz) 100Hz
Duration Time(s)  120
Dir.              5
Scale Factor      7845(gal)/8223790
Max. Acc. (gal)   0.873
Last Correction   2025/06/03 22:19:17
Memo.             
[...]
    4517     4560     4580     4560     4564     4595     4584     4540 
    4533     4564     4611     4668     4652     4546     4504     4542 
    4536     4518     4538     4542     4546     4579     4588     4560 
    4546     4563     4572     4584     4631     4645     4557     4428 
    4376     4437     4515     4549     4583     4631     4641     4592 
    4537     4534     4568     4591     4612     4626     4622     4621 
    4617     4610     4630     4625     4557     4510     4513     4527 
    4565     4614     4618     4577     4541     4530     4560     4606 
    4592     4529     4529     4615     4698     4752     4792     4749 
    4641     4592     4592     4573     4563     4558     4565     4591 
    4596     4584     4588     4587     4580     4602     4618     4590 
    4549     4536     4545     4590     4650     4650     4607     4610 
    4631     4599     4558     4550     4534     4541     4618     4684 
    4661     4623     4625     4608     4563     4498     4448     4496 
    4592     4607     4564     4518     4469     4452     4467     4494 
    4554     4631     4668     4671     4665     4615     4515     4440 
    4437     4488     4583     4680     4684     4595     4518     4506 
    4548     4606     4610     4553     4476     4414     4403     4444 
    4522     4627     4703     4725     4716     4657     4538     4463 
    4480     4541     4606     4638     4631     4623     4604     4564 
    4548     4540     4498     4498     4590     4666     4666     4642 
    4608     4577     4583     4583     4577     4591     4579     4553 
    4569     4606     4598     4540     4534     4615     4661     4625 
    4554     4498     4509     4576     4623     4634     4630     4617 
    4606     4592     4557     4548     4600     4658     4650     4585 
    4530     4504     4475     4444     4426     4433     4495     4565 
    4583     4604     4634     4612     4580     4568     4567     4579 
    4581     4580     4600     4590     4554     4561     4571     4522 
    4469     4472     4523     4575     4587     4568     4565     4569 
    4536     4498     4519     4581     4611     4573     4518     4518 
    4545     4563     4598     4646     4666     4662     4645     4608 
    4573     4584     4635     4685     4695     4644     4575     4552 
    4579     4618     4617     4565     4527     4564     4646     4685 
    4642     4567     4510     4514     4580     4610     4569     4549 
    4565     4538     4487     4494     4561     4630     4672     4664 
    4612     4560     4511     4490     4529     4568     4580     4599 
    4598     4588     4607     4590     4553     4585     4634     4625 
    4596     4584     4564     4523     4500     4525     4577     4614 
    4619     4610     4615     4653     4653     4592     4561     4556 
    4513     4488     4531     4588     4626     4639     4595     4531 
    4557     4626     4642     4661     4673     4598     4513     4496 
    4496     4510     4573     4629     4626     4604     4591     4557 
    4487     4418     4395     4455     4581     4658     4626     4592 
    4610     4623     4618     4584     4518     4494     4529     4553 
    4556     4565     4572     4581     4599     4595     4549     4487 
    4472     4507     4546     4572     4577     4587     4626     4675 
    4710     4710     4656     4604     4617     4644     4603     4540 
    4560     4623     4635     4612     4594     4568     4540     4490 
    4428     4441     4552     4687     4793     4830     4770     4665 
    4596     4584     4575     4553     4577     4631     4662     4652 
    4595     4534     4519     4531     4569     4615     4592     4498 
    4436     4464     4552     4622     4637     4627     4592     4537 
    4515     4515     4503     4513     4560     4598     4565     4467 
    4391     4430     4576     4696     4688     4634     4629     4631 
    4602     4571     4549     4565     4626     4669     4687     4673 
    4588     4494     4432     4383     4395     4459     4498     4548 
    4626     4677     4691     4645     4550     4500     4514     4518 
    4482     4441     4449     4509     4572     4591     4571     4544 
    4527     4522     4488     4440     4446     4469     4494     4577 
    4641     4642     4684     4747     4743     4714     4687     4641 
    4612     4599     4530     4442     4387     4372     4426     4534 
    4631     4710     4792     4839     4797     4685     4564     4494 
    4519     4587     4608     4591     4563     4536     4561     4612 
    4607     4564     4538     4534     4546     4571     4585     4612 
    4654     4635     4556     4525     4568     4627     4661     4661 
    4637     4579     4486     4459     4541     4604     4594     4598 
    4642     4700     4745     4707     4622     4588     4576     4552 
    4554     4573     4599     4599     4523     4487     4569     4638 
    4652     4680     4676     4590     4502     4475     4480     4518 
    4569     4556     4529     4595     4675     4664     4612     4587 
    4579     4556     4515     4500     4536     4569     4544     4507 
    4503     4506     4496     4457     4421     4442     4488     4502 
    4511     4588     4695     4750     4783     4792     4706     4606 
    4583     4563     4521     4500     4502     4534     4598     4610 
    4564     4567     4581     4490     4383     4414     4553     4687 
    4739     4703     4648     4604     4550     4511     4503     4494 
    4494     4504     4519     4567     4637     4706     4750     4738 
    4676     4576     4477     4475     4531     4540     4548     4573 
    4525     4441     4422     4446     4507     4612     4695     4718 
    4695     4610     4507     4495     4531     4495     4417     4376 
    4368     4388     4436     4518     4683     4855     4900     4842 
    4783     4735     4664     4569     4517     4537     4572     4588 
    4619     4668     4692     4635     4495     4399     4422     4484 
    4522     4556     4621     4695     4715     4662     4596     4564 
    4548     4536     4550     4575     4567     4538     4514     4494 
    4503     4540     4556     4568     4594     4588     4571     4567 
    4545     4537     4567     4603     4648     4688     4708     4720 
    4695     4591     4477     4459     4533     4617     4672     4691 
    4664     4585     4477     4423     4490     4625     4714     4733 
    4693     4599     4504     4455     4463     4542     4614     4611 
    4569     4511     4463     4449     4455     4483     4525     4561 
    4607     4644     4644     4626     4592     4521     4452     4442 
    4467     4504     4571     4621     4619     4599     4572     4531 
    4529     4591     4627     4585     4546     4545     4545     4561 
    4579     4584     4612     4652     4675     4669     4630     4580 
    4556     4575     4615     4621     4600     4567     4510     4488 
    4513     4545     4606     4656     4652     4649     4645     4583 
    4530     4542     4538     4519     4556     4599     4599     4587 
    4554     4510     4500     4527     4579     4626     4627     4584 
    4579     4649     4714     4715     4673     4612     4542     4511 
    4553     4594     4571     4569     4607     4619     4607     4550 
    4453     4398     4405     4423     4452     4490     4521     4564 
    4637     4703     4743     4745     4666     4514     4379     4336 
    4367     4428     4504     4571     4627     4668     4617     4479 
    4402     4453     4569     4639     4598     4482     4394     4405 
    4446     4450     4498     4592     4630     4622     4581     4484 
    4384     4315     4328     4484     4688     4796     4812     4765 
    4698     4650     4579     4519     4569     4671     4746     4795 
    4793     4727     4630     4540     4515     4577     4631     4612 
    4617     4702     4764     4738     4641     4544     4571     4673 
    4693     4664     4669     4673     4646     4619     4633     4720 
    4838     4905     4916     4923     4900     4795     4669     4621 
    4630     4639     4648     4645     4600     4564     4576     4587 
    4584     4561     4500     4486     4584     4677     4633     4483 
    4311     4164     4166     4295     4353     4384     4515     4622 
    4615     4563     4496     4465     4531     4646     4726     4739 
    4669     4533     4418     4402     4456     4492     4499     4513 
    4509     4471     4425     4380     4387     4476     4585     4660 
    4700     4720     4726     4708     4672     4599     4488     4426 
    4477     4565     4611     4596     4531     4500     4530     4573 
    4607     4630     4617     4546     4463     4452     4506     4598 
    4703     4769     4787     4742     4617     4506     4437     4349 
    4311     4387     4511     4641     4730     4722     4691     4687 
    4649     4611     4654     4698     4645     4522     4415     4413 
    4511     4607     4638     4656     4685     4672     4607     4540 
    4463     4410     4460     4592     4715     4764     4726     4666 
    4638     4584     4472     4365     4340     4433     4576     4642 
    4623     4596     4544     4460     4399     4390     4441     4552 
    4696     4834     4895     4842     4714     4577     4503     4548 
    4634     4629     4573     4538     4477     4429     4444     4453 
    4459     4514     4545     4525     4557     4660     4774     4843 
    4814     4706     4612     4629     4737     4797     4769     4718 
    4633     4530     4463     4394     4328     4330     4374     4396 
    4449     4580     4699     4676     4495     4286     4194     4206 
    4294     4487     4730     4926     4996     4904     4730     4564 
    4448     4405     4406     4411     4414     4446     4557     4723 
    4835     4801     4661     4549     4537     4560     4545     4517 
    4523     4581     4698     4842     4916     4851     4673     4464 
    4334     4368     4471     4486     4446     4492     4606     4671 
    4681     4649     4558     4513     4590     4696     4779     4816 
    4743     4610     4525     4460     4391     4380     4452     4587 
    4727     4743     4598     4449     4374     4287     4180     4140 
    4205     4357     4567     4789     4965     5005     4887     4689 
    4494     4348     4301     4337     4387     4444     4561     4723 
    4851     4870     4768     4648     4598     4584     4549     4477 
    4428     4473     4583     4730     4896     4947     4823     4615 
    4383     4156     4018     4005     4093     4260     4460     4635 
    4823     5038     5143     5038     4818     4648     4572     4545 
    4546     4576     4648     4731     4758     4700     4599     4525 
    4469     4409     4428     4531     4638     4729     4773     4735 
    4668     4585     4457     4347     4334     4411     4515     4585 
    4619     4660     4711     4743     4741     4635     4410     4153 
    3983     3982     4122     4317     4533     4747     4914     4985 
    4953     4864     4738     4571     4392     4241     4167     4240 
    4415     4607     4788     4901     4909     4833     4692     4552 
    4455     4384     4347     4349     4359     4374     4446     4571 
    4698     4820     4888     4827     4700     4610     4581     4625 
    4711     4787     4838     4849     4792     4645     4433     4257 
    4212     4255     4325     4413     4479     4506     4519     4498 
    4479     4534     4658     4822     4946     4988     4972     4858 
    4692     4595     4557     4558     4634     4738     4810     4841 
    4793     4622     4414     4299     4338     4514     4703     4807 
    4826     4738     4606     4540     4482     4406     4434     4545 
    4611     4633     4633     4580     4500     4437     4374     4320 
    4275     4240     4294     4457     4592     4652     4693     4722 
    4753     4792     4770     4692     4612     4499     4313     4126 
    4062     4155     4348     4564     4726     4774     4695     4550 
    4464     4476     4536     4612     4683     4715     4683     4573 
    4465     4457     4558     4693     4747     4715     4658     4565 
    4475     4452     4482     4557     4646     4683     4676     4675 
    4689     4703     4673     4595     4522     4525     4614     4708 
    4731     4749     4806     4792     4675     4573     4557     4598 
    4637     4581     4432     4290     4210     4236     4425     4711 
    4965     5105     5105     5019     4931     4833     4695     4600 
    4576     4556     4581     4658     4653     4588     4560     4509 
    4450     4499     4585     4588     4549     4519     4509     4545 
    4592     4618     4661     4710     4703     4619     4507     4459 
    4418     4301     4202     4182     4193     4241     4353     4517 
    4679     4743     4671     4565     4500     4429     4396     4456 
    4518     4579     4664     4644     4525     4455     4426     4407 
    4409     4344     4193     4101     4102     4132     4224     4368 
    4504     4649     4769     4792     4714     4542     4353     4267 
    4340     4546     4735     4776     4760     4776     4784     4787 
    4793     4781     4770     4756     4725     4695     4649     4548 
    4433     4413     4536     4741     4912     4984     5000     4972 
    4816     4557     4301     4083     3977     4074     4333     4634 
    4916     5170     5377     5491     5421     5077     4514     3997 
    3835     4066     4468     4835     5035     5023     4872     4675 
    4484     4294     4121     4089     4255     4502     4704     4810 
    4795     4696     4584     4533     4607     4718     4658     4449 
    4288     4229     4260     4376     4461     4455     4469     4496 
    4415     4301     4253     4257     4349     4517     4683     4837 
    4919     4849     4672     4500     4452     4564     4671     4622 
    4488     4411     4450     4585     4735     4787     4747     4776 
    4892     4908     4762     4627     4590     4548     4452     4322 
    4176     4135     4278     4483     4669     4861     5013     5098 
    5144     5096     4896     4650     4446     4272     4193     4278 
    4440     4554     4626     4730     4823     4788     4654     4518 
    4410     4380     4415     4480     4644     4865     4947     4839 
    4623     4378     4197     4139     4131     4147     4279     4522 
    4776     4962     4995     4932     4892     4772     4542     4368 
    4263     4149     4072     4078     4174     4391     4700     4986 
    5189     5256     5116     4851     4607     4414     4342     4475 
    4711     4854     4810     4692     4672     4719     4680     4533 
    4353     4253     4341     4534     4617     4583     4544     4486 
    4380     4280     4271     4414     4612     4700     4669     4602 
    4576     4615     4592     4482     4406     4326     4221     4225 
    4356     4554     4738     4780     4757     4812     4828     4687 
    4515     4433     4437     4544     4735     4905     5008     5030 
    4934     4753     4546     4353     4237     4279     4473     4665 
    4699     4553     4325     4197     4255     4351     4398     4511 
    4707     4873     4931     4866     4781     4770     4731     4590 
    4468     4413     4322     4220     4245     4425     4652     4795 
    4768     4599     4433     4353     4321     4348     4444     4572 
    4714     4768     4654     4513     4461     4445     4415     4374 
    4348     4419     4595     4730     4743     4722     4772     4928 
    5112     5189     5092     4835     4514     4236     4055     4033 
    4189     4437     4695     4885     4934     4860     4691     4437 
    4189     4055     4045     4108     4213     4365     4558     4731 
    4811     4789     4757     4770     4784     4780     4766     4742 
    4750     4773     4735     4665     4622     4560     4500     4525 
    4612     4770     4986     5089     4989     4774     4564     4445 
    4369     4229     4082     4032     4063     4132     4268     4514 
    4818     5071     5212     5206     5054     4830     4642     4533 
    4486     4484     4542     4649     4738     4739     4604     4363 
    4126     3971     3943     4112     4418     4689     4819     4788 
    4604     4321     4083     4056     4240     4518     4772     4862 
    4703     4445     4340     4438     4626     4816     4969     5066 
    5111     5125     5139     5097     4919     4683     4571     4572 
    4546     4498     4480     4479     4511     4563     4567     4537 
    4515     4490     4448     4428     4461     4541     4672     4847 
    4938     4881     4789     4691     4550     4450     4437     4491 
    4590     4661     4680     4710     4762     4768     4661     4475 
    4322     4272     4305     4365     4430     4486     4510     4517 
    4494     4418     4351     4309     4280     4283     4275     4245 
    4255     4295     4349     4399     4390     4306     4217     4198 
    4240     4310     4446     4668     4881     4986     5028     5096 
    5132     5085     5003     4915     4834     4793     4812     4819 
    4696     4495     4367     4332     4405     4612     4841     4966 
    4947     4754     4486     4333     4360     4471     4554     4560 
    4467     4337     4344     4522     4661     4617     4480     4375 
    4326     4326     4387     4491     4572     4596     4612     4679 
    4789     4826     4716     4600     4610     4696     4788     4874 
    4953     4965     4795     4502     4299     4241     4276     4407 
    4558     4604     4577     4575     4592     4581     4531     4417 
    4230     4050     3967     4017     4222     4526     4777     4907 
    4936     4873     4780     4749     4757     4745     4720     4695 
    4689     4747     4835     4878     4845     4737     4623     4592 
    4639     4696     4708     4649     4553     4521     4554     4571 
    4583     4592     4506     4315     4102     3962     4004     4233 
    4538     4800     4946     4962     4868     4711     4565     4450 
    4375     4401     4513     4623     4700     4708     4634     4588 
    4584     4549     4545     4634     4703     4626     4514     4521 
    4585     4633     4685     4764     4885     4976     4914     4715 
    4473     4255     4114     4047     4052     4185     4391     4537 
    4575     4504     4349     4205     4170     4287     4483     4637 
    4747     4820     4780     4633     4436     4241     4158     4240 
    4409     4536     4550     4490     4442     4445     4491     4594 
    4712     4762     4720     4604     4513     4541     4634     4749 
    4927     5093     5097     4980     4909     4891     4803     4654 
    4506     4380     4355     4450     4558     4592     4554     4499 
    4472     4464     4460     4506     4633     4770     4822     4785 
    4738     4730     4739     4696     4577     4430     4329     4347 
    4491     4673     4780     4762     4661     4571     4530     4492 
    4465     4545     4696     4776     4743     4652     4564     4517 
    4482     4415     4298     4189     4178     4226     4276     4376 
    4548     4719     4834     4887     4892     4896     4916     4896 
