Origin Time       2025/06/03 22:18:00
Lat.              41.7
Long.             143.6
Depth. (km)       30
Mag.              5.2
Station Code      KSRH03
Station Lat.      43.3848
Station Long.     144.6279
Station Height(m) 83
Record Time       2025/06/03 22:19:18
Sampling Freq(Hz) 100Hz
Duration Time(s)  120
Dir.              5
Scale Factor      7845(gal)/8223790
Max. Acc. (gal)   1.705
Last Correction   2025/06/03 22:19:18
Memo.             
[...]
   -8603    -8676    -8739    -8791    -8808    -8776    -8700    -8608 
   -8534    -8488    -8465    -8469    -8521    -8596    -8644    -8653 
   -8657    -8664    -8660    -8646    -8635    -8635    -8656    -8684 
   -8702    -8685    -8634    -8567    -8525    -8527    -8542    -8538 
   -8525    -8530    -8563    -8602    -8623    -8637    -8664    -8696 
   -8714    -8716    -8708    -8687    -8650    -8611    -8577    -8540 
   -8487    -8442    -8449    -8509    -8581    -8637    -8673    -8698 
   -8714    -8730    -8750    -8748    -8695    -8607    -8532    -8496 
   -8502    -8536    -8569    -8584    -8596    -8631    -8677    -8700 
   -8675    -8610    -8554    -8542    -8567    -8603    -8627    -8634 
   -8618    -8581    -8545    -8522    -8498    -8486    -8509    -8556 
   -8622    -8710    -8792    -8829    -8792    -8700    -8606    -8541 
   -8502    -8488    -8505    -8534    -8577    -8641    -8703    -8730 
   -8723    -8684    -8621    -8556    -8513    -8492    -8484    -8486 
   -8506    -8557    -8631    -8714    -8785    -8815    -8784    -8707 
   -8615    -8536    -8486    -8496    -8567    -8660    -8743    -8810 
   -8830    -8777    -8645    -8465    -8301    -8213    -8224    -8317 
   -8463    -8633    -8795    -8915    -8968    -8938    -8834    -8695 
   -8573    -8500    -8482    -8500    -8541    -8572    -8575    -8557 
   -8546    -8554    -8583    -8626    -8685    -8757    -8820    -8835 
   -8784    -8679    -8546    -8428    -8370    -8378    -8434    -8526 
   -8640    -8741    -8793    -8770    -8675    -8544    -8415    -8324 
   -8310    -8401    -8575    -8780    -8945    -9009    -8955    -8812 
   -8619    -8421    -8271    -8213    -8267    -8418    -8625    -8833 
   -8992    -9058    -9012    -8868    -8671    -8476    -8351    -8326 
   -8383    -8476    -8575    -8661    -8712    -8715    -8668    -8595 
   -8536    -8503    -8503    -8541    -8606    -8673    -8723    -8746 
   -8741    -8707    -8654    -8598    -8544    -8498    -8471    -8459 
   -8460    -8487    -8529    -8577    -8630    -8679    -8708    -8718 
   -8712    -8698    -8673    -8649    -8633    -8626    -8619    -8604 
   -8583    -8568    -8561    -8560    -8567    -8590    -8621    -8648 
   -8667    -8680    -8688    -8672    -8630    -8592    -8584    -8596 
   -8619    -8653    -8677    -8664    -8611    -8546    -8492    -8455 
   -8452    -8496    -8579    -8676    -8762    -8806    -8784    -8712 
   -8629    -8548    -8472    -8433    -8468    -8569    -8689    -8781 
   -8827    -8812    -8733    -8604    -8468    -8370    -8351    -8422 
   -8557    -8707    -8824    -8885    -8888    -8814    -8662    -8487 
   -8364    -8329    -8368    -8461    -8592    -8726    -8814    -8834 
   -8791    -8694    -8584    -8495    -8430    -8395    -8401    -8448 
   -8525    -8602    -8656    -8685    -8700    -8710    -8722    -8729 
   -8716    -8683    -8642    -8607    -8579    -8561    -8564    -8572 
   -8575    -8590    -8633    -8692    -8737    -8739    -8695    -8629 
   -8568    -8538    -8544    -8561    -8580    -8603    -8626    -8638 
   -8634    -8611    -8573    -8523    -8475    -8455    -8495    -8596 
   -8712    -8793    -8824    -8806    -8734    -8629    -8514    -8411 
   -8360    -8401    -8521    -8657    -8758    -8806    -8799    -8745 
   -8654    -8559    -8487    -8451    -8464    -8550    -8696    -8846 
   -8947    -8958    -8861    -8675    -8453    -8271    -8183    -8194 
   -8295    -8459    -8654    -8847    -8991    -9039    -8980    -8815 
   -8596    -8402    -8278    -8226    -8248    -8345    -8482    -8611 
   -8715    -8789    -8820    -8793    -8730    -8657    -8592    -8537 
   -8495    -8478    -8471    -8463    -8472    -8529    -8623    -8729 
   -8803    -8824    -8804    -8768    -8721    -8660    -8588    -8522 
   -8490    -8517    -8586    -8646    -8684    -8695    -8660    -8572 
   -8463    -8383    -8376    -8440    -8530    -8627    -8725    -8812 
   -8872    -8870    -8796    -8675    -8556    -8483    -8473    -8507 
   -8553    -8591    -8638    -8716    -8802    -8830    -8785    -8714 
   -8635    -8544    -8453    -8387    -8353    -8360    -8422    -8534 
   -8656    -8749    -8804    -8806    -8742    -8622    -8494    -8411 
   -8383    -8397    -8471    -8600    -8737    -8845    -8896    -8870 
   -8775    -8650    -8554    -8517    -8523    -8563    -8637    -8735 
   -8827    -8861    -8808    -8689    -8545    -8409    -8306    -8259 
   -8278    -8367    -8507    -8673    -8811    -8872    -8856    -8789 
   -8688    -8577    -8490    -8448    -8469    -8561    -8700    -8831 
   -8887    -8847    -8743    -8611    -8475    -8370    -8326    -8356 
   -8442    -8573    -8721    -8846    -8911    -8887    -8768    -8610 
   -8482    -8398    -8349    -8349    -8403    -8500    -8613    -8714 
   -8775    -8784    -8745    -8672    -8596    -8545    -8506    -8467 
   -8452    -8488    -8573    -8677    -8750    -8760    -8714    -8653 
   -8614    -8584    -8542    -8511    -8527    -8595    -8694    -8780 
   -8816    -8788    -8712    -8619    -8538    -8480    -8456    -8487 
   -8576    -8677    -8746    -8770    -8754    -8691    -8584    -8471 
   -8391    -8376    -8432    -8546    -8687    -8793    -8818    -8773 
   -8685    -8568    -8460    -8418    -8457    -8548    -8648    -8745 
   -8834    -8880    -8834    -8691    -8500    -8333    -8252    -8287 
   -8415    -8581    -8741    -8873    -8953    -8945    -8843    -8685 
   -8503    -8334    -8233    -8243    -8352    -8514    -8665    -8766 
   -8807    -8785    -8703    -8603    -8518    -8438    -8388    -8402 
   -8467    -8557    -8654    -8734    -8785    -8799    -8780    -8748 
   -8707    -8648    -8577    -8522    -8506    -8527    -8571    -8614 
   -8658    -8719    -8787    -8819    -8785    -8699    -8598    -8509 
   -8445    -8430    -8472    -8552    -8665    -8807    -8937    -8993 
   -8951    -8827    -8658    -8482    -8326    -8220    -8195    -8266 
   -8403    -8567    -8708    -8796    -8842    -8854    -8807    -8694 
   -8560    -8465    -8442    -8475    -8518    -8556    -8604    -8668 
   -8727    -8756    -8741    -8704    -8679    -8657    -8631    -8630 
   -8667    -8710    -8735    -8729    -8688    -8650    -8635    -8607 
   -8544    -8461    -8387    -8360    -8383    -8422    -8448    -8459 
   -8480    -8537    -8617    -8692    -8752    -8779    -8768    -8739 
   -8711    -8669    -8598    -8513    -8432    -8383    -8394    -8459 
   -8549    -8657    -8781    -8887    -8923    -8881    -8797    -8702 
   -8596    -8503    -8459    -8455    -8441    -8413    -8414    -8468 
   -8548    -8614    -8669    -8731    -8784    -8815    -8834    -8833 
   -8768    -8644    -8541    -8511    -8532    -8565    -8581    -8579 
   -8572    -8563    -8550    -8537    -8525    -8533    -8573    -8619 
   -8648    -8653    -8622    -8548    -8455    -8383    -8386    -8479 
   -8607    -8725    -8837    -8935    -8974    -8941    -8858    -8743 
   -8592    -8432    -8334    -8349    -8436    -8527    -8606    -8661 
   -8667    -8610    -8521    -8445    -8402    -8382    -8413    -8499 
   -8602    -8706    -8807    -8862    -8827    -8711    -8587    -8503 
   -8461    -8465    -8523    -8614    -8707    -8777    -8804    -8795 
   -8757    -8699    -8653    -8648    -8665    -8687    -8708    -8721 
   -8688    -8592    -8473    -8388    -8351    -8348    -8382    -8465 
   -8588    -8706    -8785    -8815    -8792    -8726    -8646    -8596 
   -8592    -8630    -8695    -8756    -8776    -8743    -8661    -8542 
   -8426    -8357    -8363    -8445    -8581    -8733    -8873    -8981 
   -9016    -8935    -8757    -8554    -8409    -8348    -8351    -8401 
   -8480    -8549    -8583    -8590    -8572    -8523    -8452    -8392 
   -8386    -8456    -8581    -8715    -8816    -8851    -8807    -8711 
   -8596    -8496    -8436    -8411    -8419    -8476    -8583    -8704 
   -8806    -8870    -8883    -8842    -8766    -8672    -8576    -8506 
   -8472    -8460    -8469    -8514    -8583    -8648    -8684    -8695 
   -8703    -8708    -8702    -8687    -8661    -8622    -8581    -8549 
   -8518    -8475    -8438    -8429    -8436    -8455    -8495    -8553 
   -8614    -8683    -8765    -8837    -8865    -8843    -8797    -8737 
   -8645    -8530    -8422    -8353    -8351    -8415    -8517    -8621 
   -8695    -8723    -8716    -8691    -8646    -8591    -8556    -8567 
   -8640    -8754    -8854    -8897    -8873    -8793    -8689    -8608 
   -8577    -8595    -8633    -8656    -8648    -8614    -8560    -8490 
   -8403    -8322    -8291    -8348    -8484    -8653    -8800    -8883 
   -8876    -8789    -8653    -8505    -8384    -8325    -8336    -8414 
   -8540    -8671    -8768    -8819    -8820    -8769    -8685    -8603 
   -8557    -8580    -8660    -8733    -8750    -8711    -8648    -8587 
   -8533    -8487    -8471    -8496    -8563    -8652    -8735    -8783 
   -8783    -8749    -8702    -8673    -8681    -8710    -8721    -8681 
   -8607    -8536    -8490    -8478    -8503    -8550    -8595    -8648 
   -8725    -8814    -8874    -8868    -8797    -8711    -8650    -8623 
   -8615    -8607    -8563    -8475    -8390    -8356    -8371    -8414 
   -8473    -8563    -8683    -8792    -8850    -8861    -8835    -8757 
   -8625    -8500    -8440    -8452    -8527    -8645    -8746    -8789 
   -8777    -8735    -8684    -8630    -8564    -8495    -8445    -8418 
   -8413    -8436    -8465    -8464    -8432    -8395    -8365    -8330 
   -8291    -8266    -8267    -8289    -8330    -8421    -8561    -8694 
   -8760    -8756    -8694    -8610    -8546    -8502    -8461    -8452 
   -8515    -8637    -8746    -8773    -8711    -8604    -8483    -8378 
   -8325    -8344    -8419    -8518    -8630    -8756    -8847    -8870 
   -8854    -8845    -8858    -8881    -8897    -8911    -8900    -8837 
   -8725    -8607    -8523    -8495    -8527    -8617    -8731    -8819 
   -8847    -8819    -8733    -8594    -8441    -8333    -8309    -8391 
   -8572    -8779    -8924    -8949    -8830    -8611    -8380    -8236 
   -8247    -8399    -8627    -8872    -9084    -9207    -9167    -8926 
   -8527    -8102    -7800    -7726    -7898    -8262    -8706    -9107 
   -9373    -9452    -9346    -9105    -8802    -8518    -8341    -8324 
   -8440    -8618    -8765    -8789    -8656    -8415    -8176    -8043 
   -8052    -8194    -8452    -8768    -9039    -9182    -9165    -8982 
   -8653    -8255    -7929    -7796    -7894    -8189    -8571    -8919 
   -9154    -9248    -9204    -9004    -8668    -8310    -8075    -8031 
   -8163    -8418    -8704    -8918    -9003    -8973    -8862    -8694 
   -8511    -8382    -8376    -8518    -8761    -9026    -9225    -9255 
   -9061    -8700    -8290    -7909    -7631    -7543    -7705    -8098 
   -8621    -9128    -9506    -9698    -9688    -9490    -9162    -8781 
   -8424    -8171    -8059    -8079    -8189    -8317    -8402    -8448 
   -8488    -8536    -8579    -8622    -8683    -8752    -8808    -8846 
   -8888    -8945    -8986    -8976    -8904    -8762    -8542    -8289 
   -8071    -7928    -7862    -7896    -8054    -8310    -8604    -8866 
   -9040    -9104    -9076    -8986    -8856    -8692    -8515    -8360 
   -8252    -8189    -8162    -8172    -8226    -8318    -8442    -8602 
   -8803    -9019    -9190    -9259    -9232    -9132    -8976    -8792 
   -8642    -8557    -8503    -8461    -8472    -8525    -8534    -8445 
   -8291    -8160    -8105    -8135    -8280    -8579    -8978    -9356 
   -9616    -9701    -9552    -9146    -8569    -7996    -7578    -7410 
   -7527    -7909    -8437    -8927    -9267    -9425    -9367    -9119 
   -8808    -8573    -8438    -8359    -8330    -8370    -8406    -8356 
   -8252    -8183    -8170    -8185    -8262    -8459    -8753    -9009 
   -9119    -9089    -8996    -8897    -8829    -8804    -8810    -8823 
   -8830    -8784    -8642    -8449    -8299    -8247    -8303    -8445 
   -8619    -8784    -8904    -8934    -8831    -8618    -8375    -8193 
   -8117    -8149    -8298    -8545    -8816    -9031    -9136    -9104 
   -8938    -8699    -8498    -8405    -8402    -8460    -8581    -8757 
   -8922    -9004    -8980    -8880    -8737    -8565    -8391    -8272 
   -8244    -8293    -8374    -8441    -8460    -8428    -8360    -8290 
   -8272    -8338    -8467    -8604    -8735    -8874    -9016    -9142 
   -9217    -9205    -9134    -9055    -8955    -8777    -8515    -8213 
   -7940    -7797    -7857    -8089    -8407    -8734    -9015    -9180 
   -9174    -9018    -8789    -8576    -8425    -8379    -8475    -8684 
   -8914    -9055    -9016    -8762    -8395    -8108    -8014    -8104 
   -8316    -8608    -8946    -9273    -9485    -9489    -9274    -8897 
   -8446    -8040    -7759    -7603    -7546    -7609    -7808    -8109 
   -8441    -8730    -8947    -9111    -9229    -9293    -9297    -9251 
   -9158    -8988    -8721    -8392    -8104    -7951    -7983    -8183 
   -8468    -8733    -8937    -9086    -9162    -9103    -8876    -8533 
   -8205    -8016    -7993    -8081    -8232    -8426    -8633    -8800 
   -8878    -8842    -8710    -8541    -8419    -8403    -8511    -8750 
   -9090    -9431    -9634    -9614    -9389    -9020    -8559    -8063 
   -7638    -7375    -7352    -7626    -8149    -8752    -9240    -9493 
   -9474    -9189    -8668    -8013    -7439    -7157    -7272    -7761 
   -8494    -9275    -9929   -10328   -10399   -10081    -9421    -8621 
   -7929    -7531    -7497    -7762    -8189    -8642    -8986    -9117 
   -9028    -8800    -8522    -8268    -8118    -8143    -8336    -8606 
   -8851    -9013    -9039    -8931    -8770    -8653    -8630    -8711 
   -8858    -8981    -8986    -8843    -8594    -8314    -8093    -7996 
   -8063    -8295    -8618    -8946    -9213    -9342    -9246    -8927 
   -8503    -8136    -7928    -7916    -8090    -8379    -8653    -8818 
   -8854    -8765    -8567    -8355    -8243    -8268    -8411    -8634 
   -8868    -9038    -9096    -9026    -8853    -8633    -8440    -8357 
   -8428    -8608    -8820    -9003    -9105    -9076    -8874    -8499 
   -8028    -7620    -7439    -7569    -7978    -8560    -9147    -9579 
   -9775    -9720    -9437    -8981    -8444    -7967    -7674    -7614 
   -7786    -8141    -8560    -8916    -9151    -9256    -9234    -9089 
   -8846    -8559    -8272    -8051    -7975    -8079    -8293    -8523 
   -8723    -8858    -8860    -8679    -8374    -8091    -7970    -8054 
   -8310    -8703    -9186    -9668   -10010   -10098    -9907    -9504 
   -9004    -8525    -8137    -7866    -7727    -7742    -7875    -8035 
   -8162    -8255    -8321    -8372    -8445    -8564    -8707    -8806 
   -8789    -8649    -8438    -8208    -8004    -7893    -7919    -8085 
   -8390    -8816    -9293    -9711    -9971   -10022    -9876    -9586 
   -9204    -8797    -8465    -8283    -8245    -8301    -8394    -8463 
   -8469    -8402    -8244    -7994    -7715    -7508    -7443    -7568 
   -7905    -8407    -8945    -9400    -9694    -9771    -9599    -9229 
   -8800    -8446    -8245    -8225    -8370    -8604    -8854    -9061 
   -9162    -9100    -8891    -8619    -8398    -8303    -8353    -8511 
   -8704    -8856    -8914    -8870    -8742    -8554    -8337    -8124 
   -7952    -7867    -7902    -8036    -8218    -8433    -8685    -8953 
   -9196    -9371    -9445    -9401    -9243    -8986    -8642    -8252 
   -7911    -7709    -7695    -7859    -8155    -8517    -8884    -9201 
   -9425    -9524    -9495    -9352    -9104    -8789    -8499    -8338 
   -8343    -8446    -8556    -8627    -8631    -8542    -8390    -8205 
   -8029    -7948    -8041    -8299    -8657    -9026    -9294    -9366 
   -9213    -8856    -8348    -7855    -7574    -7582    -7817    -8203 
   -8661    -9059    -9301    -9375    -9283    -9036    -8741    -8565 
   -8577    -8718    -8884    -8957    -8866    -8638    -8347    -8062 
   -7834    -7669    -7572    -7599    -7807    -8179    -8622    -8996 
   -9229    -9340    -9340    -9228    -9045    -8837    -8635    -8479 
   -8418    -8487    -8667    -8872    -9028    -9112    -9104    -8984 
   -8761    -8495    -8256    -8093    -8047    -8116    -8251    -8419 
   -8595    -8756    -8900    -8997    -8996    -8905    -8789    -8684 
   -8580    -8482    -8452    -8550    -8757    -9000    -9220    -9355 
   -9324    -9126    -8835    -8514    -8185    -7881    -7668    -7620 
   -7758    -8025    -8353    -8691    -8961    -9085    -9074    -8993 
   -8881    -8752    -8622    -8510    -8437    -8413    -8411    -8388 
   -8328    -8282    -8310    -8411    -8580    -8834    -9132    -9359 
   -9437    -9363    -9142    -8784    -8370    -8033    -7879    -7943 
   -8162    -8455    -8765    -9018    -9154    -9162    -9039    -8835 
   -8648    -8534    -8483    -8478    -8519    -8600    -8689    -8735 
   -8700    -8611    -8514    -8430    -8380    -8380    -8437    -8559 
   -8752    -8995    -9212    -9298    -9182    -8869    -8438    -7989 
   -7604    -7366    -7338    -7526    -7874    -8299    -8721    -9074 
   -9297    -9324    -9143    -8816    -8471    -8237    -8187    -8314 
   -8546    -8780    -8915    -8911    -8795    -8634    -8507    -8472 
   -8545    -8707    -8918    -9120    -9252    -9265    -9123    -8835 
   -8475    -8131    -7852    -7659    -7582    -7665    -7897    -8205 
   -8517    -8796    -9032    -9252    -9471    -9610    -9564    -9325 
   -8965    -8553    -8125    -7747    -7547    -7623    -7952    -8448 
   -9011    -9531    -9867    -9895    -9609    -9139    -8648    -8251 
   -8012    -7956    -8055    -8239    -8424    -8553    -8595    -8537 
   -8405    -8305    -8361    -8627    -9036    -9456    -9738    -9780 
   -9560    -9159    -8692    -8232    -7842    -7611    -7601    -7805 
   -8136    -8442    -8581    -8525    -8394    -8321    -8333    -8398 
   -8498    -8640    -8823    -9007    -9090    -9007    -8795    -8548 
   -8329    -8185    -8145    -8212    -8371    -8596    -8837    -9043 
   -9201    -9315    -9369    -9329    -9181    -8958    -8706    -8459 
   -8245    -8079    -7978    -7983    -8133    -8406    -8681    -8822 
   -8765    -8548    -8237    -7893    -7601    -7479    -7612    -8014 
   -8630    -9327    -9926   -10266   -10273    -9952    -9358    -8629 
   -7960    -7515    -7377    -7546    -7933    -8409    -8835    -9099 
   -9117    -8901    -8595    -8351    -8247    -8316    -8569    -8957 
   -9352    -9630    -9753    -9741    -9571    -9224    -8776    -8360 
   -8060    -7896    -7857    -7917    -8043    -8220    -8433    -8603 
   -8660    -8618    -8522    -8395    -8245    -8091    -7983    -7983 
   -8101    -8313    -8598    -8897    -9167    -9364    -9431    -9364 
   -9246    -9142    -9043    -8932    -8839    -8781    -8721    -8630 
   -8533    -8448    -8368    -8294    -8259    -8276    -8322    -8390 
   -8480    -8561    -8599    -8610    -8627    -8635    -8599    -8523 
   -8437    -8353    -8276    -8208    -8155    -8144    -8208    -8353 
   -8559    -8797    -9057    -9293    -9432    -9445    -9354    -9165 
   -8889    -8575    -8283    -8056    -7915    -7863    -7898    -8017 
   -8210    -8429    -8631    -8835    -9053    -9256    -9396    -9421 
