Origin Time       2025/06/03 22:18:00
Lat.              41.7
Long.             143.6
Depth. (km)       30
Mag.              5.2
Station Code      KSRH09
Station Lat.      42.9856
Station Long.     143.9841
Station Height(m) -73
Record Time       2025/06/03 22:18:58
Sampling Freq(Hz) 100Hz
Duration Time(s)  126
Dir.              2
Scale Factor      2942(gal)/8224139
Max. Acc. (gal)   0.729
Last Correction   2025/06/03 22:18:59
Memo.             
[...]
  146824   146823   146880   146973   147070   147129   147141   147135 
  147118   147090   147066   147085   147166   147293   147424   147510 
  147526   147461   147330   147163   146993   146847   146719   146592 
  146479   146407   146389   146426   146523   146680   146855   146981 
  147021   147013   147016   147056   147118   147190   147324   147561 
  147819   147942   147889   147779   147723   147721   147685   147569 
  147422   147334   147322   147322   147287   147260   147306   147390 
  147437   147437   147418   147411   147417   147422   147440   147479 
  147522   147521   147455   147349   147209   147027   146863   146789 
  146790   146808   146832   146886   146934   146898   146774   146664 
  146674   146805   146978   147152   147348   147561   147722   147765 
  147688   147537   147329   147075   146850   146774   146889   147102 
  147278   147383   147482   147577   147588   147474   147276   147071 
  146920   146865   146913   147060   147240   147329   147263   147123 
  147037   147046   147069   147036   146982   146997   147101   147210 
  147251   147253   147287   147341   147340   147266   147197   147199 
  147244   147291   147372   147517   147657   147708   147685   147669 
  147710   147779   147806   147787   147773   147761   147660   147426 
  147128   146861   146674   146589   146627   146820   147148   147475 
  147698   147815   147842   147788   147668   147509   147349   147217 
  147096   146992   146996   147166   147418   147609   147683   147702 
  147734   147734   147631   147448   147243   147027   146786   146535 
  146349   146327   146446   146560   146595   146608   146676   146800 
  146909   146951   146963   146989   147019   147023   146969   146885 
  146850   146892   146967   147023   147062   147145   147278   147405 
  147475   147498   147519   147537   147484   147343   147178   147058 
  146975   146885   146780   146734   146815   146973   147116   147236 
  147368   147496   147579   147614   147625   147633   147645   147653 
  147656   147661   147644   147579   147469   147347   147259   147205 
  147156   147120   147089   147055   147042   147091   147204   147316 
  147347   147267   147123   147016   147037   147171   147330   147453 
  147532   147573   147577   147533   147465   147422   147437   147494 
  147536   147542   147563   147630   147688   147677   147622   147555 
  147503   147510   147560   147622   147715   147842   147966   148061 
  148086   147982   147741   147448   147195   146996   146823   146693 
  146642   146664   146707   146735   146762   146823   146907   146971 
  146998   147019   147042   147046   147035   147024   147000   146925 
  146786   146642   146584   146630   146708   146789   146952   147236 
  147522   147677   147685   147631   147610   147634   147649   147641 
  147648   147656   147603   147505   147437   147420   147410   147368 
  147302   147264   147278   147289   147282   147305   147378   147433 
  147393   147280   147189   147177   147208   147204   147164   147199 
  147359   147545   147634   147607   147521   147422   147314   147182 
  147056   147015   147086   147206   147287   147316   147310   147282 
  147256   147253   147282   147337   147395   147429   147455   147496 
  147540   147544   147476   147351   147218   147112   147025   146966 
  146954   146985   147017   147013   146966   146898   146821   146730 
  146638   146587   146635   146799   146990   147097   147116   147140 
  147245   147403   147514   147545   147559   147591   147617   147586 
  147484   147378   147312   147240   147116   146952   146789   146677 
  146647   146669   146704   146767   146870   146990   147109   147226 
  147360   147529   147715   147866   147931   147916   147858   147787 
  147726   147684   147653   147638   147649   147712   147852   148012 
  148099   148070   147977   147904   147837   147677   147426   147201 
  147097   147109   147155   147187   147241   147333   147395   147359 
  147228   147074   146951   146859   146807   146819   146871   146892 
  146820   146719   146703   146804   146956   147079   147147   147213 
  147309   147388   147420   147414   147374   147287   147148   146962 
  146757   146557   146388   146275   146214   146188   146187   146219 
  146307   146450   146610   146749   146861   146963   147089   147243 
  147405   147541   147630   147667   147668   147645   147567   147432 
  147293   147195   147128   147050   146956   146905   146936   147031 
  147117   147117   147029   146919   146843   146836   146884   146951 
  147027   147133   147306   147518   147663   147665   147592   147582 
  147672   147773   147791   147741   147717   147748   147776   147762 
  147733   147723   147715   147658   147549   147455   147413   147376 
  147325   147326   147433   147600   147737   147803   147815   147788 
  147703   147557   147384   147251   147198   147178   147132   147100 
  147124   147164   147168   147145   147140   147159   147166   147140 
  147108   147108   147141   147156   147127   147104   147132   147159 
  147124   147033   146952   146932   146936   146911   146896   146967 
  147133   147305   147376   147341   147285   147253   147218   147156 
  147097   147082   147116   147163   147202   147233   147241   147220 
  147164   147075   146983   146927   146909   146911   146915   146925 
  146942   146951   146977   147050   147154   147249   147301   147285 
  147232   147209   147225   147248   147264   147274   147264   147225 
  147123   146946   146753   146615   146565   146600   146699   146835 
  147017   147258   147511   147715   147823   147841   147826   147806 
  147771   147718   147692   147722   147761   147753   147698   147600 
  147457   147278   147114   147020   146994   147004   147015   147036 
  147100   147208   147317   147388   147426   147448   147447   147422 
  147405   147398   147374   147334   147343   147420   147496   147487 
  147397   147303   147258   147233   147191   147168   147243   147399 
  147502   147441   147285   147198   147239   147320   147363   147391 
  147475   147623   147764   147826   147818   147800   147792   147737 
  147627   147523   147438   147328   147179   147063   147048   147118 
  147199   147247   147268   147289   147291   147224   147083   146959 
  146934   146985   147037   147078   147129   147191   147239   147247 
  147255   147318   147407   147426   147341   147204   147077   146983 
  146913   146857   146858   146925   146979   146956   146875   146799 
  146757   146707   146639   146600   146624   146693   146762   146808 
  146844   146893   146950   147004   147059   147112   147137   147135 
  147150   147226   147345   147438   147472   147487   147550   147658 
  147722   147695   147648   147665   147749   147812   147787   147708 
  147661   147667   147688   147696   147703   147731   147769   147787 
  147781   147775   147773   147754   147711   147680   147663   147602 
  147448   147232   147042   146924   146847   146749   146610   146504 
  146529   146650   146757   146785   146767   146777   146835   146896 
  146927   146942   146978   147031   147050   147028   147025   147060 
  147079   147039   146969   146928   146938   146939   146904   146880 
  146896   146920   146924   146919   146938   146989   147036   147052 
  147087   147199   147371   147544   147691   147820   147947   148035 
  148030   147951   147869   147816   147761   147654   147517   147444 
  147480   147563   147600   147575   147548   147552   147549   147509 
  147457   147445   147465   147444   147349   147240   147183   147160 
  147101   146979   146873   146858   146925   147015   147081   147145 
  147244   147349   147393   147361   147313   147295   147280   147213 
  147083   146956   146878   146823   146736   146616   146511   146469 
  146493   146560   146662   146811   147000   147172   147282   147356 
  147428   147468   147463   147441   147453   147526   147631   147715 
  147750   147758   147795   147865   147920   147906   147807   147658 
  147505   147363   147244   147155   147093   147040   146962   146842 
  146712   146619   146564   146530   146530   146588   146713   146877 
  147039   147191   147364   147564   147741   147849   147923   148036 
  148184   148278   148275   148238   148248   148323   148379   148342 
  148228   148109   148038   148028   148063   148111   148147   148167 
  148174   148146   148057   147919   147769   147649   147571   147494 
  147394   147322   147345   147463   147583   147604   147522   147410 
  147321   147260   147202   147154   147156   147213   147262   147252 
  147172   147040   146881   146724   146597   146491   146381   146268 
  146178   146136   146142   146157   146128   146080   146086   146146 
  146202   146203   146173   146178   146232   146296   146333   146335 
  146344   146364   146379   146408   146480   146588   146674   146680 
  146618   146564   146553   146543   146487   146419   146415   146475 
  146531   146554   146584   146666   146794   146909   146990   147082 
  147206   147316   147371   147379   147360   147328   147301   147289 
  147301   147329   147345   147348   147364   147398   147426   147394 
  147270   147108   146985   146913   146853   146782   146726   146713 
  146746   146793   146847   146947   147104   147268   147411   147552 
  147718   147911   148092   148196   148231   148274   148371   148495 
  148610   148706   148791   148867   148903   148867   148786   148717 
  148656   148559   148419   148277   148186   148165   148178   148189 
  148190   148158   148085   148012   147955   147888   147798   147702 
  147631   147591   147548   147479   147383   147276   147189   147135 
  147097   147052   147008   146969   146938   146920   146901   146863 
  146803   146731   146645   146537   146442   146402   146400   146400 
  146380   146371   146416   146526   146668   146804   146913   147006 
  147098   147204   147325   147440   147533   147603   147653   147707 
  147765   147788   147745   147644   147540   147469   147406   147307 
  147167   146996   146835   146726   146661   146604   146523   146419 
  146329   146275   146241   146203   146172   146199   146308   146479 
  146662   146827   146986   147147   147290   147398   147453   147471 
  147488   147517   147540   147553   147560   147573   147606   147653 
  147719   147798   147854   147870   147856   147826   147795   147753 
  147671   147553   147452   147384   147317   147241   147181   147147 
  147120   147055   146954   146874   146847   146855   146863   146842 
  146797   146750   146705   146666   146646   146659   146699   146730 
  146746   146761   146773   146766   146746   146740   146784   146862 
  146925   146946   146944   146954   146969   146973   146971   146979 
  146996   147006   147015   147031   147055   147086   147121   147160 
  147212   147276   147339   147386   147432   147471   147474   147441 
  147397   147344   147289   147237   147177   147097   147025   146998 
  147037   147128   147225   147313   147413   147519   147615   147691 
  147745   147787   147841   147920   148018   148119   148200   148240 
  148248   148247   148242   148205   148132   148049   147966   147884 
  147796   147710   147658   147648   147640   147607   147550   147468 
  147370   147258   147131   147015   146944   146919   146920   146951 
  147019   147125   147244   147333   147387   147429   147475   147522 
  147565   147623   147717   147808   147843   147802   147733   147694 
  147683   147657   147600   147542   147509   147491   147471   147441 
  147393   147302   147172   147052   146992   146981   146969   146934 
  146916   146951   147019   147060   147055   147039   147044   147066 
  147062   147008   146927   146871   146861   146859   146832   146789 
  146747   146704   146647   146570   146502   146473   146465   146434 
  146372   146303   146268   146295   146345   146383   146427   146504 
  146622   146746   146832   146890   146962   147059   147158   147231 
  147286   147364   147465   147550   147599   147631   147667   147712 
  147775   147830   147843   147814   147785   147800   147868   147957 
  148026   148066   148123   148209   148274   148267   148209   148166 
  148166   148192   148224   148255   148266   148221   148104   147955 
  147835   147768   147727   147660   147560   147482   147452   147445 
  147434   147428   147448   147501   147557   147579   147556   147526 
  147526   147553   147559   147509   147471   147515   147615   147684 
  147663   147568   147459   147357   147221   147025   146821   146668 
  146565   146464   146349   146253   146194   146137   146048   145941 
  145860   145821   145801   145775   145763   145809   145912   146024 
  146122   146226   146352   146484   146596   146677   146743   146813 
  146875   146917   146951   146993   147052   147131   147206   147255 
  147283   147302   147332   147403   147517   147644   147748   147814 
  147846   147856   147845   147823   147798   147772   147746   147712 
  147664   147621   147592   147561   147536   147546   147595   147657 
  147704   147737   147791   147879   147989   148092   148157   148188 
  148198   148182   148130   148076   148045   148023   147992   147941 
  147870   147807   147776   147772   147761   147717   147641   147564 
  147492   147407   147289   147135   146967   146800   146622   146429 
  146237   146068   145935   145813   145669   145501   145355   145266 
  145222   145212   145237   145299   145415   145581   145762   145933 
  146079   146198   146302   146410   146535   146691   146886   147128 
  147383   147598   147769   147950   148170   148396   148564   148644 
  148644   148599   148547   148479   148393   148319   148252   148151 
  147974   147748   147545   147410   147329   147268   147213   147172 
  147144   147116   147098   147096   147098   147102   147114   147162 
  147241   147316   147366   147425   147532   147667   147772   147810 
  147793   147783   147798   147807   147804   147814   147846   147888 
  147906   147865   147758   147604   147441   147280   147127   146998 
  146893   146805   146743   146703   146665   146624   146578   146524 
  146458   146385   146325   146283   146245   146195   146133   146063 
  145994   145945   145929   145941   145970   146011   146080   146190 
  146315   146418   146500   146600   146732   146867   146958   147005 
  147054   147116   147167   147209   147278   147388   147510   147598 
  147649   147704   147807   147946   148078   148186   148278   148350 
  148387   148383   148350   148311   148270   148213   148124   148012 
  147910   147847   147819   147785   147725   147641   147542   147436 
  147330   147233   147144   147059   146982   146931   146905   146890 
  146870   146842   146827   146842   146880   146932   147009   147113 
  147231   147344   147437   147521   147604   147679   147735   147776 
  147800   147812   147807   147777   147738   147711   147695   147668 
  147609   147529   147468   147447   147459   147484   147513   147548 
  147603   147676   147723   147707   147650   147604   147590   147577 
  147519   147421   147329   147271   147235   147186   147112   147036 
  146970   146913   146866   146831   146807   146778   146745   146722 
  146716   146738   146784   146848   146943   147077   147244   147426 
  147600   147758   147895   148004   148085   148144   148185   148205 
  148184   148108   148011   147930   147873   147829   147781   147714 
  147617   147498   147393   147321   147280   147258   147240   147231 
  147235   147255   147294   147343   147406   147479   147544   147592 
  147634   147675   147698   147665   147569   147449   147349   147276 
  147197   147091   146989   146912   146838   146738   146632   146554 
  146499   146425   146307   146167   146045   145957   145876   145801 
  145773   145802   145832   145808   145744   145705   145732   145801 
  145871   145943   146043   146167   146280   146358   146412   146470 
  146550   146645   146736   146827   146932   147066   147213   147363 
  147509   147649   147788   147914   148001   148054   148092   148128 
  148169   148203   148212   148185   148119   148026   147946   147904 
  147892   147888   147881   147884   147918   147969   148007   148030 
  148050   148077   148100   148092   148051   148014   148005   148008 
  147985   147934   147891   147870   147852   147799   147692   147556 
  147436   147353   147290   147222   147145   147077   147025   146982 
  146947   146919   146892   146855   146808   146751   146691   146614 
  146515   146411   146333   146292   146271   146245   146229   146246 
  146290   146314   146311   146325   146387   146487   146585   146669 
  146759   146870   146989   147098   147197   147297   147394   147480 
  147564   147657   147750   147819   147868   147918   147978   148030 
  148042   148012   147968   147942   147933   147914   147892   147892 
  147906   147918   147919   147901   147869   147823   147771   147727 
  147706   147692   147668   147622   147567   147517   147465   147391 
  147302   147214   147137   147071   147013   146943   146848   146749 
  146681   146658   146672   146700   146726   146750   146786   146835 
  146881   146911   146950   147023   147105   147164   147208   147262 
  147347   147455   147553   147615   147637   147636   147641   147661 
  147690   147707   147695   147654   147606   147565   147542   147541 
  147556   147580   147604   147621   147623   147622   147627   147646 
  147668   147683   147685   147677   147654   147610   147534   147429 
  147330   147272   147245   147228   147209   147194   147190   147179 
  147154   147125   147112   147118   147120   147100   147077   147063 
  147042   146996   146938   146894   146867   146828   146758   146673 
  146605   146557   146500   146427   146371   146373   146414   146437 
  146421   146410   146443   146516   146592   146646   146699   146778 
  146878   146969   147032   147091   147181   147286   147371   147432 
  147482   147526   147549   147545   147518   147480   147429   147347 
  147243   147158   147102   147060   147019   146969   146920   146901 
  146921   146977   147064   147174   147271   147343   147407   147490 
  147586   147664   147714   147744   147771   147802   147815   147793 
  147749   147706   147667   147633   147606   147575   147533   147480 
  147415   147339   147255   147162   147056   146970   146929   146938 
  146966   146978   146978   146986   147005   147024   147029   147019 
  147004   146989   146974   146974   146989   147005   147016   147020 
  147013   146998   146975   146938   146904   146900   146925   146959 
  146979   146979   146977   146996   147036   147089   147148   147210 
  147282   147364   147456   147542   147609   147657   147691   147704 
  147702   147681   147636   147576   147536   147526   147537   147548 
  147546   147537   147530   147538   147565   147604   147645   147680 
  147702   147717   147734   147742   147723   147681   147631   147588 
  147536   147449   147344   147253   147186   147120   147048   146988 
  146959   146963   146959   146924   146886   146878   146900   146920 
  146908   146885   146896   146951   147025   147096   147150   147187 
  147205   147191   147152   147127   147136   147168   147208   147231 
