Origin Time       2025/06/03 22:18:00
Lat.              41.7
Long.             143.6
Depth. (km)       30
Mag.              5.2
Station Code      KSRH08
Station Lat.      43.1603
Station Long.     143.8936
Station Height(m) 74
Record Time       2025/06/03 22:19:02
Sampling Freq(Hz) 100Hz
Duration Time(s)  120
Dir.              1
Scale Factor      2942(gal)/8224139
Max. Acc. (gal)   0.345
Last Correction   2025/06/03 22:19:03
Memo.             
[...]
 -249018  -249022  -249042  -249064  -249083  -249100  -249106  -249081 
 -249011  -248910  -248815  -248752  -248722  -248725  -248752  -248791 
 -248836  -248873  -248886  -248873  -248849  -248818  -248787  -248771 
 -248779  -248795  -248790  -248746  -248679  -248611  -248563  -248526 
 -248505  -248501  -248508  -248512  -248501  -248478  -248454  -248437 
 -248439  -248454  -248463  -248472  -248493  -248508  -248512  -248529 
 -248559  -248584  -248614  -248667  -248737  -248817  -248899  -248960 
 -248988  -249006  -249029  -249054  -249079  -249104  -249129  -249137 
 -249127  -249103  -249052  -248985  -248930  -248899  -248898  -248922 
 -248964  -249008  -249034  -249034  -249006  -248946  -248863  -248780 
 -248706  -248647  -248607  -248590  -248587  -248593  -248605  -248624 
 -248659  -248714  -248787  -248867  -248926  -248949  -248937  -248907 
 -248887  -248880  -248894  -248911  -248911  -248888  -248848  -248794 
 -248752  -248734  -248728  -248734  -248746  -248757  -248772  -248796 
 -248805  -248779  -248733  -248690  -248670  -248687  -248752  -248850 
 -248944  -249003  -249030  -249037  -249023  -248991  -248941  -248894 
 -248875  -248879  -248881  -248880  -248867  -248834  -248802  -248809 
 -248853  -248910  -248972  -249030  -249068  -249077  -249061  -249029 
 -248984  -248915  -248818  -248698  -248574  -248468  -248393  -248355 
 -248352  -248374  -248389  -248386  -248375  -248368  -248377  -248417 
 -248487  -248570  -248651  -248737  -248840  -248941  -249018  -249050 
 -249033  -248980  -248917  -248850  -248805  -248796  -248806  -248800 
 -248782  -248764  -248757  -248772  -248809  -248849  -248880  -248898 
 -248904  -248910  -248917  -248922  -248922  -248923  -248926  -248915 
 -248888  -248849  -248799  -248737  -248667  -248606  -248579  -248591 
 -248628  -248690  -248763  -248811  -248821  -248814  -248811  -248802 
 -248780  -248764  -248775  -248811  -248848  -248861  -248842  -248803 
 -248761  -248728  -248687  -248648  -248629  -248632  -248660  -248698 
 -248725  -248748  -248786  -248826  -248867  -248898  -248895  -248859 
 -248800  -248737  -248675  -248624  -248591  -248578  -248575  -248582 
 -248597  -248621  -248644  -248660  -248691  -248752  -248833  -248903 
 -248948  -248975  -248971  -248923  -248838  -248749  -248668  -248602 
 -248567  -248580  -248622  -248661  -248690  -248715  -248732  -248736 
 -248742  -248767  -248806  -248861  -248922  -248964  -248979  -248969 
 -248956  -248958  -248972  -248984  -248996  -249003  -248987  -248938 
 -248877  -248825  -248786  -248769  -248783  -248833  -248913  -248989 
 -249052  -249106  -249153  -249193  -249239  -249284  -249296  -249269 
 -249216  -249146  -249069  -248992  -248923  -248881  -248864  -248850 
 -248841  -248842  -248845  -248846  -248849  -248842  -248809  -248765 
 -248732  -248705  -248678  -248643  -248599  -248574  -248571  -248579 
 -248593  -248617  -248638  -248660  -248683  -248698  -248702  -248701 
 -248699  -248705  -248724  -248737  -248738  -248737  -248728  -248706 
 -248699  -248721  -248740  -248741  -248751  -248769  -248767  -248730 
 -248665  -248580  -248479  -248379  -248298  -248258  -248279  -248356 
 -248456  -248557  -248643  -248697  -248718  -248721  -248714  -248714 
 -248719  -248722  -248729  -248738  -248742  -248744  -248734  -248710 
 -248671  -248629  -248621  -248656  -248713  -248794  -248887  -248969 
 -249041  -249095  -249115  -249106  -249083  -249064  -249056  -249050 
 -249043  -249037  -249018  -248985  -248946  -248908  -248873  -248838 
 -248807  -248794  -248806  -248842  -248892  -248934  -248948  -248945 
 -248958  -248998  -249041  -249075  -249089  -249072  -249031  -248988 
 -248952  -248926  -248914  -248927  -248967  -249018  -249069  -249103 
 -249118  -249120  -249111  -249087  -249049  -249000  -248957  -248927 
 -248900  -248853  -248772  -248678  -248603  -248551  -248510  -248485 
 -248474  -248467  -248463  -248475  -248510  -248562  -248618  -248676 
 -248719  -248738  -248736  -248711  -248664  -248603  -248555  -248533 
 -248541  -248560  -248570  -248570  -248560  -248545  -248547  -248563 
 -248587  -248611  -248624  -248636  -248664  -248688  -248687  -248644 
 -248570  -248506  -248482  -248493  -248533  -248590  -248648  -248697 
 -248736  -248769  -248813  -248876  -248954  -249023  -249068  -249099 
 -249122  -249127  -249112  -249093  -249077  -249066  -249079  -249106 
 -249129  -249139  -249124  -249088  -249054  -249037  -249027  -249010 
 -248973  -248929  -248888  -248848  -248809  -248778  -248769  -248778 
 -248792  -248806  -248814  -248821  -248818  -248796  -248767  -248738 
 -248691  -248614  -248520  -248445  -248420  -248428  -248440  -248445 
 -248447  -248444  -248435  -248418  -248398  -248391  -248401  -248413 
 -248437  -248483  -248530  -248566  -248601  -248643  -248683  -248736 
 -248809  -248880  -248925  -248944  -248949  -248944  -248926  -248896 
 -248863  -248832  -248807  -248792  -248775  -248752  -248741  -248742 
 -248745  -248753  -248765  -248782  -248791  -248787  -248791  -248827 
 -248903  -249006  -249110  -249187  -249220  -249215  -249185  -249134 
 -249069  -249004  -248965  -248960  -248972  -248980  -248996  -249023 
 -249058  -249103  -249131  -249133  -249126  -249114  -249088  -249060 
 -249034  -249003  -248953  -248896  -248850  -248821  -248798  -248780 
 -248771  -248765  -248737  -248684  -248617  -248539  -248460  -248409 
 -248400  -248443  -248530  -248630  -248714  -248782  -248844  -248898 
 -248933  -248960  -248987  -249023  -249072  -249116  -249129  -249107 
 -249056  -248968  -248860  -248764  -248692  -248648  -248643  -248676 
 -248737  -248806  -248868  -248915  -248950  -248971  -248960  -248923 
 -248880  -248842  -248802  -248749  -248686  -248616  -248533  -248439 
 -248352  -248290  -248247  -248229  -248247  -248286  -248339  -248409 
 -248470  -248499  -248517  -248537  -248549  -248557  -248578  -248613 
 -248652  -248698  -248749  -248806  -248876  -248952  -249014  -249052 
 -249066  -249064  -249043  -249019  -249003  -248992  -248988  -249002 
 -249027  -249049  -249050  -249029  -248992  -248962  -248954  -248962 
 -248975  -248968  -248954  -248948  -248925  -248873  -248817  -248773 
 -248751  -248751  -248764  -248773  -248783  -248799  -248818  -248827 
 -248827  -248829  -248837  -248840  -248837  -248840  -248832  -248802 
 -248767  -248741  -248711  -248667  -248609  -248548  -248506  -248498 
 -248530  -248595  -248676  -248757  -248821  -248848  -248842  -248810 
 -248755  -248690  -248630  -248590  -248574  -248587  -248626  -248675 
 -248722  -248756  -248760  -248742  -248724  -248705  -248687  -248686 
 -248701  -248721  -248732  -248724  -248718  -248728  -248733  -248721 
 -248706  -248703  -248715  -248749  -248792  -248823  -248829  -248813 
 -248776  -248740  -248715  -248714  -248734  -248767  -248796  -248819 
 -248836  -248848  -248856  -248849  -248836  -248840  -248860  -248869 
 -248856  -248837  -248819  -248794  -248763  -248749  -248761  -248792 
 -248832  -248856  -248857  -248849  -248842  -248829  -248795  -248768 
 -248784  -248849  -248927  -248991  -249037  -249075  -249099  -249102 
 -249093  -249088  -249097  -249137  -249192  -249238  -249266  -249288 
 -249301  -249297  -249274  -249227  -249153  -249081  -249043  -249035 
 -249042  -249053  -249061  -249058  -249039  -248999  -248935  -248867 
 -248803  -248745  -248697  -248656  -248620  -248598  -248601  -248606 
 -248602  -248583  -248551  -248513  -248489  -248487  -248506  -248526 
 -248539  -248535  -248503  -248452  -248389  -248316  -248251  -248216 
 -248213  -248238  -248298  -248383  -248462  -248518  -248563  -248590 
 -248603  -248625  -248649  -248672  -248702  -248737  -248756  -248751 
 -248729  -248710  -248699  -248694  -248694  -248706  -248733  -248764 
 -248787  -248807  -248834  -248868  -248910  -248956  -248989  -249002 
 -249000  -249003  -249007  -249003  -248994  -248984  -248968  -248937 
 -248892  -248845  -248810  -248779  -248748  -248728  -248730  -248753 
 -248773  -248778  -248759  -248722  -248690  -248667  -248648  -248643 
 -248656  -248691  -248741  -248787  -248817  -248826  -248823  -248821 
 -248821  -248825  -248832  -248836  -248845  -248869  -248896  -248913 
 -248918  -248925  -248934  -248945  -248962  -248983  -248987  -248972 
 -248950  -248927  -248903  -248877  -248853  -248849  -248869  -248894 
 -248911  -248927  -248940  -248944  -248944  -248953  -248977  -249019 
 -249083  -249157  -249204  -249207  -249184  -249141  -249088  -249046 
 -249027  -249027  -249042  -249066  -249083  -249066  -249019  -248954 
 -248896  -248852  -248809  -248771  -248742  -248709  -248660  -248591 
 -248502  -248416  -248341  -248279  -248240  -248223  -248219  -248231 
 -248254  -248274  -248296  -248321  -248348  -248379  -248409  -248431 
 -248447  -248475  -248520  -248584  -248655  -248724  -248800  -248879 
 -248950  -249019  -249076  -249106  -249102  -249083  -249066  -249048 
 -249026  -249007  -248985  -248949  -248886  -248810  -248745  -248697 
 -248657  -248618  -248574  -248529  -248498  -248479  -248462  -248433 
 -248387  -248329  -248278  -248244  -248225  -248227  -248247  -248289 
 -248346  -248404  -248455  -248505  -248552  -248594  -248636  -248679 
 -248736  -248806  -248880  -248952  -249011  -249053  -249080  -249107 
 -249149  -249207  -249273  -249331  -249370  -249384  -249372  -249335 
 -249282  -249224  -249176  -249150  -249151  -249170  -249188  -249210 
 -249246  -249273  -249268  -249239  -249195  -249131  -249062  -248998 
 -248929  -248853  -248791  -248760  -248759  -248778  -248796  -248807 
 -248805  -248799  -248803  -248815  -248837  -248867  -248891  -248902 
 -248910  -248921  -248931  -248923  -248895  -248854  -248814  -248776 
 -248730  -248678  -248630  -248599  -248578  -248559  -248539  -248512 
 -248483  -248463  -248451  -248441  -248447  -248464  -248490  -248525 
 -248579  -248641  -248690  -248722  -248749  -248782  -248818  -248865 
 -248930  -249012  -249093  -249158  -249203  -249223  -249227  -249226 
 -249230  -249241  -249245  -249232  -249210  -249183  -249149  -249108 
 -249053  -249004  -248985  -248977  -248964  -248944  -248908  -248865 
 -248821  -248767  -248705  -248651  -248624  -248618  -248618  -248611 
 -248593  -248571  -248551  -248528  -248506  -248489  -248486  -248501 
 -248514  -248521  -248529  -248541  -248545  -248539  -248528  -248521 
 -248524  -248532  -248547  -248576  -248616  -248651  -248680  -248706 
 -248733  -248760  -248782  -248780  -248752  -248714  -248683  -248647 
 -248605  -248567  -248528  -248485  -248448  -248431  -248432  -248451 
 -248483  -248525  -248582  -248649  -248711  -248760  -248799  -248830 
 -248857  -248881  -248908  -248941  -248975  -249006  -249034  -249052 
 -249056  -249052  -249046  -249042  -249037  -249022  -249002  -248973 
 -248935  -248907  -248891  -248864  -248818  -248767  -248728  -248694 
 -248653  -248606  -248574  -248557  -248547  -248540  -248530  -248516 
 -248498  -248483  -248478  -248479  -248475  -248467  -248468  -248486 
 -248517  -248562  -248616  -248670  -248711  -248736  -248749  -248746 
 -248721  -248687  -248664  -248655  -248665  -248707  -248778  -248860 
 -248927  -248972  -249004  -249021  -249015  -249006  -249007  -249023 
 -249052  -249077  -249099  -249116  -249126  -249135  -249147  -249157 
 -249165  -249178  -249193  -249207  -249212  -249214  -249219  -249230 
 -249239  -249242  -249239  -249231  -249226  -249230  -249234  -249224 
 -249204  -249172  -249120  -249057  -248998  -248941  -248880  -248821 
 -248771  -248733  -248710  -248701  -248690  -248668  -248638  -248610 
 -248597  -248595  -248599  -248606  -248606  -248590  -248567  -248548 
 -248535  -248516  -248498  -248493  -248497  -248506  -248517  -248530 
 -248544  -248551  -248547  -248547  -248571  -248622  -248686  -248752 
 -248811  -248852  -248883  -248919  -248962  -249003  -249041  -249076 
 -249102  -249115  -249122  -249129  -249133  -249124  -249092  -249045 
 -249000  -248968  -248946  -248931  -248915  -248903  -248886  -248853 
 -248809  -248752  -248694  -248644  -248605  -248576  -248562  -248559 
 -248567  -248578  -248580  -248571  -248555  -248537  -248520  -248514 
 -248529  -248555  -248584  -248618  -248661  -248705  -248741  -248763 
 -248772  -248773  -248768  -248761  -248757  -248738  -248701  -248664 
 -248630  -248594  -248552  -248506  -248475  -248468  -248468  -248470 
 -248475  -248472  -248467  -248478  -248509  -248548  -248584  -248610 
 -248630  -248644  -248648  -248638  -248622  -248606  -248593  -248589 
 -248594  -248611  -248643  -248676  -248715  -248763  -248802  -248833 
 -248864  -248896  -248929  -248953  -248962  -248968  -248976  -248991 
 -249015  -249042  -249064  -249087  -249104  -249096  -249069  -249042 
 -249016  -248995  -248977  -248973  -248989  -249012  -249031  -249039 
 -249031  -249010  -248985  -248972  -248973  -248984  -249000  -249025 
 -249060  -249091  -249115  -249131  -249137  -249135  -249143  -249169 
 -249218  -249281  -249330  -249342  -249334  -249326  -249324  -249323 
 -249318  -249303  -249278  -249238  -249188  -249141  -249093  -249041 
 -248987  -248940  -248899  -248865  -248852  -248856  -248863  -248864 
 -248852  -248822  -248780  -248729  -248664  -248587  -248505  -248436 
 -248387  -248351  -248321  -248298  -248282  -248267  -248247  -248223 
 -248202  -248181  -248155  -248123  -248082  -248034  -247977  -247918 
 -247864  -247831  -247833  -247865  -247923  -247999  -248082  -248161 
 -248227  -248286  -248347  -248414  -248486  -248566  -248661  -248761 
 -248848  -248927  -249003  -249076  -249147  -249207  -249261  -249328 
 -249396  -249439  -249458  -249466  -249465  -249453  -249439  -249426 
 -249412  -249393  -249359  -249307  -249238  -249164  -249099  -249033 
 -248954  -248873  -248802  -248746  -248690  -248618  -248540  -248468 
 -248410  -248366  -248332  -248309  -248294  -248285  -248286  -248298 
 -248308  -248312  -248316  -248324  -248337  -248352  -248368  -248395 
 -248436  -248485  -248549  -248629  -248718  -248811  -248907  -249002 
 -249088  -249168  -249247  -249331  -249411  -249478  -249527  -249554 
 -249565  -249561  -249546  -249523  -249498  -249478  -249457  -249426 
 -249386  -249346  -249312  -249280  -249238  -249192  -249146  -249100 
 -249048  -248985  -248914  -248840  -248776  -248719  -248657  -248598 
 -248552  -248516  -248489  -248468  -248448  -248431  -248420  -248416 
 -248427  -248449  -248476  -248506  -248539  -248574  -248613  -248663 
 -248717  -248757  -248786  -248819  -248864  -248906  -248940  -248965 
 -248983  -248999  -249006  -249003  -249000  -248999  -249000  -249002 
 -249002  -248994  -248971  -248938  -248902  -248864  -248825  -248794 
 -248771  -248746  -248717  -248687  -248653  -248614  -248584  -248557 
 -248535  -248514  -248490  -248456  -248420  -248387  -248358  -248335 
 -248321  -248312  -248305  -248305  -248314  -248327  -248336  -248346 
 -248355  -248373  -248397  -248424  -248463  -248509  -248555  -248597 
 -248618  -248628  -248640  -248657  -248682  -248710  -248744  -248791 
 -248845  -248903  -248962  -249010  -249045  -249073  -249104  -249142 
 -249185  -249223  -249249  -249262  -249264  -249255  -249232  -249195 
 -249157  -249119  -249079  -249042  -249004  -248969  -248941  -248910 
 -248876  -248848  -248821  -248791  -248760  -248729  -248705  -248688 
 -248672  -248643  -248603  -248563  -248522  -248486  -248463  -248452 
 -248452  -248460  -248471  -248486  -248508  -248536  -248572  -248611 
 -248649  -248680  -248710  -248745  -248788  -248832  -248867  -248895 
 -248929  -248972  -249022  -249065  -249095  -249107  -249106  -249096 
 -249085  -249076  -249073  -249070  -249064  -249053  -249045  -249037 
 -249031  -249019  -248999  -248977  -248958  -248941  -248921  -248892 
 -248861  -248832  -248795  -248757  -248734  -248722  -248714  -248709 
 -248703  -248699  -248705  -248719  -248741  -248769  -248803  -248836 
 -248859  -248875  -248888  -248894  -248890  -248880  -248865  -248852 
 -248841  -248832  -248819  -248805  -248796  -248795  -248802  -248813 
 -248817  -248810  -248807  -248813  -248827  -248856  -248894  -248921 
 -248929  -248925  -248914  -248895  -248867  -248836  -248809  -248787 
 -248768  -248746  -248718  -248682  -248640  -248595  -248557  -248533 
 -248521  -248513  -248506  -248495  -248478  -248451  -248421  -248401 
 -248389  -248383  -248383  -248389  -248400  -248416  -248421  -248416 
 -248410  -248410  -248418  -248436  -248458  -248475  -248497  -248525 
 -248545  -248563  -248589  -248622  -248661  -248705  -248751  -248798 
 -248849  -248903  -248956  -249016  -249096  -249184  -249269  -249346 
 -249411  -249467  -249516  -249551  -249574  -249586  -249590  -249590 
 -249579  -249551  -249517  -249478  -249427  -249373  -249324  -249291 
 -249268  -249250  -249239  -249231  -249212  -249188  -249158  -249115 
 -249065  -249011  -248954  -248890  -248821  -248756  -248691  -248628 
 -248574  -248529  -248494  -248472  -248467  -248474  -248487  -248498 
 -248501  -248486  -248462  -248445  -248435  -248422  -248409  -248400 
 -248395  -248401  -248412  -248421  -248431  -248440  -248451  -248464 
 -248472  -248474  -248472  -248464  -248451  -248440  -248440  -248452 
 -248472  -248495  -248520  -248548  -248580  -248617  -248659  -248695 
 -248725  -248753  -248783  -248811  -248826  -248830  -248832  -248826 
 -248819  -248819  -248821  -248822  -248825  -248827  -248833  -248849 
 -248867  -248877  -248890  -248907  -248918  -248921  -248918  -248906 
 -248876  -248840  -248800  -248757  -248713  -248686  -248671  -248663 
 -248663  -248674  -248690  -248706  -248726  -248753  -248784  -248817 
 -248848  -248876  -248904  -248937  -248969  -248998  -249026  -249049 
 -249065  -249075  -249080  -249083  -249083  -249087  -249092  -249092 
 -249093  -249092  -249084  -249073  -249062  -249046  -249030  -249018 
 -249012  -249002  -248977  -248950  -248922  -248892  -248863  -248832 
 -248802  -248780  -248764  -248742  -248725  -248724  -248728  -248726 
 -248722  -248714  -248701  -248680  -248653  -248624  -248595  -248568 
 -248540  -248512  -248485  -248464  -248459  -248466  -248485  -248506 
 -248528  -248551  -248578  -248607  -248628  -248638  -248649  -248663 
 -248665  -248665  -248664  -248659  -248653  -248643  -248625  -248616 
 -248613  -248616  -248632  -248659  -248688  -248711  -248732  -248759 
 -248786  -248805  -248823  -248852  -248883  -248913  -248938  -248962 
 -248987  -249021  -249056  -249092  -249129  -249165  -249200  -249227 
 -249250  -249268  -249277  -249278  -249273  -249258  -249238  -249215 
 -249191  -249161  -249116  -249065  -249014  -248960  -248908  -248863 
 -248818  -248773  -248730  -248684  -248636  -248593  -248555  -248514 
 -248470  -248431  -248405  -248387  -248373  -248360  -248358  -248362 
 -248375  -248405  -248441  -248476  -248510  -248545  -248584  -248628 
 -248661  -248683  -248699  -248715  -248730  -248741  -248746  -248752 
 -248755  -248753  -248752  -248751  -248746  -248738  -248734  -248742 
 -248760  -248772  -248780  -248787  -248796  -248800  -248795  -248792 
 -248798  -248810  -248821  -248836  -248850  -248860  -248864  -248867 
 -248867  -248865  -248867  -248869  -248869  -248872  -248881  -248896 
