Origin Time       2025/06/03 22:18:00
Lat.              41.7
Long.             143.6
Depth. (km)       30
Mag.              5.2
Station Code      KSRH07
Station Lat.      43.1359
Station Long.     144.3274
Station Height(m) 38
Record Time       2025/06/03 22:19:14
Sampling Freq(Hz) 100Hz
Duration Time(s)  120
Dir.              5
Scale Factor      7845(gal)/8223790
Max. Acc. (gal)   2.228
Last Correction   2025/06/03 22:19:14
Memo.             
[...]
    8338     8356     8397     8424     8403     8332     8272     8279 
    8338     8402     8432     8434     8437     8455     8480     8502 
    8503     8490     8482     8472     8448     8422     8424     8457 
    8505     8536     8522     8453     8356     8287     8274     8311 
    8392     8495     8584     8640     8642     8581     8482     8376 
    8287     8235     8240     8325     8473     8618     8683     8625 
    8463     8287     8178     8163     8248     8429     8656     8799 
    8753     8546     8309     8178     8197     8291     8384     8473 
    8559     8613     8600     8509     8388     8316     8330     8403 
    8472     8503     8492     8445     8379     8334     8341     8401 
    8483     8557     8596     8579     8494     8361     8233     8174 
    8206     8322     8491     8653     8735     8700     8571     8407 
    8270     8198     8212     8310     8461     8600     8661     8629 
    8537     8442     8375     8348     8375     8455     8536     8560 
    8499     8380     8271     8228     8256     8316     8368     8433 
    8527     8610     8608     8472     8257     8114     8139     8280 
    8432     8548     8633     8658     8584     8436     8298     8233 
    8247     8324     8452     8588     8680     8703     8642     8507 
    8363     8284     8307     8398     8483     8525     8522     8498 
    8486     8491     8478     8422     8364     8345     8351     8355 
    8357     8384     8442     8503     8530     8515     8480     8455 
    8459     8480     8492     8476     8444     8417     8384     8333 
    8289     8283     8328     8384     8402     8384     8359     8353 
    8386     8436     8451     8417     8368     8347     8378     8471 
    8607     8721     8753     8710     8621     8510     8398     8303 
    8251     8268     8361     8488     8591     8654     8673     8596 
    8421     8230     8113     8112     8213     8372     8553     8707 
    8784     8749     8594     8361     8121     7933     7867     7965 
    8186     8440     8664     8820     8858     8748     8546     8348 
    8218     8199     8314     8514     8694     8783     8772     8679 
    8529     8371     8264     8253     8332     8426     8467     8449 
    8430     8428     8398     8322     8256     8251     8284     8306 
    8302     8282     8251     8240     8294     8401     8500     8557 
    8553     8487     8415     8418     8495     8561     8565     8538 
    8525     8552     8592     8600     8559     8484     8414     8387 
    8424     8509     8592     8630     8623     8579     8495     8394 
    8295     8225     8197     8218     8305     8432     8553     8619 
    8583     8437     8253     8131     8129     8217     8326     8425 
    8511     8576     8596     8542     8430     8328     8294     8337 
    8428     8518     8565     8549     8487     8438     8434     8460 
    8494     8521     8537     8549     8556     8527     8442     8337 
    8264     8240     8252     8283     8329     8406     8519     8635 
    8721     8748     8694     8554     8392     8287     8255     8255 
    8271     8311     8375     8436     8483     8525     8532     8465 
    8334     8186     8087     8087     8187     8356     8525     8619 
    8629     8571     8468     8353     8259     8213     8236     8321 
    8437     8557     8661     8727     8752     8738     8681     8577 
    8449     8334     8278     8306     8407     8545     8675     8752 
    8742     8642     8494     8368     8295     8255     8224     8217 
    8280     8421     8571     8648     8599     8442     8267     8149 
    8108     8129     8210     8344     8483     8590     8667     8715 
    8695     8583     8421     8294     8249     8287     8382     8479 
    8548     8603     8642     8625     8534     8411     8318     8279 
    8275     8282     8310     8386     8484     8553     8567     8526 
    8448     8363     8294     8249     8235     8271     8361     8473 
    8571     8622     8602     8507     8359     8214     8159     8226 
    8361     8492     8577     8588     8536     8437     8303     8206 
    8240     8397     8552     8602     8567     8537     8534     8529 
    8507     8486     8468     8446     8425     8415     8415     8428 
    8449     8465     8480     8503     8529     8517     8444     8344 
    8276     8282     8348     8418     8449     8453     8429     8356 
    8237     8136     8143     8303     8550     8753     8841     8835 
    8777     8687     8573     8438     8306     8235     8275     8410 
    8553     8602     8527     8388     8255     8147     8063     8036 
    8095     8240     8442     8630     8718     8685     8571     8418 
    8256     8122     8095     8220     8436     8626     8710     8710 
    8688     8665     8599     8452     8271     8160     8178     8291 
    8406     8467     8530     8673     8853     8951     8883     8671 
    8417     8210     8093     8082     8178     8372     8617     8799 
    8833     8726     8527     8274     8014     7834     7804     7932 
    8176     8446     8648     8735     8721     8630     8482     8314 
    8197     8166     8208     8309     8452     8590     8656     8611 
    8491     8383     8322     8306     8330     8398     8490     8568 
    8608     8613     8588     8559     8534     8502     8469     8467 
    8491     8521     8544     8536     8459     8341     8283     8351 
    8490     8588     8565     8437     8278     8167     8137     8148 
    8178     8267     8457     8702     8851     8789     8554     8311 
    8206     8259     8375     8486     8588     8692     8772     8765 
    8635     8444     8307     8307     8422     8554     8629     8614 
    8526     8402     8264     8141     8077     8114     8241     8357 
    8374     8309     8237     8209     8222     8259     8330     8456 
    8598     8676     8642     8527     8401     8321     8330     8433 
    8576     8696     8741     8684     8561     8430     8328     8290 
    8347     8461     8550     8554     8487     8402     8343     8326 
    8347     8387     8430     8463     8478     8449     8372     8303 
    8291     8341     8430     8523     8572     8541     8437     8305 
    8191     8152     8226     8386     8546     8660     8729     8739 
    8662     8510     8341     8208     8151     8213     8386     8602 
    8775     8819     8730     8560     8376     8244     8189     8172 
    8178     8255     8433     8615     8662     8560     8411     8332 
    8344     8378     8372     8337     8317     8330     8365     8399 
    8445     8522     8604     8629     8577     8479     8351     8206 
    8082     8036     8097     8241     8417     8572     8664     8665 
    8586     8451     8301     8214     8251     8386     8540     8650 
    8699     8708     8706     8673     8581     8453     8321     8208 
    8160     8213     8353     8527     8646     8634     8514     8367 
    8259     8220     8232     8270     8322     8406     8521     8606 
    8577     8414     8189     8020     7981     8073     8232     8382 
    8499     8595     8644     8615     8515     8384     8295     8310 
    8445     8631     8745     8742     8664     8546     8392     8251 
    8197     8244     8343     8467     8598     8699     8754     8748 
    8664     8532     8415     8357     8347     8370     8444     8565 
    8712     8833     8835     8683     8438     8216     8110     8127 
    8217     8363     8541     8696     8764     8706     8546     8359 
    8190     8086     8071     8140     8290     8511     8733     8822 
    8711     8500     8328     8249     8259     8330     8434     8553 
    8667     8766     8845     8857     8764     8587     8388     8239 
    8176     8205     8314     8491     8695     8841     8861     8737 
    8464     8067     7690     7520     7616     7897     8257     8633 
    8945     9093     9030     8781     8434     8124     7997     8105 
    8367     8669     8949     9153     9209     9061     8714     8274 
    7916     7765     7830     8040     8299     8494     8532     8397 
    8167     7970     7906     8014     8262     8544     8725     8723 
    8567     8349     8174     8113     8217     8487     8814     9022 
    9015     8831     8571     8314     8135     8097     8217     8434 
    8646     8749     8696     8552     8422     8322     8193     8024 
    7893     7873     7965     8083     8108     8027     7992     8164 
    8521     8866     9027     8969     8762     8476     8167     7933 
    7915     8171     8637     9148     9495     9510     9188     8698 
    8268     8046     8058     8279     8617     8945     9150     9153 
    8927     8529     8091     7770     7672     7808     8074     8321 
    8475     8527     8452     8225     7927     7749     7848     8203 
    8650     9001     9144     9061     8789     8432     8136     8009 
    8073     8309     8654     8976     9119     9020     8730     8368 
    8074     7960     8048     8275     8556     8802     8922     8858 
    8645     8394     8209     8141     8202     8355     8541     8708 
    8789     8715     8506     8283     8148     8105     8101     8128 
    8216     8329     8364     8275     8124     8016     8017     8108 
    8220     8325     8451     8644     8896     9086     9105     8957 
    8741     8565     8468     8449     8500     8599     8702     8734 
    8615     8348     8033     7813     7792     7978     8286     8571 
    8676     8545     8262     7947     7680     7516     7549     7867 
    8417     8991     9358     9355     9001     8509     8098     7875 
    7882     8163     8695     9309     9738     9765     9352     8671 
    7986     7512     7365     7587     8113     8745     9208     9309 
    9053     8602     8156     7865     7778     7867     8073     8311 
    8505     8621     8671     8645     8526     8340     8172     8064 
    7996     7970     8035     8201     8417     8621     8766     8838 
    8823     8721     8550     8330     8094     7942     7992     8268 
    8635     8891     8943     8842     8664     8418     8122     7920 
    7958     8209     8527     8793     8950     8946     8733     8357 
    7971     7715     7685     7917     8326     8737     8988     9018 
    8831     8492     8132     7894     7839     7928     8101     8334 
    8602     8806     8847     8714     8478     8249     8102     8046 
    8081     8230     8507     8862     9171     9323     9296     9150 
    8972     8796     8626     8488     8421     8445     8554     8685 
    8742     8691     8550     8333     8075     7851     7736     7785 
    8000     8270     8429     8409     8297     8214     8201     8232 
    8290     8383     8529     8710     8835     8810     8649     8441 
    8272     8189     8193     8272     8415     8591     8752     8839 
    8830     8729     8552     8345     8155     7992     7881     7901 
    8118     8484     8850     9045     8951     8598     8155     7831 
    7731     7825     8047     8378     8797     9167     9285     9053 
    8573     8073     7757     7711     7884     8172     8498     8757 
    8838     8721     8464     8132     7827     7682     7785     8100 
    8469     8749     8883     8905     8872     8789     8644     8452 
    8279     8175     8141     8170     8284     8482     8721     8950 
    9109     9127     8951     8576     8085     7641     7407     7474 
    7823     8320     8777     9062     9146     9022     8687     8262 
    7958     7902     8082     8415     8810     9158     9373     9413 
    9235     8841     8355     7929     7663     7627     7865     8325 
    8858     9282     9483     9431     9143     8676     8140     7704 
    7527     7663     8002     8329     8496     8496     8379     8193 
    8009     7916     7979     8210     8532     8807     8947     8938 
    8816     8633     8448     8310     8239     8240     8325     8463 
    8571     8617     8638     8673     8725     8773     8756     8607 
    8368     8159     8086     8170     8360     8599     8819     8947 
    8923     8695     8283     7820     7469     7342     7469     7789 
    8206     8607     8843     8806     8503     8046     7604     7375 
    7484     7912     8517     9127     9598     9830     9771     9424 
    8905     8421     8156     8178     8401     8653     8787     8735 
    8499     8129     7763     7557     7547     7654     7819     8017 
    8182     8262     8263     8233     8236     8351     8615     8939 
    9169     9209     9045     8750     8476     8345     8392     8596 
    8897     9177     9286     9123     8691     8122     7634     7383 
    7415     7693     8154     8702     9177     9383     9209     8706 
    8052     7496     7250     7403     7866     8446     8974     9308 
    9328     9043     8606     8191     7933     7912     8118     8467 
    8857     9201     9393     9348     9096     8752     8472     8392 
    8541     8808     9013     9049     8904     8575     8062     7492 
    7078     6978     7215     7651     8063     8291     8317     8217 
    8048     7847     7715     7773     8046     8461     8910     9254 
    9370     9254     9008     8710     8403     8149     8012     8023 
    8158     8328     8434     8438     8394     8357     8299     8159 
    7939     7695     7516     7487     7632     7920     8290     8665 
    9003     9261     9346     9197     8893     8619     8564     8811 
    9306     9907    10450    10770    10717    10231     9400     8479 
    7786     7537     7736     8167     8541     8684     8560     8176 
    7582     6922     6413     6250     6517     7161     7986     8721 
    9165     9282     9161     8916     8653     8463     8426     8571 
    8861     9208     9510     9686     9674     9433     8972     8360 
    7739     7269     7055     7107     7342     7623     7835     7969 
    8077     8162     8176     8137     8113     8140     8202     8298 
    8430     8552     8623     8684     8780     8908     9013     9031 
    8949     8812     8687     8629     8653     8742     8866     8993 
    9089     9123     9059     8869     8557     8170     7778     7458 
    7318     7488     7981     8592     9063     9277     9263     9073 
    8750     8370     8070     7997     8170     8444     8669     8775 
    8743     8596     8395     8193     7978     7736     7520     7419 
    7445     7538     7682     7924     8266     8625     8900     9030 
    9020     8954     8916     8899     8826     8687     8554     8509 
    8553     8622     8649     8607     8517     8401     8245     8013 
    7716     7434     7280     7334     7587     7951     8337     8672 
    8901     8996     8947     8783     8584     8445     8382     8355 
    8336     8345     8392     8471     8603     8772     8873     8842 
    8689     8465     8229     8028     7913     7924     8104     8464 
    8904     9243     9340     9159     8766     8291     7861     7581 
    7524     7717     8109     8569     8938     9081     8939     8571 
    8121     7750     7600     7755     8198     8802     9370     9726 
    9786     9552     9111     8634     8316     8228     8298     8436 
    8584     8662     8590     8394     8201     8116     8166     8311 
    8479     8581     8538     8343     8081     7859     7759     7848 
    8133     8514     8843     9011     8993     8860     8718     8630 
    8586     8571     8635     8806     9001     9105     9049     8849 
    8592     8352     8151     7989     7857     7739     7659     7641 
    7649     7636     7635     7696     7808     7954     8129     8320 
    8483     8579     8614     8615     8576     8505     8464     8523 
    8707     8942     9111     9150     9055     8822     8469     8090 
    7842     7851     8133     8596     9088     9451     9579     9437 
    9074     8629     8256     8062     8101     8341     8660     8889 
    8897     8648     8245     7890     7720     7734     7858     8014 
    8124     8128     8013     7812     7601     7511     7658     8040 
    8523     8935     9134     9050     8729     8317     8002     7935 
    8178     8698     9355     9938    10254    10193     9764     9085 
    8380     7871     7654     7717     7996     8365     8664     8752 
    8556     8100     7488     6883     6469     6353     6532     6937 
    7465     7992     8390     8599     8660     8640     8573     8483 
    8419     8479     8719     9077     9416     9644     9749     9747 
    9667     9583     9551     9552     9545     9508     9405     9217 
    8961     8707     8534     8460     8468     8521     8564     8554 
    8463     8293     8089     7886     7707     7603     7642     7821 
    8037     8174     8197     8141     8048     7933     7817     7761 
    7807     7920     8039     8166     8357     8634     8900     9012 
    8893     8569     8154     7797     7618     7649     7858     8183 
    8527     8758     8783     8611     8326     8036     7871     7921 
    8170     8499     8781     8947     8970     8839     8567     8226 
    7954     7870     7990     8226     8438     8502     8383     8170 
    8014     8027     8214     8533     8926     9323     9610     9675 
    9498     9154     8769     8487     8432     8635     8999     9332 
    9489     9413     9136     8758     8384     8090     7942     7959 
    8089     8228     8259     8124     7881     7636     7464     7406 
    7484     7669     7902     8122     8274     8313     8249     8135 
    8040     8010     8041     8121     8251     8424     8603     8765 
    8897     8959     8899     8729     8542     8422     8395     8475 
    8661     8901     9077     9073     8861     8496     8079     7744 
    7631     7800     8179     8622     8974     9096     8903     8445 
    7913     7539     7480     7773     8357     9066     9671     9961 
    9857     9479     9036     8691     8530     8603     8880     9217 
    9432     9423     9180     8760     8279     7857     7597     7546 
    7649     7803     7936     7998     7932     7708     7377     7088 
    6982     7128     7535     8112     8671     9065     9262     9259 
    9055     8707     8336     8090     8094     8372     8838     9332 
    9670     9724     9489     9057     8560     8128     7839     7735 
    7823     8046     8294     8441     8405     8199     7938     7730 
    7620     7618     7734     7932     8133     8287     8415     8550 
    8662     8706     8708     8719     8733     8729     8725     8754 
    8834     8953     9097     9231     9294     9254     9085     8784 
    8428     8136     7981     7978     8124     8351     8542     8600 
    8488     8229     7917     7678     7588     7635     7792     8046 
    8351     8607     8723     8681     8532     8341     8183     8112 
    8139     8241     8395     8552     8646     8665     8623     8522 
    8410     8372     8422     8490     8526     8561     8618     8662 
    8654     8591     8492     8409     8391     8445     8540     8629 
    8675     8664     8591     8444     8225     7986     7823     7801 
    7913     8086     8225     8289     8287     8251     8222     8222 
    8230     8240     8282     8382     8527     8688     8846     8993 
    9127     9235     9270     9189     9007     8796     8668     8687 
