Origin Time       2025/06/03 22:18:00
Lat.              41.7
Long.             143.6
Depth. (km)       30
Mag.              5.2
Station Code      KSRH05
Station Lat.      43.2556
Station Long.     144.2338
Station Height(m) 114
Record Time       2025/06/03 22:19:21
Sampling Freq(Hz) 100Hz
Duration Time(s)  120
Dir.              4
Scale Factor      7845(gal)/8223790
Max. Acc. (gal)   0.804
Last Correction   2025/06/03 22:19:21
Memo.             
[...]
     635      669      685      672      649      645      654      676 
     711      741      746      730      700      669      645      627 
     630      653      680      703      722      727      702      657 
     622      615      625      630      633      656      702      743 
     761      760      743      720      695      665      635      606 
     588      612      675      723      719      679      646      621 
     587      565      589      635      657      654      660      670 
     656      612      581      596      641      684      711      719 
     702      660      611      568      527      486      467      502 
     579      650      683      691      706      733      743      726 
     699      685      680      661      623      591      591      612 
     634      656      695      731      734      696      646      616 
     623      657      703      747      780      799      796      754 
     681      615      594      615      661      708      746      766 
     761      726      675      630      615      641      684      718 
     749      772      760      720      670      618      575      548 
     537      540      553      568      579      587      591      589 
     583      592      627      670      700      712      715      700 
     654      589      540      534      575      633      684      731 
     756      731      669      606      576      581      600      623 
     662      715      751      745      711      695      706      712 
     696      679      676      670      649      626      619      631 
     652      675      703      722      711      685      661      639 
     611      595      618      669      710      722      724      723 
     704      664      631      639      680      726      743      727 
     706      699      680      629      573      556      577      618 
     660      691      699      684      656      615      567      537 
     537      573      650      737      789      803      792      766 
     703      596      504      484      529      585      634      681 
     722      727      689      637      587      564      594      675 
     773      846      858      804      719      630      553      510 
     519      577      642      689      708      704      685      652 
     614      598      621      669      711      719      692      648 
     600      554      523      527      575      654      726      747 
     718      662      611      584      583      596      626      666 
     703      723      726      703      652      594      584      635 
     699      730      723      704      685      653      603      560 
     552      581      633      680      702      702      703      723 
     756      780      776      739      688      642      598      554 
     545      596      676      743      792      804      765      685 
     596      529      495      504      562      654      750      822 
     842      797      688      556      460      438      481      568 
     688      810      876      859      776      656      529      454 
     467      546      649      741      801      805      733      610 
     513      471      472      519      630      789      923      958 
     878      739      623      567      549      569      634      723 
     780      769      710      633      541      471      483      581 
     689      729      693      637      588      558      561      602 
     665      727      777      814      811      751      657      580 
     560      599      665      729      766      776      761      711 
     627      545      506      517      565      631      692      730 
     747      757      764      766      764      756      734      696 
     654      614      580      567      576      603      652      697 
     702      654      585      530      508      515      538      587 
     669      746      777      751      684      606      557      560 
     606      657      692      712      719      710      683      639 
     594      556      535      548      596      654      687      684 
     672      675      687      693      699      726      773      804 
     780      706      633      603      616      664      739      816 
     839      785      679      567      491      483      546      668 
     819      935      954      862      692      519      418      419 
     511      654      789      866      853      753      598      445 
     376      430      556      676      765      803      758      634 
     490      399      399      488      618      739      819      841 
     793      692      581      511      490      504      557      639 
     718      751      720      649      591      577      588      610 
     662      746      824      853      810      707      598      540 
     552      607      668      726      778      800      769      687 
     600      587      649      708      720      704      685      672 
     656      643      657      704      768      823      839      800 
     741      729      770      808      808      796      801      804 
     750      635      533      513      567      638      695      747 
     791      789      706      548      403      369      449      552 
     618      662      714      742      692      567      449      436 
     521      639      757      862      913      878      776      642 
     514      440      448      527      643      751      818      808 
     703      534      382      319      372      511      669      789 
     846      838      770      668      576      535      552      602 
     658      720      758      723      621      522      487      508 
     558      622      687      722      687      572      448      392 
     438      567      720      822      824      742      598      425 
     291      274      391      602      822      954      958      861 
     707      531      394      363      476      712      977     1138 
    1111      919      668      449      307      287      434      745 
    1105     1350     1368     1169      846      508      245      129 
     217      483      830     1131     1279     1221      992      702 
     463      319      267      297      423      631      818      861 
     768      634      515      421      373      410      531      680 
     789      823      783      703      615      554      553      591 
     611      610      634      702      776      793      734      654 
     596      542      496      514      627      801      962     1061 
    1082     1012      831      580      346      182      121      233 
     519      854     1101     1178     1057      769      405       81 
     -70       40      378      795     1139     1321     1289     1016 
     587      190       -8       66      373      768     1098     1270 
    1239     1024      699      356      126      102      276      571 
     891     1142     1235     1134      904      652      434      319 
     372      548      737      885      966      930      769      554 
     386      342      440      614      777      882      903      816 
     638      446      321      303      390      533      670      754 
     765      703      596      491      430      438      514      630 
     733      777      762      716      653      588      564      598 
     643      656      654      687      746      783      750      668 
     587      535      507      492      495      514      560      649 
     774      892      958      972      951      900      826      760 
     722      737      801      855      843      774      692      621 
     557      513      523      591      658      670      619      544 
     511      557      654      754      811      793      715      615 
     526      490      550      706      878      951      865      662 
     454      324      278      306      405      561      727      831 
     819      706      579      518      541      610      680      719 
     712      664      595      548      560      634      756      893 
     974      940      807      638      499      432      441      525 
     692      918     1094     1123      993      770      544      400 
     406      553      780      996     1119     1092      901      604 
     314      149      176      373      675     1009     1274     1336 
    1146      812      481      230      101      137      319      561 
     756      839      812      730      625      511      419      390 
     438      541      641      688      677      641      611      596 
     598      611      602      531      419      328      307      400 
     616      878     1070     1139     1102      977      751      469 
     268      265      461      757     1024     1165     1140      954 
     652      349      166      166      359      685     1021     1243 
    1274     1085      727      336       58      -29       97      413 
     816     1167     1362     1368     1181      823      395       40 
    -125      -51      225      606      959     1169     1167      973 
     681      418      268      272      432      688      976     1229 
    1337     1223      954      679      490      406      419      515 
     639      719      735      723      692      635      588      591 
     629      645      612      562      546      592      676      735 
     746      724      660      531      375      251      233      352 
     560      787      972     1044      967      774      537      340 
     260      340      548      789      972     1036      951      731 
     475      295      244      311      486      719      923     1028 
    1020      904      718      552      499      579      727      854 
     915      893      783      623      481      398      364      384 
     500      704      896      973      919      796      664      535 
     426      378      434      589      778      934     1003      955 
     812      638      488      388      373      464      625      788 
     899      927      874      756      604      465      380      378 
     477      695      953     1105     1084      943      753      549 
     372      292      344      492      679      855      969      961 
     841      664      508      415      380      403      490      608 
     726      816      862      877      882      865      793      670 
     548      490      506      556      627      741      862      913 
     870      754      580      376      220      209      368      634 
     911     1104     1154     1043      816      548      319      207 
     253      434      665      853      958      990      946      801 
     584      411      394      522      677      741      703      639 
     588      513      409      348      375      438      457      437 
     450      517      581      627      697      780      824      819 
     754      622      436      257      189      284      513      787 
    1017     1150     1169     1054      812      530      333      288 
     384      580      831     1067     1192     1146      954      708 
     507      388      361      444      607      764      830      822 
     810      783      688      562      494      519      612      723 
     819      895      903      784      584      419      333      318 
     386      530      724      919     1032     1038      970      849 
     688      553      500      540      638      753      843      866 
     795      664      544      461      417      394      406      495 
     657      784      787      711      649      594      517      453 
     454      506      560      622      706      773      789      780 
     774      774      772      770      770      762      742      700 
     642      615      652      733      830      923      986      974 
     858      665      473      375      392      459      486      461 
     437      459      513      580      687      835      972     1015 
     922      711      463      282      243      344      503      621 
     665      648      571      452      368      395      529      695 
     832      896      839      689      565      541      615      768 
     955     1096     1125     1067      967      832      672      542 
     504      548      604      638      648      634      599      550 
     496      464      481      542      611      666      714      738 
     706      622      530      475      488      550      598      581 
     507      425      395      453      612      827     1020     1132 
    1132     1008      780      529      382      427      626      864 
    1051     1132     1077      904      670      459      355      413 
     604      842     1012     1020      857      612      394      275 
     301      481      773     1084     1287     1283     1065      719 
     390      197      189      344      607      893     1104     1150 
    1013      772      548      423      434      558      724      869 
     955      955      851      670      480      352      310      349 
     440      546      660      757      789      735      629      535 
     495      492      481      454      461      513      530      475 
     413      429      523      612      602      479      341      302 
     395      572      761      911      976      916      714      410 
     124        8      155      526      955     1269     1385     1286 
     981      523       70     -184     -130      184      618     1028 
    1304     1364     1216      939      635      382      241      259 
     418      631      808      909      924      869      783      691 
     618      606      661      734      768      753      723      714 
     733      753      754      741      741      762      754      657 
     504      400      395      469      610      787      924      969 
     918      797      630      450      341      378      515      679 
     859     1012     1048      965      850      769      734      738 
     781      847      895      873      750      557      379      291 
     315      432      627      853      989      958      793      585 
     418      351      409      587      834     1042     1121     1066 
     920      719      526      427      467      614      781      892 
     913      835      675      490      346      291      332      422 
     504      550      552      521      492      507      577      662 
     711      708      660      583      513      477      486      540 
     634      742      828      870      876      832      723      580 
     475      454      504      564      592      596      595      600 
     608      595      540      483      477      534      616      685 
     699      637      552      508      519      565      649      792 
     980     1129     1155     1054      882      687      518      444 
     515      712      954     1115     1086      847      465       79 
    -163     -182       29      405      808     1098     1179     1013 
     660      291       81       85      253      504      772      967 
    1015      926      781      660      629      734      901      994 
     946      788      580      409      348      406      553      742 
     876      865      726      544      413      421      598      880 
    1140     1262     1179      918      568      229        2        5 
     268      665     1004     1175     1177     1048      828      592 
     429      403      533      774     1027     1185     1204     1089 
     885      662      481      382      395      525      714      870 
     943      924      830      711      622      589      618      703 
     795      827      747      576      398      294      276      307 
     361      438      526      595      660      761      892      993 
    1027      977      851      702      583      513      486      504 
     577      691      770      747      622      444      272      166 
     164      283      480      684      842      936      954      882 
     741      573      448      421      513      681      832      903 
     895      854      795      687      541      442      459      568 
     718      854      936      962      934      822      648      498 
     448      500      606      731      864      959      962      859 
     699      534      391      291      259      301      386      477 
     549      588      606      602      576      541      517      521 
     560      627      716      820      888      861      761      666 
     608      567      538      556      648      795      927      981 
     924      768      594      491      463      508      652      866 
    1061     1155     1121      978      770      561      436      452 
     592      792      982     1089     1054      858      558      264 
      85       72      226      490      773      994     1089     1013 
     789      537      386      386      502      666      830      946 
     958      865      720      558      398      284      247      286 
     379      503      631      727      761      730      653      556 
     463      400      391      430      490      556      627      704 
     772      810      792      697      530      336      183      133 
     225      452      758     1034     1171     1128      932      653 
     395      249      275      481      812     1135     1317     1277 
    1020      658      325      108       49      160      410      720 
     988     1132     1132      999      766      519      375      390 
     511      637      710      719      662      562      464      413 
     432      527      676      812      873      857      808      764 
     738      758      822      878      880      824      745      676 
     664      737      874     1000     1046      970      780      531 
     306      168      164      309      540      762      909      950 
     888      745      553      363      240      233      336      487 
     621      708      739      696      594      480      406      405 
     465      556      665      781      865      878      828      750 
     684      645      658      735      841      897      877      818 
     747      658      573      553      629      770      924     1047 
    1120     1134     1063      912      751      656      631      658 
     719      793      858      862      770      633      533      500 
     498      484      473      483      504      540      607      703 
     799      857      842      738      575      418      333      344 
     442      612      820      981      997      837      562      276 
      60      -39       -2      155      378      594      743      803 
     777      704      637      619      654      711      765      814 
     834      810      749      666      595      577      600      610 
     583      534      477      421      392      436      542      670 
     789      876      903      864      801      785      850      972 
    1094     1179     1192     1116      980      830      700      610 
     583      641      758      866      908      884      827      764 
     706      668      662      680      696      710      716      712 
     711      715      687      596      469      373      356      399 
