Origin Time       2025/06/03 22:18:00
Lat.              41.7
Long.             143.6
Depth. (km)       30
Mag.              5.2
Station Code      KSRH03
Station Lat.      43.3848
Station Long.     144.6279
Station Height(m) -24
Record Time       2025/06/03 22:19:18
Sampling Freq(Hz) 100Hz
Duration Time(s)  120
Dir.              2
Scale Factor      2942(gal)/8224139
Max. Acc. (gal)   0.222
Last Correction   2025/06/03 22:19:18
Memo.             
[...]
   80642    80655    80661    80647    80635    80635    80635    80617 
   80573    80546    80553    80558    80563    80586    80611    80622 
   80627    80631    80627    80620    80631    80651    80658    80644 
   80616    80574    80523    80499    80536    80600    80649    80696 
   80757    80817    80860    80881    80871    80832    80786    80748 
   80724    80717    80731    80773    80817    80838    80847    80850 
   80842    80824    80784    80728    80688    80681    80694    80694 
   80682    80684    80684    80658    80617    80573    80524    80504 
   80524    80553    80568    80559    80546    80546    80534    80512 
   80516    80555    80607    80642    80665    80688    80707    80720 
   80730    80734    80750    80758    80752    80775    80809    80806 
   80779    80747    80708    80657    80615    80635    80716    80806 
   80894    80964    80954    80859    80757    80685    80631    80577 
   80526    80505    80524    80573    80639    80700    80725    80686 
   80603    80542    80511    80470    80430    80400    80353    80300 
   80279    80289    80315    80346    80364    80369    80401    80476 
   80550    80592    80613    80639    80644    80612    80586    80585 
   80599    80653    80746    80812    80805    80752    80713    80723 
   80744    80736    80724    80735    80748    80721    80640    80535 
   80446    80376    80334    80343    80400    80497    80642    80821 
   80978    81048    81012    80896    80742    80578    80418    80266 
   80140    80069    80057    80104    80237    80441    80665    80842 
   80914    80896    80839    80802    80824    80881    80912    80878 
   80800    80712    80601    80495    80469    80528    80635    80761 
   80869    80909    80898    80890    80904    80906    80862    80765 
   80657    80569    80484    80399    80338    80302    80266    80269 
   80350    80477    80616    80752    80842    80871    80866    80823 
   80739    80647    80588    80565    80531    80492    80484    80499 
   80565    80715    80859    80901    80858    80773    80682    80612 
   80573    80589    80654    80720    80747    80705    80609    80523 
   80482    80485    80497    80488    80485    80516    80568    80638 
   80724    80793    80796    80719    80599    80489    80431    80428 
   80465    80522    80570    80588    80562    80523    80541    80620 
   80701    80773    80851    80900    80890    80846    80798    80746 
   80685    80612    80531    80468    80447    80476    80551    80667 
   80781    80838    80844    80854    80874    80862    80774    80640 
   80554    80549    80582    80631    80685    80721    80721    80669 
   80569    80462    80387    80372    80424    80500    80545    80554 
   80519    80455    80422    80441    80466    80461    80450    80469 
   80504    80558    80653    80758    80816    80851    80885    80856 
   80719    80542    80415    80356    80364    80437    80531    80609 
   80674    80740    80793    80802    80771    80740    80725    80746 
   80806    80824    80773    80704    80639    80600    80616    80696 
   80820    80917    80935    80885    80813    80727    80628    80557 
   80495    80381    80248    80180    80200    80268    80350    80441 
   80531    80613    80685    80717    80704    80686    80693    80692 
   80661    80622    80576    80495    80408    80346    80295    80269 
   80306    80408    80545    80666    80748    80801    80821    80817 
   80802    80751    80649    80551    80515    80543    80596    80643 
   80689    80736    80771    80819    80897    80958    80946    80871 
   80774    80713    80712    80704    80650    80565    80492    80445 
   80411    80397    80426    80480    80547    80604    80593    80523 
   80469    80465    80491    80547    80624    80658    80615    80553 
   80514    80485    80460    80435    80441    80515    80620    80734 
   80885    81032    81105    81082    80978    80839    80708    80585 
   80466    80391    80368    80376    80439    80539    80574    80541 
   80531    80593    80712    80852    80952    80985    81010    81035 
   81009    80954    80886    80781    80666    80592    80565    80574 
   80605    80632    80620    80554    80457    80380    80374    80426 
   80464    80470    80461    80443    80460    80541    80670    80771 
   80806    80836    80889    80906    80867    80817    80758    80642 
   80504    80391    80281    80192    80158    80164    80199    80242 
   80264    80275    80303    80384    80508    80654    80833    81009 
   81106    81120    81060    80948    80842    80793    80802    80829 
   80860    80843    80747    80667    80643    80586    80516    80503 
   80501    80482    80499    80569    80628    80623    80577    80569 
   80590    80592    80626    80712    80762    80767    80769    80734 
   80635    80500    80361    80268    80246    80262    80284    80330 
   80415    80524    80638    80735    80816    80883    80900    80862 
   80809    80743    80655    80568    80531    80545    80527    80461 
   80420    80435    80480    80543    80635    80724    80761    80755 
   80779    80839    80873    80835    80743    80692    80738    80840 
   80935    80964    80908    80816    80746    80686    80640    80615 
   80615    80635    80607    80496    80346    80184    80055    80025 
   80090    80210    80347    80469    80600    80763    80912    81018 
   81122    81218    81230    81136    80973    80813    80701    80601 
   80515    80491    80527    80589    80659    80765    80886    80952 
   80964    80986    81014    80998    80935    80844    80727    80578 
   80412    80287    80219    80167    80121    80092    80068    80052 
   80068    80148    80287    80428    80526    80563    80538    80484 
   80473    80531    80642    80815    81010    81125    81118    81031 
   80927    80840    80775    80773    80832    80892    80898    80840 
   80735    80635    80574    80569    80638    80755    80838    80842 
   80794    80732    80665    80615    80582    80511    80406    80329 
   80300    80298    80276    80215    80181    80246    80392    80576 
   80781    80941    80990    80944    80881    80831    80793    80792 
   80833    80863    80843    80774    80685    80628    80616    80634 
   80654    80619    80519    80403    80300    80229    80196    80188 
   80207    80252    80293    80338    80414    80512    80611    80676 
   80711    80763    80829    80869    80877    80859    80794    80685 
   80593    80553    80526    80524    80592    80686    80755    80817 
   80867    80871    80847    80793    80698    80582    80497    80489 
   80527    80539    80530    80518    80501    80518    80588    80667 
   80728    80774    80821    80896    80958    80956    80908    80847 
   80788    80742    80703    80666    80649    80619    80535    80451 
   80428    80431    80423    80427    80477    80558    80605    80586 
   80527    80450    80383    80373    80441    80581    80754    80906 
   81008    81031    80970    80869    80790    80746    80697    80640 
   80597    80554    80518    80514    80509    80495    80489    80458 
   80416    80445    80551    80663    80732    80759    80748    80727 
   80721    80719    80709    80707    80703    80705    80720    80712 
   80642    80520    80415    80379    80396    80416    80422    80434 
   80455    80472    80457    80406    80379    80431    80550    80708 
   80890    81052    81133    81122    81055    80950    80840    80775 
   80743    80709    80662    80599    80524    80422    80275    80158 
   80131    80150    80183    80221    80257    80295    80303    80295 
   80347    80447    80511    80516    80519    80550    80600    80644 
   80653    80635    80630    80653    80700    80746    80771    80812 
   80913    81028    81071    81020    80956    80956    80967    80923 
   80842    80759    80685    80642    80630    80605    80577    80580 
   80582    80585    80619    80671    80732    80806    80869    80881 
   80832    80712    80553    80430    80352    80298    80284    80298 
   80335    80408    80476    80539    80646    80751    80785    80766 
   80728    80654    80551    80478    80481    80514    80524    80566 
   80667    80740    80754    80777    80835    80905    80975    81048 
   81083    81055    81004    80956    80898    80823    80757    80696 
   80650    80654    80653    80590    80532    80495    80430    80350 
   80285    80285    80360    80442    80531    80627    80665    80638 
   80561    80434    80315    80237    80207    80306    80515    80697 
   80797    80850    80848    80775    80682    80639    80647    80657 
   80653    80627    80563    80484    80418    80419    80536    80692 
   80759    80759    80773    80779    80730    80689    80708    80744 
   80789    80844    80856    80805    80703    80572    80461    80389 
   80356    80374    80418    80464    80516    80534    80509    80480 
   80484    80546    80643    80711    80713    80657    80565    80495 
   80503    80574    80646    80708    80792    80869    80900    80916 
   80912    80859    80798    80752    80724    80742    80774    80800 
   80854    80923    80977    80995    80929    80797    80667    80557 
   80470    80414    80365    80330    80307    80269    80245    80246 
   80217    80161    80146    80188    80253    80345    80478    80623 
   80721    80761    80802    80878    80912    80894    80905    80962 
   81021    81062    81054    80991    80892    80750    80589    80477 
   80434    80428    80457    80493    80504    80491    80474    80469 
   80480    80481    80461    80461    80507    80541    80553    80588 
   80620    80611    80573    80523    80487    80487    80485    80480 
   80507    80532    80523    80520    80557    80644    80779    80914 
   81008    81058    81081    81075    81043    81009    80993    80985 
   80956    80882    80777    80686    80580    80418    80277    80238 
   80271    80327    80383    80420    80428    80404    80352    80262 
   80142    80055    80060    80153    80291    80439    80600    80775 
   80927    81031    81110    81167    81178    81140    81072    81016 
   80974    80919    80860    80806    80740    80678    80617    80553 
   80515    80496    80477    80503    80582    80669    80750    80815 
   80851    80847    80789    80685    80577    80524    80518    80538 
   80590    80647    80685    80711    80712    80715    80747    80778 
   80773    80757    80750    80711    80624    80536    80477    80424 
   80356    80322    80379    80477    80570    80678    80766    80762 
   80692    80622    80559    80507    80481    80493    80550    80615 
   80636    80626    80640    80684    80727    80750    80725    80670 
   80635    80630    80630    80626    80622    80615    80609    80613 
   80584    80491    80373    80296    80291    80333    80395    80478 
   80568    80654    80743    80808    80827    80801    80758    80742 
   80759    80767    80759    80743    80721    80692    80628    80550 
   80508    80481    80466    80491    80518    80509    80509    80547 
   80588    80615    80620    80596    80555    80491    80410    80366 
   80374    80414    80484    80588    80723    80879    81028    81109 
   81078    80952    80804    80697    80644    80607    80559    80495 
   80428    80376    80343    80341    80365    80410    80499    80599 
   80661    80704    80736    80750    80761    80757    80732    80715 
   80707    80715    80731    80707    80643    80609    80612    80581 
   80511    80446    80412    80433    80519    80634    80704    80697 
   80631    80547    80484    80462    80501    80620    80778    80924 
   81052    81139    81139    81081    81004    80893    80767    80692 
   80649    80586    80523    80461    80387    80311    80252    80238 
   80265    80304    80337    80356    80376    80391    80400    80415 
   80389    80311    80271    80289    80330    80391    80451    80491 
   80512    80504    80491    80520    80581    80647    80717    80789 
   80851    80881    80875    80859    80833    80806    80808    80828 
   80829    80839    80865    80850    80793    80735    80680    80642 
   80632    80636    80626    80576    80514    80468    80399    80316 
   80299    80347    80396    80419    80449    80518    80599    80653 
   80696    80734    80755    80793    80844    80851    80800    80740 
   80704    80705    80751    80808    80832    80839    80860    80897 
   80928    80929    80889    80821    80761    80748    80761    80743 
   80708    80670    80632    80627    80650    80667    80676    80677 
   80661    80627    80586    80541    80488    80434    80377    80337 
   80323    80302    80287    80335    80451    80601    80770    80929 
   81024    81056    81062    81041    80997    80920    80823    80748 
   80693    80619    80530    80443    80370    80342    80366    80424 
   80497    80573    80644    80721    80770    80755    80701    80639 
   80584    80543    80505    80473    80470    80492    80515    80536 
   80543    80535    80555    80615    80684    80736    80778    80825 
   80874    80908    80929    80931    80901    80847    80786    80743 
   80723    80700    80657    80620    80595    80566    80528    80476 
   80424    80389    80353    80318    80304    80295    80277    80258 
   80268    80306    80323    80335    80381    80441    80511    80609 
   80717    80829    80954    81083    81197    81248    81209    81114 
   80995    80882    80811    80763    80720    80701    80694    80671 
   80663    80682    80704    80719    80715    80665    80590    80511 
   80418    80320    80239    80175    80148    80185    80261    80335 
   80383    80391    80395    80396    80377    80372    80396    80442 
   80514    80599    80669    80723    80747    80730    80701    80688 
   80682    80698    80719    80690    80649    80665    80739    80825 
   80889    80901    80854    80761    80662    80590    80547    80542 
   80569    80619    80690    80734    80728    80711    80707    80711 
   80705    80688    80680    80685    80724    80813    80900    80941 
   80939    80892    80824    80738    80634    80546    80460    80343 
   80237    80181    80142    80107    80122    80208    80331    80433 
   80499    80568    80642    80711    80781    80836    80875    80893 
   80887    80904    80955    80987    80987    80995    80991    80948 
   80890    80820    80746    80690    80632    80565    80509    80457 
   80426    80443    80477    80491    80487    80481    80496    80532 
   80569    80597    80627    80651    80642    80607    80555    80512 
   80508    80538    80568    80578    80577    80580    80581    80585 
   80581    80559    80534    80511    80488    80474    80489    80531 
   80573    80593    80595    80601    80631    80666    80665    80638 
   80619    80585    80532    80520    80542    80557    80581    80623 
   80659    80677    80676    80662    80676    80723    80769    80812 
   80874    80924    80935    80910    80869    80831    80802    80765 
   80703    80634    80589    80582    80599    80617    80615    80605 
   80616    80639    80657    80661    80657    80673    80720    80759 
   80759    80721    80657    80613    80623    80658    80680    80676 
   80666    80667    80659    80643    80632    80626    80626    80638 
   80651    80640    80605    80555    80503    80472    80455    80419 
   80384    80393    80419    80439    80477    80534    80589    80630 
   80653    80663    80669    80670    80667    80669    80694    80758 
   80855    80962    81017    80987    80913    80817    80693    80566 
   80476    80439    80470    80569    80700    80816    80871    80863 
   80840    80839    80843    80842    80832    80802    80754    80712 
   80673    80622    80554    80474    80393    80326    80273    80235 
   80222    80246    80299    80366    80449    80530    80570    80561 
   80538    80508    80464    80424    80403    80388    80388    80415 
   80449    80476    80504    80531    80551    80586    80634    80671 
   80701    80730    80730    80681    80619    80582    80574    80613 
   80694    80770    80825    80870    80881    80847    80797    80740 
   80686    80666    80655    80623    80590    80578    80577    80592 
   80617    80617    80585    80566    80586    80623    80655    80685 
   80686    80653    80615    80582    80551    80532    80507    80470 
   80460    80470    80491    80527    80569    80609    80630    80617 
   80593    80580    80589    80649    80746    80833    80894    80927 
   80925    80902    80882    80886    80900    80893    80882    80879 
   80860    80829    80802    80761    80715    80700    80694    80680 
   80666    80654    80643    80638    80644    80665    80669    80649 
   80617    80590    80588    80603    80608    80599    80565    80512 
   80482    80484    80504    80541    80570    80554    80508    80493 
   80516    80550    80609    80692    80751    80761    80723    80662 
   80613    80599    80620    80669    80721    80763    80784    80775 
   80744    80696    80636    80600    80588    80562    80532    80534 
   80566    80609    80646    80669    80662    80634    80627    80642 
   80640    80611    80553    80464    80357    80275    80233    80212 
   80203    80206    80221    80244    80252    80241    80230    80223 
   80217    80212    80207    80212    80253    80318    80400    80504 
   80597    80635    80634    80630    80634    80646    80655    80657 
   80653    80638    80607    80581    80585    80609    80654    80734 
   80829    80886    80894    80883    80870    80867    80889    80936 
   80995    81044    81075    81094    81082    81025    80947    80870 
   80800    80738    80693    80659    80622    80585    80553    80509 
   80470    80447    80419    80387    80358    80331    80320    80326 
   80334    80364    80423    80501    80596    80688    80747    80763 
   80763    80765    80744    80696    80646    80595    80546    80530 
   80549    80557    80539    80527    80538    80558    80574    80589 
   80604    80608    80607    80619    80649    80686    80705    80708 
   80730    80766    80812    80881    80941    80960    80951    80935 
   80906    80865    80813    80754    80686    80615    80558    80519 
   80487    80472    80489    80524    80572    80628    80661    80653 
   80619    80586    80569    80555    80541    80554    80600    80651 
   80696    80734    80750    80728    80674    80619    80582    80557 
   80539    80543    80574    80617    80669    80735    80797    80854 
   80935    81009    81025    81002    80960    80914    80885    80865 
   80835    80802    80779    80757    80712    80655    80609    80561 
   80514    80495    80497    80496    80509    80539    80545    80518 
   80481    80454    80439    80431    80439    80472    80519    80585 
   80657    80712    80758    80792    80804    80793    80759    80712 
   80681    80677    80678    80674    80684    80689    80659    80612 
   80566    80523    80489    80474    80477    80485    80501    80526 
   80541    80546    80570    80611    80650    80665    80651    80639 
   80627    80590    80554    80534    80522    80514    80503    80499 
