Origin Time       2025/06/03 22:18:00
Lat.              41.7
Long.             143.6
Depth. (km)       30
Mag.              5.2
Station Code      KSRH07
Station Lat.      43.1359
Station Long.     144.3274
Station Height(m) -184
Record Time       2025/06/03 22:19:14
Sampling Freq(Hz) 100Hz
Duration Time(s)  120
Dir.              1
Scale Factor      2942(gal)/8224139
Max. Acc. (gal)   0.423
Last Correction   2025/06/03 22:19:14
Memo.             
[...]
   98370    98374    98406    98417    98361    98304    98298    98356 
   98415    98374    98315    98331    98339    98302    98293    98316 
   98331    98323    98323    98366    98377    98297    98201    98130 
   98061    98024    98037    98073    98126    98188    98240    98282 
   98311    98313    98282    98235    98209    98219    98231    98224 
   98200    98180    98193    98230    98275    98321    98359    98410 
   98428    98359    98282    98266    98262    98254    98250    98247 
   98265    98280    98281    98312    98356    98369    98386    98417 
   98408    98374    98355    98335    98293    98251    98224    98217 
   98226    98221    98205    98217    98246    98263    98298    98342 
   98340    98309    98274    98231    98211    98223    98227    98212 
   98230    98293    98351    98355    98311    98288    98323    98361 
   98373    98379    98381    98396    98398    98320    98216    98159 
   98109    98055    98045    98070    98135    98253    98369    98416 
   98423    98431    98424    98389    98367    98373    98365    98329 
   98277    98219    98185    98196    98219    98213    98192    98209 
   98257    98267    98234    98197    98158    98131    98155    98213 
   98265    98313    98348    98331    98271    98223    98219    98280 
   98356    98366    98338    98329    98321    98313    98300    98274 
   98262    98238    98204    98209    98235    98265    98280    98220 
   98143    98119    98115    98151    98217    98227    98217    98261 
   98315    98359    98415    98460    98448    98381    98327    98335 
   98358    98331    98263    98216    98242    98309    98362    98404 
   98427    98396    98338    98288    98240    98203    98184    98157 
   98116    98113    98181    98269    98317    98347    98394    98421 
   98415    98413    98405    98363    98352    98386    98375    98328 
   98313    98311    98312    98320    98288    98248    98258    98274 
   98289    98320    98308    98259    98243    98255    98277    98312 
   98312    98265    98217    98181    98157    98145    98132    98131 
   98126    98082    98057    98112    98204    98250    98232    98182 
   98163    98208    98274    98339    98436    98531    98537    98477 
   98401    98308    98239    98219    98207    98188    98153    98109 
   98134    98221    98265    98273    98311    98311    98240    98189 
   98182    98189    98193    98194    98238    98325    98382    98365 
   98288    98217    98219    98257    98282    98302    98311    98325 
   98346    98320    98270    98254    98239    98204    98196    98230 
   98282    98352    98424    98474    98498    98497    98471    98431 
   98373    98307    98263    98259    98267    98242    98215    98243 
   98278    98271    98254    98232    98215    98238    98262    98244 
   98243    98278    98313    98351    98396    98396    98334    98261 
   98232    98236    98227    98215    98232    98259    98281    98296 
   98275    98221    98181    98142    98092    98066    98059    98081 
   98173    98282    98325    98309    98280    98248    98231    98230 
   98219    98203    98221    98267    98300    98332    98359    98343 
   98315    98336    98370    98371    98354    98307    98226    98181 
   98220    98288    98327    98348    98358    98350    98339    98348 
   98363    98347    98323    98348    98362    98308    98277    98300 
   98284    98213    98136    98084    98080    98115    98166    98240 
   98300    98321    98356    98416    98446    98412    98340    98293 
   98277    98254    98257    98292    98271    98216    98200    98205 
   98224    98277    98294    98280    98309    98348    98369    98392 
   98383    98348    98316    98240    98163    98145    98108    98076 
   98122    98159    98155    98209    98315    98374    98397    98429 
   98436    98382    98323    98297    98300    98350    98402    98394 
   98365    98355    98370    98382    98339    98269    98220    98172 
   98155    98170    98135    98103    98131    98135    98122    98142 
   98145    98153    98230    98270    98239    98271    98347    98358 
   98370    98378    98311    98282    98332    98321    98266    98250 
   98250    98273    98325    98371    98389    98325    98207    98166 
   98227    98294    98311    98266    98209    98216    98278    98335 
   98347    98308    98269    98280    98294    98286    98344    98470 
   98514    98437    98338    98267    98234    98246    98261    98255 
   98254    98231    98181    98157    98167    98220    98298    98293 
   98212    98209    98267    98262    98228    98221    98258    98373 
   98469    98431    98334    98226    98086    98014    98038    98073 
   98091    98124    98213    98365    98502    98541    98493    98401 
   98289    98193    98143    98138    98157    98174    98190    98226 
   98259    98259    98265    98298    98278    98193    98157    98213 
   98300    98335    98300    98273    98307    98344    98358    98351 
   98324    98334    98383    98383    98358    98350    98297    98212 
   98167    98142    98116    98119    98163    98240    98342    98432 
   98474    98504    98552    98574    98548    98510    98471    98425 
   98331    98201    98128    98130    98162    98234    98319    98331 
   98271    98224    98172    98104    98136    98248    98305    98313 
   98311    98281    98263    98263    98227    98180    98147    98119 
   98119    98154    98188    98204    98221    98263    98311    98309 
   98284    98280    98288    98286    98270    98247    98247    98254 
   98255    98286    98323    98325    98316    98289    98234    98172 
   98126    98131    98189    98238    98254    98273    98309    98323 
   98286    98238    98231    98227    98177    98118    98130    98232 
   98327    98319    98286    98317    98355    98355    98346    98305 
   98251    98278    98370    98448    98514    98554    98523    98435 
   98327    98265    98317    98393    98348    98247    98208    98232 
   98280    98309    98290    98284    98305    98293    98254    98231 
   98236    98273    98301    98293    98305    98373    98466    98525 
   98498    98420    98347    98288    98267    98290    98293    98251 
   98174    98070    98007    98041    98086    98042    97943    97900 
   97933    97993    98028    98028    98023    98037    98070    98131 
   98200    98226    98215    98220    98232    98221    98203    98204 
   98223    98273    98356    98417    98424    98424    98437    98458 
   98501    98518    98444    98331    98284    98319    98361    98336 
   98288    98304    98367    98416    98423    98362    98298    98352 
   98500    98594    98556    98460    98389    98332    98286    98277 
   98275    98302    98379    98455    98521    98578    98583    98559 
   98535    98490    98464    98466    98421    98335    98294    98311 
   98325    98296    98213    98138    98143    98185    98182    98153 
   98111    98076    98130    98255    98342    98351    98258    98127 
   98107    98134    98099    98103    98182    98273    98365    98386 
   98325    98336    98431    98432    98292    98109    97973    97915 
   97935    98042    98234    98435    98512    98374    98146    98043 
   98069    98107    98089    97997    97926    97947    97965    97961 
   98028    98139    98232    98297    98327    98346    98315    98159 
   98016    98059    98217    98338    98348    98262    98174    98154 
   98192    98215    98165    98139    98253    98412    98518    98570 
   98518    98402    98301    98153    98020    98070    98186    98232 
   98301    98401    98466    98508    98533    98620    98834    99063 
   99122    98918    98535    98223    98103    98124    98242    98367 
   98424    98442    98397    98238    98104    98178    98410    98652 
   98822    98795    98547    98361    98440    98598    98599    98404 
   98096    97819    97730    97897    98201    98402    98402    98288 
   98185    98170    98184    98150    98157    98281    98421    98470 
   98420    98275    98086    97937    97875    97884    97885    97875 
   97938    98010    97980    97938    97964    98008    98112    98290 
   98405    98417    98397    98336    98307    98375    98425    98365 
   98258    98161    98105    98084    98058    98057    98095    98135 
   98220    98340    98371    98284    98170    98095    98068    98074 
   98116    98190    98244    98238    98199    98157    98130    98177 
   98346    98568    98737    98855    98887    98744    98498    98309 
   98176    98018    97825    97668    97676    97850    98022    98062 
   98001    97954    98003    98101    98150    98142    98140    98269 
   98540    98720    98682    98556    98419    98371    98506    98668 
   98753    98806    98749    98568    98373    98185    98041    98034 
   98193    98442    98567    98473    98339    98298    98358    98517 
   98686    98810    98926    98949    98807    98582    98332    98099 
   97941    97907    97989    98084    98120    98155    98242    98377 
   98516    98555    98489    98396    98266    98123    98053    98019 
   98034    98150    98180    98004    97831    97771    97780    97918 
   98161    98339    98375    98304    98186    98109    98070    97974 
   97800    97646    97610    97742    97981    98181    98323    98521 
   98745    98852    98799    98604    98343    98146    98039    97991 
   98024    98130    98247    98307    98273    98201    98132    98053 
   98038    98116    98155    98115    98103    98154    98265    98402 
   98454    98397    98359    98420    98512    98574    98674    98829 
   98913    98859    98702    98504    98377    98332    98269    98199 
   98166    98134    98176    98323    98383    98263    98074    97915 
   97870    97960    98113    98320    98529    98614    98570    98448 
   98301    98236    98269    98328    98419    98536    98622    98626 
   98563    98535    98559    98510    98338    98113    97962    97964 
   98000    97930    97857    97934    98169    98420    98454    98271 
   98150    98162    98176    98167    98097    97962    97960    98091 
   98159    98197    98258    98223    98111    98039    98061    98243 
   98528    98676    98618    98531    98518    98510    98375    98136 
   97970    97924    97911    97949    98059    98182    98292    98335 
   98231    98051    97974    98054    98196    98278    98297    98377 
   98556    98732    98815    98756    98597    98456    98325    98208 
   98219    98280    98267    98321    98481    98595    98644    98625 
   98455    98199    98038    98070    98259    98440    98477    98396 
   98275    98189    98232    98401    98512    98466    98374    98308 
   98221    98151    98145    98134    98062    97984    98004    98154 
   98301    98315    98248    98186    98124    98055    98030    98095 
   98221    98290    98217    98065    97964    97981    98099    98167 
   98065    97927    97923    98001    98145    98379    98585    98709 
   98788    98778    98698    98617    98497    98386    98408    98516 
   98617    98668    98583    98382    98261    98288    98383    98496 
   98536    98454    98359    98293    98192    98115    98096    98031 
   97926    97887    97942    98054    98136    98157    98200    98308 
   98423    98481    98456    98450    98556    98595    98378    98120 
   98077    98135    98132    98085    98031    98020    98131    98267 
   98293    98270    98285    98302    98302    98253    98134    98059 
   98100    98215    98375    98523    98594    98621    98624    98587 
   98547    98502    98423    98390    98483    98637    98763    98802 
   98685    98458    98236    98034    97860    97785    97800    97892 
   98053    98131    98018    97864    97802    97781    97800    97880 
   97968    98077    98250    98443    98628    98810    98907    98869 
   98791    98705    98533    98315    98162    98074    98049    98128 
   98254    98304    98228    98105    98049    98099    98226    98378 
   98500    98564    98500    98239    97956    97827    97735    97618 
   97676    97923    98162    98400    98691    98899    98969    99000 
   99002    98905    98658    98238    97761    97413    97247    97259 
   97457    97735    97961    98138    98297    98444    98550    98566 
   98535    98547    98567    98520    98490    98618    98859    99017 
   98961    98668    98262    98003    97999    98072    98034    97933 
   97931    98003    98007    97977    97981    97950    97920    97992 
   98104    98251    98478    98625    98586    98481    98397    98348 
   98334    98354    98550    98926    99149    99060    98841    98631 
   98460    98327    98201    98104    98028    97941    97870    97777 
   97588    97401    97325    97386    97594    97835    97919    97895 
   97953    98161    98509    98876    99079    99133    99095    98890 
   98598    98405    98339    98397    98551    98618    98528    98373 
   98146    97850    97586    97362    97220    97247    97363    97524 
   97818    98173    98397    98386    98153    97931    97981    98220 
   98466    98695    98890    99068    99273    99400    99353    99144 
   98799    98450    98239    98173    98248    98397    98429    98315 
   98173    97988    97765    97660    97713    97839    98000    98134 
   98192    98274    98402    98437    98348    98228    98174    98286 
   98539    98801    98986    98994    98784    98567    98518    98525 
   98435    98267    98019    97637    97259    97097    97179    97401 
   97633    97775    97829    97895    98069    98334    98597    98753 
   98739    98628    98575    98547    98435    98329    98340    98450 
   98620    98771    98830    98826    98802    98783    98753    98641 
   98423    98155    97903    97734    97654    97640    97742    97946 
   98139    98261    98282    98296    98433    98586    98582    98442 
   98253    98139    98157    98136    97966    97744    97626    97714 
   97957    98174    98285    98385    98558    98729    98801    98766 
   98637    98459    98319    98226    98143    98093    98062    98034 
   98082    98231    98301    98188    98058    98062    98150    98292 
   98470    98601    98682    98751    98744    98595    98367    98194 
   98145    98138    98105    98120    98261    98462    98566    98504 
   98361    98228    98089    98020    98138    98313    98425    98572 
   98707    98706    98660    98624    98531    98367    98118    97881 
   97837    97927    98015    98068    98016    97879    97864    98091 
   98428    98653    98709    98734    98830    98994    99177    99207 
   98929    98505    98167    97935    97784    97718    97665    97621 
   97652    97738    97825    97916    97983    97946    97810    97646 
   97551    97673    98031    98402    98568    98516    98378    98324 
   98367    98348    98200    97999    97777    97600    97630    97876 
   98153    98329    98390    98362    98355    98442    98563    98707 
   98903    99048    99026    98892    98747    98566    98286    97972 
   97731    97596    97600    97742    97895    97954    97946    97939 
   98005    98173    98366    98535    98712    98894    99017    99019 
   98902    98748    98589    98375    98147    97999    97969    98085 
   98311    98500    98543    98448    98292    98157    98132    98232 
   98323    98282    98207    98285    98540    98793    98901    98894 
   98834    98751    98676    98564    98379    98219    98130    98050 
   97977    97938    97924    97883    97760    97669    97796    98097 
   98427    98720    98844    98730    98510    98239    97919    97726 
   97788    97992    98146    98155    98113    98162    98305    98498 
   98680    98734    98644    98469    98235    98057    98023    97995 
   97875    97756    97715    97769    97834    97752    97559    97475 
   97663    98088    98483    98647    98707    98780    98778    98725 
   98659    98533    98469    98528    98527    98448    98381    98235 
   98022    97915    97983    98157    98286    98278    98224    98200 
   98226    98362    98566    98701    98763    98776    98712    98617 
   98551    98501    98463    98423    98344    98261    98246    98288 
   98309    98273    98178    98014    97833    97753    97818    97966 
   98139    98281    98320    98254    98140    98020    97916    97891 
   97957    98058    98166    98243    98254    98239    98232    98242 
   98300    98402    98554    98724    98801    98739    98589    98404 
   98224    98031    97825    97686    97590    97467    97375    97394 
   97524    97687    97776    97862    98112    98471    98830    99168 
   99370    99365    99268    99133    98948    98806    98743    98674 
   98609    98589    98520    98370    98261    98267    98383    98568 
   98682    98645    98605    98674    98763    98757    98682    98644 
   98663    98687    98713    98716    98624    98447    98282    98180 
   98103    97972    97771    97569    97467    97546    97757    97927 
   98007    98104    98243    98339    98350    98294    98149    97947 
   97831    97835    97875    97937    98023    98058    98089    98262 
   98479    98524    98415    98254    98068    97942    97916    97930 
   97988    98051    98030    97945    97856    97810    97852    97947 
   98053    98159    98292    98493    98718    98824    98764    98622 
   98454    98288    98209    98305    98482    98517    98392    98298 
   98312    98308    98207    98099    98116    98178    98153    98123 
   98159    98217    98286    98297    98189    98073    98042    98105 
   98259    98446    98609    98757    98863    98875    98813    98771 
   98787    98752    98628    98541    98525    98505    98501    98568 
   98686    98756    98655    98413    98244    98239    98247    98139 
   97988    97931    98010    98132    98176    98134    98076    98032 
   98034    98042    98008    98051    98234    98401    98444    98396 
   98307    98219    98153    98113    98101    98081    98018    97938 
   97899    97892    97868    97839    97883    98020    98197    98398 
   98604    98724    98757    98838    98977    99042    98972    98786 
   98563    98439    98427    98433    98440    98436    98365    98230 
   98032    97776    97572    97534    97617    97700    97704    97632 
   97551    97551    97672    97864    98041    98147    98199    98300 
   98500    98645    98602    98440    98315    98329    98442    98500 
   98459    98388    98298    98208    98203    98313    98452    98533 
   98545    98520    98460    98373    98317    98344    98427    98509 
   98520    98406    98286    98311    98406    98443    98423    98382 
   98355    98348    98325    98262    98169    98099    98113    98155 
   98186    98280    98375    98374    98361    98401    98423    98435 
   98500    98632    98811    98932    98906    98806    98686    98505 
   98258    98001    97798    97698    97672    97673    97700    97762 
   97843    97916    98001    98154    98325    98419    98479    98602 
   98725    98744    98648    98485    98344    98335    98419    98440 
   98369    98305    98290    98248    98136    98028    98046    98193 
   98324    98319    98188    97974    97753    97667    97767    97924 
   98014    98001    97914    97865    97942    98037    98001    97893 
