Origin Time       2025/06/03 22:18:00
Lat.              41.7
Long.             143.6
Depth. (km)       30
Mag.              5.2
Station Code      KSRH06
Station Lat.      43.2200
Station Long.     144.4285
Station Height(m) -207
Record Time       2025/06/03 22:19:13
Sampling Freq(Hz) 100Hz
Duration Time(s)  120
Dir.              1
Scale Factor      2942(gal)/8224139
Max. Acc. (gal)   0.240
Last Correction   2025/06/03 22:19:14
Memo.             
[...]
  135803   135804   135784   135776   135810   135854   135859   135851 
  135878   135916   135919   135907   135897   135893   135896   135897 
  135874   135832   135808   135815   135828   135826   135820   135831 
  135851   135859   135847   135837   135815   135766   135723   135722 
  135747   135770   135776   135788   135810   135807   135783   135768 
  135754   135739   135734   135743   135784   135831   135846   135837 
  135812   135777   135756   135760   135769   135784   135808   135824 
  135831   135832   135830   135850   135886   135893   135865   135835 
  135820   135803   135780   135784   135810   135803   135777   135778 
  135778   135761   135753   135756   135762   135780   135795   135814 
  135847   135881   135897   135893   135901   135930   135927   135888 
  135876   135903   135934   135934   135899   135853   135807   135762 
  135745   135774   135841   135897   135908   135878   135834   135785 
  135750   135746   135753   135737   135711   135715   135749   135777 
  135789   135792   135768   135733   135742   135785   135807   135814 
  135834   135841   135820   135791   135760   135742   135751   135764 
  135773   135810   135873   135927   135955   135961   135949   135930 
  135904   135866   135843   135845   135849   135845   135824   135807 
  135816   135823   135815   135815   135827   135830   135810   135791 
  135805   135819   135796   135768   135758   135754   135754   135762 
  135766   135772   135799   135827   135814   135781   135778   135789 
  135788   135799   135815   135812   135799   135792   135788   135788 
  135810   135855   135885   135880   135873   135876   135865   135835 
  135803   135787   135784   135784   135796   135811   135805   135787 
  135774   135756   135731   135708   135680   135676   135715   135760 
  135774   135777   135787   135780   135762   135766   135783   135793 
  135796   135788   135780   135799   135843   135881   135888   135882 
  135888   135909   135942   135957   135945   135920   135884   135859 
  135897   135963   136001   136004   135978   135954   135958   135967 
  135943   135899   135874   135874   135888   135926   135953   135943 
  135927   135901   135858   135837   135839   135839   135849   135884 
  135909   135882   135805   135719   135653   135629   135638   135623 
  135575   135542   135552   135584   135626   135657   135666   135687 
  135757   135855   135919   135913   135866   135822   135812   135847 
  135905   135951   135961   135931   135892   135882   135892   135886 
  135845   135762   135675   135637   135660   135711   135760   135781 
  135727   135607   135525   135515   135549   135606   135652   135668 
  135675   135681   135695   135724   135747   135734   135693   135673 
  135703   135762   135832   135884   135897   135926   135972   135961 
  135896   135835   135797   135781   135776   135801   135884   135978 
  136034   136066   136073   136013   135908   135853   135881   135931 
  135953   135957   135973   136017   136066   136092   136104   136102 
  136055   135972   135908   135881   135865   135842   135814   135795 
  135776   135733   135677   135638   135618   135616   135645   135714 
  135807   135859   135823   135719   135631   135646   135768   135911 
  135977   135984   136021   136065   136051   136017   135982   135930 
  135864   135804   135774   135754   135719   135695   135710   135750 
  135784   135807   135837   135845   135784   135658   135523   135450 
  135444   135468   135519   135587   135664   135731   135750   135727 
  135704   135697   135722   135766   135815   135882   135951   135958 
  135892   135803   135727   135673   135623   135553   135508   135542 
  135608   135670   135730   135764   135765   135753   135746   135765 
  135808   135873   135957   136054   136152   136231   136242   136169 
  136058   135949   135815   135666   135598   135621   135658   135703 
  135776   135859   135920   135897   135801   135714   135668   135670 
  135738   135839   135926   135989   136044   136061   135986   135891 
  135862   135884   135907   135928   135976   136059   136111   136044 
  135903   135795   135734   135666   135610   135627   135720   135823 
  135881   135913   135932   135905   135850   135824   135816   135815 
  135846   135858   135793   135699   135606   135510   135484   135569 
  135684   135746   135758   135730   135653   135558   135525   135581 
  135668   135712   135700   135648   135564   135463   135410   135480 
  135660   135864   136035   136139   136173   136173   136169   136178 
  136193   136181   136144   136115   136104   136105   136081   135984 
  135816   135664   135612   135649   135712   135753   135745   135672 
  135572   135545   135641   135774   135835   135818   135769   135729 
  135738   135816   135936   136000   135938   135816   135733   135712 
  135747   135773   135719   135611   135518   135522   135683   135897 
  136007   136012   135969   135888   135828   135869   135967   136024 
  136032   136026   135988   135930   135885   135819   135688   135576 
  135588   135703   135843   135936   135919   135800   135680   135666 
  135761   135858   135874   135849   135845   135839   135787   135707 
  135637   135595   135596   135629   135688   135733   135695   135594 
  135510   135495   135577   135727   135877   135982   136026   136019 
  136031   136094   136125   136061   135996   136028   136077   136044 
  135984   135958   135953   135942   135895   135808   135778   135839 
  135911   135943   135920   135827   135751   135772   135841   135878 
  135855   135828   135884   135973   135961   135841   135695   135576 
  135519   135561   135679   135785   135843   135900   135980   136003 
  135959   135946   135974   135984   135965   135936   135911   135878 
  135811   135685   135529   135406   135346   135314   135280   135317 
  135463   135637   135793   135900   135888   135830   135849   135931 
  136030   136120   136169   136144   136061   135974   135909   135854 
  135819   135796   135743   135670   135653   135745   135866   135923 
  135945   135953   135924   135874   135862   135868   135812   135750 
  135765   135789   135776   135789   135818   135801   135766   135768 
  135787   135834   135958   136096   136135   136086   136011   135924 
  135807   135691   135639   135664   135681   135634   135583   135584 
  135589   135581   135623   135714   135795   135819   135773   135723 
  135747   135797   135791   135760   135745   135769   135876   136038 
  136142   136134   136048   135955   135901   135868   135839   135823 
  135787   135718   135673   135692   135756   135795   135756   135677 
  135633   135652   135716   135789   135839   135864   135872   135880 
  135892   135901   135912   135945   135977   135992   136016   136038 
  136013   136005   136069   136090   135963   135797   135714   135679 
  135645   135630   135650   135697   135741   135724   135660   135634 
  135670   135730   135781   135793   135731   135637   135577   135568 
  135588   135598   135602   135626   135661   135719   135832   135946 
  136017   136121   136269   136335   136277   136204   136185   136146 
  136013   135884   135865   135868   135788   135688   135629   135612 
  135646   135692   135730   135780   135804   135784   135766   135739 
  135707   135714   135734   135708   135635   135548   135500   135541 
  135648   135761   135841   135855   135853   135908   135978   135985 
  135946   135876   135773   135685   135638   135598   135579   135621 
  135689   135750   135837   135940   136013   136059   136098   136109 
  136082   136059   136042   136004   135989   136051   136131   136146 
  136116   136078   135996   135853   135719   135672   135685   135687 
  135670   135670   135706   135770   135831   135842   135772   135648 
  135575   135581   135589   135591   135604   135599   135595   135608 
  135608   135607   135631   135673   135710   135733   135751   135765 
  135774   135801   135857   135942   136047   136112   136082   135992 
  135901   135832   135801   135828   135876   135870   135820   135815 
  135858   135864   135831   135820   135805   135747   135714   135742 
  135795   135838   135870   135857   135783   135692   135631   135630 
  135697   135766   135757   135680   135576   135483   135445   135472 
  135585   135776   135945   136044   136132   136200   136183   136105 
  136024   135961   135927   135957   136050   136116   136096   136015 
  135899   135778   135704   135665   135625   135622   135676   135738 
  135796   135851   135857   135816   135807   135865   135973   136082 
  136143   136125   136011   135841   135723   135700   135719   135743 
  135781   135826   135851   135850   135810   135730   135638   135596 
  135680   135869   136040   136147   136205   136205   136171   136128 
  136055   135972   135926   135892   135828   135784   135804   135846 
  135835   135777   135691   135583   135521   135553   135602   135608 
  135637   135718   135789   135828   135859   135876   135850   135747 
  135591   135480   135468   135510   135552   135583   135619   135672 
  135724   135772   135799   135787   135799   135897   135999   136031 
  136038   136011   135926   135831   135773   135762   135756   135691 
  135598   135549   135568   135654   135773   135853   135864   135865 
  135915   135963   135935   135873   135841   135822   135804   135805 
  135803   135776   135757   135811   135928   136015   136039   136044 
  136050   136035   135978   135891   135795   135687   135580   135531 
  135550   135588   135621   135654   135660   135634   135627   135689 
  135819   135922   135947   135970   135996   135965   135923   135919 
  135939   135978   136017   136040   136081   136131   136120   136051 
  136019   136021   136009   135978   135884   135699   135550   135527 
  135552   135535   135488   135438   135394   135372   135425   135575 
  135757   135881   135931   135930   135915   135913   135922   135935 
  135935   135907   135893   135912   135911   135835   135693   135557 
  135502   135548   135650   135741   135787   135824   135892   135943 
  135911   135857   135847   135827   135754   135692   135706   135770 
  135799   135765   135710   135680   135719   135807   135900   135976 
  136044   136080   136047   136003   136003   135992   135936   135866 
  135795   135741   135714   135692   135675   135668   135664   135639 
  135577   135546   135621   135741   135834   135915   135950   135893 
  135804   135743   135711   135729   135795   135876   135969   136066 
  136131   136124   136024   135877   135778   135738   135720   135745 
  135800   135823   135808   135799   135812   135812   135762   135692 
  135639   135616   135638   135716   135796   135851   135940   136069 
  136139   136142   136194   136314   136375   136287   136100   135897 
  135722   135557   135398   135301   135342   135500   135654   135724 
  135764   135820   135834   135804   135819   135893   135972   136015 
  135986   135861   135685   135565   135540   135554   135608   135687 
  135696   135643   135626   135637   135621   135608   135642   135714 
  135787   135824   135854   135889   135880   135857   135908   135977 
  135954   135878   135853   135873   135874   135842   135796   135731 
  135643   135579   135587   135618   135607   135575   135577   135656 
  135783   135884   135957   136066   136166   136162   136073   135980 
  135930   135930   135913   135799   135638   135569   135604   135635 
  135615   135573   135522   135479   135483   135553   135664   135803 
  135973   136102   136115   136102   136152   136177   136085   135930 
  135783   135688   135685   135716   135700   135695   135754   135778 
  135735   135715   135765   135869   135996   136102   136139   136121 
  136129   136171   136175   136098   135980   135872   135812   135818 
  135839   135814   135761   135734   135751   135789   135791   135762 
  135734   135685   135634   135625   135637   135649   135673   135704 
  135739   135791   135827   135830   135834   135842   135838   135850 
  135895   135932   135931   135901   135870   135823   135765   135765 
  135869   136030   136163   136217   136189   136119   136046   136007 
  136015   136021   135969   135853   135720   135623   135552   135481 
  135436   135440   135471   135496   135534   135629   135751   135826 
  135831   135810   135787   135772   135784   135807   135812   135796 
  135783   135768   135718   135649   135633   135700   135795   135849 
  135888   135953   136004   136008   135986   135943   135880   135831 
  135803   135768   135743   135743   135729   135684   135684   135769 
  135869   135926   135945   135932   135922   135926   135901   135837 
  135749   135661   135616   135616   135653   135733   135824   135876 
  135874   135874   135935   136040   136112   136125   136097   136042 
  135973   135915   135877   135837   135774   135746   135783   135826 
  135834   135824   135824   135864   135958   136070   136116   136084 
  136051   136043   136015   135973   135974   136021   136044   136000 
  135924   135837   135738   135679   135668   135650   135623   135672 
  135819   135961   136028   136017   135926   135826   135776   135756 
  135776   135812   135762   135607   135437   135324   135286   135298 
  135340   135426   135568   135757   135953   136081   136085   136007 
  135958   135996   136063   136074   135997   135880   135789   135714 
  135572   135386   135253   135190   135151   135143   135229   135414 
  135602   135715   135780   135845   135920   136009   136108   136193 
  136236   136242   136225   136190   136140   136065   135947   135830 
  135773   135803   135930   136090   136132   135988   135814   135756 
  135772   135800   135838   135873   135919   135993   136069   136098 
  136062   135988   135882   135769   135746   135845   135953   136009 
  136046   136051   136040   136075   136102   136035   135897   135756 
  135676   135681   135738   135801   135834   135835   135854   135942 
  136069   136138   136109   136034   135923   135777   135650   135580 
  135567   135587   135594   135565   135544   135571   135630   135695 
  135750   135764   135733   135688   135654   135625   135595   135568 
  135545   135533   135550   135588   135642   135710   135760   135753 
  135708   135700   135754   135811   135846   135895   135946   135954 
  135935   135916   135868   135804   135808   135904   136047   136155 
  136148   136043   135940   135886   135831   135756   135727   135756 
  135766   135761   135827   135959   136042   136030   135967   135859 
  135724   135634   135581   135517   135450   135410   135414   135473 
  135556   135608   135629   135662   135758   135904   136043   136147 
  136201   136205   136163   136096   136023   135951   135896   135874 
  135877   135901   135936   135945   135885   135792   135727   135685 
  135625   135602   135666   135747   135758   135711   135676   135693 
  135747   135799   135839   135858   135828   135770   135746   135772 
  135826   135884   135886   135803   135695   135631   135626   135634 
  135615   135587   135587   135584   135564   135558   135576   135577 
  135546   135531   135550   135545   135529   135569   135662   135793 
  135961   136121   136231   136266   136239   136169   136073   135996 
  135963   135926   135857   135807   135807   135789   135680   135550 
  135511   135527   135526   135537   135607   135735   135897   136023 
  136047   135990   135928   135911   135926   135932   135930   135940 
  135949   135955   135977   135988   135949   135874   135838   135878 
  135935   135939   135916   135899   135889   135901   135916   135868 
  135761   135676   135641   135603   135544   135504   135521   135567 
  135618   135679   135730   135746   135746   135770   135805   135827 
  135834   135804   135738   135692   135665   135616   135580   135594 
  135637   135695   135769   135816   135819   135839   135882   135872 
  135791   135715   135684   135699   135739   135762   135724   135637 
  135571   135587   135665   135769   135884   135974   136008   136015 
  136021   136021   136035   136061   136048   135990   135943   135951 
  135994   136003   135969   135940   135930   135924   135932   135946 
  135950   135946   135962   136024   136092   136108   136098   136100 
  136081   136020   135966   135969   135996   136000   135992   135996 
  135985   135932   135859   135795   135743   135702   135688   135707 
  135716   135700   135687   135681   135665   135625   135569   135540 
  135545   135568   135595   135610   135595   135594   135646   135731 
  135792   135796   135772   135778   135796   135781   135751   135707 
  135643   135606   135633   135695   135746   135781   135818   135861 
  135909   135957   135978   135965   135928   135855   135751   135676 
  135654   135672   135723   135769   135772   135760   135743   135715 
  135718   135774   135864   135943   136004   136116   136281   136374 
  136345   136282   136243   136196   136113   136028   135959   135892 
  135846   135846   135850   135823   135784   135764   135758   135776 
  135845   135942   136019   136048   136005   135905   135803   135711 
  135606   135514   135517   135599   135648   135611   135534   135481 
  135487   135526   135573   135612   135623   135621   135638   135685 
  135742   135784   135808   135822   135815   135778   135754   135774 
  135795   135747   135646   135588   135606   135630   135625   135610 
  135579   135522   135496   135542   135616   135653   135641   135622 
  135602   135592   135660   135770   135801   135768   135789   135880 
  135974   136043   136086   136084   136043   136004   135954   135857 
  135780   135799   135865   135901   135909   135901   135861   135814 
  135820   135865   135904   135977   136097   136192   136243   136270 
  136244   136148   136021   135886   135739   135629   135606   135622 
  135641   135696   135795   135891   135953   135986   135981   135924 
  135857   135830   135828   135824   135815   135787   135726   135677 
  135662   135641   135567   135467   135433   135506   135638   135776 
  135872   135888   135830   135731   135623   135558   135575   135656 
  135770   135876   135918   135889   135842   135819   135820   135823 
  135841   135916   136036   136132   136156   136120   136044   135963 
  135928   135955   135999   136046   136109   136151   136158   136178 
  136239   136294   136297   136264   136219   136150   136054   135957 
  135874   135793   135719   135670   135642   135626   135623   135627 
  135635   135643   135642   135652   135692   135756   135808   135841 
  135876   135916   135934   135945   135965   135966   135924   135873 
  135843   135839   135855   135878   135893   135896   135904   135951 
  136017   136042   136001   135926   135847   135795   135791   135816 
  135846   135891   135935   135918   135835   135769   135742   135710 
  135676   135668   135668   135654   135641   135637   135614   135569 
  135562   135615   135676   135718   135758   135800   135828   135826 
  135812   135830   135895   135961   135986   135988   136001   136024 
  136040   136034   135994   135940   135901   135872   135831   135787 
  135758   135734   135700   135672   135662   135660   135657   135661 
