Origin Time       2025/06/03 22:18:00
Lat.              41.7
Long.             143.6
Depth. (km)       30
Mag.              5.2
Station Code      KSRH08
Station Lat.      43.1603
Station Long.     143.8936
Station Height(m) 174
Record Time       2025/06/03 22:19:02
Sampling Freq(Hz) 100Hz
Duration Time(s)  120
Dir.              5
Scale Factor      7845(gal)/8223790
Max. Acc. (gal)   0.440
Last Correction   2025/06/03 22:19:03
Memo.             
[...]
   -1479    -1439    -1422    -1453    -1479    -1449    -1393    -1352 
   -1340    -1352    -1381    -1399    -1387    -1363    -1362    -1399 
   -1453    -1489    -1502    -1516    -1529    -1528    -1507    -1490 
   -1480    -1456    -1409    -1381    -1399    -1440    -1470    -1501 
   -1518    -1501    -1456    -1410    -1402    -1422    -1424    -1410 
   -1395    -1363    -1335    -1344    -1386    -1426    -1439    -1422 
   -1393    -1354    -1332    -1352    -1397    -1420    -1413    -1418 
   -1459    -1497    -1499    -1490    -1493    -1486    -1453    -1426 
   -1436    -1472    -1485    -1451    -1418    -1435    -1468    -1476 
   -1479    -1493    -1480    -1436    -1421    -1466    -1513    -1520 
   -1516    -1502    -1453    -1399    -1390    -1413    -1435    -1460 
   -1495    -1494    -1453    -1429    -1428    -1406    -1371    -1358 
   -1367    -1383    -1401    -1399    -1370    -1332    -1321    -1339 
   -1367    -1408    -1458    -1486    -1464    -1418    -1398    -1408 
   -1414    -1409    -1409    -1418    -1429    -1449    -1489    -1530 
   -1543    -1530    -1507    -1464    -1424    -1433    -1471    -1470 
   -1439    -1421    -1416    -1404    -1395    -1412    -1429    -1413 
   -1378    -1368    -1381    -1386    -1383    -1387    -1394    -1401 
   -1408    -1412    -1422    -1452    -1493    -1518    -1514    -1489 
   -1468    -1471    -1475    -1463    -1449    -1447    -1459    -1490 
   -1518    -1518    -1493    -1464    -1435    -1412    -1414    -1433 
   -1426    -1406    -1412    -1426    -1409    -1395    -1425    -1451 
   -1420    -1379    -1383    -1397    -1378    -1371    -1421    -1479 
   -1483    -1452    -1452    -1483    -1493    -1480    -1483    -1491 
   -1471    -1443    -1443    -1463    -1467    -1458    -1441    -1408 
   -1375    -1374    -1385    -1389    -1405    -1435    -1444    -1429 
   -1410    -1401    -1402    -1414    -1428    -1435    -1433    -1424 
   -1405    -1382    -1381    -1402    -1422    -1428    -1431    -1422 
   -1398    -1397    -1445    -1497    -1517    -1524    -1536    -1526 
   -1490    -1478    -1499    -1512    -1498    -1468    -1433    -1398 
   -1375    -1367    -1359    -1352    -1371    -1395    -1405    -1422 
   -1447    -1441    -1416    -1404    -1408    -1413    -1409    -1408 
   -1414    -1425    -1425    -1417    -1413    -1425    -1449    -1470 
   -1478    -1483    -1489    -1486    -1482    -1490    -1498    -1483 
   -1462    -1456    -1441    -1397    -1367    -1379    -1386    -1371 
   -1389    -1436    -1436    -1371    -1332    -1366    -1412    -1420 
   -1435    -1482    -1503    -1463    -1424    -1437    -1462    -1448 
   -1445    -1486    -1506    -1478    -1455    -1467    -1468    -1433 
   -1394    -1378    -1362    -1341    -1362    -1420    -1445    -1413 
   -1399    -1448    -1479    -1451    -1426    -1448    -1471    -1470 
   -1480    -1516    -1528    -1507    -1490    -1489    -1479    -1470 
   -1472    -1464    -1439    -1416    -1404    -1409    -1424    -1429 
   -1417    -1397    -1375    -1362    -1374    -1401    -1418    -1410 
   -1390    -1377    -1383    -1412    -1455    -1495    -1507    -1471 
   -1409    -1378    -1390    -1404    -1406    -1431    -1464    -1466 
   -1445    -1455    -1486    -1486    -1458    -1441    -1443    -1439 
   -1432    -1443    -1463    -1452    -1410    -1371    -1354    -1358 
   -1362    -1364    -1371    -1383    -1394    -1402    -1425    -1460 
   -1475    -1464    -1460    -1476    -1499    -1507    -1501    -1494 
   -1472    -1435    -1414    -1421    -1425    -1420    -1426    -1456 
   -1491    -1507    -1499    -1471    -1437    -1414    -1393    -1368 
   -1375    -1414    -1444    -1428    -1393    -1390    -1420    -1435 
   -1431    -1436    -1447    -1443    -1428    -1417    -1421    -1436 
   -1439    -1422    -1431    -1478    -1521    -1522    -1493    -1466 
   -1445    -1406    -1363    -1364    -1398    -1413    -1408    -1402 
   -1390    -1367    -1362    -1399    -1462    -1507    -1526    -1528 
   -1512    -1489    -1479    -1479    -1475    -1470    -1460    -1447 
   -1451    -1489    -1522    -1509    -1479    -1483    -1487    -1448 
   -1398    -1391    -1414    -1420    -1421    -1443    -1459    -1432 
   -1399    -1401    -1408    -1391    -1378    -1382    -1394    -1402 
   -1404    -1410    -1416    -1402    -1375    -1356    -1335    -1318 
   -1333    -1377    -1412    -1433    -1455    -1466    -1453    -1435 
   -1426    -1426    -1425    -1420    -1410    -1395    -1385    -1381 
   -1382    -1390    -1397    -1386    -1367    -1366    -1401    -1436 
   -1440    -1439    -1444    -1433    -1426    -1455    -1494    -1512 
   -1520    -1526    -1507    -1467    -1445    -1468    -1502    -1509 
   -1499    -1502    -1502    -1475    -1439    -1431    -1441    -1435 
   -1431    -1467    -1509    -1503    -1472    -1466    -1466    -1437 
   -1416    -1433    -1463    -1467    -1447    -1409    -1372    -1358 
   -1359    -1372    -1408    -1448    -1462    -1445    -1440    -1451 
   -1453    -1458    -1464    -1458    -1437    -1424    -1428    -1445 
   -1471    -1490    -1486    -1464    -1447    -1429    -1401    -1378 
   -1374    -1370    -1364    -1370    -1386    -1394    -1387    -1386 
   -1405    -1422    -1416    -1402    -1397    -1394    -1416    -1456 
   -1475    -1468    -1470    -1487    -1487    -1453    -1417    -1406 
   -1406    -1405    -1429    -1476    -1497    -1479    -1459    -1439 
   -1405    -1394    -1424    -1451    -1466    -1497    -1522    -1520 
   -1517    -1529    -1526    -1497    -1470    -1459    -1455    -1459 
   -1474    -1491    -1505    -1502    -1475    -1429    -1398    -1386 
   -1370    -1362    -1378    -1398    -1401    -1390    -1378    -1362 
   -1336    -1324    -1333    -1344    -1355    -1379    -1401    -1406 
   -1424    -1459    -1478    -1468    -1456    -1451    -1441    -1432 
   -1437    -1441    -1416    -1377    -1372    -1404    -1418    -1408 
   -1416    -1447    -1458    -1444    -1449    -1464    -1451    -1414 
   -1393    -1401    -1410    -1418    -1452    -1506    -1545    -1543 
   -1505    -1468    -1468    -1497    -1518    -1528    -1537    -1520 
   -1467    -1426    -1417    -1410    -1399    -1402    -1418    -1420 
   -1412    -1432    -1458    -1447    -1421    -1417    -1422    -1433 
   -1468    -1512    -1533    -1536    -1537    -1541    -1534    -1507 
   -1475    -1453    -1447    -1456    -1485    -1521    -1549    -1551 
   -1521    -1482    -1440    -1408    -1409    -1441    -1475    -1507 
   -1549    -1587    -1599    -1588    -1551    -1489    -1432    -1382 
   -1316    -1264    -1281    -1329    -1332    -1300    -1281    -1246 
   -1170    -1109    -1085    -1062    -1039    -1059    -1139    -1227 
   -1275    -1294    -1304    -1286    -1242    -1223    -1251    -1293 
   -1332    -1368    -1399    -1426    -1462    -1505    -1532    -1543 
   -1576    -1626    -1640    -1630    -1648    -1667    -1630    -1578 
   -1583    -1637    -1652    -1611    -1583    -1571    -1514    -1421 
   -1359    -1358    -1409    -1486    -1566    -1621    -1632    -1587 
   -1506    -1433    -1408    -1418    -1417    -1398    -1395    -1410 
   -1406    -1370    -1321    -1283    -1277    -1310    -1371    -1433 
   -1491    -1536    -1551    -1532    -1514    -1521    -1547    -1566 
   -1560    -1539    -1510    -1476    -1445    -1458    -1507    -1529 
   -1499    -1459    -1413    -1351    -1301    -1293    -1301    -1293 
   -1266    -1217    -1143    -1073    -1036    -1031    -1067    -1169 
   -1312    -1455    -1570    -1625    -1613    -1574    -1545    -1526 
   -1509    -1499    -1485    -1443    -1385    -1350    -1348    -1350 
   -1335    -1325    -1331    -1362    -1445    -1555    -1667    -1780 
   -1865    -1881    -1844    -1782    -1715    -1634    -1520    -1401 
   -1321    -1273    -1244    -1271    -1360    -1456    -1505    -1502 
   -1483    -1468    -1462    -1467    -1472    -1456    -1433    -1436 
   -1443    -1418    -1378    -1339    -1291    -1262    -1277    -1320 
   -1358    -1385    -1393    -1362    -1306    -1289    -1323    -1370 
   -1408    -1448    -1486    -1499    -1505    -1530    -1557    -1545 
   -1516    -1512    -1516    -1490    -1435    -1378    -1336    -1300 
   -1279    -1296    -1352    -1418    -1444    -1436    -1401    -1320 
   -1220    -1175    -1210    -1285    -1352    -1424    -1502    -1543 
   -1524    -1495    -1485    -1474    -1458    -1464    -1506    -1559 
   -1611    -1695    -1798    -1837    -1787    -1709    -1644    -1579 
   -1503    -1451    -1455    -1517    -1578    -1549    -1425    -1301 
   -1229    -1206    -1235    -1310    -1377    -1387    -1362    -1325 
   -1263    -1192    -1154    -1139    -1102    -1074    -1124    -1246 
   -1374    -1486    -1607    -1702    -1696    -1609    -1518    -1439 
   -1368    -1343    -1368    -1408    -1464    -1564    -1653    -1634 
   -1514    -1381    -1263    -1156    -1098    -1151    -1294    -1436 
   -1534    -1609    -1659    -1671    -1686    -1759    -1853    -1881 
   -1838    -1772    -1702    -1628    -1583    -1584    -1602    -1599 
   -1571    -1520    -1459    -1426    -1425    -1422    -1399    -1371 
   -1341    -1301    -1278    -1301    -1323    -1279    -1193    -1135 
   -1108    -1085    -1113    -1235    -1368    -1422    -1422    -1418 
   -1417    -1409    -1404    -1413    -1433    -1455    -1487    -1534 
   -1579    -1591    -1566    -1493    -1356    -1201    -1129    -1158 
   -1200    -1227    -1279    -1340    -1356    -1340    -1344    -1371 
   -1410    -1468    -1541    -1597    -1602    -1572    -1551    -1548 
   -1549    -1552    -1571    -1607    -1622    -1597    -1571    -1552 
   -1494    -1417    -1383    -1364    -1305    -1254    -1274    -1324 
   -1347    -1389    -1475    -1526    -1495    -1459    -1471    -1451 
   -1359    -1300    -1324    -1359    -1371    -1412    -1491    -1539 
   -1509    -1459    -1444    -1444    -1449    -1494    -1567    -1590 
   -1543    -1495    -1498    -1525    -1540    -1540    -1541    -1543 
   -1539    -1544    -1571    -1590    -1543    -1428    -1328    -1301 
   -1331    -1406    -1529    -1637    -1642    -1557    -1470    -1413 
   -1354    -1300    -1275    -1243    -1169    -1102    -1116    -1194 
   -1260    -1291    -1308    -1274    -1183    -1134    -1206    -1360 
   -1483    -1537    -1570    -1575    -1498    -1386    -1339    -1337 
   -1313    -1290    -1343    -1463    -1567    -1615    -1630    -1609 
   -1540    -1452    -1394    -1378    -1389    -1420    -1459    -1467 
   -1422    -1359    -1309    -1289    -1286    -1301    -1368    -1490 
   -1605    -1691    -1756    -1788    -1792    -1777    -1729    -1637 
   -1533    -1458    -1422    -1417    -1444    -1486    -1486    -1425 
   -1366    -1347    -1348    -1360    -1394    -1444    -1467    -1437 
   -1393    -1385    -1417    -1467    -1520    -1560    -1551    -1495 
   -1443    -1406    -1372    -1344    -1335    -1351    -1382    -1402 
   -1416    -1414    -1368    -1289    -1221    -1190    -1200    -1264 
   -1359    -1433    -1474    -1471    -1402    -1300    -1259    -1324 
   -1421    -1494    -1574    -1663    -1696    -1661    -1620    -1591 
   -1555    -1521    -1521    -1533    -1528    -1529    -1559    -1572 
   -1532    -1474    -1428    -1366    -1281    -1216    -1194    -1197 
   -1232    -1300    -1360    -1382    -1372    -1329    -1243    -1142 
   -1096    -1121    -1173    -1251    -1381    -1518    -1602    -1642 
   -1667    -1660    -1613    -1579    -1607    -1659    -1686    -1709 
   -1737    -1722    -1644    -1556    -1498    -1439    -1351    -1287 
   -1286    -1300    -1310    -1378    -1512    -1642    -1732    -1788 
   -1792    -1710    -1560    -1416    -1312    -1221    -1135    -1074 
   -1059    -1107    -1200    -1305    -1398    -1439    -1390    -1286 
   -1213    -1229    -1323    -1444    -1553    -1613    -1584    -1495 
   -1420    -1394    -1408    -1452    -1528    -1613    -1664    -1676 
   -1702    -1761    -1782    -1715    -1605    -1494    -1378    -1286 
   -1267    -1301    -1314    -1297    -1285    -1286    -1278    -1275 
   -1312    -1374    -1426    -1453    -1449    -1418    -1377    -1350 
   -1354    -1377    -1390    -1394    -1394    -1390    -1390    -1412 
   -1448    -1456    -1424    -1390    -1378    -1359    -1318    -1290 
   -1296    -1314    -1327    -1364    -1453    -1555    -1601    -1574 
   -1493    -1385    -1291    -1273    -1355    -1483    -1582    -1621 
   -1620    -1603    -1588    -1578    -1583    -1609    -1628    -1613 
   -1590    -1603    -1642    -1669    -1659    -1607    -1499    -1341 
   -1196    -1143    -1169    -1189    -1170    -1158    -1193    -1243 
   -1285    -1354    -1426    -1417    -1347    -1325    -1377    -1437 
   -1497    -1598    -1710    -1753    -1721    -1684    -1687    -1672 
   -1611    -1557    -1530    -1494    -1452    -1464    -1526    -1566 
   -1557    -1541    -1512    -1443    -1362    -1320    -1306    -1277 
   -1248    -1279    -1352    -1385    -1362    -1337    -1312    -1239 
   -1139    -1081    -1080    -1111    -1175    -1259    -1324    -1339 
   -1314    -1255    -1163    -1082    -1074    -1128    -1190    -1262 
   -1354    -1414    -1412    -1377    -1336    -1286    -1235    -1202 
   -1209    -1282    -1418    -1560    -1634    -1625    -1580    -1548 
   -1536    -1557    -1642    -1777    -1884    -1896    -1849    -1806 
   -1759    -1709    -1711    -1760    -1765    -1717    -1675    -1661 
   -1641    -1621    -1634    -1645    -1594    -1507    -1479    -1506 
   -1502    -1459    -1460    -1497    -1474    -1398    -1355    -1344 
   -1291    -1212    -1194    -1220    -1220    -1217    -1262    -1316 
   -1332    -1337    -1359    -1364    -1329    -1296    -1297    -1306 
   -1297    -1296    -1318    -1344    -1372    -1413    -1448    -1462 
   -1463    -1475    -1505    -1540    -1574    -1599    -1601    -1574 
   -1533    -1486    -1445    -1418    -1399    -1371    -1343    -1343 
   -1348    -1321    -1291    -1302    -1332    -1348    -1389    -1491 
   -1599    -1636    -1606    -1552    -1478    -1391    -1343    -1355 
   -1381    -1386    -1386    -1386    -1372    -1364    -1391    -1440 
   -1466    -1456    -1437    -1431    -1424    -1412    -1416    -1439 
   -1462    -1482    -1507    -1541    -1588    -1641    -1665    -1634 
   -1572    -1529    -1506    -1486    -1494    -1532    -1545    -1503 
   -1433    -1368    -1325    -1301    -1300    -1323    -1351    -1378 
   -1416    -1459    -1482    -1478    -1452    -1431    -1431    -1449 
   -1479    -1526    -1583    -1607    -1579    -1537    -1517    -1526 
   -1552    -1575    -1597    -1606    -1564    -1480    -1417    -1393 
   -1375    -1371    -1390    -1387    -1318    -1228    -1178    -1177 
   -1196    -1231    -1316    -1441    -1559    -1648    -1713    -1734 
   -1696    -1609    -1505    -1408    -1344    -1328    -1327    -1302 
   -1258    -1201    -1132    -1063    -1044    -1107    -1204    -1275 
   -1291    -1254    -1185    -1112    -1059    -1057    -1116    -1205 
   -1281    -1344    -1425    -1506    -1548    -1549    -1557    -1594 
   -1637    -1674    -1715    -1763    -1775    -1715    -1609    -1499 
   -1408    -1354    -1331    -1309    -1278    -1267    -1297    -1339 
   -1372    -1431    -1516    -1575    -1572    -1537    -1510    -1487 
   -1455    -1436    -1453    -1493    -1532    -1568    -1595    -1599 
   -1593    -1586    -1566    -1537    -1524    -1522    -1516    -1497 
   -1463    -1421    -1368    -1302    -1270    -1305    -1371    -1433 
   -1502    -1579    -1628    -1630    -1611    -1583    -1526    -1440 
   -1358    -1294    -1237    -1210    -1239    -1313    -1390    -1440 
   -1471    -1486    -1478    -1456    -1443    -1448    -1455    -1449 
   -1429    -1395    -1350    -1302    -1269    -1266    -1300    -1359 
   -1408    -1429    -1429    -1416    -1372    -1306    -1248    -1232 
   -1252    -1277    -1291    -1309    -1335    -1360    -1381    -1404 
   -1433    -1459    -1471    -1482    -1494    -1503    -1518    -1552 
   -1599    -1648    -1678    -1691    -1687    -1644    -1571    -1520 
   -1520    -1555    -1607    -1663    -1701    -1721    -1753    -1787 
   -1772    -1714    -1659    -1614    -1555    -1491    -1468    -1474 
   -1453    -1397    -1327    -1273    -1267    -1321    -1417    -1509 
   -1555    -1543    -1482    -1414    -1370    -1341    -1308    -1279 
   -1270    -1254    -1216    -1192    -1204    -1242    -1281    -1325 
   -1387    -1448    -1476    -1480    -1485    -1478    -1443    -1382 
   -1312    -1240    -1183    -1167    -1196    -1252    -1321    -1381 
   -1409    -1404    -1383    -1364    -1367    -1405    -1463    -1517 
   -1548    -1559    -1555    -1517    -1436    -1363    -1341    -1343 
   -1344    -1366    -1404    -1437    -1466    -1487    -1487    -1470 
   -1463    -1482    -1497    -1480    -1449    -1428    -1413    -1410 
   -1445    -1509    -1541    -1524    -1494    -1483    -1487    -1490 
   -1490    -1486    -1470    -1439    -1408    -1398    -1413    -1429 
   -1435    -1428    -1397    -1356    -1340    -1359    -1398    -1443 
   -1480    -1505    -1502    -1468    -1418    -1362    -1296    -1231 
   -1205    -1225    -1252    -1266    -1279    -1287    -1274    -1251 
   -1255    -1290    -1333    -1385    -1449    -1517    -1579    -1625 
   -1634    -1598    -1539    -1502    -1510    -1536    -1567    -1620 
   -1671    -1669    -1609    -1541    -1509    -1499    -1502    -1541 
   -1603    -1634    -1621    -1605    -1620    -1660    -1691    -1694 
   -1679    -1648    -1601    -1560    -1543    -1530    -1510    -1486 
   -1471    -1458    -1433    -1418    -1426    -1425    -1397    -1383 
   -1408    -1433    -1428    -1414    -1414    -1397    -1339    -1279 
   -1236    -1173    -1093    -1082    -1152    -1220    -1251    -1289 
   -1329    -1328    -1277    -1236    -1233    -1236    -1244    -1300 
   -1399    -1502    -1574    -1610    -1620    -1601    -1563    -1522 
   -1475    -1410    -1348    -1324    -1329    -1347    -1390    -1470 
   -1566    -1651    -1701    -1706    -1674    -1620    -1571    -1547 
   -1544    -1552    -1555    -1529    -1489    -1456    -1421    -1379 
   -1356    -1355    -1355    -1345    -1336    -1336    -1344    -1339 
   -1317    -1291    -1275    -1285    -1320    -1355    -1368    -1367 
   -1364    -1352    -1325    -1296    -1278    -1281    -1308    -1347 
   -1375    -1391    -1425    -1475    -1514    -1532    -1543    -1545 
   -1524    -1494    -1497    -1520    -1517    -1503    -1514    -1518 
   -1472    -1413    -1389    -1390    -1399    -1436    -1493    -1525 
   -1529    -1537    -1547    -1514    -1444    -1390    -1372    -1360 
   -1355    -1387    -1448    -1490    -1499    -1501    -1505    -1507 
   -1502    -1487    -1466    -1431    -1381    -1335    -1320    -1350 
   -1399    -1436    -1463    -1489    -1486    -1440    -1379    -1333 
   -1305    -1293    -1302    -1317    -1317    -1318    -1337    -1359 
   -1363    -1358    -1355    -1355    -1362    -1389    -1422    -1445 
   -1452    -1466    -1491    -1509    -1521    -1547    -1549    -1521 
