Origin Time       2025/06/03 22:18:00
Lat.              41.7
Long.             143.6
Depth. (km)       30
Mag.              5.2
Station Code      KSRH05
Station Lat.      43.2556
Station Long.     144.2338
Station Height(m) -216.1
Record Time       2025/06/03 22:19:21
Sampling Freq(Hz) 100Hz
Duration Time(s)  120
Dir.              2
Scale Factor      2942(gal)/8224139
Max. Acc. (gal)   0.269
Last Correction   2025/06/03 22:19:21
Memo.             
[...]
   89121    89167    89203    89202    89217    89267    89289    89260 
   89260    89320    89382    89418    89451    89483    89498    89487 
   89460    89444    89437    89405    89345    89307    89310    89282 
   89206    89205    89333    89483    89571    89603    89595    89545 
   89468    89405    89394    89424    89444    89426    89382    89333 
   89286    89240    89220    89240    89280    89305    89301    89286 
   89282    89283    89284    89307    89353    89372    89344    89325 
   89343    89368    89382    89391    89399    89402    89394    89368 
   89338    89320    89279    89214    89185    89214    89278    89359 
   89417    89441    89475    89498    89469    89415    89355    89326 
   89367    89405    89361    89329    89399    89457    89383    89280 
   89264    89287    89301    89329    89378    89401    89383    89379 
   89384    89328    89237    89225    89307    89388    89399    89398 
   89430    89442    89380    89251    89132    89060    88996    88943 
   88967    89051    89143    89224    89291    89320    89286    89237 
   89241    89287    89334    89375    89374    89337    89309    89286 
   89235    89148    89067    89055    89117    89162    89117    89054 
   89037    89044    89074    89143    89224    89305    89368    89395 
   89410    89428    89425    89414    89413    89415    89428    89448 
   89461    89469    89498    89560    89635    89680    89681    89672 
   89662    89634    89584    89556    89564    89559    89526    89527 
   89576    89602    89565    89517    89484    89410    89268    89135 
   89064    89032    89021    89062    89136    89198    89255    89309 
   89318    89282    89263    89283    89299    89287    89247    89194 
   89164    89163    89171    89202    89240    89247    89237    89268 
   89320    89306    89244    89217    89220    89224    89260    89347 
   89429    89436    89370    89301    89282    89302    89320    89311 
   89325    89371    89383    89368    89387    89411    89382    89306 
   89218    89156    89163    89221    89266    89268    89256    89253 
   89237    89224    89244    89275    89271    89241    89222    89226 
   89230    89233    89253    89283    89286    89236    89163    89136 
   89183    89274    89379    89494    89600    89672    89698    89677 
   89617    89519    89417    89355    89326    89303    89286    89253 
   89225    89260    89321    89321    89243    89136    89070    89071 
   89128    89224    89337    89403    89391    89364    89364    89344 
   89294    89279    89320    89364    89375    89378    89379    89334 
   89263    89245    89287    89324    89347    89386    89402    89364 
   89324    89317    89311    89290    89283    89313    89334    89303 
   89270    89289    89314    89302    89274    89256    89253    89252 
   89230    89214    89249    89334    89419    89472    89507    89541 
   89540    89488    89413    89347    89297    89233    89136    89052 
   89044    89093    89124    89128    89129    89116    89087    89100 
   89179    89287    89360    89359    89328    89330    89349    89330 
   89286    89274    89299    89325    89343    89371    89395    89402 
   89421    89488    89590    89685    89766    89843    89915    89949 
   89939    89901    89845    89779    89711    89634    89537    89446 
   89421    89440    89432    89392    89367    89328    89240    89149 
   89116    89132    89149    89128    89104    89116    89105    89021 
   88962    89005    89071    89078    89079    89112    89091    88998 
   88935    88942    88978    89024    89051    89052    89085    89176 
   89263    89297    89311    89330    89332    89325    89361    89438 
   89492    89491    89476    89459    89430    89392    89341    89293 
   89268    89241    89203    89209    89274    89353    89398    89407 
   89406    89405    89433    89498    89569    89604    89560    89464 
   89417    89432    89453    89475    89498    89514    89526    89519 
   89480    89438    89425    89430    89441    89488    89584    89668 
   89691    89684    89685    89694    89695    89685    89649    89579 
   89499    89438    89409    89406    89386    89320    89247    89218 
   89232    89245    89233    89213    89218    89245    89271    89286 
   89267    89232    89228    89228    89202    89206    89280    89376 
   89411    89379    89329    89280    89216    89140    89074    89027 
   89006    89013    89028    89048    89091    89159    89202    89182 
   89148    89151    89167    89183    89209    89225    89213    89199 
   89213    89235    89262    89309    89378    89442    89468    89469 
   89478    89488    89491    89471    89430    89387    89332    89259 
   89208    89197    89201    89189    89158    89166    89244    89348 
   89419    89438    89422    89395    89352    89303    89263    89225 
   89202    89202    89197    89185    89198    89229    89240    89239 
   89266    89329    89388    89386    89344    89326    89340    89345 
   89337    89356    89415    89461    89446    89407    89375    89330 
   89279    89262    89272    89267    89267    89294    89306    89294 
   89287    89294    89311    89329    89355    89391    89405    89402 
   89410    89402    89361    89334    89328    89332    89348    89363 
   89370    89378    89397    89429    89451    89419    89357    89311 
   89274    89222    89176    89143    89120    89143    89224    89299 
   89340    89363    89375    89380    89384    89384    89391    89407 
   89429    89463    89499    89526    89534    89529    89509    89463 
   89409    89374    89355    89316    89243    89170    89124    89100 
   89077    89047    89039    89058    89070    89082    89108    89097 
   89043    89001    88989    88989    89012    89066    89120    89143 
   89131    89114    89132    89170    89179    89145    89100    89068 
   89062    89068    89079    89122    89212    89293    89314    89291 
   89263    89243    89239    89255    89275    89276    89268    89278 
   89307    89318    89274    89201    89158    89160    89163    89147 
   89145    89168    89201    89230    89256    89291    89360    89432 
   89452    89433    89446    89484    89509    89526    89561    89600 
   89591    89553    89561    89594    89580    89545    89554    89604 
   89629    89592    89559    89583    89614    89615    89611    89611 
   89608    89592    89538    89459    89399    89380    89384    89391 
   89407    89457    89515    89546    89552    89540    89506    89445 
   89361    89287    89257    89266    89267    89247    89212    89178 
   89189    89247    89284    89272    89256    89267    89291    89321 
   89332    89318    89295    89267    89253    89290    89361    89417 
   89442    89475    89515    89532    89538    89568    89591    89577 
   89548    89527    89519    89506    89484    89464    89425    89367 
   89324    89305    89275    89236    89235    89262    89247    89160 
   89059    89024    89046    89059    89062    89064    89063    89067 
   89086    89114    89144    89158    89175    89212    89245    89280 
   89337    89378    89361    89309    89268    89256    89256    89256 
   89279    89333    89376    89392    89414    89437    89426    89374 
   89299    89241    89209    89175    89139    89139    89179    89228 
   89268    89326    89425    89527    89577    89588    89603    89613 
   89581    89515    89457    89430    89436    89457    89469    89469 
   89473    89483    89499    89527    89572    89625    89676    89696 
   89667    89618    89587    89563    89527    89496    89484    89472 
   89459    89456    89453    89429    89387    89378    89422    89448 
   89426    89418    89440    89444    89418    89387    89384    89401 
   89418    89440    89464    89471    89459    89436    89418    89414 
   89401    89368    89305    89214    89143    89132    89164    89172 
   89109    89028    88989    88966    88938    88919    88915    88915 
   88924    88951    88987    89019    89056    89105    89147    89171 
   89183    89197    89206    89195    89176    89145    89104    89090 
   89114    89122    89078    89028    89020    89017    88983    88969 
   89001    89024    89016    89012    89025    89048    89089    89137 
   89175    89203    89243    89301    89372    89445    89498    89529 
   89579    89657    89730    89785    89820    89831    89831    89843 
   89843    89818    89781    89741    89700    89662    89627    89606 
   89610    89630    89642    89646    89635    89592    89532    89478 
   89444    89440    89440    89419    89387    89355    89313    89267 
   89240    89230    89213    89205    89239    89282    89272    89226 
   89201    89189    89164    89145    89151    89155    89125    89075 
   89037    89029    89037    89024    88993    88982    89012    89077 
   89156    89229    89297    89365    89402    89392    89374    89376 
   89378    89356    89321    89293    89275    89252    89237    89255 
   89289    89307    89318    89357    89413    89417    89375    89353 
   89349    89348    89347    89324    89267    89193    89124    89075 
   89050    89039    89047    89078    89118    89154    89183    89214 
   89235    89235    89236    89252    89271    89309    89378    89440 
   89469    89483    89486    89492    89500    89484    89465    89476 
   89499    89506    89483    89459    89457    89451    89436    89419 
   89402    89387    89359    89317    89280    89248    89225    89241 
   89293    89330    89314    89257    89237    89295    89380    89444 
   89487    89513    89526    89523    89509    89495    89471    89418 
   89361    89324    89287    89256    89248    89259    89266    89268 
   89283    89302    89302    89291    89278    89256    89239    89248 
   89290    89352    89409    89446    89460    89457    89463    89468 
   89442    89398    89364    89340    89316    89267    89185    89112 
   89075    89041    88993    88960    88935    88890    88843    88824 
   88824    88840    88866    88893    88931    88982    89025    89062 
   89100    89121    89128    89147    89183    89232    89267    89297 
   89351    89394    89399    89407    89449    89499    89526    89530 
   89533    89548    89575    89606    89622    89611    89586    89567 
   89571    89591    89622    89664    89707    89721    89711    89711 
   89723    89719    89698    89675    89660    89650    89638    89611 
   89572    89514    89438    89379    89345    89314    89280    89256 
   89232    89199    89163    89141    89129    89105    89070    89043 
   89023    89014    89029    89058    89075    89087    89102    89118 
   89152    89209    89263    89294    89307    89318    89322    89293 
   89243    89214    89209    89198    89194    89224    89264    89274 
   89253    89224    89183    89148    89139    89139    89145    89182 
   89235    89263    89263    89276    89293    89276    89237    89206 
   89195    89194    89183    89181    89209    89260    89310    89348 
   89386    89428    89455    89464    89473    89471    89444    89418 
   89422    89425    89386    89333    89317    89330    89353    89371 
   89378    89380    89397    89438    89478    89482    89457    89428 
   89410    89406    89418    89444    89468    89486    89502    89530 
   89575    89607    89599    89568    89537    89511    89491    89471 
   89436    89399    89386    89379    89359    89328    89305    89295 
   89287    89274    89256    89235    89213    89203    89210    89226 
   89249    89278    89306    89328    89338    89349    89370    89390 
   89397    89401    89422    89446    89456    89459    89459    89446 
   89429    89417    89401    89372    89343    89321    89298    89264 
   89228    89195    89160    89131    89120    89131    89151    89151 
   89120    89091    89079    89062    89046    89064    89116    89163 
   89190    89210    89237    89270    89297    89314    89333    89345 
   89340    89328    89318    89297    89262    89221    89189    89182 
   89191    89202    89212    89221    89228    89232    89230    89229 
   89236    89248    89260    89270    89282    89309    89347    89383 
   89413    89438    89455    89475    89502    89513    89511    89532 
   89568    89596    89607    89606    89604    89617    89644    89687 
   89741    89783    89806    89806    89784    89762    89754    89745 
   89725    89696    89649    89587    89532    89478    89425    89392 
   89387    89390    89374    89336    89306    89297    89289    89282 
   89283    89289    89301    89298    89275    89256    89241    89224 
   89216    89212    89193    89154    89101    89041    88981    88927 
   88878    88839    88817    88820    88830    88821    88803    88807 
   88846    88916    89005    89104    89222    89351    89446    89502 
   89544    89572    89581    89596    89634    89669    89688    89704 
   89719    89716    89702    89689    89673    89649    89626    89615 
   89606    89591    89583    89569    89526    89467    89411    89376 
   89356    89338    89329    89333    89333    89333    89367    89429 
   89486    89527    89579    89630    89652    89648    89650    89658 
   89634    89568    89492    89429    89374    89333    89321    89324 
   89305    89259    89214    89191    89170    89132    89102    89110 
   89137    89141    89128    89120    89095    89040    88978    88916 
   88855    88804    88759    88712    88666    88628    88601    88584 
   88574    88573    88576    88587    88612    88666    88723    88765 
   88819    88885    88950    89021    89095    89164    89221    89253 
   89270    89289    89311    89337    89368    89419    89486    89542 
   89575    89595    89615    89630    89645    89672    89719    89783 
   89839    89869    89889    89915    89932    89935    89932    89901 
   89829    89758    89727    89721    89711    89685    89656    89627 
   89590    89532    89463    89398    89341    89289    89248    89233 
   89243    89260    89266    89259    89262    89274    89287    89291 
   89275    89236    89199    89172    89140    89108    89091    89089 
   89068    89032    89014    89016    89017    89024    89036    89039 
   89031    89013    88997    89000    89019    89046    89091    89139 
   89159    89158    89163    89179    89199    89205    89197    89189 
   89191    89206    89224    89235    89249    89272    89291    89309 
   89332    89349    89352    89338    89324    89309    89284    89270 
   89272    89276    89275    89286    89324    89382    89440    89495 
   89544    89571    89583    89594    89594    89569    89536    89511 
   89492    89465    89448    89437    89422    89414    89403    89378 
   89353    89330    89302    89274    89247    89233    89236    89235 
   89236    89248    89255    89255    89252    89249    89247    89240 
   89244    89268    89290    89298    89309    89318    89310    89295 
   89307    89345    89386    89410    89417    89418    89415    89398 
   89364    89324    89284    89259    89256    89264    89268    89267 
   89272    89274    89266    89272    89302    89324    89318    89317 
   89332    89352    89374    89392    89413    89432    89440    89446 
   89438    89410    89388    89383    89384    89383    89375    89367 
   89355    89337    89325    89318    89318    89341    89383    89428 
   89476    89527    89577    89619    89642    89648    89667    89698 
   89715    89721    89723    89711    89679    89638    89602    89567 
   89541    89534    89544    89561    89580    89588    89590    89592 
   89596    89602    89603    89591    89577    89576    89576    89552 
   89506    89456    89417    89392    89375    89347    89310    89267 
   89221    89185    89160    89139    89106    89068    89043    89033 
   89019    89000    88992    89001    89008    89005    88998    88998 
   89004    89012    89017    89013    89005    89006    89017    89029 
   89037    89041    89051    89058    89048    89039    89044    89058 
   89070    89074    89059    89039    89025    89024    89032    89046 
   89058    89077    89109    89147    89187    89222    89253    89282 
   89298    89309    89317    89316    89321    89337    89341    89334 
   89329    89324    89326    89352    89401    89442    89457    89461 
   89468    89472    89468    89457    89449    89438    89425    89428 
   89437    89434    89440    89467    89486    89480    89480    89509 
   89534    89536    89536    89559    89594    89614    89618    89630 
   89653    89662    89656    89633    89591    89545    89515    89486 
   89444    89399    89357    89321    89287    89247    89212    89186 
   89158    89124    89091    89071    89059    89039    89021    89013 
   89006    88994    88978    88970    88982    89005    89021    89032 
   89051    89078    89112    89158    89218    89284    89333    89364 
   89390    89407    89406    89402    89402    89403    89409    89409 
   89417    89441    89467    89486    89500    89513    89526    89549 
   89591    89650    89702    89730    89750    89775    89791    89793 
   89779    89753    89731    89710    89684    89649    89606    89554 
   89494    89442    89414    89394    89367    89336    89301    89267 
   89243    89222    89210    89210    89212    89205    89191    89179 
   89167    89154    89132    89095    89059    89036    89021    89008 
   88987    88966    88944    88924    88912    88908    88908    88915 
   88925    88935    88946    88959    88983    89024    89073    89124 
   89176    89235    89299    89363    89417    89460    89496    89517 
   89521    89518    89523    89527    89503    89463    89436    89415 
   89380    89356    89355    89361    89355    89329    89305    89286 
   89249    89206    89189    89194    89194    89193    89199    89208 
   89226    89267    89310    89348    89375    89387    89405    89444 
   89484    89507    89526    89548    89564    89577    89603    89634 
   89634    89599    89563    89537    89509    89469    89421    89370 
   89307    89244    89199    89176    89164    89156    89147    89137 
   89132    89127    89118    89110    89098    89089    89090    89089 
   89091    89108    89117    89113    89108    89110    89131    89163 
   89203    89239    89257    89279    89314    89348    89379    89403 
   89413    89424    89429    89414    89401    89407    89422    89433 
   89430    89424    89419    89413    89399    89390    89390    89395 
   89405    89413    89415    89419    89411    89378    89352    89347 
   89341    89328    89317    89317    89328    89340    89349    89357 
   89353    89344    89348    89374    89409    89442    89468    89487 
   89510    89544    89584    89626    89660    89665    89652    89638 
   89637    89645    89658    89675    89677    89668    89665    89657 
   89626    89580    89533    89483    89430    89383    89347    89311 
   89274    89240    89217    89210    89218    89221    89220    89224 
   89233    89229    89210    89185    89172    89164    89148    89133 
   89121    89109    89097    89081    89058    89035    89021    89027 
   89035    89025    89009    88998    89001    89010    89010    89004 
   88994    88987    88992    89012    89041    89064    89081    89098 
   89118    89140    89156    89166    89171    89171    89170    89187 
