Origin Time       2025/06/03 22:18:00
Lat.              41.7
Long.             143.6
Depth. (km)       30
Mag.              5.2
Station Code      KSRH05
Station Lat.      43.2556
Station Long.     144.2338
Station Height(m) -216.1
Record Time       2025/06/03 22:19:21
Sampling Freq(Hz) 100Hz
Duration Time(s)  120
Dir.              3
Scale Factor      2942(gal)/8224139
Max. Acc. (gal)   0.183
Last Correction   2025/06/03 22:19:21
Memo.             
[...]
   71934    71928    71945    71976    71971    71930    71925    71976 
   71999    71988    72037    72107    72123    72125    72127    72083 
   72013    71967    71987    72064    72127    72138    72099    72041 
   72007    72004    72007    71986    71956    71984    72056    72096 
   72099    72088    72046    71982    71938    71923    71925    71976 
   72077    72148    72161    72149    72108    72010    71891    71822 
   71810    71822    71855    71913    72007    72081    72073    72050 
   72072    72081    72054    72033    72056    72104    72123    72099 
   72061    72002    71933    71887    71869    71871    71886    71911 
   71930    71910    71867    71852    71860    71855    71818    71783 
   71770    71736    71689    71689    71714    71707    71710    71757 
   71786    71753    71706    71694    71716    71774    71886    71986 
   71991    71965    71996    72044    72069    72068    72025    71982 
   71960    71933    71926    71986    72060    72077    72046    72015 
   72000    71998    72019    72041    72029    72009    71992    71991 
   72022    72025    71967    71942    71982    72010    72007    72018 
   72034    72033    72036    72038    71973    71851    71761    71743 
   71770    71832    71892    71930    71982    72040    72064    72087 
   72129    72137    72100    72073    72058    72027    72027    72110 
   72207    72261    72288    72288    72272    72277    72283    72257 
   72199    72134    72100    72102    72121    72122    72096    72100 
   72119    72083    72013    71968    71963    71953    71898    71868 
   71913    71944    71928    71918    71953    72026    72096    72117 
   72081    72010    71975    72002    72048    72106    72135    72091 
   72031    72006    71984    71964    71980    71991    71915    71817 
   71822    71884    71902    71905    71925    71929    71887    71832 
   71817    71825    71778    71709    71683    71686    71749    71878 
   71949    71936    71952    71986    71976    71982    72003    71976 
   71950    71983    72018    72023    72072    72173    72226    72206 
   72188    72181    72148    72100    72084    72103    72130    72171 
   72203    72183    72127    72083    72045    72014    71996    71976 
   71946    71892    71821    71794    71824    71859    71888    71899 
   71882    71891    71930    71923    71906    71965    72044    72068 
   72063    72021    71944    71910    71937    71938    71865    71807 
   71840    71890    71880    71857    71875    71914    71942    71956 
   71965    71973    71975    71979    71988    72000    72000    71973 
   71955    71980    71996    71992    72006    72009    71988    71987 
   71969    71932    71942    72010    72064    72071    72048    72009 
   71956    71922    71961    72049    72127    72169    72175    72139 
   72058    71972    71925    71895    71892    71932    71968    71998 
   72042    72069    72068    72050    72030    72019    72019    72045 
   72095    72129    72145    72150    72127    72085    72056    72080 
   72114    72090    72068    72096    72139    72179    72164    72085 
   72026    72011    72007    72002    71988    71964    71937    71932 
   71971    71992    71930    71859    71868    71906    71898    71879 
   71909    71957    71977    71999    72046    72090    72117    72157 
   72200    72207    72211    72222    72181    72090    72013    71984 
   71984    71948    71891    71892    71903    71860    71817    71770 
   71694    71697    71798    71867    71868    71861    71844    71775 
   71706    71720    71778    71817    71874    71955    71986    71944 
   71880    71852    71876    71911    71929    71965    72037    72091 
   72100    72071    72003    71902    71815    71799    71832    71853 
   71853    71853    71844    71822    71797    71751    71705    71706 
   71747    71799    71847    71886    71938    72002    72044    72061 
   72048    71991    71956    71986    72029    72052    72077    72110 
   72138    72180    72216    72219    72220    72227    72193    72127 
   72088    72084    72063    72019    72007    72013    72011    72023 
   72038    72046    72049    72000    71913    71882    71895    71879 
   71872    71901    71887    71834    71815    71799    71721    71636 
   71660    71791    71914    71995    72091    72199    72256    72231 
   72169    72122    72095    72100    72134    72130    72087    72058 
   72038    72031    72041    72011    71960    71914    71851    71824 
   71892    72004    72080    72079    72018    71982    72004    72037 
   72048    72050    72053    72060    72052    72002    71928    71874 
   71857    71860    71848    71829    71872    71975    72084    72175 
   72235    72265    72274    72257    72214    72176    72142    72094 
   72053    72045    72041    72046    72076    72085    72072    72081 
   72104    72123    72130    72090    72014    71953    71948    72006 
   72088    72110    72065    72021    72006    71990    71982    71996 
   72006    72013    72033    72044    72049    72058    72057    72053 
   72049    72030    72009    71998    71994    71999    71999    71998 
   72022    72040    72014    71995    72006    71992    71926    71855 
   71815    71799    71775    71751    71760    71795    71811    71817 
   71834    71840    71824    71787    71734    71690    71678    71705 
   71772    71828    71836    71845    71859    71825    71764    71739 
   71784    71867    71903    71896    71917    71979    72022    72007 
   71961    71928    71913    71928    71984    72044    72081    72125 
   72148    72122    72050    71953    71884    71872    71887    71911 
   71938    71955    71934    71872    71832    71853    71901    71934 
   71948    71945    71952    71986    72019    72050    72080    72083 
   72063    72045    72033    71991    71915    71863    71852    71859 
   71887    71930    71965    72007    72067    72130    72193    72237 
   72245    72233    72211    72189    72172    72146    72107    72053 
   72009    71998    71964    71906    71869    71847    71829    71828 
   71826    71842    71913    72014    72092    72138    72169    72166 
   72129    72108    72121    72152    72196    72238    72266    72283 
   72274    72247    72239    72253    72225    72148    72091    72083 
   72084    72083    72095    72118    72137    72117    72036    71942 
   71898    71865    71793    71721    71732    71825    71914    71934 
   71913    71876    71826    71805    71826    71826    71813    71857 
   71923    71955    71990    72036    72048    72013    71971    71987 
   72027    72007    71965    71983    72019    72007    71976    71953 
   71919    71914    71963    72002    72013    72044    72083    72065 
   72004    71984    72010    72007    71976    71956    71942    71936 
   71926    71886    71848    71875    71960    72052    72084    72042 
   71998    71984    71944    71868    71851    71937    72048    72118 
   72164    72166    72098    72052    72071    72065    72013    71976 
   71956    71932    71925    71938    71944    71905    71826    71776 
   71778    71802    71861    71938    71986    72010    72030    72064 
   72100    72107    72103    72104    72096    72119    72176    72168 
   72099    72046    72000    71973    71973    71933    71865    71857 
   71915    71990    72044    72065    72065    72063    72077    72092 
   72063    72014    71994    71992    72013    72076    72142    72162 
   72150    72138    72115    72050    71961    71879    71826    71805 
   71818    71857    71901    71938    71959    71926    71860    71820 
   71803    71788    71798    71840    71876    71890    71919    71969 
   72011    72042    72072    72099    72110    72090    72064    72049 
   72021    71980    71949    71923    71890    71867    71890    71942 
   71983    72007    72029    72036    72029    72057    72135    72211 
   72243    72258    72269    72241    72177    72115    72063    72004 
   71967    71987    72026    72013    71956    71896    71847    71810 
   71778    71761    71776    71791    71807    71849    71887    71898 
   71905    71907    71888    71855    71821    71787    71745    71724 
   71734    71734    71709    71707    71763    71845    71899    71907 
   71895    71894    71932    71988    72000    71990    72013    72026 
   71979    71919    71882    71859    71882    71952    72013    72054 
   72095    72131    72144    72111    72064    72046    72034    72007 
   72010    72050    72090    72087    72060    72048    72044    72041 
   72041    72018    72006    72058    72114    72135    72139    72103 
   72021    71948    71906    71878    71853    71849    71884    71940 
   71986    72058    72162    72210    72199    72193    72177    72126 
   72085    72073    72063    72052    72026    71982    71969    72015 
   72071    72083    72069    72042    72002    72010    72069    72094 
   72091    72085    72045    72000    71998    71986    71933    71878 
   71852    71859    71874    71857    71798    71748    71766    71807 
   71806    71795    71832    71896    71980    72075    72127    72121 
   72096    72069    72071    72126    72171    72154    72110    72058 
   72021    72025    72044    72038    72009    71972    71969    72013 
   72042    72034    72011    71986    71968    71957    71940    71913 
   71883    71875    71901    71921    71923    71932    71952    71984 
   72015    72034    72054    72068    72044    72000    71971    71959 
   71956    71965    71979    71973    71945    71944    71996    72071 
   72114    72114    72112    72121    72080    71988    71926    71895 
   71838    71784    71772    71763    71722    71695    71717    71741 
   71747    71756    71755    71714    71680    71709    71778    71829 
   71863    71890    71894    71898    71938    71998    72060    72103 
   72080    72025    72019    72063    72087    72067    72033    72017 
   72023    72067    72118    72131    72139    72164    72168    72141 
   72092    72017    71941    71907    71914    71936    71940    71918 
   71879    71840    71847    71910    71979    72042    72107    72138 
   72135    72121    72069    71991    71949    71972    72044    72133 
   72189    72189    72158    72114    72064    72036    72030    72029 
   72013    72010    72058    72115    72114    72067    71996    71917 
   71882    71901    71933    71973    72029    72073    72088    72091 
   72110    72141    72162    72164    72142    72106    72080    72088 
   72103    72075    72017    71977    71965    71963    71957    71934 
   71902    71887    71899    71922    71938    71976    72042    72075 
   72069    72088    72110    72104    72126    72160    72149    72134 
   72157    72177    72181    72181    72162    72122    72079    72042 
   72017    71995    71977    71973    71967    71926    71876    71852 
   71814    71749    71713    71720    71734    71737    71706    71670 
   71663    71663    71659    71664    71679    71721    71790    71853 
   71906    71960    72013    72057    72095    72118    72123    72110 
   72098    72103    72112    72117    72119    72100    72072    72069 
   72067    72049    72063    72111    72166    72212    72243    72253 
   72245    72218    72154    72057    71955    71869    71805    71763 
   71753    71768    71807    71849    71852    71832    71813    71788 
   71782    71782    71768    71774    71803    71830    71845    71845 
   71832    71820    71814    71828    71875    71918    71934    71963 
   72009    72031    72038    72058    72084    72090    72073    72030 
   71965    71930    71946    71976    71996    72010    72022    72044 
   72081    72125    72146    72138    72127    72152    72211    72270 
   72301    72315    72328    72328    72301    72276    72249    72202 
   72160    72144    72126    72088    72038    71991    71953    71937 
   71933    71922    71922    71941    71950    71963    71983    71975 
   71938    71914    71899    71860    71810    71782    71759    71740 
   71748    71772    71793    71813    71830    71829    71817    71811 
   71822    71828    71818    71842    71899    71941    71979    72029 
   72056    72054    72048    72049    72054    72057    72067    72085 
   72099    72098    72079    72040    71999    71984    71998    72029 
   72075    72125    72158    72162    72119    72063    72036    72013 
   71982    71977    71987    71982    71987    72000    71977    71934 
   71910    71892    71859    71825    71814    71820    71826    71834 
   71845    71853    71851    71836    71813    71795    71795    71791 
   71779    71767    71753    71744    71739    71763    71828    71880 
   71892    71894    71906    71938    71996    72046    72077    72112 
   72146    72181    72220    72227    72203    72181    72180    72180 
   72160    72133    72112    72068    71999    71948    71922    71903 
   71913    71961    72000    72002    72000    72019    72052    72080 
   72080    72079    72084    72072    72057    72048    72025    72002 
   72010    72045    72073    72077    72087    72108    72108    72104 
   72126    72144    72119    72092    72100    72107    72075    72042 
   72038    72040    72038    72040    72030    71998    71967    71980 
   72030    72076    72117    72161    72195    72208    72203    72175 
   72139    72125    72142    72173    72189    72175    72127    72077 
   72048    72038    72048    72044    72002    71944    71882    71805 
   71729    71689    71658    71593    71523    71485    71474    71496 
   71548    71590    71598    71594    71602    71639    71709    71788 
   71842    71869    71899    71941    71976    71979    71956    71917 
   71872    71853    71869    71883    71884    71892    71910    71926 
   71944    71961    71960    71941    71915    71899    71907    71932 
   71945    71929    71905    71907    71934    71969    72013    72073 
   72146    72206    72233    72225    72199    72183    72180    72181 
   72183    72171    72150    72129    72108    72090    72058    72004 
   71971    71982    71999    71995    71994    71996    71973    71922 
   71861    71803    71752    71725    71736    71760    71761    71764 
   71795    71837    71867    71886    71894    71892    71901    71929 
   71965    72003    72033    72048    72060    72081    72115    72138 
   72145    72156    72173    72202    72256    72310    72338    72346 
   72319    72256    72204    72192    72202    72198    72172    72156 
   72156    72156    72165    72183    72175    72162    72177    72179 
   72135    72083    72037    71977    71909    71880    71902    71919 
   71925    71941    71938    71903    71860    71798    71747    71737 
   71752    71782    71821    71860    71911    71963    71977    71992 
   72042    72081    72079    72069    72063    72033    72015    72036 
   72053    72050    72046    72040    72034    72046    72058    72033 
   71972    71917    71886    71874    71878    71886    71894    71917 
   71952    71975    71980    71983    71983    71994    72030    72061 
   72063    72058    72060    72057    72058    72065    72065    72065 
   72075    72073    72057    72050    72067    72077    72075    72050 
   72002    71956    71938    71942    71944    71937    71933    71918 
   71884    71844    71806    71783    71790    71815    71852    71896 
   71933    71964    71994    72011    72018    72030    72040    72030 
   72031    72044    72029    72013    72025    72052    72071    72072 
   72073    72084    72087    72091    72099    72088    72069    72038 
   71996    71979    71975    71963    71961    71972    71973    71953 
   71925    71899    71872    71840    71797    71747    71709    71698 
   71703    71716    71747    71784    71811    71844    71869    71860 
   71844    71840    71828    71824    71842    71860    71865    71861 
   71830    71790    71774    71794    71837    71874    71907    71950 
   71991    72030    72095    72168    72210    72206    72169    72145 
   72129    72091    72052    72023    71996    71977    71969    71946 
   71925    71926    71923    71910    71901    71884    71857    71834 
   71828    71841    71868    71906    71945    71976    72004    72050 
   72108    72138    72131    72138    72173    72204    72216    72216 
   72204    72191    72193    72191    72172    72160    72179    72226 
   72261    72254    72218    72184    72154    72118    72087    72060 
   72042    72034    72026    72015    71999    71977    71961    71959 
   71977    71999    71984    71950    71936    71932    71914    71902 
   71919    71959    71998    72029    72037    72027    72019    72031 
   72076    72131    72154    72154    72157    72158    72149    72130 
   72115    72102    72068    72023    72004    72017    72046    72092 
   72138    72165    72185    72200    72185    72150    72122    72080 
   72019    71967    71929    71898    71861    71820    71778    71730 
   71693    71697    71732    71748    71745    71756    71760    71732 
   71706    71695    71676    71653    71658    71687    71712    71720 
   71713    71693    71678    71683    71689    71682    71685    71709 
   71739    71774    71825    71884    71922    71934    71948    71965 
   71975    71982    71998    72017    72034    72054    72079    72118 
   72166    72202    72216    72212    72192    72173    72161    72150 
   72139    72133    72126    72106    72064    72010    71968    71934 
   71895    71865    71863    71882    71906    71921    71921    71919 
   71921    71919    71923    71948    71991    72040    72069    72071 
   72061    72049    72006    71944    71901    71879    71871    71874 
   71879    71887    71915    71959    72014    72077    72133    72172 
   72202    72220    72216    72196    72172    72149    72130    72111 
   72083    72052    72031    72017    71994    71987    72000    72014 
   72040    72080    72108    72100    72069    72056    72057    72042 
   72026    72036    72063    72088    72104    72127    72156    72169 
   72175    72172    72160    72154    72156    72146    72139    72142 
   72134    72110    72084    72058    72026    72003    71994    71996 
   72000    71980    71945    71919    71892    71878    71884    71888 
   71871    71844    71820    71797    71786    71798    71818    71818 
   71803    71806    71822    71828    71833    71848    71859    71861 
   71875    71890    71878    71848    71822    71809    71810    71818 
   71811    71793    71772    71747    71725    71713    71709    71717 
   71736    71767    71815    71855    71879    71917    71953    71975 
   72002    72021    72030    72057    72098    72130    72149    72153 
   72141    72122    72091    72056    72031    72003    71957    71923 
   71918    71910    71891    71874    71867    71879    71903    71919 
   71921    71911    71892    71891    71930    71980    72017    72040 
   72060    72090    72122    72139    72145    72160    72173    72185 
   72210    72249    72289    72324    72351    72368    72366    72335 
   72283    72227    72172    72111    72046    71990    71953    71926 
   71901    71894    71903    71898    71883    71878    71882    71896 
   71925    71957    71996    72046    72106    72158    72187    72189 
   72175    72157    72157    72172    72177    72165    72137    72094 
