Origin Time       2025/06/03 22:18:00
Lat.              41.7
Long.             143.6
Depth. (km)       30
Mag.              5.2
Station Code      KSRH04
Station Lat.      43.2139
Station Long.     144.6804
Station Height(m) -210
Record Time       2025/06/03 22:19:16
Sampling Freq(Hz) 100Hz
Duration Time(s)  120
Dir.              1
Scale Factor      3923(gal)/8224838
Max. Acc. (gal)   0.226
Last Correction   2025/06/03 22:19:17
Memo.             
[...]
   23992    24028    24061    24073    24104    24113    24077    24054 
   24048    24020    24009    24035    24019    23970    23971    23994 
   23992    24009    24046    24042    24035    24073    24090    24066 
   24051    24042    24015    23998    24008    24005    23986    23985 
   23986    23971    23970    23977    23953    23920    23930    23966 
   23978    23978    23993    24003    24003    24025    24043    24024 
   24020    24040    24031    24011    24003    23967    23931    23953 
   24000    24017    24020    24013    23967    23920    23915    23900 
   23882    23928    23980    23969    23984    24044    24055    24048 
   24088    24100    24059    24057    24079    24063    24038    24028 
   24004    23978    23981    23988    23981    23974    23971    23985 
   23998    23970    23917    23903    23915    23915    23938    23994 
   24043    24066    24078    24073    24057    24047    24036    24043 
   24078    24096    24097    24111    24105    24082    24086    24102 
   24096    24090    24071    24012    23973    23976    23955    23922 
   23927    23932    23913    23922    23943    23940    23935    23953 
   23977    23994    24001    23996    24000    24021    24046    24063 
   24066    24047    24030    24017    24009    24021    24046    24061 
   24055    24042    24032    24019    24000    23996    24011    24024 
   24019    24005    23997    23978    23954    23953    23963    23966 
   23978    23996    23976    23936    23955    24013    24031    24031 
   24044    24035    24020    24039    24052    24042    24062    24094 
   24084    24061    24050    24020    23992    24001    24017    24028 
   24052    24069    24059    24047    24028    24004    23997    23980 
   23940    23928    23959    23971    23938    23916    23930    23931 
   23939    23990    24031    24032    24027    24023    24015    24005 
   23997    23986    23967    23940    23942    23990    24025    24017 
   24028    24055    24034    23985    23950    23919    23900    23913 
   23953    24007    24065    24075    24025    23986    23984    23974 
   23950    23932    23923    23949    24007    24024    24011    24057 
   24115    24112    24101    24106    24084    24057    24059    24059 
   24054    24062    24061    24036    24009    23977    23939    23928 
   23943    23959    23973    23977    23969    23989    24028    24035 
   24030    24036    24035    24032    24044    24063    24075    24057 
   24017    24008    24032    24038    24027    24038    24044    24027 
   24019    24011    23985    23976    23985    23992    24008    24025 
   24015    23992    23981    23966    23951    23963    23982    23978 
   23973    23981    23993    24020    24057    24059    24030    24027 
   24066    24074    24016    23967    23980    23998    23998    24028 
   24078    24085    24059    24065    24074    24036    23984    23958 
   23953    23957    23944    23946    23996    24028    23985    23939 
   23934    23917    23907    23961    24012    23997    23994    24011 
   23980    23946    23965    23982    23985    24017    24035    24005 
   23992    24009    24012    24011    24012    23998    23990    24000 
   24003    23978    23951    23936    23915    23896    23908    23926 
   23938    23976    24012    23998    23976    23985    23993    24001 
   24031    24040    24020    24024    24039    24032    24046    24069 
   24051    24043    24071    24067    24040    24058    24092    24104 
   24124    24148    24150    24165    24193    24173    24113    24082 
   24058    24030    24050    24098    24093    24063    24057    24048 
   24035    24059    24074    24023    23980    23982    23977    23978 
   24015    24015    23939    23877    23890    23915    23899    23888 
   23904    23922    23949    23982    23977    23963    24000    24051 
   24069    24078    24071    24012    23969    23996    24011    23971 
   23961    23988    24005    24032    24054    24028    23997    23992 
   23986    23969    23963    23969    23961    23947    23939    23931 
   23927    23932    23939    23946    23947    23950    23953    23950 
   23958    23993    24038    24088    24133    24146    24120    24090 
   24074    24055    24020    23994    23998    24005    24000    24016 
   24048    24057    24051    24070    24079    24042    23992    23963 
   23957    23984    24028    24043    24038    24063    24094    24077 
   24052    24067    24085    24101    24125    24120    24090    24074 
   24067    24057    24052    24047    24017    23986    23974    23967 
   23971    23989    23993    23989    24012    24044    24065    24092 
   24138    24173    24178    24151    24101    24043    24005    24000 
   23971    23911    23872    23865    23865    23876    23892    23893 
   23888    23888    23896    23920    23927    23904    23885    23874 
   23866    23881    23912    23935    23957    23981    23996    24039 
   24119    24143    24101    24089    24096    24065    24040    24043 
   24036    24028    24017    23988    23970    23977    23949    23900 
   23919    23978    24008    24027    24042    24024    24020    24047 
   24025    23971    23980    24016    24013    23992    23982    23973 
   23969    23967    23951    23946    23998    24084    24123    24089 
   24016    23930    23854    23838    23886    23943    23974    23989 
   23992    23980    23962    23966    23996    24021    24031    24038 
   24044    24030    23985    23950    23969    24019    24061    24085 
   24093    24088    24102    24152    24194    24208    24225    24233 
   24178    24096    24051    24039    24052    24092    24077    23996 
   23965    24009    24039    24040    24031    23977    23926    23953 
   23984    23970    23967    23947    23872    23853    23927    23974 
   23977    24001    24009    23969    23944    23946    23934    23940 
   23977    24000    24016    24039    24004    23917    23881    23901 
   23866    23781    23745    23741    23742    23791    23836    23784 
   23723    23769    23866    23957    24043    24065    24023    24024 
   24093    24139    24143    24132    24117    24128    24166    24174 
   24158    24171    24183    24143    24069    23994    23963    24025 
   24088    24016    23904    23886    23907    23915    23927    23904 
   23851    23863    23957    24052    24109    24119    24081    24043 
   24050    24066    24065    24079    24123    24138    24111    24102 
   24150    24179    24135    24069    24046    24073    24148    24244 
   24273    24189    24061    23950    23878    23854    23854    23828 
   23795    23816    23866    23876    23865    23869    23903    24015 
   24173    24244    24205    24140    24084    24042    24021    23993 
   23943    23900    23863    23831    23826    23839    23851    23878 
   23909    23901    23884    23909    23957    24004    24055    24074 
   24046    24023    24013    24003    24024    24066    24073    24075 
   24109    24124    24117    24165    24241    24244    24158    24046 
   23955    23916    23930    23942    23912    23888    23904    23913 
   23923    23992    24067    24073    24092    24178    24227    24206 
   24204    24193    24111    24032    24001    23946    23896    23919 
   23926    23869    23880    23985    24044    24051    24108    24185 
   24193    24147    24084    23985    23877    23807    23750    23733 
   23839    23993    24048    24047    24048    23986    23893    23912 
   23993    23988    23961    23980    23951    23923    24044    24198 
   24233    24248    24264    24178    24085    24088    24057    23963 
   23958    24004    23977    23989    24108    24146    24054    23980 
   23916    23828    23832    23932    23977    23966    23988    23992 
   23943    23934    23944    23877    23808    23850    23922    23958 
   24012    24048    23996    23942    23969    23967    23893    23857 
   23895    23928    23936    23971    24046    24112    24146    24142 
   24100    24046    24024    24047    24062    24019    23942    23908 
   23944    23997    23992    23950    23953    23998    24028    24078 
   24183    24247    24227    24197    24174    24147    24166    24182 
   24085    23935    23903    23944    23913    23877    23938    24028 
   24115    24205    24198    24112    24135    24246    24262    24225 
   24243    24233    24178    24192    24224    24154    24062    24058 
   24069    24017    23967    23970    23971    23947    23950    23992 
   23989    23900    23801    23733    23676    23687    23785    23858 
   23872    23928    24036    24104    24115    24067    23954    23877 
   23936    24058    24129    24146    24132    24113    24120    24138 
   24147    24146    24085    23946    23835    23845    23908    23944 
   23986    24034    24013    23938    23889    23886    23904    23935 
   23943    23874    23799    23822    23928    24048    24144    24158 
   24055    23924    23855    23805    23754    23761    23808    23884 
   24016    24121    24094    24062    24162    24282    24309    24294 
   24255    24154    24031    23924    23847    23846    23890    23890 
   23893    23961    23988    23919    23874    23917    23994    24067 
   24123    24142    24128    24084    24017    23957    23908    23873 
   23885    23950    24020    24054    24031    23953    23878    23863 
   23862    23849    23893    24011    24119    24178    24227    24268 
   24268    24237    24202    24162    24144    24174    24223    24246 
   24200    24062    23900    23788    23738    23755    23823    23853 
   23818    23820    23900    23998    24112    24221    24208    24098 
   24067    24117    24139    24151    24178    24158    24106    24097 
   24092    24023    23944    23912    23882    23847    23859    23877 
   23863    23909    24017    24052    24039    24071    24077    24027 
   24066    24182    24189    24109    24079    24025    23893    23845 
   23928    23982    23967    23977    23981    23931    23851    23731 
   23606    23611    23718    23755    23757    23822    23845    23784 
   23838    24042    24182    24205    24250    24316    24309    24263 
   24233    24212    24190    24148    24085    24075    24160    24244 
   24233    24139    24019    23936    23935    23978    23998    24019 
   24063    24073    24030    24011    23990    23881    23769    23761 
   23760    23710    23731    23823    23863    23893    23976    24009 
   23966    23947    23922    23826    23774    23839    23903    23939 
   24050    24182    24216    24206    24189    24078    23923    23859 
   23876    23888    23907    23980    24090    24179    24198    24154 
   24096    24063    24105    24227    24314    24254    24117    24043 
   24038    24051    24048    24015    23994    24034    24067    24027 
   23982    23978    23928    23832    23803    23835    23861    23885 
   23930    23973    24004    24031    24025    23969    23904    23904 
   24001    24150    24252    24252    24186    24106    24042    23993 
   23967    23978    24005    24012    24023    24066    24085    24042 
   24000    24007    24020    24035    24104    24198    24221    24186 
   24173    24170    24148    24151    24173    24163    24151    24175 
   24189    24181    24174    24140    24069    24001    23963    23980 
   24011    23977    23900    23868    23908    23984    24050    24098 
   24127    24109    24038    23954    23892    23835    23769    23739 
   23758    23773    23776    23818    23874    23865    23785    23745 
   23826    23950    23981    23939    23911    23905    23926    23992 
   24019    23936    23823    23789    23827    23876    23909    23924 
   23905    23851    23793    23733    23677    23704    23808    23892 
   23930    23970    24024    24069    24090    24078    24042    24038 
   24096    24159    24167    24108    24023    23989    24012    24023 
   24020    24048    24069    24065    24089    24116    24081    24046 
   24061    24058    24023    24034    24075    24074    24062    24113 
   24174    24136    24043    24036    24109    24144    24159    24228 
   24277    24258    24273    24328    24340    24336    24345    24312 
   24255    24246    24244    24219    24177    24079    23965    23955 
   24015    24034    24039    24046    24019    24007    24009    23920 
   23787    23754    23785    23796    23831    23849    23776    23723 
   23782    23828    23789    23770    23826    23863    23818    23724 
   23637    23607    23674    23782    23855    23917    23986    24020 
   24047    24132    24209    24224    24237    24236    24167    24116 
   24139    24104    23978    23924    23974    24008    23992    23950 
   23885    23857    23905    23967    24011    24048    24043    24004 
   23966    23869    23726    23677    23730    23758    23764    23834 
   23976    24140    24275    24329    24306    24248    24187    24121 
   24039    23966    23934    23942    23986    24046    24051    23989 
   23942    23958    23992    24019    24030    23980    23900    23886 
   23919    23916    23885    23859    23863    23919    23986    23978 
   23903    23869    23890    23896    23904    23958    24021    24062 
   24117    24187    24235    24270    24289    24224    24096    24020 
   24042    24086    24132    24231    24360    24433    24433    24386 
   24263    24084    23950    23907    23928    24015    24146    24251 
   24264    24183    24088    24039    23992    23908    23863    23901 
   23946    23940    23888    23784    23654    23562    23534    23552 
   23611    23722    23849    23934    23970    23993    24024    24065 
   24102    24146    24194    24200    24171    24171    24202    24212 
   24175    24109    24057    24071    24140    24162    24085    23982 
   23905    23857    23869    23930    23962    23957    23982    24030 
   24020    23961    23912    23861    23800    23804    23863    23868 
   23846    23892    23908    23819    23760    23776    23787    23834 
   23957    24035    24032    24063    24124    24136    24150    24182 
   24189    24219    24289    24259    24124    24054    24062    24021 
   23970    24012    24067    24043    24009    24034    24079    24121 
   24155    24179    24208    24243    24264    24235    24155    24094 
   24084    24070    24017    23961    23915    23869    23886    23976 
   24016    23990    24007    24081    24146    24181    24192    24177 
   24171    24209    24241    24214    24146    24069    24005    23994 
   24035    24050    24003    23942    23904    23890    23915    23963 
   23954    23859    23796    23827    23873    23903    23962    24031 
   24054    24038    24004    23976    23997    24027    23971    23874 
   23819    23785    23757    23796    23908    24027    24105    24127 
   24077    23990    23951    23978    24013    24048    24108    24163 
   24190    24210    24209    24163    24101    24035    23962    23893 
   23832    23796    23828    23904    23934    23908    23880    23863 
   23874    23930    23984    24008    24051    24121    24163    24162 
   24140    24101    24090    24151    24227    24258    24271    24268 
   24200    24081    23982    23922    23872    23838    23838    23841 
   23826    23835    23880    23916    23926    23916    23919    23969 
   24052    24124    24174    24202    24189    24171    24192    24197 
   24125    24051    24061    24094    24097    24108    24125    24102 
   24081    24104    24129    24121    24082    23996    23886    23850 
   23886    23930    23982    24027    24019    23980    23934    23855 
   23768    23750    23781    23787    23801    23843    23831    23776 
   23788    23857    23890    23892    23899    23889    23873    23911 
   24007    24062    24054    24057    24071    24039    23993    23958 
   23885    23814    23830    23880    23878    23882    23951    24016 
   24039    24101    24210    24259    24201    24100    24044    24071 
   24136    24192    24243    24273    24246    24179    24123    24081 
   24025    23958    23909    23888    23877    23865    23845    23812 
   23812    23882    23989    24071    24108    24109    24088    24070 
   24093    24159    24219    24216    24147    24098    24127    24177 
   24160    24074    23990    23942    23900    23876    23885    23884 
   23866    23853    23812    23727    23673    23724    23827    23874 
   23890    23953    24013    23998    23969    23990    24007    23988 
   24000    24054    24090    24101    24084    23994    23900    23909 
   23961    23957    23993    24115    24198    24224    24289    24359 
   24345    24312    24300    24229    24123    24059    23980    23849 
   23765    23726    23653    23627    23704    23753    23749    23801 
   23858    23818    23762    23751    23720    23724    23857    24001 
   24074    24150    24216    24201    24183    24212    24171    24069 
   24051    24093    24104    24112    24100    24043    24047    24132 
   24170    24160    24171    24120    24013    23996    24023    23971 
   23919    23917    23878    23853    23944    24038    24042    24062 
   24102    24062    24012    24050    24092    24082    24098    24133 
   24123    24101    24115    24117    24082    24039    24004    23990 
   24001    24016    24034    24077    24156    24223    24240    24236 
   24214    24146    24048    23970    23919    23908    23957    24015 
   24024    24003    23967    23920    23888    23889    23888    23886 
   23917    23944    23928    23916    23916    23895    23884    23935 
   24021    24096    24125    24111    24096    24117    24139    24138 
   24152    24177    24169    24138    24078    23974    23899    23892 
   23869    23818    23822    23865    23904    23971    24028    23976 
   23863    23808    23788    23743    23734    23795    23861    23885 
   23901    23939    23961    23927    23889    23915    23971    24005 
   24015    24001    23966    23911    23851    23823    23845    23922 
   24044    24151    24200    24236    24283    24329    24389    24444 
   24447    24409    24348    24262    24187    24140    24065    23971 
   23924    23908    23884    23893    23961    24005    23977    23955 
   23996    24048    24081    24106    24123    24113    24098    24071 
   24000    23919    23908    23934    23923    23920    23973    24008 
   23976    23938    23949    24011    24097    24147    24133    24092 
   24036    23967    23939    23985    24009    23939    23868    23880 
   23912    23939    23996    24036    24007    23965    23959    23935 
   23872    23831    23855    23917    23959    23953    23916    23899 
   23908    23939    24008    24104    24179    24214    24231    24224 
   24183    24158    24174    24171    24146    24174    24223    24193 
   24129    24101    24047    23926    23834    23845    23889    23917 
   23961    24009    24023    24025    24042    24030    23944    23827 
   23754    23739    23737    23724    23701    23687    23706    23751 
   23789    23836    23936    24052    24101    24081    24034    23988 
   23981    24034    24082    24092    24115    24163    24201    24225 
   24225    24181    24142    24135    24112    24084    24075    24036 
   23962    23928    23912    23853    23812    23814    23781    23747 
   23795    23861    23892    23951    24015    23996    23963    23982 
