Origin Time       2025/06/03 22:18:00
Lat.              41.7
Long.             143.6
Depth. (km)       30
Mag.              5.2
Station Code      KSRH06
Station Lat.      43.2200
Station Long.     144.4285
Station Height(m) 30
Record Time       2025/06/03 22:19:13
Sampling Freq(Hz) 100Hz
Duration Time(s)  120
Dir.              4
Scale Factor      7845(gal)/8223790
Max. Acc. (gal)   1.090
Last Correction   2025/06/03 22:19:14
Memo.             
[...]
  -11394   -11237   -11092   -11003   -11013   -11121   -11279   -11430 
  -11529   -11545   -11452   -11263   -11043   -10866   -10797   -10876 
  -11075   -11299   -11461   -11480   -11319   -11051   -10790   -10590 
  -10474   -10498   -10705   -11033   -11338   -11510   -11533   -11437 
  -11271   -11113   -11020   -10998   -11006   -11016   -11025   -11024 
  -11009   -10984   -10953   -10939   -10968   -11055   -11165   -11252 
  -11325   -11396   -11452   -11497   -11554   -11599   -11585   -11489 
  -11330   -11169   -11065   -11034   -11065   -11133   -11209   -11276 
  -11315   -11331   -11357   -11411   -11479   -11510   -11468   -11373 
  -11271   -11183   -11119   -11092   -11126   -11221   -11341   -11456 
  -11535   -11546   -11470   -11333   -11178   -11002   -10793   -10608 
  -10565   -10732   -11059   -11396   -11589   -11589   -11468   -11283 
  -11051   -10827   -10710   -10762   -10957   -11200   -11414   -11576 
  -11651   -11588   -11384   -11111   -10872   -10723   -10670   -10739 
  -10945   -11225   -11470   -11619   -11645   -11547   -11371   -11161 
  -10955   -10806   -10774   -10859   -10994   -11107   -11200   -11313 
  -11425   -11473   -11441   -11369   -11300   -11260   -11256   -11242 
  -11173   -11079   -11018   -10994   -10993   -11029   -11102   -11148 
  -11136   -11091   -11048   -11016   -10986   -10963   -10987   -11063 
  -11180   -11348   -11530   -11634   -11593   -11416   -11184   -10990 
  -10864   -10812   -10852   -10989   -11192   -11423   -11620   -11705 
  -11620   -11372   -11043   -10750   -10574   -10513   -10532   -10654 
  -10903   -11214   -11470   -11603   -11623   -11577   -11487   -11372 
  -11264   -11169   -11079   -11007   -11007   -11105   -11240   -11341 
  -11399   -11434   -11437   -11394   -11314   -11227   -11161   -11140 
  -11171   -11222   -11250   -11246   -11234   -11244   -11277   -11331 
  -11395   -11426   -11391   -11295   -11148   -10955   -10770   -10687 
  -10758   -10952   -11229   -11538   -11745   -11731   -11515   -11168 
  -10762   -10431   -10351   -10586   -11033   -11522   -11904   -12051 
  -11902   -11533   -11106   -10770   -10608   -10642   -10855   -11188 
  -11491   -11620   -11541   -11296   -10991   -10762   -10694   -10802 
  -11032   -11271   -11431   -11489   -11445   -11326   -11176   -11032 
  -10959   -11034   -11240   -11469   -11626   -11677   -11627   -11481 
  -11242   -10945   -10679   -10538   -10550   -10687   -10917   -11188 
  -11399   -11473   -11416   -11279   -11126   -11002   -10903   -10872 
  -10991   -11241   -11479   -11610   -11655   -11627   -11483   -11252 
  -11053   -10939   -10893   -10929   -11055   -11248   -11456   -11597 
  -11601   -11489   -11353   -11259   -11213   -11190   -11169   -11142 
  -11102   -11055   -11018   -10987   -10967   -10982   -11017   -11044 
  -11067   -11097   -11130   -11168   -11230   -11331   -11438   -11503 
  -11518   -11469   -11349   -11205   -11055   -10876   -10705   -10604 
  -10617   -10760   -10995   -11260   -11542   -11816   -11986   -11947 
  -11678   -11260   -10849   -10567   -10474   -10600   -10920   -11337 
  -11734   -12015   -12116   -12013   -11692   -11194   -10651   -10251 
  -10139   -10336   -10748   -11210   -11566   -11762   -11794   -11623 
  -11252   -10817   -10496   -10404   -10552   -10870   -11240   -11538 
  -11695   -11695   -11553   -11308   -11056   -10899   -10866   -10908 
  -10982   -11068   -11146   -11207   -11253   -11286   -11337   -11430 
  -11526   -11568   -11569   -11551   -11477   -11313   -11099   -10935 
  -10901   -10991   -11130   -11254   -11348   -11426   -11480   -11468 
  -11379   -11252   -11119   -10989   -10874   -10810   -10831   -10949 
  -11142   -11350   -11514   -11605   -11601   -11481   -11269   -11055 
  -10929   -10914   -10978   -11094   -11244   -11356   -11315   -11119 
  -10917   -10856   -10960   -11152   -11356   -11522   -11578   -11458 
  -11196   -10939   -10800   -10791   -10912   -11159   -11466   -11701 
  -11757   -11610   -11300   -10909   -10584   -10484   -10647   -10987 
  -11398   -11757   -11929   -11844   -11529   -11115   -10774   -10577 
  -10493   -10523   -10716   -11057   -11418   -11655   -11693   -11549 
  -11308   -11057   -10828   -10669   -10650   -10783   -11011   -11263 
  -11483   -11611   -11568   -11340   -11057   -10867   -10820   -10913 
  -11113   -11354   -11561   -11639   -11539   -11302   -11017   -10766 
  -10600   -10532   -10581   -10785   -11129   -11485   -11666   -11616 
  -11450   -11292   -11192   -11152   -11169   -11237   -11325   -11372 
  -11329   -11191   -11025   -10926   -10947   -11070   -11280   -11569 
  -11828   -11881   -11643   -11207   -10766   -10498   -10490   -10735 
  -11156   -11631   -12017   -12202   -12166   -11936   -11524   -10987 
  -10535   -10395   -10611   -11020   -11408   -11668   -11761   -11639 
  -11291   -10831   -10465   -10357   -10528   -10909   -11406   -11881 
  -12140   -12055   -11659   -11115   -10615   -10322   -10315   -10551 
  -10930   -11357   -11716   -11870   -11755   -11431   -11048   -10756 
  -10629   -10689   -10928   -11269   -11554   -11654   -11570   -11399 
  -11209   -11052   -10978   -10994   -11095   -11257   -11406   -11464 
  -11453   -11496   -11641   -11781   -11807   -11735   -11593   -11345 
  -10997   -10667   -10467   -10422   -10524   -10747   -11001   -11179 
  -11244   -11211   -11105   -10939   -10783   -10728   -10794   -10948 
  -11165   -11399   -11545   -11533   -11411   -11260   -11122   -11045 
  -11078   -11213   -11404   -11580   -11639   -11527   -11290   -11013 
  -10751   -10542   -10449   -10511   -10686   -10891   -11064   -11172 
  -11233   -11291   -11369   -11477   -11604   -11742   -11873   -11943 
  -11884   -11666   -11334   -10989   -10732   -10631   -10686   -10833 
  -10990   -11121   -11205   -11218   -11145   -11014   -10903   -10921 
  -11105   -11354   -11515   -11522   -11398   -11183   -10922   -10705 
  -10647   -10795   -11114   -11545   -11993   -12287   -12263   -11888 
  -11290   -10694   -10284   -10154   -10331   -10758   -11310   -11831 
  -12140   -12112   -11780   -11304   -10874   -10623   -10620   -10856 
  -11223   -11580   -11789   -11747   -11479   -11128   -10818   -10593 
  -10503   -10648   -11018   -11427   -11727   -11886   -11885   -11719 
  -11448   -11155   -10920   -10854   -11024   -11338   -11607   -11716 
  -11666   -11469   -11128   -10706   -10370   -10266   -10417   -10752 
  -11141   -11434   -11543   -11470   -11253   -10975   -10750   -10656 
  -10737   -10989   -11331   -11653   -11830   -11766   -11465   -11037 
  -10617   -10346   -10343   -10631   -11075   -11476   -11712   -11780 
  -11682   -11406   -11025   -10755   -10771   -11060   -11443   -11728 
  -11821   -11700   -11380   -10967   -10628   -10485   -10570   -10854 
  -11290   -11777   -12154   -12283   -12131   -11777   -11365   -11009 
  -10791   -10770   -10932   -11182   -11425   -11597   -11646   -11531 
  -11272   -10975   -10779   -10746   -10831   -10956   -11091   -11227 
  -11318   -11303   -11202   -11071   -10953   -10883   -10885   -10962 
  -11097   -11238   -11317   -11283   -11130   -10926   -10804   -10839 
  -11011   -11273   -11541   -11699   -11700   -11578   -11388   -11178 
  -11011   -10971   -11099   -11335   -11514   -11502   -11311   -11045 
  -10810   -10692   -10727   -10918   -11237   -11573   -11746   -11651 
  -11373   -11080   -10866   -10744   -10739   -10891   -11190   -11527 
  -11738   -11715   -11489   -11202   -10964   -10812   -10767   -10860 
  -11056   -11237   -11271   -11132   -10903   -10689   -10557   -10562 
  -10748   -11083   -11480   -11832   -12015   -11929   -11608   -11176 
  -10762   -10459   -10353   -10497   -10847   -11275   -11654   -11866 
  -11830   -11572   -11206   -10860   -10659   -10674   -10864   -11122 
  -11353   -11468   -11392   -11140   -10836   -10632   -10613   -10795 
  -11134   -11538   -11859   -11971   -11853   -11568   -11199   -10870 
  -10698   -10713   -10898   -11200   -11499   -11658   -11611   -11387 
  -11107   -10918   -10898   -11037   -11272   -11524   -11719   -11796 
  -11746   -11580   -11333   -11109   -11028   -11122   -11287   -11383 
  -11369   -11290   -11164   -10995   -10840   -10786   -10875   -11083 
  -11353   -11596   -11724   -11685   -11508   -11241   -10912   -10596 
  -10446   -10550   -10852   -11225   -11553   -11763   -11824   -11708 
  -11431   -11075   -10748   -10554   -10547   -10724   -11036   -11375 
  -11608   -11661   -11556   -11385   -11221   -11074   -10964   -10932 
  -10984   -11088   -11196   -11283   -11335   -11334   -11288   -11219 
  -11110   -10976   -10883   -10839   -10785   -10717   -10729   -10875 
  -11065   -11176   -11187   -11141   -11037   -10867   -10698   -10616 
  -10636   -10756   -10991   -11331   -11712   -11996   -12056   -11889 
  -11570   -11186   -10854   -10669   -10646   -10770   -11013   -11276 
  -11439   -11487   -11460   -11367   -11223   -11103   -11110   -11286 
  -11529   -11691   -11712   -11611   -11426   -11217   -11036   -10922 
  -10930   -11090   -11348   -11595   -11765   -11839   -11789   -11611 
  -11392   -11275   -11304   -11391   -11437   -11411   -11322   -11172 
  -10974   -10785   -10681   -10678   -10731   -10813   -10933   -11090 
  -11240   -11302   -11246   -11146   -11091   -11072   -11061   -11067 
  -11092   -11118   -11133   -11128   -11082   -10987   -10870   -10782 
  -10770   -10841   -10971   -11129   -11276   -11367   -11361   -11260 
  -11121   -11021   -11017   -11125   -11318   -11556   -11773   -11905 
  -11905   -11747   -11448   -11084   -10756   -10555   -10546   -10713 
  -10964   -11210   -11410   -11539   -11560   -11450   -11233   -10989 
  -10831   -10816   -10909   -11037   -11151   -11219   -11238   -11227 
  -11236   -11303   -11448   -11628   -11734   -11651   -11380   -11016 
  -10665   -10408   -10328   -10478   -10836   -11302   -11738   -12013 
  -12047   -11826   -11404   -10902   -10482   -10284   -10342   -10586 
  -10928   -11306   -11658   -11905   -11982   -11880   -11645   -11342 
  -11053   -10858   -10808   -10879   -11005   -11144   -11268   -11323 
  -11284   -11203   -11126   -11052   -11010   -11051   -11167   -11306 
  -11427   -11493   -11470   -11373   -11244   -11117   -11021   -11002 
  -11065   -11163   -11271   -11418   -11596   -11718   -11708   -11587 
  -11434   -11288   -11134   -11007   -10978   -11057   -11188   -11298 
  -11349   -11314   -11187   -10997   -10802   -10696   -10774   -11028 
  -11341   -11626   -11842   -11913   -11747   -11383   -10989   -10710 
  -10579   -10584   -10744   -11076   -11468   -11731   -11763   -11603 
  -11318   -10952   -10593   -10370   -10376   -10631   -11051   -11492 
  -11848   -12047   -12028   -11804   -11461   -11144   -10970   -10959 
  -11071   -11269   -11496   -11676   -11730   -11619   -11394   -11128 
  -10879   -10701   -10651   -10758   -10993   -11248   -11411   -11442 
  -11371   -11269   -11172   -11056   -10913   -10789   -10751   -10814 
  -10921   -11020   -11107   -11198   -11286   -11346   -11345   -11279 
  -11186   -11103   -11024   -10928   -10851   -10829   -10836   -10816 
  -10783   -10812   -10912   -11009   -11084   -11169   -11227   -11209 
  -11145   -11111   -11122   -11159   -11219   -11300   -11365   -11381 
  -11345   -11272   -11214   -11211   -11252   -11287   -11310   -11362 
  -11433   -11446   -11391   -11337   -11322   -11330   -11349   -11383 
  -11442   -11504   -11516   -11462   -11384   -11317   -11263   -11215 
  -11202   -11267   -11415   -11573   -11650   -11599   -11427   -11183 
  -10953   -10824   -10821   -10897   -10990   -11094   -11209   -11303 
  -11323   -11237   -11055   -10844   -10685   -10638   -10724   -10916 
  -11136   -11300   -11371   -11356   -11291   -11211   -11124   -11049 
  -11057   -11172   -11321   -11406   -11388   -11261   -11038   -10801 
  -10655   -10648   -10775   -10997   -11246   -11450   -11537   -11484 
  -11317   -11068   -10800   -10612   -10569   -10655   -10820   -11037 
  -11288   -11515   -11628   -11584   -11422   -11213   -10982   -10758 
  -10606   -10600   -10762   -11044   -11353   -11600   -11736   -11761 
  -11691   -11543   -11356   -11213   -11195   -11291   -11431   -11551 
  -11618   -11620   -11556   -11425   -11254   -11092   -10991   -10998 
  -11102   -11232   -11330   -11377   -11356   -11260   -11133   -11036 
  -10994   -11018   -11097   -11191   -11275   -11326   -11330   -11286 
  -11214   -11130   -11068   -11079   -11163   -11263   -11360   -11452 
  -11512   -11516   -11439   -11275   -11086   -10976   -10984   -11074 
  -11186   -11281   -11352   -11379   -11330   -11190   -10986   -10786 
  -10642   -10578   -10639   -10821   -11071   -11333   -11541   -11639 
  -11624   -11527   -11371   -11179   -11007   -10937   -10993   -11122 
  -11256   -11348   -11353   -11246   -11061   -10875   -10760   -10747 
  -10839   -11022   -11280   -11541   -11707   -11722   -11603   -11387 
  -11126   -10901   -10785   -10828   -11045   -11394   -11753   -11990 
  -12036   -11897   -11616   -11273   -10952   -10728   -10663   -10778 
  -11020   -11291   -11510   -11645   -11699   -11689   -11631   -11531 
  -11399   -11253   -11117   -11005   -10949   -10989   -11107   -11248 
  -11354   -11380   -11276   -11043   -10751   -10493   -10332   -10324 
  -10511   -10854   -11242   -11569   -11761   -11773   -11580   -11223 
  -10832   -10546   -10451   -10573   -10862   -11218   -11515   -11643 
  -11541   -11207   -10732   -10289   -10046   -10062   -10307   -10724 
  -11217   -11649   -11902   -11934   -11753   -11426   -11072   -10810 
  -10698   -10741   -10929   -11202   -11446   -11576   -11583   -11504 
  -11391   -11295   -11268   -11322   -11423   -11512   -11541   -11507 
  -11434   -11369   -11364   -11423   -11508   -11580   -11601   -11531 
  -11349   -11102   -10898   -10829   -10903   -11084   -11325   -11550 
  -11669   -11618   -11403   -11098   -10802   -10605   -10544   -10606 
  -10756   -10917   -11017   -11025   -10933   -10759   -10579   -10500 
  -10566   -10737   -10944   -11142   -11315   -11433   -11465   -11411 
  -11303   -11199   -11144   -11122   -11114   -11110   -11097   -11084 
  -11098   -11121   -11117   -11097   -11086   -11087   -11099   -11119 
  -11157   -11230   -11333   -11445   -11546   -11605   -11601   -11557 
  -11510   -11483   -11470   -11454   -11423   -11385   -11362   -11367 
  -11383   -11394   -11376   -11307   -11172   -10999   -10840   -10746 
  -10762   -10886   -11079   -11277   -11395   -11372   -11214   -10963 
  -10690   -10511   -10515   -10700   -10991   -11315   -11611   -11786 
  -11750   -11507   -11165   -10845   -10633   -10613   -10814   -11164 
  -11526   -11786   -11884   -11805   -11593   -11340   -11140   -11048 
  -11080   -11205   -11342   -11412   -11387   -11296   -11178   -11074 
  -11047   -11121   -11271   -11450   -11614   -11735   -11780   -11716 
  -11562   -11373   -11209   -11121   -11122   -11183   -11276   -11379 
  -11439   -11407   -11280   -11110   -10953   -10852   -10843   -10948 
  -11130   -11299   -11396   -11414   -11364   -11260   -11119   -10975 
  -10872   -10840   -10874   -10940   -11016   -11115   -11222   -11279 
  -11268   -11229   -11203   -11194   -11173   -11146   -11171   -11279 
  -11422   -11524   -11560   -11537   -11475   -11377   -11257   -11133 
  -11022   -10962   -10970   -11020   -11082   -11146   -11205   -11244 
  -11276   -11302   -11311   -11286   -11237   -11187   -11134   -11078 
  -11038   -11033   -11052   -11087   -11148   -11200   -11168   -11036 
  -10870   -10739   -10655   -10611   -10624   -10717   -10844   -10916 
  -10901   -10863   -10862   -10901   -10964   -11033   -11084   -11083 
  -11002   -10852   -10708   -10654   -10735   -10944   -11237   -11549 
  -11792   -11881   -11793   -11578   -11329   -11144   -11097   -11207 
  -11443   -11740   -12036   -12247   -12290   -12143   -11881   -11607 
  -11369   -11187   -11099   -11138   -11275   -11433   -11557   -11616 
  -11585   -11446   -11218   -10966   -10767   -10659   -10647   -10733 
  -10909   -11128   -11299   -11350   -11283   -11136   -10937   -10743 
  -10616   -10588   -10644   -10736   -10795   -10790   -10758   -10744 
  -10762   -10820   -10944   -11117   -11287   -11410   -11469   -11449 
  -11330   -11137   -10935   -10801   -10774   -10829   -10920   -11017 
  -11115   -11214   -11288   -11313   -11294   -11253   -11211   -11188 
  -11180   -11155   -11088   -10995   -10914   -10903   -11005   -11183 
  -11361   -11496   -11562   -11531   -11399   -11211   -11037   -10922 
  -10917   -11068   -11341   -11628   -11834   -11901   -11809   -11597 
  -11346   -11125   -10984   -10949   -11020   -11175   -11373   -11562 
  -11689   -11707   -11614   -11462   -11306   -11194   -11165   -11200 
  -11264   -11335   -11400   -11433   -11433   -11452   -11529   -11634 
  -11716   -11739   -11696   -11612   -11508   -11400   -11327   -11314 
  -11350   -11407   -11458   -11475   -11456   -11421   -11385   -11352 
  -11325   -11306   -11275   -11215   -11132   -11036   -10962   -10928 
  -10924   -10943   -10987   -11049   -11115   -11176   -11203   -11164 
  -11040   -10843   -10648   -10539   -10538   -10625   -10774   -10944 
  -11084   -11155   -11124   -10990   -10789   -10574   -10405   -10322 
  -10350   -10493   -10697   -10876   -10989   -11040   -11038   -10987 
  -10902   -10827   -10812   -10883   -11018   -11160   -11256   -11265 
  -11179   -11049   -10952   -10925   -10970   -11090   -11269   -11448 
  -11553   -11553   -11473   -11360   -11265   -11237   -11298   -11433 
  -11585   -11711   -11781   -11765   -11657   -11496   -11329   -11186 
  -11101   -11078   -11091   -11115   -11142   -11172   -11213   -11287 
  -11396   -11506   -11578   -11611   -11605   -11543   -11404   -11213 
  -11040   -10945   -10936   -11002   -11134   -11280   -11371   -11400 
  -11391   -11350   -11299   -11257   -11244   -11259   -11291   -11321 
  -11321   -11277   -11209   -11148   -11110   -11090   -11065   -11051 
  -11076   -11141   -11221   -11294   -11340   -11330   -11246   -11101 
  -10936   -10800   -10716   -10692   -10727   -10832   -11013   -11206 
  -11329   -11353   -11299   -11196   -11063   -10921   -10822   -10805 
  -10862   -10959   -11057   -11133   -11165   -11151   -11106   -11082 
  -11114   -11191   -11284   -11383   -11479   -11546   -11561   -11516 
  -11453   -11394   -11314   -11205   -11094   -11020   -11002   -11038 
  -11119   -11240   -11356   -11418   -11429   -11422   -11410   -11394 
  -11384   -11403   -11460   -11527   -11583   -11616   -11614   -11568 
  -11487   -11384   -11261   -11125   -10999   -10918   -10906   -10956 
  -11040   -11130   -11196   -11209   -11172   -11118   -11078   -11056 
  -11051   -11082   -11159   -11259   -11352   -11429   -11487   -11527 
  -11545   -11534   -11491   -11430   -11381   -11367   -11385   -11416 
  -11410   -11323   -11151   -10928   -10702   -10513   -10400   -10408 
  -10569   -10845   -11142   -11368   -11479   -11453   -11300   -11086 
  -10887   -10760   -10752   -10872   -11067   -11244   -11341   -11348 
  -11281   -11167   -11052   -11001   -11053   -11200   -11391   -11560 
  -11659   -11665   -11573   -11402   -11199   -11036   -10975   -11034 
  -11160   -11284   -11364   -11391   -11360   -11268   -11137   -11029 
