Origin Time       2025/06/03 22:18:00
Lat.              41.7
Long.             143.6
Depth. (km)       30
Mag.              5.2
Station Code      KSRH05
Station Lat.      43.2556
Station Long.     144.2338
Station Height(m) 114
Record Time       2025/06/03 22:19:21
Sampling Freq(Hz) 100Hz
Duration Time(s)  120
Dir.              5
Scale Factor      7845(gal)/8223790
Max. Acc. (gal)   0.927
Last Correction   2025/06/03 22:19:21
Memo.             
[...]
   10751    10731    10692    10660    10652    10654    10662    10687 
   10728    10762    10767    10733    10673    10635    10627    10628 
   10647    10696    10748    10770    10750    10708    10665    10632 
   10627    10648    10673    10686    10693    10675    10629    10579 
   10559    10579    10612    10633    10647    10654    10658    10674 
   10701    10720    10717    10700    10677    10642    10596    10566 
   10578    10625    10686    10750    10791    10782    10729    10671 
   10643    10651    10670    10692    10724    10754    10754    10724 
   10687    10660    10655    10674    10689    10687    10686    10693 
   10696    10689    10679    10675    10681    10693    10693    10678 
   10663    10660    10667    10674    10667    10663    10681    10709 
   10710    10682    10648    10640    10663    10692    10698    10696 
   10708    10737    10743    10696    10633    10608    10632    10686 
   10733    10758    10771    10768    10723    10639    10558    10530 
   10573    10663    10752    10816    10849    10841    10781    10682 
   10581    10532    10562    10639    10725    10797    10824    10795 
   10733    10656    10574    10513    10521    10600    10693    10751 
   10759    10736    10694    10623    10538    10488    10500    10559 
   10629    10679    10700    10701    10696    10677    10636    10594 
   10589    10623    10678    10741    10805    10844    10825    10743 
   10631    10539    10504    10532    10611    10723    10836    10882 
   10831    10727    10624    10543    10511    10539    10615    10714 
   10798    10824    10777    10692    10619    10588    10606    10681 
   10797    10908    10949    10899    10782    10639    10512    10440 
   10446    10531    10670    10805    10862    10812    10697    10584 
   10508    10494    10557    10681    10812    10885    10851    10724 
   10577    10480    10457    10503    10615    10763    10890    10929 
   10862    10737    10625    10569    10577    10642    10739    10822 
   10840    10779    10677    10573    10493    10470    10530    10658 
   10801    10878    10855    10763    10662    10567    10489    10446 
   10474    10570    10681    10743    10743    10720    10697    10665 
   10638    10651    10700    10739    10739    10712    10675    10638 
   10608    10619    10678    10759    10806    10773    10674    10582 
   10540    10540    10585    10673    10771    10832    10821    10748 
   10662    10606    10589    10598    10643    10736    10829    10858 
   10818    10741    10650    10567    10531    10555    10616    10682 
   10751    10810    10835    10813    10740    10642    10578    10601 
   10683    10758    10786    10787    10783    10758    10690    10608 
   10555    10562    10620    10690    10744    10760    10716    10621 
   10528    10476    10469    10515    10608    10721    10821    10866 
   10822    10721    10624    10569    10562    10590    10638    10685 
   10737    10790    10806    10755    10666    10608    10608    10633 
   10659    10689    10723    10746    10721    10642    10552    10509 
   10521    10577    10659    10732    10763    10739    10678    10616 
   10585    10612    10685    10756    10787    10770    10710    10623 
   10538    10511    10579    10712    10818    10837    10768    10650 
   10527    10436    10420    10509    10681    10848    10920    10878 
   10758    10609    10489    10450    10509    10643    10794    10889 
   10882    10785    10650    10527    10454    10463    10585    10775 
   10930    10974    10905    10771    10611    10446    10318    10299 
   10420    10617    10793    10893    10912    10864    10781    10686 
   10597    10539    10543    10616    10729    10824    10849    10813 
   10758    10697    10625    10565    10554    10612    10714    10793 
   10782    10690    10589    10534    10525    10547    10584    10644 
   10727    10781    10763    10700    10663    10702    10793    10860 
   10852    10793    10733    10700    10694    10721    10775    10833 
   10860    10831    10754    10682    10660    10689    10744    10817 
   10886    10905    10840    10710    10584    10530    10557    10616 
   10670    10716    10754    10766    10729    10655    10585    10562 
   10586    10639    10698    10732    10733    10728    10713    10675 
   10633    10620    10643    10678    10685    10648    10589    10547 
   10559    10623    10693    10732    10735    10720    10696    10666 
   10644    10642    10650    10651    10656    10685    10716    10720 
   10696    10667    10651    10651    10660    10662    10658    10658 
   10660    10662    10665    10674    10704    10767    10835    10840 
   10744    10581    10431    10362    10381    10466    10598    10750 
   10868    10885    10746    10498    10280    10216    10330    10558 
   10822    11059    11191    11149    10917    10593    10316    10181 
   10212    10400    10686    10964    11130    11124    10937    10636 
   10347    10204    10270    10519    10849    11141    11299    11252 
   10999    10656    10378    10260    10323    10516    10759    10974 
   11078    11028    10859    10655    10489    10390    10374    10457 
   10640    10871    11053    11111    11044    10883    10679    10473 
   10291    10187    10228    10415    10665    10878    10994    11016 
   10957    10809    10596    10416    10349    10408    10582    10821 
   11014    11067    10978    10808    10608    10427    10323    10342 
   10467    10647    10832    10956    10953    10827    10639    10453 
   10322    10289    10366    10527    10732    10939    11086    11113 
   11007    10820    10615    10446    10361    10403    10569    10793 
   10984    11053    10941    10692    10435    10284    10277    10400 
   10609    10847    11024    11056    10939    10755    10600    10504 
   10467    10513    10640    10785    10870    10878    10840    10768 
   10669    10567    10507    10511    10571    10652    10720    10743 
   10712    10654    10597    10567    10584    10673    10828    10960 
   10974    10851    10640    10409    10237    10189    10299    10546 
   10847    11088    11163    11033    10777    10517    10347    10319 
   10428    10633    10872    11041    11051    10899    10674    10480 
   10380    10380    10453    10566    10683    10768    10794    10759 
   10685    10609    10581    10621    10706    10795    10856    10862 
   10800    10693    10589    10535    10559    10656    10781    10881 
   10913    10856    10719    10543    10388    10308    10328    10431 
   10571    10681    10712    10667    10573    10485    10461    10523 
   10646    10763    10829    10855    10851    10831    10825    10843 
   10845    10783    10660    10535    10481    10505    10562    10636 
   10737    10821    10813    10704    10571    10515    10565    10667 
   10752    10795    10804    10775    10717    10665    10648    10686 
   10762    10814    10794    10716    10636    10594    10592    10608 
   10635    10675    10719    10760    10806    10845    10876    10905 
   10908    10844    10708    10550    10455    10473    10574    10692 
   10773    10789    10744    10662    10554    10457    10455    10571 
   10750    10912    10982    10912    10741    10557    10428    10392 
   10450    10584    10760    10906    10945    10863    10702    10550 
   10466    10444    10458    10493    10565    10689    10816    10860 
   10814    10747    10710    10694    10662    10601    10546    10520 
   10531    10586    10666    10743    10808    10847    10825    10736 
   10617    10524    10488    10521    10636    10797    10924    10963 
   10901    10762    10582    10408    10296    10307    10454    10689 
   10928    11083    11094    10956    10717    10455    10258    10185 
   10241    10396    10617    10849    11007    11013    10876    10675 
   10481    10365    10376    10508    10725    10960    11124    11159 
   11060    10864    10616    10393    10303    10405    10643    10909 
   11107    11176    11118    10990    10809    10589    10411    10355 
   10427    10555    10669    10719    10698    10651    10620    10620 
   10656    10704    10721    10701    10663    10628    10590    10554 
   10554    10613    10694    10741    10729    10647    10508    10372 
   10305    10316    10382    10505    10669    10814    10868    10822 
   10750    10712    10720    10771    10859    10957    11018    10990 
   10882    10750    10642    10584    10582    10619    10660    10704 
   10741    10747    10697    10598    10482    10409    10417    10501 
   10639    10806    10970    11065    11048    10933    10791    10682 
   10633    10650    10682    10682    10669    10682    10724    10747 
   10713    10625    10512    10419    10390    10454    10597    10779 
   10944    11047    11048    10918    10678    10417    10231    10170 
   10234    10386    10574    10744    10845    10837    10728    10605 
   10563    10601    10660    10724    10801    10870    10897    10864 
   10773    10647    10566    10582    10638    10633    10578    10550 
   10570    10593    10609    10652    10746    10866    10962    10979 
   10890    10732    10588    10513    10504    10528    10569    10623 
   10670    10678    10625    10524    10434    10427    10531    10702 
   10859    10933    10895    10783    10671    10585    10505    10431 
   10424    10534    10713    10858    10895    10828    10708    10592 
   10498    10435    10438    10547    10737    10916    11011    11014 
   10944    10840    10739    10656    10606    10621    10713    10818 
   10862    10822    10719    10561    10393    10301    10342    10507 
   10724    10910    11014    11029    10959    10825    10665    10507 
   10399    10408    10559    10766    10899    10910    10844    10727 
   10559    10403    10342    10401    10534    10681    10783    10794 
   10708    10570    10424    10311    10299    10453    10750    11060 
   11240    11215    10998    10677    10382    10246    10323    10561 
   10856    11130    11319    11348    11161    10805    10428    10181 
   10142    10323    10655    11013    11273    11331    11117    10671 
   10187     9890     9895    10169    10604    11049    11335    11349 
   11079    10621    10149     9860     9886    10208    10677    11087 
   11273    11167    10841    10443    10110     9957    10073    10438 
   10890    11223    11318    11179    10898    10575    10319    10235 
   10357    10616    10918    11169    11272    11171    10918    10636 
   10432    10365    10446    10615    10778    10875    10910    10893 
   10821    10724    10662    10671    10736    10798    10789    10675 
   10501    10368    10338    10392    10503    10677    10882    11018 
   11010    10871    10679    10527    10481    10528    10620    10741 
   10898    11030    11038    10883    10647    10466    10411    10458 
   10557    10671    10764    10785    10692    10505    10322    10249 
   10334    10538    10751    10874    10868    10782    10709    10694 
   10727    10798    10886    10928    10851    10656    10459    10393 
   10493    10693    10901    11049    11082    10972    10767    10571 
   10473    10507    10644    10797    10883    10885    10829    10752 
   10696    10710    10793    10874    10878    10785    10624    10446 
   10323    10322    10449    10620    10727    10712    10608    10486 
   10404    10389    10462    10608    10778    10910    10947    10883 
   10768    10675    10652    10665    10628    10528    10428    10373 
   10354    10359    10420    10552    10706    10812    10829    10768 
   10674    10609    10605    10659    10737    10810    10856    10847 
   10775    10671    10574    10517    10535    10636    10793    10944 
   11044    11056    10963    10808    10670    10586    10546    10538 
   10584    10686    10778    10778    10685    10567    10478    10427 
   10417    10474    10598    10764    10928    11020    10991    10856 
   10654    10439    10304    10304    10432    10656    10935    11186 
   11304    11200    10893    10515    10215    10062    10073    10238 
   10519    10844    11107    11207    11113    10889    10642    10439 
   10292    10220    10257    10385    10558    10735    10852    10852 
   10739    10573    10409    10292    10258    10346    10555    10802 
   10953    10914    10689    10400    10207    10204    10400    10727 
   11071    11319    11357    11134    10746    10382    10203    10243 
   10408    10585    10733    10832    10831    10698    10497    10359 
   10388    10570    10789    10930    10979    10962    10882    10744 
   10581    10438    10362    10380    10466    10557    10642    10771 
   10963    11148    11223    11149    10966    10762    10621    10586 
   10670    10848    11037    11160    11187    11106    10930    10716 
   10532    10428    10432    10521    10631    10721    10783    10809 
   10789    10740    10681    10628    10596    10585    10577    10561 
   10552    10575    10633    10706    10781    10841    10874    10862 
   10802    10719    10629    10570    10563    10590    10611    10616 
   10605    10565    10512    10507    10585    10736    10917    11056 
   11065    10913    10644    10351    10156    10179    10443    10829 
   11165    11317    11213    10872    10422    10046     9915    10111 
   10570    11098    11457    11495    11217    10747    10235     9840 
    9706     9894    10335    10870    11275    11379    11169    10790 
   10411    10134    10026    10164    10540    10989    11300    11365 
   11200    10921    10662    10482    10374    10357    10451    10611 
   10740    10778    10719    10586    10417    10260    10165    10174 
   10303    10528    10773    10976    11151    11288    11329    11227 
   11006    10758    10575    10481    10450    10488    10589    10705 
   10774    10768    10685    10543    10416    10389    10473    10616 
   10768    10910    11013    11033    10956    10818    10679    10601 
   10601    10640    10662    10659    10662    10681    10679    10631 
   10539    10423    10304    10193    10123    10153    10332    10651 
   11010    11260    11302    11157    10918    10647    10390    10219 
   10234    10459    10768    10987    11028    10909    10701    10481 
   10336    10324    10438    10629    10814    10894    10822    10647 
   10496    10477    10594    10770    10935    11038    11032    10897 
   10704    10555    10498    10536    10651    10800    10914    10925 
   10813    10646    10511    10431    10389    10393    10462    10588 
   10741    10895    11024    11090    11049    10887    10655    10469 
   10422    10528    10744    10984    11152    11169    11014    10747 
   10484    10327    10346    10538    10812    11047    11153    11086 
   10874    10620    10432    10372    10450    10627    10835    10989 
   10998    10840    10589    10349    10192    10150    10233    10411 
   10616    10785    10883    10890    10787    10613    10454    10368 
   10373    10467    10608    10729    10785    10775    10739    10696 
   10624    10493    10343    10258    10268    10324    10412    10567 
   10786    10972    11034    10943    10739    10512    10369    10376 
   10521    10746    10986    11190    11267    11124    10777    10377 
   10089     9994    10095    10368    10746    11101    11279    11210 
   10953    10631    10351    10196    10224    10442    10768    11061 
   11196    11136    10941    10719    10542    10454    10488    10639 
   10852    11060    11195    11202    11075    10868    10682    10582 
   10571    10625    10708    10778    10827    10843    10820    10764 
   10702    10681    10721    10791    10831    10822    10793    10751 
   10667    10531    10400    10354    10409    10505    10581    10632 
   10694    10750    10733    10642    10565    10574    10650    10735 
   10790    10790    10720    10612    10516    10462    10455    10488 
   10515    10504    10462    10412    10366    10347    10400    10555 
   10774    10952    11006    10948    10828    10693    10581    10532 
   10579    10710    10863    10974    11007    10952    10816    10650 
   10517    10449    10438    10471    10550    10671    10801    10874 
   10839    10712    10552    10412    10308    10264    10312    10469 
   10692    10899    11003    10984    10890    10768    10628    10492 
   10396    10368    10419    10570    10806    11051    11198    11191 
   11049    10828    10609    10477    10459    10552    10751    11014 
   11232    11281    11137    10902    10712    10635    10660    10748 
   10845    10871    10789    10638    10490    10392    10355    10388 
   10470    10552    10590    10569    10497    10422    10382    10382 
   10382    10368    10395    10492    10600    10662    10689    10708 
   10713    10690    10636    10585    10581    10642    10732    10797 
   10825    10821    10766    10669    10582    10558    10605    10683 
   10752    10810    10852    10836    10755    10667    10625    10619 
   10611    10589    10571    10594    10674    10789    10889    10929 
   10903    10810    10655    10488    10390    10413    10540    10724 
   10893    10978    10940    10782    10550    10319    10172    10177 
   10341    10586    10813    10955    10990    10928    10804    10659 
   10557    10577    10720    10895    11010    11033    10966    10844 
   10729    10687    10751    10897    11064    11169    11144    10963 
   10696    10461    10358    10408    10571    10770    10909    10912 
   10766    10523    10281    10172    10281    10557    10847    11017 
   11024    10897    10704    10501    10346    10293    10376    10551 
   10729    10821    10783    10646    10489    10380    10335    10369 
   10497    10689    10856    10930    10903    10808    10690    10616 
   10628    10709    10805    10879    10894    10816    10663    10482 
   10328    10258    10324    10504    10701    10831    10867    10821 
   10704    10544    10404    10343    10407    10571    10751    10849 
   10839    10762    10675    10594    10536    10548    10625    10708 
   10754    10755    10736    10731    10741    10741    10729    10729 
   10762    10814    10851    10851    10827    10798    10777    10763 
   10768    10809    10885    10962    10997    10955    10828    10650 
   10488    10407    10434    10547    10704    10860    10959    10947 
   10818    10635    10476    10396    10396    10442    10492    10515 
   10519    10524    10548    10596    10659    10720    10748    10696 
   10558    10411    10353    10431    10615    10824    10980    11028 
   10932    10690    10374    10114    10031    10162    10436    10737 
   10960    11034    10951    10770    10578    10454    10465    10628 
   10883    11128    11275    11298    11217    11068    10903    10781 
   10744    10793    10898    11002    11055    11040    10972    10912 
   10898    10918    10936    10935    10901    10810    10674    10527 
   10420    10403    10474    10585    10687    10739    10700    10581 
   10439    10343    10331    10403    10532    10674    10760    10733 
   10611    10466    10357    10308    10339    10449    10606    10756 
   10844    10843    10779    10706    10650    10620    10624    10662 
