Origin Time       2025/06/03 22:18:00
Lat.              41.7
Long.             143.6
Depth. (km)       30
Mag.              5.2
Station Code      KSRH04
Station Lat.      43.2139
Station Long.     144.6804
Station Height(m) 30
Record Time       2025/06/03 22:19:16
Sampling Freq(Hz) 100Hz
Duration Time(s)  120
Dir.              4
Scale Factor      7845(gal)/8223790
Max. Acc. (gal)   0.896
Last Correction   2025/06/03 22:19:17
Memo.             
[...]
    -776     -849     -889     -862     -819     -795     -795     -827 
    -858     -870     -873     -828     -753     -695     -650     -614 
    -596     -635     -735     -814     -857     -899     -896     -853 
    -826     -791     -765     -807     -847     -843     -849     -861 
    -850     -835     -816     -776     -735     -730     -754     -772 
    -785     -838     -905     -903     -820     -726     -665     -650 
    -657     -680     -745     -800     -801     -796     -800     -789 
    -776     -766     -787     -835     -843     -810     -778     -766 
    -780     -814     -843     -859     -842     -797     -768     -765 
    -764     -784     -822     -832     -834     -847     -847     -839 
    -835     -820     -800     -780     -751     -729     -737     -777 
    -823     -858     -853     -784     -706     -684     -683     -684 
    -718     -777     -826     -854     -861     -859     -859     -868 
    -857     -811     -770     -756     -746     -750     -769     -787 
    -791     -764     -729     -730     -742     -718     -696     -742 
    -830     -912     -974     -977     -901     -799     -724     -707 
    -743     -770     -764     -766     -781     -785     -777     -770 
    -783     -815     -838     -820     -768     -731     -738     -729 
    -706     -734     -765     -743     -757     -823     -845     -814 
    -776     -780     -850     -893     -855     -822     -808     -776 
    -746     -735     -734     -745     -766     -787     -791     -812 
    -857     -851     -803     -769     -765     -783     -811     -820 
    -785     -727     -708     -733     -772     -820     -841     -819 
    -784     -722     -656     -668     -723     -735     -751     -807 
    -826     -815     -824     -820     -795     -795     -804     -793 
    -793     -826     -838     -785     -730     -723     -746     -774 
    -800     -820     -839     -869     -874     -834     -811     -787 
    -708     -669     -710     -761     -818     -854     -834     -822 
    -814     -778     -774     -781     -780     -792     -785     -785 
    -799     -770     -749     -772     -785     -773     -750     -754 
    -797     -823     -805     -764     -742     -781     -837     -864 
    -876     -886     -893     -876     -815     -723     -656     -661 
    -722     -784     -831     -872     -892     -878     -826     -735 
    -668     -648     -637     -616     -626     -702     -799     -843 
    -870     -893     -853     -787     -770     -780     -815     -872 
    -873     -822     -778     -729     -684     -689     -710     -724 
    -760     -788     -770     -749     -783     -832     -832     -789 
    -731     -675     -656     -669     -673     -708     -797     -865 
    -877     -862     -824     -784     -772     -758     -735     -741 
    -776     -807     -827     -826     -827     -870     -897     -866 
    -846     -859     -866     -846     -792     -743     -747     -792 
    -828     -834     -828     -812     -751     -677     -657     -680 
    -712     -765     -827     -854     -859     -858     -832     -801 
    -797     -784     -726     -679     -680     -683     -704     -791 
    -859     -865     -880     -882     -828     -781     -795     -854 
    -905     -893     -851     -810     -778     -787     -799     -800 
    -830     -845     -828     -832     -837     -820     -800     -758 
    -700     -669     -672     -716     -815     -893     -886     -849 
    -832     -803     -770     -768     -758     -733     -719     -700 
    -716     -814     -905     -931     -922     -877     -803     -727 
    -670     -660     -703     -773     -842     -886     -908     -892 
    -807     -739     -735     -712     -685     -702     -704     -685 
    -716     -766     -778     -784     -815     -834     -818     -774 
    -720     -700     -730     -797     -858     -865     -847     -826 
    -772     -710     -664     -653     -692     -722     -703     -669 
    -650     -689     -789     -882     -966    -1039    -1021     -926 
    -824     -718     -606     -534     -535     -635     -801     -938 
   -1004    -1007     -945     -823     -687     -618     -666     -780 
    -882     -905     -858     -820     -774     -710     -685     -684 
    -683     -700     -731     -757     -766     -754     -729     -712 
    -730     -760     -762     -793     -888     -969    -1000    -1020 
   -1015     -965     -899     -843     -801     -770     -753     -750 
    -762     -772     -760     -766     -811     -818     -760     -703 
    -688     -697     -699     -664     -635     -666     -708     -707 
    -718     -783     -858     -891     -882     -864     -810     -743 
    -707     -649     -598     -645     -718     -747     -795     -850 
    -847     -823     -804     -796     -834     -893     -932     -977 
    -984     -896     -824     -855     -895     -872     -818     -756 
    -699     -672     -680     -720     -787     -857     -897     -884 
    -861     -855     -800     -734     -747     -787     -788     -774 
    -751     -737     -747     -738     -729     -792     -847     -795 
    -707     -662     -672     -719     -766     -804     -828     -812 
    -774     -773     -810     -824     -789     -772     -810     -851 
    -845     -800     -768     -734     -672     -648     -688     -739 
    -808     -905     -955     -926     -861     -785     -718     -668 
    -638     -677     -797     -899     -888     -828     -820     -827 
    -791     -731     -684     -657     -664     -735     -853     -955 
   -1023    -1032     -957     -843     -747     -685     -662     -672 
    -712     -753     -747     -711     -720     -814     -892     -839 
    -746     -741     -754     -738     -745     -780     -822     -859 
    -891     -936     -965     -949     -940     -931     -878     -819 
    -781     -758     -749     -734     -714     -733     -788     -823 
    -814     -784     -757     -731     -716     -746     -793     -815 
    -822     -823     -822     -800     -738     -704     -733     -746 
    -706     -673     -685     -683     -677     -742     -823     -857 
    -877     -881     -847     -811     -815     -842     -846     -811 
    -762     -726     -712     -714     -726     -770     -830     -823 
    -743     -677     -650     -629     -649     -715     -739     -730 
    -761     -788     -777     -776     -772     -738     -700     -676 
    -669     -666     -652     -645     -666     -710     -745     -733 
    -685     -661     -688     -735     -801     -893     -966     -965 
    -886     -791     -750     -765     -783     -793     -859     -974 
   -1038    -1023     -984     -957     -912     -826     -772     -774 
    -787     -818     -865     -882     -864     -822     -773     -754 
    -774     -801     -778     -685     -575     -548     -622     -696 
    -738     -762     -747     -742     -796     -831     -810     -792 
    -807     -818     -787     -756     -811     -911     -951     -957 
    -963     -922     -837     -746     -679     -672     -697     -697 
    -720     -777     -796     -811     -854     -869     -872     -903 
    -905     -850     -784     -730     -687     -675     -711     -785 
    -843     -847     -828     -799     -756     -697     -623     -608 
    -699     -778     -783     -777     -758     -722     -718     -700 
    -648     -619     -585     -554     -585     -643     -722     -818 
    -870     -909     -974     -994     -954     -915     -900     -866 
    -803     -743     -700     -680     -693     -746     -827     -847 
    -781     -718     -687     -675     -711     -778     -842     -895 
    -934     -962     -942     -862     -789     -795     -858     -912 
    -949    -1003    -1048    -1058    -1054    -1053    -1031     -992 
    -977     -981     -977     -963     -895     -768     -656     -562 
    -492     -504     -561     -575     -568     -603     -665     -724 
    -784     -830     -824     -760     -679     -646     -680     -758 
    -854     -909     -874     -793     -735     -710     -727     -816 
    -889     -884     -909     -996    -1024     -953     -834     -711 
    -602     -522     -503     -542     -592     -623     -645     -664 
    -681     -731     -845     -978    -1035     -969     -849     -772 
    -758     -807     -903     -982    -1007    -1007     -982     -858 
    -681     -589     -577     -608     -706     -841     -962    -1012 
    -935     -792     -666     -540     -441     -432     -481     -591 
    -754     -885     -928     -919     -926     -993    -1081    -1123 
   -1107    -1028     -843     -587     -436     -481     -637     -774 
    -822     -796     -762     -762     -819     -924     -985     -930 
    -803     -692     -638     -642     -684     -747     -777     -727 
    -688     -697     -683     -685     -719     -719     -761     -900 
   -1046    -1120    -1113    -1071     -986     -837     -724     -683 
    -642     -660     -729     -716     -684     -722     -762     -776 
    -765     -723     -730     -800     -837     -795     -703     -611 
    -531     -491     -531     -631     -761     -866     -882     -870 
    -893     -908     -919     -950     -928     -810     -685     -664 
    -743     -824     -832     -823     -877     -990    -1098    -1132 
   -1071     -897     -643     -453     -402     -442     -538     -668 
    -795     -855     -793     -669     -564     -479     -425     -429 
    -517     -699     -903    -1071    -1223    -1269    -1142     -947 
    -797     -737     -760     -808     -889     -993    -1017     -977 
    -939     -853     -719     -654     -673     -738     -880    -1058 
   -1177    -1198    -1108     -953     -828     -739     -649     -583 
    -552     -565     -634     -720     -831     -961    -1007     -954 
    -924     -961     -976     -916     -831     -718     -517     -295 
    -153     -102     -156     -330     -587     -846    -1026    -1093 
   -1043     -930     -839     -773     -714     -712     -756     -788 
    -837     -859     -774     -685     -669     -648     -642     -719 
    -795     -791     -756     -733     -696     -656     -661     -706 
    -768     -851     -919     -895     -742     -498     -309     -345 
    -592     -893    -1150    -1278    -1227    -1067     -900     -762 
    -649     -595     -669     -859    -1061    -1174    -1178    -1107 
    -984     -820     -649     -553     -583     -669     -714     -706 
    -711     -760     -832     -962    -1146    -1263    -1225    -1073 
    -881     -683     -514     -422     -453     -606     -811    -1007 
   -1140    -1127     -923     -606     -345     -305     -484     -734 
   -1000    -1264    -1358    -1210     -966     -716     -514     -407 
    -375     -453     -642     -769     -792     -845     -932     -965 
    -907     -780     -670     -608     -572     -600     -669     -712 
    -722     -642     -472     -360     -387     -529     -719     -851 
    -935    -1044    -1117    -1113    -1084     -984     -762     -490 
    -294     -297     -490     -757     -982    -1078    -1028     -889 
    -749     -697     -731     -815     -928    -1031    -1058     -985 
    -885     -851     -841     -769     -658     -550     -422     -274 
    -222     -388     -712    -1042    -1302    -1443    -1409    -1204 
    -892     -579     -398     -429     -594     -733     -780     -762 
    -735     -735     -760     -810     -843     -776     -638     -546 
    -542     -621     -764     -918    -1013    -1009     -949     -888 
    -788     -619     -464     -421     -480     -607     -796     -947 
    -943     -799     -616     -511     -546     -710     -932    -1102 
   -1128    -1062    -1048    -1135    -1259    -1356    -1350    -1242 
   -1069     -810     -499     -261     -179     -265     -463     -714 
   -1000    -1196    -1174    -1016     -858     -757     -754     -859 
   -1020    -1165    -1193    -1008     -710     -490     -341     -225 
    -248     -448     -729     -965    -1058    -1065    -1073    -1057 
   -1011     -978    -1004    -1142    -1279    -1197     -912     -642 
    -483     -396     -392     -523     -720     -884    -1012    -1057 
    -963     -804     -645     -526     -507     -598     -746     -873 
    -934     -911     -768     -572     -492     -554     -695     -864 
    -915     -780     -588     -411     -306     -367     -558     -812 
   -1044    -1138    -1120    -1038     -881     -743     -704     -745 
    -822     -895     -891     -766     -591     -450     -357     -333 
    -391     -499     -623     -734     -832     -946    -1061    -1140 
   -1183    -1201    -1189    -1125    -1039     -967     -838     -602 
    -379     -252     -229     -367     -625     -855     -961     -926 
    -830     -720     -567     -427     -445     -650     -973    -1294 
   -1453    -1404    -1215     -946     -718     -633     -650     -764 
    -918     -959     -923     -895     -805     -692     -737     -926 
   -1073    -1105    -1027     -839     -621     -459     -399     -490 
    -660     -756     -768     -731     -629     -499     -382     -307 
    -355     -484     -591     -696     -812     -859     -822     -751 
    -715     -761     -826     -839     -903    -1040    -1090    -1042 
   -1042    -1090    -1059     -888     -693     -631     -704     -843 
   -1000    -1092    -1020     -812     -631     -575     -641     -859 
   -1197    -1532    -1726    -1660    -1345     -931     -545     -279 
    -190     -330     -629     -853     -945     -966     -832     -607 
    -465     -414     -434     -495     -503     -533     -676     -818 
    -874     -923     -981     -939     -773     -622     -606     -689 
    -792     -869     -872     -824     -815     -832     -808     -769 
    -746     -691     -573     -444     -387     -460     -618     -739 
    -781     -816     -845     -811     -788     -768     -656     -529 
    -437     -369     -422     -626     -900    -1144    -1177     -957 
    -702     -581     -599     -677     -741     -784     -770     -615 
    -400     -317     -406     -600     -845    -1043    -1161    -1213 
   -1121     -886     -641     -452     -422     -643     -942    -1112 
   -1183    -1213    -1159    -1054    -1015    -1075    -1166    -1235 
   -1260    -1227    -1129     -954     -710     -488     -407     -483 
    -634     -793     -881     -897     -961    -1054    -1013     -864 
    -743     -681     -633     -575     -598     -793    -1038    -1194 
   -1283    -1305    -1216    -1030     -807     -641     -591     -606 
    -634     -688     -819    -1026    -1179    -1182    -1100    -1007 
    -889     -741     -577     -450     -423     -522     -693     -832 
    -897     -926     -932     -897     -832     -754     -662     -612 
    -680     -853    -1032    -1107    -1021     -828     -629     -445 
    -295     -264     -361     -507     -630     -710     -750     -769 
    -808     -870     -911     -926     -946     -958     -893     -746 
    -612     -521     -423     -299     -164     -105     -162     -268 
    -384     -535     -735     -928     -985     -896     -760     -614 
    -518     -571     -699     -757     -792     -888     -959     -961 
    -977     -970     -888     -853     -935    -1019    -1040    -1039 
   -1050    -1077    -1082    -1017     -899     -827     -832     -824 
    -823     -865     -850     -765     -703     -684     -681     -693 
    -727     -735     -646     -486     -405     -499     -681     -827 
    -922     -984     -988     -972    -1038    -1179    -1216    -1035 
    -760     -548     -444     -460     -591     -766     -884     -908 
    -935    -1009    -1062    -1073    -1047    -1003     -969     -935 
    -891     -854     -823     -773     -712     -691     -700     -687 
    -679     -718     -777     -866     -994    -1093    -1111    -1055 
    -931     -741     -541     -434     -492     -688     -945    -1154 
   -1205    -1093     -908     -743     -646     -630     -656     -702 
    -772     -839     -876     -872     -842     -816     -783     -761 
    -792     -842     -850     -780     -669     -619     -599     -557 
    -562     -565     -499     -422     -346     -271     -256     -329 
    -515     -807    -1070    -1178    -1162    -1116    -1042     -877 
    -693     -629     -652     -687     -750     -772     -665     -498 
    -364     -303     -345     -500     -772    -1078    -1258    -1246 
   -1105     -918     -762     -715     -760     -781     -727     -653 
    -626     -677     -772     -851     -908     -913     -826     -684 
    -583     -571     -619     -702     -824     -974    -1105    -1175 
   -1128     -973     -839     -804     -811     -854     -989    -1163 
   -1248    -1232    -1163    -1023     -849     -691     -561     -537 
    -604     -631     -665     -780     -896     -959     -999     -980 
    -874     -727     -583     -503     -553     -669     -757     -814 
    -807     -714     -657     -739     -872     -967    -1043    -1077 
   -1027     -927     -800     -603     -386     -255     -191     -141 
    -136     -209     -341     -429     -421     -419     -483     -554 
    -618     -712     -843     -953    -1001    -1050    -1105    -1089 
   -1000     -907     -815     -708     -661     -761     -961    -1166 
   -1339    -1431    -1352    -1097     -762     -448     -275     -342 
    -573     -839    -1071    -1146    -1017     -822     -681     -642 
    -679     -764     -930    -1128    -1242    -1193     -943     -596 
    -361     -291     -321     -422     -550     -687     -822     -899 
    -886     -842     -810     -766     -734     -747     -750     -710 
    -673     -672     -724     -819     -876     -876     -876     -870 
    -832     -787     -746     -689     -660     -749     -938    -1109 
   -1174    -1080     -843     -585     -421     -406     -550     -768 
    -938    -1009     -972     -849     -689     -550     -479     -471 
    -517     -650     -884    -1124    -1278    -1331    -1278    -1129 
    -988     -947    -1007    -1104    -1152    -1093     -951     -783 
    -629     -523     -514     -630     -796     -891     -893     -849 
    -768     -689     -706     -822     -973    -1094    -1154    -1159 
   -1123    -1023     -834     -575     -342     -224     -218     -295 
    -417     -537     -638     -700     -718     -784     -900     -951 
    -934     -886     -796     -681     -598     -573     -589     -634 
    -724     -810     -812     -772     -774     -811     -834     -850 
    -915    -1048    -1178    -1235    -1212    -1101     -931     -730 
    -507     -324     -234     -275     -445     -650     -826     -972 
   -1051    -1019     -896     -769     -700     -668     -635     -626 
    -710     -864     -967     -997    -1016    -1024    -1007     -967 
    -892     -778     -627     -486     -473     -589     -700     -751 
    -787     -838     -888     -909     -899     -866     -823     -805 
    -830     -853     -885     -976    -1046     -988     -831     -635 
    -461     -399     -471     -616     -756     -837     -889     -935 
    -970     -989     -978     -961     -947     -870     -720     -553 
    -457     -531     -735     -923    -1011     -977     -845     -700 
