Origin Time       2025/06/03 22:18:00
Lat.              41.7
Long.             143.6
Depth. (km)       30
Mag.              5.2
Station Code      KSRH04
Station Lat.      43.2139
Station Long.     144.6804
Station Height(m) -210
Record Time       2025/06/03 22:19:16
Sampling Freq(Hz) 100Hz
Duration Time(s)  120
Dir.              2
Scale Factor      3923(gal)/8224838
Max. Acc. (gal)   0.240
Last Correction   2025/06/03 22:19:17
Memo.             
[...]
  -24995   -25010   -25039   -25080   -25107   -25084   -25054   -25076 
  -25100   -25083   -25101   -25182   -25231   -25205   -25139   -25033 
  -24889   -24795   -24802   -24872   -24969   -25074   -25164   -25231 
  -25262   -25253   -25235   -25247   -25282   -25328   -25370   -25392 
  -25402   -25411   -25370   -25282   -25220   -25170   -25097   -25070 
  -25097   -25097   -25088   -25116   -25122   -25088   -25077   -25087 
  -25108   -25138   -25103   -25006   -24958   -24962   -24965   -25016 
  -25118   -25169   -25161   -25135   -25077   -25029   -25024   -25008 
  -24960   -24927   -24908   -24896   -24937   -25019   -25062   -25057 
  -25057   -25053   -25011   -24981   -24992   -24984   -24934   -24914 
  -24943   -24968   -24983   -25012   -25042   -25080   -25176   -25292 
  -25324   -25281   -25249   -25249   -25257   -25285   -25312   -25315 
  -25350   -25416   -25407   -25340   -25332   -25338   -25274   -25228 
  -25245   -25226   -25147   -25091   -25080   -25089   -25108   -25135 
  -25145   -25122   -25089   -25077   -25114   -25191   -25263   -25294 
  -25293   -25294   -25297   -25261   -25174   -25053   -24885   -24726 
  -24687   -24767   -24873   -24973   -25039   -25022   -24992   -25038 
  -25089   -25104   -25120   -25115   -25095   -25159   -25276   -25311 
  -25285   -25263   -25213   -25137   -25080   -25022   -24957   -24948 
  -25024   -25153   -25267   -25327   -25369   -25389   -25323   -25224 
  -25180   -25127   -25037   -24992   -24987   -24981   -25046   -25132 
  -25080   -24938   -24860   -24810   -24740   -24741   -24831   -24930 
  -25022   -25118   -25165   -25135   -25103   -25143   -25242   -25335 
  -25386   -25367   -25280   -25211   -25212   -25215   -25181   -25150 
  -25115   -25066   -25057   -25074   -25029   -24954   -24957   -24999 
  -25015   -25054   -25116   -25108   -25092   -25173   -25255   -25243 
  -25231   -25245   -25222   -25213   -25234   -25184   -25100   -25072 
  -25043   -25023   -25127   -25281   -25305   -25255   -25263   -25274 
  -25213   -25145   -25137   -25176   -25238   -25292   -25304   -25276 
  -25224   -25173   -25123   -25064   -25034   -25049   -25045   -25003 
  -24988   -25002   -24992   -24969   -24969   -24985   -24997   -24985 
  -24942   -24926   -25014   -25170   -25251   -25184   -25069   -25037 
  -25045   -24980   -24884   -24857   -24916   -25038   -25197   -25323 
  -25373   -25393   -25409   -25388   -25316   -25269   -25316   -25394 
  -25386   -25324   -25297   -25280   -25208   -25089   -24997   -24984 
  -25030   -25104   -25201   -25282   -25294   -25280   -25284   -25246 
  -25178   -25205   -25284   -25257   -25169   -25164   -25255   -25369 
  -25427   -25389   -25296   -25215   -25131   -24989   -24807   -24661 
  -24625   -24686   -24745   -24772   -24822   -24892   -24943   -24988 
  -25024   -25041   -25077   -25145   -25182   -25186   -25213   -25266 
  -25281   -25216   -25107   -25054   -25118   -25227   -25299   -25328 
  -25316   -25257   -25213   -25195   -25116   -24985   -24902   -24885 
  -24935   -25042   -25126   -25151   -25169   -25186   -25195   -25209 
  -25205   -25165   -25146   -25162   -25128   -25061   -25058   -25100 
  -25107   -25108   -25146   -25165   -25138   -25126   -25135   -25116 
  -25089   -25097   -25120   -25131   -25141   -25150   -25139   -25114 
  -25089   -25054   -25031   -25069   -25104   -25058   -25010   -25045 
  -25076   -25061   -25088   -25193   -25326   -25435   -25465   -25385 
  -25263   -25169   -25115   -25103   -25128   -25159   -25189   -25227 
  -25238   -25228   -25236   -25227   -25173   -25126   -25093   -25027 
  -24960   -24976   -25064   -25145   -25195   -25231   -25253   -25242 
  -25204   -25189   -25189   -25138   -25085   -25127   -25209   -25251 
  -25274   -25259   -25149   -24999   -24883   -24775   -24682   -24649 
  -24634   -24625   -24698   -24827   -24912   -24969   -25022   -25007 
  -24958   -24969   -25010   -25031   -25077   -25158   -25236   -25323 
  -25405   -25434   -25419   -25392   -25347   -25305   -25270   -25213 
  -25195   -25263   -25327   -25319   -25282   -25211   -25092   -25034 
  -25089   -25143   -25134   -25139   -25150   -25096   -25043   -25060 
  -25093   -25123   -25164   -25161   -25100   -25051   -25035   -25006 
  -24977   -24987   -24965   -24868   -24790   -24798   -24826   -24850 
  -24918   -24989   -25014   -25062   -25164   -25235   -25276   -25343 
  -25377   -25347   -25336   -25353   -25354   -25382   -25438   -25434 
  -25378   -25363   -25377   -25374   -25365   -25339   -25278   -25209 
  -25141   -25076   -25042   -25035   -25038   -25088   -25197   -25313 
  -25407   -25466   -25458   -25377   -25281   -25219   -25178   -25130 
  -25105   -25139   -25197   -25212   -25172   -25092   -24992   -24927 
  -24933   -24949   -24926   -24902   -24883   -24860   -24889   -24954 
  -24968   -24954   -24946   -24895   -24837   -24853   -24868   -24817 
  -24829   -24953   -25045   -25068   -25091   -25078   -25019   -24999 
  -25023   -25046   -25084   -25118   -25101   -25103   -25180   -25240 
  -25249   -25278   -25305   -25267   -25204   -25174   -25158   -25130 
  -25123   -25155   -25182   -25168   -25145   -25153   -25170   -25177 
  -25178   -25164   -25132   -25108   -25107   -25137   -25180   -25186 
  -25153   -25123   -25115   -25116   -25123   -25127   -25115   -25095 
  -25088   -25095   -25110   -25126   -25130   -25124   -25146   -25193 
  -25238   -25299   -25389   -25459   -25479   -25455   -25382   -25284 
  -25245   -25265   -25258   -25223   -25235   -25259   -25227   -25197 
  -25208   -25169   -25065   -25008   -25018   -25020   -25007   -24992 
  -24968   -24942   -24910   -24867   -24864   -24916   -24972   -25038 
  -25137   -25191   -25166   -25124   -25074   -25020   -25018   -25053 
  -25053   -25022   -25007   -25004   -25006   -25033   -25060   -25069 
  -25074   -25074   -25083   -25112   -25110   -25051   -24993   -24950 
  -24898   -24850   -24831   -24837   -24872   -24935   -25027   -25131 
  -25186   -25170   -25139   -25115   -25084   -25060   -25029   -25000 
  -25029   -25119   -25207   -25239   -25218   -25180   -25162   -25181 
  -25215   -25216   -25169   -25110   -25096   -25158   -25249   -25305 
  -25321   -25342   -25412   -25513   -25558   -25500   -25401   -25347 
  -25339   -25320   -25284   -25251   -25201   -25143   -25149   -25203 
  -25200   -25147   -25120   -25091   -25034   -25019   -25033   -25000 
  -24965   -24981   -24983   -24949   -24961   -25018   -25022   -24972 
  -24972   -25026   -25023   -24979   -25000   -25050   -25041   -25018 
  -25045   -25066   -25049   -25050   -25056   -25030   -25037   -25078 
  -25068   -25019   -25003   -24995   -24988   -25027   -25070   -25050 
  -25007   -24985   -24985   -25008   -25049   -25074   -25085   -25118 
  -25170   -25191   -25157   -25130   -25145   -25126   -25023   -24926 
  -24914   -24950   -24988   -25033   -25066   -25057   -25029   -25019 
  -25035   -25081   -25147   -25219   -25290   -25347   -25380   -25405 
  -25420   -25402   -25394   -25423   -25415   -25354   -25339   -25359 
  -25327   -25286   -25300   -25304   -25272   -25274   -25321   -25353 
  -25334   -25286   -25259   -25263   -25247   -25197   -25170   -25174 
  -25180   -25196   -25226   -25222   -25197   -25173   -25105   -24996 
  -24915   -24875   -24846   -24849   -24884   -24904   -24916   -24943 
  -24954   -24948   -24948   -24946   -24945   -24964   -24985   -24976 
  -24966   -24981   -24993   -24987   -24981   -25002   -25030   -25027 
  -25026   -25058   -25070   -25031   -24993   -24972   -24961   -25006 
  -25077   -25091   -25080   -25108   -25124   -25105   -25126   -25199 
  -25259   -25292   -25304   -25280   -25235   -25201   -25188   -25192 
  -25203   -25188   -25158   -25157   -25200   -25274   -25353   -25388 
  -25346   -25254   -25172   -25138   -25162   -25215   -25242   -25255 
  -25300   -25342   -25321   -25263   -25222   -25227   -25257   -25261 
  -25232   -25226   -25247   -25246   -25216   -25203   -25215   -25220 
  -25218   -25211   -25200   -25207   -25220   -25189   -25132   -25114 
  -25110   -25078   -25050   -25033   -25012   -25034   -25105   -25168 
  -25226   -25303   -25357   -25363   -25344   -25288   -25205   -25151 
  -25128   -25116   -25115   -25110   -25074   -25023   -24964   -24898 
  -24852   -24825   -24791   -24764   -24769   -24826   -24937   -25034 
  -25043   -25014   -25043   -25130   -25220   -25305   -25347   -25316 
  -25282   -25290   -25282   -25246   -25234   -25231   -25201   -25168 
  -25141   -25114   -25108   -25119   -25137   -25172   -25200   -25197 
  -25185   -25166   -25138   -25141   -25176   -25176   -25146   -25150 
  -25158   -25147   -25178   -25204   -25153   -25108   -25120   -25099 
  -25039   -25020   -25037   -25064   -25110   -25126   -25088   -25065 
  -25074   -25070   -25069   -25085   -25077   -25054   -25049   -25049 
  -25049   -25051   -25046   -25070   -25135   -25166   -25173   -25205 
  -25203   -25137   -25093   -25084   -25070   -25087   -25108   -25072 
  -25030   -25016   -24941   -24829   -24806   -24844   -24868   -24921 
  -24991   -24991   -24958   -24972   -25010   -25050   -25115   -25189 
  -25228   -25246   -25276   -25296   -25297   -25300   -25296   -25293 
  -25321   -25358   -25358   -25327   -25294   -25263   -25226   -25195 
  -25180   -25168   -25143   -25137   -25151   -25118   -25016   -24943 
  -24948   -24979   -25027   -25092   -25124   -25112   -25108   -25131 
  -25162   -25195   -25211   -25216   -25250   -25299   -25285   -25208 
  -25143   -25097   -25049   -25029   -25030   -25012   -25012   -25049 
  -25056   -25012   -24977   -24962   -24937   -24919   -24948   -25010 
  -25074   -25116   -25130   -25119   -25095   -25061   -25008   -24954 
  -24949   -24979   -24997   -25034   -25099   -25127   -25123   -25162 
  -25219   -25236   -25246   -25276   -25292   -25290   -25281   -25250 
  -25230   -25258   -25278   -25239   -25193   -25176   -25147   -25107 
  -25078   -25049   -25030   -25062   -25099   -25066   -25030   -25068 
  -25110   -25080   -25037   -25034   -25047   -25066   -25084   -25087 
  -25101   -25150   -25201   -25226   -25213   -25184   -25192   -25236 
  -25250   -25232   -25219   -25189   -25166   -25205   -25245   -25216 
  -25192   -25199   -25174   -25139   -25123   -25085   -25065   -25107 
  -25135   -25114   -25100   -25088   -25056   -25041   -25034   -24995 
  -24961   -24953   -24926   -24896   -24911   -24934   -24954   -25023 
  -25092   -25111   -25134   -25164   -25151   -25157   -25201   -25176 
  -25064   -24969   -24895   -24813   -24780   -24810   -24848   -24899 
  -24962   -24995   -25015   -25053   -25073   -25069   -25085   -25112 
  -25135   -25197   -25288   -25342   -25367   -25386   -25377   -25347 
  -25319   -25299   -25299   -25327   -25361   -25359   -25332   -25319 
  -25327   -25353   -25405   -25473   -25506   -25490   -25443   -25390 
  -25339   -25294   -25250   -25195   -25134   -25092   -25089   -25100 
  -25099   -25099   -25110   -25122   -25112   -25076   -25038   -25018 
  -25012   -25018   -25012   -24991   -25002   -25060   -25100   -25078 
  -25038   -25012   -24966   -24894   -24852   -24869   -24912   -24962 
  -25010   -25039   -25058   -25088   -25120   -25135   -25145   -25176 
  -25207   -25213   -25222   -25218   -25170   -25116   -25076   -25033 
  -25003   -24999   -24991   -24981   -24988   -24995   -24991   -24996 
  -24996   -24970   -24953   -24995   -25053   -25035   -24972   -24938 
  -24918   -24899   -24929   -24999   -25043   -25050   -25053   -25056 
  -25053   -25078   -25116   -25128   -25119   -25107   -25092   -25087 
  -25085   -25066   -25043   -25039   -25031   -25035   -25092   -25162 
  -25196   -25230   -25266   -25251   -25200   -25154   -25104   -25064 
  -25073   -25087   -25072   -25084   -25141   -25207   -25293   -25371 
  -25377   -25362   -25412   -25467   -25478   -25504   -25540   -25532 
  -25509   -25494   -25446   -25375   -25332   -25301   -25263   -25239 
  -25232   -25223   -25205   -25192   -25170   -25137   -25111   -25123 
  -25168   -25184   -25153   -25130   -25118   -25081   -25051   -25051 
  -25043   -25015   -24984   -24964   -24985   -25039   -25034   -24957 
  -24907   -24941   -25006   -25050   -25107   -25208   -25313   -25378 
  -25386   -25340   -25276   -25232   -25230   -25240   -25222   -25173 
  -25110   -25050   -25039   -25091   -25157   -25200   -25224   -25242 
  -25249   -25251   -25259   -25242   -25168   -25072   -25003   -24946 
  -24861   -24771   -24714   -24673   -24645   -24641   -24637   -24625 
  -24660   -24757   -24849   -24915   -24992   -25069   -25124   -25192 
  -25282   -25338   -25332   -25299   -25263   -25232   -25215   -25209 
  -25197   -25186   -25184   -25174   -25165   -25154   -25119   -25065 
  -25030   -25007   -24954   -24896   -24868   -24856   -24871   -24918 
  -24953   -24962   -24992   -25054   -25120   -25162   -25173   -25181 
  -25200   -25208   -25204   -25216   -25232   -25243   -25273   -25308 
  -25328   -25342   -25370   -25409   -25438   -25439   -25428   -25413 
  -25388   -25355   -25339   -25327   -25303   -25289   -25280   -25247 
  -25216   -25208   -25209   -25219   -25227   -25236   -25276   -25357 
  -25419   -25417   -25384   -25357   -25339   -25343   -25382   -25415 
  -25420   -25420   -25402   -25339   -25266   -25226   -25200   -25151 
  -25089   -25046   -25015   -24966   -24899   -24833   -24773   -24721 
  -24678   -24651   -24645   -24640   -24621   -24624   -24648   -24663 
  -24684   -24726   -24752   -24763   -24792   -24829   -24849   -24856 
  -24862   -24879   -24896   -24903   -24915   -24950   -24993   -25018 
  -25031   -25029   -24991   -24943   -24927   -24912   -24875   -24845 
  -24848   -24875   -24922   -24972   -25000   -25008   -25033   -25099 
  -25186   -25261   -25312   -25340   -25347   -25344   -25347   -25358 
  -25363   -25366   -25392   -25429   -25444   -25451   -25454   -25439 
  -25419   -25397   -25365   -25358   -25373   -25362   -25340   -25343 
  -25340   -25331   -25344   -25362   -25381   -25442   -25519   -25546 
  -25539   -25539   -25525   -25483   -25434   -25365   -25272   -25192 
  -25132   -25093   -25092   -25100   -25077   -25053   -25053   -25046 
  -25033   -25035   -25035   -25022   -25014   -25003   -24992   -25003 
  -25012   -24992   -24966   -24950   -24931   -24919   -24918   -24911 
  -24914   -24937   -24939   -24914   -24908   -24923   -24934   -24953 
  -24981   -25004   -25033   -25065   -25068   -25046   -25026   -25010 
  -24991   -24980   -24969   -24939   -24907   -24891   -24885   -24883 
  -24887   -24881   -24865   -24861   -24877   -24915   -24969   -25012 
  -25034   -25047   -25061   -25088   -25128   -25162   -25180   -25197 
  -25220   -25249   -25289   -25328   -25348   -25374   -25420   -25458 
  -25481   -25502   -25505   -25483   -25481   -25509   -25532   -25533 
  -25529   -25515   -25479   -25442   -25424   -25432   -25443   -25443 
  -25428   -25392   -25350   -25323   -25296   -25258   -25218   -25186 
  -25168   -25146   -25114   -25077   -25045   -25030   -25030   -25026 
  -25020   -25020   -25012   -25003   -24997   -24975   -24931   -24908 
  -24918   -24922   -24930   -24960   -24983   -24979   -24984   -25008 
  -25012   -24997   -25003   -25012   -25007   -25034   -25107   -25165 
  -25176   -25159   -25139   -25119   -25089   -25058   -25057   -25084 
  -25105   -25103   -25088   -25061   -25015   -24968   -24949   -24949 
  -24938   -24919   -24895   -24864   -24844   -24857   -24896   -24926 
  -24934   -24930   -24925   -24937   -24984   -25042   -25080   -25108 
  -25151   -25191   -25209   -25212   -25203   -25195   -25188   -25168 
  -25149   -25146   -25150   -25170   -25208   -25227   -25226   -25242 
  -25274   -25305   -25340   -25380   -25400   -25402   -25398   -25378 
  -25363   -25362   -25332   -25289   -25280   -25267   -25230   -25209 
  -25218   -25211   -25186   -25157   -25115   -25073   -25053   -25037 
  -25010   -24987   -24975   -24975   -24981   -24976   -24977   -25003 
  -25029   -25054   -25095   -25128   -25139   -25131   -25120   -25116 
  -25127   -25134   -25126   -25122   -25118   -25093   -25083   -25112 
  -25122   -25091   -25076   -25080   -25078   -25087   -25096   -25088 
  -25092   -25115   -25122   -25123   -25128   -25115   -25089   -25085 
  -25084   -25066   -25056   -25060   -25060   -25061   -25081   -25110 
  -25138   -25172   -25182   -25164   -25145   -25142   -25146   -25157 
  -25184   -25216   -25230   -25223   -25205   -25181   -25138   -25076 
  -25018   -24983   -24966   -24953   -24926   -24885   -24849   -24831 
  -24823   -24814   -24806   -24802   -24808   -24827   -24852   -24876 
  -24925   -25007   -25087   -25116   -25111   -25103   -25101   -25099 
  -25092   -25091   -25097   -25123   -25166   -25211   -25231   -25235 
  -25236   -25250   -25258   -25240   -25209   -25185   -25169   -25178 
  -25216   -25255   -25282   -25296   -25277   -25240   -25227   -25230 
  -25218   -25204   -25207   -25192   -25145   -25092   -25047   -25008 
  -24981   -24972   -24969   -24969   -24987   -25027   -25064   -25080 
  -25093   -25111   -25146   -25209   -25269   -25300   -25313   -25316 
  -25301   -25281   -25262   -25245   -25238   -25242   -25255   -25284 
  -25305   -25305   -25301   -25296   -25280   -25272   -25285   -25293 
  -25274   -25246   -25212   -25165   -25116   -25088   -25074   -25062 
  -25047   -25039   -25047   -25070   -25096   -25103   -25085   -25069 
  -25060   -25045   -25038   -25043   -25041   -25042   -25057   -25056 
  -25037   -25024   -25020   -25015   -25002   -24972   -24929   -24896 
  -24888   -24899   -24919   -24930   -24929   -24930   -24935   -24939 
  -24937   -24918   -24904   -24919   -24952   -24991   -25066   -25172 
  -25257   -25313   -25355   -25371   -25380   -25415   -25448   -25443 
  -25432   -25427   -25386   -25336   -25330   -25336   -25323   -25312 
  -25301   -25278   -25257   -25238   -25209   -25184   -25174   -25169 
  -25170   -25185   -25189   -25184   -25192   -25197   -25191   -25185 
  -25182   -25174   -25165   -25149   -25124   -25097   -25070   -25038 
  -25014   -25003   -25008   -25037   -25065   -25057   -25027   -25008 
  -25010   -25020   -25030   -25027   -25014   -25004   -25011   -25024 
  -25033   -25029   -25023   -25034   -25058   -25093   -25138   -25182 
  -25200   -25207   -25222   -25230   -25234   -25251   -25262   -25262 
  -25266   -25258   -25218   -25174   -25146   -25130   -25137   -25159 
  -25173   -25184   -25215   -25245   -25258   -25262   -25261   -25253 
  -25236   -25219   -25213   -25218   -25216   -25208   -25207   -25207 
  -25196   -25177   -25165   -25177   -25208   -25218   -25195   -25174 
  -25168   -25169   -25191   -25220   -25223   -25213   -25220   -25203 
  -25145   -25105   -25100   -25085   -25056   -25045   -25061   -25074 
  -25078   -25089   -25093   -25077   -25065   -25068   -25054   -25016 
  -24996   -24997   -24987   -24981   -25010   -25033   -25031   -25042 
  -25058   -25042   -25011   -24996   -24995   -25007   -25034   -25060 
  -25093   -25139   -25164   -25154   -25142   -25137   -25112   -25083 
  -25072   -25064   -25047   -25033   -25007   -24961   -24927   -24918 
  -24902   -24883   -24884   -24892   -24896   -24903   -24922   -24953 
