Origin Time       2025/06/03 22:18:00
Lat.              41.7
Long.             143.6
Depth. (km)       30
Mag.              5.2
Station Code      KSRH03
Station Lat.      43.3848
Station Long.     144.6279
Station Height(m) 83
Record Time       2025/06/03 22:19:18
Sampling Freq(Hz) 100Hz
Duration Time(s)  120
Dir.              4
Scale Factor      7845(gal)/8223790
Max. Acc. (gal)   1.439
Last Correction   2025/06/03 22:19:18
Memo.             
[...]
   42327    42196    42097    42072    42091    42090    42074    42097 
   42168    42256    42337    42381    42360    42287    42211    42167 
   42147    42144    42169    42217    42257    42265    42234    42164 
   42064    41986    41997    42093    42219    42331    42404    42415 
   42354    42261    42188    42160    42171    42219    42306    42394 
   42423    42373    42268    42147    42055    42033    42079    42167 
   42253    42290    42280    42256    42226    42192    42184    42233 
   42333    42435    42496    42506    42466    42376    42261    42175 
   42142    42160    42217    42290    42338    42323    42244    42129 
   42006    41920    41936    42057    42209    42318    42381    42421 
   42431    42412    42380    42341    42275    42190    42120    42078 
   42056    42052    42066    42091    42114    42129    42149    42182 
   42217    42253    42296    42345    42377    42390    42388    42364 
   42294    42183    42064    41967    41916    41940    42036    42169 
   42304    42411    42476    42500    42484    42431    42372    42341 
   42334    42319    42268    42186    42088    41993    41924    41926 
   42007    42140    42296    42437    42515    42507    42430    42327 
   42246    42207    42218    42267    42326    42357    42331    42242 
   42113    41997    41939    41964    42079    42255    42429    42542 
   42565    42493    42348    42175    42040    41986    42018    42111 
   42223    42306    42329    42300    42241    42155    42068    42025 
   42039    42102    42187    42264    42322    42364    42387    42383 
   42341    42277    42225    42198    42176    42157    42160    42184 
   42223    42271    42327    42372    42368    42303    42206    42113 
   42045    42007    41999    42030    42113    42236    42360    42444 
   42461    42412    42310    42172    42040    41976    42013    42134 
   42287    42417    42487    42477    42390    42244    42086    41995 
   42005    42090    42205    42291    42319    42300    42263    42238 
   42264    42344    42431    42475    42438    42325    42179    42057 
   41999    42018    42106    42238    42371    42449    42444    42372 
   42282    42206    42169    42191    42271    42387    42496    42546 
   42512    42415    42295    42172    42052    41962    41920    41917 
   41951    42044    42188    42330    42423    42465    42456    42390 
   42296    42206    42132    42082    42070    42105    42184    42282 
   42365    42422    42458    42472    42446    42367    42242    42097 
   41964    41909    41976    42122    42259    42348    42388    42358 
   42242    42079    41941    41881    41912    42028    42190    42349 
   42473    42542    42538    42466    42361    42255    42160    42106 
   42102    42138    42182    42201    42206    42219    42221    42182 
   42111    42049    42018    42016    42053    42141    42240    42307 
   42344    42357    42340    42300    42276    42283    42306    42322 
   42345    42396    42461    42489    42462    42431    42423    42403 
   42348    42291    42265    42253    42236    42236    42265    42291 
   42294    42307    42344    42364    42349    42313    42248    42167 
   42115    42129    42179    42217    42233    42226    42172    42056 
   41918    41814    41769    41787    41883    42049    42232    42358 
   42385    42313    42174    42026    41937    41948    42040    42176 
   42329    42453    42493    42438    42317    42183    42105    42132 
   42269    42469    42670    42805    42789    42587    42256    41893 
   41600    41473    41553    41801    42129    42435    42630    42666 
   42537    42296    42055    41922    41956    42138    42390    42610 
   42722    42676    42454    42117    41797    41609    41594    41737 
   41991    42283    42525    42646    42618    42453    42233    42059 
   41989    42039    42214    42453    42637    42687    42611    42445 
   42214    41978    41833    41837    41987    42257    42566    42776 
   42801    42664    42434    42196    42030    42001    42114    42292 
   42422    42431    42306    42060    41744    41446    41284    41318 
   41517    41813    42121    42367    42535    42658    42739    42759 
   42728    42677    42626    42579    42541    42500    42421    42310 
   42201    42088    41968    41882    41877    41976    42191    42504 
   42844    43096    43158    43008    42693    42290    41872    41517 
   41324    41369    41620    41951    42218    42313    42218    42036 
   41905    41922    42128    42492    42921    43272    43411    43271 
   42851    42226    41582    41142    41022    41185    41515    41879 
   42178    42367    42444    42423    42353    42294    42271    42265 
   42245    42199    42138    42067    42014    42037    42157    42329 
   42488    42595    42620    42561    42453    42341    42240    42153 
   42091    42059    42044    42051    42079    42117    42136    42114 
   42063    42009    41963    41936    41978    42113    42279    42379 
   42381    42296    42124    41881    41650    41555    41658    41932 
   42310    42718    43050    43195    43128    42927    42685    42448 
   42252    42145    42157    42273    42441    42566    42562    42418 
   42221    42060    41972    41955    42021    42190    42435    42651 
   42703    42537    42229    41925    41750    41729    41814    41936 
   42052    42153    42205    42196    42186    42257    42464    42765 
   43031    43125    42973    42579    42044    41530    41211    41193 
   41481    41993    42573    43005    43125    42936    42561    42147 
   41821    41679    41779    42093    42475    42749    42800    42587 
   42149    41638    41265    41177    41401    41870    42475    43077 
   43505    43606    43356    42874    42336    41887    41609    41527 
   41632    41845    42028    42088    42047    41987    41987    42064 
   42198    42373    42583    42780    42876    42788    42543    42240 
   41947    41701    41558    41554    41661    41809    41939    42012 
   42003    41935    41908    42052    42372    42747    43040    43166 
   43090    42830    42430    41970    41569    41343    41357    41608 
   42017    42449    42801    43040    43159    43140    42962    42616 
   42156    41689    41332    41177    41261    41544    41953    42372 
   42645    42688    42534    42276    42020    41885    41951    42196 
   42508    42759    42870    42800    42573    42279    42014    41837 
   41763    41796    41925    42115    42315    42479    42572    42584 
   42515    42360    42141    41939    41843    41894    42057    42279 
   42481    42572    42529    42426    42338    42286    42277    42318 
   42376    42430    42472    42479    42445    42388    42344    42329 
   42319    42267    42186    42132    42126    42155    42196    42223 
   42219    42180    42095    41967    41836    41747    41736    41823 
   41966    42117    42282    42448    42546    42523    42384    42198 
   42044    41975    41994    42079    42196    42326    42444    42500 
   42479    42426    42392    42361    42329    42334    42379    42419 
   42437    42415    42309    42115    41922    41818    41805    41863 
   42025    42306    42627    42878    42978    42901    42641    42246 
   41868    41646    41613    41742    41995    42296    42525    42591 
   42510    42345    42155    42013    41995    42088    42184    42176 
   42026    41791    41590    41523    41636    41906    42260    42592 
   42795    42784    42568    42259    41994    41832    41796    41932 
   42237    42593    42859    42957    42862    42591    42214    41862 
   41666    41697    41932    42304    42722    43065    43186    42981 
   42475    41847    41335    41126    41273    41706    42260    42711 
   42888    42750    42376    41932    41608    41524    41721    42138 
   42637    43044    43225    43135    42830    42411    42005    41716 
   41600    41679    41941    42315    42684    42925    42948    42735 
   42352    41916    41540    41347    41420    41733    42194    42664 
   42963    42973    42715    42323    41948    41706    41678    41871 
   42183    42476    42662    42708    42626    42457    42279    42182 
   42211    42319    42418    42454    42419    42341    42241    42105 
   41931    41785    41755    41872    42084    42290    42410    42415 
   42314    42140    41928    41736    41647    41690    41836    42043 
   42252    42383    42399    42325    42214    42128    42122    42253 
   42527    42871    43166    43293    43171    42822    42364    41937 
   41640    41528    41593    41779    41982    42093    42071    41983 
   41939    41997    42138    42295    42419    42488    42503    42480 
   42453    42468    42574    42736    42827    42751    42514    42175 
   41835    41608    41588    41800    42174    42596    42940    43100 
   43020    42711    42233    41709    41295    41118    41237    41620 
   42155    42649    42912    42888    42676    42404    42172    42053 
   42072    42187    42336    42462    42489    42369    42160    41986 
   41931    42018    42229    42469    42597    42546    42349    42084 
   41824    41631    41557    41607    41732    41850    41906    41905 
   41868    41845    41951    42276    42757    43224    43529    43609 
   43432    42997    42400    41837    41484    41395    41513    41735 
   41979    42194    42352    42444    42484    42500    42523    42538 
   42485    42329    42105    41890    41746    41727    41882    42172 
   42477    42666    42637    42379    41985    41585    41320    41322 
   41628    42174    42805    43320    43544    43405    42947    42322 
   41702    41214    40967    41053    41459    42049    42620    42994 
   43081    42884    42481    42020    41662    41536    41673    42002 
   42398    42732    42925    42935    42754    42453    42129    41833 
   41608    41515    41581    41754    41985    42256    42525    42722 
   42801    42749    42577    42322    42064    41921    41974    42186 
   42419    42574    42641    42615    42475    42249    42026    41883 
   41883    42045    42294    42516    42677    42786    42805    42680 
   42412    42082    41817    41739    41855    42074    42272    42340 
   42236    41991    41688    41412    41269    41373    41747    42244 
   42638    42800    42749    42599    42485    42488    42599    42773 
   42966    43086    43021    42718    42246    41763    41413    41276 
   41372    41682    42109    42473    42631    42552    42296    41962 
   41671    41547    41651    41926    42242    42498    42653    42676 
   42553    42334    42147    42102    42218    42448    42714    42905 
   42915    42714    42372    41993    41694    41615    41808    42171 
   42502    42637    42538    42263    41916    41621    41494    41602 
   41914    42290    42556    42585    42365    42020    41756    41720 
   41917    42279    42691    43020    43155    43050    42743    42348 
   41993    41769    41716    41831    42057    42299    42473    42552 
   42538    42453    42345    42268    42260    42341    42495    42660 
   42747    42701    42520    42225    41866    41566    41420    41438 
   41605    41901    42256    42568    42782    42867    42766    42489 
   42164    41926    41840    41891    42028    42195    42322    42346 
   42307    42272    42255    42268    42350    42496    42626    42635 
   42503    42294    42070    41893    41839    41925    42072    42180 
   42214    42178    42086    41966    41854    41802    41864    42049 
   42302    42529    42660    42668    42569    42394    42190    41990 
   41801    41624    41512    41551    41766    42084    42403    42654 
   42797    42804    42677    42466    42237    42057    41994    42079 
   42271    42464    42573    42562    42415    42145    41845    41644 
   41600    41690    41897    42207    42580    42909    43070    43005 
   42773    42488    42234    42061    42005    42067    42225    42439 
   42654    42801    42831    42726    42511    42225    41901    41601 
   41384    41270    41268    41374    41551    41750    41955    42164 
   42372    42574    42770    42961    43114    43141    42959    42589 
   42161    41802    41571    41503    41640    41963    42340    42619 
   42735    42697    42537    42300    42082    41960    41947    42006 
   42094    42157    42153    42080    41995    41980    42082    42319 
   42670    43043    43308    43362    43170    42755    42206    41692 
   41362    41250    41305    41478    41700    41870    41908    41836 
   41747    41709    41774    42016    42446    42961    43402    43646 
   43641    43414    43038    42570    42088    41697    41474    41419 
   41454    41531    41662    41872    42174    42553    42938    43191 
   43194    42938    42495    41972    41504    41222    41211    41436 
   41763    42060    42257    42319    42277    42230    42264    42403 
   42600    42774    42830    42716    42477    42199    41956    41785 
   41688    41648    41669    41755    41901    42076    42264    42460 
   42626    42689    42615    42437    42237    42105    42099    42215 
   42391    42538    42606    42620    42637    42657    42674    42720 
   42790    42822    42753    42561    42276    41975    41747    41620 
   41582    41623    41732    41890    42084    42300    42508    42678 
   42777    42782    42703    42572    42431    42292    42128    41925 
   41704    41496    41370    41420    41690    42141    42661    43113 
   43359    43302    42923    42311    41629    41048    40725    40767 
   41141    41693    42246    42655    42820    42722    42433    42097 
   41872    41874    42107    42480    42858    43109    43139    42924 
   42511    42021    41620    41409    41401    41573    41893    42279 
   42615    42816    42849    42734    42514    42253    42034    41901 
   41878    41976    42179    42406    42569    42630    42588    42453 
   42261    42084    41980    41955    41993    42088    42198    42232 
   42140    41968    41820    41785    41871    42026    42206    42399 
   42589    42724    42761    42696    42584    42503    42496    42535 
   42570    42565    42495    42373    42242    42129    42026    41925 
   41847    41840    41917    42060    42238    42383    42426    42358 
   42223    42084    41994    41982    42056    42215    42425    42618 
   42723    42703    42583    42423    42271    42147    42063    42021 
   42018    42047    42079    42088    42075    42067    42082    42105 
   42107    42087    42080    42113    42191    42299    42414    42498 
   42515    42468    42381    42269    42178    42156    42215    42342 
   42510    42681    42808    42844    42784    42654    42488    42307 
   42129    41964    41839    41775    41783    41844    41936    42053 
   42172    42260    42313    42327    42280    42174    42051    41952 
   41901    41908    41963    42047    42126    42180    42201    42172 
   42093    41997    41943    41970    42102    42327    42599    42869 
   43086    43175    43075    42784    42361    41887    41453    41172 
   41137    41343    41698    42094    42430    42606    42566    42354 
   42091    41890    41813    41882    42111    42477    42880    43182 
   43291    43187    42896    42495    42102    41798    41620    41588 
   41701    41910    42125    42279    42344    42303    42164    42003 
   41914    41917    41995    42141    42338    42538    42692    42772 
   42769    42688    42564    42427    42283    42134    42005    41939 
   41966    42084    42268    42460    42595    42620    42508    42272 
   41968    41700    41574    41648    41912    42275    42614    42822 
   42840    42639    42269    41860    41553    41438    41543    41835 
   42225    42584    42781    42755    42547    42244    41932    41705 
   41646    41764    41980    42194    42329    42350    42272    42168 
   42140    42238    42434    42654    42822    42877    42797    42589 
   42315    42067    41909    41882    41982    42141    42279    42329 
   42290    42210    42136    42098    42121    42211    42354    42525 
   42670    42719    42628    42407    42094    41755    41472    41327 
   41368    41584    41917    42253    42481    42546    42458    42279 
   42101    42018    42110    42381    42732    43042    43206    43158 
   42908    42534    42134    41797    41589    41543    41651    41867 
   42126    42375    42579    42692    42674    42538    42340    42141 
   42003    41968    42028    42145    42292    42456    42606    42689 
   42670    42552    42375    42195    42056    41987    41995    42063 
   42168    42294    42403    42437    42358    42183    41948    41712 
   41539    41461    41486    41627    41855    42121    42367    42547 
   42645    42653    42560    42372    42138    41910    41723    41609 
   41588    41650    41778    41964    42194    42423    42607    42722 
   42770    42759    42703    42623    42527    42414    42317    42279 
   42296    42306    42256    42168    42091    42056    42075    42188 
   42435    42776    43098    43316    43372    43244    42935    42487 
   41997    41584    41337    41287    41401    41604    41829    42037 
   42195    42298    42372    42423    42445    42466    42525    42601 
   42650    42660    42627    42529    42349    42115    41870    41656 
   41524    41503    41573    41710    41885    42047    42161    42211 
   42195    42126    42040    41980    41990    42083    42240    42431 
   42635    42805    42892    42898    42870    42826    42755    42639 
   42484    42322    42156    41976    41812    41717    41716    41793 
   41910    42022    42094    42117    42080    41989    41899    41878 
   41949    42097    42280    42449    42539    42496    42334    42103 
   41854    41635    41493    41467    41566    41764    42024    42298 
   42552    42757    42888    42952    42988    43011    43009    42962 
   42876    42770    42646    42484    42280    42060    41855    41696 
   41616    41640    41773    41979    42202    42388    42506    42530 
   42450    42286    42088    41932    41871    41904    41976    42057 
   42133    42191    42238    42290    42357    42441    42530    42603 
   42642    42637    42570    42427    42229    42018    41833    41694 
   41616    41597    41632    41728    41891    42122    42396    42670 
   42892    43025    43058    42988    42816    42558    42260    41967 
   41721    41569    41532    41593    41708    41844    41980    42105 
   42214    42311    42411    42537    42693    42849    42951    42978 
   42925    42797    42616    42415    42232    42074    41929    41808 
   41737    41719    41758    41870    42052    42275    42491    42651 
   42723    42700    42607    42483    42375    42304    42248    42178 
   42105    42044    41975    41890    41821    41805    41851    41945 
   42056    42169    42261    42306    42295    42237    42159    42088 
   42068    42130    42257    42406    42545    42650    42687    42634 
   42492    42295    42090    41924    41832    41845    41962    42133 
   42288    42377    42390    42317    42167    41991    41881    41912 
   42091    42356    42626    42824    42890    42772    42476    42086 
   41706    41455    41426    41620    41939    42248    42445    42464 
   42307    42076    41899    41866    42036    42406    42863    43224 
