Origin Time       2025/06/03 22:18:00
Lat.              41.7
Long.             143.6
Depth. (km)       30
Mag.              5.2
Station Code      KSRH03
Station Lat.      43.3848
Station Long.     144.6279
Station Height(m) -24
Record Time       2025/06/03 22:19:18
Sampling Freq(Hz) 100Hz
Duration Time(s)  120
Dir.              1
Scale Factor      2942(gal)/8224139
Max. Acc. (gal)   0.250
Last Correction   2025/06/03 22:19:18
Memo.             
[...]
  153943   153959   153968   153970   153954   153936   153924   153909 
  153895   153891   153887   153885   153878   153870   153862   153847 
  153827   153816   153835   153871   153893   153895   153905   153917 
  153909   153890   153878   153873   153878   153900   153933   153958 
  153952   153935   153924   153916   153909   153905   153898   153904 
  153921   153921   153908   153902   153886   153874   153898   153929 
  153940   153932   153921   153916   153895   153867   153866   153875 
  153882   153906   153922   153902   153881   153881   153887   153883 
  153862   153843   153855   153894   153925   153925   153905   153897 
  153906   153914   153906   153879   153852   153844   153850   153858 
  153875   153900   153912   153914   153917   153922   153927   153920 
  153912   153914   153914   153906   153906   153901   153874   153850 
  153847   153858   153874   153887   153891   153895   153898   153902 
  153891   153862   153846   153855   153875   153908   153940   153954 
  153954   153948   153929   153905   153882   153871   153893   153925 
  153933   153935   153927   153901   153894   153908   153895   153863 
  153836   153813   153802   153806   153828   153864   153890   153891 
  153890   153905   153917   153910   153904   153916   153929   153935 
  153929   153916   153917   153936   153948   153944   153929   153912 
  153906   153913   153931   153940   153931   153931   153931   153891 
  153847   153829   153820   153809   153802   153810   153831   153837 
  153847   153883   153918   153931   153945   153968   153982   153982 
  153971   153960   153940   153909   153895   153890   153874   153871 
  153885   153898   153927   153954   153960   153952   153931   153916 
  153917   153916   153910   153906   153895   153882   153866   153848 
  153843   153846   153858   153877   153895   153913   153917   153917 
  153931   153944   153949   153958   153945   153921   153917   153909 
  153890   153882   153868   153851   153856   153873   153897   153917 
  153906   153890   153886   153882   153879   153885   153885   153881 
  153885   153894   153902   153905   153898   153879   153882   153914 
  153933   153928   153920   153914   153913   153917   153920   153925 
  153928   153928   153939   153933   153908   153897   153900   153890 
  153882   153881   153881   153891   153910   153931   153945   153935 
  153902   153885   153886   153883   153866   153841   153827   153817 
  153801   153786   153789   153819   153859   153890   153921   153948 
  153959   153974   153993   153985   153956   153939   153928   153895 
  153851   153825   153824   153841   153870   153898   153916   153917 
  153901   153894   153910   153932   153951   153955   153928   153894 
  153855   153823   153833   153873   153909   153931   153921   153905 
  153894   153885   153900   153913   153897   153898   153910   153895 
  153868   153836   153813   153816   153825   153856   153905   153931 
  153955   153976   153958   153924   153910   153912   153921   153905 
  153874   153863   153840   153824   153848   153864   153868   153882 
  153894   153909   153913   153900   153914   153943   153944   153941 
  153932   153898   153864   153839   153821   153828   153835   153843 
  153870   153882   153878   153889   153916   153939   153941   153927 
  153909   153877   153850   153863   153887   153890   153879   153873 
  153882   153902   153917   153936   153951   153947   153929   153906 
  153890   153894   153909   153920   153929   153935   153933   153933 
  153947   153954   153947   153933   153921   153910   153897   153879 
  153866   153852   153848   153863   153870   153860   153858   153855 
  153859   153874   153873   153844   153814   153802   153810   153837 
  153883   153922   153933   153921   153904   153881   153852   153833 
  153848   153875   153890   153887   153878   153878   153894   153910 
  153918   153922   153921   153909   153889   153883   153901   153922 
  153933   153945   153959   153958   153941   153925   153917   153920 
  153916   153897   153886   153898   153928   153951   153958   153940 
  153900   153875   153885   153877   153847   153841   153852   153874 
  153906   153932   153949   153963   153964   153971   153985   153974 
  153949   153939   153929   153924   153924   153906   153879   153854 
  153824   153817   153841   153852   153843   153836   153833   153840 
  153862   153890   153916   153935   153944   153945   153936   153918 
  153913   153922   153922   153912   153897   153889   153893   153920 
  153959   153979   153982   153979   153960   153928   153912   153912 
  153909   153905   153893   153875   153866   153868   153881   153898 
  153913   153922   153922   153916   153908   153890   153868   153848 
  153828   153821   153827   153825   153829   153836   153831   153814 
  153810   153843   153897   153940   153968   153968   153948   153939 
  153939   153929   153916   153897   153875   153863   153844   153827 
  153835   153852   153867   153885   153900   153910   153918   153928 
  153941   153933   153905   153890   153883   153858   153819   153797 
  153802   153820   153840   153859   153879   153904   153925   153936 
  153944   153951   153947   153954   153970   153958   153924   153904 
  153893   153895   153900   153875   153864   153904   153939   153943 
  153949   153944   153902   153860   153844   153854   153883   153912 
  153932   153952   153956   153936   153917   153922   153929   153912 
  153871   153841   153833   153833   153851   153878   153889   153893 
  153895   153886   153874   153864   153860   153886   153928   153960 
  153982   153985   153964   153941   153931   153921   153900   153879 
  153883   153908   153932   153941   153927   153901   153875   153862 
  153862   153858   153862   153895   153927   153925   153920   153920 
  153918   153929   153949   153958   153944   153922   153910   153905 
  153898   153893   153886   153882   153890   153895   153885   153891 
  153928   153940   153918   153886   153825   153759   153748   153781 
  153810   153829   153844   153874   153908   153904   153885   153891 
  153904   153918   153944   153958   153943   153925   153921   153913 
  153897   153894   153894   153878   153855   153835   153812   153802 
  153817   153840   153875   153913   153939   153971   154008   154036 
  154049   154032   153998   153976   153955   153932   153918   153895 
  153863   153844   153827   153810   153820   153839   153833   153813 
  153810   153824   153850   153883   153900   153889   153873   153847 
  153810   153786   153775   153779   153802   153831   153859   153890 
  153924   153970   154005   154006   154005   153999   153955   153895 
  153868   153851   153829   153827   153847   153867   153883   153912 
  153943   153944   153920   153916   153931   153952   153989   153994 
  153937   153859   153804   153796   153819   153821   153809   153810 
  153812   153819   153841   153863   153879   153906   153939   153949 
  153937   153916   153894   153885   153905   153936   153943   153944 
  153944   153917   153895   153901   153902   153902   153908   153902 
  153910   153937   153940   153921   153922   153929   153921   153906 
  153905   153916   153922   153916   153905   153912   153920   153900 
  153866   153841   153825   153808   153796   153796   153805   153828 
  153867   153897   153918   153948   153958   153956   153971   153976 
  153964   153959   153947   153920   153891   153867   153852   153854 
  153862   153866   153867   153867   153866   153866   153882   153910 
  153925   153941   153975   153995   153995   153998   153999   153986 
  153956   153939   153951   153958   153948   153951   153963   153976 
  153990   153985   153963   153929   153875   153833   153820   153823 
  153820   153805   153801   153819   153835   153851   153871   153893 
  153932   153974   153991   153978   153949   153937   153928   153890 
  153848   153819   153798   153800   153805   153797   153810   153850 
  153870   153874   153873   153873   153886   153898   153895   153882 
  153864   153873   153910   153925   153922   153941   153952   153940 
  153937   153925   153894   153881   153883   153905   153944   153948 
  153914   153898   153898   153895   153893   153895   153910   153908 
  153864   153819   153798   153806   153848   153913   153960   153989 
  154008   154013   154003   153982   153948   153927   153922   153917 
  153917   153914   153883   153843   153806   153774   153781   153831 
  153873   153894   153922   153951   153962   153945   153917   153890 
  153867   153837   153829   153850   153856   153851   153863   153881 
  153889   153887   153870   153850   153850   153860   153864   153870 
  153864   153847   153843   153844   153823   153798   153796   153816 
  153862   153927   153982   154006   154008   153995   153999   154032 
  154049   154037   154026   153983   153917   153893   153860   153793 
  153756   153778   153837   153901   153928   153921   153887   153844 
  153837   153848   153841   153850   153882   153909   153924   153925 
  153910   153882   153851   153836   153836   153835   153828   153813 
  153800   153806   153850   153897   153913   153921   153945   153972 
  153993   154009   154008   153981   153944   153905   153874   153870 
  153885   153917   153949   153949   153939   153925   153890   153866 
  153875   153894   153927   153970   153991   153994   153979   153958 
  153954   153937   153895   153868   153850   153820   153805   153804 
  153805   153820   153836   153846   153850   153843   153837   153850 
  153877   153897   153905   153913   153928   153951   153971   153981 
  153994   154010   154013   154025   154039   154008   153963   153925 
  153904   153914   153925   153925   153947   153959   153954   153981 
  154002   153971   153939   153917   153879   153843   153836   153858 
  153893   153910   153897   153863   153829   153827   153841   153837 
  153812   153783   153774   153783   153800   153817   153836   153846 
  153848   153852   153851   153856   153878   153901   153912   153936 
  153982   154013   154018   154025   154029   154013   153994   153974 
  153947   153939   153959   154005   154064   154091   154082   154062 
  154020   153981   153982   153982   153958   153927   153900   153890 
  153891   153900   153924   153937   153904   153859   153831   153809 
  153806   153813   153809   153796   153755   153681   153598   153528 
  153513   153580   153678   153770   153836   153862   153855   153836 
  153805   153773   153766   153809   153881   153943   153979   153989 
  153993   154002   154010   154041   154111   154183   154237   154260 
  154229   154176   154114   154025   153937   153863   153798   153777 
  153781   153786   153808   153819   153827   153856   153870   153841 
  153810   153813   153860   153917   153940   153932   153889   153813 
  153733   153651   153577   153540   153543   153586   153667   153738 
  153769   153781   153789   153773   153738   153731   153792   153914 
  154051   154151   154182   154137   154087   154086   154095   154102 
  154121   154120   154099   154062   153967   153862   153809   153792 
  153796   153823   153843   153852   153855   153839   153802   153752 
  153712   153681   153631   153566   153507   153465   153469   153526 
  153605   153694   153769   153819   153893   153985   154047   154095 
  154144   154171   154188   154213   154237   154246   154215   154140 
  154059   154025   154052   154138   154268   154387   154442   154403 
  154263   154071   153904   153796   153731   153678   153628   153603 
  153634   153706   153758   153759   153735   153728   153766   153854 
  153949   154006   154028   154026   153966   153839   153679   153512 
  153403   153447   153611   153802   153975   154071   154089   154091 
  154080   154029   153982   153975   153987   153963   153891   153809 
  153751   153735   153770   153817   153859   153933   154057   154180 
  154233   154182   154064   153947   153851   153785   153752   153740 
  153763   153810   153806   153747   153697   153690   153744   153854 
  153982   154097   154163   154138   154016   153828   153646   153516 
  153427   153377   153385   153450   153544   153639   153738   153844 
  153947   154016   154013   153966   153937   153955   154013   154078 
  154110   154103   154067   154026   154009   154021   154063   154133 
  154241   154350   154360   154260   154141   154013   153846   153692 
  153580   153509   153524   153597   153643   153650   153630   153605 
  153646   153756   153867   153948   154029   154109   154132   154045 
  153889   153754   153689   153700   153775   153863   153932   154036 
  154215   154391   154477   154483   154454   154408   154332   154215 
  154102   154016   153936   153863   153804   153717   153601   153531 
  153551   153621   153721   153870   154048   154222   154330   154305 
  154167   154002   153868   153759   153635   153527   153523   153643 
  153797   153910   153986   154040   154072   154103   154143   154152 
  154118   154099   154097   154032   153909   153801   153746   153736 
  153739   153746   153771   153781   153752   153728   153709   153698 
  153748   153821   153839   153827   153823   153820   153801   153733 
  153667   153682   153759   153879   154024   154138   154240   154341 
  154388   154383   154327   154188   154009   153850   153729   153635 
  153531   153393   153261   153198   153245   153366   153503   153657 
  153839   154012   154133   154201   154255   154292   154252   154155 
  154080   154036   153999   153983   153989   153964   153879   153785 
  153747   153725   153704   153748   153858   153933   153933   153882 
  153825   153801   153813   153825   153814   153802   153812   153846 
  153914   153989   154022   154039   154068   154063   153989   153894 
  153820   153750   153677   153651   153681   153684   153675   153725 
  153802   153890   153997   154068   154114   154168   154209   154224 
  154190   154105   154049   154060   154101   154152   154176   154128 
  154029   153922   153816   153732   153681   153642   153646   153735 
  153846   153898   153886   153844   153797   153765   153794   153879 
  153956   154014   154052   154052   154016   153971   153947   153940 
  153955   153987   153987   153933   153867   153816   153779   153767 
  153785   153819   153836   153828   153846   153912   154001   154084 
  154132   154147   154147   154111   154028   153913   153821   153813 
  153860   153914   153949   153901   153758   153607   153484   153412 
  153443   153534   153611   153704   153821   153897   153910   153902 
  153902   153916   153952   154024   154121   154175   154161   154130 
  154103   154070   154040   154017   153966   153860   153754   153746 
  153831   153906   153959   153999   154009   154018   153978   153816 
  153628   153535   153549   153662   153798   153843   153796   153736 
  153681   153601   153512   153496   153596   153756   153910   154014 
  154035   154017   154022   154051   154083   154090   154041   153978 
  153958   153968   153979   154009   154076   154144   154151   154095 
  154035   154002   154022   154103   154187   154218   154172   154033 
  153847   153659   153470   153342   153350   153424   153459   153486 
  153612   153843   154055   154161   154172   154137   154122   154178 
  154286   154377   154390   154309   154187   154057   153904   153756 
  153667   153670   153781   153917   153964   153913   153810   153727 
  153708   153705   153690   153684   153673   153685   153744   153775 
  153781   153831   153889   153963   154106   154259   154392   154514 
  154556   154485   154310   154078   153891   153770   153681   153640 
  153642   153639   153625   153635   153689   153789   153908   154010 
  154049   154040   154028   154009   153989   154003   154002   153932 
  153833   153748   153685   153655   153658   153679   153721   153777 
  153820   153844   153867   153885   153860   153808   153769   153748 
  153756   153817   153904   153959   153985   154045   154147   154201 
  154176   154120   154064   153993   153893   153806   153767   153744 
  153747   153805   153873   153929   154008   154084   154134   154165 
  154165   154138   154121   154125   154113   154048   153958   153878 
  153813   153790   153792   153760   153728   153756   153812   153862 
  153909   153928   153912   153873   153827   153835   153912   153983 
  153990   153918   153800   153701   153652   153655   153740   153878 
  153971   154006   154026   154014   153954   153894   153848   153777 
  153700   153673   153702   153736   153727   153713   153771   153898 
  154017   154083   154114   154124   154094   154026   153951   153894 
  153885   153927   153995   154052   154028   153871   153663   153536 
  153515   153551   153639   153742   153783   153756   153715   153673 
  153635   153657   153746   153844   153902   153917   153927   153941 
  153925   153886   153887   153940   153998   154016   153999   153932 
  153801   153706   153742   153833   153898   153941   153929   153863 
  153829   153839   153864   153937   154025   154059   154063   154072 
  154072   154076   154109   154156   154194   154180   154122   154084 
  154047   153972   153932   153943   153921   153868   153805   153700 
  153598   153571   153607   153671   153717   153673   153558   153478 
  153486   153534   153588   153681   153809   153927   154035   154125 
  154159   154136   154087   154060   154071   154078   154080   154082 
  154028   153952   153928   153954   154043   154164   154229   154256 
  154268   154192   154026   153841   153679   153589   153604   153678 
  153742   153800   153877   153944   153974   153971   153944   153912 
  153894   153894   153908   153914   153910   153909   153870   153739 
  153538   153355   153283   153361   153543   153774   154040   154251 
  154299   154256   154229   154201   154153   154090   153972   153837 
  153748   153690   153702   153792   153841   153856   153924   154022 
  154111   154170   154155   154053   153905   153781   153713   153643 
  153563   153551   153609   153692   153793   153886   153955   154035 
  154126   154214   154288   154325   154357   154390   154349   154267 
  154178   154020   153820   153650   153482   153320   153252   153327 
  153517   153732   153898   154036   154151   154191   154137   154010 
  153867   153760   153675   153628   153661   153755   153902   154091 
  154246   154313   154317   154302   154292   154295   154286   154211 
  154076   153958   153878   153817   153770   153723   153686   153671 
  153670   153709   153782   153848   153944   154083   154195   154248 
  154228   154136   154021   153922   153850   153793   153723   153651 
  153596   153576   153621   153732   153864   153993   154105   154153 
  154117   154029   153920   153760   153569   153442   153404   153400 
  153442   153530   153624   153686   153663   153627   153688   153777 
  153846   153937   153993   153986   153982   153975   153967   153970 
  153922   153846   153829   153863   153912   153975   154036   154049 
  153994   153927   153897   153877   153847   153812   153773   153752 
  153752   153769   153817   153862   153883   153940   154041   154143 
