Origin Time       2025/06/03 22:18:00
Lat.              41.7
Long.             143.6
Depth. (km)       30
Mag.              5.2
Station Code      KSRH04
Station Lat.      43.2139
Station Long.     144.6804
Station Height(m) 30
Record Time       2025/06/03 22:19:16
Sampling Freq(Hz) 100Hz
Duration Time(s)  120
Dir.              6
Scale Factor      7845(gal)/8223790
Max. Acc. (gal)   0.465
Last Correction   2025/06/03 22:19:17
Memo.             
[...]
   -4955    -4963    -4968    -4945    -4968    -5023    -5031    -5011 
   -5019    -5058    -5078    -5044    -4996    -4976    -4995    -5049 
   -5081    -5027    -4938    -4920    -4962    -4974    -4953    -4977 
   -5055    -5090    -5046    -5016    -5057    -5111    -5134    -5123 
   -5076    -5028    -5031    -5065    -5101    -5113    -5042    -4951 
   -4974    -5042    -5046    -5055    -5104    -5074    -4946    -4853 
   -4876    -4959    -5008    -4993    -4970    -4997    -5046    -5076 
   -5109    -5138    -5109    -5071    -5076    -5063    -5015    -4978 
   -4984    -5035    -5089    -5057    -4990    -5013    -5059    -5030 
   -4978    -4949    -4953    -4984    -4972    -4930    -4961    -5040 
   -5066    -5058    -5082    -5111    -5085    -5022    -5012    -5063 
   -5080    -5039    -4972    -4928    -4986    -5093    -5125    -5104 
   -5053    -4977    -4922    -4891    -4896    -4955    -5016    -5054 
   -5081    -5086    -5055    -5008    -4945    -4861    -4815    -4887 
   -5013    -5063    -5022    -4978    -4976    -5009    -5066    -5108 
   -5100    -5067    -5012    -4911    -4834    -4851    -4915    -4976 
   -5034    -5077    -5078    -5049    -5071    -5154    -5192    -5167 
   -5123    -5073    -5071    -5089    -5034    -4957    -4926    -4923 
   -4970    -5038    -5027    -4992    -4972    -4911    -4877    -4932 
   -4985    -5016    -5074    -5130    -5136    -5088    -5011    -4950 
   -4927    -4922    -4920    -4953    -5009    -5007    -4986    -5055 
   -5105    -5026    -4922    -4873    -4873    -4911    -4949    -4997 
   -5096    -5152    -5089    -5012    -5004    -5042    -5081    -5089 
   -5054    -5016    -5015    -5015    -4992    -4989    -5004    -5000 
   -4996    -4992    -4957    -4935    -4985    -5035    -4999    -4935 
   -4928    -4970    -5024    -5043    -5030    -5067    -5139    -5178 
   -5171    -5089    -4990    -4990    -5035    -5011    -4969    -4989 
   -5030    -5030    -4985    -4954    -4973    -4990    -4973    -4949 
   -4936    -4978    -5050    -5062    -5059    -5105    -5150    -5144 
   -5084    -5009    -4995    -5039    -5096    -5132    -5131    -5101 
   -5051    -5024    -5047    -5074    -5063    -5022    -4973    -4936 
   -4893    -4857    -4872    -4936    -5026    -5085    -5043    -4977 
   -4976    -4981    -5019    -5111    -5115    -5051    -5032    -5003 
   -4970    -5003    -5044    -5078    -5121    -5100    -5001    -4927 
   -4916    -4955    -5009    -5047    -5086    -5108    -5090    -5077 
   -5094    -5107    -5089    -5082    -5080    -5030    -4954    -4924 
   -4957    -4984    -4947    -4926    -4981    -5043    -5054    -5009 
   -4951    -4950    -4959    -4899    -4884    -4977    -5059    -5092 
   -5108    -5111    -5080    -4988    -4895    -4885    -4958    -5061 
   -5101    -5077    -5080    -5065    -5013    -5007    -5012    -5004 
   -5032    -5053    -5015    -4959    -4928    -4928    -4923    -4912 
   -4907    -4923    -5004    -5112    -5146    -5127    -5109    -5086 
   -5059    -5013    -4972    -5013    -5108    -5144    -5120    -5082 
   -5024    -4959    -4919    -4892    -4869    -4889    -4963    -5015 
   -4996    -4953    -4961    -5035    -5103    -5107    -5101    -5113 
   -5053    -4935    -4901    -4955    -4996    -4984    -4976    -5053 
   -5131    -5070    -4945    -4882    -4911    -4986    -5046    -5059 
   -5039    -5023    -5057    -5132    -5143    -5038    -4959    -4992 
   -5017    -4982    -4945    -4928    -4938    -4965    -4984    -5016 
   -5063    -5082    -5062    -5034    -5011    -4990    -4970    -4977 
   -5049    -5134    -5140    -5065    -4977    -4947    -5011    -5103 
   -5134    -5108    -5055    -4995    -5007    -5098    -5143    -5125 
   -5108    -5084    -5038    -5000    -4990    -4993    -5007    -4995 
   -4918    -4864    -4869    -4877    -4936    -5012    -4999    -4997 
   -5036    -5020    -5022    -5067    -5073    -5082    -5116    -5130 
   -5148    -5136    -5059    -5007    -5020    -5059    -5047    -4957 
   -4882    -4903    -4950    -4961    -4932    -4903    -4938    -5020 
   -5061    -5076    -5096    -5104    -5121    -5116    -5028    -4927 
   -4912    -4955    -5004    -5022    -4946    -4873    -4953    -5090 
   -5117    -5057    -4974    -4895    -4851    -4858    -4907    -4968 
   -4968    -4942    -4949    -4957    -4968    -4997    -5020    -5019 
   -5017    -5051    -5108    -5169    -5206    -5163    -5036    -4943 
   -4966    -5043    -5100    -5121    -5089    -5049    -5049    -5036 
   -5050    -5121    -5151    -5135    -5093    -5011    -5001    -5085 
   -5125    -5119    -5101    -5059    -5011    -4963    -4943    -4962 
   -4976    -4995    -5067    -5132    -5107    -5026    -4943    -4870 
   -4866    -4936    -4989    -5032    -5109    -5115    -5011    -4939 
   -4973    -5051    -5128    -5155    -5093    -5051    -5061    -5019 
   -4972    -4992    -5044    -5078    -5077    -5078    -5097    -5090 
   -5022    -4901    -4841    -4858    -4857    -4877    -4970    -5038 
   -5071    -5093    -5040    -4974    -4972    -4947    -4905    -4931 
   -4973    -4947    -4919    -4957    -4986    -4951    -4924    -4918 
   -4901    -4905    -4941    -5036    -5173    -5186    -5038    -4904 
   -4909    -5034    -5188    -5252    -5202    -5115    -5009    -4914 
   -4920    -5028    -5132    -5131    -5019    -4915    -4873    -4862 
   -4882    -4927    -4969    -5004    -5019    -5015    -5000    -4962 
   -4941    -5001    -5112    -5154    -5086    -5001    -4978    -5015 
   -5050    -5049    -5055    -5055    -4997    -4963    -5008    -5077 
   -5146    -5138    -4996    -4858    -4827    -4845    -4915    -5049 
   -5107    -5016    -4922    -4957    -5067    -5143    -5148    -5135 
   -5128    -5071    -4993    -5003    -5078    -5105    -5050    -4981 
   -4945    -4908    -4878    -4918    -5057    -5174    -5111    -4939 
   -4880    -4977    -5097    -5144    -5159    -5189    -5184    -5128 
   -5071    -5032    -5050    -5116    -5169    -5186    -5152    -5063 
   -4973    -4928    -4924    -4941    -4949    -4927    -4884    -4870 
   -4923    -5001    -5035    -4976    -4882    -4891    -4984    -5055 
   -5097    -5105    -5098    -5082    -5015    -4922    -4881    -4927 
   -5016    -5063    -5076    -5039    -4895    -4758    -4796    -4957 
   -5109    -5196    -5201    -5154    -5055    -4946    -4936    -5003 
   -5043    -5077    -5116    -5132    -5121    -5080    -5054    -5066 
   -5040    -4976    -4928    -4912    -4969    -5057    -5057    -5015 
   -5035    -5042    -4959    -4904    -4961    -5023    -4988    -4936 
   -4932    -4918    -4927    -4993    -5043    -5049    -4992    -4911 
   -4923    -4990    -5023    -5051    -5080    -5051    -5001    -5011 
   -5043    -5023    -4995    -4985    -4973    -5000    -5070    -5105 
   -5070    -5031    -5058    -5142    -5193    -5117    -5016    -5065 
   -5175    -5194    -5173    -5173    -5130    -5020    -4963    -5011 
   -5047    -5017    -4962    -4896    -4845    -4833    -4838    -4866 
   -4897    -4920    -4988    -5093    -5130    -5070    -4982    -4916 
   -4923    -5011    -5073    -5081    -5138    -5233    -5232    -5132 
   -5070    -5062    -5013    -4932    -4916    -4961    -4969    -4922 
   -4922    -4996    -5039    -5024    -5013    -5032    -5062    -5050 
   -5008    -4988    -4959    -4949    -4984    -4993    -4963    -4950 
   -4950    -4941    -4932    -4920    -4899    -4889    -4897    -4951 
   -5086    -5194    -5158    -5043    -4946    -4918    -4984    -5053 
   -5044    -5022    -4990    -4951    -4976    -5036    -5104    -5200 
   -5212    -5119    -5049    -5020    -4999    -4993    -4980    -4972 
   -4966    -4912    -4880    -4927    -4949    -4941    -4993    -5066 
   -5081    -5046    -4988    -4936    -4928    -4986    -5057    -5065 
   -5039    -5055    -5089    -5104    -5132    -5185    -5179    -5051 
   -4854    -4752    -4849    -5026    -5103    -5088    -5032    -4959 
   -4976    -5092    -5185    -5212    -5154    -5020    -4946    -4939 
   -4891    -4830    -4845    -4936    -5050    -5120    -5125    -5092 
   -5078    -5097    -5085    -5038    -4990    -4972    -5001    -5057 
   -5115    -5163    -5197    -5196    -5138    -5078    -5046    -5003 
   -4974    -4988    -5022    -5092    -5150    -5109    -5035    -5023 
   -5042    -4992    -4841    -4734    -4784    -4918    -5047    -5144 
   -5162    -5055    -4920    -4928    -5074    -5196    -5181    -5066 
   -4962    -4895    -4861    -4936    -5084    -5147    -5134    -5124 
   -5077    -4999    -4924    -4834    -4804    -4904    -5044    -5150 
   -5219    -5211    -5104    -4982    -4934    -4977    -5081    -5143 
   -5086    -4961    -4806    -4687    -4780    -5071    -5260    -5216 
   -5094    -5026    -5005    -4977    -4928    -4935    -5009    -5050 
   -5011    -4955    -4923    -4893    -4905    -4973    -5004    -4970 
   -4959    -4996    -5027    -5020    -4976    -4905    -4846    -4808 
   -4839    -4942    -4989    -4995    -5030    -5020    -4981    -5005 
   -5089    -5186    -5212    -5139    -5111    -5139    -5096    -5061 
   -5112    -5136    -5107    -5046    -4958    -4924    -4958    -4990 
   -5034    -5089    -5104    -5125    -5151    -5051    -4861    -4758 
   -4789    -4896    -5043    -5155    -5173    -5127    -5085    -5066 
   -5059    -5094    -5159    -5161    -5130    -5142    -5100    -5004 
   -4984    -4996    -4992    -5057    -5140    -5124    -5024    -4901 
   -4882    -4986    -5023    -5005    -5019    -4990    -4962    -4963 
   -4934    -4920    -4966    -5020    -4997    -4872    -4750    -4703 
   -4710    -4801    -4951    -5055    -5131    -5166    -5085    -5009 
   -5024    -5022    -4959    -4864    -4804    -4861    -4955    -4988 
   -5024    -5150    -5290    -5323    -5289    -5254    -5150    -5013 
   -4946    -4911    -4934    -5007    -5011    -4966    -4928    -4869 
   -4866    -5005    -5174    -5179    -5032    -4949    -5007    -5044 
   -5023    -5054    -5170    -5275    -5215    -5034    -4932    -4914 
   -4887    -4899    -4992    -5135    -5251    -5279    -5282    -5265 
   -5125    -4938    -4827    -4764    -4766    -4873    -5005    -5085 
   -5076    -5000    -4938    -4918    -4893    -4827    -4749    -4762 
   -4882    -4978    -5000    -5003    -4996    -4976    -5031    -5166 
   -5215    -5123    -4981    -4837    -4738    -4779    -4951    -5124 
   -5154    -5030    -4920    -4999    -5170    -5229    -5174    -5049 
   -4849    -4704    -4768    -4973    -5125    -5139    -5092    -5104 
   -5144    -5120    -5051    -4969    -4916    -4927    -4953    -4970 
   -5005    -5061    -5148    -5244    -5217    -5049    -4914    -4881 
   -4928    -5073    -5213    -5246    -5209    -5132    -5003    -4897 
   -4881    -4920    -4951    -4945    -4923    -4903    -4884    -4947 
   -5096    -5167    -5165    -5162    -5104    -4999    -4957    -5030 
   -5171    -5252    -5171    -4976    -4843    -4885    -4999    -5065 
   -5050    -4943    -4837    -4857    -4976    -5085    -5146    -5159 
   -5181    -5225    -5193    -5108    -5073    -5031    -4923    -4791 
   -4696    -4723    -4923    -5194    -5362    -5336    -5186    -4996 
   -4800    -4703    -4780    -4935    -5031    -5023    -4969    -4931 
   -4920    -4936    -4977    -5047    -5113    -5109    -5073    -5040 
   -4989    -4959    -4986    -5067    -5204    -5302    -5263    -5131 
   -4997    -4942    -4984    -4985    -4931    -4961    -5009    -4972 
   -4918    -4896    -4930    -5047    -5154    -5179    -5169    -5144 
   -5134    -5155    -5170    -5188    -5219    -5184    -5071    -4993 
   -5000    -5015    -4980    -4970    -4996    -4945    -4818    -4742 
   -4801    -4961    -5101    -5197    -5235    -5096    -4872    -4839 
   -4973    -5020    -4935    -4834    -4800    -4851    -4968    -5081 
   -5121    -5061    -4918    -4787    -4750    -4823    -4997    -5173 
   -5215    -5109    -4934    -4816    -4855    -5013    -5171    -5258 
   -5270    -5181    -5036    -5017    -5148    -5233    -5188    -5105 
   -5050    -5000    -4941    -4891    -4881    -4904    -4942    -4997 
   -5069    -5163    -5232    -5185    -5059    -4981    -4970    -4939 
   -4877    -4815    -4757    -4738    -4765    -4792    -4806    -4819 
   -4901    -5088    -5248    -5285    -5310    -5362    -5314    -5157 
   -4980    -4918    -5057    -5200    -5148    -5022    -4920    -4850 
   -4876    -4942    -4915    -4830    -4795    -4811    -4849    -4950 
   -5132    -5292    -5319    -5178    -4974    -4895    -4953    -5024 
   -5042    -4986    -4912    -4878    -4891    -4993    -5139    -5188 
   -5161    -5113    -5026    -4955    -4954    -5008    -5111    -5150 
   -5039    -4887    -4819    -4850    -4934    -4974    -4918    -4880 
   -4968    -5081    -5124    -5105    -4970    -4757    -4726    -4914 
   -5116    -5260    -5279    -5109    -4880    -4722    -4687    -4808 
   -4978    -5071    -5081    -5047    -5103    -5266    -5323    -5227 
   -5107    -5007    -4924    -4872    -4901    -4972    -4955    -4905 
   -4963    -5092    -5193    -5251    -5266    -5220    -5146    -5074 
   -5003    -4942    -4892    -4822    -4777    -4838    -5035    -5290 
   -5448    -5439    -5305    -5107    -4914    -4803    -4833    -4938 
   -4990    -4996    -5031    -5082    -5148    -5266    -5341    -5228 
   -4990    -4810    -4776    -4889    -5096    -5333    -5506    -5458 
   -5181    -4918    -4814    -4779    -4792    -4872    -4942    -5015 
   -5086    -5104    -5092    -5000    -4841    -4784    -4811    -4789 
   -4797    -4958    -5158    -5229    -5150    -4968    -4785    -4735 
   -4796    -4850    -4926    -5061    -5151    -5179    -5202    -5194 
   -5135    -5082    -5085    -5107    -5092    -5059    -5073    -5146 
   -5151    -4997    -4827    -4765    -4742    -4780    -4959    -5115 
   -5065    -4945    -4908    -4954    -5074    -5181    -5198    -5236 
   -5329    -5332    -5184    -4990    -4887    -4858    -4830    -4822 
   -4830    -4830    -4866    -4930    -4999    -5067    -5065    -5004 
   -4969    -4978    -5020    -5046    -5019    -4966    -4942    -5053 
   -5239    -5273    -5124    -4924    -4784    -4762    -4806    -4876 
   -5009    -5157    -5198    -5147    -5090    -5043    -5027    -5040 
   -5007    -4951    -4957    -4985    -4972    -4947    -4958    -4988 
   -4973    -4893    -4873    -5024    -5194    -5174    -5054    -4976 
   -4899    -4803    -4723    -4716    -4888    -5117    -5209    -5224 
   -5227    -5197    -5202    -5217    -5120    -4923    -4783    -4826 
   -4977    -5085    -5144    -5194    -5221    -5216    -5192    -5184 
   -5217    -5216    -5090    -4926    -4861    -4889    -4961    -5022 
   -5019    -5053    -5188    -5220    -5038    -4827    -4770    -4846 
   -4949    -4969    -4909    -4923    -5054    -5161    -5146    -5042 
   -4969    -4972    -4962    -4939    -4968    -5017    -5023    -4965 
   -4900    -4896    -4918    -4930    -4962    -4997    -5057    -5167 
   -5185    -5054    -4935    -4924    -5020    -5138    -5124    -5067 
   -5136    -5208    -5165    -5107    -5065    -4973    -4870    -4811 
   -4761    -4712    -4720    -4811    -4935    -5065    -5159    -5150 
   -5134    -5219    -5319    -5370    -5359    -5224    -5034    -4887 
   -4799    -4828    -4935    -4973    -4965    -5012    -5062    -5050 
   -5012    -4966    -4907    -4874    -4900    -4955    -5032    -5124 
   -5178    -5148    -5082    -5058    -5022    -4919    -4849    -4888 
   -4984    -5017    -4963    -4959    -5070    -5181    -5162    -5030 
   -4905    -4861    -4897    -4974    -5069    -5139    -5054    -4896 
   -4928    -5135    -5271    -5271    -5242    -5238    -5225    -5175 
   -5112    -5034    -4934    -4857    -4853    -4928    -5026    -5082 
   -5086    -5035    -4945    -4851    -4824    -4941    -5131    -5200 
   -5085    -4876    -4738    -4843    -5074    -5169    -5127    -5080 
   -5051    -4999    -4950    -4973    -5009    -5009    -5042    -5097 
   -5097    -5036    -4970    -4957    -5001    -5042    -4995    -4873 
   -4781    -4783    -4888    -5050    -5151    -5151    -5125    -5167 
   -5254    -5235    -5065    -4939    -5036    -5232    -5317    -5287 
   -5215    -5078    -4909    -4777    -4684    -4671    -4747    -4845 
   -4935    -4977    -4959    -4951    -4955    -4909    -4816    -4788 
   -4914    -5080    -5138    -5128    -5101    -5035    -4931    -4830 
   -4818    -4932    -5071    -5150    -5173    -5162    -5150    -5154 
   -5147    -5070    -4926    -4851    -4908    -4982    -4996    -4973 
   -4919    -4870    -4884    -4930    -5001    -5093    -5135    -5132 
   -5097    -5004    -4954    -5015    -5104    -5150    -5104    -4981 
   -4874    -4807    -4791    -4868    -5027    -5220    -5350    -5339 
   -5192    -4978    -4849    -4872    -4955    -5071    -5192    -5174 
   -5035    -4918    -4837    -4785    -4780    -4807    -4873    -4945 
   -4982    -5040    -5152    -5246    -5256    -5209    -5135    -5043 
   -4970    -4980    -5107    -5267    -5282    -5139    -5050    -5061 
   -5036    -5008    -5036    -5066    -5065    -5063    -5101    -5143 
   -5143    -5130    -5061    -4885    -4768    -4881    -5098    -5197 
   -5143    -5031    -4927    -4868    -4877    -4958    -5100    -5205 
   -5147    -4995    -4901    -4900    -4993    -5146    -5279    -5348 
   -5323    -5225    -5132    -5028    -4923    -4908    -4957    -4978 
   -4993    -5034    -5066    -5031    -4908    -4749    -4630    -4618 
   -4710    -4847    -4950    -4980    -4938    -4869    -4869    -4974 
   -5093    -5147    -5161    -5179    -5182    -5125    -5101    -5194 
   -5274    -5242    -5169    -5086    -5004    -5009    -5092    -5131 
   -5063    -4927    -4835    -4838    -4923    -5049    -5100    -5055 
   -4974    -4868    -4804    -4864    -5001    -5105    -5097    -5024 
   -5024    -5107    -5111    -5008    -4949    -4970    -4985    -4949 
   -4900    -4922    -4986    -5013    -4995    -4947    -4885    -4853 
   -4889    -5011    -5155    -5205    -5155    -5104    -5097    -5125 
   -5108    -4993    -4878    -4868    -4958    -5047    -5050    -5007 
   -4954    -4891    -4904    -5032    -5146    -5121    -5013    -4959 
   -4992    -5039    -5043    -5031    -5046    -5059    -5026    -5007 
   -5032    -5013    -4974    -4999    -5013    -4932    -4815    -4777 
   -4854    -4995    -5132    -5201    -5166    -5053    -4927    -4878 
   -4927    -5005    -5093    -5211    -5308    -5313    -5256    -5201 
   -5135    -5051    -4989    -4988    -5008    -4974    -4893    -4801 
   -4747    -4793    -4877    -4901    -4922    -5011    -5123    -5196 
   -5206    -5157    -5069    -4992    -4986    -5053    -5117    -5167 
   -5223    -5224    -5111    -4939    -4819    -4814    -4924    -5088 
   -5181    -5170    -5074    -4909    -4761    -4676    -4633    -4672 
   -4800    -4936    -5030    -5054    -4996    -4889    -4787    -4734 
   -4737    -4780    -4928    -5163    -5301    -5304    -5223    -5065 
   -4965    -5017    -5128    -5225    -5294    -5297    -5248    -5201 
   -5174    -5167    -5121    -5030    -4970    -4955    -4965    -4990 
