Origin Time       2025/06/03 22:18:00
Lat.              41.7
Long.             143.6
Depth. (km)       30
Mag.              5.2
Station Code      KSRH07
Station Lat.      43.1359
Station Long.     144.3274
Station Height(m) 38
Record Time       2025/06/03 22:19:14
Sampling Freq(Hz) 100Hz
Duration Time(s)  120
Dir.              6
Scale Factor      7845(gal)/8223790
Max. Acc. (gal)   0.668
Last Correction   2025/06/03 22:19:14
Memo.             
[...]
    4968     4873     4846     4941     5116     5232     5173     4928 
    4638     4518     4623     4810     4927     4955     4981     5055 
    5109     5042     4881     4762     4756     4818     4891     4953 
    4999     5011     4986     4972     5015     5065     5044     4972 
    4924     4958     5038     5062     4995     4891     4851     4941 
    5134     5282     5223     4990     4787     4758     4876     4990 
    5009     4992     5019     5057     5008     4850     4695     4702 
    4873     5055     5090     4966     4843     4897     5109     5278 
    5221     4986     4788     4780     4928     5076     5094     5008 
    4934     4962     5084     5196     5213     5116     4936     4762 
    4675     4693     4812     4996     5158     5213     5142     4996 
    4873     4869     4992     5144     5213     5148     4997     4876 
    4860     4930     5017     5051     4996     4897     4826     4808 
    4846     4922     5000     5058     5078     5028     4896     4768 
    4757     4851     4961     5001     4950     4900     4949     5088 
    5235     5286     5178     4938     4710     4672     4866     5132 
    5223     5058     4810     4693     4792     5028     5216     5254 
    5198     5134     5078     4997     4907     4909     5008     5054 
    4957     4822     4820     4984     5152     5185     5116     5058 
    5030     4946     4774     4604     4552     4662     4870     5047 
    5096     4999     4889     4942     5127     5216     5061     4772 
    4611     4696     4880     4999     5036     5046     5038     4996 
    4953     4945     4947     4920     4885     4946     5131     5259 
    5155     4895     4692     4675     4814     4959     4990     4904 
    4803     4812     4968     5169     5247     5155     5019     4935 
    4888     4868     4918     5062     5217     5217     5043     4880 
    4882     5012     5094     5024     4881     4820     4880     4966 
    5000     4973     4926     4916     4976     5055     5061     4941 
    4760     4664     4735     4927     5143     5282     5267     5104 
    4899     4795     4870     5035     5117     5047     4908     4822 
    4826     4870     4888     4870     4870     4931     5026     5085 
    5076     5008     4938     4930     4985     5034     4996     4881 
    4784     4792     4899     5013     5070     5046     4947     4862 
    4900     5076     5267     5316     5178     4982     4903     4977 
    5094     5151     5130     5039     4899     4779     4756     4837 
    4950     5024     5043     5032     5016     5001     4995     5004 
    4996     4920     4792     4687     4669     4747     4846     4896 
    4912     4946     5013     5067     5046     4966     4923     4989 
    5103     5119     5020     4911     4862     4897     4993     5047 
    4980     4819     4683     4716     4959     5242     5333     5174 
    4935     4824     4896     5038     5116     5080     4949     4792 
    4716     4769     4897     5015     5067     5080     5127     5229 
    5287     5161     4869     4642     4672     4920     5182     5265 
    5113     4839     4633     4630     4828     5093     5242     5178 
    4976     4807     4780     4888     5040     5125     5092     4980 
    4904     4965     5107     5166     5054     4877     4843     5016 
    5217     5229     5031     4792     4706     4820     5020     5157 
    5165     5077     4976     4939     4968     5001     5027     5073 
    5127     5140     5089     5013     4955     4909     4855     4807 
    4828     4949     5069     5088     5009     4862     4702     4626 
    4685     4835     4978     5019     4947     4862     4838     4862 
    4927     5047     5151     5138     5005     4846     4758     4788 
    4909     5066     5197     5213     5067     4854     4747     4819 
    4962     5026     4945     4792     4731     4860     5105     5301 
    5300     5107     4872     4756     4818     4961     5046     5030 
    4958     4899     4885     4903     4942     4995     5038     5042 
    5000     4922     4845     4799     4812     4895     5031     5193 
    5293     5209     4951     4712     4684     4891     5163     5273 
    5151     4950     4838     4855     4920     4905     4789     4671 
    4626     4673     4827     5036     5182     5196     5113     5012 
    4955     4968     5031     5108     5157     5142     5069     5013 
    5042     5136     5212     5170     5001     4839     4835     4972 
    5092     5057     4889     4745     4765     4959     5198     5298 
    5198     5008     4881     4860     4885     4907     4950     5028 
    5109     5170     5197     5165     5061     4901     4750     4715 
    4823     4965     5051     5098     5128     5115     5001     4806 
    4702     4827     5054     5143     5032     4860     4784     4841 
    4949     5003     4977     4914     4846     4781     4706     4650 
    4723     4927     5125     5217     5181     5050     4939     4959 
    5077     5142     5063     4892     4747     4745     4896     5071 
    5116     5001     4860     4884     5092     5263     5192     4885 
    4572     4498     4711     5035     5229     5197     5059     4959 
    4924     4911     4861     4765     4712     4760     4861     4963 
    5040     5062     5017     4928     4858     4920     5163     5408 
    5394     5112     4822     4799     5063     5343     5358     5097 
    4780     4664     4791     4954     4970     4882     4861     4959 
    5070     5081     4989     4887     4839     4826     4843     4938 
    5117     5290     5294     5076     4812     4725     4841     4992 
    4982     4803     4637     4645     4839     5089     5238     5227 
    5107     4951     4799     4696     4722     4834     4896     4889 
    4935     5100     5292     5347     5197     4943     4752     4712 
    4793     4876     4837     4665     4556     4715     5096     5382 
    5292     4899     4572     4599     4932     5227     5215     4997 
    4857     4934     5148     5300     5248     5019     4777     4700 
    4814     4995     5085     5035     4935     4903     4954     5009 
    4984     4907     4895     4980     5081     5143     5159     5139 
    5119     5123     5131     5113     5053     4951     4851     4803 
    4795     4796     4854     5030     5256     5371     5285     5108 
    5023     5066     5115     5038     4851     4727     4810     5036 
    5201     5170     4997     4845     4800     4862     4978     5081 
    5130     5107     5003     4866     4791     4797     4806     4788 
    4810     4918     5084     5212     5208     5069     4857     4673 
    4656     4861     5155     5340     5302     5076     4839     4760 
    4865     5035     5123     5063     4924     4861     4943     5073 
    5143     5101     4966     4853     4843     4905     4955     4900 
    4720     4553     4548     4676     4791     4797     4722     4676 
    4770     4997     5216     5282     5151     4932     4811     4862 
    4995     5090     5098     5019     4916     4885     4965     5085 
    5139     5100     5022     4993     5042     5105     5134     5130 
    5105     5066     5003     4946     4954     4985     4942     4833 
    4770     4843     5011     5130     5121     5039     4974     4950 
    4957     5008     5085     5108     5019     4831     4660     4653 
    4842     5111     5270     5204     5034     4976     5063     5120 
    4951     4610     4378     4456     4801     5184     5373     5294 
    5042     4785     4689     4796     5008     5161     5148     5015 
    4880     4857     4995     5196     5279     5151     4915     4779 
    4834     4955     4980     4920     4919     5031     5167     5194 
    5046     4818     4702     4772     4936     5065     5063     4932 
    4766     4662     4660     4754     4911     5040     5081     5070 
    5065     5082     5104     5082     4985     4854     4780     4827 
    4961     5088     5163     5209     5232     5215     5147     5044 
    4976     4995     5047     5057     5024     4989     4942     4876 
    4814     4816     4912     5012     4982     4828     4683     4691 
    4927     5256     5402     5208     4819     4576     4702     5067 
    5304     5197     4911     4738     4792     4981     5098     5011 
    4774     4549     4487     4657     4923     5093     5143     5135 
    5105     5077     5088     5135     5177     5173     5109     5043 
    5049     5071     5023     4935     4908     4982     5085     5090 
    4980     4862     4804     4787     4797     4870     5005     5127 
    5140     4992     4761     4657     4780     5028     5243     5312 
    5211     5042     4915     4833     4784     4807     4919     5046 
    5062     4905     4661     4525     4619     4903     5171     5202 
    4986     4739     4656     4762     4961     5148     5292     5383 
    5374     5227     4990     4789     4712     4783     4995     5273 
    5436     5302     4904     4553     4576     4951     5341     5443 
    5213     4866     4639     4656     4880     5125     5206     5085 
    4868     4719     4735     4891     5111     5300     5337     5186 
    4945     4766     4737     4823     4908     4880     4764     4715 
    4833     5050     5178     5097     4900     4741     4668     4653 
    4676     4754     4896     5038     5107     5116     5108     5061 
    4961     4884     4918     5012     5031     4951     4888     4904 
    4923     4904     4912     5007     5144     5198     5093     4931 
    4882     4957     5026     4968     4788     4635     4666     4903 
    5238     5464     5367     4959     4560     4499     4789     5175 
    5373     5292     5100     4984     4961     4951     4865     4689 
    4568     4619     4803     5022     5184     5178     5016     4872 
    4881     4997     5073     4999     4835     4776     4926     5185 
    5364     5329     5115     4912     4857     4918     4990     4992 
    4918     4853     4861     4918     4969     5011     5077     5150 
    5162     5107     5058     5070     5117     5132     5089     5032 
    4999     4950     4866     4804     4845     4999     5179     5274 
    5243     5096     4892     4764     4792     4928     5046     5044 
    4963     4903     4893     4878     4780     4629     4594     4757 
    5022     5236     5290     5200     5100     5082     5112     5076 
    4915     4727     4665     4789     5009     5166     5175     5039 
    4822     4641     4587     4695     4920     5130     5190     5109 
    4988     4923     4939     4981     4972     4897     4811     4735 
    4665     4637     4699     4858     5085     5294     5341     5186 
    4982     4915     4996     5081     5049     4911     4803     4827 
    4962     5124     5185     5051     4807     4642     4648     4749 
    4818     4854     4955     5132     5292     5363     5341     5251 
    5104     4897     4699     4645     4791     5028     5181     5181 
    5119     5116     5163     5134     4955     4734     4658     4795 
    5000     5086     5017     4918     4915     4988     5030     5003 
    4938     4882     4887     4958     5055     5098     5036     4915 
    4831     4873     5069     5319     5433     5267     4847     4415 
    4290     4561     4986     5239     5223     5061     4889     4776 
    4746     4823     5031     5271     5343     5181     4969     4931 
    5088     5243     5212     5031     4920     5007     5177     5244 
    5139     4941     4804     4835     4981     5066     4961     4716 
    4510     4507     4737     5055     5279     5331     5228     5055 
    4905     4788     4661     4561     4577     4776     5089     5321 
    5327     5166     5034     5031     5040     4923     4742     4683 
    4820     5044     5161     5082     4880     4671     4548     4563 
    4698     4854     4941     4985     5077     5185     5178     5028 
    4895     4938     5124     5266     5247     5138     5067     5071 
    5107     5121     5062     4907     4689     4525     4545     4739 
    4962     5107     5167     5161     5111     5046     4969     4903 
    4911     5012     5136     5197     5134     4953     4774     4753 
    4926     5170     5321     5290     5127     4968     4895     4905 
    4966     4999     4945     4849     4810     4843     4882     4865 
    4797     4749     4765     4818     4830     4758     4662     4633 
    4741     5012     5329     5510     5475     5240     4928     4719 
    4656     4689     4797     4945     5062     5120     5152     5170 
    5157     5101     4995     4866     4819     4911     5063     5162 
    5166     5090     4970     4834     4727     4696     4754     4874 
    4997     5059     5073     5097     5167     5223     5177     5015 
    4834     4746     4776     4864     4949     4968     4874     4718 
    4622     4677     4845     4978     4989     4941     4932     4972 
    4981     4947     4958     5044     5124     5120     5054     5003 
    4965     4869     4762     4810     5074     5382     5503     5398 
    5197     5027     4918     4826     4703     4561     4456     4449 
    4603     4909     5251     5456     5422     5217     4970     4769 
    4668     4695     4831     4970     4976     4855     4811     4980 
    5263     5441     5375     5108     4818     4676     4725     4889 
    5077     5178     5143     5081     5100     5140     5076     4880 
    4668     4583     4676     4907     5221     5529     5668     5522 
    5151     4746     4503     4531     4752     4962     5044     5019 
    4961     4941     4965     5005     5059     5115     5096     4947 
    4734     4612     4703     4955     5177     5227     5109     4924 
    4770     4687     4680     4773     4957     5158     5282     5275 
    5188     5148     5225     5336     5317     5093     4796     4658 
    4772     4996     5119     5058     4887     4768     4795     4908 
    4977     4926     4768     4591     4496     4571     4823     5157 
    5428     5509     5346     5059     4860     4833     4915     4984 
    4950     4864     4837     4892     4985     5103     5227     5283 
    5202     5049     4981     5062     5154     5067     4803     4572 
    4581     4838     5108     5131     4922     4731     4746     4915 
    5036     4984     4815     4680     4668     4738     4820     4901 
    4988     5055     5053     4954     4846     4868     5046     5242 
    5274     5081     4812     4710     4853     5080     5200     5154 
    4995     4806     4660     4608     4657     4772     4903     5030 
    5161     5292     5370     5335     5170     4927     4739     4734 
    4909     5144     5293     5256     5082     4930     4903     4973 
    5030     4953     4745     4587     4658     4947     5277     5451 
    5368     5131     4963     4947     4978     4974     4950     4954 
    5000     5036     5023     5017     5067     5084     4966     4777 
    4688     4780     4962     5089     5101     5100     5193     5323 
    5371     5286     5063     4815     4723     4842     5036     5119 
    5022     4846     4780     4874     4986     4984     4866     4702 
    4625     4758     5061     5313     5298     5023     4716     4580 
    4622     4695     4687     4599     4472     4348     4298     4407 
    4708     5109     5413     5478     5360     5232     5197     5190 
    5101     4930     4788     4785     4918     5066     5117     5070 
    5020     5032     5092     5159     5186     5139     5007     4831 
    4720     4761     4919     5081     5150     5117     5055     5026 
    5016     4938     4737     4517     4452     4612     4887     5073 
    5088     5070     5196     5427     5532     5356     5001     4735 
    4714     4835     4901     4878     4889     5000     5135     5159 
    5044     4908     4874     4959     5076     5109     5028     4920 
    4903     4990     5089     5107     5034     4928     4839     4789 
    4803     4920     5123     5313     5370     5246     5050     4934 
    4930     4972     4976     4891     4785     4781     4873     4918 
    4828     4679     4627     4772     5042     5270     5348     5271 
    5111     4951     4845     4804     4833     4928     5057     5155 
    5144     4990     4780     4656     4648     4675     4711     4811 
    4955     5047     5055     5055     5134     5258     5309     5255 
    5173     5124     5117     5101     5042     4984     5000     5103 
    5204     5225     5181     5088     4951     4812     4698     4654 
    4725     4855     4953     4997     5011     5003     4968     4896 
    4788     4692     4672     4723     4800     4880     4970     5092 
    5202     5201     5098     5004     4978     5026     5123     5216 
    5251     5197     5057     4891     4800     4839     4949     5001 
    4919     4770     4708     4799     4949     4997     4882     4715 
    4677     4815     4988     5046     4969     4854     4799     4820 
    4884     4959     5008     4988     4897     4830     4884     5031 
    5142     5111     4958     4811     4762     4828     4978     5111 
    5107     4950     4758     4702     4831     5024     5113     5003 
    4765     4581     4571     4714     4887     4959     4912     4845 
    4878     5057     5310     5481     5440     5223     4976     4833 
    4828     4916     5000     5015     4974     4901     4800     4692 
    4653     4769     5022     5262     5339     5252     5159     5169 
    5219     5198     5088     4963     4926     4984     5063     5111 
    5120     5112     5100     5065     4969     4830     4746     4804 
    4954     5066     5055     4970     4950     5057     5189     5206 
    5082     4918     4850     4951     5167     5333     5310     5131 
    4941     4849     4857     4908     4955     4985     4988     4982 
    5000     5049     5098     5093     5007     4864     4731     4677 
    4700     4731     4743     4768     4860     5042     5216     5240 
    5082     4850     4680     4625     4644     4681     4735     4857 
    5035     5166     5157     5015     4812     4627     4533     4585 
    4760     4943     5066     5119     5089     4992     4904     4885 
    4927     4961     4934     4899     4977     5192     5416     5502 
    5416     5260     5159     5096     4980     4803     4626     4544 
    4633     4830     4962     4936     4843     4826     4919     5038 
    5044     4904     4750     4704     4739     4783     4804     4828 
    4916     5063     5163     5154     5073     5005     5013     5088 
    5150     5152     5136     5167     5259     5358     5381     5292 
    5148     5032     4988     5012     5054     5086     5128     5169 
    5194     5213     5244     5308     5370     5364     5290     5185 
    5086     5024     5007     5016     5000     4901     4723     4536 
    4430     4452     4583     4772     4926     4951     4873     4800 
    4792     4847     4920     4932     4854     4774     4804     4942 
    5077     5088     4966     4854     4873     4972     5026     4965 
    4815     4689     4668     4753     4895     5019     5077     5097 
    5125     5161     5146     5042     4903     4826     4858     4938 
    4973     4942     4892     4885     4954     5063     5161     5189 
