Origin Time       2025/06/03 22:18:00
Lat.              41.7
Long.             143.6
Depth. (km)       30
Mag.              5.2
Station Code      KSRH05
Station Lat.      43.2556
Station Long.     144.2338
Station Height(m) -216.1
Record Time       2025/06/03 22:19:21
Sampling Freq(Hz) 100Hz
Duration Time(s)  120
Dir.              1
Scale Factor      2942(gal)/8224139
Max. Acc. (gal)   0.224
Last Correction   2025/06/03 22:19:21
Memo.             
[...]
   -2812    -2799    -2785    -2752    -2710    -2681    -2675    -2694 
   -2718    -2712    -2691    -2722    -2816    -2894    -2889    -2848 
   -2866    -2926    -2932    -2867    -2832    -2863    -2898    -2897 
   -2897    -2920    -2901    -2813    -2728    -2678    -2628    -2575 
   -2540    -2504    -2458    -2439    -2486    -2575    -2648    -2679 
   -2697    -2705    -2689    -2668    -2678    -2700    -2708    -2712 
   -2713    -2705    -2691    -2698    -2720    -2720    -2701    -2733 
   -2820    -2891    -2918    -2909    -2862    -2812    -2794    -2767 
   -2713    -2690    -2731    -2799    -2857    -2876    -2839    -2764 
   -2687    -2629    -2598    -2579    -2570    -2589    -2637    -2706 
   -2782    -2839    -2870    -2901    -2963    -3028    -3011    -2911 
   -2820    -2758    -2704    -2679    -2683    -2687    -2704    -2737 
   -2764    -2787    -2818    -2814    -2747    -2683    -2698    -2760 
   -2781    -2732    -2686    -2683    -2654    -2579    -2567    -2652 
   -2749    -2794    -2814    -2857    -2874    -2803    -2709    -2670 
   -2675    -2662    -2617    -2593    -2621    -2675    -2732    -2787 
   -2816    -2825    -2849    -2859    -2822    -2779    -2758    -2733 
   -2690    -2656    -2654    -2670    -2663    -2610    -2567    -2587 
   -2643    -2668    -2674    -2741    -2882    -2976    -2968    -2951 
   -2979    -2990    -2925    -2789    -2631    -2511    -2459    -2466 
   -2523    -2587    -2575    -2529    -2592    -2727    -2789    -2820 
   -2909    -2972    -2930    -2847    -2802    -2825    -2879    -2889 
   -2839    -2791    -2772    -2772    -2790    -2799    -2772    -2722 
   -2671    -2627    -2593    -2570    -2556    -2570    -2601    -2616 
   -2624    -2677    -2748    -2771    -2771    -2837    -2957    -3024 
   -2988    -2897    -2810    -2737    -2648    -2546    -2482    -2478 
   -2511    -2555    -2605    -2664    -2685    -2631    -2560    -2560 
   -2648    -2743    -2774    -2781    -2826    -2868    -2822    -2706 
   -2633    -2635    -2640    -2646    -2704    -2790    -2872    -2971 
   -3063    -3110    -3126    -3096    -2999    -2922    -2961    -3036 
   -3007    -2890    -2809    -2812    -2812    -2736    -2651    -2648 
   -2701    -2732    -2736    -2736    -2744    -2745    -2721    -2682 
   -2655    -2644    -2641    -2674    -2752    -2806    -2795    -2774 
   -2785    -2778    -2697    -2590    -2544    -2571    -2616    -2628 
   -2605    -2602    -2654    -2704    -2675    -2601    -2578    -2613 
   -2651    -2686    -2712    -2706    -2716    -2798    -2875    -2824 
   -2702    -2650    -2655    -2635    -2596    -2590    -2640    -2708 
   -2747    -2772    -2830    -2924    -3003    -3038    -3056    -3056 
   -3015    -2945    -2891    -2893    -2913    -2868    -2764    -2683 
   -2650    -2627    -2581    -2527    -2505    -2513    -2536    -2573 
   -2617    -2668    -2737    -2822    -2913    -2979    -2975    -2867 
   -2713    -2621    -2604    -2593    -2573    -2585    -2620    -2651 
   -2713    -2833    -2945    -2968    -2891    -2760    -2646    -2606 
   -2637    -2698    -2759    -2772    -2698    -2578    -2531    -2601 
   -2701    -2752    -2764    -2776    -2786    -2793    -2830    -2878 
   -2878    -2830    -2766    -2710    -2681    -2679    -2708    -2760 
   -2789    -2755    -2701    -2732    -2837    -2889    -2835    -2748 
   -2709    -2708    -2712    -2745    -2801    -2791    -2737    -2755 
   -2853    -2910    -2875    -2860    -2921    -2948    -2894    -2847 
   -2859    -2895    -2921    -2902    -2824    -2759    -2762    -2752 
   -2648    -2519    -2479    -2546    -2652    -2735    -2762    -2727 
   -2625    -2502    -2473    -2583    -2741    -2843    -2852    -2810 
   -2817    -2907    -2988    -2978    -2886    -2768    -2681    -2652 
   -2664    -2706    -2759    -2785    -2785    -2803    -2837    -2843 
   -2825    -2798    -2751    -2667    -2562    -2498    -2508    -2535 
   -2558    -2620    -2735    -2828    -2818    -2731    -2664    -2648 
   -2633    -2635    -2686    -2709    -2677    -2683    -2741    -2760 
   -2747    -2762    -2781    -2747    -2689    -2652    -2640    -2662 
   -2712    -2725    -2704    -2713    -2767    -2832    -2872    -2864 
   -2808    -2771    -2812    -2863    -2866    -2868    -2893    -2913 
   -2943    -2980    -2984    -2925    -2840    -2793    -2799    -2814 
   -2806    -2826    -2890    -2897    -2809    -2733    -2712    -2690 
   -2670    -2689    -2712    -2652    -2566    -2605    -2724    -2735 
   -2641    -2608    -2677    -2724    -2694    -2689    -2748    -2781 
   -2737    -2701    -2727    -2741    -2671    -2577    -2539    -2535 
   -2519    -2535    -2612    -2682    -2693    -2691    -2727    -2782 
   -2835    -2889    -2932    -2929    -2890    -2849    -2818    -2767 
   -2674    -2597    -2659    -2824    -2921    -2924    -2922    -2897 
   -2805    -2729    -2727    -2751    -2774    -2803    -2810    -2791 
   -2787    -2791    -2751    -2677    -2644    -2662    -2662    -2659 
   -2741    -2886    -2964    -2921    -2841    -2778    -2701    -2617 
   -2571    -2569    -2602    -2677    -2759    -2797    -2825    -2901 
   -2953    -2929    -2932    -2984    -2956    -2822    -2708    -2698 
   -2755    -2776    -2737    -2724    -2755    -2744    -2681    -2670 
   -2751    -2832    -2856    -2836    -2764    -2647    -2542    -2502 
   -2532    -2571    -2594    -2633    -2687    -2714    -2681    -2596 
   -2525    -2506    -2494    -2471    -2473    -2517    -2566    -2581 
   -2602    -2687    -2812    -2862    -2770    -2609    -2497    -2478 
   -2511    -2543    -2592    -2686    -2789    -2824    -2774    -2733 
   -2781    -2828    -2789    -2729    -2735    -2771    -2781    -2783 
   -2829    -2920    -2978    -2955    -2916    -2895    -2839    -2772 
   -2790    -2871    -2940    -2968    -2928    -2798    -2659    -2606 
   -2647    -2741    -2857    -2955    -3015    -3046    -3048    -3036 
   -3046    -3060    -3026    -2967    -2952    -2980    -2991    -2937 
   -2794    -2623    -2533    -2542    -2563    -2554    -2555    -2616 
   -2713    -2771    -2759    -2732    -2758    -2809    -2812    -2779 
   -2778    -2828    -2843    -2737    -2614    -2648    -2799    -2907 
   -2929    -2944    -2970    -2961    -2894    -2786    -2673    -2590 
   -2528    -2446    -2347    -2322    -2381    -2398    -2350    -2357 
   -2438    -2497    -2512    -2524    -2528    -2517    -2500    -2478 
   -2484    -2551    -2637    -2691    -2717    -2736    -2754    -2748 
   -2714    -2706    -2747    -2774    -2797    -2903    -3028    -3030 
   -2945    -2868    -2786    -2671    -2559    -2511    -2542    -2604 
   -2677    -2767    -2847    -2894    -2928    -2957    -2959    -2920 
   -2886    -2897    -2918    -2928    -2925    -2882    -2813    -2790 
   -2828    -2868    -2893    -2936    -2976    -2959    -2917    -2925 
   -2934    -2841    -2687    -2609    -2635    -2705    -2744    -2713 
   -2636    -2573    -2567    -2593    -2593    -2594    -2648    -2698 
   -2674    -2641    -2698    -2801    -2841    -2825    -2814    -2797 
   -2737    -2695    -2749    -2855    -2916    -2922    -2924    -2945 
   -2982    -2982    -2928    -2868    -2849    -2864    -2841    -2732 
   -2639    -2683    -2798    -2844    -2824    -2803    -2785    -2749 
   -2695    -2616    -2536    -2496    -2494    -2500    -2498    -2524 
   -2624    -2740    -2772    -2743    -2748    -2816    -2844    -2764 
   -2650    -2563    -2502    -2492    -2547    -2628    -2704    -2744 
   -2735    -2725    -2720    -2660    -2598    -2640    -2737    -2760 
   -2717    -2714    -2782    -2871    -2933    -2963    -2991    -3017 
   -2995    -2947    -2952    -2999    -3001    -2951    -2905    -2857 
   -2790    -2732    -2708    -2675    -2612    -2531    -2446    -2389 
   -2412    -2509    -2592    -2616    -2663    -2747    -2760    -2721 
   -2749    -2810    -2817    -2813    -2848    -2862    -2775    -2663 
   -2691    -2857    -2976    -2965    -2940    -2986    -2997    -2884 
   -2760    -2747    -2785    -2779    -2770    -2821    -2887    -2880 
   -2802    -2717    -2677    -2681    -2705    -2764    -2867    -2929 
   -2886    -2839    -2867    -2868    -2760    -2620    -2521    -2466 
   -2478    -2569    -2671    -2718    -2679    -2589    -2525    -2513 
   -2497    -2467    -2497    -2596    -2643    -2587    -2547    -2590 
   -2644    -2677    -2709    -2718    -2670    -2585    -2532    -2573 
   -2662    -2694    -2679    -2695    -2732    -2745    -2752    -2764 
   -2779    -2822    -2895    -2952    -2964    -2972    -3014    -3025 
   -2968    -2932    -2957    -2949    -2879    -2847    -2894    -2947 
   -2945    -2890    -2851    -2875    -2903    -2875    -2808    -2722 
   -2640    -2601    -2620    -2662    -2677    -2673    -2732    -2856 
   -2905    -2816    -2687    -2617    -2574    -2493    -2419    -2454 
   -2571    -2648    -2628    -2577    -2551    -2524    -2461    -2413 
   -2443    -2515    -2558    -2573    -2614    -2687    -2741    -2758 
   -2747    -2721    -2702    -2690    -2658    -2632    -2687    -2795 
   -2867    -2922    -3003    -3079    -3117    -3123    -3136    -3153 
   -3106    -2992    -2924    -2940    -2957    -2902    -2798    -2724 
   -2731    -2787    -2776    -2667    -2570    -2566    -2624    -2681 
   -2708    -2717    -2713    -2682    -2629    -2586    -2570    -2569 
   -2547    -2511    -2494    -2494    -2508    -2547    -2562    -2519 
   -2471    -2475    -2516    -2578    -2686    -2841    -2945    -2913 
   -2817    -2775    -2771    -2718    -2646    -2632    -2641    -2612 
   -2581    -2598    -2648    -2705    -2756    -2810    -2855    -2863 
   -2844    -2809    -2759    -2740    -2791    -2868    -2932    -3014 
   -3119    -3192    -3191    -3119    -3021    -2986    -3034    -3063 
   -3019    -3005    -3061    -3061    -2956    -2863    -2857    -2876 
   -2844    -2779    -2770    -2828    -2864    -2856    -2859    -2872 
   -2840    -2774    -2743    -2741    -2701    -2620    -2550    -2502 
   -2471    -2481    -2556    -2670    -2748    -2775    -2794    -2789 
   -2704    -2565    -2462    -2416    -2393    -2361    -2332    -2349 
   -2436    -2542    -2592    -2613    -2671    -2747    -2775    -2739 
   -2673    -2593    -2519    -2501    -2570    -2681    -2774    -2810 
   -2794    -2785    -2818    -2860    -2874    -2871    -2874    -2872 
   -2830    -2793    -2828    -2895    -2929    -2914    -2863    -2813 
   -2786    -2790    -2836    -2884    -2910    -2943    -2980    -3018 
   -3045    -3025    -2971    -2918    -2847    -2770    -2763    -2830 
   -2893    -2918    -2921    -2891    -2822    -2748    -2710    -2717 
   -2758    -2813    -2844    -2847    -2867    -2898    -2903    -2883 
   -2840    -2795    -2785    -2795    -2814    -2845    -2860    -2826 
   -2762    -2708    -2667    -2627    -2592    -2550    -2492    -2452 
   -2467    -2508    -2520    -2492    -2461    -2463    -2504    -2550 
   -2571    -2602    -2681    -2755    -2778    -2824    -2947    -3053 
   -3056    -3018    -3013    -2992    -2899    -2783    -2725    -2705 
   -2668    -2635    -2655    -2721    -2763    -2747    -2697    -2643 
   -2579    -2494    -2392    -2328    -2353    -2446    -2532    -2565 
   -2558    -2566    -2612    -2691    -2799    -2911    -2990    -3051 
   -3086    -3029    -2897    -2799    -2770    -2752    -2741    -2736 
   -2716    -2700    -2716    -2743    -2776    -2828    -2864    -2864 
   -2863    -2886    -2895    -2868    -2856    -2890    -2921    -2917 
   -2902    -2905    -2905    -2866    -2799    -2745    -2720    -2697 
   -2658    -2614    -2589    -2577    -2556    -2524    -2511    -2542 
   -2570    -2544    -2496    -2467    -2451    -2447    -2448    -2425 
   -2380    -2366    -2430    -2546    -2663    -2735    -2727    -2658 
   -2596    -2551    -2504    -2466    -2477    -2529    -2560    -2556 
   -2560    -2598    -2656    -2705    -2724    -2756    -2839    -2921 
   -2943    -2945    -2968    -2970    -2959    -3013    -3090    -3067 
   -2968    -2920    -2937    -2930    -2874    -2825    -2824    -2857 
   -2883    -2866    -2843    -2853    -2856    -2812    -2768    -2775 
   -2818    -2860    -2891    -2930    -2976    -2983    -2933    -2880 
   -2862    -2840    -2802    -2783    -2775    -2717    -2613    -2520 
   -2465    -2439    -2434    -2442    -2481    -2565    -2647    -2673 
   -2660    -2671    -2743    -2840    -2907    -2951    -2999    -3045 
   -3061    -3026    -2980    -2976    -2992    -2959    -2864    -2756 
   -2671    -2601    -2539    -2511    -2517    -2527    -2519    -2532 
   -2597    -2663    -2687    -2714    -2805    -2914    -2948    -2910 
   -2872    -2856    -2839    -2824    -2839    -2889    -2944    -2964 
   -2949    -2929    -2897    -2829    -2736    -2635    -2539    -2481 
   -2482    -2516    -2546    -2577    -2600    -2581    -2555    -2582 
   -2633    -2637    -2593    -2543    -2531    -2562    -2614    -2677 
   -2735    -2775    -2801    -2822    -2837    -2840    -2848    -2875 
   -2901    -2897    -2863    -2840    -2830    -2772    -2663    -2596 
   -2594    -2596    -2581    -2574    -2571    -2546    -2505    -2479 
   -2482    -2502    -2529    -2556    -2574    -2602    -2667    -2755 
   -2825    -2866    -2902    -2972    -3072    -3165    -3231    -3285 
   -3341    -3372    -3338    -3246    -3145    -3057    -2959    -2840 
   -2766    -2767    -2770    -2697    -2585    -2519    -2512    -2527 
   -2560    -2636    -2709    -2725    -2721    -2755    -2802    -2802 
   -2768    -2747    -2735    -2732    -2760    -2799    -2824    -2841 
   -2857    -2851    -2829    -2830    -2857    -2882    -2898    -2917 
   -2907    -2833    -2743    -2727    -2760    -2732    -2654    -2631 
   -2660    -2675    -2673    -2689    -2716    -2735    -2752    -2767 
   -2754    -2708    -2647    -2608    -2608    -2625    -2637    -2679 
   -2767    -2843    -2860    -2855    -2867    -2893    -2891    -2851 
   -2805    -2785    -2759    -2689    -2587    -2492    -2398    -2304 
   -2251    -2250    -2250    -2251    -2288    -2362    -2451    -2538 
   -2604    -2621    -2585    -2544    -2546    -2578    -2616    -2650 
   -2685    -2729    -2790    -2857    -2905    -2941    -2997    -3067 
   -3111    -3106    -3091    -3118    -3154    -3144    -3083    -2997 
   -2894    -2778    -2662    -2579    -2583    -2648    -2675    -2636 
   -2605    -2613    -2621    -2614    -2627    -2678    -2731    -2748 
   -2752    -2785    -2833    -2856    -2845    -2835    -2839    -2817 
   -2759    -2720    -2706    -2674    -2627    -2600    -2587    -2570 
   -2569    -2596    -2619    -2605    -2563    -2546    -2602    -2689 
   -2724    -2708    -2702    -2725    -2739    -2721    -2712    -2748 
   -2799    -2803    -2755    -2705    -2689    -2687    -2671    -2674 
   -2694    -2687    -2663    -2663    -2691    -2732    -2766    -2791 
   -2820    -2851    -2851    -2790    -2698    -2624    -2590    -2589 
   -2596    -2609    -2662    -2744    -2816    -2843    -2828    -2813 
   -2812    -2787    -2747    -2735    -2736    -2693    -2621    -2590 
   -2619    -2659    -2681    -2698    -2740    -2817    -2907    -2979 
   -3003    -2984    -2967    -2978    -2999    -3010    -3024    -3052 
   -3068    -3037    -2978    -2914    -2835    -2741    -2694    -2697 
   -2702    -2704    -2727    -2763    -2785    -2778    -2752    -2728 
   -2722    -2747    -2802    -2876    -2943    -2976    -2990    -3005 
   -2987    -2911    -2808    -2721    -2663    -2627    -2597    -2574 
   -2555    -2535    -2502    -2469    -2462    -2490    -2528    -2567 
   -2620    -2683    -2724    -2710    -2662    -2624    -2616    -2613 
   -2597    -2589    -2610    -2650    -2701    -2764    -2802    -2798 
   -2789    -2806    -2832    -2859    -2899    -2929    -2911    -2870 
   -2840    -2837    -2866    -2903    -2907    -2875    -2855    -2862 
   -2862    -2839    -2810    -2797    -2803    -2798    -2748    -2701 
   -2705    -2736    -2755    -2763    -2782    -2826    -2872    -2889 
   -2910    -2963    -3001    -2986    -2944    -2928    -2925    -2884 
   -2812    -2766    -2755    -2735    -2714    -2731    -2768    -2806 
   -2866    -2929    -2959    -2964    -2953    -2894    -2783    -2656 
   -2546    -2471    -2421    -2367    -2307    -2258    -2235    -2227 
   -2223    -2253    -2326    -2403    -2459    -2516    -2569    -2575 
   -2540    -2532    -2582    -2648    -2679    -2677    -2675    -2690 
   -2712    -2718    -2720    -2747    -2790    -2802    -2783    -2770 
   -2754    -2704    -2646    -2608    -2585    -2567    -2574    -2619 
   -2687    -2760    -2821    -2872    -2943    -3026    -3084    -3105 
   -3107    -3099    -3064    -2998    -2924    -2872    -2864    -2883 
   -2893    -2875    -2848    -2843    -2870    -2902    -2914    -2914 
   -2921    -2918    -2891    -2880    -2916    -2948    -2934    -2916 
   -2932    -2934    -2862    -2775    -2756    -2772    -2766    -2749 
   -2744    -2731    -2697    -2650    -2608    -2593    -2583    -2558 
   -2560    -2627    -2705    -2744    -2755    -2782    -2843    -2901 
   -2929    -2949    -2953    -2921    -2856    -2790    -2733    -2674 
   -2625    -2608    -2608    -2604    -2601    -2606    -2623    -2637 
   -2623    -2593    -2585    -2594    -2581    -2552    -2546    -2551 
   -2532    -2501    -2504    -2540    -2589    -2640    -2685    -2720 
   -2740    -2735    -2714    -2702    -2700    -2695    -2689    -2675 
   -2660    -2651    -2648    -2671    -2725    -2789    -2847    -2890 
   -2914    -2941    -2974    -2990    -2988    -2978    -2959    -2932 
   -2901    -2876    -2866    -2849    -2802    -2736    -2681    -2641 
   -2612    -2597    -2608    -2631    -2655    -2691    -2733    -2759 
   -2766    -2770    -2776    -2783    -2782    -2770    -2740    -2706 
   -2710    -2760    -2828    -2899    -2986    -3080    -3149    -3145 
   -3072    -2998    -2945    -2890    -2833    -2812    -2839    -2875 
   -2878    -2870    -2882    -2897    -2897    -2894    -2901    -2907 
   -2886    -2840    -2789    -2729    -2667    -2627    -2602    -2581 
   -2554    -2536    -2544    -2582    -2648    -2732    -2809    -2875 
   -2941    -2995    -3021    -3022    -3011    -2994    -2975    -2960 
   -2928    -2862    -2778    -2704    -2651    -2619    -2601    -2612 
   -2660    -2709    -2725    -2725    -2740    -2759    -2740    -2683 
   -2629    -2600    -2589    -2569    -2527    -2478    -2438    -2393 
   -2335    -2297    -2316    -2366    -2404    -2432    -2467    -2497 
   -2508    -2508    -2529    -2570    -2587    -2579    -2585    -2613 
   -2633    -2632    -2629    -2625    -2602    -2579    -2586    -2608 
   -2617    -2623    -2639    -2664    -2686    -2705    -2743    -2789 
   -2814    -2820    -2840    -2876    -2883    -2856    -2859    -2905 
   -2934    -2921    -2895    -2868    -2806    -2686    -2552    -2479 
   -2463    -2444    -2423    -2443    -2500    -2555    -2598    -2654 
   -2712    -2732    -2710    -2702    -2720    -2727    -2720    -2721 
   -2729    -2728    -2710    -2697    -2705    -2729    -2745    -2747 
