Origin Time       2025/06/03 22:18:00
Lat.              41.7
Long.             143.6
Depth. (km)       30
Mag.              5.2
Station Code      KSRH08
Station Lat.      43.1603
Station Long.     143.8936
Station Height(m) 174
Record Time       2025/06/03 22:19:02
Sampling Freq(Hz) 100Hz
Duration Time(s)  120
Dir.              4
Scale Factor      7845(gal)/8223790
Max. Acc. (gal)   0.499
Last Correction   2025/06/03 22:19:03
Memo.             
[...]
  -17429   -17429   -17437   -17443   -17464   -17513   -17575   -17637 
  -17685   -17690   -17653   -17602   -17554   -17505   -17451   -17394 
  -17344   -17307   -17290   -17288   -17271   -17250   -17253   -17288 
  -17348   -17413   -17451   -17463   -17474   -17481   -17486   -17485 
  -17466   -17432   -17398   -17366   -17321   -17267   -17231   -17228 
  -17253   -17302   -17362   -17412   -17456   -17493   -17501   -17486 
  -17450   -17383   -17315   -17298   -17331   -17359   -17354   -17320 
  -17281   -17262   -17265   -17258   -17221   -17167   -17135   -17157 
  -17231   -17324   -17390   -17406   -17404   -17428   -17481   -17555 
  -17643   -17716   -17759   -17770   -17745   -17690   -17625   -17562 
  -17502   -17447   -17405   -17377   -17359   -17348   -17343   -17331 
  -17311   -17296   -17307   -17354   -17427   -17485   -17496   -17460 
  -17396   -17327   -17269   -17219   -17151   -17053   -16950   -16885 
  -16884   -16934   -16999   -17053   -17097   -17139   -17188   -17239 
  -17275   -17313   -17367   -17435   -17513   -17610   -17706   -17779 
  -17824   -17834   -17810   -17743   -17633   -17509   -17419   -17378 
  -17356   -17332   -17308   -17293   -17288   -17286   -17288   -17284 
  -17273   -17258   -17255   -17280   -17311   -17309   -17281   -17266 
  -17293   -17362   -17458   -17544   -17581   -17562   -17518   -17487 
  -17478   -17481   -17475   -17456   -17436   -17431   -17443   -17466 
  -17481   -17447   -17358   -17258   -17186   -17149   -17136   -17136 
  -17127   -17118   -17116   -17127   -17155   -17197   -17231   -17257 
  -17294   -17350   -17405   -17459   -17509   -17552   -17579   -17581 
  -17550   -17497   -17433   -17370   -17320   -17282   -17247   -17209 
  -17188   -17205   -17259   -17308   -17328   -17334   -17350   -17383 
  -17428   -17462   -17463   -17443   -17420   -17404   -17394   -17369 
  -17316   -17266   -17253   -17290   -17348   -17373   -17348   -17317 
  -17328   -17385   -17462   -17525   -17552   -17539   -17523   -17533 
  -17550   -17539   -17518   -17528   -17556   -17591   -17629   -17632 
  -17571   -17478   -17402   -17343   -17284   -17238   -17240   -17304 
  -17412   -17523   -17601   -17640   -17664   -17697   -17732   -17741 
  -17694   -17586   -17455   -17359   -17321   -17317   -17312   -17265 
  -17181   -17111   -17096   -17124   -17157   -17177   -17177   -17143 
  -17107   -17112   -17157   -17209   -17254   -17286   -17315   -17352 
  -17400   -17444   -17481   -17497   -17497   -17501   -17516   -17524 
  -17502   -17464   -17427   -17405   -17416   -17446   -17452   -17427 
  -17374   -17292   -17217   -17189   -17181   -17157   -17134   -17134 
  -17146   -17147   -17124   -17077   -17014   -16942   -16895   -16914 
  -17000   -17122   -17253   -17374   -17469   -17533   -17579   -17604 
  -17604   -17597   -17591   -17582   -17579   -17601   -17645   -17683 
  -17678   -17613   -17528   -17459   -17417   -17409   -17428   -17444 
  -17450   -17466   -17494   -17521   -17527   -17489   -17410   -17327 
  -17274   -17261   -17261   -17246   -17217   -17185   -17159   -17166 
  -17205   -17251   -17296   -17348   -17416   -17483   -17531   -17558 
  -17571   -17582   -17604   -17631   -17637   -17618   -17585   -17545 
  -17513   -17493   -17478   -17470   -17471   -17487   -17517   -17548 
  -17572   -17568   -17524   -17470   -17424   -17369   -17309   -17263 
  -17228   -17200   -17173   -17135   -17089   -17055   -17041   -17054 
  -17103   -17169   -17223   -17259   -17292   -17343   -17432   -17529 
  -17572   -17554   -17512   -17467   -17424   -17388   -17346   -17275 
  -17196   -17150   -17150   -17169   -17181   -17173   -17153   -17143 
  -17177   -17246   -17288   -17282   -17257   -17234   -17242   -17277 
  -17294   -17273   -17231   -17215   -17250   -17320   -17397   -17464 
  -17512   -17535   -17558   -17604   -17649   -17668   -17666   -17653 
  -17643   -17647   -17645   -17602   -17535   -17486   -17474   -17483 
  -17489   -17494   -17502   -17505   -17510   -17531   -17552   -17564 
  -17567   -17559   -17536   -17501   -17450   -17381   -17317   -17284 
  -17269   -17244   -17208   -17176   -17153   -17150   -17161   -17154 
  -17126   -17091   -17045   -17000   -16984   -17004   -17064   -17138 
  -17207   -17270   -17329   -17365   -17370   -17355   -17352   -17369 
  -17375   -17363   -17359   -17379   -17416   -17454   -17482   -17494 
  -17487   -17467   -17439   -17405   -17365   -17328   -17294   -17263 
  -17251   -17275   -17325   -17365   -17371   -17352   -17331   -17328 
  -17363   -17439   -17521   -17574   -17583   -17570   -17559   -17547 
  -17527   -17508   -17501   -17516   -17554   -17595   -17609   -17575 
  -17508   -17427   -17351   -17298   -17274   -17282   -17320   -17373 
  -17435   -17508   -17571   -17605   -17605   -17579   -17541   -17487 
  -17410   -17338   -17290   -17250   -17216   -17217   -17258   -17320 
  -17377   -17410   -17413   -17388   -17348   -17313   -17277   -17231 
  -17174   -17128   -17130   -17184   -17269   -17351   -17401   -17425 
  -17446   -17486   -17550   -17610   -17643   -17651   -17651   -17645 
  -17639   -17622   -17578   -17501   -17413   -17336   -17275   -17236 
  -17215   -17219   -17254   -17301   -17338   -17361   -17373   -17375 
  -17359   -17324   -17282   -17238   -17188   -17134   -17101   -17092 
  -17069   -17031   -17004   -17003   -17031   -17078   -17122   -17157 
  -17205   -17275   -17343   -17386   -17409   -17409   -17390   -17373 
  -17383   -17429   -17487   -17541   -17586   -17631   -17679   -17720 
  -17736   -17725   -17686   -17624   -17558   -17500   -17456   -17437 
  -17431   -17420   -17405   -17390   -17371   -17346   -17327   -17342 
  -17389   -17440   -17473   -17478   -17467   -17456   -17443   -17427 
  -17417   -17405   -17388   -17366   -17336   -17301   -17271   -17259 
  -17266   -17298   -17355   -17409   -17427   -17415   -17396   -17375 
  -17347   -17298   -17244   -17212   -17197   -17190   -17178   -17163 
  -17161   -17189   -17255   -17346   -17425   -17464   -17467   -17455 
  -17442   -17427   -17406   -17377   -17348   -17332   -17329   -17347 
  -17375   -17402   -17432   -17455   -17447   -17406   -17343   -17273 
  -17224   -17224   -17248   -17265   -17261   -17255   -17274   -17311 
  -17331   -17327   -17320   -17319   -17336   -17377   -17419   -17428 
  -17398   -17348   -17308   -17304   -17338   -17374   -17400   -17412 
  -17408   -17401   -17413   -17435   -17448   -17443   -17425   -17413 
  -17413   -17417   -17423   -17432   -17433   -17427   -17419   -17428 
  -17464   -17514   -17548   -17548   -17508   -17446   -17394   -17355 
  -17316   -17281   -17266   -17284   -17331   -17402   -17497   -17586 
  -17629   -17622   -17601   -17582   -17578   -17597   -17618   -17635 
  -17656   -17682   -17694   -17680   -17632   -17545   -17437   -17348 
  -17309   -17313   -17328   -17331   -17321   -17312   -17317   -17327 
  -17309   -17258   -17192   -17135   -17103   -17101   -17126   -17158 
  -17188   -17209   -17231   -17261   -17270   -17247   -17224   -17234 
  -17274   -17317   -17336   -17320   -17284   -17244   -17201   -17149 
  -17096   -17043   -17000   -17000   -17068   -17166   -17243   -17285 
  -17308   -17346   -17408   -17474   -17518   -17527   -17514   -17516 
  -17536   -17556   -17564   -17554   -17525   -17505   -17510   -17527 
  -17525   -17490   -17442   -17412   -17405   -17413   -17427   -17424 
  -17410   -17420   -17444   -17446   -17412   -17362   -17316   -17289 
  -17290   -17308   -17319   -17316   -17321   -17351   -17385   -17390 
  -17363   -17315   -17266   -17242   -17246   -17261   -17267   -17263 
  -17265   -17286   -17324   -17363   -17397   -17424   -17442   -17458 
  -17479   -17500   -17514   -17525   -17516   -17483   -17452   -17444 
  -17448   -17443   -17429   -17417   -17412   -17420   -17447   -17482 
  -17510   -17510   -17489   -17474   -17478   -17473   -17448   -17423 
  -17409   -17417   -17443   -17463   -17458   -17432   -17404   -17397 
  -17420   -17464   -17520   -17577   -17609   -17602   -17564   -17513 
  -17462   -17423   -17401   -17385   -17365   -17348   -17344   -17344 
  -17336   -17316   -17288   -17248   -17208   -17173   -17147   -17123 
  -17092   -17064   -17051   -17065   -17100   -17138   -17165   -17189 
  -17213   -17248   -17302   -17356   -17377   -17359   -17332   -17324 
  -17334   -17347   -17351   -17346   -17347   -17367   -17401   -17444 
  -17478   -17489   -17501   -17539   -17577   -17577   -17533   -17462 
  -17390   -17338   -17311   -17293   -17258   -17196   -17124   -17070 
  -17042   -17032   -17038   -17055   -17084   -17130   -17190   -17239 
  -17259   -17261   -17250   -17239   -17242   -17263   -17296   -17344 
  -17402   -17456   -17509   -17560   -17586   -17582   -17554   -17510 
  -17469   -17439   -17432   -17460   -17512   -17572   -17626   -17647 
  -17640   -17633   -17648   -17682   -17701   -17678   -17626   -17575 
  -17540   -17529   -17536   -17531   -17498   -17454   -17421   -17409 
  -17404   -17390   -17371   -17358   -17351   -17332   -17293   -17248 
  -17215   -17207   -17231   -17267   -17308   -17367   -17443   -17524 
  -17594   -17631   -17636   -17629   -17620   -17625   -17644   -17641 
  -17599   -17544   -17505   -17479   -17442   -17363   -17242   -17108 
  -17001   -16956   -16956   -16958   -16961   -16980   -17014   -17059 
  -17118   -17165   -17192   -17216   -17261   -17327   -17394   -17451 
  -17504   -17555   -17606   -17644   -17643   -17604   -17556   -17523 
  -17510   -17512   -17512   -17506   -17506   -17521   -17548   -17571 
  -17563   -17524   -17486   -17473   -17474   -17466   -17436   -17412 
  -17405   -17394   -17378   -17369   -17352   -17323   -17296   -17273 
  -17243   -17205   -17163   -17128   -17122   -17149   -17193   -17234 
  -17267   -17289   -17300   -17301   -17293   -17288   -17297   -17312 
  -17332   -17358   -17377   -17392   -17409   -17424   -17428   -17416 
  -17394   -17381   -17374   -17358   -17336   -17319   -17308   -17298 
  -17294   -17304   -17321   -17338   -17342   -17327   -17288   -17232 
  -17181   -17154   -17155   -17170   -17182   -17192   -17219   -17273 
  -17343   -17413   -17464   -17498   -17532   -17558   -17575   -17583 
  -17572   -17554   -17539   -17528   -17523   -17506   -17470   -17428 
  -17394   -17373   -17361   -17348   -17335   -17334   -17342   -17342 
  -17324   -17289   -17251   -17243   -17263   -17281   -17275   -17259 
  -17244   -17238   -17243   -17261   -17275   -17271   -17257   -17254 
  -17259   -17263   -17271   -17286   -17300   -17311   -17324   -17327 
  -17327   -17340   -17367   -17402   -17444   -17471   -17471   -17456 
  -17435   -17394   -17342   -17301   -17286   -17298   -17332   -17377 
  -17420   -17448   -17450   -17439   -17439   -17450   -17456   -17464 
  -17485   -17517   -17554   -17601   -17648   -17667   -17667   -17668 
  -17659   -17637   -17612   -17581   -17560   -17555   -17545   -17523 
  -17497   -17478   -17475   -17487   -17498   -17494   -17482   -17483 
  -17496   -17502   -17487   -17448   -17392   -17334   -17302   -17289 
  -17261   -17221   -17200   -17199   -17220   -17258   -17280   -17265 
  -17231   -17205   -17201   -17220   -17246   -17265   -17277   -17286 
  -17300   -17325   -17344   -17340   -17321   -17304   -17297   -17302 
  -17313   -17321   -17334   -17340   -17344   -17358   -17375   -17396 
  -17424   -17451   -17471   -17493   -17521   -17547   -17558   -17551 
  -17535   -17512   -17485   -17460   -17451   -17454   -17452   -17436 
  -17408   -17383   -17373   -17375   -17377   -17358   -17325   -17298 
  -17275   -17258   -17254   -17243   -17224   -17212   -17216   -17232 
  -17255   -17281   -17302   -17325   -17356   -17382   -17392   -17386 
  -17361   -17340   -17343   -17356   -17363   -17354   -17335   -17325 
  -17328   -17336   -17347   -17352   -17340   -17320   -17305   -17290 
  -17274   -17251   -17219   -17184   -17159   -17158   -17167   -17184 
  -17199   -17201   -17190   -17181   -17193   -17228   -17277   -17319 
  -17339   -17348   -17358   -17370   -17386   -17404   -17404   -17375 
  -17335   -17313   -17316   -17340   -17381   -17425   -17460   -17490 
  -17520   -17535   -17541   -17552   -17562   -17566   -17566   -17562 
  -17560   -17563   -17568   -17575   -17583   -17578   -17556   -17528 
  -17496   -17458   -17421   -17378   -17338   -17334   -17375   -17425 
  -17448   -17444   -17425   -17413   -17420   -17448   -17481   -17498 
  -17508   -17532   -17577   -17629   -17670   -17676   -17648   -17606 
  -17579   -17579   -17604   -17631   -17636   -17613   -17583   -17564 
  -17556   -17547   -17523   -17475   -17410   -17344   -17298   -17280 
  -17267   -17248   -17224   -17204   -17199   -17211   -17235   -17267 
  -17294   -17305   -17309   -17312   -17307   -17281   -17238   -17194 
  -17167   -17157   -17149   -17138   -17122   -17096   -17072   -17062 
  -17061   -17053   -17039   -17019   -16991   -16964   -16941   -16916 
  -16893   -16877   -16881   -16920   -16991   -17070   -17145   -17216 
  -17285   -17354   -17425   -17486   -17531   -17555   -17564   -17578 
  -17612   -17653   -17687   -17707   -17722   -17744   -17764   -17770 
  -17771   -17775   -17767   -17743   -17717   -17694   -17674   -17658 
  -17647   -17639   -17629   -17613   -17575   -17512   -17444   -17385 
  -17331   -17286   -17242   -17194   -17155   -17122   -17078   -17022 
  -16965   -16915   -16873   -16852   -16853   -16869   -16900   -16946 
  -17005   -17078   -17167   -17259   -17331   -17377   -17413   -17450 
  -17482   -17516   -17550   -17586   -17625   -17666   -17706   -17747 
  -17783   -17805   -17811   -17809   -17811   -17820   -17822   -17811 
  -17788   -17749   -17699   -17651   -17605   -17563   -17524   -17481 
  -17428   -17377   -17343   -17324   -17317   -17316   -17312   -17296 
  -17267   -17232   -17194   -17159   -17131   -17120   -17123   -17124 
  -17118   -17113   -17112   -17122   -17142   -17162   -17177   -17193 
  -17217   -17254   -17297   -17334   -17365   -17394   -17427   -17462 
  -17493   -17516   -17521   -17509   -17505   -17523   -17550   -17567 
  -17562   -17537   -17514   -17494   -17478   -17469   -17458   -17444 
  -17436   -17444   -17460   -17463   -17447   -17421   -17396   -17375 
  -17356   -17327   -17288   -17243   -17201   -17176   -17161   -17147 
  -17131   -17115   -17101   -17101   -17104   -17097   -17092   -17097 
  -17112   -17138   -17170   -17197   -17215   -17242   -17288   -17342 
  -17385   -17408   -17408   -17401   -17409   -17435   -17466   -17496 
  -17516   -17524   -17525   -17521   -17517   -17514   -17505   -17502 
  -17520   -17543   -17559   -17567   -17567   -17559   -17541   -17520 
  -17502   -17486   -17471   -17459   -17444   -17423   -17401   -17374 
  -17346   -17311   -17269   -17231   -17197   -17172   -17162   -17177 
  -17200   -17217   -17232   -17248   -17262   -17271   -17277   -17285 
  -17298   -17312   -17317   -17304   -17289   -17280   -17273   -17271 
  -17277   -17277   -17274   -17273   -17277   -17289   -17304   -17319 
  -17347   -17394   -17451   -17506   -17554   -17590   -17620   -17647 
  -17670   -17683   -17685   -17682   -17680   -17674   -17648   -17606 
  -17548   -17479   -17419   -17383   -17359   -17327   -17285   -17247 
  -17232   -17248   -17275   -17286   -17281   -17275   -17282   -17307 
  -17339   -17355   -17347   -17332   -17329   -17350   -17382   -17405 
  -17405   -17394   -17394   -17415   -17447   -17481   -17508   -17525 
  -17532   -17533   -17524   -17505   -17483   -17456   -17432   -17412 
  -17388   -17356   -17329   -17309   -17298   -17301   -17316   -17336 
  -17356   -17374   -17381   -17377   -17367   -17367   -17382   -17408 
  -17427   -17423   -17393   -17366   -17356   -17362   -17369   -17367 
  -17344   -17305   -17271   -17254   -17240   -17219   -17194   -17170 
  -17162   -17176   -17189   -17189   -17178   -17158   -17138   -17135 
  -17157   -17184   -17203   -17209   -17215   -17226   -17242   -17265 
  -17274   -17269   -17259   -17258   -17270   -17300   -17335   -17367 
  -17386   -17396   -17408   -17425   -17450   -17477   -17500   -17524 
  -17559   -17595   -17625   -17651   -17678   -17712   -17755   -17797 
  -17826   -17842   -17845   -17842   -17836   -17822   -17794   -17748 
  -17691   -17645   -17609   -17566   -17518   -17470   -17419   -17373 
  -17339   -17309   -17284   -17271   -17275   -17294   -17317   -17323 
  -17308   -17281   -17253   -17232   -17209   -17184   -17157   -17135 
  -17127   -17136   -17153   -17163   -17173   -17188   -17207   -17227 
  -17240   -17242   -17238   -17239   -17254   -17280   -17297   -17301 
  -17302   -17307   -17320   -17344   -17365   -17374   -17374   -17370 
  -17369   -17369   -17375   -17382   -17373   -17350   -17327   -17312 
  -17307   -17315   -17327   -17331   -17329   -17338   -17348   -17359 
  -17373   -17386   -17393   -17402   -17421   -17440   -17446   -17433 
  -17408   -17377   -17350   -17323   -17292   -17265   -17242   -17224 
  -17231   -17253   -17274   -17290   -17293   -17292   -17297   -17305 
  -17311   -17311   -17309   -17313   -17328   -17350   -17377   -17400 
  -17417   -17437   -17467   -17497   -17514   -17524   -17533   -17545 
  -17554   -17555   -17550   -17539   -17531   -17529   -17540   -17555 
  -17560   -17555   -17548   -17541   -17532   -17527   -17524   -17513 
  -17504   -17504   -17501   -17493   -17479   -17459   -17439   -17421 
  -17405   -17393   -17382   -17363   -17346   -17336   -17329   -17317 
  -17292   -17258   -17227   -17203   -17188   -17181   -17186   -17205 
  -17228   -17247   -17262   -17274   -17278   -17274   -17271   -17275 
  -17282   -17289   -17298   -17304   -17300   -17292   -17284   -17280 
  -17285   -17293   -17294   -17296   -17302   -17308   -17311   -17313 
  -17325   -17339   -17347   -17351   -17354   -17346   -17335   -17329 
  -17325   -17321   -17319   -17313   -17315   -17340   -17377   -17406 
  -17432   -17452   -17475   -17506   -17540   -17571   -17593   -17602 
  -17613   -17628   -17644   -17655   -17656   -17645   -17631   -17621 
  -17610   -17589   -17562   -17533   -17504   -17474   -17443   -17402 
  -17363   -17335   -17312   -17290   -17267   -17246   -17228   -17219 
  -17220   -17223   -17211   -17194   -17186   -17184   -17188   -17199 
  -17212   -17220   -17228   -17243   -17262   -17273   -17277   -17275 
  -17277   -17286   -17302   -17312   -17319   -17328   -17340   -17355 
  -17374   -17379   -17367   -17354   -17347   -17346   -17348   -17350 
  -17352   -17356   -17361   -17367   -17369   -17366   -17359   -17355 
  -17361   -17381   -17409   -17433   -17447   -17454   -17452   -17444 
  -17437   -17436   -17435   -17432   -17431   -17427   -17427   -17433 
  -17439   -17439   -17435   -17428   -17424   -17420   -17420   -17427 
  -17437   -17447   -17460   -17471   -17475   -17473   -17464   -17459 
  -17459   -17456   -17452   -17444   -17427   -17402   -17379   -17363 
  -17354   -17343   -17328   -17305   -17277   -17253   -17242   -17238 
  -17239   -17243   -17240   -17236   -17238   -17239   -17239   -17240 
  -17240   -17247   -17262   -17277   -17292   -17312   -17329   -17342 
  -17362   -17389   -17413   -17425   -17435   -17440   -17439   -17431 
