Origin Time       2025/06/03 22:18:00
Lat.              41.7
Long.             143.6
Depth. (km)       30
Mag.              5.2
Station Code      KSRH04
Station Lat.      43.2139
Station Long.     144.6804
Station Height(m) -210
Record Time       2025/06/03 22:19:16
Sampling Freq(Hz) 100Hz
Duration Time(s)  120
Dir.              3
Scale Factor      3923(gal)/8224838
Max. Acc. (gal)   0.147
Last Correction   2025/06/03 22:19:17
Memo.             
[...]
   40015    40009    39997    39960    39927    39897    39857    39837 
   39841    39834    39823    39819    39831    39874    39918    39945 
   39984    40011    40026    40072    40086    40030    39987    39982 
   39961    39943    39954    39962    39958    39978    40014    40000 
   39942    39897    39879    39883    39900    39922    39946    39953 
   39942    39945    39962    39974    39969    39947    39918    39892 
   39887    39910    39919    39911    39914    39910    39907    39930 
   39941    39918    39907    39943    39988    40008    40022    40028 
   40009    39982    39968    39961    39961    39958    39933    39897 
   39880    39881    39908    39942    39931    39906    39899    39899 
   39915    39937    39922    39892    39901    39933    39949    39962 
   39970    39962    39962    39977    39992    40014    40031    40008 
   39978    39977    39955    39915    39908    39914    39879    39834 
   39841    39888    39916    39924    39931    39922    39910    39922 
   39927    39911    39912    39941    39980    40027    40055    40047 
   40031    40016    40003    40001    40007    40011    40005    39993 
   39987    39989    39991    39972    39946    39943    39931    39900 
   39911    39951    39968    39977    39996    40015    40038    40047 
   40031    40004    39984    39978    39982    39962    39938    39943 
   39941    39919    39907    39911    39922    39935    39942    39937 
   39930    39946    39969    39976    39981    40015    40055    40062 
   40051    40049    40034    39992    39943    39915    39916    39914 
   39896    39885    39879    39880    39903    39934    39957    39962 
   39946    39949    39993    40045    40086    40109    40099    40084 
   40063    39987    39910    39912    39931    39926    39938    39950 
   39953    39985    40004    39978    39972    39987    39985    39992 
   39996    39965    39951    39993    40019    39997    39988    40008 
   40027    40035    40016    39981    39973    39973    39957    39935 
   39899    39864    39849    39830    39807    39825    39880    39923 
   39939    39946    39958    39974    39989    40007    40003    39974 
   39976    40005    39997    39981    39992    39972    39926    39910 
   39896    39865    39860    39880    39885    39874    39868    39885 
   39916    39930    39923    39931    39965    39995    39996    40003 
   40031    40047    40047    40043    40028    40000    39980    39970 
   39946    39920    39928    39933    39912    39904    39897    39880 
   39889    39915    39911    39899    39904    39912    39923    39943 
   39960    39969    39987    39999    39989    39980    39966    39939 
   39922    39922    39918    39897    39876    39866    39881    39914 
   39924    39922    39958    40005    40003    39997    40016    40012 
   39993    39995    40000    40000    40009    40007    39989    39985 
   39989    39964    39920    39903    39906    39907    39910    39911 
   39914    39930    39927    39904    39919    39962    39987    39993 
   39995    39982    39972    39980    39987    39974    39970    39991 
   40015    40032    40039    40031    40019    39997    39961    39939 
   39938    39933    39922    39911    39899    39904    39924    39927 
   39912    39912    39923    39926    39942    39972    39974    39957 
   39947    39939    39954    39997    40014    39993    39973    39968 
   39978    39992    40000    40009    40016    40026    40031    40011 
   39973    39941    39927    39918    39900    39893    39906    39918 
   39912    39903    39901    39895    39897    39934    39962    39955 
   39960    39989    40020    40041    40055    40055    40047    40043 
   40041    40026    40016    40015    40011    40016    40024    40005 
   39968    39957    39957    39931    39912    39920    39910    39889 
   39895    39897    39893    39915    39949    39968    39972    39970 
   39970    39960    39957    39978    39987    39978    39982    39978 
   39977    39991    39980    39964    39978    39988    39980    39961 
   39920    39892    39904    39924    39923    39910    39884    39853 
   39853    39864    39861    39874    39896    39880    39874    39915 
   39938    39924    39912    39904    39907    39942    39976    39993 
   40016    40019    39996    39992    39996    39968    39935    39934 
   39933    39914    39896    39896    39924    39974    39991    39954 
   39942    39991    40036    40050    40050    40036    40027    40045 
   40066    40062    40022    39976    39969    39985    39977    39950 
   39937    39950    39970    39981    39976    39960    39969    40000 
   40001    39976    39957    39945    39937    39934    39933    39931 
   39935    39941    39939    39911    39869    39854    39874    39895 
   39897    39893    39887    39888    39900    39908    39912    39901 
   39881    39879    39879    39877    39903    39918    39911    39922 
   39933    39941    39968    39976    39945    39918    39922    39941 
   39953    39960    39962    39949    39951    39970    39960    39938 
   39947    39980    39997    39985    39974    39985    39987    39962 
   39935    39953    39995    39999    39997    40035    40050    40024 
   40022    40022    39988    39965    39946    39911    39924    39964 
   39972    39999    40034    40008    39980    39997    39991    39957 
   39957    39958    39937    39928    39922    39910    39934    40004 
   40070    40081    40049    40014    39989    39968    39954    39945 
   39935    39930    39924    39928    39943    39964    39991    40027 
   40041    40019    39993    39980    39964    39961    39976    39985 
   39997    40007    39989    39957    39935    39941    39960    39958 
   39935    39919    39923    39943    39957    39962    39970    39972 
   39960    39949    39949    39935    39928    39978    40043    40042 
   40009    40014    40022    39984    39937    39911    39908    39914 
   39900    39888    39906    39934    39946    39946    39955    39964 
   39951    39950    39961    39964    39957    39953    39954    39962 
   39960    39938    39910    39896    39912    39923    39910    39900 
   39903    39907    39923    39939    39918    39877    39866    39883 
   39900    39908    39910    39930    39962    39997    40036    40039 
   40004    39991    39992    39974    39960    39945    39928    39938 
   39949    39915    39881    39895    39915    39920    39922    39919 
   39926    39973    40026    40027    40014    40027    40041    40023 
   40003    40011    40005    39953    39922    39939    39945    39935 
   39946    39962    39968    39978    39989    39991    39976    39942 
   39924    39942    39960    39947    39915    39892    39910    39937 
   39918    39873    39864    39912    39970    40001    40020    40003 
   39949    39933    39949    39947    39955    39978    39976    39965 
   39962    39957    39955    39962    39953    39928    39907    39877 
   39862    39888    39926    39947    39964    39969    39953    39927 
   39926    39955    39980    39995    40004    39984    39951    39924 
   39897    39907    39961    39988    39989    40009    40023    40001 
   39984    39982    39987    40011    40047    40069    40073    40078 
   40078    40068    40058    40030    39972    39908    39869    39883 
   39930    39942    39920    39918    39918    39874    39825    39811 
   39785    39723    39711    39785    39866    39916    39958    39982 
   39985    40008    40043    40046    40026    40023    40038    40054 
   40047    40016    39989    39961    39926    39912    39920    39914 
   39891    39877    39874    39876    39897    39922    39938    39958 
   39968    39962    39987    40038    40072    40080    40065    40030 
   40014    40016    40001    39991    40012    40042    40047    40031 
   40026    40032    40009    39972    39957    39955    39961    39972 
   39961    39942    39953    39966    39970    39995    40003    39953 
   39900    39919    39987    40041    40065    40057    40016    39989 
   39992    39970    39923    39901    39887    39845    39820    39854 
   39920    39985    40022    40018    40007    40004    39999    40009 
   40007    39955    39904    39895    39906    39912    39892    39879 
   39928    40005    40046    40053    40028    39980    39939    39938 
   39945    39926    39916    39927    39915    39901    39922    39935 
   39930    39922    39874    39802    39792    39852    39920    39966 
   39992    40003    40008    40012    40016    40000    39958    39900 
   39868    39888    39922    39931    39911    39876    39870    39897 
   39919    39924    39911    39884    39887    39918    39941    39945 
   39927    39914    39930    39942    39930    39907    39869    39811 
   39783    39803    39806    39802    39870    39954    39978    39992 
   40003    39985    39978    39984    39969    39947    39926    39897 
   39895    39934    39987    40016    39996    39937    39901    39918 
   39947    39949    39930    39924    39955    40003    40032    40055 
   40086    40126    40161    40173    40153    40101    40046    40020 
   40019    40016    40012    40018    40028    40041    40026    39993 
   39985    39999    40031    40069    40058    40024    40023    40035 
   40024    39993    39946    39918    39935    39945    39941    39943 
   39915    39887    39908    39951    39965    39946    39912    39885 
   39873    39866    39854    39835    39827    39852    39903    39970 
   40042    40097    40103    40058    40008    39987    39980    39943 
   39889    39868    39885    39923    39946    39918    39893    39914 
   39904    39865    39877    39889    39858    39837    39841    39858 
   39892    39919    39937    39958    39972    39965    39953    39937 
   39914    39899    39907    39918    39914    39926    39961    39976 
   39974    39987    39985    39964    39961    39961    39945    39949 
   39970    39965    39961    40005    40038    40015    39996    40012 
   40035    40045    40026    39985    39946    39904    39884    39934 
   39985    39978    39999    40053    40046    40028    40065    40099 
   40093    40042    39951    39914    39946    39969    39970    39970 
   39957    39951    39982    40019    40026    40007    39968    39922 
   39900    39897    39883    39873    39888    39884    39847    39830 
   39865    39935    39985    39977    39946    39943    39955    39968 
   39972    39947    39939    39987    40001    39969    39976    40005 
   39973    39918    39927    39980    40028    40069    40076    40050 
   40024    39988    39958    39980    40043    40088    40068    40018 
   39995    40003    40027    40051    40046    39997    39927    39887 
   39912    39973    39997    39966    39939    39935    39914    39881 
   39880    39899    39914    39961    40035    40057    40028    40011 
   40004    39982    39943    39895    39852    39839    39864    39910 
   39955    39977    39981    39997    39995    39973    39970    39982 
   40009    40018    39957    39881    39861    39892    39942    39962 
   39943    39958    40023    40085    40109    40090    40059    40049 
   40038    39989    39903    39796    39733    39771    39861    39911 
   39903    39879    39897    39950    39974    39968    39958    39938 
   39920    39900    39873    39870    39887    39884    39884    39904 
   39916    39906    39887    39904    39945    39949    39930    39930 
   39953    39989    40016    39997    39957    39935    39914    39884 
   39887    39904    39880    39838    39827    39822    39796    39802 
   39838    39880    39941    39980    39945    39892    39896    39958 
   40030    40058    40028    39993    40005    40039    40059    40061 
   40032    40015    40024    39996    39926    39877    39854    39861 
   39903    39938    39954    39962    39937    39906    39928    39970 
   39961    39947    40000    40061    40054    40020    39999    39961 
   39911    39869    39822    39777    39762    39771    39795    39811 
   39798    39808    39854    39883    39938    40011    39993    39928 
   39943    40000    40009    39997    40001    40022    40039    40032 
   40032    40069    40093    40077    40084    40119    40112    40072 
   40036    40014    40034    40081    40072    40035    40059    40099 
   40082    40043    40019    40005    40004    39996    39972    39961 
   39957    39933    39887    39831    39819    39874    39927    39943 
   39957    39968    39968    39965    39951    39943    39922    39856 
   39815    39841    39877    39906    39945    39950    39896    39816 
   39769    39819    39914    39928    39896    39915    39969    39989 
   39976    39965    39973    40015    40066    40086    40113    40163 
   40176    40149    40107    40058    40030    40018    39977    39927 
   39937    39962    39930    39897    39892    39846    39789    39799 
   39856    39937    40016    40055    40053    40047    40063    40081 
   40108    40173    40209    40159    40057    39977    39954    39950 
   39933    39930    39996    40101    40143    40122    40100    40045 
   39943    39868    39825    39781    39773    39823    39884    39912 
   39931    39950    39954    39965    39966    39941    39930    39933 
   39928    39935    39920    39879    39856    39854    39892    39953 
   39953    39908    39889    39888    39895    39933    39991    40034 
   40066    40090    40096    40092    40099    40107    40077    39997 
   39879    39742    39660    39648    39650    39680    39752    39806 
   39842    39901    39939    39943    39974    40012    40000    39964 
   39934    39900    39885    39914    39960    39992    40012    40015 
   40003    39988    39973    39955    39918    39861    39829    39812 
   39771    39715    39715    39811    39958    40054    40043    39977 
   39931    39927    39939    39958    39996    40058    40117    40146 
   40170    40176    40105    39992    39924    39915    39896    39853 
   39837    39861    39906    39954    39989    40011    40022    40005 
   39968    39926    39895    39897    39969    40076    40115    40082 
   40068    40073    40063    40046    40005    39934    39869    39839 
   39827    39811    39827    39911    39987    40008    40008    40003 
   40014    40038    40030    40005    40012    40039    40062    40061 
   40026    39968    39895    39818    39768    39764    39783    39792 
   39781    39784    39819    39837    39812    39808    39862    39941 
   39968    39922    39877    39884    39916    39954    39969    39960 
   39960    39977    40005    40038    40070    40101    40104    40084 
   40097    40112    40097    40082    40074    40068    40050    39992 
   39934    39930    39964    40009    40046    40053    40022    39966 
   39938    39970    40036    40081    40097    40128    40173    40174 
   40111    40018    39934    39888    39895    39911    39869    39812 
   39814    39845    39874    39899    39893    39884    39908    39926 
   39960    40042    40103    40120    40134    40116    40066    40014 
   39950    39885    39843    39831    39842    39831    39796    39787 
   39798    39803    39804    39812    39834    39856    39858    39870 
   39907    39931    39962    40032    40081    40080    40073    40090 
   40149    40205    40188    40120    40074    40030    39970    39949 
   39968    39976    39977    39964    39906    39847    39846    39873 
   39900    39941    39980    39982    39977    39996    40001    39985 
   39970    39935    39892    39864    39837    39822    39846    39904 
   39991    40062    40063    40020    39980    39947    39938    39943 
   39914    39860    39816    39795    39807    39841    39870    39881 
   39869    39891    39976    40028    40015    40035    40109    40165 
   40167    40142    40104    40062    40027    39987    39938    39910 
   39895    39866    39829    39796    39783    39796    39842    39919 
   39997    40027    39997    39953    39888    39791    39707    39702 
   39761    39814    39842    39895    39943    39964    39976    39977 
   39970    39976    39980    39977    39953    39888    39822    39796 
   39823    39895    39941    39904    39831    39802    39852    39912 
   39928    39941    39980    40036    40096    40130    40123    40092 
   40070    40072    40069    40057    40077    40115    40130    40131 
   40136    40144    40135    40080    40007    39955    39916    39885 
   39866    39826    39769    39761    39798    39827    39860    39914 
   39966    40019    40076    40127    40189    40247    40263    40231 
   40177    40153    40149    40104    40053    40036    40031    40028 
   40012    39968    39926    39888    39864    39870    39892    39920 
   39965    40018    40065    40095    40095    40073    40057    40045 
   40004    39943    39892    39846    39803    39754    39727    39760 
   39818    39843    39829    39810    39830    39868    39872    39858 
   39858    39874    39912    39949    39962    39972    39992    40004 
   39997    39997    40015    40050    40077    40054    39988    39947 
   39972    40011    40009    39985    39954    39892    39807    39754 
   39773    39860    39961    40023    40045    40031    39996    39977 
   39965    39927    39899    39919    39976    40057    40120    40136 
   40132    40111    40063    40005    39947    39908    39901    39914 
   39941    39973    39993    39992    39981    39966    39924    39862 
   39807    39765    39758    39806    39861    39903    39960    40020 
   40023    39958    39874    39798    39733    39718    39756    39784 
   39798    39833    39860    39880    39926    39961    39955    39939 
   39934    39943    39947    39951    39980    39999    39980    39960 
   39939    39903    39881    39880    39879    39893    39926    39937 
   39906    39860    39837    39846    39879    39924    39972    39999 
   40009    40027    40062    40103    40124    40122    40117    40115 
   40090    40059    40016    39955    39933    39961    39978    39984 
   39993    39976    39931    39900    39914    39938    39931    39916 
   39906    39891    39912    39970    40000    39997    39988    39974 
   39950    39904    39872    39877    39883    39897    39934    39924 
   39869    39835    39834    39849    39866    39884    39906    39923 
   39930    39939    39946    39947    39984    40055    40092    40084 
   40076    40092    40112    40096    40061    40045    40028    39996 
   39951    39911    39900    39912    39928    39965    40014    40049 
   40054    40045    40034    40003    39970    39984    40001    39988 
   39984    39999    40032    40073    40078    40057    40042    40019 
   40018    40068    40103    40061    39982    39927    39896    39883 
   39888    39889    39872    39868    39907    39947    39955    39966 
   40000    40023    40030    40034    40011    39981    39977    39964 
   39938    39912    39847    39793    39807    39833    39845    39866 
   39881    39899    39939    39991    40031    40034    40009    40022 
   40066    40068    40028    40007    40007    40018    40024    40005 
   39964    39918    39903    39916    39922    39920    39919    39920 
   39938    39949    39934    39928    39951    39968    39965    39958 
   39950    39970    40030    40062    40054    40043    40023    40007 
