Origin Time       2025/06/03 22:18:00
Lat.              41.7
Long.             143.6
Depth. (km)       30
Mag.              5.2
Station Code      KSRH06
Station Lat.      43.2200
Station Long.     144.4285
Station Height(m) 30
Record Time       2025/06/03 22:19:13
Sampling Freq(Hz) 100Hz
Duration Time(s)  120
Dir.              6
Scale Factor      7845(gal)/8223790
Max. Acc. (gal)   0.524
Last Correction   2025/06/03 22:19:14
Memo.             
[...]
    7970     7954     7954     7955     7947     7950     8001     8064 
    8052     7956     7877     7859     7889     7987     8136     8195 
    8086     7905     7823     7879     7948     7933     7901     7944 
    8010     7985     7894     7859     7921     8001     8021     7987 
    7951     7935     7943     7981     8024     8027     7993     7985 
    8006     8000     7954     7900     7867     7894     7962     7990 
    7944     7855     7812     7890     8035     8110     8067     7959 
    7890     7898     7917     7905     7913     7950     7958     7935 
    7948     8023     8055     7939     7758     7703     7816     7939 
    7939     7850     7786     7817     7913     7979     7954     7884 
    7873     7938     7986     7966     7928     7936     7985     8014 
    8004     7985     7989     8031     8087     8098     8023     7911 
    7861     7901     7981     8020     8001     7983     8006     8025 
    7981     7879     7798     7794     7838     7882     7905     7882 
    7825     7800     7847     7929     7971     7952     7936     7971 
    8014     8023     7997     7954     7909     7882     7873     7890 
    7921     7929     7916     7913     7920     7898     7859     7863 
    7921     7987     8016     8001     7963     7947     7985     8056 
    8081     7997     7877     7852     7927     7987     7985     7981 
    8027     8060     8031     7981     7966     7971     7963     7931 
    7904     7908     7916     7911     7933     7994     8050     8051 
    7985     7898     7881     7952     8000     7927     7816     7820 
    7942     8040     8039     8005     8012     8023     7989     7939 
    7932     7960     7971     7942     7909     7902     7884     7828 
    7808     7888     8009     8077     8062     7983     7890     7835 
    7834     7878     7954     8032     8052     7993     7906     7881 
    7939     8002     7994     7929     7877     7882     7951     8032 
    8051     8000     7967     7996     8020     7981     7933     7971 
    8064     8100     8029     7933     7889     7875     7858     7836 
    7825     7828     7825     7842     7917     7989     7951     7846 
    7803     7852     7894     7859     7804     7812     7886     7939 
    7905     7847     7865     7927     7919     7842     7801     7859 
    7973     8021     7965     7886     7862     7877     7901     7946 
    8002     8029     8024     8001     7998     8010     7971     7902 
    7909     7967     7960     7901     7897     7963     8013     7989 
    7938     7924     7939     7933     7908     7904     7942     7992 
    8028     8043     8037     8008     7975     7992     8068     8127 
    8093     8019     7998     8036     8037     7948     7862     7877 
    7950     7993     7993     7974     7925     7838     7773     7834 
    8004     8110     8039     7875     7784     7817     7928     8047 
    8100     8039     7924     7858     7852     7865     7897     7977 
    8060     8074     8014     7933     7874     7854     7862     7854 
    7830     7817     7811     7797     7811     7879     7983     8062 
    8082     8040     7952     7877     7885     7954     7971     7902 
    7840     7870     7947     7963     7898     7866     7963     8113 
    8151     8036     7875     7801     7873     8023     8120     8083 
    7946     7820     7788     7835     7886     7888     7843     7830 
    7932     8116     8210     8117     7965     7943     8058     8159 
    8135     8013     7898     7879     7969     8056     8013     7896 
    7881     7970     7997     7906     7820     7812     7835     7819 
    7776     7781     7863     7958     8001     8004     8008     8010 
    7983     7951     7967     8025     8047     7996     7944     7993 
    8129     8186     8021     7758     7650     7758     7946     8060 
    8023     7894     7828     7867     7927     7948     7954     7998 
    8062     8036     7955     7956     8000     7960     7851     7770 
    7749     7747     7751     7811     7911     7958     7928     7897 
    7897     7902     7938     8032     8110     8078     7946     7846 
    7892     8002     8041     8031     8033     8029     7982     7892 
    7809     7827     7963     8108     8117     7979     7863     7916 
    8041     8048     7920     7803     7838     8010     8144     8117 
    8005     7931     7896     7835     7747     7696     7730     7836 
    7954     8004     7936     7808     7720     7703     7759     7886 
    8025     8064     7936     7734     7655     7773     7959     8050 
    8020     7994     8064     8168     8186     8082     7951     7919 
    7973     8023     8029     7969     7863     7852     8013     8214 
    8280     8179     7993     7804     7668     7634     7730     7913 
    8087     8164     8114     7959     7816     7805     7890     7924 
    7875     7862     7956     8044     7963     7757     7669     7816 
    8039     8108     7998     7892     7948     8113     8179     8035 
    7801     7678     7736     7882     8002     8059     8060     8041 
    8029     8006     7906     7747     7672     7769     7943     8037 
    7989     7885     7889     8032     8122     8012     7794     7658 
    7712     7894     8040     8085     8067     8039     8067     8143 
    8148     8028     7892     7896     8016     8050     7938     7886 
    8043     8264     8310     8156     7982     7924     7958     8001 
    8033     8087     8144     8137     8071     8008     7925     7749 
    7560     7564     7785     7982     7960     7825     7754     7754 
    7765     7770     7793     7851     7932     8039     8139     8093 
    7884     7743     7844     8058     8095     7844     7539     7481 
    7686     7932     8029     7977     7911     7912     7958     8035 
    8139     8197     8182     8152     8140     8132     8090     8012 
    7959     7959     7966     7952     7938     7954     7982     7966 
    7890     7819     7831     7938     8029     7986     7809     7659 
    7716     7954     8147     8158     8077     8056     8122     8137 
    7992     7784     7690     7739     7808     7803     7755     7755 
    7825     7932     8023     8059     8020     7900     7759     7715 
    7830     8012     8127     8147     8132     8105     8031     7915 
    7838     7869     7929     7919     7902     7989     8122     8193 
    8197     8191     8199     8174     8041     7808     7608     7570 
    7670     7784     7863     7978     8121     8154     8025     7866 
    7794     7796     7819     7873     7950     7955     7816     7647 
    7666     7905     8160     8208     8002     7719     7592     7690 
    7882     7969     7902     7828     7854     7924     7962     7966 
    7958     7960     7970     7950     7875     7823     7902     8105 
    8305     8397     8368     8257     8097     7944     7878     7875 
    7848     7832     7911     8031     8106     8163     8216     8206 
    8073     7848     7677     7684     7832     7992     8066     8051 
    8029     8036     8009     7955     7936     7939     7884     7774 
    7724     7794     7924     8014     8023     7996     7985     7948 
    7859     7838     7946     8006     7881     7692     7618     7723 
    7954     8163     8190     8000     7763     7686     7757     7780 
    7697     7666     7817     8078     8243     8205     8090     8094 
    8191     8217     8149     8067     7979     7869     7762     7723 
    7769     7839     7885     7917     7971     8060     8131     8082 
    7912     7758     7738     7866     8032     8063     7920     7771 
    7773     7866     7894     7823     7763     7796     7862     7865 
    7790     7699     7677     7785     7989     8174     8230     8122 
    7898     7744     7797     7929     7932     7812     7761     7927 
    8203     8329     8181     7904     7722     7726     7862     7996 
    8025     7987     7960     7947     7924     7906     7923     7983 
    8051     8085     8077     8028     7955     7909     7927     7994 
    8010     7893     7759     7844     8147     8382     8328     8071 
    7890     7916     7997     7977     7906     7951     8141     8280 
    8171     7886     7707     7792     8023     8164     8100     7948 
    7879     7886     7915     7958     7970     7908     7842     7847 
    7884     7851     7761     7754     7920     8168     8305     8178 
    7838     7574     7623     7877     8036     7994     7915     7973 
    8127     8193     8086     7902     7800     7834     7929     7998 
    8046     8128     8217     8190     8032     7871     7781     7757 
    7786     7839     7875     7897     7908     7892     7840     7771 
    7728     7731     7769     7844     7927     7896     7730     7604 
    7693     7955     8171     8158     7959     7808     7892     8145 
    8326     8266     8059     7946     8014     8145     8159     8020 
    7932     8039     8155     8041     7743     7550     7654     7948 
    8175     8222     8163     8110     8098     8081     7975     7788 
    7634     7599     7693     7893     8071     8083     7979     7920 
    7938     7944     7874     7758     7686     7727     7858     7996 
    8058     8035     7992     8001     8066     8091     7989     7832 
    7784     7862     7952     7974     7943     7923     7944     7989 
    8013     7944     7771     7622     7659     7919     8189     8190 
    7942     7771     7855     8004     7993     7889     7906     8051 
    8110     8005     7885     7861     7886     7881     7834     7790 
    7776     7780     7813     7890     7981     8025     8008     7997 
    8040     8052     7965     7855     7828     7881     7973     8097 
    8194     8122     7869     7658     7685     7881     8050     8098 
    8062     7985     7890     7821     7828     7904     7977     7974 
    7950     8010     8109     8093     7940     7790     7774     7857 
    7893     7870     7905     8032     8145     8136     7993     7844 
    7823     7882     7916     7935     7993     8074     8133     8143 
    8110     8075     8077     8090     8062     7985     7919     7912 
    7924     7904     7886     7923     8001     8067     8071     7989 
    7855     7766     7793     7928     8098     8194     8159     8048 
    7952     7890     7825     7740     7689     7742     7878     8014 
    8082     8078     8019     7902     7738     7582     7553     7711 
    7939     8063     8054     8029     8064     8121     8143     8121 
    8036     7889     7782     7820     7947     8006     7902     7715 
    7601     7631     7758     7885     7940     7940     7942     7977 
    8035     8063     8000     7865     7770     7790     7890     7962 
    7944     7893     7888     7909     7905     7862     7823     7846 
    7913     7952     7965     7997     8037     8063     8066     8032 
    7993     8012     8081     8116     8102     8140     8230     8249 
    8148     8005     7900     7859     7889     7978     8063     8108 
    8152     8213     8221     8110     7896     7685     7636     7832 
    8136     8276     8124     7819     7599     7600     7762     7915 
    7954     7898     7850     7869     7898     7873     7819     7797 
    7827     7881     7931     7975     8000     7952     7839     7705 
    7603     7601     7728     7890     7975     7967     7916     7875 
    7869     7886     7898     7902     7924     7992     8086     8170 
    8253     8329     8287     8079     7854     7803     7946     8112 
    8127     8013     7900     7859     7894     7938     7944     7967 
    8032     8071     8036     7944     7863     7846     7867     7859 
    7820     7858     8052     8295     8395     8298     8116     8002 
    8014     8062     8021     7881     7742     7732     7870     8014 
    8009     7877     7790     7851     7975     8012     7909     7778 
    7746     7784     7796     7784     7811     7846     7801     7712 
    7704     7816     7970     8062     8050     7962     7870     7832 
    7863     7921     7979     8058     8143     8181     8125     7983 
    7828     7715     7657     7682     7771     7877     7985     8083 
    8118     8037     7871     7739     7738     7830     7925     8016 
    8114     8199     8240     8216     8104     7942     7834     7812 
    7817     7805     7808     7861     7938     7989     7997     7965 
    7909     7881     7931     7992     7936     7801     7770     7908 
    8082     8127     8009     7852     7789     7869     8055     8203 
    8208     8124     8052     8031     8052     8060     7989     7835 
    7708     7742     7960     8216     8301     8154     7923     7819 
    7875     7950     7958     8000     8170     8349     8311     8066 
    7862     7871     7983     7990     7844     7693     7670     7798 
    7997     8136     8128     7997     7847     7784     7825     7924 
    8001     7981     7878     7819     7863     7950     7983     7928 
    7825     7771     7797     7858     7936     8005     8000     7925 
    7859     7827     7823     7865     7911     7879     7793     7758 
    7831     7942     7929     7763     7618     7608     7705     7873 
    8060     8125     7998     7828     7808     7947     8068     8041 
    7956     7992     8136     8203     8101     7935     7840     7843 
    7878     7867     7823     7824     7889     7947     7917     7808 
    7709     7684     7738     7874     8054     8189     8210     8121 
    8004     7935     7902     7924     8097     8363     8491     8352 
    8040     7780     7744     7861     7915     7815     7705     7786 
    8043     8233     8213     8102     8063     8097     8086     7978 
    7900     7989     8163     8255     8259     8229     8113     7898 
    7705     7620     7654     7785     7977     8183     8313     8249 
    8023     7831     7811     7893     7921     7858     7809     7858 
    7967     8058     8097     8097     8062     8001     7956     7950 
    7931     7865     7789     7757     7749     7708     7659     7713 
    7905     8078     8041     7850     7735     7807     7927     7902 
    7754     7651     7669     7782     7955     8091     8068     7923 
    7808     7776     7753     7732     7780     7882     7983     8028 
    7990     7911     7848     7811     7777     7739     7747     7848 
    7977     8023     7990     7952     7969     8089     8260     8306 
    8129     7884     7807     7905     7993     7989     7960     7962 
    7969     7959     7955     7967     7948     7898     7869     7867 
    7866     7867     7892     7958     8010     7955     7825     7765 
    7825     7943     8064     8168     8221     8175     8033     7916 
    7962     8139     8279     8270     8124     7942     7858     7890 
    7892     7781     7700     7786     7958     8035     7977     7904 
    7924     8010     8064     8064     8052     8035     7990     7909 
    7840     7870     7994     8087     8068     7973     7881     7839 
    7858     7936     8027     8050     7978     7867     7815     7874 
    7979     8016     7962     7885     7831     7804     7815     7889 
    8028     8167     8210     8131     7983     7855     7824     7932 
    8118     8224     8131     7904     7754     7812     7979     8044 
    7927     7758     7704     7767     7832     7835     7803     7821 
    7931     8037     8025     7892     7759     7720     7759     7823 
    7854     7816     7765     7804     7942     8062     8068     7985 
    7893     7847     7871     7979     8148     8298     8337     8249 
    8110     8004     7929     7865     7851     7938     8078     8159 
    8129     8047     8017     8043     8005     7851     7720     7743 
    7871     7933     7861     7758     7724     7730     7740     7792 
    7911     8031     8050     7958     7852     7797     7782     7796 
    7846     7940     8041     8056     7973     7900     7906     7940 
    7940     7924     7948     8021     8086     8070     7970     7881 
    7912     8062     8172     8098     7908     7811     7904     8075 
    8156     8124     8094     8141     8186     8112     7947     7851 
    7911     8031     8074     8027     7970     7971     8020     8070 
    8079     8033     7959     7892     7839     7827     7875     7929 
    7924     7879     7861     7858     7796     7684     7663     7798 
    7960     8006     7952     7908     7919     7952     7983     8013 
    8025     7983     7890     7778     7692     7681     7766     7901 
    7998     8002     7929     7858     7852     7886     7897     7874 
    7863     7904     7983     8046     8036     7960     7889     7858 
    7857     7857     7842     7834     7873     7931     7932     7866 
    7812     7828     7858     7834     7782     7776     7824     7874 
    7898     7924     7958     7955     7915     7901     7931     7955 
    7944     7946     8039     8195     8267     8182     8027     7924 
    7928     7985     7992     7939     7909     7927     7917     7847 
    7796     7866     8044     8199     8232     8182     8131     8117 
    8132     8120     8020     7882     7843     7942     8085     8148 
    8094     8002     7987     8023     7962     7782     7669     7770 
    7986     8102     8064     7990     7958     7956     7954     7943 
    7936     7935     7904     7828     7763     7790     7909     8009 
    7998     7931     7885     7870     7884     7932     7998     8048 
    8074     8071     8050     8043     8013     7900     7767     7742 
    7838     7936     7924     7836     7793     7835     7908     7979 
    8055     8122     8125     8024     7875     7784     7781     7821 
    7855     7873     7877     7877     7902     7969     8023     8016 
    7979     7940     7896     7882     7954     8083     8182     8214 
    8209     8187     8137     8040     7923     7832     7796     7807 
    7839     7884     7970     8091     8166     8114     7958     7801 
    7732     7743     7751     7705     7645     7643     7730     7847 
    7924     7956     7962     7928     7848     7771     7753     7785 
    7854     7967     8089     8140     8108     8070     8097     8147 
    8136     8071     8008     7956     7932     7971     8070     8155 
    8164     8098     7977     7834     7738     7762     7869     7935 
    7928     7925     7963     7994     7990     7987     8019     8083 
    8139     8108     7981     7871     7921     8122     8284     8233 
    8023     7852     7825     7897     7986     8031     8006     7928 
    7846     7794     7762     7738     7732     7763     7824     7879 
    7901     7894     7874     7863     7885     7923     7938     7912 
    7874     7879     7944     8023     8060     8054     8055     8085 
    8091     8013     7867     7758     7766     7843     7909     7939 
    7916     7836     7738     7665     7647     7704     7828     7973 
    8055     8052     8013     7966     7915     7878     7859     7854 
    7862     7889     7954     8058     8152     8186     8143     8043 
    7943     7878     7843     7828     7839     7867     7888     7879 
    7854     7861     7925     8004     8035     8010     7969     7925 
    7877     7847     7874     7962     8083     8186     8225     8202 
    8144     8077     8014     7981     7993     8050     8101     8095 
