Origin Time       2025/06/03 22:18:00
Lat.              41.7
Long.             143.6
Depth. (km)       30
Mag.              5.2
Station Code      KSRH08
Station Lat.      43.1603
Station Long.     143.8936
Station Height(m) 174
Record Time       2025/06/03 22:19:02
Sampling Freq(Hz) 100Hz
Duration Time(s)  120
Dir.              6
Scale Factor      7845(gal)/8223790
Max. Acc. (gal)   0.331
Last Correction   2025/06/03 22:19:03
Memo.             
[...]
   10538    10520    10523    10524    10519    10523    10531    10547 
   10567    10559    10535    10520    10519    10542    10569    10559 
   10546    10581    10650    10704    10717    10724    10747    10740 
   10697    10670    10652    10613    10578    10566    10555    10555 
   10609    10667    10640    10586    10611    10670    10666    10605 
   10571    10602    10642    10627    10574    10552    10581    10600 
   10585    10575    10574    10548    10515    10524    10554    10547 
   10539    10567    10575    10558    10547    10534    10513    10504 
   10515    10552    10585    10559    10515    10515    10511    10486 
   10528    10623    10651    10623    10609    10602    10586    10589 
   10601    10588    10566    10565    10586    10598    10601    10621 
   10632    10609    10582    10566    10562    10593    10635    10632 
   10611    10619    10643    10652    10658    10659    10635    10601 
   10586    10571    10539    10523    10543    10582    10606    10586 
   10558    10585    10623    10604    10558    10532    10521    10507 
   10488    10508    10585    10663    10682    10650    10619    10616 
   10615    10592    10570    10574    10602    10642    10673    10683 
   10674    10650    10615    10581    10552    10513    10484    10490 
   10494    10478    10467    10458    10455    10476    10498    10509 
   10527    10552    10569    10567    10570    10589    10597    10581 
   10570    10585    10596    10574    10551    10592    10659    10666 
   10631    10621    10619    10588    10550    10530    10540    10563 
   10554    10538    10570    10633    10667    10633    10585    10612 
   10682    10689    10621    10571    10592    10631    10628    10612 
   10621    10606    10547    10511    10527    10566    10597    10590 
   10581    10612    10644    10642    10633    10647    10655    10652 
   10648    10629    10597    10571    10571    10598    10616    10596 
   10558    10542    10563    10588    10582    10569    10566    10563 
   10546    10524    10524    10543    10571    10598    10613    10638 
   10682    10692    10659    10636    10639    10647    10644    10608 
   10546    10515    10534    10552    10567    10589    10571    10515 
   10485    10501    10535    10561    10586    10623    10631    10586 
   10550    10551    10543    10524    10512    10497    10482    10470 
   10465    10484    10519    10551    10597    10671    10713    10674 
   10608    10575    10543    10493    10485    10513    10511    10501 
   10527    10554    10544    10523    10521    10538    10547    10552 
   10566    10573    10581    10596    10597    10596    10625    10650 
   10623    10590    10604    10633    10660    10677    10647    10611 
   10615    10612    10592    10604    10624    10613    10604    10627 
   10650    10644    10625    10613    10613    10631    10639    10621 
   10619    10631    10608    10584    10616    10656    10640    10601 
   10606    10652    10686    10681    10644    10601    10577    10565 
   10561    10571    10592    10600    10597    10589    10584    10585 
   10579    10532    10471    10465    10489    10478    10469    10508 
   10542    10550    10579    10631    10675    10681    10631    10562 
   10515    10497    10515    10558    10592    10608    10632    10647 
   10632    10627    10621    10574    10532    10525    10516    10516 
   10546    10563    10552    10531    10494    10467    10498    10543 
   10532    10503    10516    10536    10520    10517    10562    10596 
   10600    10616    10639    10650    10662    10650    10604    10578 
   10585    10604    10620    10586    10538    10565    10625    10643 
   10651    10669    10651    10617    10624    10642    10620    10598 
   10628    10682    10697    10681    10681    10685    10662    10629 
   10611    10594    10558    10508    10473    10471    10509    10534 
   10504    10474    10485    10492    10484    10490    10511    10542 
   10562    10554    10554    10569    10540    10498    10503    10507 
   10505    10544    10577    10567    10582    10629    10660    10679 
   10698    10700    10677    10651    10640    10625    10585    10563 
   10579    10596    10585    10550    10521    10542    10585    10602 
   10606    10638    10696    10729    10702    10663    10677    10713 
   10724    10704    10662    10646    10675    10683    10647    10628 
   10623    10606    10621    10642    10596    10543    10575    10615 
   10565    10498    10503    10525    10497    10446    10435    10454 
   10480    10507    10505    10477    10484    10528    10550    10534 
   10503    10484    10503    10544    10565    10562    10567    10585 
   10619    10656    10655    10613    10594    10605    10579    10527 
   10531    10577    10573    10512    10482    10520    10561    10531 
   10466    10459    10516    10550    10535    10504    10490    10523 
   10558    10559    10578    10638    10673    10655    10629    10625 
   10632    10642    10665    10689    10689    10667    10629    10590 
   10593    10628    10631    10592    10577    10601    10612    10592 
   10590    10601    10581    10524    10458    10428    10453    10486 
   10484    10497    10565    10624    10646    10673    10697    10690 
   10669    10644    10624    10643    10685    10698    10689    10692 
   10679    10623    10563    10548    10550    10554    10600    10677 
   10719    10709    10694    10679    10654    10633    10606    10567 
   10555    10570    10578    10569    10540    10512    10505    10481 
   10442    10446    10465    10462    10478    10503    10501    10511 
   10544    10552    10538    10566    10643    10694    10671    10625 
   10615    10615    10605    10594    10582    10585    10615    10625 
   10594    10552    10524    10523    10540    10546    10563    10625 
   10685    10701    10701    10681    10650    10643    10629    10577 
   10538    10550    10579    10592    10593    10600    10609    10621 
   10638    10633    10598    10563    10557    10571    10561    10509 
   10457    10431    10419    10409    10430    10497    10570    10625 
   10656    10656    10681    10740    10762    10737    10713    10679 
   10647    10647    10665    10670    10639    10594    10585    10600 
   10612    10621    10608    10562    10528    10542    10585    10592 
   10534    10484    10500    10539    10551    10525    10471    10440 
   10467    10500    10493    10512    10584    10612    10574    10546 
   10535    10496    10436    10388    10380    10419    10474    10515 
   10532    10554    10602    10643    10624    10578    10578    10621 
   10652    10662    10697    10768    10809    10783    10727    10667 
   10638    10665    10702    10681    10636    10644    10663    10633 
   10609    10625    10636    10613    10561    10496    10476    10509 
   10535    10532    10542    10550    10542    10551    10586    10621 
   10642    10642    10624    10605    10605    10612    10600    10598 
   10617    10579    10497    10474    10525    10577    10585    10571 
   10570    10561    10539    10538    10538    10509    10486    10488 
   10493    10500    10532    10578    10590    10573    10565    10574 
   10600    10632    10638    10633    10647    10638    10585    10548 
   10554    10570    10615    10697    10728    10678    10646    10655 
   10636    10601    10592    10585    10570    10551    10524    10521 
   10548    10570    10592    10621    10623    10606    10608    10619 
   10633    10662    10687    10708    10702    10650    10615    10633 
   10629    10613    10646    10654    10588    10536    10527    10505 
   10467    10471    10513    10517    10470    10461    10534    10611 
   10625    10600    10584    10574    10539    10504    10503    10498 
   10490    10519    10551    10550    10540    10542    10546    10540 
   10512    10490    10523    10571    10566    10555    10601    10670 
   10716    10739    10729    10704    10685    10655    10611    10579 
   10584    10623    10665    10658    10600    10567    10594    10625 
   10636    10646    10652    10632    10570    10494    10476    10511 
   10516    10489    10501    10544    10552    10523    10489    10470 
   10462    10451    10457    10474    10470    10451    10457    10490 
   10523    10524    10517    10551    10609    10640    10644    10655 
   10686    10723    10746    10741    10697    10646    10636    10656 
   10678    10702    10706    10692    10687    10696    10700    10673 
   10608    10558    10557    10554    10527    10520    10548    10588 
   10615    10625    10638    10635    10619    10619    10606    10557 
   10532    10539    10516    10481    10478    10493    10508    10519 
   10531    10563    10601    10601    10581    10592    10633    10666 
   10678    10686    10705    10712    10686    10640    10600    10575 
   10552    10521    10501    10517    10544    10531    10508    10535 
   10566    10546    10511    10482    10430    10368    10372    10451 
   10524    10546    10551    10552    10547    10555    10569    10574 
   10586    10606    10606    10581    10567    10594    10627    10612 
   10569    10581    10652    10686    10666    10655    10651    10646 
   10675    10694    10652    10601    10579    10559    10520    10486 
   10477    10484    10501    10531    10550    10554    10566    10598 
   10648    10679    10663    10660    10705    10723    10681    10655 
   10675    10697    10682    10642    10632    10652    10648    10621 
   10596    10562    10563    10623    10677    10689    10677    10647 
   10613    10581    10539    10513    10517    10530    10540    10532 
   10517    10536    10566    10578    10601    10636    10659    10674 
   10674    10648    10616    10579    10542    10504    10453    10405 
   10420    10492    10540    10523    10486    10494    10528    10547 
   10562    10573    10539    10485    10476    10496    10481    10432 
   10405    10432    10489    10531    10543    10536    10511    10492 
   10507    10540    10574    10613    10647    10663    10667    10690 
   10743    10783    10789    10786    10783    10773    10758    10759 
   10789    10806    10771    10712    10682    10682    10679    10675 
   10705    10741    10723    10671    10650    10648    10627    10588 
   10540    10493    10474    10478    10458    10424    10422    10415 
   10376    10368    10408    10424    10419    10436    10443    10415 
   10373    10335    10349    10407    10428    10449    10521    10586 
   10608    10636    10679    10689    10651    10629    10650    10654 
   10632    10663    10740    10759    10717    10702    10721    10729 
   10709    10697    10704    10683    10627    10596    10608    10593 
   10532    10490    10481    10461    10438    10442    10462    10476 
   10490    10532    10569    10544    10507    10524    10559    10555 
   10551    10594    10646    10646    10619    10646    10701    10717 
   10719    10727    10704    10671    10675    10682    10654    10633 
   10647    10646    10604    10565    10581    10621    10609    10546 
   10493    10474    10476    10494    10530    10573    10617    10638 
   10616    10570    10555    10592    10628    10624    10611    10615 
   10609    10577    10540    10527    10525    10507    10494    10530 
   10567    10582    10616    10660    10667    10667    10686    10679 
   10627    10554    10501    10490    10477    10439    10431    10449 
   10420    10370    10372    10389    10373    10365    10407    10459 
   10492    10521    10548    10544    10528    10530    10530    10508 
   10503    10527    10554    10566    10585    10636    10689    10714 
   10756    10824    10870    10872    10867    10882    10910    10930 
   10928    10906    10882    10858    10810    10728    10643    10579 
   10531    10498    10486    10473    10447    10415    10390    10411 
   10463    10488    10496    10524    10536    10525    10539    10557 
   10538    10507    10488    10465    10427    10403    10407    10415 
   10408    10396    10407    10415    10389    10372    10390    10417 
   10442    10465    10476    10493    10531    10590    10647    10673 
   10675    10683    10692    10673    10655    10678    10736    10782 
   10789    10774    10763    10764    10774    10775    10764    10773 
   10808    10840    10862    10881    10894    10905    10894    10843 
   10790    10777    10770    10728    10666    10620    10600    10588 
   10552    10508    10507    10531    10520    10480    10469    10492 
   10485    10430    10373    10334    10293    10257    10245    10246 
   10250    10273    10312    10323    10300    10297    10316    10338 
   10386    10446    10470    10470    10474    10482    10492    10517 
   10571    10642    10682    10681    10689    10725    10747    10741 
   10740    10743    10748    10767    10781    10773    10764    10763 
   10751    10732    10752    10800    10801    10755    10713    10687 
   10667    10639    10600    10573    10567    10562    10565    10585 
   10613    10639    10646    10613    10575    10586    10620    10627 
   10623    10642    10673    10682    10659    10644    10667    10687 
   10678    10674    10681    10671    10648    10624    10609    10623 
   10646    10643    10631    10627    10612    10570    10503    10431 
   10399    10389    10353    10324    10349    10382    10366    10297 
   10242    10249    10269    10251    10237    10266    10311    10359 
   10426    10478    10482    10469    10478    10508    10542    10584 
   10613    10600    10561    10538    10532    10528    10530    10544 
   10567    10585    10600    10619    10631    10639    10647    10652 
   10658    10663    10678    10712    10746    10759    10759    10773 
   10820    10867    10872    10864    10866    10840    10787    10752 
   10750    10750    10733    10709    10692    10694    10700    10683 
   10666    10660    10642    10621    10613    10588    10540    10507 
   10489    10476    10473    10473    10462    10442    10424    10431 
   10459    10493    10532    10561    10536    10478    10453    10469 
   10494    10524    10559    10590    10608    10608    10597    10590 
   10600    10617    10625    10629    10639    10644    10650    10663 
   10667    10642    10601    10584    10585    10579    10562    10558 
   10570    10551    10482    10412    10392    10417    10451    10471 
   10494    10520    10534    10523    10497    10490    10521    10559 
   10584    10624    10690    10735    10731    10708    10705    10717 
   10720    10714    10702    10687    10696    10717    10719    10710 
   10702    10670    10629    10601    10577    10562    10548    10527 
   10531    10565    10577    10565    10559    10571    10590    10597 
   10594    10602    10609    10594    10585    10597    10608    10592 
   10563    10550    10544    10520    10490    10470    10457    10457 
   10490    10539    10569    10577    10586    10612    10632    10635 
   10627    10615    10612    10617    10625    10639    10643    10616 
   10579    10544    10494    10454    10449    10453    10438    10420 
   10427    10446    10457    10467    10500    10532    10534    10528 
   10554    10586    10600    10604    10605    10596    10577    10573 
   10592    10600    10577    10554    10559    10577    10605    10650 
   10687    10698    10693    10698    10725    10752    10756    10752 
   10750    10731    10698    10662    10632    10621    10609    10574 
   10551    10548    10534    10504    10488    10484    10496    10521 
   10540    10535    10508    10496    10519    10524    10489    10474 
   10490    10493    10478    10485    10524    10561    10562    10558 
   10585    10608    10602    10601    10617    10628    10638    10660 
   10685    10689    10673    10646    10619    10604    10593    10574 
   10543    10511    10501    10521    10538    10530    10530    10551 
   10562    10550    10547    10559    10575    10588    10588    10594 
   10620    10631    10612    10597    10608    10635    10669    10690 
   10693    10692    10696    10679    10654    10654    10643    10606 
   10596    10620    10632    10629    10628    10628    10636    10651 
   10663    10647    10604    10581    10598    10611    10594    10582 
   10584    10567    10536    10519    10519    10513    10496    10478 
   10461    10442    10439    10450    10454    10466    10497    10527 
   10534    10521    10527    10550    10554    10555    10573    10571 
   10558    10566    10584    10578    10573    10601    10629    10620 
   10602    10628    10692    10746    10760    10771    10802    10812 
   10782    10751    10731    10713    10706    10701    10689    10685 
   10678    10633    10590    10596    10609    10589    10575    10586 
   10592    10585    10578    10558    10535    10532    10536    10530 
   10519    10520    10530    10524    10505    10513    10550    10569 
   10558    10552    10569    10581    10575    10555    10527    10509 
   10519    10528    10501    10459    10459    10485    10471    10444 
   10443    10451    10458    10471    10476    10473    10500    10544 
   10557    10532    10508    10501    10503    10503    10501    10508 
   10524    10530    10524    10532    10538    10520    10512    10531 
   10548    10554    10567    10594    10611    10605    10589    10575 
   10575    10596    10613    10612    10613    10624    10621    10601 
   10593    10602    10611    10615    10633    10651    10651    10648 
   10650    10647    10659    10690    10705    10709    10735    10774 
   10785    10770    10770    10778    10756    10720    10704    10698 
   10687    10670    10632    10581    10542    10520    10500    10481 
   10467    10462    10451    10436    10434    10444    10446    10439 
   10444    10467    10493    10521    10551    10582    10615    10638 
   10652    10669    10675    10663    10666    10692    10714    10737 
   10774    10800    10816    10840    10860    10851    10822    10808 
   10805    10782    10741    10708    10663    10598    10544    10512 
   10486    10473    10455    10431    10408    10384    10374    10378 
   10376    10374    10390    10405    10403    10388    10386    10405 
   10422    10427    10439    10455    10462    10476    10512    10557 
   10574    10565    10555    10552    10546    10548    10552    10532 
   10515    10534    10542    10511    10493    10504    10513    10519 
   10536    10551    10557    10566    10582    10586    10578    10579 
   10590    10592    10596    10619    10644    10656    10659    10666 
   10690    10705    10681    10646    10646    10663    10667    10674 
   10698    10714    10725    10750    10771    10762    10747    10747 
   10739    10713    10690    10694    10701    10666    10608    10596 
   10617    10629    10632    10635    10621    10594    10575    10562 
   10548    10550    10552    10538    10524    10521    10521    10524 
   10523    10513    10515    10543    10571    10584    10602    10638 
   10671    10678    10659    10643    10640    10635    10632    10640 
   10639    10629    10633    10632    10612    10582    10552    10535 
   10538    10535    10524    10520    10515    10500    10497    10504 
