Origin Time       2025/06/03 22:18:00
Lat.              41.7
Long.             143.6
Depth. (km)       30
Mag.              5.2
Station Code      KSRH08
Station Lat.      43.1603
Station Long.     143.8936
Station Height(m) 74
Record Time       2025/06/03 22:19:02
Sampling Freq(Hz) 100Hz
Duration Time(s)  120
Dir.              3
Scale Factor      2942(gal)/8224139
Max. Acc. (gal)   0.264
Last Correction   2025/06/03 22:19:03
Memo.             
[...]
  -97659   -97667   -97681   -97672   -97636   -97609   -97600   -97576 
  -97526   -97483   -97468   -97478   -97480   -97467   -97470   -97484 
  -97492   -97506   -97534   -97569   -97615   -97677   -97733   -97765 
  -97791   -97829   -97850   -97850   -97854   -97869   -97877   -97879 
  -97880   -97880   -97858   -97808   -97748   -97690   -97638   -97607 
  -97598   -97594   -97587   -97567   -97511   -97433   -97370   -97332 
  -97305   -97278   -97247   -97224   -97228   -97237   -97227   -97214 
  -97224   -97251   -97286   -97303   -97303   -97325   -97383   -97452 
  -97509   -97545   -97603   -97691   -97745   -97741   -97715   -97696 
  -97704   -97733   -97741   -97722   -97718   -97735   -97748   -97737 
  -97703   -97657   -97627   -97623   -97629   -97614   -97583   -97564 
  -97568   -97594   -97623   -97634   -97636   -97649   -97679   -97702 
  -97703   -97696   -97710   -97742   -97777   -97818   -97860   -97892 
  -97926   -97954   -97960   -97942   -97912   -97876   -97833   -97802 
  -97791   -97767   -97730   -97706   -97676   -97610   -97530   -97490 
  -97482   -97455   -97409   -97382   -97379   -97389   -97399   -97417 
  -97452   -97497   -97521   -97515   -97511   -97526   -97552   -97571 
  -97564   -97548   -97545   -97556   -97575   -97595   -97599   -97594 
  -97575   -97540   -97509   -97498   -97502   -97530   -97572   -97599 
  -97592   -97549   -97491   -97467   -97492   -97532   -97561   -97592 
  -97610   -97606   -97603   -97599   -97584   -97564   -97542   -97534 
  -97538   -97549   -97578   -97626   -97676   -97710   -97708   -97684 
  -97659   -97636   -97615   -97602   -97602   -97625   -97650   -97652 
  -97646   -97650   -97663   -97690   -97717   -97729   -97741   -97748 
  -97746   -97737   -97710   -97686   -97695   -97730   -97762   -97776 
  -97760   -97729   -97700   -97677   -97648   -97599   -97546   -97517 
  -97497   -97465   -97447   -97438   -97433   -97441   -97460   -97464 
  -97459   -97457   -97461   -97457   -97443   -97448   -97487   -97514 
  -97507   -97505   -97530   -97559   -97561   -97538   -97521   -97537 
  -97560   -97548   -97530   -97536   -97557   -97584   -97623   -97668 
  -97687   -97680   -97681   -97679   -97659   -97642   -97633   -97633 
  -97659   -97699   -97726   -97730   -97704   -97671   -97672   -97698 
  -97713   -97738   -97773   -97769   -97719   -97663   -97622   -97610 
  -97630   -97652   -97649   -97630   -97613   -97599   -97580   -97560 
  -97557   -97561   -97561   -97575   -97592   -97598   -97611   -97626 
  -97613   -97586   -97579   -97584   -97584   -97575   -97552   -97521 
  -97488   -97471   -97471   -97480   -97503   -97538   -97572   -97590 
  -97578   -97551   -97548   -97563   -97573   -97580   -97598   -97630 
  -97665   -97684   -97688   -97696   -97692   -97661   -97618   -97588 
  -97586   -97606   -97623   -97621   -97606   -97582   -97548   -97519 
  -97497   -97472   -97456   -97464   -97487   -97515   -97542   -97569 
  -97602   -97623   -97622   -97619   -97632   -97660   -97710   -97768 
  -97806   -97810   -97796   -97781   -97765   -97749   -97738   -97738 
  -97740   -97740   -97740   -97737   -97719   -97696   -97690   -97695 
  -97676   -97632   -97596   -97591   -97599   -97610   -97621   -97626 
  -97630   -97625   -97600   -97575   -97565   -97561   -97538   -97519 
  -97537   -97575   -97583   -97564   -97555   -97569   -97584   -97569 
  -97536   -97507   -97484   -97472   -97488   -97524   -97557   -97588 
  -97600   -97591   -97579   -97565   -97545   -97536   -97546   -97555 
  -97544   -97526   -97502   -97488   -97494   -97513   -97540   -97551 
  -97528   -97499   -97498   -97528   -97553   -97557   -97569   -97598 
  -97619   -97627   -97619   -97618   -97638   -97665   -97680   -97672 
  -97648   -97627   -97611   -97595   -97591   -97595   -97596   -97592 
  -97572   -97532   -97499   -97499   -97510   -97518   -97530   -97537 
  -97540   -97564   -97607   -97652   -97691   -97715   -97718   -97695 
  -97650   -97623   -97637   -97669   -97708   -97740   -97734   -97715 
  -97710   -97714   -97727   -97749   -97765   -97772   -97775   -97760 
  -97711   -97653   -97632   -97650   -97675   -97696   -97707   -97683 
  -97641   -97614   -97598   -97586   -97584   -97603   -97644   -97688 
  -97717   -97726   -97721   -97715   -97719   -97708   -97687   -97684 
  -97691   -97680   -97660   -97644   -97623   -97603   -97584   -97551 
  -97518   -97507   -97505   -97505   -97507   -97497   -97476   -97471 
  -97483   -97502   -97503   -97494   -97501   -97514   -97524   -97529 
  -97521   -97510   -97511   -97510   -97502   -97503   -97505   -97494 
  -97479   -97480   -97501   -97509   -97491   -97474   -97467   -97470 
  -97487   -97511   -97530   -97541   -97542   -97526   -97501   -97486 
  -97491   -97517   -97551   -97582   -97629   -97686   -97711   -97719 
  -97738   -97746   -97727   -97707   -97695   -97679   -97654   -97626 
  -97611   -97627   -97671   -97718   -97746   -97735   -97687   -97626 
  -97573   -97551   -97561   -97588   -97618   -97657   -97695   -97703 
  -97691   -97675   -97645   -97619   -97618   -97625   -97646   -97695 
  -97744   -97756   -97735   -97721   -97723   -97722   -97726   -97744 
  -97750   -97734   -97708   -97679   -97645   -97619   -97603   -97595 
  -97609   -97627   -97629   -97617   -97590   -97561   -97561   -97575 
  -97569   -97549   -97529   -97502   -97482   -97486   -97498   -97494 
  -97494   -97510   -97514   -97488   -97444   -97407   -97394   -97391 
  -97398   -97416   -97440   -97471   -97501   -97522   -97546   -97568 
  -97583   -97586   -97594   -97629   -97673   -97711   -97750   -97787 
  -97816   -97827   -97811   -97794   -97789   -97788   -97800   -97822 
  -97826   -97806   -97783   -97756   -97719   -97695   -97690   -97684 
  -97677   -97660   -97626   -97594   -97560   -97525   -97505   -97486 
  -97467   -97467   -97470   -97461   -97460   -97474   -97502   -97540 
  -97568   -97576   -97573   -97565   -97548   -97509   -97470   -97463 
  -97478   -97491   -97491   -97468   -97438   -97432   -97420   -97384 
  -97360   -97356   -97370   -97401   -97429   -97426   -97416   -97447 
  -97498   -97517   -97501   -97494   -97518   -97559   -97603   -97653 
  -97703   -97745   -97785   -97814   -97818   -97821   -97839   -97850 
  -97849   -97846   -97846   -97856   -97879   -97896   -97887   -97856 
  -97826   -97804   -97776   -97727   -97668   -97625   -97603   -97588 
  -97578   -97584   -97600   -97602   -97590   -97588   -97594   -97602 
  -97603   -97603   -97633   -97699   -97750   -97761   -97760   -97765 
  -97775   -97771   -97734   -97691   -97675   -97675   -97664   -97637 
  -97605   -97587   -97584   -97573   -97541   -97495   -97455   -97437 
  -97441   -97467   -97502   -97521   -97522   -97530   -97546   -97553 
  -97563   -97579   -97586   -97583   -97578   -97580   -97609   -97669 
  -97737   -97762   -97746   -97725   -97702   -97664   -97636   -97618 
  -97598   -97587   -97587   -97583   -97559   -97514   -97461   -97413 
  -97374   -97366   -97376   -97391   -97434   -97490   -97507   -97486 
  -97441   -97383   -97337   -97328   -97351   -97398   -97465   -97519 
  -97542   -97549   -97538   -97507   -97479   -97483   -97537   -97630 
  -97722   -97800   -97872   -97914   -97916   -97910   -97887   -97850 
  -97837   -97846   -97842   -97826   -97822   -97829   -97804   -97726 
  -97633   -97561   -97505   -97459   -97428   -97410   -97421   -97463 
  -97507   -97532   -97545   -97559   -97576   -97588   -97571   -97525 
  -97497   -97486   -97472   -97478   -97506   -97545   -97605   -97657 
  -97661   -97629   -97596   -97582   -97576   -97573   -97580   -97595 
  -97617   -97640   -97642   -97614   -97578   -97553   -97549   -97563 
  -97580   -97609   -97654   -97700   -97733   -97749   -97748   -97731 
  -97695   -97645   -97603   -97592   -97609   -97610   -97583   -97557 
  -97538   -97518   -97499   -97478   -97447   -97402   -97355   -97341 
  -97356   -97378   -97424   -97483   -97530   -97572   -97607   -97629 
  -97629   -97603   -97583   -97596   -97633   -97668   -97692   -97714 
  -97760   -97821   -97850   -97825   -97783   -97760   -97729   -97680 
  -97659   -97676   -97718   -97784   -97845   -97868   -97872   -97862 
  -97835   -97807   -97791   -97796   -97816   -97831   -97833   -97818 
  -97768   -97683   -97580   -97491   -97449   -97441   -97437   -97429 
  -97417   -97418   -97434   -97433   -97380   -97305   -97274   -97295 
  -97330   -97376   -97448   -97517   -97564   -97582   -97560   -97534 
  -97548   -97582   -97613   -97634   -97637   -97613   -97599   -97614 
  -97625   -97610   -97583   -97556   -97530   -97507   -97491   -97484 
  -97494   -97511   -97514   -97514   -97544   -97590   -97621   -97632 
  -97626   -97615   -97623   -97649   -97691   -97725   -97735   -97748 
  -97775   -97799   -97806   -97812   -97821   -97810   -97783   -97749 
  -97710   -97686   -97695   -97710   -97703   -97691   -97672   -97638 
  -97607   -97594   -97584   -97575   -97565   -97522   -97451   -97416 
  -97434   -97464   -97491   -97524   -97546   -97548   -97530   -97506 
  -97484   -97486   -97518   -97573   -97627   -97657   -97669   -97669 
  -97646   -97617   -97590   -97552   -97510   -97470   -97413   -97370 
  -97370   -97382   -97409   -97465   -97502   -97488   -97470   -97476 
  -97498   -97529   -97575   -97627   -97653   -97648   -97663   -97702 
  -97714   -97687   -97649   -97627   -97645   -97683   -97707   -97730 
  -97760   -97773   -97771   -97765   -97753   -97746   -97764   -97794 
  -97815   -97810   -97783   -97772   -97780   -97762   -97735   -97740 
  -97752   -97752   -97730   -97668   -97586   -97519   -97475   -97449 
  -97440   -97428   -97410   -97394   -97372   -97336   -97313   -97337 
  -97389   -97440   -97492   -97542   -97579   -97579   -97553   -97545 
  -97571   -97606   -97641   -97688   -97733   -97741   -97719   -97703 
  -97715   -97752   -97788   -97827   -97862   -97866   -97842   -97822 
  -97821   -97826   -97821   -97803   -97785   -97773   -97760   -97745 
  -97744   -97761   -97767   -97737   -97672   -97584   -97495   -97429 
  -97389   -97353   -97324   -97310   -97321   -97353   -97383   -97387 
  -97368   -97337   -97310   -97301   -97306   -97333   -97393   -97474 
  -97556   -97618   -97634   -97611   -97569   -97524   -97515   -97544 
  -97575   -97627   -97707   -97765   -97791   -97792   -97757   -97699 
  -97645   -97607   -97591   -97596   -97611   -97641   -97680   -97706 
  -97707   -97686   -97645   -97596   -97545   -97492   -97461   -97471 
  -97509   -97544   -97556   -97556   -97556   -97559   -97552   -97538 
  -97545   -97578   -97602   -97626   -97668   -97708   -97742   -97785 
  -97841   -97881   -97876   -97830   -97781   -97749   -97742   -97753 
  -97764   -97773   -97780   -97768   -97731   -97690   -97668   -97653 
  -97622   -97595   -97595   -97613   -97614   -97595   -97580   -97560 
  -97533   -97521   -97503   -97467   -97452   -97479   -97521   -97555 
  -97582   -97609   -97641   -97675   -97694   -97690   -97673   -97663 
  -97659   -97659   -97656   -97638   -97622   -97622   -97606   -97552 
  -97497   -97455   -97425   -97398   -97360   -97326   -97318   -97324 
  -97328   -97336   -97348   -97371   -97420   -97471   -97498   -97502 
  -97495   -97494   -97510   -97528   -97538   -97555   -97576   -97592 
  -97578   -97530   -97490   -97476   -97488   -97530   -97584   -97621 
  -97649   -97677   -97696   -97696   -97686   -97672   -97665   -97659 
  -97644   -97629   -97623   -97619   -97621   -97644   -97692   -97745 
  -97773   -97791   -97810   -97830   -97864   -97919   -97965   -97968 
  -97927   -97864   -97810   -97776   -97757   -97749   -97762   -97806 
  -97872   -97938   -97968   -97941   -97869   -97780   -97698   -97623 
  -97564   -97524   -97488   -97441   -97379   -97312   -97249   -97202 
  -97183   -97189   -97178   -97144   -97121   -97120   -97140   -97174 
  -97213   -97263   -97318   -97349   -97368   -97395   -97420   -97426 
  -97425   -97417   -97402   -97394   -97416   -97463   -97530   -97630 
  -97738   -97807   -97843   -97872   -97880   -97870   -97884   -97918 
  -97950   -97977   -97996   -98007   -98023   -98043   -98061   -98081 
  -98088   -98055   -97997   -97942   -97889   -97825   -97767   -97729 
  -97677   -97596   -97525   -97467   -97399   -97336   -97306   -97316 
  -97343   -97362   -97362   -97367   -97374   -97367   -97375   -97409 
  -97443   -97464   -97483   -97506   -97532   -97561   -97595   -97632 
  -97665   -97699   -97745   -97795   -97822   -97831   -97856   -97868 
  -97835   -97784   -97737   -97687   -97636   -97592   -97571   -97575 
  -97576   -97563   -97533   -97484   -97440   -97420   -97394   -97339 
  -97283   -97252   -97231   -97221   -97254   -97329   -97425   -97511 
  -97575   -97619   -97650   -97672   -97688   -97690   -97672   -97645 
  -97614   -97579   -97557   -97567   -97603   -97634   -97640   -97638 
  -97642   -97634   -97619   -97614   -97614   -97629   -97654   -97675 
  -97692   -97694   -97675   -97659   -97644   -97617   -97591   -97583 
  -97586   -97588   -97594   -97611   -97649   -97686   -97702   -97708 
  -97717   -97710   -97700   -97729   -97789   -97849   -97897   -97946 
  -97985   -97999   -98000   -98000   -97995   -97989   -97989   -97983 
  -97966   -97943   -97908   -97861   -97814   -97773   -97735   -97687 
  -97622   -97569   -97530   -97478   -97418   -97359   -97294   -97229 
  -97163   -97087   -97002   -96928   -96890   -96876   -96867   -96870 
  -96893   -96934   -96986   -97040   -97098   -97181   -97289   -97420 
  -97572   -97729   -97838   -97899   -97937   -97947   -97927   -97904 
  -97880   -97856   -97846   -97843   -97837   -97834   -97848   -97877 
  -97900   -97908   -97904   -97895   -97884   -97881   -97897   -97923 
  -97945   -97972   -97995   -97989   -97960   -97938   -97934   -97922 
  -97881   -97827   -97783   -97750   -97726   -97707   -97686   -97648 
  -97590   -97510   -97425   -97352   -97290   -97248   -97229   -97210 
  -97190   -97173   -97143   -97106   -97078   -97054   -97035   -97025 
  -97016   -97011   -97017   -97025   -97023   -97015   -97025   -97065 
  -97129   -97209   -97286   -97352   -97421   -97482   -97522   -97559 
  -97614   -97679   -97740   -97804   -97862   -97906   -97953   -98007 
  -98059   -98111   -98153   -98190   -98220   -98232   -98238   -98247 
  -98262   -98284   -98297   -98280   -98240   -98199   -98150   -98096 
  -98051   -98019   -97978   -97912   -97825   -97735   -97657   -97579 
  -97501   -97433   -97374   -97328   -97297   -97267   -97247   -97239 
  -97233   -97220   -97201   -97194   -97205   -97204   -97193   -97202 
  -97231   -97276   -97322   -97349   -97366   -97378   -97387   -97406 
  -97443   -97497   -97556   -97602   -97619   -97613   -97610   -97615 
  -97607   -97586   -97548   -97495   -97449   -97416   -97395   -97403 
  -97421   -97426   -97425   -97424   -97425   -97421   -97407   -97398 
  -97395   -97384   -97364   -97348   -97344   -97360   -97386   -97410 
  -97434   -97471   -97515   -97565   -97626   -97695   -97769   -97842 
  -97911   -97992   -98095   -98186   -98236   -98263   -98288   -98301 
  -98302   -98298   -98294   -98286   -98277   -98274   -98285   -98296 
  -98285   -98246   -98176   -98076   -97965   -97873   -97810   -97772 
  -97744   -97704   -97649   -97598   -97563   -97536   -97526   -97538 
  -97549   -97538   -97513   -97478   -97438   -97398   -97355   -97305 
  -97259   -97233   -97216   -97185   -97156   -97151   -97164   -97187 
  -97212   -97228   -97231   -97212   -97170   -97117   -97079   -97073 
  -97082   -97105   -97146   -97190   -97236   -97283   -97328   -97379 
  -97441   -97506   -97564   -97614   -97649   -97676   -97696   -97708 
  -97719   -97731   -97753   -97792   -97835   -97857   -97862   -97880 
  -97912   -97937   -97937   -97920   -97899   -97869   -97819   -97767 
  -97726   -97702   -97687   -97663   -97615   -97575   -97552   -97542 
  -97548   -97555   -97538   -97510   -97487   -97475   -97470   -97464 
  -97470   -97499   -97541   -97572   -97602   -97644   -97698   -97754 
  -97800   -97831   -97852   -97865   -97875   -97877   -97879   -97879 
  -97853   -97798   -97731   -97661   -97584   -97505   -97444   -97422 
  -97428   -97433   -97429   -97410   -97386   -97368   -97359   -97357 
  -97359   -97355   -97347   -97340   -97340   -97348   -97370   -97414 
  -97471   -97532   -97588   -97619   -97625   -97634   -97659   -97690 
  -97706   -97706   -97711   -97707   -97675   -97634   -97602   -97567 
  -97533   -97514   -97510   -97519   -97544   -97578   -97625   -97671 
  -97708   -97735   -97748   -97742   -97730   -97719   -97717   -97726 
  -97737   -97735   -97718   -97688   -97649   -97596   -97540   -97497 
  -97464   -97451   -97463   -97483   -97513   -97555   -97594   -97625 
  -97646   -97671   -97708   -97749   -97795   -97853   -97907   -97943 
  -97962   -97961   -97941   -97907   -97868   -97825   -97781   -97741 
  -97713   -97700   -97688   -97663   -97633   -97610   -97592   -97582 
  -97575   -97561   -97537   -97506   -97479   -97464   -97448   -97407 
  -97352   -97305   -97268   -97249   -97241   -97248   -97278   -97326 
  -97371   -97407   -97447   -97478   -97502   -97534   -97573   -97609 
  -97649   -97692   -97723   -97740   -97752   -97777   -97808   -97826 
  -97838   -97857   -97866   -97862   -97854   -97843   -97842   -97839 
  -97821   -97798   -97773   -97727   -97668   -97609   -97548   -97490 
  -97451   -97428   -97405   -97390   -97390   -97402   -97434   -97472 
  -97491   -97491   -97490   -97502   -97534   -97572   -97609   -97653 
  -97704   -97745   -97761   -97761   -97754   -97746   -97737   -97717 
  -97691   -97673   -97663   -97661   -97675   -97684   -97672   -97638 
  -97588   -97528   -97478   -97444   -97413   -97391   -97397   -97420 
  -97426   -97424   -97433   -97441   -97437   -97433   -97433   -97444 
  -97476   -97510   -97519   -97511   -97506   -97514   -97515   -97498 
  -97483   -97479   -97487   -97514   -97549   -97584   -97621   -97649 
  -97677   -97713   -97744   -97775   -97810   -97841   -97865   -97877 
  -97872   -97852   -97829   -97816   -97816   -97818   -97808   -97804 
  -97795   -97771   -97750   -97737   -97718   -97708   -97713   -97721 
  -97715   -97692   -97668   -97641   -97598   -97529   -97449   -97384 
  -97340   -97301   -97267   -97237   -97213   -97204   -97204   -97204 
  -97210   -97225   -97236   -97241   -97259   -97286   -97297   -97308 
  -97348   -97391   -97421   -97467   -97517   -97563   -97613   -97654 
  -97673   -97676   -97677   -97683   -97677   -97663   -97664   -97680 
  -97690   -97696   -97702   -97707   -97718   -97729   -97729   -97721 
  -97708   -97692   -97677   -97663   -97652   -97668   -97713   -97749 
  -97771   -97798   -97812   -97814   -97822   -97830   -97831   -97852 
  -97892   -97920   -97931   -97943   -97972   -97995   -97996   -97981 
  -97956   -97929   -97903   -97875   -97839   -97807   -97783   -97772 
  -97777   -97780   -97768   -97754   -97752   -97746   -97726   -97695 
  -97663   -97637   -97614   -97587   -97551   -97515   -97491   -97479 
  -97472   -97479   -97502   -97528   -97546   -97555   -97546   -97519 
  -97499   -97498   -97502   -97513   -97534   -97538   -97515   -97486 
