Origin Time       2025/06/03 22:18:00
Lat.              41.7
Long.             143.6
Depth. (km)       30
Mag.              5.2
Station Code      KSRH06
Station Lat.      43.2200
Station Long.     144.4285
Station Height(m) 30
Record Time       2025/06/03 22:19:13
Sampling Freq(Hz) 100Hz
Duration Time(s)  120
Dir.              5
Scale Factor      7845(gal)/8223790
Max. Acc. (gal)   0.859
Last Correction   2025/06/03 22:19:14
Memo.             
[...]
   -3916    -3866    -3854    -3870    -3912    -3971    -4018    -4017 
   -3970    -3909    -3871    -3882    -3925    -3967    -3987    -3991 
   -3979    -3942    -3892    -3878    -3913    -3952    -3977    -3990 
   -3973    -3925    -3885    -3863    -3856    -3869    -3900    -3935 
   -3958    -3956    -3942    -3933    -3929    -3927    -3939    -3973 
   -4012    -4035    -4027    -3981    -3916    -3854    -3812    -3811 
   -3855    -3925    -3985    -4012    -4001    -3973    -3951    -3936 
   -3910    -3873    -3847    -3855    -3888    -3920    -3944    -3969 
   -3986    -3973    -3920    -3869    -3869    -3904    -3939    -3963 
   -3986    -3998    -3989    -3963    -3958    -3975    -3983    -3964 
   -3935    -3924    -3929    -3931    -3928    -3929    -3933    -3933 
   -3925    -3916    -3913    -3919    -3927    -3931    -3929    -3920 
   -3904    -3894    -3904    -3936    -3971    -3985    -3979    -3959 
   -3910    -3852    -3839    -3886    -3960    -4027    -4072    -4089 
   -4043    -3923    -3788    -3709    -3707    -3757    -3842    -3937 
   -4000    -4001    -3979    -3981    -3986    -3971    -3952    -3946 
   -3939    -3916    -3879    -3861    -3877    -3909    -3939    -3959 
   -3964    -3954    -3916    -3874    -3883    -3954    -4028    -4064 
   -4059    -4012    -3933    -3861    -3840    -3885    -3969    -4047 
   -4071    -4017    -3912    -3819    -3789    -3824    -3892    -3963 
   -4021    -4037    -3994    -3931    -3890    -3879    -3896    -3924 
   -3946    -3962    -3973    -3974    -3966    -3944    -3917    -3892 
   -3878    -3882    -3892    -3901    -3925    -3970    -4006    -3996 
   -3952    -3919    -3892    -3858    -3854    -3898    -3952    -3971 
   -3963    -3937    -3888    -3839    -3850    -3929    -4024    -4082 
   -4085    -4035    -3950    -3871    -3836    -3859    -3920    -3977 
   -4001    -3990    -3955    -3900    -3851    -3855    -3919    -3985 
   -4009    -4001    -3971    -3916    -3840    -3778    -3785    -3871 
   -3985    -4055    -4039    -3959    -3873    -3817    -3801    -3835 
   -3927    -4037    -4086    -4023    -3898    -3828    -3861    -3948 
   -4021    -4058    -4060    -4018    -3924    -3831    -3811    -3871 
   -3950    -4001    -4031    -4033    -3987    -3902    -3839    -3839 
   -3889    -3947    -3983    -3986    -3966    -3946    -3935    -3931 
   -3943    -3974    -4004    -4009    -3978    -3906    -3836    -3820 
   -3862    -3928    -3989    -4017    -3987    -3908    -3820    -3770 
   -3781    -3861    -3966    -4028    -4016    -3960    -3904    -3881 
   -3898    -3935    -3973    -3998    -3993    -3966    -3939    -3932 
   -3944    -3942    -3913    -3882    -3863    -3867    -3900    -3947 
   -3983    -3996    -3981    -3937    -3882    -3842    -3843    -3881 
   -3929    -3971    -3994    -4009    -4010    -3975    -3906    -3846 
   -3832    -3862    -3900    -3936    -3993    -4040    -4021    -3950 
   -3896    -3894    -3913    -3927    -3936    -3950    -3963    -3955 
   -3923    -3882    -3858    -3863    -3892    -3932    -3983    -4021 
   -4008    -3936    -3852    -3824    -3854    -3906    -3989    -4087 
   -4131    -4068    -3947    -3855    -3823    -3834    -3882    -3952 
   -4006    -4017    -3977    -3901    -3839    -3813    -3825    -3890 
   -3990    -4054    -4035    -3956    -3871    -3821    -3819    -3873 
   -3970    -4055    -4079    -4028    -3933    -3844    -3802    -3824 
   -3906    -4010    -4082    -4090    -4047    -3994    -3966    -3966 
   -3974    -3967    -3932    -3867    -3796    -3765    -3809    -3900 
   -3974    -4021    -4054    -4045    -3977    -3904    -3904    -3967 
   -4032    -4072    -4085    -4048    -3970    -3889    -3825    -3790 
   -3792    -3834    -3892    -3913    -3888    -3866    -3890    -3954 
   -4018    -4052    -4055    -4027    -3948    -3835    -3761    -3777 
   -3843    -3896    -3910    -3885    -3829    -3769    -3731    -3731 
   -3793    -3917    -4033    -4064    -4021    -3960    -3906    -3867 
   -3878    -3936    -4000    -4043    -4050    -4004    -3927    -3878 
   -3894    -3951    -4008    -4055    -4072    -4025    -3927    -3847 
   -3848    -3917    -4000    -4055    -4060    -4012    -3928    -3847 
   -3827    -3897    -4013    -4101    -4126    -4094    -4009    -3908 
   -3848    -3843    -3866    -3904    -3944    -3956    -3919    -3856 
   -3823    -3827    -3846    -3883    -3935    -3960    -3927    -3866 
   -3832    -3844    -3881    -3936    -4016    -4091    -4104    -4020 
   -3885    -3782    -3759    -3792    -3844    -3916    -4000    -4045 
   -4027    -3982    -3959    -3960    -3951    -3916    -3865    -3825 
   -3819    -3848    -3912    -3993    -4048    -4048    -4002    -3940 
   -3886    -3856    -3867    -3919    -3993    -4063    -4089    -4054 
   -3993    -3951    -3948    -3966    -3963    -3940    -3923    -3901 
   -3865    -3835    -3821    -3815    -3804    -3808    -3856    -3944 
   -4032    -4079    -4059    -4004    -3959    -3931    -3924    -3970 
   -4040    -4058    -4017    -3971    -3925    -3879    -3886    -3951 
   -3994    -3975    -3936    -3900    -3852    -3805    -3790    -3804 
   -3802    -3784    -3785    -3824    -3875    -3924    -3982    -4055 
   -4112    -4105    -4028    -3932    -3866    -3842    -3856    -3920 
   -4021    -4105    -4102    -4010    -3886    -3781    -3735    -3781 
   -3892    -4012    -4098    -4117    -4055    -3954    -3889    -3888 
   -3913    -3924    -3940    -3979    -4005    -3989    -3951    -3936 
   -3936    -3900    -3842    -3829    -3874    -3924    -3954    -3969 
   -3952    -3879    -3769    -3705    -3744    -3843    -3936    -4014 
   -4074    -4077    -4013    -3946    -3931    -3948    -3969    -3991 
   -3997    -3952    -3874    -3819    -3835    -3927    -4037    -4105 
   -4113    -4077    -4008    -3913    -3819    -3777    -3811    -3877 
   -3929    -3977    -4027    -4056    -4045    -4014    -3975    -3937 
   -3910    -3875    -3823    -3815    -3873    -3924    -3923    -3920 
   -3950    -3971    -3951    -3920    -3925    -3962    -3997    -4006 
   -3989    -3952    -3906    -3854    -3805    -3802    -3862    -3947 
   -4001    -4000    -3958    -3904    -3844    -3809    -3840    -3928 
   -4017    -4062    -4058    -4023    -3971    -3910    -3856    -3855 
   -3913    -3978    -4021    -4039    -4004    -3908    -3808    -3771 
   -3811    -3898    -4008    -4102    -4126    -4066    -3982    -3936 
   -3932    -3970    -4047    -4104    -4082    -3994    -3901    -3848 
   -3858    -3936    -4052    -4139    -4144    -4066    -3946    -3852 
   -3827    -3869    -3966    -4077    -4109    -4018    -3870    -3785 
   -3811    -3896    -3986    -4060    -4089    -4031    -3889    -3739 
   -3667    -3699    -3793    -3906    -4005    -4058    -4029    -3929 
   -3829    -3805    -3858    -3942    -4012    -4040    -4014    -3947 
   -3881    -3852    -3861    -3898    -3959    -3991    -3942    -3843 
   -3778    -3773    -3801    -3862    -3955    -4017    -3978    -3873 
   -3793    -3771    -3797    -3877    -3985    -4039    -3987    -3856 
   -3728    -3684    -3750    -3893    -4036    -4108    -4068    -3942 
   -3796    -3688    -3639    -3659    -3759    -3915    -4032    -4041 
   -3986    -3913    -3848    -3819    -3832    -3863    -3908    -3970 
   -4035    -4077    -4098    -4114    -4102    -4024    -3908    -3836 
   -3838    -3867    -3902    -3939    -3951    -3935    -3920    -3919 
   -3925    -3956    -4014    -4044    -3967    -3815    -3690    -3645 
   -3661    -3742    -3908    -4128    -4298    -4314    -4201    -4045 
   -3888    -3751    -3716    -3836    -4037    -4187    -4243    -4234 
   -4163    -4036    -3913    -3843    -3828    -3838    -3831    -3794 
   -3769    -3808    -3910    -4014    -4051    -4008    -3921    -3842 
   -3811    -3846    -3933    -4044    -4125    -4109    -3989    -3862 
   -3820    -3859    -3921    -3985    -4043    -4051    -3989    -3921 
   -3915    -3954    -4000    -4024    -4001    -3919    -3815    -3743 
   -3727    -3753    -3819    -3913    -3983    -3981    -3917    -3835 
   -3765    -3750    -3813    -3916    -4005    -4062    -4074    -4029 
   -3970    -3969    -4018    -4063    -4094    -4120    -4093    -3982 
   -3858    -3809    -3827    -3813    -3727    -3618    -3530    -3485 
   -3520    -3655    -3861    -4087    -4280    -4380    -4333    -4132 
   -3865    -3655    -3578    -3645    -3846    -4124    -4347    -4398 
   -4286    -4109    -3964    -3910    -3967    -4090    -4166    -4118 
   -4006    -3898    -3809    -3771    -3844    -3987    -4081    -4060 
   -3962    -3835    -3719    -3659    -3700    -3842    -4024    -4167 
   -4233    -4222    -4158    -4052    -3939    -3883    -3950    -4106 
   -4218    -4190    -4063    -3925    -3786    -3638    -3531    -3526 
   -3601    -3686    -3775    -3906    -4039    -4059    -3925    -3735 
   -3613    -3605    -3699    -3888    -4129    -4317    -4320    -4101 
   -3794    -3608    -3619    -3750    -3932    -4132    -4270    -4244 
   -4051    -3820    -3697    -3720    -3848    -4021    -4139    -4120 
   -3993    -3869    -3817    -3834    -3944    -4156    -4338    -4325 
   -4121    -3894    -3759    -3720    -3766    -3879    -3998    -4035 
   -3928    -3727    -3558    -3542    -3699    -3935    -4132    -4216 
   -4166    -4012    -3802    -3592    -3465    -3477    -3593    -3732 
   -3854    -3952    -4002    -3981    -3929    -3931    -4025    -4185 
   -4336    -4391    -4303    -4106    -3878    -3717    -3719    -3875 
   -4068    -4194    -4244    -4240    -4198    -4152    -4148    -4186 
   -4179    -4056    -3854    -3666    -3551    -3553    -3689    -3896 
   -4028    -3991    -3832    -3672    -3604    -3663    -3840    -4071 
   -4255    -4313    -4222    -4032    -3855    -3786    -3840    -3964 
   -4081    -4122    -4045    -3858    -3651    -3553    -3631    -3869 
   -4166    -4380    -4432    -4320    -4082    -3817    -3663    -3688 
   -3816    -3910    -3896    -3778    -3634    -3580    -3705    -3982 
   -4253    -4328    -4148    -3852    -3609    -3514    -3619    -3901 
   -4229    -4432    -4428    -4253    -4012    -3807    -3723    -3774 
   -3874    -3915    -3865    -3757    -3661    -3636    -3697    -3809 
   -3923    -3997    -4001    -3928    -3811    -3755    -3838    -3998 
   -4126    -4174    -4143    -4062    -4012    -4055    -4176    -4303 
   -4379    -4349    -4174    -3866    -3545    -3369    -3422    -3681 
   -4043    -4329    -4382    -4175    -3840    -3561    -3483    -3635 
   -3910    -4117    -4148    -4009    -3763    -3511    -3380    -3485 
   -3848    -4329    -4680    -4715    -4464    -4105    -3757    -3468 
   -3343    -3508    -3900    -4288    -4487    -4432    -4155    -3754 
   -3384    -3176    -3191    -3408    -3740    -4063    -4276    -4329 
   -4241    -4099    -3975    -3871    -3785    -3765    -3824    -3896 
   -3927    -3924    -3912    -3881    -3825    -3797    -3859    -4012 
   -4201    -4348    -4369    -4256    -4074    -3874    -3709    -3666 
   -3753    -3870    -3936    -3947    -3898    -3805    -3754    -3819 
   -3963    -4090    -4121    -4040    -3913    -3840    -3885    -4039 
   -4221    -4340    -4318    -4113    -3786    -3500    -3399    -3554 
   -3920    -4324    -4567    -4556    -4330    -3994    -3654    -3424 
   -3395    -3581    -3913    -4224    -4328    -4180    -3883    -3593 
   -3431    -3458    -3658    -3923    -4117    -4164    -4090    -4010 
   -3987    -4002    -4018    -4001    -3925    -3820    -3734    -3678 
   -3677    -3782    -3985    -4187    -4307    -4328    -4282    -4216 
   -4164    -4108    -3973    -3753    -3535    -3411    -3430    -3585 
   -3804    -3983    -4062    -4036    -3950    -3863    -3843    -3920 
   -4039    -4126    -4132    -4020    -3802    -3591    -3534    -3666 
   -3888    -4121    -4349    -4472    -4375    -4099    -3811    -3654 
   -3712    -3932    -4174    -4334    -4375    -4271    -4036    -3759 
   -3595    -3628    -3777    -3901    -3958    -3963    -3890    -3763 
   -3708    -3797    -3960    -4085    -4110    -4032    -3870    -3688 
   -3559    -3526    -3588    -3707    -3825    -3920    -3996    -4045 
   -4070    -4079    -4079    -4048    -3952    -3821    -3739    -3715 
   -3692    -3685    -3765    -3902    -4009    -4067    -4137    -4247 
   -4332    -4306    -4186    -4058    -3959    -3873    -3792    -3769 
   -3869    -4047    -4147    -4058    -3829    -3600    -3474    -3499 
   -3665    -3890    -4071    -4158    -4136    -4036    -3933    -3886 
   -3898    -3944    -3963    -3909    -3843    -3875    -4005    -4128 
   -4202    -4240    -4226    -4139    -4004    -3869    -3781    -3780 
   -3846    -3919    -3987    -4074    -4106    -3986    -3762    -3608 
   -3636    -3836    -4128    -4406    -4579    -4588    -4438    -4187 
   -3932    -3773    -3746    -3782    -3782    -3739    -3715    -3734 
   -3797    -3886    -3944    -3933    -3896    -3885    -3909    -3948 
   -4010    -4091    -4136    -4099    -3998    -3885    -3813    -3812 
   -3873    -3966    -4048    -4102    -4106    -4041    -3937    -3873 
   -3855    -3832    -3777    -3720    -3657    -3578    -3541    -3601 
   -3746    -3916    -4032    -4023    -3900    -3778    -3775    -3898 
   -4098    -4322    -4490    -4477    -4234    -3888    -3662    -3692 
   -3935    -4233    -4428    -4430    -4209    -3794    -3331    -3032 
   -3041    -3331    -3743    -4122    -4345    -4347    -4180    -3989 
   -3875    -3885    -3998    -4125    -4158    -4074    -3936    -3817 
   -3761    -3797    -3928    -4098    -4220    -4237    -4168    -4072 
   -3982    -3870    -3708    -3541    -3465    -3545    -3781    -4095 
   -4360    -4484    -4433    -4222    -3952    -3765    -3740    -3856 
   -4014    -4091    -4018    -3836    -3650    -3523    -3492    -3586 
   -3788    -3990    -4087    -4039    -3898    -3766    -3704    -3723 
   -3819    -3956    -4062    -4082    -4020    -3919    -3838    -3820 
   -3859    -3917    -3983    -4064    -4147    -4178    -4102    -3925 
   -3723    -3573    -3532    -3649    -3904    -4180    -4325    -4251 
   -3971    -3586    -3246    -3087    -3159    -3419    -3761    -4063 
   -4224    -4202    -4055    -3896    -3805    -3820    -3940    -4089 
   -4159    -4112    -4000    -3913    -3913    -3987    -4037    -4016 
   -3977    -3944    -3883    -3812    -3831    -3993    -4209    -4340 
   -4330    -4205    -4028    -3900    -3897    -4050    -4306    -4518 
   -4531    -4334    -4037    -3769    -3618    -3640    -3824    -4063 
   -4249    -4344    -4317    -4153    -3916    -3708    -3595    -3589 
   -3678    -3835    -3997    -4066    -3997    -3851    -3755    -3751 
   -3781    -3790    -3758    -3666    -3564    -3539    -3632    -3816 
   -4064    -4333    -4525    -4552    -4433    -4243    -4033    -3885 
   -3865    -3943    -4048    -4128    -4121    -4001    -3832    -3692 
   -3646    -3721    -3862    -3958    -3937    -3816    -3680    -3615 
   -3667    -3825    -4014    -4121    -4075    -3917    -3770    -3738 
   -3800    -3861    -3851    -3767    -3642    -3534    -3488    -3515 
   -3618    -3774    -3935    -4029    -4006    -3900    -3813    -3805 
   -3836    -3881    -3966    -4082    -4168    -4190    -4144    -4043 
   -3937    -3909    -3955    -3993    -3985    -3964    -3951    -3956 
   -3978    -3998    -4006    -4009    -4023    -4052    -4082    -4093 
   -4094    -4110    -4131    -4124    -4093    -4063    -4020    -3929 
   -3794    -3666    -3613    -3676    -3808    -3942    -4077    -4205 
   -4255    -4190    -4083    -4029    -4040    -4070    -4077    -4064 
   -4056    -4063    -4064    -4044    -4008    -3969    -3906    -3821 
   -3750    -3717    -3730    -3754    -3713    -3578    -3419    -3318 
   -3314    -3443    -3723    -4044    -4225    -4166    -3937    -3694 
   -3559    -3626    -3897    -4220    -4392    -4341    -4120    -3823 
   -3574    -3518    -3705    -4041    -4368    -4585    -4649    -4523 
   -4257    -3993    -3850    -3862    -3998    -4185    -4299    -4257 
   -4090    -3915    -3831    -3877    -4033    -4212    -4288    -4213 
   -4044    -3874    -3766    -3780    -3912    -4027    -3989    -3816 
   -3601    -3416    -3353    -3503    -3840    -4207    -4415    -4386 
   -4160    -3828    -3503    -3304    -3303    -3466    -3669    -3801 
   -3835    -3792    -3715    -3662    -3694    -3815    -3948    -4051 
   -4089    -3986    -3751    -3584    -3688    -4025    -4388    -4619 
   -4668    -4502    -4139    -3743    -3530    -3562    -3762    -4018 
   -4210    -4198    -3942    -3585    -3343    -3339    -3584    -3997 
   -4409    -4637    -4592    -4318    -3959    -3669    -3543    -3613 
   -3835    -4067    -4167    -4125    -4050    -4002    -3979    -3977 
   -3986    -3967    -3896    -3793    -3704    -3682    -3748    -3863 
   -3970    -4033    -4028    -3956    -3869    -3829    -3867    -3977 
   -4095    -4143    -4108    -4052    -4037    -4060    -4079    -4082 
   -4055    -3971    -3829    -3680    -3589    -3612    -3723    -3828 
   -3867    -3843    -3771    -3689    -3657    -3699    -3802    -3973 
   -4166    -4264    -4179    -3954    -3704    -3535    -3516    -3674 
   -3960    -4243    -4382    -4334    -4174    -4009    -3913    -3917 
   -4000    -4085    -4094    -3987    -3784    -3581    -3493    -3547 
   -3694    -3878    -4072    -4237    -4320    -4313    -4264    -4230 
   -4228    -4237    -4213    -4139    -4012    -3825    -3624    -3516 
   -3570    -3747    -3943    -4085    -4167    -4187    -4110    -3967 
   -3875    -3902    -4016    -4155    -4226    -4149    -3954    -3761 
   -3639    -3564    -3512    -3545    -3703    -3924    -4095    -4174 
   -4174    -4131    -4095    -4075    -4036    -3997    -4006    -4035 
   -4050    -4089    -4149    -4156    -4078    -3946    -3793    -3655 
   -3581    -3605    -3711    -3836    -3937    -3986    -3954    -3870 
   -3827    -3877    -3979    -4066    -4116    -4137    -4108    -4002 
   -3861    -3755    -3736    -3805    -3912    -3997    -4050    -4078 
   -4048    -3935    -3808    -3765    -3801    -3825    -3805    -3804 
   -3866    -3956    -4035    -4077    -4071    -4039    -4016    -4021 
   -4043    -4071    -4098    -4078    -3967    -3823    -3748    -3781 
   -3867    -3960    -4052    -4104    -4068    -3955    -3809    -3677 
   -3593    -3566    -3607    -3726    -3883    -4024    -4118    -4162 
   -4152    -4117    -4093    -4086    -4089    -4116    -4166    -4183 
   -4104    -3952    -3836    -3817    -3865    -3933    -4021    -4120 
   -4189    -4180    -4083    -3928    -3736    -3530    -3366    -3343 
   -3518    -3829    -4128    -4279    -4270    -4163    -4002    -3843 
   -3796    -3919    -4132    -4280    -4260    -4089    -3866    -3684 
   -3570    -3532    -3576    -3676    -3771    -3798    -3755    -3704 
   -3690    -3720    -3788    -3879    -3973    -4052    -4116    -4174 
   -4221    -4216    -4121    -3958    -3819    -3793    -3889    -4056 
   -4209    -4247    -4135    -3932    -3720    -3562    -3514    -3612 
   -3820    -4012    -4074    -3964    -3735    -3518    -3443    -3561 
