Origin Time       2025/06/03 22:18:00
Lat.              41.7
Long.             143.6
Depth. (km)       30
Mag.              5.2
Station Code      KSRH09
Station Lat.      42.9856
Station Long.     143.9841
Station Height(m) 27
Record Time       2025/06/03 22:18:58
Sampling Freq(Hz) 100Hz
Duration Time(s)  126
Dir.              6
Scale Factor      7845(gal)/8223790
Max. Acc. (gal)   0.948
Last Correction   2025/06/03 22:18:59
Memo.             
[...]
  -11607   -11581   -11591   -11642   -11715   -11778   -11817   -11823 
  -11772   -11676   -11599   -11585   -11642   -11727   -11786   -11819 
  -11836   -11839   -11835   -11823   -11786   -11730   -11668   -11616 
  -11604   -11654   -11740   -11808   -11824   -11785   -11707   -11627 
  -11592   -11630   -11708   -11765   -11776   -11774   -11790   -11805 
  -11793   -11762   -11747   -11755   -11770   -11789   -11813   -11839 
  -11851   -11821   -11742   -11655   -11618   -11645   -11696   -11724 
  -11724   -11718   -11704   -11669   -11620   -11589   -11614   -11692 
  -11789   -11869   -11904   -11888   -11844   -11812   -11807   -11805 
  -11799   -11792   -11786   -11773   -11745   -11696   -11651   -11654 
  -11711   -11793   -11863   -11911   -11920   -11881   -11796   -11704 
  -11670   -11711   -11784   -11842   -11870   -11866   -11830   -11763 
  -11693   -11664   -11695   -11747   -11782   -11799   -11803   -11796 
  -11788   -11782   -11765   -11732   -11695   -11673   -11685   -11727 
  -11777   -11823   -11862   -11874   -11846   -11799   -11774   -11782 
  -11813   -11866   -11936   -11988   -11974   -11897   -11803   -11739 
  -11722   -11745   -11786   -11843   -11905   -11948   -11947   -11888 
  -11773   -11631   -11518   -11483   -11539   -11643   -11716   -11713 
  -11653   -11572   -11508   -11488   -11514   -11574   -11662   -11753 
  -11816   -11831   -11800   -11753   -11720   -11713   -11734   -11772 
  -11807   -11842   -11894   -11955   -11982   -11959   -11923   -11904 
  -11893   -11871   -11828   -11778   -11743   -11720   -11700   -11697 
  -11719   -11738   -11719   -11655   -11596   -11591   -11641   -11722 
  -11786   -11794   -11762   -11739   -11740   -11742   -11728   -11713 
  -11716   -11742   -11774   -11793   -11804   -11821   -11847   -11870 
  -11881   -11861   -11809   -11757   -11728   -11728   -11751   -11770 
  -11766   -11754   -11763   -11792   -11817   -11821   -11808   -11801 
  -11809   -11817   -11803   -11759   -11704   -11662   -11650   -11677 
  -11743   -11812   -11846   -11826   -11758   -11676   -11623   -11611 
  -11630   -11673   -11734   -11794   -11830   -11834   -11815   -11790 
  -11773   -11749   -11703   -11668   -11678   -11726   -11766   -11762 
  -11718   -11673   -11654   -11638   -11614   -11611   -11655   -11716 
  -11746   -11723   -11670   -11647   -11682   -11745   -11819   -11917 
  -12004   -12037   -12010   -11948   -11904   -11905   -11904   -11857 
  -11784   -11716   -11673   -11661   -11676   -11707   -11753   -11781 
  -11766   -11742   -11739   -11766   -11830   -11917   -11986   -12001 
  -11951   -11846   -11715   -11615   -11583   -11603   -11634   -11665 
  -11688   -11693   -11684   -11654   -11597   -11556   -11580   -11685 
  -11835   -11962   -12028   -12037   -12006   -11940   -11851   -11769 
  -11724   -11722   -11755   -11819   -11870   -11862   -11796   -11701 
  -11639   -11646   -11701   -11770   -11826   -11844   -11801   -11712 
  -11638   -11600   -11580   -11562   -11562   -11596   -11651   -11693 
  -11707   -11711   -11738   -11801   -11875   -11923   -11924   -11890 
  -11848   -11823   -11819   -11840   -11873   -11884   -11858   -11820 
  -11811   -11832   -11851   -11865   -11877   -11865   -11811   -11727 
  -11651   -11624   -11665   -11745   -11815   -11850   -11855   -11846 
  -11835   -11834   -11846   -11870   -11889   -11885   -11875   -11877 
  -11866   -11808   -11709   -11615   -11560   -11547   -11566   -11615 
  -11684   -11751   -11797   -11811   -11782   -11708   -11603   -11510 
  -11476   -11523   -11624   -11739   -11861   -11969   -12005   -11946 
  -11828   -11712   -11653   -11668   -11731   -11820   -11923   -12006 
  -12025   -11971   -11869   -11758   -11657   -11562   -11480   -11439 
  -11461   -11531   -11624   -11726   -11819   -11870   -11854   -11792 
  -11745   -11738   -11751   -11755   -11735   -11704   -11672   -11641 
  -11635   -11684   -11774   -11863   -11921   -11944   -11920   -11851 
  -11769   -11713   -11708   -11753   -11812   -11840   -11817   -11763 
  -11705   -11651   -11597   -11557   -11558   -11624   -11731   -11801 
  -11794   -11749   -11719   -11711   -11707   -11724   -11789   -11884 
  -11944   -11923   -11851   -11816   -11843   -11866   -11832   -11784 
  -11792   -11862   -11948   -12012   -12036   -12043   -12059   -12070 
  -12028   -11931   -11823   -11736   -11685   -11695   -11767   -11859 
  -11911   -11875   -11754   -11597   -11472   -11425   -11460   -11519 
  -11553   -11565   -11591   -11632   -11651   -11622   -11554   -11473 
  -11433   -11485   -11607   -11722   -11781   -11786   -11730   -11615 
  -11488   -11415   -11452   -11600   -11807   -12002   -12120   -12113 
  -12012   -11900   -11813   -11751   -11716   -11712   -11753   -11839 
  -11935   -12001   -12017   -11982   -11921   -11858   -11789   -11711 
  -11654   -11646   -11685   -11750   -11801   -11799   -11740   -11662 
  -11600   -11593   -11678   -11848   -12028   -12117   -12083   -11992 
  -11912   -11861   -11831   -11830   -11859   -11896   -11893   -11828 
  -11726   -11623   -11533   -11468   -11456   -11514   -11628   -11731 
  -11750   -11682   -11591   -11553   -11620   -11769   -11934   -12060 
  -12120   -12105   -12017   -11870   -11703   -11560   -11491   -11539 
  -11719   -11948   -12083   -12046   -11892   -11743   -11655   -11615 
  -11616   -11657   -11715   -11763   -11809   -11861   -11907   -11913 
  -11867   -11796   -11740   -11708   -11681   -11645   -11614   -11623 
  -11686   -11758   -11780   -11732   -11639   -11537   -11462   -11445 
  -11520   -11681   -11855   -11955   -11948   -11882   -11826   -11816 
  -11861   -11939   -12010   -12040   -12010   -11940   -11878   -11859 
  -11871   -11886   -11893   -11867   -11786   -11682   -11620   -11638 
  -11704   -11762   -11776   -11731   -11634   -11504   -11376   -11294 
  -11284   -11360   -11514   -11726   -11952   -12141   -12248   -12241 
  -12113   -11904   -11704   -11589   -11566   -11595   -11642   -11682 
  -11708   -11727   -11731   -11692   -11612   -11518   -11425   -11353 
  -11341   -11430   -11597   -11750   -11843   -11915   -12006   -12091 
  -12128   -12113   -12073   -12017   -11946   -11862   -11781   -11724 
  -11700   -11705   -11740   -11801   -11873   -11911   -11871   -11769 
  -11665   -11601   -11558   -11514   -11500   -11570   -11731   -11909 
  -11986   -11905   -11708   -11483   -11307   -11245   -11318   -11502 
  -11740   -11963   -12098   -12087   -11936   -11716   -11518   -11404 
  -11406   -11522   -11718   -11928   -12081   -12144   -12140   -12081 
  -11967   -11824   -11716   -11688   -11738   -11835   -11951   -12067 
  -12152   -12166   -12096   -11958   -11792   -11662   -11623   -11678 
  -11789   -11917   -12036   -12113   -12105   -11996   -11844   -11743 
  -11730   -11773   -11820   -11842   -11840   -11805   -11711   -11578 
  -11483   -11461   -11489   -11545   -11620   -11693   -11736   -11726 
  -11655   -11549   -11446   -11410   -11473   -11593   -11705   -11776 
  -11803   -11797   -11749   -11665   -11601   -11601   -11646   -11708 
  -11782   -11870   -11958   -12008   -11982   -11904   -11861   -11886 
  -11924   -11921   -11911   -11938   -11989   -12020   -12012   -11952 
  -11839   -11681   -11497   -11335   -11256   -11276   -11361   -11479 
  -11611   -11731   -11790   -11739   -11585   -11412   -11321   -11356 
  -11496   -11682   -11840   -11917   -11897   -11805   -11680   -11557 
  -11485   -11502   -11603   -11765   -11952   -12121   -12240   -12290 
  -12278   -12243   -12226   -12218   -12198   -12172   -12145   -12100 
  -12028   -11963   -11958   -12032   -12133   -12183   -12137   -11998 
  -11796   -11585   -11418   -11322   -11303   -11376   -11531   -11712 
  -11859   -11947   -11967   -11928   -11847   -11751   -11655   -11547 
  -11426   -11338   -11333   -11400   -11499   -11574   -11596   -11608 
  -11658   -11715   -11719   -11669   -11618   -11595   -11595   -11626 
  -11689   -11746   -11732   -11632   -11500   -11399   -11354   -11361 
  -11415   -11496   -11599   -11711   -11799   -11816   -11776   -11755 
  -11800   -11871   -11923   -11962   -12019   -12091   -12148   -12182 
  -12221   -12267   -12268   -12186   -12062   -11973   -11951   -11970 
  -11990   -11996   -11997   -11998   -11974   -11905   -11801   -11688 
  -11561   -11421   -11323   -11325   -11412   -11520   -11593   -11635 
  -11655   -11637   -11557   -11456   -11388   -11354   -11340   -11357 
  -11426   -11551   -11692   -11801   -11878   -11947   -12001   -12008 
  -11963   -11923   -11947   -12035   -12152   -12267   -12348   -12380 
  -12356   -12276   -12163   -12043   -11920   -11778   -11623   -11489 
  -11422   -11438   -11502   -11542   -11523   -11462   -11389   -11319 
  -11271   -11265   -11314   -11410   -11547   -11749   -11988   -12152 
  -12158   -12036   -11871   -11723   -11616   -11569   -11601   -11703 
  -11827   -11936   -12013   -12035   -11979   -11861   -11734   -11653 
  -11634   -11666   -11749   -11870   -11975   -12001   -11921   -11761 
  -11572   -11398   -11273   -11246   -11344   -11545   -11777   -11956 
  -12031   -12000   -11929   -11886   -11870   -11858   -11867   -11915 
  -11983   -12048   -12089   -12098   -12089   -12083   -12089   -12108 
  -12139   -12154   -12137   -12109   -12074   -12023   -11955   -11873 
  -11772   -11672   -11631   -11681   -11780   -11853   -11831   -11701 
  -11515   -11342   -11223   -11180   -11229   -11352   -11497   -11604 
  -11614   -11515   -11358   -11206   -11105   -11088   -11152   -11273 
  -11449   -11661   -11832   -11897   -11867   -11796   -11711   -11618 
  -11543   -11534   -11628   -11797   -11966   -12079   -12114   -12075 
  -11985   -11850   -11682   -11522   -11416   -11387   -11426   -11537 
  -11739   -11983   -12170   -12258   -12283   -12258   -12189   -12101 
  -12006   -11951   -11974   -12032   -12071   -12051   -11969   -11863 
  -11776   -11734   -11738   -11758   -11786   -11821   -11827   -11786 
  -11726   -11684   -11691   -11720   -11716   -11659   -11573   -11492 
  -11439   -11441   -11535   -11718   -11912   -12016   -11998   -11909 
  -11804   -11697   -11616   -11583   -11600   -11668   -11769   -11873 
  -11940   -11942   -11878   -11794   -11730   -11676   -11615   -11557 
  -11545   -11610   -11743   -11916   -12082   -12168   -12136   -12017 
  -11904   -11875   -11942   -12042   -12100   -12090   -12029   -11917 
  -11765   -11624   -11546   -11520   -11507   -11506   -11514   -11503 
  -11466   -11423   -11385   -11357   -11337   -11335   -11389   -11519 
  -11691   -11836   -11902   -11900   -11874   -11847   -11817   -11804 
  -11830   -11881   -11917   -11928   -11928   -11919   -11894   -11867 
  -11863   -11874   -11850   -11761   -11642   -11562   -11547   -11583 
  -11638   -11693   -11742   -11770   -11739   -11668   -11637   -11688 
  -11766   -11801   -11800   -11823   -11902   -12008   -12090   -12148 
  -12212   -12268   -12276   -12225   -12135   -12048   -11994   -11947 
  -11869   -11763   -11674   -11624   -11599   -11553   -11457   -11326 
  -11219   -11171   -11159   -11164   -11203   -11315   -11510   -11716 
  -11854   -11908   -11896   -11840   -11776   -11743   -11766   -11838 
  -11938   -12027   -12074   -12056   -11969   -11838   -11707   -11603 
  -11539   -11519   -11541   -11611   -11707   -11777   -11790   -11759 
  -11689   -11591   -11506   -11477   -11533   -11658   -11799   -11892 
  -11898   -11843   -11789   -11778   -11813   -11884   -11943   -11954 
  -11931   -11889   -11821   -11747   -11726   -11809   -11986   -12183 
  -12328   -12403   -12417   -12360   -12247   -12129   -12060   -12029 
  -11966   -11826   -11627   -11453   -11361   -11335   -11331   -11348 
  -11408   -11495   -11551   -11543   -11479   -11394   -11330   -11311 
  -11329   -11380   -11479   -11634   -11813   -11959   -12033   -12023 
  -11938   -11813   -11695   -11607   -11565   -11597   -11693   -11784 
  -11824   -11846   -11901   -11969   -11971   -11916   -11909   -12013 
  -12177   -12299   -12333   -12305   -12247   -12145   -11978   -11785 
  -11657   -11627   -11638   -11615   -11560   -11533   -11568   -11639 
  -11719   -11794   -11839   -11801   -11669   -11497   -11353   -11253 
  -11182   -11141   -11132   -11156   -11218   -11307   -11388   -11439 
  -11472   -11511   -11583   -11670   -11726   -11726   -11685   -11620 
  -11543   -11483   -11489   -11595   -11755   -11882   -11935   -11938 
  -11934   -11938   -11944   -11959   -11994   -12037   -12077   -12109 
  -12121   -12097   -12056   -12046   -12091   -12177   -12275   -12371 
  -12432   -12433   -12390   -12343   -12287   -12178   -11988   -11757 
  -11591   -11558   -11641   -11774   -11909   -12017   -12059   -11993 
  -11830   -11639   -11468   -11326   -11236   -11230   -11307   -11415 
  -11503   -11534   -11520   -11491   -11446   -11392   -11350   -11327 
  -11330   -11361   -11415   -11500   -11614   -11703   -11734   -11750 
  -11804   -11897   -11982   -12008   -11989   -11979   -12004   -12050 
  -12110   -12191   -12285   -12355   -12363   -12302   -12199   -12086 
  -11974   -11893   -11870   -11866   -11842   -11792   -11718   -11615 
  -11488   -11353   -11244   -11192   -11199   -11229   -11252   -11268 
  -11281   -11280   -11271   -11269   -11303   -11375   -11438   -11461 
  -11466   -11496   -11549   -11610   -11681   -11770   -11871   -11966 
  -12031   -12069   -12113   -12190   -12299   -12424   -12553   -12672 
  -12746   -12756   -12702   -12595   -12459   -12316   -12167   -12001 
  -11835   -11701   -11604   -11522   -11468   -11457   -11466   -11456 
  -11414   -11356   -11294   -11232   -11169   -11134   -11183   -11330 
  -11533   -11751   -11950   -12075   -12120   -12121   -12094   -12035 
  -11985   -11986   -12028   -12070   -12085   -12081   -12059   -12005 
  -11929   -11870   -11823   -11734   -11580   -11406   -11275   -11229 
  -11277   -11412   -11592   -11728   -11758   -11693   -11570   -11445 
  -11379   -11388   -11450   -11547   -11669   -11797   -11907   -11977 
  -12010   -11996   -11923   -11838   -11797   -11819   -11880   -11958 
  -12042   -12121   -12195   -12260   -12301   -12295   -12245   -12172 
  -12094   -12012   -11927   -11847   -11767   -11668   -11565   -11500 
  -11480   -11480   -11492   -11515   -11535   -11519   -11457   -11383 
  -11321   -11263   -11218   -11215   -11256   -11318   -11391   -11468 
  -11534   -11576   -11570   -11500   -11395   -11323   -11340   -11441 
  -11596   -11776   -11928   -11993   -11952   -11855   -11778   -11759 
  -11778   -11826   -11921   -12071   -12237   -12359   -12403   -12378 
  -12294   -12141   -11928   -11699   -11506   -11407   -11429   -11522 
  -11615   -11678   -11705   -11673   -11568   -11435   -11369   -11411 
  -11526   -11650   -11770   -11890   -11992   -12052   -12082   -12104 
  -12097   -12039   -11946   -11850   -11790   -11797   -11848   -11915 
  -12004   -12114   -12193   -12194   -12121   -11990   -11820   -11626 
  -11458   -11380   -11430   -11577   -11769   -11952   -12069   -12075 
  -11983   -11832   -11673   -11558   -11526   -11580   -11704   -11857 
  -11990   -12082   -12121   -12109   -12071   -12037   -12009   -11971 
  -11946   -11977   -12064   -12145   -12139   -12002   -11790   -11600 
  -11487   -11439   -11429   -11411   -11360   -11294   -11233   -11188 
  -11182   -11234   -11325   -11406   -11442   -11450   -11488   -11577 
  -11678   -11757   -11809   -11851   -11881   -11874   -11820   -11734 
  -11649   -11587   -11551   -11534   -11539   -11568   -11595   -11600 
  -11587   -11549   -11500   -11470   -11477   -11503   -11538   -11596 
  -11684   -11793   -11909   -12004   -12052   -12052   -12013   -11950 
  -11886   -11838   -11819   -11826   -11858   -11912   -11965   -11994 
  -11996   -11973   -11959   -11982   -12019   -12033   -12032   -12029 
  -12025   -12012   -11971   -11897   -11800   -11693   -11614   -11618 
  -11719   -11863   -11983   -12036   -12032   -12021   -12033   -12055 
  -12055   -12009   -11921   -11827   -11754   -11688   -11624   -11570 
  -11507   -11422   -11330   -11252   -11192   -11146   -11125   -11157 
  -11263   -11410   -11550   -11646   -11701   -11718   -11688   -11637 
  -11612   -11647   -11740   -11878   -12055   -12255   -12411   -12476 
  -12467   -12437   -12430   -12445   -12449   -12440   -12433   -12418 
  -12370   -12270   -12133   -11996   -11882   -11788   -11715   -11692 
  -11728   -11781   -11793   -11751   -11670   -11562   -11416   -11256 
  -11129   -11037   -10967   -10924   -10914   -10922   -10944   -10995 
  -11079   -11173   -11260   -11353   -11470   -11599   -11715   -11824 
  -11936   -12048   -12145   -12210   -12244   -12253   -12251   -12240 
  -12208   -12156   -12117   -12106   -12121   -12147   -12170   -12170 
  -12123   -11993   -11788   -11578   -11433   -11388   -11430   -11507 
  -11574   -11616   -11626   -11604   -11562   -11515   -11483   -11480 
  -11523   -11616   -11732   -11831   -11867   -11821   -11705   -11570 
  -11464   -11392   -11337   -11317   -11372   -11493   -11620   -11715 
  -11793   -11871   -11927   -11929   -11896   -11867   -11869   -11886 
  -11897   -11893   -11878   -11843   -11777   -11682   -11600   -11573 
  -11603   -11672   -11761   -11843   -11884   -11851   -11766   -11689 
  -11653   -11649   -11673   -11734   -11830   -11935   -12009   -12052 
  -12094   -12143   -12187   -12222   -12258   -12287   -12280   -12216 
  -12106   -11985   -11886   -11832   -11828   -11848   -11854   -11831 
  -11794   -11750   -11695   -11645   -11608   -11593   -11596   -11608 
  -11626   -11641   -11638   -11611   -11557   -11485   -11406   -11326 
  -11250   -11178   -11136   -11159   -11232   -11327   -11438   -11556 
  -11665   -11753   -11800   -11811   -11819   -11832   -11844   -11867 
  -11927   -12035   -12162   -12256   -12286   -12253   -12175   -12075 
  -11974   -11870   -11769   -11684   -11622   -11585   -11596   -11661 
  -11734   -11755   -11716   -11641   -11539   -11438   -11373   -11369 
  -11431   -11522   -11588   -11624   -11635   -11619   -11583   -11556 
  -11581   -11674   -11816   -11977   -12117   -12216   -12279   -12303 
  -12286   -12243   -12195   -12170   -12172   -12186   -12195   -12197 
  -12189   -12162   -12109   -12044   -11981   -11920   -11861   -11793 
  -11703   -11588   -11480   -11425   -11433   -11469   -11495   -11497 
  -11473   -11422   -11346   -11284   -11280   -11357   -11483   -11591 
  -11632   -11620   -11591   -11558   -11531   -11526   -11557   -11618 
  -11676   -11724   -11794   -11898   -11997   -12050   -12056   -12047 
  -12044   -12044   -12036   -12031   -12054   -12124   -12232   -12349 
  -12447   -12496   -12478   -12414   -12364   -12348   -12318   -12237 
  -12120   -12023   -11982   -11970   -11948   -11905   -11834   -11736 
  -11635   -11549   -11485   -11431   -11373   -11323   -11299   -11302 
  -11313   -11310   -11283   -11249   -11226   -11215   -11206   -11190 
  -11192   -11236   -11310   -11388   -11450   -11489   -11493   -11466 
  -11434   -11408   -11389   -11385   -11407   -11452   -11503   -11543 
  -11557   -11537   -11489   -11429   -11389   -11396   -11460   -11577 
  -11724   -11874   -12008   -12123   -12198   -12213   -12195   -12193 
  -12218   -12253   -12272   -12267   -12256   -12248   -12229   -12189 
