Origin Time       2025/06/03 22:18:00
Lat.              41.7
Long.             143.6
Depth. (km)       30
Mag.              5.2
Station Code      KSRH07
Station Lat.      43.1359
Station Long.     144.3274
Station Height(m) 38
Record Time       2025/06/03 22:19:14
Sampling Freq(Hz) 100Hz
Duration Time(s)  120
Dir.              4
Scale Factor      7845(gal)/8223790
Max. Acc. (gal)   2.001
Last Correction   2025/06/03 22:19:14
Memo.             
[...]
   -1803    -1935    -2060    -2122    -2092    -1985    -1852    -1737 
   -1678    -1688    -1752    -1840    -1931    -2010    -2043    -2015 
   -1937    -1848    -1775    -1718    -1684    -1698    -1767    -1861 
   -1941    -1975    -1957    -1906    -1846    -1790    -1736    -1695 
   -1710    -1794    -1899    -1975    -2006    -2008    -1996    -1958 
   -1896    -1840    -1814    -1818    -1852    -1911    -1975    -1999 
   -1965    -1899    -1845    -1807    -1777    -1769    -1796    -1823 
   -1826    -1821    -1822    -1809    -1767    -1721    -1706    -1726 
   -1757    -1779    -1807    -1854    -1899    -1911    -1902    -1891 
   -1884    -1885    -1903    -1930    -1952    -1964    -1953    -1910 
   -1854    -1802    -1761    -1753    -1773    -1806    -1853    -1917 
   -1966    -1973    -1939    -1883    -1817    -1756    -1722    -1718 
   -1749    -1818    -1914    -2006    -2060    -2050    -1979    -1868 
   -1750    -1660    -1624    -1636    -1684    -1748    -1818    -1896 
   -1949    -1945    -1888    -1817    -1779    -1788    -1834    -1907 
   -1983    -2039    -2057    -2022    -1957    -1891    -1837    -1806 
   -1803    -1822    -1860    -1914    -1968    -1991    -1969    -1914 
   -1840    -1777    -1752    -1752    -1759    -1768    -1777    -1809 
   -1872    -1929    -1937    -1881    -1790    -1722    -1723    -1780 
   -1842    -1868    -1871    -1891    -1930    -1946    -1904    -1830 
   -1783    -1783    -1817    -1875    -1942    -1979    -1965    -1923 
   -1887    -1856    -1818    -1783    -1773    -1799    -1844    -1883 
   -1918    -1952    -1958    -1911    -1842    -1799    -1796    -1826 
   -1865    -1887    -1873    -1844    -1822    -1814    -1799    -1773 
   -1768    -1806    -1860    -1895    -1911    -1906    -1875    -1823 
   -1769    -1730    -1709    -1691    -1692    -1742    -1836    -1925 
   -1966    -1952    -1906    -1864    -1836    -1814    -1799    -1777 
   -1746    -1756    -1842    -1960    -2043    -2070    -2058    -2027 
   -1979    -1908    -1836    -1788    -1768    -1775    -1818    -1869 
   -1896    -1898    -1888    -1872    -1841    -1787    -1734    -1719 
   -1745    -1794    -1852    -1900    -1918    -1895    -1857    -1834 
   -1833    -1844    -1869    -1926    -1999    -2035    -2011    -1945 
   -1872    -1818    -1780    -1750    -1742    -1768    -1811    -1867 
   -1921    -1939    -1912    -1868    -1819    -1769    -1725    -1705 
   -1713    -1737    -1769    -1821    -1888    -1939    -1954    -1956 
   -1949    -1929    -1902    -1865    -1841    -1857    -1891    -1907 
   -1902    -1887    -1869    -1850    -1842    -1841    -1830    -1817 
   -1821    -1848    -1881    -1904    -1891    -1826    -1737    -1682 
   -1694    -1750    -1803    -1836    -1875    -1933    -1977    -1964 
   -1899    -1827    -1786    -1777    -1777    -1765    -1764    -1813 
   -1902    -1962    -1942    -1869    -1815    -1818    -1857    -1908 
   -1976    -2064    -2153    -2196    -2160    -2045    -1872    -1691 
   -1587    -1586    -1636    -1701    -1798    -1933    -2054    -2093 
   -2025    -1863    -1656    -1470    -1386    -1458    -1647    -1858 
   -2019    -2107    -2124    -2077    -1971    -1807    -1621    -1493 
   -1495    -1648    -1892    -2131    -2285    -2335    -2288    -2138 
   -1918    -1703    -1561    -1548    -1664    -1834    -1987    -2103 
   -2160    -2131    -2006    -1823    -1676    -1637    -1680    -1736 
   -1787    -1852    -1933    -2004    -2019    -1948    -1823    -1710 
   -1652    -1651    -1678    -1719    -1768    -1807    -1825    -1818 
   -1792    -1773    -1784    -1825    -1858    -1876    -1888    -1885 
   -1869    -1856    -1869    -1919    -1975    -1983    -1945    -1896 
   -1871    -1871    -1872    -1867    -1865    -1879    -1912    -1948 
   -1953    -1912    -1838    -1765    -1728    -1726    -1742    -1777 
   -1845    -1925    -1964    -1917    -1788    -1641    -1548    -1530 
   -1566    -1657    -1798    -1954    -2088    -2153    -2115    -1988 
   -1819    -1669    -1590    -1601    -1695    -1831    -1972    -2092 
   -2172    -2174    -2077    -1912    -1757    -1669    -1660    -1715 
   -1826    -1983    -2134    -2209    -2184    -2073    -1912    -1749 
   -1637    -1611    -1653    -1732    -1841    -1988    -2124    -2181 
   -2135    -2020    -1877    -1742    -1645    -1593    -1582    -1636 
   -1771    -1946    -2091    -2137    -2066    -1933    -1810    -1711 
   -1628    -1588    -1628    -1748    -1917    -2081    -2203    -2249 
   -2173    -1983    -1752    -1551    -1425    -1418    -1533    -1706 
   -1872    -2007    -2087    -2064    -1935    -1755    -1575    -1440 
   -1389    -1448    -1606    -1821    -2030    -2178    -2243    -2226 
   -2124    -1958    -1790    -1686    -1675    -1752    -1895    -2050 
   -2150    -2155    -2088    -1984    -1861    -1745    -1664    -1636 
   -1680    -1795    -1935    -2031    -2037    -1954    -1822    -1691 
   -1609    -1601    -1659    -1761    -1892    -2033    -2133    -2130 
   -2034    -1892    -1756    -1672    -1674    -1740    -1830    -1919 
   -1987    -2034    -2070    -2070    -1999    -1877    -1767    -1696 
   -1690    -1761    -1872    -1950    -1953    -1887    -1799    -1741 
   -1728    -1737    -1759    -1786    -1814    -1849    -1890    -1921 
   -1915    -1858    -1779    -1736    -1755    -1804    -1860    -1930 
   -2016    -2093    -2139    -2139    -2080    -1956    -1800    -1676 
   -1630    -1656    -1717    -1792    -1881    -1975    -2029    -2002 
   -1894    -1742    -1602    -1520    -1533    -1653    -1852    -2065 
   -2226    -2286    -2224    -2053    -1813    -1568    -1390    -1335 
   -1431    -1652    -1910    -2112    -2214    -2208    -2119    -1965 
   -1764    -1566    -1447    -1452    -1583    -1795    -2020    -2193 
   -2258    -2200    -2041    -1846    -1694    -1607    -1571    -1578 
   -1634    -1756    -1922    -2073    -2158    -2151    -2058    -1918 
   -1783    -1684    -1628    -1630    -1709    -1841    -1972    -2057 
   -2081    -2042    -1945    -1823    -1740    -1723    -1759    -1826 
   -1919    -2016    -2079    -2080    -2026    -1929    -1788    -1642 
   -1548    -1534    -1609    -1750    -1918    -2062    -2110    -2029 
   -1898    -1809    -1755    -1680    -1606    -1584    -1645    -1787 
   -1956    -2077    -2130    -2118    -2047    -1961    -1877    -1787 
   -1709    -1695    -1771    -1900    -2026    -2111    -2145    -2103 
   -1984    -1831    -1690    -1561    -1470    -1471    -1574    -1695 
   -1777    -1842    -1929    -2026    -2077    -2025    -1884    -1736 
   -1641    -1624    -1660    -1701    -1734    -1796    -1906    -2020 
   -2065    -2016    -1927    -1856    -1806    -1773    -1786    -1879 
   -2033    -2176    -2249    -2231    -2131    -2014    -1927    -1852 
   -1769    -1717    -1738    -1848    -1995    -2065    -2014    -1899 
   -1777    -1652    -1518    -1395    -1344    -1414    -1595    -1825 
   -2033    -2161    -2204    -2187    -2123    -2016    -1877    -1750 
   -1684    -1696    -1777    -1918    -2079    -2209    -2250    -2162 
   -1977    -1780    -1630    -1521    -1431    -1393    -1480    -1711 
   -2003    -2219    -2270    -2166    -1983    -1791    -1617    -1472 
   -1408    -1483    -1706    -1995    -2232    -2347    -2315    -2158 
   -1926    -1683    -1480    -1368    -1394    -1555    -1784    -2012 
   -2166    -2173    -2047    -1864    -1679    -1517    -1410    -1414 
   -1533    -1719    -1926    -2092    -2174    -2181    -2124    -2018 
   -1884    -1765    -1690    -1680    -1769    -1942    -2120    -2241 
   -2263    -2181    -2054    -1923    -1782    -1657    -1618    -1694 
   -1846    -1998    -2099    -2137    -2093    -1956    -1752    -1557 
   -1435    -1421    -1524    -1707    -1910    -2066    -2108    -2008 
   -1819    -1613    -1441    -1352    -1409    -1629    -1921    -2149 
   -2250    -2231    -2131    -1976    -1791    -1630    -1560    -1640 
   -1861    -2124    -2311    -2362    -2274    -2057    -1757    -1472 
   -1301    -1287    -1412    -1617    -1863    -2108    -2289    -2309 
   -2137    -1858    -1602    -1441    -1381    -1399    -1507    -1711 
   -1954    -2165    -2293    -2272    -2093    -1867    -1691    -1591 
   -1575    -1649    -1806    -2030    -2259    -2407    -2421    -2295 
   -2072    -1840    -1664    -1572    -1571    -1659    -1818    -2014 
   -2187    -2265    -2200    -2019    -1794    -1611    -1534    -1576 
   -1696    -1852    -2002    -2099    -2112    -2030    -1856    -1649 
   -1494    -1441    -1505    -1687    -1935    -2146    -2238    -2209 
   -2106    -1941    -1723    -1507    -1383    -1401    -1539    -1741 
   -1949    -2097    -2146    -2095    -1975    -1838    -1734    -1675 
   -1667    -1713    -1821    -1975    -2101    -2119    -2029    -1910 
   -1833    -1787    -1749    -1733    -1756    -1804    -1871    -1954 
   -2004    -1969    -1871    -1771    -1701    -1663    -1651    -1672 
   -1734    -1799    -1831    -1852    -1888    -1917    -1906    -1858 
   -1814    -1807    -1830    -1842    -1826    -1802    -1784    -1780 
   -1795    -1798    -1756    -1702    -1706    -1776    -1854    -1894 
   -1908    -1935    -1971    -1991    -2012    -2056    -2095    -2097 
   -2080    -2091    -2133    -2177    -2192    -2165    -2126    -2107 
   -2097    -2069    -1996    -1871    -1742    -1680    -1687    -1711 
   -1719    -1725    -1765    -1854    -1949    -1984    -1912    -1734 
   -1532    -1431    -1456    -1536    -1607    -1669    -1744    -1827 
   -1891    -1918    -1915    -1871    -1773    -1672    -1636    -1680 
   -1764    -1830    -1844    -1810    -1761    -1733    -1733    -1738 
   -1707    -1651    -1621    -1636    -1655    -1653    -1634    -1613 
   -1601    -1602    -1641    -1734    -1846    -1931    -1991    -2035 
   -2064    -2070    -2035    -1944    -1836    -1771    -1773    -1837 
   -1949    -2079    -2195    -2255    -2226    -2118    -1976    -1815 
   -1668    -1598    -1629    -1725    -1845    -1969    -2084    -2176 
   -2209    -2141    -1976    -1798    -1694    -1696    -1780    -1900 
   -2038    -2169    -2227    -2165    -2014    -1848    -1741    -1729 
   -1788    -1883    -2003    -2158    -2309    -2374    -2308    -2131 
   -1907    -1699    -1548    -1483    -1522    -1651    -1823    -1975 
   -2052    -2020    -1864    -1633    -1441    -1389    -1494    -1713 
   -1971    -2199    -2344    -2384    -2319    -2173    -1966    -1715 
   -1471    -1339    -1397    -1624    -1907    -2162    -2363    -2446 
   -2326    -2006    -1576    -1163     -918     -913    -1096    -1360 
   -1651    -1949    -2245    -2463    -2477    -2257    -1911    -1551 
   -1243    -1073    -1116    -1383    -1811    -2282    -2671    -2872 
   -2822    -2558    -2191    -1815    -1486    -1254    -1179    -1277 
   -1490    -1733    -1930    -2033    -2016    -1864    -1613    -1363 
   -1202    -1159    -1256    -1536    -1948    -2305    -2447    -2376 
   -2200    -2010    -1849    -1760    -1772    -1869    -2035    -2254 
   -2466    -2570    -2508    -2327    -2099    -1836    -1574    -1399 
   -1363    -1444    -1602    -1790    -1921    -1922    -1817    -1703 
   -1648    -1629    -1614    -1653    -1794    -1975    -2119    -2200 
   -2199    -2118    -1988    -1822    -1645    -1539    -1576    -1775 
   -2074    -2353    -2501    -2520    -2448    -2270    -1984    -1691 
   -1516    -1494    -1582    -1715    -1838    -1922    -1937    -1868 
   -1741    -1613    -1530    -1528    -1629    -1806    -1975    -2074 
   -2097    -2023    -1849    -1655    -1566    -1664    -1917    -2182 
   -2350    -2389    -2313    -2139    -1891    -1613    -1393    -1324 
   -1447    -1706    -1965    -2083    -2019    -1841    -1636    -1452 
   -1321    -1287    -1401    -1679    -2058    -2384    -2493    -2359 
   -2054    -1649    -1235     -939     -857    -1030    -1414    -1891 
   -2336    -2644    -2720    -2536    -2145    -1667    -1259    -1035 
   -1053    -1310    -1748    -2255    -2700    -2940    -2894    -2574 
   -2076    -1551    -1144     -970    -1080    -1452    -2006    -2597 
   -3036    -3165    -2963    -2511    -1926    -1363     -988     -924 
   -1192    -1698    -2278    -2747    -2959    -2867    -2497    -1942 
   -1356     -876     -625     -707    -1111    -1678    -2224    -2613 
   -2739    -2548    -2095    -1556    -1111     -832     -756     -946 
   -1429    -2072    -2625    -2917    -2924    -2698    -2299    -1792 
   -1302     -973     -901    -1112    -1541    -2014    -2336    -2428 
   -2295    -1969    -1503    -1007     -666     -639     -947    -1510 
   -2197    -2848    -3262    -3275    -2856    -2135    -1335     -706 
    -446     -637    -1206    -1988    -2766    -3300    -3418    -3080 
   -2396    -1601     -953     -626     -695    -1151    -1871    -2616 
   -3129    -3227    -2856    -2128    -1317     -704     -441     -589 
   -1131    -1930    -2755    -3345    -3514    -3237    -2627    -1869 
   -1197     -818     -828    -1215    -1868    -2569    -3040    -3122 
   -2839    -2268    -1522     -815     -380     -361     -751    -1378 
   -1993    -2405    -2508    -2270    -1753    -1101     -533     -314 
    -588    -1274    -2141    -2930    -3447    -3562    -3230    -2531 
   -1655     -874     -480     -642    -1313    -2245    -3106    -3615 
   -3626    -3132    -2247    -1190     -268      243      218     -315 
   -1206    -2203    -3024    -3433    -3291    -2627    -1648     -684 
     -51       94     -232     -916    -1786    -2616    -3157    -3264 
   -2956    -2373    -1719    -1216    -1024    -1194    -1657    -2250 
   -2782    -3117    -3190    -2978    -2528    -1973    -1470    -1158 
   -1139    -1406    -1822    -2216    -2493    -2605    -2515    -2214 
   -1775    -1329    -1015     -899     -992    -1286    -1726    -2199 
   -2592    -2843    -2918    -2787    -2440    -1953    -1459    -1085 
    -907     -957    -1235    -1657    -2074    -2377    -2527    -2489 
   -2234    -1764    -1175     -657     -384     -423     -734    -1231 
   -1802    -2340    -2736    -2906    -2828    -2538    -2154    -1831 
   -1628    -1537    -1575    -1767    -2092    -2465    -2740    -2798 
   -2613    -2261    -1841    -1433    -1113     -966    -1057    -1375 
   -1834    -2289    -2614    -2735    -2604    -2203    -1625    -1058 
    -665     -535     -693    -1128    -1777    -2488    -3048    -3281 
   -3095    -2524    -1746     -997     -450     -198     -307     -785 
   -1518    -2274    -2806    -2979    -2786    -2274    -1545     -796 
    -274     -149     -445    -1062    -1830    -2559    -3086    -3285 
   -3106    -2637    -2087    -1648    -1417    -1420    -1672    -2153 
   -2737    -3235    -3461    -3321    -2863    -2215    -1509     -926 
    -631     -695    -1066    -1617    -2174    -2590    -2774    -2660 
   -2238    -1634    -1067     -714     -672     -947    -1453    -2050 
   -2583    -2926    -2988    -2751    -2289    -1737    -1275    -1078 
   -1219    -1622    -2116    -2525    -2744    -2728    -2457    -1966 
   -1391     -913     -706     -864    -1340    -1980    -2608    -3072 
   -3242    -3037    -2490    -1768    -1081     -596     -425     -600 
   -1035    -1593    -2158    -2613    -2841    -2759    -2382    -1860 
   -1367     -994     -777     -769    -1007    -1437    -1911    -2274 
   -2459    -2457    -2307    -2092    -1895    -1784    -1807    -1966 
   -2223    -2513    -2732    -2764    -2571    -2223    -1821    -1464 
   -1263    -1306    -1572    -1925    -2228    -2404    -2385    -2123 
   -1659    -1140     -766     -668     -837    -1188    -1656    -2155 
   -2543    -2685    -2521    -2110    -1615    -1225    -1042    -1102 
   -1413    -1885    -2344    -2632    -2677    -2475    -2080    -1610 
   -1246    -1143    -1352    -1780    -2254    -2627    -2794    -2700 
   -2353    -1826    -1274     -915     -920    -1320    -1968    -2623 
   -3055    -3118    -2798    -2177    -1410     -710     -302     -352 
    -869    -1676    -2478    -2999    -3073    -2683    -1961    -1147 
    -480     -136     -213     -714    -1498    -2288    -2805    -2943 
   -2717    -2203    -1549     -990     -750     -942    -1494    -2178 
   -2740    -3032    -3018    -2704    -2137    -1475     -930     -669 
    -762    -1158    -1709    -2241    -2632    -2832    -2832    -2621 
   -2231    -1817    -1566    -1559    -1765    -2111    -2493    -2801 
   -2957    -2925    -2698    -2319    -1895    -1526    -1275    -1179 
   -1229    -1367    -1547    -1726    -1860    -1894    -1794    -1598 
   -1394    -1232    -1139    -1142    -1240    -1409    -1636    -1903 
   -2130    -2232    -2205    -2135    -2097    -2095    -2112    -2169 
   -2255    -2317    -2308    -2249    -2205    -2197    -2178    -2139 
   -2137    -2188    -2209    -2122    -1937    -1690    -1406    -1131 
    -939     -899    -1050    -1370    -1749    -2053    -2209    -2236 
   -2172    -2031    -1849    -1686    -1602    -1629    -1746    -1907 
   -2068    -2181    -2207    -2158    -2076    -1966    -1834    -1714 
   -1644    -1634    -1669    -1717    -1736    -1742    -1786    -1863 
   -1927    -1948    -1922    -1873    -1819    -1742    -1622    -1506 
   -1463    -1522    -1665    -1833    -1956    -1991    -1950    -1868 
   -1761    -1633    -1513    -1458    -1521    -1709    -1979    -2266 
   -2502    -2612    -2532    -2261    -1854    -1399    -1004     -789 
    -824    -1077    -1444    -1817    -2112    -2250    -2168    -1895 
   -1549    -1275    -1189    -1347    -1718    -2220    -2752    -3168 
   -3331    -3233    -2918    -2439    -1904    -1460    -1244    -1332 
   -1682    -2170    -2656    -2990    -3068    -2859    -2380    -1721 
   -1040     -525     -322     -500    -1000    -1678    -2335    -2803 
   -3007    -2918    -2550    -1995    -1428    -1030     -927    -1151 
   -1620    -2158    -2559    -2682    -2521    -2154    -1680    -1227 
    -922     -841     -992    -1310    -1672    -1945    -2034    -1919 
   -1664    -1394    -1227    -1217    -1377    -1691    -2093    -2466 
   -2693    -2714    -2535    -2228    -1899    -1637    -1497    -1502 
   -1634    -1818    -1957    -2002    -1960    -1860    -1711    -1547 
   -1426    -1402    -1489    -1640    -1759    -1783    -1765    -1786 
   -1848    -1899    -1892    -1841    -1814    -1873    -2018    -2203 
   -2398    -2585    -2745    -2851    -2879    -2824    -2693    -2477 
   -2188    -1876    -1611    -1433    -1363    -1412    -1563    -1775 
   -1992    -2153    -2201    -2126    -1961    -1746    -1507    -1293 
   -1161    -1143    -1242    -1426    -1656    -1903    -2126    -2236 
   -2162    -1950    -1722    -1547    -1432    -1399    -1486    -1699 
   -1975    -2209    -2300    -2191    -1903    -1507    -1108     -830 
    -754     -877    -1131    -1433    -1726    -1983    -2162    -2208 
   -2099    -1898    -1714    -1642    -1702    -1837    -2012    -2223 
   -2428    -2551    -2547    -2434    -2250    -2027    -1814    -1679 
   -1692    -1865    -2130    -2382    -2578    -2697    -2673    -2440 
   -2037    -1594    -1248    -1102    -1182    -1433    -1773    -2114 
