Origin Time       2025/06/03 22:18:00
Lat.              41.7
Long.             143.6
Depth. (km)       30
Mag.              5.2
Station Code      KSRH09
Station Lat.      42.9856
Station Long.     143.9841
Station Height(m) 27
Record Time       2025/06/03 22:18:58
Sampling Freq(Hz) 100Hz
Duration Time(s)  126
Dir.              5
Scale Factor      7845(gal)/8223790
Max. Acc. (gal)   2.307
Last Correction   2025/06/03 22:18:59
Memo.             
[...]
   12279    12285    12236    12168    12117    12102    12116    12132 
   12116    12047    11917    11740    11530    11283    10997    10692 
   10390    10120     9931     9846     9867     9992    10238    10584 
   10984    11391    11762    12075    12339    12567    12765    12939 
   13078    13162    13204    13216    13176    13066    12884    12637 
   12322    11952    11564    11196    10876    10631    10476    10411 
   10423    10489    10579    10681    10785    10889    10991    11101 
   11209    11296    11344    11361    11362    11353    11345    11352 
   11349    11325    11313    11322    11326    11310    11290    11303 
   11364    11427    11476    11564    11685    11780    11846    11888 
   11888    11862    11839    11819    11808    11817    11847    11888 
   11920    11923    11896    11840    11767    11697    11630    11562 
   11502    11441    11377    11333    11327    11356    11398    11450 
   11524    11601    11647    11655    11622    11543    11429    11292 
   11140    11009    10941    10951    11030    11165    11325    11476 
   11622    11781    11956    12127    12263    12351    12398    12417 
   12409    12363    12256    12091    11882    11639    11371    11101 
   10856    10662    10552    10546    10639    10820    11067    11334 
   11570    11732    11803    11805    11770    11735    11749    11839 
   12008    12231    12472    12680    12785    12749    12571    12275 
   11905    11495    11078    10678    10309     9992     9763     9632 
    9598     9667     9828    10038    10260    10457    10631    10806 
   11001    11210    11429    11662    11889    12075    12208    12297 
   12343    12345    12310    12229    12081    11858    11589    11319 
   11097    10959    10903    10920    10993    11105    11252    11427 
   11614    11826    12083    12349    12583    12795    12988    13139 
   13236    13281    13257    13166    13024    12831    12599    12363 
   12139    11919    11699    11483    11267    11047    10832    10656 
   10551    10512    10515    10532    10547    10544    10513    10458 
   10400    10355    10324    10328    10403    10563    10789    11057 
   11341    11599    11820    12019    12187    12317    12407    12463 
   12478    12459    12432    12410    12403    12421    12452    12463 
   12421    12299    12091    11809    11489    11176    10912    10724 
   10628    10619    10678    10787    10926    11076    11203    11263 
   11241    11165    11078    11014    10997    11013    11040    11080 
   11151    11240    11314    11358    11381    11387    11367    11326 
   11286    11268    11300    11400    11572    11809    12093    12391 
   12676    12931    13132    13262    13311    13277    13177    13042 
   12881    12669    12395    12081    11755    11425    11079    10716 
   10361    10052     9817     9674     9634     9701     9846    10044 
   10289    10574    10863    11110    11304    11491    11703    11954 
   12229    12513    12784    13011    13151    13185    13101    12910 
   12631    12314    11998    11696    11406    11130    10878    10660 
   10492    10370    10289    10257    10285    10376    10503    10631 
   10750    10867    10984    11106    11248    11418    11619    11851 
   12097    12324    12482    12523    12460    12328    12158    11973 
   11786    11619    11500    11449    11453    11489    11542    11599 
   11664    11738    11809    11863    11875    11828    11738    11612 
   11458    11299    11165    11079    11053    11079    11133    11209 
   11290    11353    11396    11418    11406    11361    11311    11302 
   11349    11429    11531    11654    11762    11830    11858    11857 
   11836    11819    11816    11828    11859    11923    12020    12141 
   12272    12403    12522    12602    12613    12540    12387    12189 
   11985    11800    11643    11515    11402    11286    11156    10995 
   10801    10588    10374    10176    10012     9896     9829     9814 
    9864     9980    10166    10432    10762    11107    11434    11728 
   11983    12187    12328    12390    12353    12225    12032    11796 
   11547    11325    11146    11024    10962    10963    11026    11125 
   11242    11368    11484    11574    11643    11682    11695    11700 
   11718    11753    11797    11855    11916    11955    11959    11935 
   11904    11862    11797    11703    11596    11499    11435    11435 
   11500    11604    11732    11867    11992    12091    12167    12220 
   12249    12280    12339    12420    12503    12586    12652    12669 
   12627    12510    12279    11938    11516    11055    10606    10227 
    9940     9744     9624     9564     9555     9579     9622     9676 
    9760     9906    10147    10504    10967    11512    12106    12692 
   13204    13597    13837    13905    13821    13648    13448    13261 
   13095    12947    12799    12615    12378    12094    11753    11340 
   10883    10439    10064     9783     9602     9512     9517     9620 
    9802    10041    10312    10581    10818    11021    11210    11418 
   11649    11881    12094    12267    12372    12403    12361    12252 
   12083    11873    11649    11437    11261    11129    11028    10956 
   10930    10952    11005    11088    11210    11346    11466    11561 
   11637    11704    11773    11844    11917    11985    12039    12069 
   12062    12012    11927    11824    11716    11608    11504    11412 
   11331    11250    11165    11080    10993    10903    10829    10767 
   10727    10739    10832    11020    11304    11680    12109    12525 
   12866    13097    13197    13162    13028    12842    12640    12441 
   12268    12129    12023    11944    11873    11772    11618    11411 
   11184    10987    10851    10781    10786    10867    11016    11202 
   11388    11553    11691    11800    11888    11969    12048    12116 
   12171    12201    12164    12029    11817    11560    11295    11070 
   10910    10822    10808    10871    10998    11142    11238    11245 
   11164    11013    10817    10612    10444    10351    10350    10451 
   10639    10855    11033    11137    11164    11128    11038    10924 
   10829    10795    10851    11013    11275    11588    11892    12154 
   12370    12549    12702    12823    12904    12949    12970    12970 
   12947    12900    12811    12680    12522    12355    12199    12059 
   11921    11782    11635    11465    11263    11034    10801    10592 
   10438    10355    10369    10496    10705    10943    11168    11344 
   11435    11430    11349    11240    11144    11090    11091    11142 
   11238    11365    11495    11599    11669    11700    11703    11712 
   11743    11782    11819    11850    11877    11902    11934    11975 
   12040    12128    12232    12341    12432    12476    12453    12333 
   12102    11769    11346    10866    10390     9983     9693     9545 
    9541     9663     9880    10157    10432    10652    10806    10932 
   11072    11252    11469    11713    11967    12225    12475    12698 
   12869    12974    13000    12964    12893    12818    12757    12710 
   12658    12571    12430    12237    12005    11740    11460    11196 
   10975    10798    10673    10605    10588    10613    10669    10740 
   10814    10886    10945    10989    11024    11057    11088    11121 
   11159    11194    11227    11268    11327    11408    11519    11672 
   11858    12058    12259    12436    12552    12580    12519    12380 
   12199    12015    11848    11709    11599    11512    11450    11406 
   11360    11287    11196    11130    11115    11138    11186    11252 
   11337    11437    11535    11605    11627    11593    11504    11379 
   11245    11119    11003    10902    10809    10710    10612    10532 
   10485    10481    10519    10606    10755    10971    11257    11605 
   11983    12347    12657    12884    13022    13074    13057    12992 
   12907    12827    12758    12691    12623    12553    12468    12355 
   12190    11971    11734    11503    11272    11040    10829    10670 
   10569    10527    10551    10640    10789    10980    11183    11375 
   11546    11707    11866    12023    12172    12309    12429    12534 
   12627    12710    12777    12811    12799    12734    12607    12402 
   12125    11809    11497    11215    10952    10704    10501    10380 
   10336    10357    10427    10534    10659    10786    10902    11017 
   11138    11259    11373    11487    11603    11707    11777    11801 
   11776    11711    11622    11519    11399    11267    11132    10998 
   10864    10737    10620    10505    10393    10288    10184    10088 
   10031    10041    10126    10288    10515    10786    11086    11391 
   11666    11886    12050    12164    12226    12235    12183    12087 
   11965    11834    11716    11623    11541    11442    11314    11151 
   10970    10801    10675    10600    10584    10642    10778    10982 
   11227    11466    11676    11854    12005    12145    12298    12460 
   12621    12771    12901    12993    13008    12923    12748    12503 
   12199    11866    11541    11252    11006    10806    10662    10578 
   10534    10513    10536    10611    10728    10902    11134    11406 
   11695    11996    12294    12569    12799    12991    13153    13274 
   13350    13392    13394    13335    13212    13051    12876    12700 
   12545    12432    12357    12313    12278    12226    12145    12027 
   11851    11607    11306    10972    10643    10350    10125     9992 
    9954    10007    10137    10324    10531    10714    10854    10952 
   11006    11013    10983    10944    10906    10875    10879    10935 
   11016    11102    11188    11264    11338    11416    11484    11546 
   11615    11680    11730    11759    11758    11711    11605    11454 
   11290    11141    11024    10964    10982    11076    11221    11377 
   11504    11578    11593    11566    11518    11461    11412    11408 
   11472    11605    11788    11986    12162    12283    12326    12286 
   12185    12048    11898    11782    11718    11680    11641    11603 
   11570    11538    11499    11449    11392    11338    11294    11268 
   11267    11272    11281    11306    11340    11372    11400    11415 
   11412    11396    11369    11327    11277    11238    11232    11263 
   11318    11384    11466    11572    11691    11815    11946    12077 
   12197    12299    12368    12405    12414    12395    12355    12299 
   12209    12074    11902    11691    11442    11173    10883    10579 
   10280     9999     9767     9603     9509     9485     9521     9605 
    9717     9830     9950    10103    10299    10530    10794    11091 
   11412    11745    12070    12378    12648    12866    13027    13131 
   13186    13207    13213    13225    13238    13225    13162    13032 
   12829    12564    12263    11954    11659    11395    11188    11059 
   10994    10974    10986    11024    11074    11114    11144    11169 
   11202    11248    11308    11389    11492    11605    11713    11811 
   11889    11943    11978    12002    12023    12040    12042    12019 
   11988    11955    11921    11881    11817    11731    11632    11519 
   11395    11279    11198    11175    11217    11299    11392    11480 
   11570    11666    11753    11826    11890    11947    12002    12062 
   12132    12218    12309    12384    12434    12440    12383    12262 
   12093    11896    11695    11496    11306    11134    10986    10856 
   10744    10636    10519    10388    10260    10150    10073    10038 
   10042    10077    10145    10255    10403    10569    10746    10924 
   11080    11206    11304    11380    11431    11454    11469    11497 
   11531    11556    11573    11565    11516    11431    11322    11206 
   11105    11032    11003    11041    11164    11365    11618    11901 
   12206    12509    12783    13015    13189    13290    13313    13277 
   13205    13104    12977    12834    12691    12552    12409    12248 
   12055    11821    11558    11291    11041    10835    10690    10621 
   10638    10735    10878    11029    11156    11233    11252    11217 
   11153    11107    11114    11188    11319    11483    11649    11800 
   11934    12044    12121    12170    12193    12194    12183    12154 
   12114    12083    12062    12042    12010    11951    11857    11742 
   11623    11515    11429    11376    11362    11373    11396    11412 
   11415    11410    11392    11357    11313    11273    11244    11227 
   11227    11236    11227    11172    11056    10881    10655    10395 
   10125     9882     9684     9536     9440     9401     9408     9436 
    9489     9587     9726     9888    10079    10311    10594    10933 
   11313    11707    12089    12447    12766    13049    13290    13482 
   13628    13743    13821    13848    13834    13790    13698    13548 
   13347    13111    12856    12606    12384    12198    12040    11912 
   11827    11789    11790    11817    11853    11874    11874    11858 
   11834    11808    11777    11728    11662    11583    11496    11403 
   11298    11180    11053    10928    10816    10732    10694    10709 
   10764    10841    10925    10999    11052    11082    11086    11068 
   11026    10959    10870    10773    10673    10570    10461    10357 
   10261    10162    10069    10000     9963     9950     9952     9964 
    9988    10033    10118    10249    10422    10638    10898    11188 
   11484    11762    12016    12247    12463    12667    12870    13073 
   13261    13432    13593    13737    13851    13921    13948    13932 
   13863    13749    13605    13432    13244    13051    12853    12641 
   12410    12164    11911    11653    11400    11159    10932    10724 
   10534    10368    10233    10130    10062    10049    10092    10187 
   10314    10462    10638    10836    11043    11242    11421    11565 
   11658    11684    11651    11583    11484    11371    11252    11129 
   11006    10886    10768    10666    10588    10531    10496    10480 
   10481    10508    10566    10665    10798    10957    11136    11317 
   11484    11641    11781    11901    11996    12063    12108    12125 
   12116    12094    12071    12051    12029    12004    11959    11894 
   11817    11730    11635    11543    11456    11384    11344    11335 
   11354    11406    11487    11588    11716    11875    12047    12209 
   12356    12494    12621    12727    12806    12853    12858    12818 
   12730    12595    12413    12194    11956    11716    11488    11280 
   11087    10916    10779    10671    10579    10485    10388    10304 
   10245    10223    10250    10323    10439    10590    10751    10905 
   11041    11145    11214    11252    11267    11268    11272    11290 
   11322    11367    11418    11473    11531    11595    11662    11731 
   11808    11900    12002    12110    12218    12316    12399    12468 
   12511    12522    12509    12472    12420    12359    12303    12255 
   12208    12152    12082    11998    11894    11763    11618    11477 
   11350    11241    11152    11090    11056    11041    11033    11025 
   11006    10968    10916    10874    10875    10941    11068    11245 
   11446    11643    11824    11992    12131    12221    12266    12282 
   12295    12317    12355    12413    12491    12579    12660    12719 
   12750    12737    12677    12583    12457    12299    12109    11882 
   11619    11337    11055    10773    10498    10249    10031     9856 
    9725     9641     9622     9671     9779     9942    10153    10380 
   10611    10856    11119    11398    11686    11967    12222    12432 
   12579    12650    12634    12533    12366    12148    11900    11643 
   11404    11191    11006    10847    10694    10546    10405    10291 
   10214    10173    10176    10226    10308    10419    10565    10740 
   10939    11155    11381    11610    11827    12027    12205    12351 
   12456    12526    12560    12553    12514    12447    12357    12263 
   12175    12086    11979    11855    11730    11619    11524    11450 
   11410    11404    11423    11457    11499    11553    11620    11692 
   11765    11840    11921    12002    12086    12175    12270    12364 
   12442    12483    12471    12402    12280    12118    11938    11757 
   11583    11423    11288    11176    11082    10998    10922    10852 
   10781    10704    10632    10575    10534    10498    10474    10467 
   10470    10474    10492    10532    10593    10669    10760    10864 
   10978    11095    11209    11317    11431    11557    11696    11840 
   11971    12082    12187    12289    12387    12480    12560    12623 
   12667    12681    12657    12596    12515    12426    12340    12271 
   12218    12171    12123    12079    12039    11993    11944    11896 
   11847    11797    11743    11686    11637    11601    11585    11578 
   11558    11515    11449    11354    11245    11136    11029    10932 
   10855    10804    10774    10759    10759    10770    10787    10810 
   10845    10882    10916    10953    10999    11061    11149    11257 
   11369    11483    11588    11677    11743    11784    11805    11813 
   11811    11794    11770    11745    11723    11703    11682    11673 
   11678    11688    11699    11713    11732    11750    11773    11796 
   11817    11840    11859    11865    11861    11847    11828    11803 
   11763    11708    11630    11530    11422    11326    11257    11218 
   11210    11237    11295    11379    11475    11564    11624    11659 
   11666    11645    11603    11556    11510    11456    11387    11311 
   11227    11144    11072    11021    10990    10978    10998    11055 
   11136    11230    11329    11423    11514    11597    11669    11730 
   11786    11839    11892    11940    11975    11982    11950    11870 
   11749    11595    11429    11267    11117    10990    10895    10840 
   10821    10831    10862    10909    10964    11029    11106    11199 
   11321    11466    11624    11789    11950    12096    12214    12302 
   12366    12403    12402    12356    12268    12144    11988    11805 
   11616    11438    11283    11167    11094    11056    11055    11097 
   11176    11284    11407    11520    11619    11705    11782    11855 
   11927    11986    12020    12029    12015    11959    11855    11713 
   11541    11348    11153    10982    10845    10733    10638    10565 
   10519    10504    10527    10578    10652    10750    10878    11041 
   11223    11408    11595    11778    11943    12083    12208    12302 
   12363    12397    12413    12411    12394    12359    12298    12208 
   12085    11932    11758    11566    11368    11188    11038    10925 
   10852    10814    10812    10847    10916    11014    11128    11241 
   11349    11457    11565    11662    11740    11801    11847    11888 
   11929    11970    12005    12035    12052    12060    12054    12025 
   11973    11902    11820    11731    11659    11618    11595    11585 
   11587    11585    11584    11583    11570    11539    11502    11461 
   11422    11392    11377    11377    11391    11416    11442    11454 
   11446    11421    11379    11340    11325    11323    11323    11321 
   11306    11287    11281    11284    11283    11281    11284    11290 
   11290    11281    11259    11218    11163    11087    10995    10901 
   10812    10750    10732    10758    10825    10926    11047    11176 
