Origin Time       2025/06/03 22:18:00
Lat.              41.7
Long.             143.6
Depth. (km)       30
Mag.              5.2
Station Code      KSRH09
Station Lat.      42.9856
Station Long.     143.9841
Station Height(m) 27
Record Time       2025/06/03 22:18:58
Sampling Freq(Hz) 100Hz
Duration Time(s)  126
Dir.              4
Scale Factor      7845(gal)/8223790
Max. Acc. (gal)   2.740
Last Correction   2025/06/03 22:18:59
Memo.             
[...]
   -2578    -2525    -2471    -2436    -2423    -2439    -2485    -2554 
   -2648    -2758    -2845    -2895    -2914    -2906    -2870    -2805 
   -2721    -2625    -2540    -2470    -2408    -2358    -2332    -2335 
   -2371    -2432    -2505    -2583    -2654    -2708    -2747    -2760 
   -2740    -2685    -2605    -2529    -2465    -2412    -2384    -2377 
   -2390    -2417    -2455    -2500    -2546    -2585    -2613    -2627 
   -2623    -2596    -2547    -2484    -2425    -2381    -2347    -2328 
   -2343    -2400    -2481    -2559    -2616    -2643    -2646    -2632 
   -2613    -2604    -2621    -2673    -2740    -2805    -2852    -2860 
   -2826    -2763    -2673    -2559    -2444    -2339    -2243    -2173 
   -2138    -2122    -2116    -2123    -2146    -2193    -2268    -2374 
   -2509    -2658    -2814    -2967    -3092    -3167    -3165    -3095 
   -2986    -2867    -2759    -2668    -2592    -2520    -2454    -2396 
   -2359    -2342    -2340    -2359    -2404    -2466    -2533    -2593 
   -2636    -2659    -2650    -2606    -2552    -2501    -2469    -2474 
   -2520    -2587    -2666    -2748    -2812    -2835    -2808    -2740 
   -2658    -2579    -2512    -2459    -2432    -2425    -2423    -2416 
   -2404    -2382    -2367    -2366    -2377    -2394    -2420    -2447 
   -2477    -2511    -2542    -2556    -2548    -2536    -2548    -2600 
   -2675    -2747    -2795    -2810    -2787    -2729    -2639    -2521 
   -2400    -2301    -2250    -2258    -2313    -2394    -2493    -2594 
   -2671    -2706    -2701    -2663    -2601    -2533    -2474    -2424 
   -2396    -2394    -2409    -2430    -2454    -2489    -2524    -2551 
   -2578    -2606    -2631    -2650    -2662    -2668    -2671    -2673 
   -2677    -2682    -2683    -2671    -2646    -2612    -2570    -2525 
   -2482    -2457    -2454    -2469    -2506    -2574    -2646    -2691 
   -2713    -2728    -2740    -2744    -2732    -2705    -2677    -2658 
   -2643    -2613    -2558    -2482    -2405    -2346    -2301    -2273 
   -2282    -2340    -2435    -2539    -2633    -2708    -2741    -2732 
   -2689    -2629    -2573    -2531    -2505    -2498    -2515    -2558 
   -2608    -2637    -2633    -2605    -2560    -2509    -2448    -2381 
   -2304    -2230    -2182    -2172    -2184    -2219    -2274    -2342 
   -2417    -2504    -2586    -2650    -2682    -2677    -2647    -2616 
   -2587    -2563    -2555    -2562    -2575    -2592    -2593    -2573 
   -2550    -2536    -2531    -2524    -2516    -2517    -2535    -2569 
   -2609    -2639    -2651    -2658    -2659    -2662    -2674    -2690 
   -2709    -2741    -2779    -2821    -2866    -2894    -2903    -2901 
   -2875    -2821    -2747    -2667    -2585    -2505    -2427    -2353 
   -2296    -2268    -2263    -2274    -2303    -2347    -2403    -2466 
   -2527    -2583    -2635    -2678    -2721    -2768    -2813    -2841 
   -2848    -2851    -2847    -2812    -2749    -2681    -2617    -2560 
   -2517    -2492    -2475    -2465    -2458    -2454    -2448    -2440 
   -2427    -2405    -2381    -2366    -2369    -2397    -2444    -2493 
   -2519    -2513    -2475    -2409    -2331    -2259    -2209    -2173 
   -2149    -2149    -2174    -2215    -2273    -2342    -2409    -2485 
   -2579    -2677    -2763    -2829    -2864    -2863    -2830    -2782 
   -2733    -2694    -2666    -2635    -2600    -2573    -2551    -2520 
   -2474    -2424    -2382    -2354    -2351    -2386    -2454    -2548 
   -2655    -2752    -2818    -2845    -2837    -2805    -2745    -2663 
   -2575    -2500    -2444    -2415    -2405    -2408    -2423    -2451 
   -2486    -2532    -2593    -2663    -2736    -2806    -2874    -2934 
   -2974    -2979    -2960    -2929    -2889    -2841    -2790    -2737 
   -2689    -2654    -2617    -2558    -2481    -2409    -2358    -2323 
   -2295    -2276    -2270    -2284    -2311    -2338    -2354    -2365 
   -2371    -2371    -2371    -2377    -2404    -2452    -2511    -2565 
   -2612    -2648    -2671    -2674    -2651    -2598    -2533    -2471 
   -2417    -2380    -2373    -2393    -2423    -2452    -2477    -2496 
   -2512    -2515    -2492    -2462    -2442    -2446    -2486    -2565 
   -2671    -2785    -2889    -2970    -3015    -3025    -3001    -2934 
   -2824    -2682    -2531    -2396    -2292    -2207    -2139    -2108 
   -2108    -2139    -2219    -2338    -2465    -2586    -2686    -2755 
   -2791    -2793    -2763    -2717    -2666    -2621    -2601    -2609 
   -2637    -2674    -2709    -2731    -2733    -2717    -2691    -2668 
   -2651    -2640    -2637    -2646    -2659    -2664    -2655    -2644 
   -2643    -2646    -2637    -2616    -2590    -2565    -2535    -2513 
   -2497    -2474    -2448    -2430    -2425    -2424    -2416    -2398 
   -2367    -2320    -2259    -2192    -2133    -2093    -2083    -2111 
   -2182    -2295    -2444    -2613    -2779    -2925    -3042    -3115 
   -3122    -3059    -2957    -2841    -2716    -2593    -2486    -2401 
   -2342    -2308    -2295    -2297    -2303    -2299    -2292    -2301 
   -2339    -2401    -2475    -2552    -2628    -2697    -2758    -2803 
   -2824    -2818    -2794    -2760    -2731    -2700    -2656    -2602 
   -2543    -2482    -2415    -2342    -2270    -2220    -2197    -2196 
   -2235    -2320    -2435    -2558    -2681    -2795    -2887    -2932 
   -2929    -2905    -2872    -2829    -2776    -2721    -2662    -2604 
   -2556    -2513    -2465    -2425    -2404    -2404    -2419    -2440 
   -2465    -2490    -2519    -2560    -2613    -2652    -2667    -2666 
   -2663    -2655    -2636    -2608    -2581    -2573    -2583    -2597 
   -2613    -2644    -2677    -2686    -2668    -2629    -2582    -2538 
   -2492    -2442    -2394    -2357    -2330    -2299    -2259    -2224 
   -2205    -2214    -2245    -2276    -2297    -2326    -2369    -2421 
   -2479    -2540    -2597    -2651    -2702    -2755    -2808    -2848 
   -2863    -2847    -2797    -2728    -2659    -2597    -2544    -2502 
   -2475    -2482    -2511    -2529    -2533    -2535    -2539    -2538 
   -2532    -2532    -2551    -2597    -2654    -2698    -2728    -2744 
   -2735    -2700    -2660    -2623    -2587    -2550    -2511    -2482 
   -2474    -2474    -2470    -2459    -2447    -2442    -2450    -2466 
   -2482    -2508    -2554    -2623    -2695    -2751    -2783    -2805 
   -2818    -2818    -2802    -2779    -2756    -2743    -2741    -2745 
   -2751    -2756    -2756    -2751    -2741    -2729    -2705    -2655 
   -2574    -2478    -2386    -2307    -2234    -2168    -2122    -2099 
   -2095    -2111    -2141    -2178    -2220    -2261    -2293    -2311 
   -2317    -2319    -2311    -2312    -2343    -2389    -2451    -2532 
   -2614    -2685    -2744    -2787    -2801    -2787    -2756    -2727 
   -2717    -2718    -2712    -2685    -2646    -2602    -2551    -2489 
   -2427    -2385    -2380    -2407    -2465    -2539    -2619    -2687 
   -2729    -2741    -2727    -2675    -2598    -2516    -2434    -2362 
   -2315    -2308    -2347    -2412    -2482    -2550    -2608    -2651 
   -2683    -2704    -2717    -2732    -2743    -2749    -2763    -2789 
   -2821    -2857    -2886    -2890    -2863    -2808    -2722    -2616 
   -2504    -2390    -2286    -2220    -2222    -2288    -2400    -2519 
   -2620    -2687    -2709    -2690    -2643    -2579    -2524    -2500 
   -2515    -2558    -2616    -2673    -2724    -2774    -2816    -2826 
   -2806    -2772    -2735    -2693    -2641    -2569    -2475    -2366 
   -2249    -2137    -2041    -1965    -1906    -1867    -1860    -1884 
   -1939    -2018    -2107    -2199    -2300    -2427    -2569    -2709 
   -2837    -2948    -3034    -3095    -3127    -3125    -3105    -3087 
   -3072    -3053    -3019    -2959    -2887    -2828    -2775    -2710 
   -2624    -2516    -2394    -2273    -2172    -2108    -2081    -2092 
   -2146    -2246    -2381    -2536    -2681    -2790    -2870    -2918 
   -2922    -2886    -2829    -2754    -2666    -2579    -2493    -2398 
   -2295    -2184    -2084    -2018    -1989    -1969    -1950    -1961 
   -2027    -2131    -2239    -2328    -2394    -2457    -2538    -2632 
   -2728    -2836    -2960    -3088    -3198    -3267    -3287    -3260 
   -3195    -3102    -2988    -2884    -2814    -2778    -2747    -2701 
   -2632    -2542    -2447    -2359    -2270    -2169    -2076    -2011 
   -1969    -1934    -1892    -1830    -1750    -1682    -1660    -1713 
   -1864    -2112    -2412    -2712    -2974    -3179    -3329    -3429 
   -3473    -3491    -3519    -3559    -3592    -3591    -3524    -3370 
   -3119    -2786    -2423    -2073    -1759    -1514    -1382    -1374 
   -1467    -1611    -1763    -1906    -2045    -2180    -2320    -2498 
   -2727    -2997    -3296    -3586    -3802    -3900    -3869    -3720 
   -3484    -3204    -2930    -2697    -2517    -2396    -2327    -2299 
   -2295    -2285    -2254    -2203    -2146    -2111    -2128    -2204 
   -2320    -2455    -2581    -2681    -2758    -2803    -2802    -2758 
   -2691    -2617    -2529    -2420    -2292    -2162    -2043    -1948 
   -1894    -1900    -1979    -2127    -2331    -2578    -2853    -3111 
   -3304    -3414    -3420    -3306    -3109    -2874    -2610    -2330 
   -2060    -1848    -1730    -1703    -1752    -1867    -2022    -2192 
   -2362    -2517    -2644    -2736    -2801    -2876    -2982    -3105 
   -3218    -3291    -3303    -3253    -3153    -3025    -2883    -2737 
   -2594    -2451    -2317    -2208    -2119    -2046    -2000    -1972 
   -1950    -1934    -1934    -1987    -2118    -2320    -2560    -2801 
   -3014    -3192    -3330    -3408    -3415    -3358    -3277    -3200 
   -3126    -3034    -2918    -2776    -2589    -2350    -2076    -1806 
   -1580    -1424    -1347    -1358    -1453    -1621    -1840    -2083 
   -2320    -2531    -2720    -2899    -3073    -3229    -3342    -3414 
   -3449    -3449    -3410    -3319    -3168    -2984    -2798    -2621 
   -2443    -2247    -2029    -1802    -1595    -1449    -1401    -1463 
   -1630    -1895    -2246    -2654    -3052    -3377    -3597    -3696 
   -3667    -3534    -3333    -3092    -2821    -2533    -2255    -2015 
   -1833    -1710    -1642    -1632    -1679    -1776    -1927    -2130 
   -2354    -2569    -2766    -2921    -3009    -3036    -3010    -2943 
   -2856    -2786    -2745    -2720    -2691    -2650    -2594    -2532 
   -2463    -2390    -2338    -2319    -2331    -2373    -2432    -2501 
   -2592    -2694    -2791    -2886    -2970    -3019    -3032    -3010 
   -2951    -2852    -2721    -2598    -2547    -2585    -2694    -2855 
   -3040    -3199    -3294    -3306    -3227    -3072    -2879    -2689 
   -2536    -2443    -2408    -2407    -2412    -2400    -2340    -2215 
   -2041    -1845    -1660    -1520    -1451    -1468    -1582    -1773 
   -1999    -2205    -2351    -2427    -2446    -2436    -2408    -2358 
   -2311    -2295    -2301    -2313    -2331    -2354    -2385    -2443 
   -2542    -2683    -2872    -3088    -3289    -3438    -3523    -3545 
   -3496    -3381    -3223    -3060    -2922    -2817    -2724    -2635 
   -2570    -2536    -2529    -2552    -2606    -2673    -2744    -2826 
   -2894    -2901    -2829    -2700    -2532    -2346    -2149    -1949 
   -1764    -1625    -1563    -1587    -1686    -1834    -1999    -2160 
   -2320    -2490    -2668    -2851    -3022    -3175    -3306    -3396 
   -3410    -3333    -3192    -3022    -2857    -2725    -2637    -2604 
   -2639    -2727    -2820    -2871    -2860    -2781    -2650    -2494 
   -2319    -2133    -1954    -1800    -1675    -1590    -1552    -1555 
   -1576    -1613    -1668    -1755    -1880    -2031    -2191    -2350 
   -2509    -2654    -2756    -2791    -2756    -2668    -2573    -2515 
   -2517    -2589    -2732    -2929    -3152    -3350    -3454    -3416 
   -3227    -2893    -2447    -1960    -1506    -1159     -954     -915 
   -1082    -1468    -2026    -2675    -3337    -3950    -4463    -4808 
   -4945    -4874    -4625    -4252    -3835    -3427    -3055    -2725 
   -2450    -2245    -2095    -1975    -1885    -1833    -1815    -1822 
   -1840    -1872    -1942    -2066    -2232    -2416    -2600    -2768 
   -2921    -3056    -3160    -3215    -3222    -3188    -3132    -3059 
   -2960    -2822    -2633    -2392    -2145    -1948    -1819    -1775 
   -1841    -2015    -2266    -2550    -2808    -2999    -3106    -3107 
   -3013    -2862    -2681    -2494    -2342    -2243    -2201    -2207 
   -2231    -2247    -2231    -2160    -2037    -1894    -1776    -1723 
   -1753    -1853    -2008    -2196    -2377    -2516    -2600    -2625 
   -2601    -2558    -2544    -2589    -2671    -2764    -2867    -2970 
   -3057    -3134    -3218    -3316    -3419    -3522    -3628    -3748 
   -3871    -3937    -3910    -3796    -3588    -3277    -2874    -2420 
   -1979    -1594    -1282    -1061     -943     -916     -955    -1039 
   -1166    -1335    -1524    -1715    -1904    -2065    -2168    -2212 
   -2226    -2235    -2257    -2299    -2374    -2500    -2690    -2929 
   -3173    -3375    -3483    -3458    -3307    -3072    -2818    -2606 
   -2471    -2416    -2450    -2586    -2810    -3069    -3308    -3493 
   -3618    -3692    -3719    -3678    -3546    -3322    -3026    -2679 
   -2307    -1927    -1555    -1215     -930     -697     -529     -438 
    -409     -434     -533     -714    -1012    -1472    -2099    -2839 
   -3611    -4332    -4922    -5305    -5428    -5286    -4915    -4368 
   -3735    -3098    -2523    -2076    -1771    -1545    -1360    -1244 
   -1227    -1289    -1387    -1524    -1775    -2158    -2571    -2937 
   -3245    -3510    -3746    -3917    -4004    -4035    -4028    -3977 
   -3865    -3692    -3470    -3196    -2902    -2636    -2400    -2209 
   -2092    -2035    -2014    -2000    -1966    -1906    -1831    -1775 
   -1768    -1841    -2023    -2327    -2727    -3145    -3492    -3699 
   -3716    -3526    -3161    -2700    -2242    -1869    -1637    -1578 
   -1684    -1887    -2100    -2242    -2246    -2091    -1823    -1514 
   -1224    -1013     -953    -1102    -1472    -1995    -2560    -3080 
   -3503    -3809    -3991    -4068    -4078    -4059    -4020    -3948 
   -3829    -3646    -3408    -3127    -2817    -2517    -2278    -2119 
   -2034    -2007    -2002    -1962    -1869    -1732    -1568    -1416 
   -1328    -1358    -1533    -1849    -2249    -2663    -3028    -3281 
   -3364    -3264    -3022    -2713    -2423    -2214    -2116    -2143 
   -2289    -2523    -2801    -3078    -3308    -3461    -3537    -3551 
   -3538    -3499    -3406    -3245    -3017    -2709    -2326    -1903 
   -1483    -1123     -889     -832     -972    -1286    -1722    -2209 
   -2674    -3053    -3318    -3465    -3523    -3527    -3519    -3539 
   -3603    -3688    -3777    -3823    -3751    -3511    -3126    -2656 
   -2154    -1675    -1273    -1011     -931    -1030    -1252    -1539 
   -1836    -2107    -2328    -2481    -2569    -2633    -2728    -2876 
   -3059    -3240    -3402    -3542    -3649    -3689    -3642    -3507 
   -3299    -3046    -2767    -2459    -2131    -1806    -1518    -1301 
   -1178    -1140    -1169    -1258    -1393    -1545    -1699    -1857 
   -2035    -2243    -2475    -2731    -2987    -3225    -3429    -3577 
   -3643    -3613    -3496    -3333    -3153    -2945    -2706    -2455 
   -2220    -2020    -1856    -1733    -1665    -1651    -1698    -1829 
   -2039    -2324    -2674    -3052    -3418    -3731    -3946    -4025 
   -3964    -3785    -3534    -3256    -2986    -2735    -2508    -2319 
   -2178    -2076    -1996    -1937    -1896    -1887    -1945    -2089 
   -2284    -2470    -2624    -2737    -2795    -2781    -2677    -2504 
   -2326    -2209    -2180    -2234    -2347    -2498    -2670    -2833 
   -2926    -2889    -2717    -2462    -2178    -1906    -1676    -1540 
   -1513    -1578    -1718    -1898    -2058    -2170    -2234    -2258 
   -2247    -2212    -2184    -2178    -2195    -2214    -2215    -2199 
   -2177    -2176    -2243    -2415    -2695    -3072    -3510    -3952 
   -4352    -4679    -4909    -5015    -4970    -4785    -4514    -4212 
   -3902    -3593    -3294    -3011    -2740    -2462    -2177    -1896 
   -1634    -1421    -1281    -1209    -1194    -1228    -1300    -1412 
   -1559    -1721    -1885    -2049    -2227    -2448    -2701    -2937 
   -3105    -3169    -3118    -2970    -2752    -2494    -2243    -2045 
   -1933    -1918    -1989    -2106    -2230    -2347    -2432    -2470 
   -2484    -2517    -2592    -2697    -2826    -2987    -3177    -3364 
   -3510    -3570    -3523    -3397    -3244    -3064    -2851    -2610 
   -2367    -2162    -2027    -1962    -1949    -1988    -2093    -2261 
   -2473    -2705    -2918    -3080    -3167    -3145    -2999    -2758 
   -2474    -2209    -2006    -1873    -1823    -1852    -1923    -1992 
   -2014    -1954    -1817    -1637    -1464    -1359    -1372    -1513 
   -1767    -2122    -2533    -2924    -3227    -3410    -3477    -3454 
   -3369    -3238    -3083    -2937    -2832    -2783    -2756    -2709 
   -2633    -2550    -2474    -2423    -2419    -2484    -2636    -2862 
   -3118    -3370    -3569    -3676    -3680    -3589    -3422    -3213 
   -2992    -2798    -2646    -2529    -2421    -2295    -2135    -1930 
   -1675    -1395    -1148     -978     -922    -1015    -1269    -1668 
   -2170    -2704    -3203    -3626    -3935    -4094    -4095    -3963 
   -3726    -3408    -3056    -2713    -2405    -2157    -1977    -1845 
   -1748    -1696    -1698    -1755    -1875    -2070    -2322    -2596 
   -2874    -3145    -3380    -3555    -3659    -3707    -3730    -3746 
   -3728    -3657    -3542    -3384    -3153    -2853    -2519    -2181 
   -1857    -1556    -1279    -1039     -857     -745     -706     -738 
    -839     -997    -1193    -1417    -1675    -1960    -2257    -2569 
   -2889    -3196    -3473    -3692    -3838    -3916    -3931    -3846 
   -3638    -3334    -2961    -2529    -2060    -1602    -1213     -942 
    -823     -866    -1055    -1348    -1682    -2002    -2278    -2501 
   -2682    -2855    -3051    -3281    -3539    -3792    -4005    -4149 
   -4193    -4112    -3900    -3586    -3240    -2941    -2737    -2644 
   -2670    -2786    -2934    -3052    -3084    -3015    -2849    -2608 
   -2320    -2020    -1767    -1621    -1609    -1732    -1965    -2263 
   -2573    -2844    -3056    -3218    -3339    -3406    -3415    -3387 
   -3350    -3330    -3315    -3276    -3196    -3059    -2866    -2646 
   -2424    -2215    -2023    -1857    -1734    -1668    -1634    -1602 
   -1556    -1497    -1433    -1383    -1360    -1385    -1490    -1687 
   -1957    -2250    -2512    -2714    -2847    -2883    -2820    -2695 
   -2562    -2455    -2408    -2430    -2511    -2637    -2787    -2937 
   -3078    -3202    -3316    -3419    -3507    -3584    -3646    -3682 
   -3685    -3658    -3595    -3474    -3300    -3111    -2949    -2821 
   -2704    -2598    -2525    -2478    -2431    -2371    -2299    -2219 
   -2135    -2064    -2043    -2080    -2138    -2193    -2241    -2268 
   -2277    -2278    -2274    -2269    -2265    -2277    -2324    -2401 
   -2485    -2547    -2567    -2551    -2509    -2430    -2313    -2187 
