Origin Time       2025/06/03 22:18:00
Lat.              41.7
Long.             143.6
Depth. (km)       30
Mag.              5.2
Station Code      KSRH06
Station Lat.      43.2200
Station Long.     144.4285
Station Height(m) -207
Record Time       2025/06/03 22:19:13
Sampling Freq(Hz) 100Hz
Duration Time(s)  120
Dir.              3
Scale Factor      2942(gal)/8224139
Max. Acc. (gal)   0.162
Last Correction   2025/06/03 22:19:14
Memo.             
[...]
   70363    70380    70393    70393    70379    70371    70366    70353 
   70352    70363    70356    70347    70347    70339    70320    70301 
   70278    70259    70245    70231    70217    70210    70208    70201 
   70193    70193    70191    70183    70181    70186    70187    70190 
   70197    70202    70208    70218    70232    70244    70259    70264 
   70255    70248    70247    70244    70252    70259    70251    70240 
   70244    70252    70254    70249    70245    70237    70233    70237 
   70228    70205    70187    70183    70181    70185    70189    70177 
   70162    70158    70163    70174    70183    70183    70183    70189 
   70193    70194    70204    70221    70233    70236    70237    70241 
   70241    70239    70247    70263    70275    70283    70298    70321 
   70343    70359    70379    70391    70395    70411    70432    70443 
   70448    70451    70459    70471    70470    70456    70445    70443 
   70448    70447    70425    70402    70390    70375    70356    70347 
   70332    70314    70309    70303    70282    70256    70235    70216 
   70201    70190    70171    70150    70140    70137    70131    70119 
   70106    70105    70117    70131    70129    70117    70114    70116 
   70106    70100    70112    70121    70123    70141    70171    70191 
   70200    70200    70194    70194    70195    70191    70189    70201 
   70221    70231    70235    70248    70270    70298    70330    70355 
   70374    70393    70409    70420    70429    70433    70432    70430 
   70422    70405    70382    70363    70355    70349    70336    70321 
   70305    70290    70282    70270    70255    70241    70237    70245 
   70256    70266    70281    70293    70295    70299    70310    70320 
   70318    70317    70329    70340    70337    70330    70318    70303 
   70298    70297    70291    70286    70281    70274    70266    70258 
   70255    70258    70262    70262    70259    70258    70251    70241 
   70236    70233    70220    70198    70185    70183    70182    70166 
   70148    70148    70151    70137    70116    70101    70094    70089 
   70085    70086    70089    70094    70102    70116    70137    70156 
   70164    70167    70175    70191    70201    70193    70185    70179 
   70175    70174    70171    70158    70141    70136    70141    70148 
   70152    70154    70156    70167    70190    70208    70214    70221 
   70237    70254    70262    70263    70263    70260    70258    70256 
   70252    70241    70232    70240    70255    70262    70267    70271 
   70278    70291    70303    70306    70313    70321    70320    70317 
   70316    70310    70301    70302    70316    70322    70317    70312 
   70312    70308    70302    70299    70295    70289    70282    70272 
   70252    70232    70220    70213    70202    70187    70173    70160 
   70154    70154    70152    70143    70137    70137    70132    70120 
   70121    70137    70147    70148    70154    70167    70181    70193 
   70202    70208    70204    70197    70195    70200    70205    70208 
   70216    70235    70251    70260    70258    70243    70224    70208 
   70185    70159    70147    70155    70174    70190    70205    70222 
   70245    70278    70310    70333    70351    70366    70387    70407 
   70416    70416    70418    70425    70432    70433    70433    70430 
   70424    70422    70426    70418    70405    70403    70409    70409 
   70403    70393    70383    70376    70375    70376    70379    70380 
   70382    70383    70380    70375    70372    70371    70366    70356 
   70353    70362    70367    70366    70367    70367    70351    70321 
   70295    70266    70231    70208    70189    70162    70135    70120 
   70108    70098    70087    70077    70069    70056    70039    70020 
   70002    69988    69977    69971    69965    69954    69947    69943 
   69935    69934    69936    69932    69927    69931    69943    69966 
   70000    70036    70066    70102    70141    70174    70197    70217 
   70243    70271    70289    70301    70314    70325    70332    70337 
   70340    70339    70345    70356    70351    70339    70332    70325 
   70318    70320    70321    70316    70321    70335    70339    70335 
   70325    70317    70328    70343    70340    70330    70329    70330 
   70329    70329    70333    70335    70335    70336    70336    70335 
   70333    70335    70337    70339    70341    70348    70348    70343 
   70341    70348    70352    70357    70357    70348    70348    70352 
   70348    70344    70337    70324    70305    70283    70272    70267 
   70260    70254    70249    70248    70248    70243    70245    70260 
   70268    70270    70276    70275    70267    70271    70282    70281 
   70281    70283    70285    70290    70301    70303    70305    70312 
   70320    70322    70314    70305    70299    70297    70293    70285 
   70272    70259    70247    70235    70221    70210    70204    70201 
   70197    70194    70195    70193    70187    70179    70175    70167 
   70148    70131    70119    70102    70089    70083    70089    70092 
   70090    70087    70085    70086    70096    70114    70133    70152 
   70170    70186    70200    70209    70217    70225    70229    70229 
   70235    70245    70251    70252    70255    70254    70251    70256 
   70272    70281    70279    70275    70272    70272    70282    70295 
   70306    70318    70332    70345    70357    70364    70374    70398 
   70421    70434    70449    70465    70468    70470    70475    70479 
   70483    70484    70475    70465    70465    70468    70463    70453 
   70445    70437    70421    70406    70398    70386    70364    70340 
   70312    70287    70264    70244    70225    70200    70175    70158 
   70137    70117    70110    70110    70110    70110    70113    70113 
   70112    70117    70127    70132    70133    70135    70136    70132 
   70123    70114    70104    70083    70062    70040    70021    70004 
   69985    69963    69947    69938    69931    69932    69938    69951 
   69979    70016    70058    70104    70148    70191    70239    70285 
   70324    70353    70379    70403    70425    70443    70459    70472 
   70478    70474    70467    70463    70461    70455    70440    70425 
   70409    70386    70367    70349    70325    70299    70276    70258 
   70243    70225    70212    70201    70187    70181    70185    70190 
   70205    70222    70228    70229    70243    70254    70249    70247 
   70249    70251    70256    70267    70275    70285    70290    70287 
   70283    70282    70278    70268    70264    70267    70268    70268 
   70268    70264    70258    70241    70220    70214    70212    70200 
   70193    70194    70197    70195    70187    70179    70171    70160 
   70146    70136    70127    70109    70086    70073    70067    70060 
   70054    70050    70052    70059    70060    70060    70067    70074 
   70079    70082    70086    70097    70105    70109    70119    70133 
   70150    70163    70174    70198    70227    70244    70256    70271 
   70282    70290    70295    70306    70313    70314    70318    70330 
   70340    70340    70330    70325    70321    70313    70303    70299 
   70299    70297    70286    70276    70264    70254    70248    70236 
   70221    70214    70209    70204    70202    70202    70201    70202 
   70213    70225    70233    70244    70256    70263    70271    70282 
   70298    70321    70345    70363    70375    70383    70393    70405 
   70413    70413    70406    70402    70394    70382    70368    70348 
   70322    70305    70295    70282    70264    70245    70233    70229 
   70227    70224    70224    70225    70220    70218    70227    70244 
   70262    70274    70289    70302    70312    70332    70359    70382 
   70406    70425    70437    70447    70456    70463    70467    70472 
   70476    70478    70479    70484    70483    70468    70451    70440 
   70430    70421    70401    70367    70341    70333    70325    70302 
   70272    70254    70244    70227    70208    70190    70164    70141 
   70128    70119    70121    70136    70147    70155    70167    70178 
   70183    70186    70185    70183    70190    70195    70193    70190 
   70191    70187    70182    70179    70170    70159    70154    70151 
   70144    70136    70133    70136    70137    70139    70135    70132 
   70133    70132    70127    70123    70119    70121    70128    70136 
   70148    70162    70170    70170    70170    70183    70212    70239 
   70259    70278    70297    70310    70320    70329    70345    70357 
   70364    70371    70380    70387    70387    70382    70382    70393 
   70399    70395    70389    70380    70378    70372    70359    70355 
   70357    70352    70344    70340    70340    70336    70329    70321 
   70312    70298    70282    70268    70260    70247    70229    70213 
   70204    70206    70208    70202    70198    70193    70182    70166 
   70148    70131    70128    70132    70128    70125    70136    70151 
   70162    70175    70183    70193    70204    70214    70222    70227 
   70227    70225    70231    70237    70240    70240    70239    70235 
   70229    70227    70222    70217    70213    70214    70231    70245 
   70248    70247    70244    70233    70229    70231    70228    70221 
   70209    70197    70189    70183    70179    70177    70170    70166 
   70167    70162    70160    70167    70166    70163    70163    70163 
   70168    70175    70179    70191    70204    70208    70208    70206 
   70208    70208    70202    70198    70200    70208    70221    70232 
   70231    70229    70233    70239    70251    70270    70282    70290 
   70301    70310    70318    70325    70333    70345    70357    70360 
   70357    70359    70366    70364    70359    70349    70330    70316 
   70312    70303    70289    70279    70270    70254    70240    70233 
   70229    70229    70228    70217    70204    70197    70189    70178 
   70174    70177    70174    70171    70173    70171    70164    70166 
   70175    70178    70183    70193    70195    70197    70202    70205 
   70198    70191    70194    70198    70201    70201    70198    70194 
   70185    70174    70171    70174    70173    70168    70166    70160 
   70155    70159    70170    70183    70194    70197    70204    70217 
   70233    70243    70245    70248    70252    70256    70264    70274 
   70283    70295    70308    70314    70318    70314    70312    70313 
   70314    70316    70322    70328    70332    70340    70344    70333 
   70324    70322    70320    70312    70309    70310    70308    70297 
   70283    70266    70245    70231    70217    70204    70197    70193 
   70185    70175    70173    70179    70190    70193    70190    70191 
   70201    70214    70229    70243    70258    70276    70299    70316 
   70325    70336    70352    70368    70376    70375    70378    70390 
   70401    70406    70413    70414    70410    70417    70430    70434 
   70437    70445    70451    70447    70440    70434    70432    70425 
   70414    70406    70402    70397    70387    70379    70371    70363 
   70357    70348    70328    70308    70295    70282    70268    70262 
   70245    70227    70212    70193    70175    70160    70144    70129 
   70120    70109    70094    70079    70074    70069    70058    70046 
   70036    70031    70032    70036    70046    70055    70055    70052 
   70058    70070    70082    70089    70097    70109    70120    70127 
   70131    70131    70136    70146    70147    70140    70140    70143 
   70136    70129    70139    70150    70156    70166    70171    70177 
   70185    70189    70193    70198    70206    70218    70228    70232 
   70236    70243    70251    70256    70259    70266    70278    70287 
   70295    70302    70306    70320    70339    70349    70356    70367 
   70375    70376    70379    70384    70383    70379    70376    70376 
   70376    70371    70357    70340    70326    70313    70294    70282 
   70274    70255    70233    70225    70218    70209    70202    70200 
   70206    70221    70228    70228    70232    70240    70247    70252 
   70259    70267    70274    70286    70295    70294    70290    70285 
   70276    70272    70263    70243    70225    70213    70202    70190 
   70178    70171    70171    70174    70182    70194    70200    70208 
   70220    70229    70239    70249    70259    70267    70283    70301 
   70312    70324    70343    70356    70366    70375    70384    70395 
   70405    70413    70417    70420    70416    70407    70403    70398 
   70384    70367    70345    70324    70306    70290    70272    70255 
   70235    70213    70187    70158    70132    70117    70104    70085 
   70066    70056    70051    70043    70039    70046    70058    70065 
   70069    70082    70100    70112    70123    70135    70147    70163 
   70185    70205    70227    70248    70264    70285    70309    70333 
   70355    70374    70397    70421    70440    70457    70476    70486 
   70484    70484    70487    70492    70498    70503    70510    70515 
   70524    70534    70544    70542    70536    70534    70538    70534 
   70525    70515    70505    70492    70484    70479    70471    70460 
   70447    70433    70420    70407    70397    70393    70389    70386 
   70383    70378    70370    70363    70356    70340    70328    70316 
   70293    70271    70256    70237    70210    70183    70155    70119 
   70082    70048    70017    69992    69965    69931    69898    69876 
   69859    69844    69831    69816    69807    69801    69796    69797 
   69803    69807    69817    69832    69849    69867    69884    69905 
   69934    69961    69985    70009    70036    70067    70098    70125 
   70154    70182    70200    70214    70233    70245    70249    70252 
   70248    70244    70241    70235    70228    70224    70213    70198 
   70186    70181    70174    70158    70143    70129    70116    70112 
   70110    70109    70108    70102    70093    70092    70100    70106 
   70110    70117    70131    70143    70156    70179    70210    70236 
   70254    70267    70279    70291    70308    70321    70330    70337 
   70351    70368    70384    70399    70409    70416    70426    70432 
   70432    70437    70443    70444    70448    70456    70464    70463 
   70460    70456    70445    70443    70448    70445    70432    70418 
   70409    70401    70390    70386    70384    70374    70362    70352 
   70336    70321    70312    70302    70289    70274    70258    70245 
   70240    70229    70214    70201    70186    70170    70160    70156 
   70152    70155    70164    70173    70177    70183    70185    70185 
   70190    70200    70214    70232    70251    70272    70294    70313 
   70328    70339    70353    70367    70371    70375    70382    70384 
   70383    70387    70391    70393    70397    70391    70379    70366 
   70349    70335    70322    70310    70305    70299    70294    70295 
   70298    70299    70298    70291    70283    70272    70256    70243 
   70237    70235    70231    70228    70222    70213    70210    70210 
   70202    70190    70186    70183    70177    70173    70173    70173 
   70168    70171    70177    70183    70190    70197    70201    70205 
   70204    70201    70197    70193    70195    70202    70204    70204 
   70213    70217    70214    70213    70209    70204    70206    70209 
   70205    70201    70195    70189    70178    70170    70167    70164 
   70166    70174    70185    70195    70210    70225    70240    70255 
   70267    70276    70286    70303    70325    70339    70348    70360 
   70372    70378    70383    70390    70398    70399    70395    70389 
   70384    70383    70379    70366    70355    70345    70335    70320 
   70303    70290    70275    70255    70231    70208    70193    70179 
   70162    70151    70146    70131    70117    70114    70113    70112 
   70109    70102    70097    70096    70093    70086    70082    70085 
   70093    70100    70105    70109    70114    70123    70131    70137 
   70146    70152    70158    70164    70164    70162    70160    70166 
   70174    70174    70168    70163    70160    70167    70173    70168 
   70168    70174    70177    70181    70187    70193    70202    70213 
   70218    70224    70236    70244    70249    70254    70260    70267 
   70274    70279    70286    70290    70290    70290    70289    70291 
   70298    70301    70298    70301    70308    70310    70312    70318 
   70321    70318    70318    70320    70320    70320    70321    70325 
   70325    70322    70321    70326    70335    70336    70333    70335 
   70341    70347    70349    70348    70349    70355    70362    70364 
   70371    70378    70382    70389    70395    70393    70390    70390 
   70389    70386    70382    70380    70380    70375    70368    70356 
   70343    70333    70321    70309    70302    70294    70281    70271 
   70267    70263    70258    70258    70254    70248    70247    70244 
   70244    70248    70249    70245    70241    70241    70243    70241 
   70240    70241    70245    70254    70258    70259    70262    70263 
   70262    70260    70259    70260    70266    70263    70259    70256 
   70249    70240    70229    70216    70201    70185    70170    70155 
   70141    70135    70135    70132    70131    70133    70137    70139 
   70141    70144    70148    70156    70171    70185    70194    70194 
   70191    70195    70202    70206    70213    70213    70208    70206 
   70212    70218    70227    70233    70244    70258    70263    70263 
   70264    70267    70271    70272    70272    70271    70274    70282 
   70289    70293    70303    70317    70324    70329    70341    70352 
   70360    70368    70376    70378    70372    70370    70370    70374 
   70380    70390    70398    70402    70401    70399    70395    70393 
   70394    70391    70383    70374    70366    70356    70352    70352 
   70348    70340    70332    70328    70328    70325    70317    70314 
   70316    70312    70305    70295    70279    70264    70252    70237 
   70222    70209    70189    70163    70140    70127    70114    70101 
   70089    70075    70060    70046    70032    70025    70021    70011 
   70000    70000    69998    69993    69988    69979    69974    69979 
   69984    69984    69986    69992    69994    69994    70002    70015 
   70021    70027    70035    70039    70042    70047    70054    70059 
   70070    70085    70108    70135    70151    70163    70189    70214 
   70231    70251    70272    70287    70302    70326    70349    70371 
   70391    70407    70417    70424    70430    70437    70438    70434 
   70426    70424    70420    70413    70407    70399    70384    70371 
   70353    70329    70310    70294    70274    70255    70245    70243 
   70235    70222    70216    70208    70195    70183    70171    70159 
   70154    70154    70159    70168    70181    70197    70213    70225 
   70239    70255    70270    70287    70305    70318    70333    70353 
   70375    70397    70411    70421    70433    70447    70453    70457 
   70457    70459    70463    70464    70465    70467    70461    70447 
   70429    70405    70376    70355    70343    70325    70298    70274 
   70256    70236    70213    70193    70167    70141    70117    70093 
   70071    70058    70046    70027    70013    70004    69996    69993 
