Origin Time       2025/06/03 22:18:00
Lat.              41.7
Long.             143.6
Depth. (km)       30
Mag.              5.2
Station Code      KSRH03
Station Lat.      43.3848
Station Long.     144.6279
Station Height(m) -24
Record Time       2025/06/03 22:19:18
Sampling Freq(Hz) 100Hz
Duration Time(s)  120
Dir.              3
Scale Factor      2942(gal)/8224139
Max. Acc. (gal)   0.152
Last Correction   2025/06/03 22:19:18
Memo.             
[...]
   26360    26374    26414    26445    26411    26308    26176    26069 
   26006    25956    25911    25907    25960    26034    26113    26185 
   26214    26221    26249    26245    26194    26137    26077    26014 
   25988    25998    25983    25955    25959    25991    26023    26030 
   26013    26005    26019    26032    26021    25991    25951    25924 
   25930    25955    25968    25988    26050    26133    26184    26196 
   26175    26127    26094    26104    26137    26154    26163    26156 
   26119    26063    26015    26001    26026    26076    26107    26100 
   26086    26091    26094    26076    26052    26032    26036    26088 
   26191    26300    26368    26407    26435    26450    26445    26391 
   26277    26148    26050    26005    26018    26091    26198    26291 
   26353    26384    26385    26338    26234    26129    26096    26127 
   26171    26188    26173    26156    26156    26168    26164    26131 
   26099    26082    26055    26041    26048    26028    26001    25998 
   25995    25976    25953    25947    25979    26037    26077    26088 
   26083    26075    26076    26088    26106    26142    26195    26210 
   26153    26069    26013    25995    25988    25961    25930    25920 
   25938    25976    25986    25965    25972    26009    26053    26107 
   26154    26172    26158    26117    26067    26026    25991    25955 
   25951    25986    26028    26082    26156    26207    26239    26281 
   26325    26339    26335    26333    26311    26271    26277    26319 
   26331    26316    26303    26288    26271    26248    26215    26198 
   26184    26118    26028    25964    25933    25926    25922    25890 
   25852    25832    25818    25801    25779    25778    25821    25899 
   25984    26048    26073    26069    26055    26037    26018    25991 
   25953    25934    25955    25979    25976    25968    25972    25988 
   26021    26050    26056    26064    26104    26156    26214    26281 
   26337    26360    26360    26370    26414    26460    26480    26478 
   26466    26435    26369    26264    26138    26007    25883    25785 
   25745    25768    25828    25929    26069    26217    26333    26393 
   26410    26415    26407    26369    26334    26338    26343    26322 
   26299    26285    26271    26257    26254    26244    26195    26145 
   26140    26148    26133    26107    26080    26060    26056    26052 
   26042    26042    26056    26050    26055    26099    26122    26092 
   26049    26006    25979    25984    26005    26013    26003    25971 
   25911    25851    25805    25775    25775    25803    25837    25876 
   25906    25910    25911    25938    25983    26011    26005    25979 
   25967    25961    25960    25972    26002    26028    26045    26056 
   26065    26080    26086    26086    26110    26141    26138    26119 
   26118    26127    26134    26136    26136    26138    26138    26122 
   26095    26080    26091    26121    26153    26200    26258    26300 
   26358    26446    26505    26520    26495    26433    26364    26311 
   26272    26252    26225    26164    26076    25984    25921    25909 
   25952    26005    26032    26048    26061    26075    26102    26140 
   26190    26254    26306    26326    26327    26303    26250    26183 
   26103    26005    25911    25844    25826    25867    25933    25995 
   26046    26096    26141    26158    26144    26118    26102    26076 
   26034    25992    25955    25945    25971    25987    25984    25974 
   25942    25894    25859    25852    25879    25956    26087    26199 
   26242    26257    26279    26293    26287    26249    26187    26125 
   26064    25988    25895    25821    25797    25802    25833    25899 
   25980    26045    26084    26100    26080    26030    25980    25955 
   25963    26002    26064    26137    26199    26257    26306    26318 
   26310    26302    26291    26279    26265    26244    26221    26207 
   26199    26184    26171    26185    26252    26345    26403    26416 
   26426    26451    26478    26489    26464    26416    26379    26343 
   26283    26180    26049    25938    25886    25878    25891    25918 
   25948    25976    26017    26063    26079    26072    26076    26080 
   26084    26107    26141    26163    26156    26123    26091    26057 
   26014    25969    25944    25928    25909    25910    25940    25964 
   25978    25979    25959    25940    25942    25957    25975    25982 
   25974    25953    25925    25910    25913    25914    25909    25905 
   25920    25964    26009    26028    26046    26088    26129    26137 
   26117    26086    26044    25986    25918    25874    25895    25979 
   26073    26130    26156    26165    26153    26111    26053    26013 
   25998    26007    26037    26073    26126    26184    26222    26258 
   26314    26361    26354    26310    26268    26231    26195    26168 
   26153    26150    26161    26183    26218    26268    26306    26310 
   26295    26272    26265    26295    26341    26381    26415    26431 
   26408    26326    26208    26125    26088    26052    25998    25952 
   25930    25941    25963    25957    25960    25984    25979    25948 
   25930    25928    25940    25953    25942    25924    25929    25945 
   25934    25895    25871    25876    25884    25867    25829    25791 
   25776    25782    25791    25832    25909    25991    26064    26117 
   26131    26131    26154    26173    26149    26107    26077    26060 
   26050    26040    26025    26026    26057    26098    26138    26206 
   26296    26379    26445    26492    26504    26485    26439    26365 
   26283    26235    26233    26249    26271    26284    26292    26318 
   26341    26345    26323    26279    26234    26203    26177    26172 
   26198    26241    26279    26277    26237    26188    26136    26076 
   26022    25974    25948    25951    25952    25953    25964    25969 
   25969    25990    26033    26073    26100    26134    26190    26245 
   26271    26275    26269    26248    26210    26165    26121    26092 
   26077    26055    26025    26013    26017    26022    26017    26006 
   26006    26018    26038    26064    26102    26150    26210    26275 
   26318    26329    26312    26287    26264    26252    26260    26284 
   26289    26252    26185    26117    26055    25995    25948    25930 
   25925    25917    25918    25932    25947    25959    25969    25988 
   26022    26063    26090    26090    26048    25978    25918    25884 
   25855    25833    25848    25897    25968    26041    26096    26141 
   26177    26203    26218    26217    26203    26204    26244    26281 
   26287    26269    26230    26165    26091    26018    25959    25928 
   25918    25914    25913    25936    25991    26046    26083    26118 
   26160    26196    26225    26254    26283    26302    26299    26276 
   26234    26176    26110    26044    25968    25895    25851    25849 
   25878    25918    25972    26032    26091    26136    26140    26095 
   26038    26001    25980    25964    25929    25879    25845    25832 
   25824    25837    25886    25948    26002    26052    26095    26127 
   26154    26179    26200    26231    26269    26285    26285    26279 
   26260    26248    26235    26204    26180    26181    26195    26214 
   26231    26246    26258    26265    26264    26242    26199    26160 
   26133    26119    26129    26158    26202    26242    26262    26258 
   26229    26179    26131    26091    26064    26065    26086    26103 
   26122    26146    26169    26192    26215    26234    26244    26242 
   26231    26202    26148    26092    26055    26023    25988    25952 
   25928    25942    25986    26025    26049    26060    26077    26100 
   26109    26115    26118    26103    26086    26082    26079    26063 
   26048    26042    26041    26052    26073    26082    26080    26095 
   26127    26157    26175    26171    26134    26090    26050    25998 
   25951    25956    25998    26034    26063    26079    26075    26077 
   26088    26090    26095    26114    26136    26148    26152    26146 
   26129    26103    26079    26065    26069    26077    26076    26069 
   26069    26073    26080    26095    26113    26119    26096    26056 
   26028    26036    26057    26056    26044    26034    26010    25964 
   25913    25866    25839    25852    25882    25893    25882    25856 
   25841    25871    25928    25990    26050    26099    26144    26187 
   26223    26246    26261    26277    26283    26266    26241    26210 
   26179    26164    26153    26142    26141    26138    26127    26114 
   26111    26127    26163    26195    26215    26241    26271    26298 
   26314    26312    26310    26311    26288    26245    26210    26196 
   26187    26167    26141    26117    26087    26048    26010    25992 
   25995    26007    26041    26083    26106    26115    26129    26136 
   26117    26086    26068    26052    26032    26011    25983    25959 
   25952    25953    25949    25938    25941    25957    25976    26003 
   26030    26056    26090    26102    26090    26090    26118    26154 
   26173    26167    26160    26176    26202    26226    26257    26292 
   26329    26349    26350    26350    26356    26354    26346    26334 
   26310    26265    26203    26136    26075    26034    26017    26019 
   26040    26059    26055    26040    26041    26055    26080    26122 
   26146    26145    26137    26121    26094    26072    26080    26106 
   26129    26154    26164    26140    26104    26073    26038    26010 
   26007    26018    26026    26029    26023    26007    25988    25972 
   25967    25975    25988    26013    26049    26084    26123    26158 
   26163    26142    26125    26099    26056    26021    26009    25999 
   25978    25957    25951    25949    25951    25969    25991    26002 
   26013    26028    26059    26102    26144    26175    26190    26191 
   26180    26160    26134    26095    26044    26011    26001    25982 
   25957    25936    25930    25951    25975    25988    25999    26015 
   26048    26088    26107    26095    26068    26045    26042    26050 
   26061    26084    26103    26098    26091    26110    26140    26153 
   26161    26167    26157    26144    26129    26117    26133    26176 
   26229    26277    26295    26288    26285    26287    26296    26327 
   26370    26399    26407    26411    26412    26403    26387    26364 
   26318    26265    26230    26204    26183    26156    26121    26103 
   26118    26127    26114    26099    26091    26090    26094    26088 
   26077    26076    26080    26071    26048    26034    26025    26002 
   25971    25936    25906    25890    25871    25840    25801    25768 
   25764    25791    25833    25875    25915    25955    25995    26032 
   26055    26068    26090    26114    26130    26149    26173    26190 
   26200    26206    26211    26211    26203    26187    26165    26149 
   26148    26148    26153    26163    26165    26161    26153    26138 
   26136    26136    26113    26087    26094    26117    26127    26122 
   26103    26077    26052    26017    25979    25964    25971    25988 
   26013    26034    26040    26026    26006    26006    26029    26044 
   26050    26056    26059    26076    26106    26113    26091    26073 
   26072    26077    26087    26107    26121    26125    26134    26146 
   26156    26165    26165    26164    26175    26199    26219    26226 
   26214    26185    26153    26122    26087    26061    26069    26094 
   26114    26144    26176    26199    26222    26248    26271    26298 
   26327    26345    26365    26400    26426    26427    26412    26387 
   26342    26281    26229    26194    26168    26150    26123    26092 
   26065    26044    26021    25996    25983    25988    26003    26013 
   26013    26017    26023    26022    26001    25976    25965    25945 
   25906    25871    25852    25856    25886    25915    25930    25938 
   25949    25965    25986    25999    26007    26014    26014    26022 
   26056    26094    26125    26160    26192    26217    26242    26260 
   26256    26241    26226    26211    26191    26165    26154    26158 
   26153    26141    26134    26127    26110    26076    26050    26052 
   26060    26060    26069    26090    26084    26056    26029    26010 
   26011    26029    26040    26041    26049    26060    26067    26086 
   26126    26165    26190    26203    26211    26208    26198    26185 
   26175    26172    26183    26199    26212    26222    26231    26239 
   26235    26210    26169    26114    26046    25984    25942    25918 
   25897    25890    25903    25921    25944    25975    26001    26021 
   26046    26060    26046    26036    26038    26042    26056    26082 
   26103    26118    26134    26152    26164    26164    26149    26130 
   26114    26114    26134    26152    26160    26177    26203    26218 
   26230    26241    26246    26252    26257    26254    26258    26272 
   26273    26249    26206    26160    26136    26123    26098    26073 
   26068    26071    26067    26056    26045    26038    26037    26046 
   26065    26075    26072    26077    26076    26063    26057    26050 
   26036    26023    26010    26009    26033    26060    26079    26102 
   26129    26163    26200    26221    26227    26238    26238    26229 
   26230    26244    26254    26266    26271    26249    26202    26160 
   26141    26121    26092    26071    26050    26023    25988    25932 
   25860    25795    25748    25721    25704    25687    25682    25681 
   25677    25678    25679    25682    25699    25735    25783    25847 
   25917    25976    26025    26065    26084    26083    26071    26060 
   26057    26057    26063    26083    26117    26150    26173    26192 
   26210    26222    26231    26238    26246    26264    26288    26311 
   26329    26346    26364    26376    26374    26362    26357    26357 
   26352    26343    26338    26333    26331    26325    26308    26288 
   26273    26261    26245    26219    26196    26192    26200    26199 
   26185    26165    26136    26106    26076    26038    26013    26001 
   25971    25928    25907    25918    25933    25942    25955    25976 
   26009    26042    26067    26088    26106    26106    26091    26060 
   26017    25972    25936    25924    25937    25963    25991    26021 
   26046    26076    26118    26156    26179    26196    26210    26199 
   26176    26176    26196    26207    26223    26250    26264    26273 
   26288    26280    26254    26230    26200    26177    26160    26133 
   26096    26052    26007    25986    25976    25971    25978    25996 
   26026    26068    26102    26114    26118    26117    26103    26086 
   26057    26015    25986    25978    25975    25979    25991    26006 
   26025    26055    26095    26125    26136    26141    26145    26144 
   26150    26150    26138    26126    26117    26121    26140    26157 
   26171    26185    26207    26231    26246    26252    26245    26219 
   26192    26171    26134    26080    26021    25971    25940    25924 
   25914    25914    25924    25934    25940    25941    25947    25961 
   25976    25980    25982    25988    25986    25969    25960    25965 
   25990    26026    26063    26094    26117    26129    26138    26140 
   26134    26131    26125    26115    26117    26113    26099    26095 
   26096    26088    26087    26087    26079    26077    26087    26107 
   26131    26150    26161    26177    26190    26191    26190    26188 
   26192    26203    26196    26171    26138    26114    26113    26119 
   26131    26160    26188    26195    26196    26199    26195    26188 
   26191    26196    26191    26180    26160    26123    26084    26050 
   26018    25996    25983    25978    25987    26003    26018    26036 
   26056    26065    26069    26069    26061    26061    26069    26067 
   26063    26069    26072    26068    26071    26076    26086    26102 
   26117    26131    26145    26157    26168    26181    26195    26206 
   26219    26238    26250    26261    26280    26289    26272    26248 
   26227    26204    26175    26145    26123    26119    26134    26158 
   26176    26194    26218    26244    26272    26302    26326    26345 
   26357    26361    26361    26349    26312    26275    26250    26215 
   26167    26129    26109    26088    26055    26015    25982    25953 
   25934    25921    25906    25887    25871    25856    25839    25824 
   25810    25799    25799    25813    25834    25868    25902    25925 
   25944    25961    25978    25991    25999    26001    25995    25980 
   25967    25965    25967    25967    25975    25991    26001    26010 
   26028    26048    26075    26119    26168    26221    26284    26350 
   26404    26443    26464    26465    26455    26441    26411    26373 
   26330    26275    26218    26173    26133    26087    26045    26013 
   25986    25961    25938    25917    25902    25903    25910    25917 
   25921    25915    25905    25895    25887    25883    25895    25925 
   25956    25976    25990    26013    26050    26083    26102    26122 
   26146    26168    26179    26184    26187    26184    26177    26168 
   26160    26167    26181    26187    26185    26183    26171    26161 
   26156    26145    26136    26131    26126    26130    26142    26146 
   26148    26150    26150    26158    26168    26158    26131    26095 
   26059    26029    26006    25995    25998    26014    26034    26045 
   26052    26063    26073    26098    26123    26126    26127    26140 
   26142    26140    26138    26127    26110    26096    26076    26057 
   26055    26057    26069    26086    26098    26113    26125    26136 
   26157    26180    26192    26204    26223    26238    26246    26260 
   26280    26289    26279    26253    26229    26210    26188    26167 
   26148    26133    26133    26148    26156    26160    26175    26188 
   26198    26200    26176    26145    26133    26134    26136    26130 
   26131    26133    26137    26146    26142    26134    26150    26179 
   26196    26214    26229    26229    26221    26206    26165    26113 
   26068    26028    25987    25961    25953    25955    25969    25992 
   26018    26045    26064    26075    26080    26073    26046    26018 
   25995    25964    25937    25915    25893    25875    25863    25855 
   25853    25859    25872    25893    25913    25930    25940    25947 
   25953    25949    25936    25944    25967    25986    26005    26028 
   26044    26052    26055    26056    26052    26042    26030    26015 
   26002    25982    25961    25951    25947    25951    25969    26001 
   26026    26037    26048    26071    26095    26121    26156    26183 
   26199    26219    26235    26234    26227    26217    26206    26210 
   26222    26231    26237    26234    26239    26254    26256    26239 
   26225    26206    26180    26164    26154    26152    26156    26171 
   26200    26233    26254    26272    26285    26284    26265    26244 
   26222    26202    26177    26148    26126    26129    26129    26111 
   26094    26092    26118    26154    26180    26206    26245    26287 
   26318    26330    26341    26360    26361    26338    26299    26252 
   26199    26144    26088    26040    25998    25967    25947    25933 
   25937    25953    25965    25984    26001    26007    26018    26030 
   26034    26036    26032    26026    26017    26001    25986    25979 
