Origin Time       2025/06/03 22:18:00
Lat.              41.7
Long.             143.6
Depth. (km)       30
Mag.              5.2
Station Code      KSRH07
Station Lat.      43.1359
Station Long.     144.3274
Station Height(m) -184
Record Time       2025/06/03 22:19:14
Sampling Freq(Hz) 100Hz
Duration Time(s)  120
Dir.              3
Scale Factor      2942(gal)/8224139
Max. Acc. (gal)   0.223
Last Correction   2025/06/03 22:19:14
Memo.             
[...]
   43605    43538    43494    43468    43491    43518    43502    43449 
   43372    43316    43316    43336    43336    43344    43379    43394 
   43374    43356    43316    43235    43205    43229    43227    43243 
   43316    43384    43425    43434    43413    43395    43389    43394 
   43422    43452    43490    43517    43488    43452    43449    43436 
   43409    43379    43314    43237    43212    43208    43193    43178 
   43155    43108    43071    43087    43143    43205    43282    43362 
   43394    43405    43426    43399    43352    43364    43393    43370 
   43326    43305    43326    43375    43380    43318    43262    43247 
   43244    43221    43178    43160    43206    43314    43430    43480 
   43480    43488    43497    43514    43551    43544    43490    43459 
   43463    43459    43448    43448    43456    43483    43525    43555 
   43580    43595    43576    43553    43542    43538    43568    43610 
   43592    43537    43525    43563    43579    43537    43494    43492 
   43525    43576    43634    43687    43719    43745    43769    43750 
   43694    43650    43638    43675    43741    43765    43737    43704 
   43690    43683    43657    43603    43556    43536    43528    43563 
   43629    43642    43600    43564    43533    43490    43463    43470 
   43444    43371    43310    43247    43163    43102    43087    43131 
   43202    43235    43204    43166    43156    43139    43104    43104 
   43150    43205    43263    43347    43448    43533    43588    43621 
   43629    43600    43571    43598    43660    43698    43713    43714 
   43675    43599    43546    43549    43549    43506    43488    43511 
   43492    43428    43397    43390    43347    43312    43364    43444 
   43455    43436    43448    43480    43530    43587    43605    43584 
   43553    43533    43530    43511    43453    43395    43367    43360 
   43356    43339    43305    43266    43247    43285    43341    43357 
   43364    43387    43416    43445    43436    43382    43364    43370 
   43347    43340    43364    43406    43452    43471    43471    43483 
   43503    43480    43390    43344    43398    43406    43328    43308 
   43328    43301    43276    43295    43348    43420    43432    43390 
   43405    43472    43503    43507    43514    43490    43436    43405 
   43393    43397    43434    43482    43511    43532    43549    43576 
   43603    43621    43627    43617    43603    43596    43598    43632 
   43663    43668    43700    43698    43598    43501    43457    43438 
   43426    43395    43355    43366    43429    43498    43571    43654 
   43713    43715    43687    43679    43703    43727    43729    43711 
   43659    43568    43521    43551    43580    43548    43474    43407 
   43375    43383    43409    43405    43376    43360    43366    43394 
   43401    43367    43355    43390    43418    43401    43326    43222 
   43158    43151    43152    43133    43139    43205    43281    43344 
   43438    43517    43518    43521    43549    43549    43553    43567 
   43540    43509    43521    43553    43583    43594    43534    43413 
   43326    43316    43340    43387    43447    43491    43533    43594 
   43637    43644    43657    43653    43576    43486    43443    43437 
   43447    43449    43417    43368    43356    43390    43426    43441 
   43465    43502    43509    43519    43563    43569    43542    43541 
   43536    43505    43449    43384    43343    43310    43279    43256 
   43239    43249    43289    43325    43351    43379    43434    43524 
   43607    43672    43738    43748    43681    43646    43684    43715 
   43686    43623    43595    43598    43561    43503    43460    43405 
   43343    43303    43266    43202    43160    43189    43249    43279 
   43274    43240    43205    43195    43227    43308    43398    43471 
   43548    43622    43638    43586    43553    43591    43625    43622 
   43622    43606    43567    43549    43541    43490    43434    43433 
   43425    43357    43278    43229    43202    43170    43140    43132 
   43128    43133    43163    43194    43222    43264    43325    43382 
   43416    43441    43472    43530    43621    43708    43761    43769 
   43767    43800    43825    43808    43767    43675    43568    43494 
   43414    43336    43305    43308    43316    43324    43345    43402 
   43460    43463    43438    43424    43414    43437    43486    43522 
   43546    43551    43552    43571    43591    43613    43615    43569 
   43491    43413    43376    43397    43414    43384    43329    43289 
   43289    43314    43336    43363    43409    43445    43478    43521 
   43544    43544    43532    43495    43470    43492    43530    43556 
   43567    43563    43534    43499    43475    43453    43438    43456 
   43514    43600    43687    43740    43760    43764    43738    43676 
   43606    43549    43479    43382    43305    43271    43245    43224 
   43236    43264    43294    43339    43389    43416    43410    43402 
   43411    43418    43407    43416    43452    43487    43507    43507 
   43480    43452    43438    43429    43445    43507    43598    43680 
   43713    43691    43664    43636    43575    43541    43556    43555 
   43528    43490    43470    43497    43530    43540    43530    43492 
   43441    43397    43363    43326    43275    43239    43231    43237 
   43290    43349    43347    43355    43428    43470    43456    43457 
   43478    43487    43488    43492    43490    43468    43444    43428 
   43406    43386    43375    43371    43378    43402    43428    43440 
   43449    43476    43509    43525    43506    43464    43457    43491 
   43505    43506    43536    43575    43584    43563    43537    43529 
   43529    43530    43529    43505    43457    43429    43425    43413 
   43389    43382    43402    43420    43406    43389    43380    43356 
   43335    43345    43359    43352    43341    43332    43310    43317 
   43379    43426    43421    43434    43486    43502    43476    43467 
   43483    43495    43513    43560    43606    43599    43564    43544 
   43521    43467    43420    43407    43402    43391    43395    43432 
   43460    43438    43425    43456    43478    43491    43513    43510 
   43486    43470    43468    43476    43502    43548    43575    43573 
   43576    43573    43556    43559    43572    43555    43517    43471 
   43422    43394    43375    43349    43340    43333    43286    43221 
   43181    43170    43191    43228    43266    43295    43326    43386 
   43428    43399    43362    43352    43333    43308    43290    43264 
   43227    43217    43255    43299    43332    43368    43406    43456 
   43513    43546    43587    43649    43692    43717    43757    43791 
   43788    43764    43749    43757    43762    43744    43702    43661 
   43632    43600    43567    43538    43519    43505    43453    43379 
   43326    43274    43224    43224    43266    43310    43348    43389 
   43430    43447    43445    43456    43497    43557    43626    43683 
   43708    43708    43719    43752    43768    43737    43677    43607 
   43525    43452    43401    43376    43372    43367    43379    43394 
   43367    43339    43348    43351    43336    43324    43314    43302 
   43286    43263    43227    43171    43129    43141    43198    43258 
   43297    43333    43387    43433    43443    43444    43474    43519 
   43530    43482    43417    43386    43406    43457    43497    43513 
   43530    43541    43524    43495    43472    43424    43348    43322 
   43366    43387    43367    43356    43366    43382    43397    43391 
   43360    43339    43333    43308    43270    43260    43268    43267 
   43285    43344    43425    43497    43564    43644    43719    43742 
   43714    43695    43696    43671    43609    43546    43507    43503 
   43513    43495    43467    43456    43448    43434    43406    43372 
   43370    43368    43339    43339    43379    43407    43430    43457 
   43474    43476    43457    43436    43443    43467    43483    43478 
   43459    43452    43465    43474    43463    43443    43425    43417 
   43428    43441    43461    43515    43602    43699    43788    43869 
   43923    43934    43915    43887    43856    43825    43794    43749 
   43665    43580    43563    43578    43563    43544    43552    43546 
   43525    43513    43502    43471    43422    43403    43422    43433 
   43444    43479    43521    43534    43519    43488    43443    43407 
   43395    43383    43374    43389    43425    43475    43506    43502 
   43501    43524    43546    43546    43526    43507    43495    43475 
   43449    43425    43383    43348    43352    43353    43330    43337 
   43380    43414    43422    43437    43482    43544    43586    43600 
   43617    43648    43679    43695    43688    43677    43669    43632 
   43563    43491    43426    43364    43316    43293    43275    43244 
   43216    43216    43240    43260    43259    43248    43245    43268 
   43305    43308    43281    43258    43270    43313    43341    43351 
   43368    43376    43376    43387    43384    43364    43343    43330 
   43345    43376    43405    43433    43452    43443    43417    43401 
   43398    43387    43374    43389    43406    43417    43467    43526 
   43524    43492    43497    43513    43519    43521    43519    43530 
   43536    43502    43464    43441    43405    43370    43371    43390 
   43387    43395    43447    43476    43464    43479    43513    43529 
   43549    43564    43542    43522    43528    43526    43521    43525 
   43519    43519    43513    43465    43437    43461    43487    43497 
   43514    43541    43561    43583    43610    43617    43586    43545 
   43498    43443    43403    43370    43343    43345    43353    43359 
   43380    43416    43443    43444    43425    43414    43434    43483 
   43534    43573    43627    43704    43758    43773    43769    43760 
   43752    43731    43681    43617    43564    43514    43447    43380 
   43339    43301    43260    43258    43305    43355    43366    43347 
   43326    43324    43316    43285    43258    43241    43232    43241 
   43251    43243    43231    43222    43214    43205    43209    43228 
   43247    43283    43345    43379    43390    43418    43452    43456 
   43440    43436    43449    43472    43498    43521    43537    43546 
   43551    43545    43521    43488    43452    43403    43336    43249 
   43179    43154    43139    43102    43075    43086    43112    43128 
   43140    43170    43228    43290    43341    43389    43426    43444 
   43459    43490    43519    43532    43542    43561    43567    43568 
   43582    43592    43600    43625    43672    43713    43746    43792 
   43833    43842    43827    43798    43767    43734    43684    43627 
   43605    43599    43592    43605    43625    43615    43582    43560 
   43551    43536    43514    43480    43445    43426    43409    43375 
   43326    43286    43270    43270    43272    43286    43301    43293 
   43247    43198    43182    43186    43173    43155    43174    43224 
   43254    43262    43285    43299    43297    43295    43295    43314 
   43360    43393    43409    43453    43538    43627    43688    43718 
   43737    43761    43761    43727    43704    43714    43711    43680 
   43659    43642    43609    43584    43594    43627    43664    43698 
   43725    43738    43734    43730    43726    43719    43725    43746 
   43760    43756    43758    43773    43788    43795    43798    43811 
   43812    43779    43748    43744    43740    43718    43671    43611 
   43565    43519    43465    43432    43425    43414    43387    43367 
   43362    43343    43318    43312    43312    43317    43324    43326 
   43325    43330    43351    43370    43370    43357    43356    43357 
   43351    43341    43351    43375    43383    43367    43371    43375 
   43343    43317    43332    43367    43402    43429    43459    43503 
   43533    43545    43564    43580    43583    43583    43588    43580 
   43561    43546    43534    43513    43488    43478    43463    43417 
   43360    43320    43305    43287    43241    43195    43173    43146 
   43114    43098    43074    43028    42966    42908    42878    42885 
   42916    42954    42986    43024    43081    43160    43244    43313 
   43357    43410    43490    43565    43619    43648    43654    43657 
   43659    43656    43673    43706    43722    43734    43750    43746 
   43735    43749    43758    43741    43722    43704    43684    43680 
   43684    43668    43638    43610    43576    43530    43475    43429 
   43395    43355    43306    43259    43239    43237    43216    43174 
   43129    43098    43090    43085    43075    43085    43108    43121 
   43137    43177    43231    43282    43332    43390    43455    43505 
   43532    43553    43568    43569    43559    43541    43545    43567 
   43576    43579    43578    43563    43549    43549    43540    43524 
   43517    43507    43490    43487    43492    43475    43457    43471 
   43480    43467    43437    43405    43384    43378    43380    43409 
   43461    43497    43492    43480    43457    43407    43351    43301 
   43260    43233    43213    43205    43206    43202    43198    43200 
   43201    43209    43221    43244    43293    43356    43422    43478 
   43514    43528    43533    43546    43569    43576    43571    43579 
   43592    43590    43606    43660    43729    43806    43891    43964 
   44019    44055    44072    44081    44078    44053    44005    43947 
   43895    43868    43870    43873    43861    43843    43822    43785 
   43730    43663    43607    43569    43525    43475    43432    43386 
   43325    43267    43224    43193    43156    43106    43063    43051 
   43065    43085    43100    43119    43148    43175    43189    43194 
   43216    43264    43309    43348    43398    43451    43490    43528 
   43573    43615    43637    43640    43640    43642    43640    43642 
   43653    43646    43619    43590    43560    43525    43483    43445 
   43414    43380    43362    43366    43362    43348    43347    43360 
   43372    43372    43355    43340    43357    43393    43438    43502 
   43564    43603    43636    43669    43687    43688    43691    43699 
   43702    43703    43704    43702    43695    43675    43634    43579 
   43517    43471    43441    43407    43383    43391    43403    43397 
   43393    43417    43455    43494    43546    43594    43600    43595 
   43606    43617    43615    43613    43617    43605    43569    43533 
   43499    43444    43363    43289    43243    43205    43166    43135 
   43123    43127    43144    43178    43210    43237    43260    43283 
   43301    43301    43279    43232    43182    43173    43186    43175 
   43151    43131    43112    43098    43094    43086    43074    43073 
   43073    43073    43087    43112    43140    43163    43171    43182 
   43202    43214    43209    43204    43222    43256    43290    43341 
   43406    43451    43488    43544    43588    43614    43636    43657 
   43668    43667    43669    43687    43691    43675    43661    43659 
   43644    43607    43575    43548    43499    43452    43434    43437 
   43447    43445    43428    43410    43397    43384    43386    43397 
   43403    43411    43433    43457    43468    43471    43487    43509 
   43501    43479    43479    43482    43482    43514    43572    43619 
   43649    43679    43719    43756    43784    43818    43846    43865 
   43880    43879    43858    43835    43811    43784    43757    43711 
   43654    43611    43569    43524    43484    43460    43447    43425 
   43391    43375    43383    43390    43393    43397    43402    43405 
   43398    43390    43393    43397    43394    43394    43399    43405 
   43410    43416    43413    43394    43371    43352    43322    43285 
   43251    43220    43191    43174    43170    43175    43173    43158 
   43159    43181    43200    43206    43206    43222    43256    43285 
   43312    43347    43382    43425    43467    43483    43479    43470 
   43455    43443    43449    43460    43471    43498    43548    43598 
   43642    43680    43696    43699    43703    43707    43703    43695 
   43692    43683    43656    43621    43590    43561    43546    43544 
   43528    43507    43494    43478    43472    43487    43510    43529 
   43540    43542    43552    43575    43586    43587    43598    43606 
   43607    43613    43618    43614    43600    43594    43594    43592 
   43596    43606    43602    43588    43576    43571    43582    43592 
   43583    43576    43582    43571    43559    43576    43598    43599 
   43603    43619    43630    43627    43617    43599    43573    43552 
   43533    43511    43497    43484    43468    43455    43447    43444 
   43437    43407    43363    43313    43258    43220    43202    43205 
   43225    43228    43205    43195    43202    43201    43200    43210 
   43236    43267    43283    43283    43279    43275    43279    43299 
   43330    43359    43384    43420    43444    43438    43429    43438 
   43455    43474    43502    43521    43525    43528    43540    43569 
   43609    43638    43660    43673    43681    43681    43675    43661 
   43636    43596    43560    43525    43486    43448    43407    43370 
   43336    43305    43286    43283    43290    43308    43328    43343 
   43352    43356    43359    43356    43348    43355    43375    43395 
   43416    43426    43422    43413    43420    43441    43456    43465 
   43474    43470    43460    43460    43456    43445    43452    43476 
   43498    43507    43501    43488    43491    43491    43483    43478 
   43464    43447    43440    43432    43414    43391    43360    43330 
   43309    43291    43278    43271    43260    43239    43222    43217 
   43208    43204    43201    43186    43163    43148    43144    43150 
   43158    43168    43189    43209    43216    43222    43239    43244 
   43241    43255    43281    43299    43309    43316    43333    43364 
   43394    43420    43451    43492    43549    43614    43671    43717 
   43750    43768    43775    43784    43800    43812    43818    43822 
   43827    43830    43822    43815    43810    43796    43781    43764 
   43744    43730    43722    43714    43704    43696    43691    43677 
   43660    43650    43642    43630    43607    43578    43560    43541 
   43519    43518    43544    43573    43594    43607    43614    43614 
   43613    43623    43637    43626    43600    43592    43600    43606 
   43590    43548    43492    43449    43420    43393    43359    43330 
   43310    43279    43232    43194    43171    43159    43163    43178 
   43187    43186    43189    43210    43235    43243    43252    43267 
   43272    43264    43252    43248    43263    43286    43303    43313 
   43321    43333    43343    43351    43367    43395    43434    43476 
   43505    43528    43557    43571    43563    43551    43536    43509 
   43484    43472    43453    43421    43393    43368    43343    43324 
   43316    43306    43302    43316    43326    43320    43322    43351 
   43384    43406    43416    43426    43455    43482    43498    43515 
   43525    43518    43513    43511    43511    43521    43545    43571 
   43586    43591    43592    43586    43578    43580    43583    43578 
