Origin Time       2025/06/03 22:18:00
Lat.              41.7
Long.             143.6
Depth. (km)       30
Mag.              5.2
Station Code      KSRH03
Station Lat.      43.3848
Station Long.     144.6279
Station Height(m) 83
Record Time       2025/06/03 22:19:18
Sampling Freq(Hz) 100Hz
Duration Time(s)  120
Dir.              6
Scale Factor      7845(gal)/8223790
Max. Acc. (gal)   0.829
Last Correction   2025/06/03 22:19:18
Memo.             
[...]
   28040    28090    28088    28077    28097    28117    28081    27989 
   27899    27877    27957    28075    28134    28121    28088    28088 
   28135    28162    28097    27963    27859    27873    27999    28146 
   28232    28220    28142    28065    28034    28040    28054    28046 
   28005    27962    27943    27958    28017    28112    28182    28190 
   28151    28096    28059    28073    28136    28193    28170    28081 
   28009    28000    28032    28061    28051    28004    27930    27866 
   27881    27974    28078    28151    28177    28146    28101    28093 
   28097    28061    27985    27932    27949    28011    28063    28086 
   28096    28102    28092    28082    28111    28158    28182    28174 
   28136    28084    28040    28021    28043    28101    28182    28274 
   28350    28356    28269    28124    28001    27966    28016    28055 
   28003    27901    27850    27919    28066    28159    28142    28090 
   28061    28042    28042    28088    28150    28175    28166    28129 
   28062    27993    27977    28016    28053    28048    28021    28007 
   27999    27972    27939    27954    28027    28109    28158    28190 
   28232    28269    28278    28235    28134    28024    27954    27926 
   27949    28036    28144    28213    28244    28233    28163    28065 
   27994    27986    28024    28023    27955    27942    28050    28173 
   28215    28185    28121    28054    27992    27939    27926    27954 
   27999    28054    28089    28073    28032    28021    28070    28152 
   28175    28086    27945    27850    27864    27976    28089    28102 
   28039    28004    28044    28116    28136    28065    27951    27896 
   27934    28024    28117    28182    28216    28236    28229    28174 
   28074    27951    27851    27847    27954    28096    28198    28229 
   28209    28183    28151    28071    27935    27788    27729    27808 
   27958    28093    28192    28236    28235    28237    28235    28158 
   28011    27893    27886    27993    28143    28240    28227    28144 
   28082    28088    28135    28155    28082    27946    27865    27919 
   28059    28175    28206    28185    28142    28093    28075    28102 
   28119    28116    28135    28151    28101    28020    27993    28047 
   28135    28183    28136    28021    27945    27994    28121    28216 
   28220    28138    28036    27990    27994    27993    27973    27958 
   27973    28017    28086    28158    28178    28127    28035    27962 
   27958    28009    28034    27994    27953    27981    28078    28177 
   28205    28155    28088    28040    28011    28000    28007    28019 
   28027    28051    28112    28185    28228    28239    28235    28206 
   28115    27961    27838    27835    27924    28015    28063    28077 
   28101    28163    28225    28236    28204    28156    28120    28100 
   28090    28093    28108    28123    28121    28085    28031    28020 
   28054    28057    28005    27943    27897    27882    27891    27919 
   28000    28124    28232    28275    28246    28200    28215    28258 
   28219    28081    27938    27904    27999    28123    28188    28181 
   28123    28055    28032    28061    28111    28156    28162    28094 
   28015    27993    28016    28044    28063    28057    28023    27994 
   27982    27980    28005    28069    28117    28120    28080    28007 
   27951    27966    28035    28066    28015    27974    28017    28074 
   28085    28092    28128    28155    28123    28027    27940    27935 
   27989    28039    28063    28098    28158    28221    28229    28147 
   28054    28036    28073    28108    28125    28117    28086    28061 
   28055    28059    28070    28081    28077    28081    28092    28074 
   28058    28097    28152    28166    28109    28009    27959    27992 
   28044    28074    28059    27989    27924    27938    28012    28092 
   28139    28136    28105    28078    28051    28035    28038    28021 
   27982    27963    27972    27992    28048    28139    28217    28267 
   28281    28208    28055    27953    27985    28092    28144    28082 
   27974    27942    28030    28159    28206    28146    28063    28026 
   28039    28077    28094    28085    28086    28127    28185    28202 
   28158    28102    28104    28150    28162    28090    27931    27729 
   27622    27710    27903    28030    28054    28051    28084    28152 
   28213    28242    28231    28166    28063    27984    27963    27993 
   28039    28089    28117    28078    28005    28001    28085    28166 
   28173    28123    28053    27984    27962    28015    28094    28136 
   28138    28129    28146    28179    28181    28127    28053    28015 
   28036    28112    28190    28210    28167    28107    28044    27972 
   27939    27996    28089    28139    28129    28104    28098    28113 
   28146    28175    28151    28075    28001    27950    27935    27963 
   27997    28001    27986    27997    28039    28067    28075    28098 
   28127    28129    28096    28032    27954    27930    28004    28107 
   28132    28085    28034    28017    28044    28108    28152    28115 
   28024    27969    27966    27970    27970    27985    28013    28067 
   28128    28146    28117    28092    28090    28098    28102    28096 
   28092    28105    28144    28210    28277    28301    28248    28128 
   28009    27985    28061    28132    28136    28124    28138    28161 
   28167    28120    28009    27920    27908    27934    27974    28055 
   28166    28250    28250    28165    28080    28053    28071    28105 
   28102    28026    27928    27903    27970    28054    28077    28016 
   27893    27785    27774    27851    27938    27982    27978    27974 
   28030    28124    28185    28174    28115    28071    28070    28077 
   28080    28080    28071    28042    28015    28034    28097    28161 
   28193    28163    28093    28051    28051    28046    28036    28050 
   28053    28008    27953    27962    28054    28146    28140    28023 
   27889    27864    27972    28108    28170    28170    28163    28162 
   28158    28148    28121    28081    28061    28062    28043    28011 
   28028    28101    28165    28189    28194    28186    28134    28038 
   27957    27946    28023    28165    28274    28260    28156    28066 
   28046    28077    28116    28129    28125    28119    28080    28004 
   27951    27982    28107    28244    28278    28185    28055    27976 
   27981    28030    28039    28028    28062    28123    28175    28208 
   28209    28165    28086    28031    28046    28097    28111    28055 
   27939    27828    27830    27972    28140    28212    28163    28092 
   28097    28163    28213    28220    28192    28111    27966    27810 
   27742    27808    27940    28043    28109    28179    28236    28235 
   28174    28082    27986    27930    27923    27927    27938    28011 
   28154    28269    28259    28139    28000    27908    27869    27872 
   27928    28013    28063    28075    28100    28127    28117    28085 
   28046    27997    27967    27967    27984    28020    28070    28123 
   28173    28188    28158    28120    28085    28028    27953    27896 
   27899    27980    28144    28352    28486    28444    28229    27966 
   27804    27785    27869    27997    28093    28121    28129    28170 
   28246    28275    28175    27997    27878    27885    27996    28129 
   28196    28185    28138    28081    28032    27970    27884    27818 
   27826    27912    28021    28078    28080    28085    28123    28181 
   28239    28271    28244    28142    27993    27876    27842    27868 
   27905    27943    27982    28061    28194    28316    28366    28348 
   28266    28125    27978    27868    27839    27909    28028    28105 
   28128    28161    28223    28289    28344    28374    28366    28314 
   28225    28104    27939    27768    27695    27762    27885    27967 
   27997    28023    28112    28275    28428    28431    28225    27935 
   27785    27865    28053    28181    28188    28123    28108    28183 
   28235    28167    28031    27893    27784    27747    27805    27895 
   27949    27996    28090    28232    28366    28417    28343    28188 
   28061    28019    27984    27858    27683    27622    27793    28120 
   28390    28453    28327    28131    27963    27831    27718    27683 
   27787    27989    28216    28394    28459    28421    28367    28302 
   28136    27859    27610    27513    27576    27793    28135    28459 
   28606    28548    28381    28224    28152    28169    28167    28065 
   27959    27994    28146    28286    28343    28302    28158    27947 
   27735    27560    27502    27685    28084    28479    28668    28648 
   28533    28393    28215    28007    27832    27761    27843    28028 
   28135    28031    27827    27756    27889    28111    28263    28260 
   28140    28017    27963    27974    27976    27909    27841    27916 
   28152    28383    28436    28318    28163    28053    27993    27961 
   27930    27864    27758    27702    27762    27911    28065    28163 
   28182    28159    28165    28227    28254    28173    28077    28073 
   28136    28162    28102    27993    27896    27832    27773    27691 
   27629    27645    27739    27900    28096    28269    28398    28518 
   28651    28683    28483    28128    27859    27801    27876    27936 
   27923    27889    27924    28050    28192    28263    28237    28178 
   28169    28213    28239    28186    28046    27895    27842    27912 
   28021    28089    28080    27994    27916    27927    27984    28019 
   28073    28189    28302    28317    28229    28100    27974    27864 
   27781    27758    27804    27896    27980    28017    28020    28036 
   28094    28183    28275    28352    28412    28410    28285    28054 
   27808    27639    27614    27712    27866    28038    28223    28399 
   28537    28597    28553    28425    28264    28113    27963    27814 
   27708    27688    27727    27757    27768    27815    27920    28035 
   28124    28201    28260    28270    28239    28208    28201    28213 
   28239    28251    28223    28158    28078    27999    27955    27973 
   28005    28021    28035    28048    28081    28152    28236    28279 
   28254    28179    28094    28038    28027    28043    28055    28054 
   28050    28048    28024    27990    27994    28016    28020    28019 
   28008    27986    28003    28075    28159    28217    28239    28220 
   28169    28093    27996    27934    28001    28186    28340    28348 
   28221    28047    27926    27893    27905    27909    27888    27873 
   27974    28242    28537    28636    28455    28128    27872    27791 
   27830    27882    27878    27811    27757    27773    27826    27869 
   27909    28000    28143    28262    28296    28240    28125    28016 
   27963    27955    27967    28030    28163    28317    28424    28462 
   28391    28224    28053    27940    27872    27853    27918    28075 
   28260    28366    28368    28332    28277    28178    28031    27854 
   27711    27677    27749    27915    28155    28381    28499    28493 
   28382    28217    28078    28048    28100    28098    27980    27837 
   27774    27815    27918    28036    28109    28101    28061    28044 
   28043    28059    28088    28073    27986    27880    27835    27911 
   28074    28186    28129    27970    27882    27966    28189    28410 
   28467    28306    28057    27861    27749    27733    27820    27962 
   28102    28202    28223    28138    27986    27885    27920    28054 
   28182    28209    28113    27973    27901    27966    28123    28243 
   28202    27965    27696    27656    27878    28150    28290    28317 
   28344    28363    28263    28057    27892    27881    28019    28162 
   28144    27988    27876    27909    28035    28159    28210    28173 
   28119    28119    28132    28125    28144    28205    28285    28371 
   28398    28270    28016    27757    27580    27544    27664    27851 
   27996    28081    28152    28262    28422    28563    28575    28412 
   28169    28011    27992    28021    28007    27946    27922    28013 
   28151    28202    28148    28078    28054    28092    28144    28125 
   28026    27935    27918    27963    28048    28139    28192    28243 
   28333    28381    28281    28067    27874    27807    27872    28028 
   28237    28431    28524    28467    28254    27911    27557    27341 
   27351    27552    27787    27891    27866    27861    27973    28139 
   28244    28262    28228    28170    28090    27994    27935    27962 
   28035    28090    28112    28112    28094    28040    27926    27791 
   27727    27766    27855    27945    28027    28127    28269    28421 
   28467    28356    28201    28107    28050    27973    27873    27810 
   27842    27989    28208    28420    28555    28579    28507    28331 
   28017    27645    27372    27302    27463    27787    28121    28347 
   28460    28513    28512    28429    28306    28198    28085    27963 
   27911    27954    28026    28073    28112    28148    28143    28070 
   27974    27934    27959    28027    28136    28255    28316    28317 
   28302    28279    28221    28108    27976    27876    27843    27888 
   27949    27982    28043    28182    28358    28459    28409    28263 
   28134    28048    27982    27900    27769    27635    27589    27654 
   27816    28071    28367    28587    28636    28518    28317    28116 
   27954    27843    27793    27815    27899    27977    27973    27877 
   27751    27702    27784    27907    27949    27965    28117    28429 
   28760    28938    28830    28456    28046    27795    27702    27711 
   27804    27932    28043    28093    28039    27920    27811    27746 
   27795    27931    28012    28015    28046    28136    28254    28367 
   28416    28341    28186    28070    28046    28065    28067    28053 
   28058    28070    28030    27961    27928    27942    28000    28102 
   28220    28320    28351    28278    28181    28143    28165    28188 
   28148    28044    27970    28016    28139    28209    28162    28084 
   28117    28275    28418    28414    28263    28066    27905    27799 
   27737    27696    27685    27720    27780    27838    27866    27855 
   27853    27897    28009    28179    28310    28305    28220    28171 
   28193    28279    28385    28398    28262    28046    27845    27711 
   27642    27583    27548    27638    27851    28053    28181    28289 
   28445    28624    28674    28505    28215    27981    27904    27942 
   27959    27903    27842    27838    27889    27984    28111    28255 
   28393    28449    28340    28092    27866    27812    27920    28028 
   28005    27896    27808    27776    27814    27932    28061    28088 
   28008    27940    27994    28185    28409    28512    28447    28328 
   28258    28194    28040    27837    27766    27945    28263    28487 
   28445    28178    27911    27823    27911    28053    28128    28107 
   28054    28048    28096    28140    28119    28012    27873    27801 
   27845    27953    28042    28090    28156    28239    28254    28221 
   28231    28256    28237    28182    28088    27918    27708    27579 
   27619    27791    28003    28177    28247    28215    28140    28070 
   28005    27932    27862    27842    27924    28098    28285    28377 
   28317    28179    28112    28162    28250    28301    28289    28235 
   28196    28158    28039    27864    27746    27729    27789    27905 
   28032    28139    28194    28171    28113    28096    28125    28177 
   28194    28117    27976    27886    27938    28105    28266    28273 
   28075    27804    27660    27716    27897    28097    28247    28333 
   28383    28397    28347    28210    28051    27985    28035    28082 
   28005    27805    27596    27518    27643    27909    28178    28363 
   28455    28489    28478    28378    28167    27951    27853    27891 
   27990    28102    28204    28269    28281    28269    28282    28340 
   28398    28391    28282    28109    27930    27784    27716    27731 
   27783    27851    27963    28131    28279    28298    28171    27978 
   27770    27633    27687    27923    28200    28394    28468    28428 
   28283    28075    27855    27687    27652    27780    28012    28246 
   28379    28405    28409    28433    28439    28375    28200    27946 
   27765    27746    27822    27878    27837    27729    27688    27784 
   27949    28063    28078    28055    28085    28171    28243    28251 
   28189    28077    27965    27885    27803    27692    27631    27729 
   28012    28355    28557    28548    28409    28239    28115    28078 
   28090    28078    28043    28044    28097    28154    28171    28117 
   28024    27976    27988    28015    28021    27990    27947    27965 
   28055    28151    28171    28111    28070    28143    28294    28418 
   28455    28374    28150    27872    27669    27577    27631    27859 
   28138    28296    28282    28142    27982    27936    28051    28219 
   28290    28201    27988    27762    27648    27697    27885    28105 
   28232    28227    28138    27996    27808    27654    27685    27923 
   28192    28343    28386    28383    28368    28336    28248    28086 
   27932    27877    27878    27862    27841    27864    27954    28082 
   28173    28188    28159    28155    28225    28339    28412    28398 
   28335    28255    28156    28050    27946    27870    27885    27997 
   28086    28058    27957    27900    27970    28146    28318    28386 
   28352    28289    28242    28194    28127    28058    28021    28046 
   28135    28193    28111    27918    27753    27714    27793    27930 
   28051    28138    28204    28232    28188    28077    27953    27869 
   27859    27912    27959    27969    27996    28082    28151    28148 
   28116    28094    28075    28061    28078    28146    28243    28298 
   28252    28097    27888    27738    27742    27869    27988    28030 
   28035    28055    28112    28169    28148    28071    28021    27997 
   27963    27932    27947    28028    28155    28264    28308    28270 
   28182    28128    28171    28266    28317    28316    28287    28224 
   28129    28047    28012    28023    28050    28067    28054    28030 
   28040    28066    28071    28078    28080    28031    27949    27885 
   27881    27939    27993    27967    27889    27847    27901    28046 
   28186    28205    28102    27962    27857    27816    27818    27814 
   27792    27772    27766    27788    27843    27949    28101    28278 
   28433    28509    28493    28429    28363    28294    28209    28132 
   28090    28046    27967    27895    27877    27920    27988    28019 
   27992    27959    27988    28090    28237    28386    28490    28521 
   28486    28397    28273    28131    27986    27865    27789    27766 
   27807    27915    28061    28183    28244    28237    28192    28156 
   28161    28171    28161    28138    28105    28059    28021    28013 
   28013    27997    27977    28001    28082    28198    28341    28470 
   28498    28431    28347    28270    28177    28043    27873    27722 
   27652    27649    27668    27706    27756    27793    27824    27896 
   28019    28148    28252    28331    28390    28399    28310    28131 
   27900    27683    27560    27564    27676    27851    28031    28150 
   28181    28144    28085    28058    28075    28092    28082    28034 
   27953    27905    27945    28042    28123    28113    28013    27919 
