Origin Time       2025/06/03 22:18:00
Lat.              41.7
Long.             143.6
Depth. (km)       30
Mag.              5.2
Station Code      KSRH09
Station Lat.      42.9856
Station Long.     143.9841
Station Height(m) -73
Record Time       2025/06/03 22:18:58
Sampling Freq(Hz) 100Hz
Duration Time(s)  126
Dir.              3
Scale Factor      2942(gal)/8224139
Max. Acc. (gal)   0.675
Last Correction   2025/06/03 22:18:59
Memo.             
[...]
  184451   184431   184424   184411   184389   184380   184385   184391 
  184345   184248   184142   184026   183894   183790   183714   183647 
  183585   183532   183501   183482   183462   183463   183528   183662 
  183799   183894   183971   184052   184133   184222   184323   184405 
  184459   184518   184592   184643   184640   184597   184553   184504 
  184449   184414   184393   184354   184327   184346   184365   184318 
  184210   184117   184067   184036   184029   184052   184065   184063 
  184049   184023   184023   184069   184114   184148   184188   184210 
  184202   184179   184137   184088   184069   184104   184195   184314 
  184443   184582   184708   184806   184885   184947   184997   185026 
  184998   184920   184856   184813   184747   184644   184547   184495 
  184466   184416   184341   184270   184210   184162   184123   184087 
  184041   183968   183883   183799   183717   183679   183712   183739 
  183730   183722   183730   183752   183770   183784   183814   183840 
  183836   183828   183844   183853   183809   183721   183617   183504 
  183417   183382   183394   183438   183500   183564   183625   183686 
  183752   183821   183891   183969   184048   184117   184177   184222 
  184250   184273   184315   184388   184492   184612   184709   184782 
  184858   184933   184993   185022   185026   185036   185047   185020 
  184948   184856   184766   184658   184524   184403   184310   184206 
  184094   183984   183878   183825   183880   183996   184096   184158 
  184181   184148   184060   183965   183906   183872   183856   183865 
  183887   183888   183875   183872   183875   183882   183897   183897 
  183861   183821   183807   183784   183756   183798   183910   184026 
  184115   184164   184176   184184   184211   184256   184304   184365 
  184462   184558   184621   184655   184657   184644   184613   184542 
  184469   184423   184370   184297   184219   184122   184019   183942 
  183886   183837   183802   183775   183759   183770   183798   183822 
  183821   183801   183793   183791   183779   183768   183767   183767 
  183768   183790   183844   183918   184014   184126   184216   184284 
  184369   184488   184613   184708   184771   184828   184870   184870 
  184816   184729   184623   184486   184337   184218   184145   184099 
  184060   184022   183992   183968   183940   183887   183779   183631 
  183486   183370   183288   183261   183288   183330   183374   183436 
  183490   183496   183450   183357   183243   183147   183087   183064 
  183077   183109   183139   183141   183134   183149   183189   183271 
  183398   183513   183635   183820   184023   184208   184396   184566 
  184693   184806   184931   185059   185180   185292   185411   185546 
  185654   185715   185778   185862   185919   185931   185927   185922 
  185904   185868   185820   185757   185658   185534   185406   185257 
  185062   184852   184675   184522   184384   184289   184243   184223 
  184212   184206   184180   184117   184034   183944   183847   183768 
  183733   183735   183749   183763   183776   183790   183802   183814 
  183818   183807   183793   183801   183848   183929   184009   184045 
  184040   184014   183975   183941   183928   183894   183828   183772 
  183729   183656   183577   183524   183490   183460   183455   183486 
  183500   183479   183493   183551   183612   183676   183752   183814 
  183867   183937   184044   184173   184308   184449   184581   184665 
  184702   184719   184723   184705   184658   184592   184519   184426 
  184324   184260   184227   184187   184111   184002   183890   183801 
  183729   183649   183573   183535   183537   183535   183501   183458 
  183421   183389   183350   183312   183296   183315   183355   183415 
  183508   183636   183768   183874   183946   183984   183978   183937 
  183880   183822   183779   183774   183811   183892   184010   184129 
  184225   184331   184447   184540   184626   184725   184835   184940 
  185020   185049   185032   184987   184932   184866   184792   184720 
  184646   184565   184477   184377   184268   184172   184083   183975 
  183859   183745   183617   183492   183392   183315   183271   183274 
  183317   183397   183510   183651   183790   183911   184063   184242 
  184391   184516   184636   184727   184767   184778   184779   184761 
  184719   184678   184636   184592   184574   184581   184592   184615 
  184657   184665   184638   184644   184677   184689   184693   184694 
  184662   184601   184558   184551   184553   184555   184576   184588 
  184567   184545   184547   184559   184557   184547   184554   184577 
  184605   184624   184617   184570   184488   184418   184391   184381 
  184369   184364   184342   184293   184261   184253   184226   184187 
  184187   184241   184311   184365   184385   184368   184327   184279 
  184207   184104   183992   183895   183832   183782   183714   183624 
  183528   183466   183463   183492   183521   183559   183618   183716 
  183847   183980   184087   184176   184272   184364   184415   184424 
  184420   184410   184373   184322   184275   184212   184141   184104 
  184091   184048   183982   183937   183905   183859   183820   183806 
  183801   183802   183818   183838   183861   183891   183928   183967 
  183999   184036   184087   184137   184180   184221   184223   184169 
  184083   183987   183895   183818   183747   183674   183622   183610 
  183614   183595   183540   183465   183393   183330   183271   183227 
  183211   183228   183258   183289   183334   183409   183513   183635 
  183762   183884   184000   184125   184254   184358   184424   184473 
  184524   184562   184570   184555   184520   184484   184466   184441 
  184397   184356   184327   184311   184295   184261   184210   184146 
  184102   184084   184064   184042   184045   184071   184100   184125 
  184149   184173   184194   184212   184229   184243   184281   184354 
  184446   184553   184680   184802   184898   184977   185048   185103 
  185126   185106   185051   184986   184917   184835   184746   184661 
  184584   184507   184412   184296   184195   184117   184037   183948 
  183857   183774   183703   183656   183637   183644   183671   183717 
  183766   183806   183857   183921   183964   183978   183983   183988 
  183975   183949   183940   183941   183945   183942   183926   183901 
  183875   183851   183834   183838   183867   183906   183951   184005 
  184049   184091   184153   184211   184243   184276   184327   184373 
  184388   184373   184345   184311   184279   184262   184260   184249 
  184229   184222   184231   184245   184279   184345   184414   184466 
  184501   184508   184491   184469   184462   184454   184418   184373 
  184333   184277   184219   184169   184115   184057   184005   183952 
  183878   183793   183726   183674   183632   183627   183658   183698 
  183744   183803   183872   183951   184026   184083   184141   184225 
  184319   184403   184482   184558   184632   184727   184842   184950 
  185041   185124   185206   185279   185321   185311   185257   185193 
  185126   185047   184945   184843   184750   184663   184594   184554 
  184507   184426   184318   184191   184072   183988   183932   183871 
  183794   183713   183656   183645   183664   183676   183675   183676 
  183687   183706   183717   183703   183668   183620   183577   183562 
  183568   183567   183550   183544   183562   183575   183579   183583 
  183591   183601   183616   183640   183666   183689   183729   183780 
  183820   183851   183874   183878   183876   183898   183938   183975 
  183995   183992   183964   183918   183880   183868   183870   183879 
  183921   183987   184063   184156   184248   184324   184410   184497 
  184567   184623   184663   184682   184680   184661   184624   184578 
  184530   184476   184418   184357   184285   184223   184173   184113 
  184045   183975   183886   183789   183710   183649   183601   183563 
  183536   183517   183505   183498   183496   183489   183489   183509 
  183550   183598   183643   183690   183740   183791   183861   183960 
  184073   184184   184288   184388   184485   184584   184684   184767 
  184831   184885   184917   184924   184920   184920   184920   184910 
  184887   184851   184816   184782   184734   184662   184573   184468 
  184350   184241   184144   184053   183988   183957   183944   183946 
  183967   183996   184017   184014   183995   183973   183948   183930 
  183926   183930   183940   183951   183965   183991   184017   184034 
  184023   183983   183940   183903   183874   183851   183832   183826 
  183852   183906   183976   184053   184127   184187   184229   184279 
  184358   184455   184559   184671   184783   184875   184945   184998 
  185022   185013   184972   184893   184777   184643   184501   184372 
  184279   184200   184129   184088   184061   184026   184006   184003 
  184018   184067   184137   184203   184254   184300   184356   184411 
  184446   184468   184472   184453   184428   184405   184369   184316 
  184261   184215   184176   184134   184086   184023   183946   183856 
  183779   183716   183649   183593   183571   183574   183591   183628 
  183666   183693   183714   183733   183747   183737   183706   183682 
  183659   183643   183658   183691   183725   183783   183844   183876 
  183882   183886   183911   183969   184037   184084   184123   184179 
  184243   184292   184330   184377   184445   184519   184584   184650 
  184736   184827   184914   184990   185021   185002   184966   184932 
  184887   184815   184716   184619   184532   184443   184368   184307 
  184242   184184   184148   184125   184102   184088   184091   184092 
  184091   184088   184083   184092   184114   184125   184114   184099 
  184103   184125   184157   184191   184215   184245   184299   184364 
  184416   184443   184435   184392   184324   184246   184160   184059 
  183965   183899   183834   183748   183647   183540   183427   183315 
  183208   183109   183018   182937   182885   182872   182887   182927 
  183003   183108   183230   183357   183481   183593   183689   183771 
  183844   183910   183955   183967   183963   183971   184003   184049 
  184090   184126   184177   184246   184331   184424   184499   184547 
  184593   184646   184705   184769   184821   184866   184917   184978 
  185037   185083   185117   185160   185237   185328   185410   185473 
  185507   185526   185541   185534   185500   185453   185392   185314 
  185205   185064   184900   184721   184536   184351   184172   184015 
  183872   183728   183579   183433   183292   183159   183045   182952 
  182883   182829   182796   182799   182837   182899   182977   183066 
  183168   183271   183378   183506   183656   183807   183949   184084 
  184211   184331   184449   184553   184642   184717   184788   184855 
  184906   184935   184958   184986   185010   185014   184990   184939 
  184864   184785   184698   184594   184477   184356   184238   184133 
  184038   183944   183845   183735   183610   183498   183419   183373 
  183348   183338   183323   183290   183254   183227   183207   183182 
  183165   183159   183165   183190   183242   183312   183378   183431 
  183497   183585   183681   183775   183868   183957   184041   184117 
  184184   184246   184310   184369   184405   184427   184446   184450 
  184439   184424   184408   184399   184405   184427   184454   184478 
  184497   184508   184503   184495   184497   184497   184511   184551 
  184592   184630   184669   184694   184708   184723   184739   184752 
  184763   184771   184777   184769   184738   184693   184642   184576 
  184493   184407   184338   184283   184229   184189   184164   184138 
  184121   184118   184104   184079   184057   184040   184015   183990 
  183964   183932   183886   183837   183799   183755   183706   183663 
  183633   183624   183641   183675   183720   183772   183813   183830 
  183848   183882   183921   183957   183998   184048   184098   184137 
  184164   184181   184196   184230   184281   184333   184376   184415 
  184439   184443   184441   184437   184428   184411   184391   184383 
  184376   184365   184358   184350   184326   184293   184257   184215 
  184173   184157   184173   184194   184218   184260   184312   184374 
  184434   184484   184531   184578   184617   184646   184658   184653 
  184639   184617   184578   184534   184499   184465   184427   184393 
  184351   184289   184230   184188   184161   184133   184099   184065 
  184023   183982   183963   183940   183898   183856   183822   183787 
  183753   183726   183708   183691   183682   183675   183658   183643 
  183649   183674   183702   183737   183787   183848   183914   183988 
  184063   184126   184175   184226   184289   184357   184428   184486 
  184519   184540   184563   184582   184578   184554   184531   184512 
  184476   184418   184353   184289   184223   184153   184083   184005 
  183921   183847   183793   183756   183726   183706   183702   183709 
  183709   183705   183698   183681   183648   183608   183560   183500 
  183435   183382   183332   183273   183211   183159   183123   183096 
  183066   183041   183045   183081   183145   183236   183344   183455 
  183575   183714   183856   183979   184095   184226   184366   184501 
  184623   184740   184858   184972   185085   185202   185330   185471 
  185610   185724   185816   185880   185923   185965   186003   186025 
  186038   186030   185994   185943   185882   185805   185701   185583 
  185460   185332   185207   185091   184974   184846   184719   184596 
  184468   184335   184208   184084   183967   183863   183770   183675 
  183593   183521   183450   183385   183330   183280   183246   183232 
  183230   183228   183228   183228   183231   183239   183243   183250 
  183271   183298   183327   183352   183374   183397   183416   183417 
  183408   183408   183425   183460   183513   183579   183651   183729 
  183811   183883   183942   183995   184048   184104   184172   184253 
  184342   184428   184518   184597   184658   184702   184735   184763 
  184786   184804   184823   184827   184798   184748   184678   184590 
  184496   184393   184289   184203   184133   184059   183975   183888 
  183816   183766   183733   183709   183689   183672   183659   183644 
  183628   183610   183598   183583   183554   183525   183505   183490 
  183481   183474   183474   183483   183502   183532   183574   183627 
  183672   183713   183762   183821   183883   183951   184027   184100 
  184165   184219   184258   184292   184329   184372   184411   184428 
  184431   184431   184423   184404   184378   184353   184322   184281 
  184230   184167   184098   184034   183984   183940   183899   183875 
  183868   183872   183875   183876   183887   183921   183980   184053 
  184131   184215   184304   184392   184468   184531   184593   184666 
  184744   184823   184901   184967   185009   185035   185048   185043 
  185022   184999   184978   184958   184937   184910   184873   184828 
  184781   184732   184674   184608   184532   184442   184334   184221 
  184122   184032   183940   183844   183751   183670   183595   183520 
  183456   183415   183396   183402   183417   183439   183481   183536 
  183597   183667   183745   183821   183894   183975   184071   184169 
  184264   184354   184445   184531   184611   184682   184750   184816 
  184870   184902   184920   184921   184908   184893   184870   184843 
  184820   184792   184758   184740   184732   184708   184658   184600 
  184550   184504   184462   184426   184380   184324   184275   184230 
  184183   184134   184095   184076   184067   184057   184044   184032 
  184027   184027   184038   184057   184065   184063   184045   184006 
  183949   183883   183803   183712   183621   183550   183489   183428 
  183382   183366   183358   183348   183342   183335   183340   183374 
  183421   183456   183478   183510   183541   183555   183563   183573 
  183577   183575   183581   183598   183620   183631   183636   183643 
  183655   183675   183699   183725   183759   183802   183857   183922 
  183980   184030   184081   184125   184156   184191   184231   184266 
  184297   184337   184381   184428   184473   184515   184557   184600 
  184640   184681   184719   184750   184771   184785   184792   184801 
  184816   184831   184839   184836   184823   184804   184781   184751 
  184725   184705   184684   184653   184615   184573   184526   184470 
  184415   184365   184314   184265   184239   184243   184260   184276 
  184287   184288   184288   184292   184289   184275   184256   184234 
  184208   184176   184129   184069   184015   183965   183913   183863 
  183817   183776   183744   183714   183693   183691   183699   183712 
  183725   183732   183737   183757   183799   183847   183890   183937 
  183991   184044   184087   184121   184146   184161   184173   184202 
  184234   184254   184260   184253   184245   184239   184234   184230 
  184219   184200   184188   184187   184196   184221   184254   184293 
  184337   184376   184410   184435   184451   184470   184497   184516 
  184524   184519   184503   184491   184473   184439   184400   184361 
  184323   184292   184253   184204   184157   184110   184057   183996 
  183932   183876   183841   183826   183818   183807   183798   183794 
  183793   183783   183766   183744   183726   183714   183713   183725 
  183737   183743   183755   183776   183793   183794   183779   183749 
  183721   183701   183681   183659   183652   183670   183708   183748 
  183779   183811   183848   183887   183928   183964   184000   184050 
  184113   184180   184243   184295   184339   184385   184419   184437 
  184447   184443   184432   184423   184411   184391   184364   184329 
  184292   184254   184225   184207   184196   184194   184200   184203 
  184196   184187   184185   184196   184208   184216   184223   184226 
  184230   184245   184269   184300   184341   184380   184414   184446 
  184476   184495   184497   184497   184495   184486   184485   184484 
  184474   184459   184446   184435   184430   184430   184435   184437 
  184426   184418   184427   184445   184462   184470   184474   184484 
  184500   184523   184543   184539   184522   184511   184500   184476 
  184445   184410   184361   184306   184246   184179   184107   184036 
  183969   183910   183852   183791   183737   183681   183620   183573 
  183540   183510   183482   183455   183438   183435   183444   183463 
  183481   183490   183498   183516   183540   183563   183587   183613 
  183635   183663   183703   183747   183787   183826   183867   183917 
  183980   184053   184126   184202   184279   184358   184438   184507 
  184563   184621   184684   184740   184792   184836   184862   184864 
  184852   184827   184789   184744   184698   184654   184609   184565 
  184522   184481   184446   184415   184384   184356   184324   184302 
  184291   184281   184281   184306   184339   184357   184361   184353 
  184323   184279   184238   184196   184156   184129   184108   184080 
  184053   184030   183996   183948   183895   183841   183786   183736 
  183698   183667   183647   183636   183624   183598   183570   183555 
  183552   183558   183573   183597   183632   183681   183751   183836 
