Origin Time       2025/06/03 22:18:00
Lat.              41.7
Long.             143.6
Depth. (km)       30
Mag.              5.2
Station Code      KSRH09
Station Lat.      42.9856
Station Long.     143.9841
Station Height(m) -73
Record Time       2025/06/03 22:18:58
Sampling Freq(Hz) 100Hz
Duration Time(s)  126
Dir.              1
Scale Factor      2942(gal)/8224139
Max. Acc. (gal)   0.641
Last Correction   2025/06/03 22:18:59
Memo.             
[...]
  160898   161028   161094   161129   161196   161308   161424   161503 
  161549   161599   161657   161684   161658   161597   161532   161492 
  161491   161515   161549   161590   161623   161623   161613   161642 
  161732   161854   161956   162032   162116   162225   162352   162453 
  162471   162396   162272   162124   161962   161801   161654   161530 
  161403   161231   161030   160857   160736   160655   160570   160465 
  160415   160478   160620   160779   160924   161069   161268   161493 
  161646   161673   161635   161631   161689   161750   161766   161747 
  161716   161681   161616   161496   161335   161168   161023   160933 
  160917   160955   160987   160953   160859   160759   160694   160675 
  160690   160717   160752   160812   160905   161005   161075   161096 
  161079   161042   161021   161036   161090   161183   161306   161427 
  161528   161615   161690   161746   161786   161817   161819   161784 
  161707   161609   161536   161487   161418   161311   161180   161080 
  161050   161042   160999   160947   160971   161110   161310   161476 
  161554   161570   161577   161574   161542   161496   161480   161546 
  161696   161874   162021   162116   162145   162090   161966   161813 
  161649   161468   161279   161075   160870   160709   160605   160531 
  160465   160416   160400   160412   160429   160455   160528   160663 
  160833   160978   161056   161082   161094   161100   161100   161087 
  161067   161063   161100   161179   161265   161322   161322   161246 
  161134   161056   161025   161002   160959   160886   160805   160759 
  160779   160868   160995   161121   161238   161361   161495   161682 
  161932   162194   162423   162614   162762   162870   162939   162950 
  162893   162789   162673   162558   162425   162271   162129   162033 
  161973   161908   161847   161827   161832   161806   161724   161617 
  161541   161511   161496   161472   161466   161508   161570   161586 
  161519   161415   161343   161300   161229   161095   160937   160832 
  160786   160747   160698   160660   160648   160660   160675   160682 
  160708   160780   160909   161042   161129   161171   161212   161276 
  161350   161410   161441   161447   161457   161492   161528   161558 
  161604   161669   161719   161713   161611   161442   161288   161198 
  161154   161115   161055   160990   160933   160866   160778   160679 
  160596   160569   160606   160667   160729   160806   160921   161075 
  161241   161383   161482   161528   161511   161437   161346   161306 
  161342   161415   161477   161508   161501   161484   161462   161422 
  161395   161420   161499   161617   161739   161831   161916   162027 
  162144   162222   162282   162391   162540   162643   162658   162603 
  162530   162484   162440   162353   162228   162105   162032   162008 
  161981   161916   161825   161730   161649   161574   161468   161315 
  161134   160955   160787   160644   160532   160454   160411   160400 
  160408   160427   160442   160467   160537   160633   160704   160736 
  160748   160779   160870   160996   161090   161114   161086   161060 
  161086   161153   161212   161252   161299   161389   161523   161649 
  161709   161696   161658   161639   161616   161545   161434   161342 
  161325   161380   161434   161408   161311   161225   161199   161196 
  161165   161113   161102   161164   161272   161384   161477   161549 
  161622   161685   161701   161689   161715   161804   161913   161987 
  162009   162012   162035   162076   162112   162141   162175   162206 
  162222   162234   162270   162313   162294   162166   161987   161869 
  161829   161771   161612   161393   161219   161118   161023   160851 
  160628   160475   160451   160485   160473   160380   160238   160101 
  159983   159864   159746   159660   159619   159615   159642   159726 
  159871   160033   160146   160189   160228   160321   160469   160624 
  160739   160832   160959   161118   161276   161406   161501   161605 
  161739   161855   161917   161939   161963   162029   162128   162186 
  162135   162022   161940   161889   161825   161727   161597   161493 
  161454   161430   161361   161273   161219   161199   161157   161044 
  160907   160856   160926   161057   161148   161153   161137   161176 
  161257   161337   161411   161499   161599   161693   161774   161858 
  161952   162051   162135   162172   162167   162122   162014   161842 
  161673   161586   161595   161644   161661   161612   161536   161489 
  161466   161433   161383   161346   161362   161437   161539   161619 
  161673   161734   161784   161789   161763   161755   161784   161833 
  161848   161793   161731   161725   161739   161712   161623   161496 
  161383   161304   161218   161075   160882   160710   160624   160606 
  160596   160573   160554   160543   160544   160539   160508   160493 
  160550   160681   160848   160991   161090   161181   161303   161435 
  161553   161682   161833   161954   162010   162024   162063   162172 
  162309   162407   162467   162515   162573   162615   162579   162483 
  162410   162390   162375   162317   162234   162170   162120   162020 
  161836   161613   161414   161260   161138   161048   161003   161001 
  161026   161060   161100   161167   161248   161276   161215   161098 
  160986   160926   160921   160926   160922   160922   160893   160791 
  160648   160532   160465   160415   160348   160286   160280   160346 
  160429   160469   160470   160473   160502   160543   160574   160621 
  160714   160837   160948   161034   161121   161234   161383   161516 
  161590   161634   161703   161809   161931   162039   162116   162162 
  162180   162151   162070   161979   161906   161863   161842   161802 
  161738   161671   161619   161586   161581   161595   161616   161622 
  161601   161569   161542   161545   161573   161590   161615   161674 
  161771   161901   162036   162151   162237   162291   162301   162263 
  162180   162064   161916   161744   161584   161461   161383   161318 
  161241   161181   161168   161168   161134   161060   160991   160988 
  161052   161115   161122   161086   161067   161090   161129   161157 
  161167   161176   161210   161261   161298   161304   161281   161233 
  161172   161110   161028   160915   160803   160733   160725   160752 
  160753   160704   160651   160643   160668   160697   160708   160704 
  160701   160712   160732   160766   160817   160886   160974   161052 
  161090   161073   161005   160933   160894   160886   160898   160933 
  160991   161080   161188   161281   161334   161346   161342   161345 
  161370   161430   161509   161590   161661   161720   161796   161885 
  161951   161971   161944   161898   161856   161809   161755   161720 
  161719   161747   161750   161694   161623   161568   161515   161443 
  161352   161271   161234   161239   161260   161281   161303   161315 
  161310   161295   161293   161323   161366   161385   161399   161449 
  161519   161558   161554   161546   161581   161644   161670   161624 
  161554   161524   161536   161549   161541   161539   161577   161619 
  161600   161524   161473   161500   161563   161582   161541   161487 
  161465   161473   161478   161474   161482   161509   161532   161530 
  161511   161518   161569   161647   161734   161832   161950   162067 
  162153   162201   162221   162234   162272   162318   162326   162299 
  162274   162243   162172   162045   161889   161755   161681   161631 
  161545   161408   161246   161092   160988   160938   160899   160857 
  160839   160867   160942   161017   161053   161059   161040   161021 
  161041   161098   161171   161265   161368   161451   161504   161512 
  161466   161393   161326   161279   161248   161221   161177   161141 
  161141   161160   161171   161173   161172   161164   161136   161063 
  160967   160894   160870   160878   160894   160917   160956   161006 
  161049   161059   161010   160910   160812   160759   160760   160805 
  160857   160884   160890   160884   160852   160787   160718   160682 
  160704   160759   160817   160874   160933   160994   161068   161144 
  161199   161234   161250   161234   161195   161165   161156   161156 
  161144   161111   161071   161029   160987   160934   160868   160820 
  160803   160825   160891   160986   161092   161207   161314   161407 
  161504   161619   161738   161823   161875   161917   161978   162058 
  162133   162193   162236   162264   162287   162310   162329   162344 
  162361   162382   162405   162429   162450   162471   162498   162507 
  162484   162446   162405   162367   162326   162257   162141   162001 
  161869   161735   161566   161361   161138   160933   160772   160625 
  160466   160340   160293   160312   160347   160359   160361   160390 
  160455   160509   160524   160539   160610   160740   160876   160975 
  161053   161152   161258   161329   161354   161376   161415   161451 
  161445   161376   161298   161289   161339   161369   161347   161295 
  161252   161235   161231   161222   161219   161234   161265   161302 
  161338   161370   161399   161393   161339   161268   161214   161204 
  161248   161325   161393   161439   161481   161531   161578   161617 
  161655   161716   161813   161921   162010   162068   162108   162145 
  162174   162178   162167   162155   162135   162103   162056   161993 
  161944   161923   161897   161835   161744   161655   161601   161586 
  161558   161485   161388   161299   161229   161138   161009   160887 
  160818   160798   160786   160752   160697   160633   160560   160479 
  160402   160346   160324   160323   160327   160353   160415   160524 
  160670   160829   160983   161122   161237   161323   161387   161446 
  161516   161565   161572   161550   161507   161462   161439   161415 
  161360   161291   161249   161266   161333   161408   161480   161554 
  161642   161742   161828   161866   161852   161820   161796   161763 
  161703   161632   161589   161573   161539   161455   161331   161188 
  161061   160971   160906   160857   160824   160794   160771   160771 
  160805   160871   160945   160998   161030   161077   161152   161222 
  161273   161337   161434   161534   161599   161612   161592   161581 
  161599   161627   161644   161650   161669   161700   161696   161638 
  161558   161489   161424   161357   161285   161234   161242   161318 
  161426   161522   161609   161701   161771   161802   161797   161761 
  161719   161698   161698   161686   161644   161588   161523   161453 
  161385   161315   161245   161190   161138   161082   161028   160968 
  160894   160820   160758   160721   160716   160740   160794   160870 
  160955   161044   161146   161252   161339   161401   161450   161495 
  161545   161607   161671   161728   161784   161844   161883   161892 
  161893   161908   161925   161932   161914   161885   161885   161917 
  161931   161904   161838   161775   161774   161817   161848   161856 
  161866   161889   161920   161935   161910   161874   161856   161848 
  161828   161797   161778   161789   161816   161835   161842   161860 
  161901   161933   161923   161852   161754   161680   161657   161644 
  161608   161573   161565   161568   161547   161478   161381   161303 
  161248   161179   161065   160921   160783   160671   160585   160492 
  160374   160258   160161   160080   160035   160031   160053   160088 
  160120   160137   160154   160185   160209   160223   160243   160277 
  160335   160413   160483   160550   160623   160690   160739   160770 
  160799   160844   160909   160980   161049   161113   161163   161210 
  161273   161353   161442   161527   161593   161662   161762   161871 
  161975   162075   162171   162276   162399   162525   162622   162685 
  162729   162757   162773   162766   162726   162657   162564   162452 
  162326   162195   162067   161935   161804   161689   161576   161461 
  161353   161268   161233   161235   161233   161207   161179   161161 
  161157   161145   161109   161060   161033   161044   161083   161127 
  161160   161190   161217   161230   161238   161248   161262   161296 
  161347   161410   161464   161514   161574   161622   161639   161636 
  161626   161624   161631   161611   161554   161488   161447   161438 
  161434   161415   161383   161357   161356   161364   161354   161323 
  161291   161299   161337   161356   161343   161319   161299   161291 
  161276   161242   161218   161223   161248   161265   161257   161226 
  161179   161126   161063   160994   160937   160903   160879   160839 
  160770   160704   160659   160633   160623   160632   160668   160724 
  160778   160822   160874   160941   161014   161082   161137   161185 
  161242   161299   161339   161362   161366   161356   161352   161338 
  161306   161272   161244   161227   161225   161226   161233   161248 
  161273   161303   161323   161338   161347   161333   161302   161268 
  161233   161207   161200   161210   161237   161285   161346   161392 
  161418   161451   161500   161546   161585   161616   161631   161632 
  161616   161588   161559   161539   161534   161536   161547   161573 
  161597   161599   161577   161547   161545   161566   161576   161550 
  161491   161423   161376   161343   161303   161260   161226   161215 
  161217   161208   161188   161153   161119   161113   161117   161106 
  161090   161091   161117   161177   161260   161337   161431   161572 
  161727   161867   162001   162132   162265   162407   162537   162639 
  162739   162858   162994   163105   163159   163159   163121   163057 
  162985   162909   162812   162704   162598   162483   162369   162251 
  162120   161994   161882   161778   161673   161551   161415   161280 
  161154   161030   160903   160786   160699   160644   160593   160527 
  160447   160371   160336   160350   160381   160402   160416   160419 
  160412   160421   160454   160494   160520   160510   160473   160446 
  160450   160474   160494   160501   160524   160596   160698   160794 
  160868   160936   161028   161156   161287   161396   161492   161582 
  161665   161727   161752   161746   161730   161703   161649   161572 
  161499   161443   161392   161320   161241   161181   161134   161082 
  161006   160907   160824   160774   160733   160705   160697   160709 
  160739   160790   160864   160949   161044   161149   161260   161372 
  161481   161577   161639   161680   161724   161769   161806   161827 
  161806   161755   161698   161640   161593   161558   161543   161553 
  161578   161619   161677   161719   161728   161734   161738   161725 
  161719   161723   161719   161703   161689   161686   161686   161680 
  161653   161609   161576   161559   161545   161515   161465   161412 
  161385   161372   161339   161275   161188   161103   161013   160899 
  160772   160664   160602   160575   160539   160473   160401   160348 
  160315   160280   160238   160199   160178   160188   160215   160245 
  160290   160347   160407   160475   160566   160689   160817   160921 
  161021   161138   161276   161415   161526   161617   161707   161777 
  161802   161798   161801   161824   161840   161832   161815   161815 
  161840   161865   161852   161815   161794   161805   161825   161831 
  161821   161815   161828   161840   161815   161755   161709   161694 
  161692   161681   161659   161643   161647   161669   161688   161693 
  161698   161698   161671   161630   161597   161597   161627   161657 
  161658   161640   161640   161677   161721   161736   161730   161743 
  161788   161842   161874   161879   161894   161943   162002   162039 
  162045   162048   162066   162101   162126   162137   162148   162175 
  162211   162237   162233   162213   162197   162178   162147   162095 
  162027   161954   161879   161797   161712   161624   161528   161424 
  161318   161207   161083   160947   160803   160662   160533   160424 
  160326   160231   160142   160064   160003   159960   159934   159930 
  159952   159991   160047   160127   160205   160286   160382   160482 
  160589   160709   160830   160948   161067   161183   161302   161424 
  161531   161609   161671   161720   161761   161802   161838   161870 
  161928   161998   162039   162036   162013   161994   161979   161952 
  161904   161856   161835   161836   161827   161784   161716   161655 
  161603   161534   161434   161312   161202   161104   160988   160859 
  160749   160671   160613   160564   160525   160506   160519   160558 
  160605   160636   160677   160759   160866   160971   161075   161164 
  161253   161356   161454   161538   161626   161719   161804   161882 
  161952   162000   162020   162012   161986   161958   161919   161851 
  161767   161688   161612   161545   161488   161428   161364   161308 
  161266   161237   161215   161199   161180   161157   161138   161137 
  161154   161167   161152   161123   161103   161094   161087   161069 
  161041   161026   161059   161125   161187   161234   161276   161314 
  161349   161379   161403   161428   161454   161472   161478   161476 
  161472   161482   161503   161514   161526   161559   161605   161658 
  161712   161765   161824   161886   161928   161956   161990   162037 
  162086   162114   162117   162103   162090   162090   162094   162087 
  162066   162032   161978   161894   161809   161739   161661   161554 
  161439   161346   161276   161211   161146   161087   161046   161038 
  161045   161033   160999   160974   160976   160986   160988   160987 
  160986   161003   161036   161053   161060   161073   161077   161067 
  161049   161019   160995   161002   161021   161041   161065   161077 
  161071   161048   161011   160974   160956   160945   160926   160905 
  160893   160891   160891   160868   160826   160783   160743   160705 
  160670   160643   160640   160652   160651   160650   160672   160724 
  160791   160845   160860   160852   160860   160902   160968   161026 
  161077   161149   161239   161326   161400   161473   161558   161661 
  161769   161859   161927   161982   162031   162075   162114   162140 
  162153   162166   162166   162148   162133   162121   162097   162058 
  162008   161954   161906   161862   161812   161752   161694   161646 
  161596   161549   161523   161531   161547   161549   161535   161520 
  161524   161563   161622   161677   161734   161798   161862   161914 
  161951   161986   162036   162090   162118   162118   162117   162112 
  162083   162043   161997   161951   161917   161879   161809   161723 
  161653   161593   161531   161474   161424   161379   161350   161330 
  161302   161283   161281   161289   161300   161302   161302   161314 
  161330   161342   161347   161349   161357   161362   161356   161335 
  161311   161300   161292   161265   161217   161150   161083   161028 
  160957   160863   160772   160713   160685   160668   160651   160633 
  160631   160648   160677   160704   160733   160776   160828   160870 
  160902   160932   160968   161014   161042   161045   161033   161021 
  161013   161011   161014   161018   161030   161056   161083   161092 
  161076   161037   160988   160944   160921   160921   160936   160952 
  160952   160948   160951   160957   160964   160972   160983   161006 
  161045   161098   161156   161200   161233   161273   161331   161397 
  161453   161478   161478   161482   161508   161550   161588   161608 
