Origin Time       2025/06/03 22:18:00
Lat.              41.7
Long.             143.6
Depth. (km)       30
Mag.              5.2
Station Code      KSRH06
Station Lat.      43.2200
Station Long.     144.4285
Station Height(m) -207
Record Time       2025/06/03 22:19:13
Sampling Freq(Hz) 100Hz
Duration Time(s)  120
Dir.              2
Scale Factor      2942(gal)/8224139
Max. Acc. (gal)   0.235
Last Correction   2025/06/03 22:19:14
Memo.             
[...]
  207315   207235   207162   207162   207246   207334   207339   207285 
  207266   207284   207264   207200   207142   207112   207142   207257 
  207422   207558   207578   207482   207366   207296   207237   207141 
  207056   207041   207092   207200   207358   207497   207539   207517 
  207501   207500   207493   207482   207508   207588   207621   207512 
  207331   207226   207208   207188   207138   207108   207171   207306 
  207408   207431   207404   207346   207273   207229   207258   207373 
  207500   207578   207619   207594   207459   207297   207241   207307 
  207436   207565   207605   207530   207426   207360   207287   207184 
  207121   207139   207180   207191   207214   207284   207368   207415 
  207411   207378   207368   207407   207493   207574   207565   207482 
  207426   207404   207387   207376   207338   207260   207157   207054 
  207025   207075   207141   207184   207169   207125   207127   207169 
  207202   207195   207150   207122   207122   207164   207301   207499 
  207620   207601   207485   207380   207342   207354   207427   207522 
  207549   207538   207547   207517   207404   207260   207172   207165 
  207189   207230   207306   207396   207462   207470   207385   207252 
  207189   207226   207276   207300   207326   207360   207384   207423 
  207503   207549   207490   207393   207366   207422   207481   207481 
  207442   207404   207337   207230   207130   207031   206930   206918 
  207034   207204   207346   207461   207574   207647   207616   207459 
  207252   207137   207168   207280   207424   207531   207554   207565 
  207603   207582   207477   207331   207189   207126   207150   207184 
  207222   207289   207357   207407   207412   207327   207210   207154 
  207161   207206   207291   207354   207312   207210   207175   207238 
  207324   207396   207459   207470   207373   207226   207148   207158 
  207218   207292   207337   207346   207360   207382   207389   207341 
  207262   207257   207308   207333   207342   207355   207365   207385 
  207368   207289   207239   207266   207350   207470   207576   207600 
  207549   207480   207399   207293   207230   207256   207319   207350 
  207350   207354   207347   207326   207346   207397   207450   207536 
  207628   207671   207671   207604   207462   207300   207164   207075 
  207085   207252   207496   207657   207698   207690   207628   207497 
  207360   207283   207276   207330   207395   207436   207497   207569 
  207561   207480   207381   207253   207131   207104   207166   207245 
  207299   207326   207337   207333   207296   207229   207133   207023 
  206948   206967   207064   207144   207137   207084   207056   207052 
  207071   207153   207289   207411   207497   207550   207543   207496 
  207473   207480   207447   207362   207327   207415   207543   207632 
  207684   207686   207616   207513   207486   207581   207709   207789 
  207808   207756   207608   207389   207180   207030   206915   206817 
  206748   206744   206834   206998   207166   207276   207312   207276 
  207210   207208   207297   207372   207381   207409   207468   207473 
  207420   207372   207358   207397   207470   207523   207536   207517 
  207474   207430   207397   207364   207361   207431   207547   207654 
  207739   207800   207823   207789   207702   207585   207488   207470 
  207523   207553   207496   207405   207369   207360   207292   207187 
  207099   207065   207111   207212   207303   207318   207258   207188 
  207135   207071   206988   206914   206875   206878   206905   206957 
  207048   207152   207219   207235   207247   207283   207303   207307 
  207345   207416   207490   207540   207528   207466   207412   207387 
  207396   207447   207522   207597   207632   207570   207455   207377 
  207349   207326   207257   207162   207126   207166   207220   207247 
  207238   207171   207085   207048   207023   206982   206988   207087 
  207245   207408   207561   207706   207802   207814   207763   207689 
  207643   207639   207650   207658   207658   207646   207644   207644 
  207562   207403   207280   207235   207238   207260   207280   207314 
  207395   207463   207438   207351   207304   207287   207229   207149 
  207103   207068   207021   207007   207056   207138   207234   207301 
  207323   207328   207322   207304   207280   207230   207181   207164 
  207148   207139   207168   207219   207253   207247   207269   207405 
  207603   207738   207798   207800   207706   207504   207243   207042 
  206967   206973   207023   207117   207230   207342   207446   207497 
  207499   207511   207528   207549   207611   207669   207640   207507 
  207310   207161   207102   207057   207004   206977   206971   206979 
  207015   207125   207315   207481   207528   207509   207509   207562 
  207627   207646   207636   207623   207585   207527   207485   207484 
  207495   207461   207414   207430   207482   207519   207555   207578 
  207539   207459   207396   207368   207335   207277   207235   207229 
  207225   207198   207127   207027   206984   207022   207085   207139 
  207177   207189   207176   207157   207173   207233   207283   207297 
  207281   207238   207192   207179   207223   207318   207393   207373 
  207297   207283   207358   207473   207563   207585   207566   207562 
  207553   207504   207450   207409   207358   207334   207384   207473 
  207538   207577   207625   207658   207636   207605   207605   207613 
  207605   207586   207569   207547   207511   207466   207414   207341 
  207254   207161   207054   206992   207048   207175   207291   207366 
  207355   207239   207104   207021   206995   207048   207195   207372 
  207473   207490   207504   207512   207454   207361   207277   207214 
  207191   207210   207249   207311   207392   207457   207493   207492 
  207428   207315   207233   207239   207303   207368   207423   207468 
  207495   207512   207496   207400   207260   207149   207080   207029 
  206994   206963   206948   206977   207025   207052   207063   207064 
  207080   207131   207212   207333   207488   207608   207647   207636 
  207634   207642   207625   207592   207574   207573   207581   207576 
  207538   207485   207434   207351   207212   207090   207096   207202 
  207262   207260   207258   207277   207351   207481   207536   207438 
  207316   207291   207308   207327   207401   207511   207555   207497 
  207403   207350   207308   207235   207193   207193   207164   207137 
  207153   207126   207022   206936   206910   206915   206953   207037 
  207148   207284   207424   207509   207540   207580   207631   207644 
  207582   207477   207408   207422   207495   207558   207550   207454 
  207288   207131   207081   207122   207162   207153   207111   207088 
  207103   207157   207250   207320   207320   207277   207204   207131 
  207121   207172   207239   207308   207374   207407   207408   207412 
  207408   207349   207258   207229   207264   207307   207343   207374 
  207409   207454   207497   207535   207551   207539   207528   207516 
  207492   207485   207488   207480   207495   207543   207592   207617 
  207619   207604   207574   207478   207327   207239   207260   207328 
  207382   207382   207315   207203   207081   206990   206960   207025 
  207168   207327   207442   207484   207474   207458   207435   207401 
  207399   207415   207391   207347   207347   207377   207407   207420 
  207419   207404   207366   207333   207343   207380   207397   207358 
  207285   207243   207245   207241   207218   207219   207258   207293 
  207300   207326   207393   207459   207484   207489   207500   207496 
  207453   207378   207279   207187   207168   207231   207311   207333 
  207260   207150   207127   207212   207315   207397   207480   207531 
  207513   207461   207447   207466   207469   207450   207412   207358 
  207315   207266   207216   207216   207249   207265   207258   207234 
  207207   207207   207257   207353   207431   207442   207427   207441 
  207473   207472   207418   207378   207366   207308   207210   207139 
  207111   207123   207188   207300   207443   207573   207623   207578 
  207465   207355   207316   207303   207258   207211   207181   207131 
  207106   207173   207308   207441   207503   207443   207322   207268 
  207324   207435   207542   207613   207619   207589   207588   207603 
  207570   207465   207301   207150   207118   207215   207349   207461 
  207530   207520   207427   207338   207322   207319   207265   207203 
  207204   207272   207343   207370   207378   207381   207337   207265 
  207235   207272   207341   207423   207524   207625   207657   207620 
  207581   207540   207450   207308   207179   207139   207180   207226 
  207249   207266   207292   207315   207308   207273   207281   207370 
  207461   207463   207427   207438   207458   207431   207400   207381 
  207331   207283   207295   207346   207385   207385   207364   207349 
  207354   207362   207320   207216   207111   207087   207133   207165 
  207154   207135   207121   207096   207063   207065   207127   207196 
  207247   207318   207400   207451   207473   207504   207551   207561 
  207531   207515   207527   207536   207503   207404   207288   207220 
  207214   207272   207380   207468   207476   207424   207354   207299 
  207284   207319   207372   207414   207463   207524   207530   207461 
  207392   207361   207330   207311   207338   207382   207414   207434 
  207412   207328   207239   207189   207156   207137   207189   207306 
  207414   207476   207493   207496   207520   207542   207531   207513 
  207516   207539   207557   207551   207522   207469   207407   207369 
  207365   207342   207266   207180   207126   207091   207077   207108 
  207156   207185   207176   207117   207057   207064   207108   207130 
  207134   207176   207274   207389   207442   207407   207319   207219 
  207142   207114   207129   207180   207261   207318   207334   207362 
  207414   207457   207489   207512   207516   207504   207488   207481 
  207503   207540   207553   207508   207399   207257   207142   207100 
  207131   207172   207180   207179   207175   207191   207249   207284 
  207241   207164   207083   207018   207017   207100   207254   207399 
  207468   207509   207578   207647   207705   207738   207711   207642 
  207570   207536   207563   207604   207621   207638   207628   207566 
  207477   207401   207351   207314   207262   207223   207261   207357 
  207447   207489   207477   207426   207324   207164   207026   206976 
  206979   206965   206922   206902   206934   207000   207072   207125 
  207149   207176   207223   207288   207354   207405   207470   207570 
  207651   207650   207574   207490   207465   207469   207439   207397 
  207412   207495   207608   207709   207767   207747   207636   207504 
  207422   207364   207297   207252   207243   207250   207218   207129 
  207044   206977   206925   206940   207040   207168   207272   207341 
  207361   207330   207281   207253   207272   207319   207354   207384 
  207432   207476   207488   207490   207488   207453   207405   207405 
  207447   207482   207504   207526   207553   207576   207569   207535 
  207511   207496   207477   207453   207427   207408   207396   207381 
  207355   207316   207272   207227   207189   207183   207199   207207 
  207200   207196   207200   207200   207185   207196   207245   207288 
  207324   207391   207472   207524   207550   207582   207616   207632 
  207635   207630   207598   207527   207415   207293   207183   207102 
  207095   207164   207220   207198   207122   207053   207036   207081 
  207152   207202   207247   207338   207481   207581   207565   207490 
  207462   207488   207485   207427   207376   207335   207265   207200 
  207173   207171   207192   207220   207243   207272   207307   207320 
  207306   207281   207276   207299   207358   207426   207455   207447 
  207431   207396   207324   207266   207265   207295   207319   207320 
  207300   207276   207269   207280   207303   207328   207339   207346 
  207347   207315   207258   207222   207229   207273   207324   207353 
  207365   207373   207382   207387   207378   207374   207381   207381 
  207362   207320   207265   207208   207150   207103   207092   207107 
  207126   207146   207172   207187   207192   207208   207266   207347 
  207385   207365   207319   207274   207231   207189   207169   207192 
  207242   207285   207316   207354   207393   207399   207366   207331 
  207299   207249   207223   207249   207280   207284   207262   207246 
  207288   207382   207482   207554   207597   207640   207682   207704 
  207731   207770   207755   207673   207589   207531   207462   207374 
  207334   207364   207377   207330   207295   207308   207334   207331 
  207315   207322   207351   207391   207439   207489   207515   207527 
  207546   207549   207544   207565   207592   207605   207611   207624 
  207644   207630   207574   207538   207539   207536   207508   207466 
  207396   207295   207195   207112   207045   206982   206910   206841 
  206810   206821   206838   206832   206803   206775   206775   206807 
  206867   206950   207050   207162   207262   207312   207319   207314 
  207306   207289   207284   207301   207310   207301   207304   207308 
  207287   207265   207269   207284   207284   207253   207198   207156 
  207139   207145   207179   207233   207270   207269   207254   207246 
  207253   207306   207395   207474   207528   207576   207643   207731 
  207810   207866   207908   207941   207974   208001   207993   207962 
  207944   207928   207908   207910   207936   207944   207925   207891 
  207835   207754   207673   207625   207636   207693   207744   207756 
  207736   207686   207603   207503   207416   207345   207297   207296 
  207327   207347   207320   207254   207177   207107   207064   207044 
  207023   207009   207027   207084   207153   207210   207257   207296 
  207315   207310   207304   207304   207314   207341   207350   207315 
  207256   207189   207108   207031   206986   206967   206961   206953 
  206930   206895   206833   206771   206772   206833   206902   206972 
  207041   207096   207164   207252   207315   207316   207262   207198 
  207160   207139   207125   207126   207144   207172   207211   207247 
  207272   207274   207264   207276   207304   207326   207360   207414 
  207459   207496   207534   207573   207623   207689   207739   207743 
  207720   207704   207704   207709   207698   207661   207590   207507 
  207472   207530   207644   207731   207760   207770   207774   207742 
  207689   207657   207655   207663   207652   207616   207584   207577 
  207571   207524   207441   207360   207291   207233   207211   207241 
  207268   207238   207173   207125   207077   207009   206940   206917 
  206977   207103   207218   207292   207351   207404   207445   207474 
  207500   207526   207530   207492   207441   207401   207350   207272 
  207180   207090   207018   206969   206950   206964   206987   207004 
  207027   207063   207085   207069   207038   207021   207000   206969 
  206961   206996   207052   207103   207133   207152   207188   207250 
  207308   207343   207366   207392   207405   207411   207423   207424 
  207405   207391   207399   207419   207434   207434   207424   207418 
  207407   207401   207419   207447   207441   207388   207335   207322 
  207361   207439   207512   207558   207600   207642   207661   207652 
  207631   207608   207582   207553   207519   207474   207434   207403 
  207369   207324   207272   207237   207231   207242   207250   207245 
  207229   207216   207220   207239   207273   207310   207314   207287 
  207283   207307   207331   207358   207388   207418   207461   207512 
  207544   207524   207472   207424   207378   207331   207306   207310 
  207328   207319   207250   207150   207077   207065   207091   207103 
  207099   207114   207162   207219   207253   207257   207241   207206 
  207172   207157   207145   207130   207139   207171   207187   207173 
  207156   207152   207150   207148   207177   207234   207272   207285 
  207277   207243   207215   207211   207218   207229   207234   207231 
  207247   207264   207252   207241   207250   207266   207296   207341 
  207374   207385   207377   207382   207416   207431   207407   207374 
  207347   207307   207262   207241   207241   207242   207256   207295 
  207339   207362   207357   207324   207284   207260   207254   207266 
  207288   207323   207384   207457   207504   207512   207496   207485 
  207490   207522   207576   207639   207700   207738   207744   207743 
  207735   207704   207657   207613   207580   207531   207474   207442 
  207441   207454   207470   207480   207470   207436   207378   207296 
  207206   207141   207122   207125   207121   207115   207122   207139 
  207157   207165   207172   207184   207204   207242   207292   207318 
  207303   207277   207256   207230   207204   207200   207212   207226 
  207231   207226   207219   207218   207202   207161   207131   207145 
  207189   207256   207330   207397   207459   207501   207504   207490 
  207481   207468   207445   207428   207432   207447   207474   207511 
  207528   207522   207501   207484   207489   207516   207536   207553 
  207586   207632   207670   207692   207705   207712   207704   207681 
  207657   207635   207627   207648   207704   207782   207854   207893 
  207886   207846   207794   207742   207688   207630   207574   207524 
  207480   207449   207441   207435   207427   207422   207411   207381 
  207330   207268   207222   207206   207207   207202   207198   207215 
  207247   207268   207256   207222   207191   207162   207117   207068 
  207042   207046   207067   207073   207054   207026   207013   207029 
  207052   207048   207021   206999   207010   207058   207117   207150 
  207161   207156   207127   207099   207085   207079   207081   207095 
  207099   207081   207073   207108   207166   207216   207265   207311 
  207347   207397   207461   207505   207524   207538   207566   207609 
  207654   207702   207747   207774   207778   207771   207769   207758 
  207720   207671   207634   207605   207592   207596   207609   207619 
  207608   207567   207516   207476   207447   207430   207418   207407 
  207408   207414   207395   207355   207310   207268   207242   207230 
  207227   207226   207218   207207   207218   207249   207277   207291 
  207287   207268   207249   207250   207257   207233   207175   207110 
  207064   207056   207084   207114   207135   207158   207176   207173 
  207166   207164   207156   207144   207115   207084   207091   207135 
  207171   207189   207222   207265   207293   207291   207253   207216 
  207206   207203   207183   207154   207137   207146   207164   207176 
  207195   207219   207225   207208   207179   207157   207149   207156 
  207187   207237   207296   207358   207405   207434   207457   207465 
  207458   207457   207459   207454   207447   207445   207442   207428 
  207419   207431   207451   207472   207499   207516   207517   207528 
  207554   207573   207592   207611   207605   207562   207516   207499 
  207515   207553   207594   207616   207617   207607   207574   207530 
  207501   207499   207492   207454   207396   207353   207331   207316 
  207293   207261   207227   207198   207166   207156   207181   207218 
