Origin Time       2025/06/03 22:18:00
Lat.              41.7
Long.             143.6
Depth. (km)       30
Mag.              5.2
Station Code      NMRH03
Station Lat.      43.5508
Station Long.     144.9665
Station Height(m) -197.5
Record Time       2025/06/03 22:19:24
Sampling Freq(Hz) 100Hz
Duration Time(s)  120
Dir.              2
Scale Factor      2942(gal)/8224139
Max. Acc. (gal)   0.241
Last Correction   2025/06/03 22:19:25
Memo.             
[...]
  167869   167849   167841   167863   167888   167888   167867   167852 
  167872   167895   167892   167886   167876   167868   167884   167900 
  167890   167876   167869   167863   167861   167857   167860   167877 
  167894   167904   167910   167908   167904   167908   167913   167896 
  167861   167832   167827   167854   167888   167891   167868   167845 
  167846   167875   167903   167911   167891   167867   167864   167871 
  167879   167899   167913   167910   167904   167898   167894   167896 
  167895   167883   167876   167884   167896   167915   167935   167927 
  167896   167880   167877   167864   167859   167872   167875   167863 
  167846   167834   167838   167867   167895   167886   167856   167854 
  167863   167859   167865   167883   167907   167933   167934   167903 
  167873   167864   167861   167861   167861   167869   167891   167907 
  167890   167867   167890   167946   167957   167913   167877   167848 
  167815   167818   167837   167859   167890   167913   167913   167896 
  167876   167860   167853   167864   167888   167910   167911   167898 
  167879   167861   167846   167845   167846   167833   167811   167810 
  167840   167888   167930   167962   167973   167946   167914   167898 
  167868   167842   167854   167871   167864   167854   167850   167854 
  167877   167890   167877   167872   167888   167906   167902   167886 
  167875   167868   167868   167861   167852   167868   167895   167886 
  167849   167832   167848   167891   167934   167953   167958   167944 
  167913   167896   167887   167868   167853   167865   167888   167886 
  167854   167826   167817   167834   167880   167908   167888   167853 
  167834   167844   167864   167873   167880   167890   167896   167894 
  167884   167881   167887   167894   167890   167876   167871   167886 
  167907   167923   167922   167914   167913   167923   167938   167942 
  167918   167871   167837   167844   167875   167883   167867   167859 
  167848   167830   167840   167860   167861   167865   167880   167891 
  167883   167860   167848   167849   167863   167884   167888   167876 
  167868   167879   167892   167887   167873   167876   167895   167913 
  167907   167887   167876   167879   167872   167852   167829   167823 
  167837   167849   167844   167849   167875   167894   167902   167894 
  167875   167881   167913   167942   167958   167937   167884   167852 
  167844   167838   167842   167848   167845   167853   167875   167892 
  167902   167907   167899   167895   167914   167937   167946   167938 
  167913   167895   167903   167913   167896   167873   167861   167871 
  167896   167911   167895   167876   167869   167873   167880   167887 
  167900   167917   167919   167908   167884   167857   167842   167822 
  167805   167821   167848   167860   167871   167887   167903   167910 
  167902   167868   167827   167833   167881   167911   167904   167875 
  167841   167841   167867   167877   167867   167859   167865   167888 
  167900   167887   167865   167848   167848   167854   167861   167877 
  167886   167881   167875   167860   167834   167821   167836   167871 
  167900   167918   167918   167894   167868   167864   167860   167848 
  167848   167865   167880   167886   167894   167913   167935   167954 
  167953   167923   167883   167857   167864   167881   167890   167890 
  167879   167880   167900   167891   167861   167865   167891   167902 
  167895   167886   167881   167891   167906   167902   167881   167881 
  167891   167881   167856   167834   167836   167853   167860   167860 
  167850   167827   167830   167869   167908   167938   167957   167948 
  167933   167941   167931   167892   167880   167895   167894   167877 
  167872   167868   167854   167845   167848   167846   167840   167841 
  167856   167894   167929   167926   167899   167876   167853   167842 
  167840   167837   167848   167873   167888   167894   167917   167934 
  167925   167918   167926   167938   167946   167940   167908   167871 
  167854   167844   167829   167830   167846   167863   167873   167876 
  167875   167888   167911   167911   167903   167903   167881   167846 
  167811   167779   167787   167826   167850   167865   167892   167895 
  167865   167841   167836   167850   167861   167853   167860   167892 
  167913   167907   167898   167898   167898   167890   167872   167860 
  167869   167868   167863   167888   167911   167900   167894   167902 
  167899   167888   167879   167875   167880   167894   167921   167927 
  167887   167860   167877   167892   167896   167904   167896   167881 
  167890   167895   167888   167883   167877   167883   167896   167908 
  167921   167925   167919   167913   167894   167864   167853   167859 
  167853   167836   167818   167815   167826   167826   167825   167838 
  167852   167872   167902   167911   167900   167892   167894   167911 
  167934   167937   167931   167910   167861   167832   167842   167869 
  167903   167910   167888   167875   167864   167849   167850   167859 
  167864   167886   167904   167891   167886   167898   167895   167892 
  167896   167883   167868   167877   167906   167930   167931   167918 
  167913   167907   167898   167895   167887   167869   167869   167879 
  167886   167888   167863   167838   167856   167880   167891   167903 
  167908   167904   167907   167903   167887   167877   167883   167880 
  167867   167857   167846   167833   167836   167846   167850   167850 
  167865   167888   167902   167899   167887   167871   167854   167853 
  167853   167849   167859   167867   167852   167833   167822   167810 
  167813   167840   167860   167865   167871   167876   167877   167898 
  167931   167937   167913   167896   167903   167922   167933   167918 
  167890   167864   167856   167886   167933   167954   167930   167886 
  167865   167894   167919   167899   167875   167888   167921   167938 
  167934   167917   167888   167872   167902   167948   167945   167902 
  167872   167872   167898   167930   167935   167922   167900   167861 
  167810   167764   167748   167771   167810   167841   167853   167857 
  167856   167845   167849   167863   167868   167883   167894   167890 
  167900   167915   167902   167863   167838   167853   167879   167891 
  167898   167907   167913   167910   167895   167877   167875   167871 
  167857   167865   167892   167917   167938   167950   167922   167869 
  167833   167838   167869   167895   167892   167871   167850   167853 
  167875   167903   167921   167930   167953   167981   167971   167929 
  167899   167888   167886   167884   167871   167849   167827   167811 
  167805   167809   167821   167825   167818   167813   167823   167848 
  167864   167869   167877   167875   167834   167796   167796   167817 
  167842   167853   167842   167844   167863   167860   167846   167841 
  167837   167846   167876   167904   167930   167956   167953   167919 
  167886   167853   167836   167857   167891   167903   167913   167941 
  167968   167965   167929   167890   167879   167892   167902   167906 
  167926   167944   167929   167919   167938   167942   167922   167907 
  167903   167902   167903   167908   167915   167922   167930   167929 
  167913   167890   167884   167900   167919   167917   167899   167887 
  167879   167871   167868   167880   167892   167886   167872   167846 
  167809   167792   167800   167806   167799   167790   167798   167838 
  167884   167904   167890   167876   167895   167910   167884   167848 
  167834   167837   167834   167837   167860   167875   167879   167891 
  167913   167927   167921   167915   167925   167933   167930   167917 
  167891   167864   167859   167871   167867   167853   167871   167910 
  167930   167911   167880   167895   167957   168004   168007   167981 
  167937   167904   167903   167900   167873   167852   167838   167822 
  167814   167821   167836   167849   167859   167856   167830   167803 
  167791   167784   167787   167798   167796   167786   167790   167813 
  167840   167850   167841   167833   167854   167896   167923   167927 
  167910   167879   167849   167841   167861   167884   167888   167888 
  167875   167850   167845   167857   167864   167868   167871   167887 
  167915   167940   167961   167965   167960   167971   167969   167949 
  167938   167926   167926   167965   168011   168011   167953   167896 
  167886   167884   167868   167864   167879   167890   167886   167875 
  167857   167844   167854   167876   167884   167883   167876   167865 
  167869   167888   167895   167873   167844   167836   167842   167848 
  167861   167873   167876   167892   167921   167941   167945   167930 
  167902   167881   167884   167881   167845   167805   167787   167776 
  167787   167821   167836   167836   167857   167879   167881   167884 
  167896   167921   167953   167975   167973   167946   167917   167896 
  167871   167846   167841   167845   167844   167841   167854   167863 
  167863   167873   167883   167887   167902   167921   167927   167921 
  167908   167884   167857   167833   167829   167864   167896   167910 
  167935   167967   167971   167949   167914   167879   167861   167852 
  167841   167827   167803   167768   167759   167795   167842   167871 
  167884   167888   167875   167860   167848   167840   167848   167867 
  167888   167910   167914   167894   167852   167832   167876   167935 
  167945   167921   167894   167881   167894   167921   167935   167921 
  167894   167879   167868   167859   167868   167891   167904   167898 
  167875   167856   167863   167877   167877   167873   167883   167894 
  167896   167900   167918   167950   167973   167956   167904   167857 
  167822   167807   167817   167844   167865   167865   167867   167890 
  167908   167902   167881   167869   167873   167891   167903   167898 
  167880   167842   167807   167810   167833   167837   167833   167853 
  167887   167907   167906   167888   167883   167898   167919   167937 
  167925   167872   167830   167822   167823   167830   167841   167842 
  167837   167833   167836   167849   167864   167869   167849   167814 
  167796   167798   167814   167846   167872   167868   167848   167845 
  167860   167877   167892   167898   167892   167868   167823   167795 
  167806   167844   167881   167906   167913   167913   167911   167892 
  167856   167821   167813   167833   167860   167881   167890   167871 
  167844   167842   167853   167845   167838   167861   167890   167908 
  167934   167957   167952   167922   167879   167850   167850   167861 
  167884   167913   167914   167898   167891   167880   167848   167836 
  167854   167850   167834   167854   167898   167946   167968   167965 
  167972   167994   168014   168018   167995   167957   167938   167956 
  167983   167995   168010   168018   168002   167983   167965   167937 
  167906   167892   167911   167925   167910   167915   167950   167964 
  167958   167945   167922   167910   167904   167883   167863   167852 
  167844   167859   167898   167918   167903   167877   167863   167875 
  167908   167915   167863   167784   167717   167688   167719   167787 
  167852   167894   167910   167899   167877   167892   167953   168007 
  168007   167973   167926   167868   167825   167822   167860   167904 
  167922   167917   167903   167895   167880   167826   167729   167637 
  167613   167640   167655   167655   167647   167613   167587   167601 
  167648   167718   167779   167825   167875   167922   167960   168014 
  168072   168104   168091   168022   167919   167822   167763   167722 
  167683   167701   167759   167787   167790   167787   167756   167722 
  167761   167892   168045   168133   168114   168010   167898   167836 
  167805   167802   167846   167921   167969   167937   167833   167741 
  167757   167888   168064   168183   168187   168112   168046   168042 
  168111   168197   168250   168272   168265   168207   168070   167887 
  167757   167722   167744   167790   167821   167841   167900   168002 
  168091   168138   168178   168242   168301   168311   168265   168199 
  168157   168168   168215   168231   168156   167998   167830   167729 
  167690   167653   167626   167660   167767   167872   167887   167834 
  167821   167871   167935   167954   167876   167729   167606   167553 
  167540   167508   167452   167420   167443   167505   167590   167687 
  167776   167850   167891   167868   167786   167686   167610   167589 
  167638   167734   167805   167825   167852   167894   167890   167811 
  167699   167636   167691   167838   167971   168008   167976   167984 
  168077   168158   168134   167984   167772   167605   167525   167518 
  167586   167730   167915   168056   168069   167994   167949   168007 
  168129   168216   168214   168130   168029   167940   167832   167701 
  167616   167651   167784   167899   167907   167841   167790   167759 
  167688   167605   167607   167714   167845   167935   167965   167941 
  167879   167819   167825   167938   168087   168141   168103   168054 
  167995   167933   167908   167913   167917   167930   167971   168038 
  168115   168172   168165   168124   168139   168197   168226   168223 
  168201   168176   168188   168232   168235   168142   167962   167775 
  167648   167607   167652   167736   167815   167898   167944   167873 
  167748   167690   167710   167746   167748   167718   167734   167834 
  167925   167923   167867   167799   167729   167671   167651   167679 
  167745   167792   167771   167710   167695   167769   167915   168115 
  168349   168490   168411   168154   167838   167525   167287   167205 
  167248   167333   167444   167582   167729   167844   167792   167549 
  167355   167375   167533   167713   167856   167958   168069   168193 
  168255   168178   168010   167887   167852   167834   167807   167795 
  167823   167892   167938   167892   167768   167649   167621   167697 
  167813   167906   167957   167967   167937   167900   167918   167988 
  168079   168180   168253   168250   168199   168139   168060   168002 
  168022   168046   167964   167817   167724   167721   167771   167848 
  167950   168034   168049   168010   167937   167832   167729   167680 
  167676   167690   167748   167857   167965   168087   168216   168241 
  168134   167995   167898   167825   167748   167703   167745   167857 
  167972   168054   168089   168061   167949   167784   167661   167636 
  167702   167845   168008   168156   168284   168349   168293   168130 
  167967   167938   168039   168145   168181   168139   168045   167952 
  167836   167657   167513   167498   167549   167602   167647   167671 
  167648   167535   167383   167343   167485   167753   168048   168268 
  168328   168204   167989   167784   167598   167458   167416   167464 
  167584   167765   167934   168012   168015   167979   167902   167848 
  167898   168008   168066   168029   167925   167826   167794   167794 
  167759   167679   167620   167652   167776   167879   167902   167921 
  168003   168108   168143   168065   167930   167806   167688   167622 
  167688   167825   167917   167960   167961   167907   167859   167848 
  167830   167803   167775   167728   167709   167741   167780   167826 
  167907   167995   168049   168080   168160   168318   168458   168471 
  168373   168218   168050   167903   167800   167740   167688   167663 
  167705   167791   167898   167999   168042   168030   168002   167971 
  167945   167927   167880   167819   167837   167926   167980   167949 
  167867   167775   167713   167709   167765   167869   167980   168080 
  168149   168139   168077   168015   167911   167749   167595   167471 
  167370   167344   167433   167576   167692   167761   167786   167794 
  167838   167934   168060   168173   168222   168193   168097   167919 
  167698   167547   167490   167476   167540   167718   167942   168127 
  168226   168228   168172   168137   168166   168222   168255   168228 
  168116   167981   167888   167863   167900   167918   167837   167690 
  167579   167571   167605   167578   167512   167537   167707   167944 
  168135   168208   168170   168131   168142   168129   168021   167856 
  167729   167655   167574   167501   167486   167513   167594   167751 
  167886   167923   167921   167952   168058   168183   168192   168072 
  167929   167840   167806   167784   167699   167548   167470   167556 
  167703   167776   167786   167810   167872   167922   167917   167880 
  167848   167857   167930   167985   167904   167729   167603   167566 
  167579   167680   167876   168111   168334   168448   168396   168284 
  168243   168270   168288   168246   168114   167937   167842   167853 
  167833   167713   167606   167599   167652   167746   167903   168037 
  168048   167992   167956   167941   167931   167917   167861   167776 
  167719   167779   167960   168135   168183   168097   167954   167827 
  167753   167730   167729   167714   167706   167746   167830   167873 
  167819   167733   167678   167664   167663   167601   167535   167611 
  167806   167984   168096   168138   168126   168093   168050   167995 
  167960   167972   168015   168033   167952   167788   167661   167647 
  167741   167895   168011   168014   167962   167980   168050   168033 
  167891   167761   167732   167769   167842   167899   167869   167807 
  167783   167775   167763   167736   167678   167625   167634   167661 
  167613   167525   167548   167710   167891   168010   168060   168065 
  168054   168029   167983   167925   167904   167965   168039   168057 
  168061   168089   168112   168073   167956   167873   167896   167937 
  167952   168007   168066   168022   167888   167759   167665   167628 
  167705   167836   167888   167877   167892   167917   167868   167690 
  167429   167281   167377   167632   167891   168088   168226   168305 
  168338   168357   168353   168307   168220   168100   167989   167935 
  167921   167900   167876   167825   167684   167548   167607   167815 
  167944   167953   167971   168054   168126   168089   167958   167798 
  167629   167468   167364   167371   167505   167718   167918   168022 
  168060   168091   168089   168079   168122   168183   168208   168189 
  168118   167999   167834   167645   167505   167498   167603   167697 
  167733   167759   167791   167815   167817   167794   167788   167844 
  167979   168154   168272   168307   168312   168281   168220   168166 
  168088   167984   167907   167859   167815   167772   167756   167783 
  167825   167838   167780   167657   167583   167620   167684   167722 
  167749   167764   167769   167763   167730   167671   167586   167517 
  167525   167598   167688   167746   167757   167772   167815   167811 
  167722   167602   167548   167628   167821   168018   168089   168041 
  167984   167956   167930   167925   167945   167983   168025   168066 
  168137   168228   168253   168185   168146   168189   168231   168208 
  168130   168045   168011   168057   168156   168212   168177   168106 
  168046   167969   167865   167786   167728   167641   167557   167536 
  167583   167702   167879   168015   168012   167887   167771   167757 
  167821   167923   168041   168093   168057   167996   167952   167902 
  167834   167756   167697   167676   167649   167510   167308   167233 
  167355   167575   167755   167823   167856   167944   168056   168124 
  168142   168160   168207   168205   168075   167908   167876   167998 
