Origin Time       2025/06/03 22:18:00
Lat.              41.7
Long.             143.6
Depth. (km)       30
Mag.              5.2
Station Code      NMRH03
Station Lat.      43.5508
Station Long.     144.9665
Station Height(m) 30
Record Time       2025/06/03 22:19:24
Sampling Freq(Hz) 100Hz
Duration Time(s)  120
Dir.              4
Scale Factor      7845(gal)/8223790
Max. Acc. (gal)   0.998
Last Correction   2025/06/03 22:19:25
Memo.             
[...]
  -17936   -17942   -17945   -17918   -17874   -17841   -17825   -17822 
  -17842   -17882   -17930   -17965   -17972   -17961   -17944   -17923 
  -17907   -17906   -17917   -17926   -17936   -17945   -17944   -17925 
  -17905   -17898   -17899   -17894   -17869   -17847   -17840   -17851 
  -17875   -17922   -17986   -18025   -18011   -17961   -17905   -17855 
  -17829   -17842   -17874   -17896   -17909   -17921   -17925   -17915 
  -17905   -17906   -17926   -17945   -17944   -17930   -17917   -17899 
  -17878   -17876   -17895   -17910   -17911   -17899   -17883   -17871 
  -17865   -17875   -17903   -17941   -17969   -17973   -17952   -17918 
  -17882   -17856   -17852   -17861   -17875   -17894   -17914   -17921 
  -17911   -17906   -17917   -17918   -17894   -17868   -17864   -17883 
  -17911   -17940   -17960   -17963   -17938   -17901   -17882   -17888 
  -17891   -17886   -17895   -17917   -17933   -17936   -17933   -17921 
  -17901   -17880   -17871   -17880   -17894   -17903   -17919   -17944 
  -17953   -17948   -17953   -17964   -17945   -17895   -17848   -17830 
  -17837   -17849   -17872   -17921   -17971   -17992   -17983   -17950 
  -17899   -17836   -17786   -17782   -17826   -17886   -17940   -17975 
  -17961   -17903   -17848   -17826   -17832   -17852   -17884   -17911 
  -17918   -17911   -17907   -17915   -17930   -17937   -17932   -17921 
  -17898   -17871   -17861   -17872   -17896   -17925   -17950   -17961 
  -17945   -17910   -17879   -17869   -17884   -17898   -17891   -17887 
  -17902   -17919   -17928   -17938   -17955   -17955   -17925   -17874 
  -17840   -17852   -17891   -17921   -17940   -17952   -17955   -17942 
  -17918   -17884   -17851   -17834   -17837   -17849   -17869   -17894 
  -17914   -17925   -17923   -17917   -17917   -17923   -17928   -17926 
  -17928   -17930   -17917   -17902   -17910   -17932   -17928   -17896 
  -17886   -17911   -17942   -17957   -17949   -17919   -17882   -17855 
  -17853   -17894   -17957   -18000   -18002   -17965   -17911   -17876 
  -17884   -17899   -17886   -17856   -17851   -17874   -17899   -17909 
  -17917   -17933   -17932   -17901   -17868   -17867   -17887   -17894 
  -17886   -17888   -17905   -17915   -17926   -17952   -17969   -17949 
  -17909   -17878   -17868   -17880   -17896   -17901   -17896   -17887 
  -17876   -17880   -17898   -17913   -17915   -17909   -17909   -17915 
  -17919   -17928   -17945   -17956   -17936   -17895   -17859   -17832 
  -17821   -17847   -17901   -17938   -17936   -17914   -17892   -17872 
  -17859   -17864   -17902   -17959   -17987   -17972   -17944   -17910 
  -17863   -17815   -17806   -17845   -17910   -17975   -18003   -17980 
  -17933   -17898   -17887   -17895   -17907   -17917   -17929   -17934 
  -17923   -17910   -17894   -17875   -17861   -17860   -17869   -17887 
  -17910   -17926   -17930   -17929   -17929   -17933   -17932   -17926 
  -17922   -17909   -17886   -17872   -17880   -17903   -17933   -17953 
  -17957   -17952   -17937   -17903   -17859   -17837   -17836   -17832 
  -17829   -17849   -17892   -17946   -17979   -17963   -17907   -17841 
  -17801   -17813   -17871   -17938   -17983   -17994   -17967   -17915 
  -17879   -17878   -17894   -17913   -17934   -17965   -17998   -18014 
  -17996   -17950   -17901   -17861   -17844   -17859   -17896   -17932 
  -17953   -17957   -17940   -17903   -17868   -17852   -17860   -17879 
  -17905   -17925   -17932   -17921   -17896   -17882   -17892   -17913 
  -17922   -17915   -17902   -17882   -17856   -17825   -17803   -17806 
  -17828   -17838   -17844   -17869   -17911   -17936   -17929   -17903 
  -17886   -17891   -17899   -17892   -17888   -17896   -17902   -17903 
  -17918   -17941   -17953   -17949   -17941   -17936   -17934   -17932 
  -17933   -17940   -17940   -17934   -17934   -17945   -17963   -17975 
  -17968   -17938   -17903   -17887   -17894   -17896   -17886   -17869 
  -17857   -17856   -17871   -17890   -17918   -17953   -17971   -17959 
  -17929   -17895   -17869   -17865   -17874   -17869   -17845   -17815 
  -17801   -17821   -17863   -17901   -17930   -17945   -17923   -17872 
  -17837   -17845   -17886   -17933   -17971   -18000   -18015   -17999 
  -17972   -17952   -17941   -17942   -17950   -17965   -17983   -17983 
  -17948   -17902   -17879   -17876   -17874   -17887   -17930   -17967 
  -17961   -17923   -17883   -17865   -17874   -17895   -17914   -17921 
  -17910   -17876   -17828   -17790   -17793   -17836   -17887   -17915 
  -17917   -17907   -17886   -17869   -17871   -17882   -17899   -17918 
  -17921   -17917   -17915   -17902   -17882   -17871   -17872   -17882 
  -17898   -17915   -17923   -17930   -17932   -17913   -17894   -17901 
  -17919   -17936   -17938   -17925   -17901   -17878   -17869   -17888 
  -17914   -17926   -17941   -17963   -17967   -17944   -17911   -17894 
  -17892   -17895   -17894   -17887   -17886   -17898   -17903   -17896 
  -17887   -17879   -17867   -17863   -17884   -17922   -17964   -17999 
  -18010   -17987   -17937   -17884   -17851   -17840   -17840   -17861 
  -17909   -17956   -17991   -18011   -18004   -17971   -17921   -17880 
  -17865   -17871   -17880   -17883   -17874   -17855   -17844   -17859 
  -17883   -17896   -17892   -17867   -17829   -17802   -17809   -17851 
  -17907   -17945   -17949   -17922   -17882   -17860   -17855   -17852 
  -17853   -17871   -17901   -17930   -17952   -17953   -17933   -17913 
  -17911   -17922   -17930   -17937   -17937   -17926   -17902   -17875 
  -17857   -17855   -17853   -17857   -17880   -17913   -17930   -17930 
  -17934   -17963   -18003   -18022   -18004   -17953   -17876   -17797 
  -17755   -17768   -17833   -17914   -17972   -17998   -18000   -17973 
  -17913   -17849   -17818   -17842   -17906   -17971   -18006   -17999 
  -17960   -17892   -17813   -17761   -17770   -17838   -17932   -18013 
  -18061   -18064   -18022   -17950   -17868   -17811   -17799   -17807 
  -17820   -17847   -17895   -17950   -17987   -18002   -17995   -17972 
  -17940   -17909   -17884   -17869   -17861   -17860   -17872   -17896 
  -17925   -17940   -17926   -17884   -17838   -17820   -17829   -17847 
  -17868   -17892   -17919   -17946   -17969   -17983   -17982   -17967 
  -17934   -17898   -17879   -17874   -17867   -17872   -17911   -17968 
  -18007   -18011   -17986   -17944   -17890   -17845   -17837   -17868 
  -17910   -17953   -17996   -18014   -17996   -17953   -17896   -17829 
  -17768   -17755   -17798   -17868   -17937   -17994   -18023   -18017 
  -17976   -17906   -17828   -17771   -17763   -17810   -17890   -17959 
  -17980   -17961   -17936   -17913   -17871   -17824   -17813   -17847 
  -17890   -17919   -17929   -17928   -17919   -17905   -17891   -17879 
  -17864   -17851   -17848   -17864   -17895   -17940   -17992   -18030 
  -18033   -18000   -17957   -17921   -17887   -17861   -17859   -17880 
  -17921   -17961   -17980   -17965   -17919   -17869   -17845   -17851 
  -17867   -17878   -17887   -17899   -17898   -17874   -17845   -17829 
  -17828   -17836   -17836   -17825   -17820   -17821   -17832   -17863 
  -17905   -17934   -17944   -17930   -17895   -17845   -17811   -17824 
  -17884   -17961   -18022   -18054   -18057   -18022   -17961   -17909 
  -17886   -17886   -17910   -17955   -18002   -18025   -18017   -17979 
  -17919   -17844   -17788   -17788   -17851   -17938   -17995   -17994 
  -17957   -17922   -17902   -17890   -17871   -17848   -17824   -17791 
  -17768   -17784   -17832   -17878   -17910   -17934   -17948   -17946 
  -17937   -17928   -17917   -17907   -17909   -17917   -17923   -17926 
  -17921   -17910   -17902   -17901   -17911   -17930   -17945   -17937 
  -17913   -17896   -17898   -17913   -17942   -17988   -18023   -18014 
  -17956   -17883   -17841   -17844   -17864   -17884   -17913   -17953 
  -17990   -18003   -17986   -17929   -17848   -17766   -17706   -17695 
  -17751   -17849   -17941   -17980   -17956   -17903   -17859   -17837 
  -17834   -17853   -17895   -17941   -17975   -17996   -18009   -18011 
  -18002   -17972   -17941   -17937   -17944   -17932   -17910   -17901 
  -17905   -17921   -17944   -17972   -17984   -17963   -17914   -17859 
  -17821   -17820   -17849   -17887   -17919   -17934   -17923   -17902 
  -17887   -17880   -17887   -17899   -17899   -17894   -17898   -17905 
  -17906   -17899   -17883   -17869   -17863   -17852   -17833   -17820 
  -17825   -17838   -17861   -17899   -17928   -17933   -17929   -17911 
  -17892   -17896   -17918   -17946   -17977   -17990   -17972   -17942 
  -17922   -17914   -17930   -17960   -17968   -17965   -17967   -17956 
  -17940   -17933   -17918   -17886   -17848   -17822   -17814   -17821 
  -17848   -17887   -17932   -17977   -18011   -18022   -18002   -17949 
  -17874   -17805   -17774   -17798   -17868   -17946   -17998   -18009 
  -17975   -17910   -17847   -17811   -17810   -17836   -17882   -17933 
  -17953   -17933   -17891   -17853   -17833   -17833   -17849   -17879 
  -17896   -17901   -17917   -17944   -17960   -17956   -17938   -17914 
  -17899   -17901   -17903   -17910   -17929   -17944   -17953   -17971 
  -17976   -17953   -17925   -17909   -17894   -17868   -17852   -17863 
  -17887   -17906   -17907   -17894   -17883   -17868   -17842   -17826 
  -17825   -17825   -17826   -17826   -17824   -17833   -17859   -17891 
  -17903   -17880   -17844   -17820   -17818   -17842   -17886   -17926 
  -17942   -17926   -17898   -17879   -17876   -17867   -17841   -17818 
  -17817   -17830   -17856   -17890   -17934   -17975   -17994   -17987 
  -17961   -17915   -17855   -17806   -17801   -17837   -17884   -17934 
  -17990   -18038   -18058   -18048   -18011   -17972   -17955   -17959 
  -17971   -17994   -18013   -18013   -18003   -18007   -18014   -18007 
  -17992   -17972   -17928   -17869   -17841   -17851   -17867   -17879 
  -17903   -17933   -17941   -17922   -17894   -17857   -17814   -17790 
  -17809   -17864   -17929   -17977   -17999   -17986   -17941   -17878 
  -17818   -17776   -17764   -17786   -17829   -17874   -17906   -17910 
  -17884   -17855   -17837   -17834   -17845   -17871   -17906   -17938 
  -17959   -17971   -17982   -17986   -17976   -17953   -17923   -17890 
  -17861   -17849   -17853   -17867   -17890   -17919   -17937   -17930 
  -17907   -17878   -17844   -17814   -17806   -17830   -17886   -17967 
  -18050   -18106   -18122   -18104   -18058   -17999   -17942   -17892 
  -17856   -17845   -17861   -17896   -17929   -17940   -17926   -17891 
  -17849   -17806   -17771   -17744   -17717   -17699   -17707   -17724 
  -17736   -17767   -17838   -17941   -18052   -18148   -18219   -18261 
  -18279   -18270   -18238   -18187   -18123   -18050   -17969   -17898 
  -17851   -17832   -17833   -17848   -17869   -17888   -17892   -17875 
  -17844   -17805   -17761   -17726   -17705   -17699   -17709   -17726 
  -17734   -17713   -17675   -17645   -17640   -17676   -17748   -17842 
  -17940   -18007   -18033   -18022   -17976   -17911   -17853   -17822 
  -17832   -17878   -17934   -17983   -18036   -18104   -18181   -18252 
  -18283   -18256   -18179   -18073   -17977   -17940   -17968   -18030 
  -18096   -18134   -18108   -18023   -17918   -17828   -17793   -17867 
  -18054   -18272   -18418   -18426   -18283   -18023   -17736   -17516 
  -17424   -17460   -17556   -17622   -17626   -17585   -17540   -17551 
  -17658   -17833   -17998   -18072   -18018   -17863   -17685   -17556 
  -17543   -17683   -17928   -18157   -18277   -18253   -18100   -17867 
  -17641   -17537   -17598   -17774   -17972   -18104   -18117   -18009 
  -17821   -17606   -17435   -17354   -17361   -17440   -17578   -17740 
  -17890   -18003   -18067   -18075   -18022   -17915   -17772   -17633 
  -17551   -17548   -17626   -17770   -17957   -18152   -18289   -18341 
  -18330   -18291   -18239   -18185   -18142   -18134   -18184   -18284 
  -18385   -18453   -18477   -18458   -18408   -18337   -18262   -18204 
  -18149   -18075   -17991   -17944   -17963   -18014   -18042   -18044 
  -18042   -18033   -17980   -17868   -17732   -17605   -17514   -17501 
  -17577   -17699   -17822   -17905   -17917   -17849   -17733   -17629 
  -17575   -17544   -17502   -17464   -17466   -17518   -17618   -17756 
  -17909   -18029   -18064   -17976   -17772   -17537   -17409   -17478 
  -17733   -18073   -18357   -18465   -18347   -18050   -17685   -17378 
  -17228   -17263   -17433   -17640   -17784   -17821   -17799   -17826 
  -17968   -18222   -18532   -18779   -18848   -18682   -18291   -17778 
  -17328   -17103   -17159   -17446   -17828   -18141   -18265   -18166 
  -17911   -17633   -17469   -17490   -17693   -17995   -18288   -18481 
  -18539   -18474   -18328   -18157   -18009   -17911   -17869   -17872 
  -17911   -17968   -18033   -18103   -18172   -18233   -18280   -18311 
  -18306   -18231   -18077   -17872   -17680   -17536   -17432   -17385 
  -17405   -17481   -17598   -17748   -17902   -18034   -18130   -18158 
  -18108   -18022   -17960   -17953   -18002   -18065   -18087   -18027 
  -17864   -17613   -17342   -17163   -17158   -17335   -17643   -17983 
  -18246   -18330   -18192   -17890   -17570   -17396   -17462   -17761 
  -18193   -18585   -18793   -18755   -18490   -18090   -17689   -17408 
  -17308   -17404   -17636   -17890   -18060   -18103   -18034   -17917 
  -17815   -17740   -17679   -17666   -17739   -17861   -17955   -17994 
  -18006   -17990   -17917   -17793   -17649   -17523   -17447   -17459 
  -17597   -17872   -18245   -18624   -18890   -18951   -18781   -18430 
  -18003   -17626   -17412   -17412   -17595   -17876   -18148   -18315 
  -18311   -18133   -17841   -17536   -17317   -17258   -17379   -17624 
  -17902   -18135   -18273   -18289   -18206   -18052   -17852   -17656 
  -17523   -17473   -17501   -17608   -17798   -18064   -18351   -18574 
  -18636   -18472   -18100   -17632   -17220   -16983   -16999   -17280 
  -17713   -18119   -18376   -18439   -18334   -18145   -17979   -17926 
  -18015   -18206   -18401   -18505   -18453   -18226   -17882   -17533 
  -17298   -17231   -17308   -17474   -17643   -17732   -17747   -17757 
  -17815   -17923   -18052   -18172   -18249   -18212   -18021   -17720 
  -17415   -17242   -17294   -17555   -17922   -18268   -18461   -18422 
  -18171   -17809   -17491   -17355   -17451   -17716   -18019   -18249 
  -18349   -18310   -18165   -17984   -17837   -17753   -17745   -17802 
  -17898   -17990   -18033   -18003   -17933   -17905   -17967   -18054 
  -18073   -18014   -17942   -17922   -17990   -18148   -18343   -18503 
  -18569   -18486   -18219   -17802   -17358   -17032   -16939   -17100 
  -17413   -17732   -17950   -18044   -18031   -17968   -17925   -17969 
  -18118   -18315   -18474   -18532   -18455   -18253   -17973   -17690 
  -17500   -17451   -17531   -17701   -17910   -18081   -18153   -18129 
  -18058   -17976   -17902   -17865   -17891   -17944   -17956   -17878 
  -17736   -17605   -17532   -17520   -17563   -17635   -17706   -17779 
  -17869   -17953   -17992   -18004   -18045   -18122   -18168   -18119 
  -17988   -17818   -17636   -17517   -17547   -17702   -17891   -18038 
  -18087   -18013   -17867   -17756   -17760   -17879   -18063   -18247 
  -18385   -18427   -18338   -18138   -17899   -17697   -17579   -17574 
  -17699   -17938   -18191   -18335   -18324   -18191   -17961   -17672 
  -17424   -17323   -17394   -17582   -17821   -18071   -18288   -18397 
  -18343   -18152   -17902   -17652   -17444   -17342   -17396   -17585 
  -17824   -18026   -18150   -18173   -18088   -17934   -17790   -17725 
  -17764   -17872   -17983   -18037   -18019   -17963   -17925   -17933 
  -17963   -17986   -17983   -17953   -17899   -17833   -17768   -17721 
  -17699   -17702   -17729   -17764   -17790   -17809   -17833   -17869 
  -17937   -18053   -18206   -18345   -18419   -18409   -18326   -18188 
  -18037   -17918   -17836   -17779   -17761   -17810   -17921   -18056 
  -18177   -18258   -18262   -18165   -17973   -17741   -17570   -17520 
  -17579   -17707   -17860   -17990   -18040   -17979   -17838   -17682 
  -17563   -17525   -17574   -17675   -17786   -17865   -17896   -17906 
  -17936   -17984   -18027   -18029   -17940   -17759   -17559   -17436 
  -17447   -17598   -17849   -18122   -18316   -18354   -18208   -17930 
  -17653   -17497   -17494   -17614   -17790   -17949   -18065   -18153 
  -18227   -18299   -18368   -18418   -18427   -18372   -18234   -18046 
  -17879   -17766   -17717   -17760   -17879   -17988   -18019   -17956 
  -17825   -17685   -17581   -17535   -17581   -17744   -17977   -18198 
  -18341   -18364   -18229   -17961   -17645   -17396   -17307   -17415 
  -17690   -18057   -18399   -18589   -18577   -18399   -18129   -17868 
  -17709   -17668   -17721   -17845   -17995   -18110   -18142   -18069 
  -17898   -17694   -17541   -17469   -17456   -17479   -17520   -17570 
  -17647   -17768   -17926   -18072   -18152   -18145   -18083   -17999 
  -17901   -17809   -17766   -17797   -17884   -17975   -18011   -17982 
  -17932   -17886   -17838   -17799   -17772   -17743   -17693   -17628 
  -17583   -17591   -17672   -17821   -18002   -18181   -18318   -18368 
  -18301   -18134   -17914   -17712   -17598   -17614   -17744   -17950 
  -18189   -18396   -18522   -18551   -18468   -18258   -17960   -17641 
  -17373   -17232   -17265   -17433   -17653   -17851   -17971   -17992 
  -17923   -17797   -17666   -17609   -17690   -17882   -18099   -18284 
  -18420   -18481   -18431   -18254   -18003   -17774   -17625   -17566 
  -17591   -17706   -17899   -18129   -18319   -18400   -18350   -18196 
  -17973   -17732   -17550   -17498   -17587   -17771   -17960   -18079 
  -18112   -18056   -17929   -17799   -17725   -17722   -17767   -17809 
  -17822   -17837   -17876   -17941   -18038   -18145   -18207   -18185 
  -18081   -17930   -17787   -17687   -17635   -17635   -17687   -17759 
  -17798   -17779   -17714   -17637   -17616   -17690   -17829   -17960 
  -18036   -18054   -18040   -18018   -18029   -18090   -18180   -18253 
  -18235   -18099   -17886   -17672   -17537   -17548   -17707   -17941 
  -18148   -18247   -18222   -18091   -17910   -17756   -17675   -17691 
  -17795   -17942   -18085   -18196   -18237   -18195   -18087   -17950 
  -17825   -17744   -17717   -17725   -17730   -17707   -17672   -17675 
  -17757   -17910   -18072   -18172   -18164   -18040   -17856   -17701 
  -17613   -17601   -17680   -17849   -18061   -18233   -18280   -18162 
  -17911   -17621   -17400   -17307   -17358   -17540   -17813   -18114 
  -18358   -18463   -18420   -18291   -18152   -18056   -18040   -18098 
  -18183   -18222   -18168   -18033   -17865   -17726   -17653   -17648 
  -17703   -17786   -17841   -17837   -17772   -17682   -17639   -17705 
  -17863   -18030   -18148   -18187   -18125   -17961   -17752   -17594 
  -17551   -17628   -17780   -17938   -18037   -18057   -18014   -17925 
  -17817   -17726   -17679   -17691   -17751   -17824   -17890   -17957 
  -18037   -18106   -18137   -18133   -18117   -18091   -18036   -17957 
  -17909   -17934   -18026   -18148   -18260   -18334   -18355   -18308 
  -18183   -18009   -17834   -17709   -17664   -17693   -17748   -17786 
  -17791   -17772   -17739   -17694   -17649   -17618   -17617   -17659 
  -17752   -17871   -17964   -17987   -17938   -17868   -17829   -17826 
