Origin Time       2025/06/03 22:18:00
Lat.              41.7
Long.             143.6
Depth. (km)       30
Mag.              5.2
Station Code      NMRH04
Station Lat.      43.3978
Station Long.     145.1224
Station Height(m) 30
Record Time       2025/06/03 22:19:23
Sampling Freq(Hz) 100Hz
Duration Time(s)  120
Dir.              5
Scale Factor      7845(gal)/8223790
Max. Acc. (gal)   0.887
Last Correction   2025/06/03 22:19:24
Memo.             
[...]
   -2735    -2710    -2704    -2736    -2763    -2759    -2747    -2797 
   -2879    -2891    -2847    -2825    -2824    -2776    -2675    -2632 
   -2686    -2736    -2748    -2732    -2705    -2741    -2822    -2847 
   -2826    -2813    -2762    -2693    -2704    -2779    -2844    -2852 
   -2795    -2760    -2797    -2802    -2758    -2755    -2782    -2774 
   -2760    -2752    -2713    -2686    -2712    -2758    -2828    -2880 
   -2828    -2745    -2722    -2717    -2747    -2808    -2797    -2762 
   -2799    -2809    -2747    -2694    -2683    -2725    -2778    -2752 
   -2724    -2766    -2782    -2759    -2775    -2797    -2770    -2737 
   -2735    -2774    -2828    -2829    -2793    -2775    -2775    -2775 
   -2768    -2733    -2700    -2721    -2764    -2770    -2756    -2754 
   -2749    -2735    -2724    -2748    -2814    -2847    -2822    -2795 
   -2760    -2713    -2708    -2739    -2770    -2797    -2808    -2809 
   -2821    -2798    -2725    -2694    -2727    -2763    -2812    -2832 
   -2793    -2781    -2803    -2791    -2787    -2787    -2732    -2685 
   -2689    -2706    -2736    -2766    -2772    -2785    -2825    -2853 
   -2814    -2760    -2748    -2724    -2698    -2735    -2786    -2810 
   -2799    -2737    -2710    -2806    -2903    -2886    -2802    -2728 
   -2702    -2716    -2695    -2662    -2700    -2766    -2770    -2760 
   -2801    -2841    -2832    -2801    -2808    -2847    -2837    -2762 
   -2685    -2658    -2695    -2772    -2808    -2794    -2782    -2749 
   -2717    -2759    -2817    -2805    -2762    -2729    -2729    -2754 
   -2735    -2691    -2724    -2793    -2795    -2771    -2774    -2745 
   -2710    -2744    -2787    -2790    -2781    -2776    -2802    -2832 
   -2797    -2739    -2735    -2766    -2776    -2760    -2739    -2731 
   -2751    -2789    -2803    -2789    -2764    -2741    -2751    -2791 
   -2806    -2778    -2739    -2749    -2810    -2818    -2752    -2690 
   -2677    -2727    -2817    -2863    -2839    -2809    -2821    -2835 
   -2799    -2744    -2718    -2718    -2724    -2706    -2668    -2666 
   -2709    -2759    -2797    -2820    -2833    -2855    -2863    -2826 
   -2801    -2832    -2852    -2835    -2812    -2762    -2708    -2704 
   -2717    -2727    -2728    -2712    -2714    -2735    -2754    -2766 
   -2749    -2721    -2717    -2737    -2741    -2708    -2702    -2785 
   -2864    -2853    -2791    -2763    -2776    -2782    -2741    -2674 
   -2655    -2712    -2760    -2771    -2778    -2760    -2759    -2829 
   -2872    -2844    -2805    -2768    -2764    -2809    -2820    -2785 
   -2762    -2783    -2826    -2795    -2706    -2663    -2685    -2743 
   -2783    -2760    -2739    -2748    -2758    -2781    -2805    -2783 
   -2740    -2710    -2682    -2679    -2736    -2806    -2824    -2803 
   -2783    -2770    -2772    -2766    -2713    -2677    -2691    -2710 
   -2762    -2855    -2898    -2871    -2810    -2737    -2727    -2791 
   -2813    -2760    -2735    -2760    -2794    -2821    -2817    -2793 
   -2817    -2853    -2826    -2787    -2771    -2739    -2729    -2775 
   -2797    -2752    -2720    -2740    -2785    -2825    -2806    -2732 
   -2714    -2762    -2772    -2731    -2690    -2710    -2814    -2875 
   -2795    -2691    -2681    -2733    -2768    -2752    -2733    -2759 
   -2782    -2781    -2793    -2794    -2776    -2787    -2813    -2812 
   -2778    -2693    -2619    -2668    -2771    -2817    -2794    -2693 
   -2632    -2717    -2802    -2803    -2809    -2824    -2822    -2828 
   -2824    -2806    -2803    -2772    -2694    -2674    -2724    -2749 
   -2767    -2758    -2691    -2682    -2733    -2762    -2826    -2922 
   -2941    -2883    -2802    -2745    -2774    -2814    -2772    -2725 
   -2724    -2720    -2743    -2790    -2786    -2760    -2736    -2670 
   -2629    -2647    -2670    -2732    -2822    -2847    -2853    -2882 
   -2853    -2793    -2789    -2802    -2810    -2820    -2783    -2731 
   -2717    -2704    -2709    -2768    -2799    -2786    -2782    -2760 
   -2712    -2691    -2681    -2677    -2749    -2855    -2889    -2853 
   -2795    -2747    -2745    -2782    -2810    -2835    -2853    -2841 
   -2816    -2802    -2776    -2752    -2744    -2708    -2635    -2590 
   -2612    -2670    -2720    -2758    -2801    -2837    -2836    -2803 
   -2782    -2791    -2818    -2821    -2782    -2745    -2747    -2764 
   -2778    -2766    -2732    -2708    -2693    -2673    -2655    -2664 
   -2697    -2733    -2786    -2855    -2890    -2862    -2779    -2695 
   -2697    -2772    -2813    -2793    -2779    -2798    -2828    -2844 
   -2830    -2793    -2749    -2712    -2683    -2675    -2677    -2697 
   -2751    -2794    -2806    -2845    -2886    -2839    -2755    -2737 
   -2764    -2771    -2760    -2749    -2772    -2830    -2855    -2835 
   -2822    -2799    -2758    -2728    -2697    -2663    -2693    -2768 
   -2779    -2744    -2747    -2771    -2789    -2787    -2748    -2727 
   -2763    -2809    -2822    -2806    -2760    -2725    -2745    -2774 
   -2752    -2671    -2574    -2590    -2732    -2825    -2802    -2771 
   -2810    -2906    -2956    -2875    -2756    -2712    -2702    -2728 
   -2808    -2821    -2760    -2740    -2754    -2782    -2822    -2802 
   -2713    -2658    -2656    -2664    -2722    -2813    -2848    -2849 
   -2828    -2772    -2786    -2840    -2793    -2725    -2751    -2817 
   -2874    -2883    -2829    -2789    -2794    -2803    -2802    -2774 
   -2697    -2589    -2508    -2535    -2652    -2744    -2781    -2802 
   -2816    -2837    -2875    -2886    -2851    -2783    -2687    -2625 
   -2673    -2772    -2837    -2876    -2897    -2887    -2872    -2816 
   -2694    -2620    -2674    -2785    -2839    -2803    -2732    -2697 
   -2745    -2809    -2794    -2741    -2710    -2697    -2724    -2776 
   -2774    -2735    -2760    -2841    -2902    -2894    -2810    -2705 
   -2655    -2658    -2670    -2709    -2764    -2771    -2745    -2749 
   -2775    -2822    -2870    -2836    -2755    -2724    -2717    -2720 
   -2776    -2851    -2859    -2817    -2778    -2760    -2766    -2770 
   -2766    -2781    -2793    -2781    -2793    -2814    -2775    -2720 
   -2747    -2833    -2872    -2818    -2701    -2596    -2593    -2698 
   -2812    -2839    -2783    -2722    -2737    -2810    -2837    -2809 
   -2783    -2771    -2768    -2763    -2762    -2786    -2825    -2863 
   -2882    -2824    -2681    -2536    -2470    -2508    -2613    -2717 
   -2783    -2820    -2817    -2774    -2728    -2743    -2820    -2893 
   -2917    -2882    -2817    -2799    -2820    -2805    -2749    -2693 
   -2695    -2756    -2789    -2756    -2722    -2741    -2805    -2840 
   -2775    -2650    -2566    -2556    -2608    -2697    -2745    -2736 
   -2749    -2809    -2871    -2905    -2884    -2855    -2866    -2848 
   -2801    -2799    -2829    -2848    -2857    -2867    -2894    -2903 
   -2835    -2714    -2619    -2619    -2710    -2790    -2808    -2789 
   -2747    -2714    -2700    -2681    -2682    -2698    -2681    -2674 
   -2732    -2794    -2797    -2782    -2802    -2825    -2791    -2735 
   -2708    -2705    -2721    -2778    -2886    -2984    -2979    -2867 
   -2741    -2659    -2628    -2643    -2648    -2620    -2663    -2790 
   -2852    -2812    -2793    -2837    -2895    -2916    -2895    -2859 
   -2801    -2713    -2679    -2751    -2808    -2770    -2724    -2745 
   -2795    -2799    -2760    -2718    -2681    -2660    -2643    -2598 
   -2602    -2681    -2733    -2752    -2799    -2855    -2871    -2839 
   -2803    -2840    -2914    -2907    -2849    -2832    -2798    -2693 
   -2609    -2623    -2667    -2667    -2635    -2602    -2619    -2704 
   -2774    -2791    -2803    -2813    -2810    -2825    -2856    -2895 
   -2929    -2901    -2818    -2787    -2812    -2789    -2718    -2690 
   -2714    -2741    -2741    -2709    -2675    -2667    -2689    -2732 
   -2801    -2874    -2870    -2771    -2709    -2748    -2801    -2840 
   -2870    -2867    -2889    -2907    -2829    -2749    -2767    -2787 
   -2756    -2744    -2748    -2733    -2717    -2718    -2745    -2787 
   -2795    -2768    -2785    -2833    -2833    -2802    -2793    -2778 
   -2752    -2727    -2683    -2660    -2700    -2763    -2822    -2852 
   -2806    -2731    -2710    -2739    -2755    -2731    -2677    -2671 
   -2768    -2882    -2895    -2836    -2798    -2805    -2825    -2803 
   -2727    -2681    -2706    -2736    -2756    -2751    -2691    -2644 
   -2667    -2704    -2695    -2670    -2685    -2721    -2767    -2822 
   -2845    -2847    -2870    -2895    -2891    -2860    -2848    -2872 
   -2868    -2801    -2714    -2674    -2693    -2698    -2670    -2673 
   -2705    -2712    -2713    -2747    -2790    -2837    -2911    -2956 
   -2898    -2798    -2743    -2722    -2698    -2671    -2660    -2679 
   -2712    -2740    -2745    -2733    -2729    -2735    -2771    -2835 
   -2816    -2733    -2731    -2786    -2847    -2901    -2875    -2791 
   -2775    -2802    -2776    -2740    -2767    -2814    -2828    -2817 
   -2797    -2785    -2770    -2745    -2798    -2898    -2864    -2709 
   -2629    -2695    -2801    -2814    -2752    -2756    -2843    -2867 
   -2771    -2678    -2675    -2710    -2733    -2741    -2771    -2820 
   -2785    -2682    -2668    -2749    -2783    -2714    -2643    -2690 
   -2802    -2862    -2878    -2913    -2951    -2928    -2829    -2756 
   -2766    -2785    -2741    -2682    -2700    -2760    -2755    -2718 
   -2758    -2816    -2799    -2740    -2695    -2717    -2797    -2843 
   -2840    -2874    -2936    -2938    -2859    -2754    -2724    -2778 
   -2810    -2772    -2732    -2758    -2805    -2789    -2749    -2745 
   -2740    -2708    -2652    -2574    -2539    -2570    -2621    -2705 
   -2791    -2808    -2802    -2814    -2801    -2799    -2853    -2897 
   -2884    -2837    -2794    -2799    -2826    -2814    -2776    -2732 
   -2674    -2650    -2670    -2704    -2743    -2741    -2682    -2663 
   -2720    -2782    -2783    -2708    -2647    -2664    -2681    -2675 
   -2698    -2752    -2814    -2829    -2772    -2724    -2717    -2689 
   -2639    -2619    -2635    -2682    -2732    -2722    -2681    -2650 
   -2594    -2525    -2511    -2524    -2535    -2578    -2679    -2828 
   -2941    -2944    -2880    -2849    -2889    -2934    -2930    -2934 
   -2959    -2960    -2968    -3010    -3036    -3025    -2991    -2951 
   -2910    -2835    -2693    -2550    -2486    -2475    -2475    -2515 
   -2625    -2798    -2949    -2947    -2836    -2799    -2836    -2809 
   -2713    -2648    -2668    -2762    -2871    -2965    -3064    -3090 
   -2929    -2689    -2559    -2513    -2427    -2346    -2365    -2500 
   -2706    -2870    -2918    -2920    -2889    -2810    -2740    -2729 
   -2775    -2847    -2909    -2984    -3095    -3165    -3117    -3003 
   -2949    -2984    -3014    -2963    -2870    -2795    -2682    -2493 
   -2332    -2304    -2393    -2528    -2628    -2656    -2641    -2629 
   -2639    -2656    -2659    -2671    -2721    -2762    -2752    -2735 
   -2747    -2747    -2710    -2664    -2668    -2760    -2910    -3071 
   -3194    -3202    -3122    -3071    -3038    -2968    -2832    -2635 
   -2484    -2512    -2710    -2929    -3022    -2978    -2910    -2894 
   -2893    -2856    -2808    -2768    -2720    -2679    -2679    -2647 
   -2547    -2484    -2498    -2520    -2482    -2386    -2351    -2485 
   -2706    -2898    -3024    -3002    -2866    -2809    -2863    -2886 
   -2824    -2706    -2573    -2467    -2443    -2548    -2752    -2945 
   -3036    -3006    -2902    -2790    -2716    -2650    -2528    -2434 
   -2497    -2646    -2749    -2786    -2779    -2783    -2818    -2824 
   -2758    -2643    -2540    -2540    -2648    -2755    -2808    -2893 
   -3064    -3215    -3165    -2878    -2524    -2328    -2390    -2677 
   -3038    -3289    -3391    -3377    -3192    -2867    -2582    -2407 
   -2320    -2351    -2482    -2689    -2959    -3186    -3288    -3329 
   -3288    -3103    -2899    -2772    -2670    -2608    -2614    -2644 
   -2691    -2756    -2791    -2793    -2789    -2786    -2806    -2818 
   -2747    -2643    -2574    -2497    -2448    -2524    -2705    -2929 
   -3105    -3156    -3092    -2874    -2508    -2222    -2126    -2130 
   -2232    -2452    -2737    -3073    -3372    -3481    -3426    -3267 
   -2974    -2625    -2340    -2182    -2255    -2547    -2872    -3119 
   -3202    -3022    -2693    -2407    -2214    -2123    -2153    -2284 
   -2523    -2871    -3218    -3408    -3404    -3256    -3017    -2771 
   -2550    -2317    -2131    -2133    -2381    -2776    -3152    -3443 
   -3607    -3555    -3276    -2871    -2501    -2292    -2265    -2385 
   -2617    -2894    -3132    -3261    -3238    -3060    -2814    -2602 
   -2452    -2349    -2304    -2353    -2504    -2736    -3032    -3277 
   -3292    -3067    -2768    -2551    -2440    -2332    -2177    -2128 
   -2316    -2679    -3121    -3501    -3655    -3604    -3447    -3176 
   -2863    -2629    -2470    -2397    -2494    -2766    -3064    -3184 
   -3087    -2886    -2646    -2401    -2205    -2127    -2243    -2539 
   -2874    -3152    -3333    -3389    -3331    -3146    -2825    -2470 
   -2207    -2057    -2026    -2160    -2438    -2722    -2890    -2934 
   -2906    -2835    -2693    -2461    -2245    -2169    -2242    -2471 
   -2814    -3145    -3431    -3647    -3696    -3591    -3346    -2952 
   -2542    -2280    -2232    -2405    -2705    -2983    -3164    -3195 
   -3015    -2731    -2536    -2473    -2501    -2579    -2632    -2673 
   -2754    -2817    -2818    -2786    -2754    -2751    -2778    -2803 
   -2808    -2785    -2740    -2716    -2771    -2851    -2797    -2621 
   -2484    -2401    -2305    -2245    -2334    -2608    -2913    -3044 
   -3013    -2982    -2971    -2853    -2667    -2609    -2713    -2887 
   -3069    -3194    -3245    -3268    -3242    -3176    -3122    -3063 
   -2949    -2772    -2589    -2498    -2508    -2547    -2593    -2663 
   -2754    -2812    -2787    -2744    -2774    -2820    -2779    -2651 
   -2496    -2363    -2299    -2331    -2438    -2593    -2778    -2933 
   -3010    -2992    -2841    -2609    -2440    -2377    -2385    -2439 
   -2511    -2619    -2803    -2995    -3053    -3009    -2992    -3015 
   -3052    -3099    -3109    -3079    -3052    -3015    -2964    -2928 
   -2909    -2897    -2917    -2911    -2731    -2405    -2149    -2076 
   -2147    -2273    -2398    -2590    -2864    -3103    -3296    -3464 
   -3484    -3330    -3107    -2867    -2686    -2610    -2573    -2559 
   -2582    -2565    -2508    -2508    -2563    -2585    -2517    -2388 
   -2330    -2462    -2683    -2820    -2903    -3021    -3095    -3038 
   -2910    -2837    -2847    -2817    -2712    -2658    -2712    -2797 
   -2844    -2868    -2924    -2970    -2926    -2828    -2736    -2674 
   -2685    -2770    -2894    -3056    -3180    -3156    -3044    -2938 
   -2803    -2643    -2525    -2475    -2466    -2455    -2404    -2350 
   -2359    -2446    -2581    -2754    -2959    -3105    -3075    -2875 
   -2610    -2412    -2350    -2405    -2559    -2789    -3044    -3254 
   -3349    -3356    -3299    -3099    -2824    -2632    -2506    -2423 
   -2430    -2504    -2644    -2845    -2975    -3003    -3056    -3105 
   -3052    -2944    -2798    -2608    -2509    -2587    -2781    -3005 
   -3111    -3001    -2778    -2551    -2315    -2146    -2157    -2315 
   -2505    -2704    -2928    -3130    -3225    -3177    -3028    -2856 
   -2717    -2656    -2704    -2772    -2785    -2789    -2797    -2741 
   -2625    -2494    -2385    -2311    -2282    -2355    -2524    -2691 
   -2862    -3069    -3223    -3272    -3275    -3258    -3183    -3026 
   -2817    -2646    -2581    -2593    -2606    -2590    -2570    -2585 
   -2682    -2825    -2863    -2759    -2596    -2415    -2301    -2319 
   -2382    -2462    -2616    -2839    -3025    -3044    -2943    -2910 
   -2990    -3053    -2971    -2795    -2722    -2783    -2862    -2891 
   -2860    -2808    -2779    -2774    -2763    -2731    -2695    -2683 
   -2685    -2690    -2717    -2798    -2924    -3015    -3034    -3014 
   -2930    -2755    -2556    -2396    -2278    -2231    -2322    -2540 
   -2751    -2878    -2968    -3069    -3149    -3150    -3083    -2990 
   -2891    -2798    -2717    -2651    -2573    -2477    -2447    -2509 
   -2592    -2664    -2714    -2712    -2693    -2683    -2648    -2648 
   -2812    -3083    -3265    -3283    -3160    -2991    -2925    -2929 
   -2867    -2781    -2751    -2754    -2759    -2694    -2508    -2353 
   -2389    -2556    -2693    -2766    -2857    -3009    -3144    -3171 
   -3113    -3079    -3056    -2913    -2666    -2493    -2497    -2598 
   -2658    -2639    -2600    -2602    -2690    -2817    -2887    -2878 
   -2809    -2708    -2639    -2610    -2558    -2473    -2431    -2519 
   -2716    -2859    -2828    -2755    -2806    -2899    -2925    -2937 
   -2979    -3021    -3038    -3011    -2986    -2963    -2829    -2617 
   -2505    -2525    -2570    -2600    -2631    -2704    -2826    -2921 
   -2903    -2822    -2774    -2771    -2778    -2801    -2851    -2914 
   -2959    -2911    -2758    -2559    -2344    -2184    -2193    -2358 
   -2585    -2810    -2961    -3049    -3144    -3202    -3190    -3123 
   -2936    -2658    -2466    -2393    -2442    -2670    -2948    -3076 
   -3045    -2937    -2799    -2644    -2447    -2254    -2189    -2316 
   -2633    -3051    -3372    -3485    -3423    -3223    -2901    -2523 
   -2253    -2243    -2448    -2670    -2818    -2925    -3010    -3095 
   -3157    -3060    -2791    -2533    -2409    -2423    -2524    -2631 
   -2754    -2940    -3082    -3059    -2901    -2727    -2666    -2752 
   -2837    -2812    -2768    -2814    -2943    -3094    -3171    -3141 
   -3075    -3017    -2964    -2945    -2943    -2870    -2721    -2543 
   -2401    -2409    -2575    -2758    -2882    -2924    -2866    -2766 
   -2689    -2608    -2493    -2381    -2299    -2262    -2263    -2238 
   -2188    -2193    -2241    -2293    -2421    -2655    -2914    -3127 
   -3283    -3389    -3423    -3323    -3140    -3056    -3110    -3171 
   -3171    -3117    -3037    -2971    -2901    -2785    -2620    -2435 
   -2322    -2322    -2355    -2424    -2569    -2724    -2862    -3002 
   -3079    -3044    -2911    -2700    -2492    -2374    -2347    -2411 
   -2543    -2640    -2625    -2566    -2551    -2573    -2598    -2629 
   -2664    -2720    -2839    -2975    -3061    -3113    -3111    -3049 
   -3007    -2941    -2756    -2548    -2389    -2247    -2200    -2319 
   -2513    -2681    -2783    -2830    -2860    -2870    -2844    -2820 
   -2832    -2926    -3098    -3248    -3306    -3287    -3221    -3126 
   -3002    -2845    -2690    -2567    -2458    -2401    -2489    -2683 
   -2870    -2972    -2933    -2814    -2748    -2716    -2646    -2587 
   -2579    -2593    -2625    -2691    -2785    -2855    -2860    -2828 
   -2825    -2857    -2826    -2673    -2504    -2420    -2388    -2398 
   -2477    -2620    -2832    -3042    -3138    -3086    -2987    -2968 
   -3006    -3034    -3028    -2961    -2913    -2953    -2978    -2916 
