Origin Time       2025/06/03 22:18:00
Lat.              41.7
Long.             143.6
Depth. (km)       30
Mag.              5.2
Station Code      NMRH04
Station Lat.      43.3978
Station Long.     145.1224
Station Height(m) 30
Record Time       2025/06/03 22:19:23
Sampling Freq(Hz) 100Hz
Duration Time(s)  120
Dir.              4
Scale Factor      7845(gal)/8223790
Max. Acc. (gal)   1.116
Last Correction   2025/06/03 22:19:24
Memo.             
[...]
   -1063    -1042    -1055    -1094    -1098    -1105    -1156    -1194 
   -1200    -1204    -1200    -1186    -1169    -1135    -1101    -1080 
   -1080    -1094    -1098    -1102    -1112    -1119    -1143    -1155 
   -1136    -1147    -1170    -1159    -1162    -1166    -1136    -1119 
   -1125    -1132    -1139    -1146    -1154    -1159    -1162    -1163 
   -1159    -1159    -1158    -1128    -1111    -1142    -1186    -1196 
   -1163    -1123    -1097    -1089    -1101    -1123    -1150    -1173 
   -1161    -1136    -1140    -1143    -1148    -1169    -1165    -1139 
   -1119    -1096    -1086    -1097    -1111    -1125    -1128    -1132 
   -1154    -1167    -1173    -1173    -1151    -1144    -1169    -1181 
   -1178    -1169    -1148    -1128    -1125    -1131    -1128    -1111 
   -1089    -1066    -1050    -1073    -1128    -1171    -1181    -1175 
   -1182    -1204    -1202    -1173    -1148    -1129    -1097    -1082 
   -1100    -1134    -1165    -1165    -1146    -1136    -1132    -1115 
   -1086    -1080    -1108    -1144    -1169    -1171    -1161    -1173 
   -1206    -1217    -1213    -1198    -1154    -1124    -1123    -1097 
   -1077    -1116    -1165    -1192    -1197    -1165    -1129    -1123 
   -1120    -1116    -1112    -1093    -1089    -1134    -1185    -1202 
   -1188    -1131    -1074    -1070    -1102    -1155    -1196    -1188 
   -1163    -1167    -1174    -1163    -1152    -1148    -1138    -1134 
   -1144    -1125    -1078    -1071    -1113    -1163    -1188    -1158 
   -1113    -1111    -1129    -1142    -1139    -1096    -1047    -1066 
   -1140    -1198    -1215    -1197    -1158    -1111    -1098    -1132 
   -1135    -1100    -1084    -1090    -1129    -1201    -1217    -1174 
   -1146    -1128    -1120    -1148    -1178    -1174    -1161    -1147 
   -1129    -1123    -1151    -1185    -1194    -1190    -1174    -1151 
   -1148    -1155    -1150    -1151    -1152    -1128    -1124    -1154 
   -1158    -1132    -1119    -1123    -1142    -1171    -1173    -1148 
   -1147    -1159    -1154    -1138    -1129    -1127    -1127    -1128 
   -1129    -1136    -1147    -1155    -1158    -1155    -1144    -1117 
   -1096    -1105    -1119    -1132    -1152    -1155    -1136    -1120 
   -1116    -1123    -1128    -1112    -1084    -1071    -1096    -1128 
   -1138    -1142    -1146    -1152    -1190    -1235    -1231    -1193 
   -1170    -1178    -1177    -1134    -1081    -1069    -1098    -1111 
   -1094    -1108    -1152    -1183    -1200    -1190    -1147    -1123 
   -1134    -1161    -1181    -1162    -1136    -1144    -1138    -1101 
   -1082    -1097    -1125    -1135    -1117    -1121    -1147    -1146 
   -1121    -1109    -1117    -1132    -1134    -1120    -1092    -1084 
   -1127    -1192    -1232    -1242    -1231    -1210    -1192    -1179 
   -1155    -1135    -1144    -1161    -1169    -1161    -1143    -1150 
   -1162    -1139    -1108    -1088    -1075    -1081    -1097    -1107 
   -1109    -1124    -1155    -1200    -1216    -1154    -1080    -1071 
   -1094    -1116    -1138    -1128    -1097    -1070    -1055    -1077 
   -1121    -1156    -1163    -1148    -1163    -1197    -1200    -1201 
   -1192    -1136    -1105    -1113    -1115    -1136    -1165    -1171 
   -1189    -1197    -1175    -1185    -1239    -1275    -1235    -1135 
   -1044     -994     -996    -1048    -1102    -1115    -1090    -1067 
   -1101    -1171    -1202    -1197    -1198    -1194    -1170    -1142 
   -1129    -1120    -1104    -1089    -1085    -1094    -1098    -1080 
   -1082    -1123    -1155    -1167    -1178    -1178    -1170    -1169 
   -1152    -1117    -1107    -1129    -1159    -1189    -1198    -1166 
   -1131    -1131    -1135    -1143    -1166    -1162    -1134    -1142 
   -1181    -1200    -1190    -1174    -1159    -1162    -1182    -1174 
   -1148    -1136    -1119    -1085    -1078    -1092    -1105    -1123 
   -1113    -1081    -1092    -1129    -1136    -1143    -1167    -1166 
   -1146    -1140    -1155    -1185    -1186    -1146    -1119    -1128 
   -1158    -1202    -1223    -1194    -1144    -1092    -1063    -1081 
   -1123    -1138    -1098    -1050    -1067    -1156    -1237    -1244 
   -1196    -1144    -1136    -1185    -1240    -1239    -1205    -1159 
   -1105    -1070    -1063    -1089    -1144    -1174    -1151    -1111 
   -1082    -1077    -1120    -1194    -1231    -1198    -1121    -1028 
    -988    -1039    -1112    -1146    -1140    -1121    -1131    -1165 
   -1173    -1147    -1119    -1098    -1109    -1155    -1194    -1200 
   -1183    -1162    -1165    -1194    -1189    -1135    -1102    -1109 
   -1127    -1139    -1143    -1152    -1163    -1148    -1135    -1146 
   -1147    -1143    -1166    -1188    -1175    -1144    -1113    -1096 
   -1105    -1125    -1135    -1128    -1104    -1082    -1109    -1179 
   -1221    -1210    -1189    -1169    -1156    -1143    -1088    -1021 
    -997    -1015    -1062    -1125    -1178    -1224    -1252    -1232 
   -1179    -1123    -1102    -1142    -1196    -1215    -1200    -1167 
   -1142    -1142    -1166    -1196    -1181    -1102    -1017    -1001 
   -1055    -1104    -1119    -1136    -1152    -1148    -1147    -1144 
   -1124    -1098    -1074    -1058    -1066    -1101    -1156    -1204 
   -1213    -1200    -1194    -1177    -1138    -1111    -1119    -1159 
   -1200    -1189    -1136    -1105    -1135    -1204    -1242    -1216 
   -1151    -1089    -1069    -1088    -1111    -1127    -1134    -1140 
   -1177    -1216    -1194    -1128    -1092    -1102    -1128    -1143 
   -1136    -1120    -1131    -1171    -1215    -1244    -1233    -1174 
   -1124    -1115    -1128    -1173    -1210    -1175    -1131    -1161 
   -1212    -1216    -1170    -1089    -1031    -1047    -1089    -1107 
   -1107    -1101    -1115    -1165    -1220    -1244    -1205    -1117 
   -1051    -1048    -1088    -1135    -1154    -1125    -1090    -1100 
   -1136    -1152    -1150    -1139    -1124    -1128    -1134    -1131 
   -1151    -1171    -1186    -1223    -1235    -1189    -1152    -1146 
   -1142    -1150    -1156    -1132    -1119    -1119    -1108    -1108 
   -1127    -1135    -1139    -1144    -1138    -1123    -1116    -1119 
   -1127    -1139    -1151    -1150    -1150    -1155    -1148    -1147 
   -1166    -1175    -1148    -1115    -1096    -1090    -1119    -1163 
   -1167    -1143    -1140    -1148    -1140    -1121    -1105    -1100 
   -1100    -1094    -1090    -1117    -1147    -1123    -1070    -1039 
   -1016    -1020    -1081    -1151    -1177    -1178    -1194    -1237 
   -1281    -1277    -1219    -1155    -1115    -1098    -1121    -1161 
   -1170    -1148    -1138    -1142    -1135    -1132    -1142    -1140 
   -1128    -1121    -1128    -1147    -1148    -1115    -1111    -1159 
   -1181    -1142    -1094    -1069    -1073    -1107    -1151    -1186 
   -1202    -1206    -1219    -1227    -1202    -1131    -1062    -1050 
   -1063    -1074    -1102    -1129    -1134    -1132    -1154    -1209 
   -1252    -1223    -1156    -1142    -1177    -1219    -1232    -1200 
   -1146    -1112    -1132    -1190    -1220    -1178    -1115    -1070 
   -1046    -1035    -1030    -1042    -1066    -1088    -1125    -1171 
   -1182    -1150    -1109    -1111    -1167    -1215    -1198    -1167 
   -1159    -1152    -1143    -1134    -1124    -1107    -1080    -1069 
   -1098    -1111    -1067    -1030    -1039    -1088    -1155    -1201 
   -1209    -1201    -1178    -1171    -1196    -1200    -1179    -1156 
   -1132    -1115    -1100    -1080    -1093    -1127    -1132    -1131 
   -1154    -1186    -1208    -1208    -1198    -1183    -1152    -1142 
   -1170    -1182    -1150    -1105    -1098    -1132    -1150    -1131 
   -1127    -1142    -1151    -1174    -1186    -1143    -1078    -1050 
   -1055    -1082    -1105    -1112    -1146    -1209    -1243    -1243 
   -1232    -1215    -1204    -1204    -1189    -1144    -1098    -1102 
   -1147    -1188    -1223    -1235    -1198    -1159    -1142    -1113 
   -1074    -1028     -986    -1015    -1086    -1115    -1115    -1116 
   -1107    -1101    -1117    -1148    -1183    -1196    -1185    -1171 
   -1177    -1194    -1188    -1151    -1134    -1129    -1115    -1117 
   -1135    -1134    -1127    -1117    -1101    -1104    -1124    -1135 
   -1139    -1132    -1112    -1102    -1109    -1108    -1113    -1132 
   -1134    -1115    -1108    -1125    -1152    -1171    -1177    -1165 
   -1165    -1196    -1220    -1227    -1231    -1196    -1127    -1105 
   -1131    -1150    -1169    -1175    -1170    -1190    -1200    -1151 
   -1094    -1073    -1066    -1062    -1059    -1058    -1067    -1097 
   -1124    -1115    -1089    -1096    -1134    -1183    -1216    -1183 
   -1117    -1104    -1135    -1161    -1182    -1198    -1178    -1127 
   -1102    -1139    -1200    -1235    -1227    -1194    -1165    -1129 
   -1090    -1082    -1085    -1061    -1032    -1055    -1113    -1169 
   -1213    -1239    -1220    -1177    -1144    -1127    -1111    -1090 
   -1070    -1065    -1071    -1077    -1082    -1086    -1097    -1128 
   -1147    -1146    -1155    -1158    -1163    -1216    -1277    -1304 
   -1314    -1287    -1213    -1154    -1151    -1163    -1148    -1120 
   -1080    -1042    -1075    -1162    -1202    -1188    -1161    -1128 
   -1108    -1117    -1128    -1148    -1201    -1243    -1224    -1159 
   -1088    -1053    -1073    -1115    -1134    -1104    -1053    -1028 
   -1035    -1067    -1105    -1100    -1065    -1054    -1062    -1067 
   -1063    -1058    -1085    -1151    -1228    -1273    -1278    -1278 
   -1260    -1194    -1131    -1093    -1048    -1012    -1007    -1016 
   -1042    -1081    -1117    -1165    -1205    -1185    -1124    -1109 
   -1154    -1200    -1215    -1217    -1236    -1279    -1304    -1275 
   -1227    -1192    -1156    -1121    -1117    -1143    -1169    -1165 
   -1117    -1081    -1085    -1080    -1053    -1034    -1035    -1069 
   -1111    -1123    -1135    -1175    -1216    -1233    -1224    -1196 
   -1165    -1150    -1178    -1225    -1235    -1204    -1148    -1093 
   -1090    -1123    -1117    -1077    -1042    -1030    -1042    -1063 
   -1085    -1123    -1163    -1179    -1173    -1161    -1146    -1111 
   -1061    -1071    -1173    -1267    -1286    -1244    -1186    -1159 
   -1154    -1120    -1073    -1058    -1085    -1142    -1202    -1240 
   -1227    -1169    -1140    -1144    -1120    -1090    -1070    -1019 
    -980     -996    -1031    -1067    -1102    -1116    -1131    -1152 
   -1150    -1159    -1197    -1212    -1205    -1192    -1162    -1156 
   -1182    -1181    -1151    -1113    -1081    -1082    -1109    -1131 
   -1154    -1158    -1117    -1067    -1058    -1080    -1096    -1109 
   -1144    -1170    -1171    -1175    -1182    -1166    -1135    -1116 
   -1127    -1163    -1209    -1248    -1285    -1314    -1335    -1340 
   -1308    -1239    -1182    -1131    -1065    -1038    -1070    -1121 
   -1162    -1167    -1147    -1131    -1101    -1058    -1034    -1021 
   -1009     -994     -977     -990    -1038    -1082    -1109    -1116 
   -1104    -1102    -1112    -1102    -1082    -1044     -976     -908 
    -874     -886     -965    -1073    -1188    -1328    -1455    -1485 
   -1445    -1398    -1345    -1277    -1200    -1121    -1077    -1096 
   -1165    -1255    -1340    -1374    -1328    -1256    -1228    -1232 
   -1247    -1281    -1324    -1362    -1371    -1314    -1189    -1027 
    -846     -685     -607     -616     -679     -783     -932    -1112 
   -1297    -1451    -1540    -1564    -1530    -1462    -1410    -1364 
   -1294    -1243    -1242    -1269    -1277    -1217    -1115    -1030 
    -942     -815     -727     -745     -842     -993    -1179    -1355 
   -1474    -1510    -1478    -1393    -1233    -1036     -881     -797 
    -812     -936    -1115    -1267    -1335    -1351    -1381    -1371 
   -1267    -1117     -985     -909     -915     -974    -1058    -1148 
   -1194    -1152    -1020     -838     -708     -719     -851    -1024 
   -1161    -1232    -1248    -1210    -1167    -1169    -1186    -1190 
   -1179    -1123    -1042    -1004    -1044    -1175    -1328    -1405 
   -1416    -1421    -1397    -1294    -1142    -1040    -1054    -1142 
   -1225    -1229    -1162    -1101    -1081    -1084    -1071    -1011 
    -954     -982    -1088    -1229    -1363    -1447    -1501    -1529 
   -1466    -1271    -1005     -754     -580     -523     -581     -712 
    -869    -1011    -1119    -1202    -1251    -1242    -1202    -1182 
   -1192    -1233    -1308    -1382    -1431    -1480    -1552    -1605 
   -1557    -1360    -1082     -854     -762     -800     -905    -1034 
   -1154    -1224    -1259    -1296    -1300    -1250    -1206    -1193 
   -1167    -1111    -1024     -899     -810     -858     -989    -1092 
   -1135    -1109    -1050    -1026    -1023    -1050    -1152    -1282 
   -1391    -1497    -1556    -1513    -1379    -1200    -1030     -872 
    -692     -515     -406     -396     -529     -799    -1159    -1540 
   -1823    -1921    -1864    -1702    -1472    -1251    -1069     -938 
    -899     -967    -1105    -1248    -1306    -1247    -1136    -1053 
   -1011    -1003    -1026    -1081    -1175    -1310    -1421    -1441 
   -1374    -1263    -1150    -1058     -984     -923     -916    -1020 
   -1228    -1460    -1633    -1694    -1660    -1544    -1266     -795 
    -286       29       16     -268     -637     -965    -1251    -1507 
   -1690    -1750    -1688    -1516    -1294    -1148    -1127    -1144 
   -1140    -1143    -1170    -1159    -1057     -909     -785     -712 
    -722     -814     -972    -1208    -1476    -1679    -1768    -1703 
   -1514    -1331    -1179    -1016     -877     -832     -913    -1081 
   -1228    -1291    -1236    -1026     -702     -384     -203     -209 
    -342     -587     -965    -1356    -1624    -1777    -1857    -1849 
   -1741    -1533    -1294    -1147    -1163    -1318    -1489    -1571 
   -1541    -1394    -1152     -896     -675     -546     -519     -541 
    -639     -864    -1139    -1382    -1576    -1741    -1858    -1863 
   -1738    -1594    -1513    -1476    -1435    -1350    -1190     -981 
    -783     -615     -483     -398     -359     -373     -465     -633 
    -838    -1042    -1228    -1397    -1544    -1618    -1553    -1395 
   -1273    -1235    -1239    -1221    -1135    -1015     -927     -899 
    -934     -962     -923     -878     -922    -1046    -1155    -1189 
   -1205    -1254    -1301    -1301    -1282    -1290    -1290    -1229 
   -1147    -1093    -1065    -1085    -1140    -1156    -1121    -1075 
   -1040    -1043    -1090    -1142    -1201    -1298    -1374    -1343 
   -1235    -1119     -994     -885     -873     -969    -1088    -1148 
   -1148    -1142    -1159    -1182    -1200    -1236    -1321    -1444 
   -1559    -1641    -1684    -1668    -1579    -1447    -1345    -1289 
   -1202    -1034     -831     -697     -675     -739     -855     -945 
    -955     -932     -938     -988    -1053    -1093    -1107    -1104 
   -1107    -1148    -1205    -1208    -1134    -1039     -997    -1000 
    -974     -935     -947    -1017    -1117    -1194    -1219    -1224 
   -1213    -1204    -1267    -1397    -1476    -1445    -1341    -1244 
   -1213    -1239    -1240    -1159    -1039     -939     -878     -878 
    -923     -963    -1008    -1069    -1131    -1183    -1182    -1151 
   -1204    -1310    -1383    -1455    -1526    -1532    -1467    -1359 
   -1220    -1070     -919     -789     -723     -751     -880    -1047 
   -1182    -1233    -1205    -1200    -1291    -1381    -1386    -1372 
   -1399    -1440    -1458    -1449    -1436    -1399    -1286    -1127 
   -1016     -969     -900     -772     -637     -530     -480     -569 
    -795    -1017    -1167    -1258    -1262    -1185    -1105    -1081 
   -1120    -1212    -1302    -1333    -1302    -1255    -1215    -1198 
   -1213    -1220    -1183    -1124    -1066    -1011     -973     -923 
    -824     -743     -761     -845     -946    -1030    -1075    -1129 
   -1263    -1456    -1598    -1595    -1444    -1217    -1011     -892 
    -861     -899    -1028    -1220    -1393    -1528    -1587    -1533 
   -1433    -1325    -1205    -1113    -1035     -927     -814     -699 
    -588     -558     -635     -764     -892     -988    -1054    -1119 
   -1186    -1258    -1363    -1505    -1628    -1674    -1636    -1524 
   -1379    -1273    -1235    -1235    -1244    -1281    -1363    -1443 
   -1467    -1437    -1335    -1125     -892     -754     -738     -812 
    -904     -938     -916     -889     -907     -977    -1075    -1196 
   -1329    -1459    -1537    -1530    -1483    -1422    -1348    -1279 
   -1210    -1115    -1001     -895     -835     -846     -903     -988 
   -1090    -1179    -1237    -1285    -1347    -1416    -1445    -1413 
   -1339    -1237    -1112     -993     -911     -847     -750     -607 
    -514     -591     -830    -1142    -1447    -1668    -1748    -1688 
   -1548    -1383    -1190     -957     -746     -648     -666     -737 
    -823     -947    -1100    -1236    -1324    -1341    -1287    -1212 
   -1159    -1140    -1138    -1101    -1024     -978    -1017    -1117 
   -1221    -1325    -1436    -1499    -1487    -1449    -1404    -1348 
   -1301    -1239    -1131    -1028     -997    -1013    -1020    -1016 
   -1020    -1017    -1000     -961     -926     -970    -1100    -1221 
   -1262    -1229    -1186    -1166    -1129    -1074    -1088    -1196 
   -1302    -1344    -1354    -1352    -1320    -1225    -1089     -988 
    -936     -889     -849     -859     -931    -1031    -1139    -1258 
   -1333    -1308    -1231    -1169    -1134    -1150    -1229    -1340 
   -1436    -1468    -1413    -1316    -1237    -1209    -1202    -1131 
    -982     -845     -764     -724     -712     -708     -730     -800 
    -899    -1021    -1152    -1262    -1358    -1443    -1474    -1425 
   -1312    -1166    -1032     -957     -961    -1008    -1032    -1048 
   -1100    -1169    -1221    -1229    -1155    -1051    -1015    -1047 
   -1125    -1246    -1363    -1462    -1553    -1591    -1526    -1374 
   -1201    -1086    -1038     -999     -974    -1005    -1054    -1046 
    -996     -980    -1011    -1054    -1097    -1150    -1213    -1290 
   -1374    -1433    -1414    -1283    -1077     -877     -727     -634 
    -608     -639     -697     -784     -928    -1134    -1336    -1460 
   -1499    -1507    -1528    -1560    -1582    -1574    -1555    -1571 
   -1622    -1651    -1593    -1452    -1309    -1205    -1089     -932 
    -797     -729     -707     -702     -706     -734     -791     -870 
    -974    -1086    -1155    -1185    -1247    -1356    -1458    -1526 
   -1553    -1498    -1328    -1066     -796     -625     -549     -523 
    -584     -747     -943    -1115    -1224    -1242    -1201    -1156 
   -1151    -1220    -1327    -1416    -1506    -1587    -1601    -1502 
   -1286    -1009     -754     -575     -515     -560     -638     -737 
    -897    -1139    -1422    -1620    -1657    -1587    -1483    -1409 
   -1398    -1412    -1425    -1479    -1571    -1638    -1626    -1501 
   -1275    -1015     -807     -704     -675     -661     -672     -738 
