Origin Time       2025/06/03 22:18:00
Lat.              41.7
Long.             143.6
Depth. (km)       30
Mag.              5.2
Station Code      NMRH04
Station Lat.      43.3978
Station Long.     145.1224
Station Height(m) -186
Record Time       2025/06/03 22:19:23
Sampling Freq(Hz) 100Hz
Duration Time(s)  120
Dir.              1
Scale Factor      3923(gal)/8224838
Max. Acc. (gal)   0.227
Last Correction   2025/06/03 22:19:24
Memo.             
[...]
   -8700    -8716    -8746    -8760    -8742    -8715    -8702    -8708 
   -8721    -8723    -8731    -8737    -8727    -8718    -8711    -8699 
   -8698    -8702    -8703    -8719    -8739    -8735    -8708    -8675 
   -8667    -8669    -8672    -8699    -8734    -8748    -8742    -8723 
   -8698    -8680    -8685    -8689    -8687    -8700    -8725    -8748 
   -8754    -8743    -8742    -8745    -8729    -8712    -8706    -8706 
   -8712    -8714    -8711    -8727    -8743    -8734    -8721    -8712 
   -8714    -8723    -8725    -8726    -8722    -8703    -8681    -8671 
   -8673    -8685    -8702    -8721    -8733    -8735    -8737    -8739 
   -8745    -8752    -8756    -8753    -8742    -8727    -8721    -8719 
   -8716    -8721    -8734    -8752    -8752    -8737    -8730    -8715 
   -8698    -8704    -8725    -8746    -8760    -8745    -8722    -8708 
   -8698    -8692    -8694    -8691    -8681    -8692    -8719    -8735 
   -8741    -8742    -8745    -8758    -8750    -8716    -8716    -8743 
   -8737    -8716    -8710    -8702    -8698    -8698    -8698    -8691 
   -8673    -8669    -8684    -8688    -8694    -8718    -8726    -8716 
   -8726    -8734    -8730    -8749    -8750    -8707    -8681    -8683 
   -8681    -8704    -8742    -8741    -8716    -8696    -8680    -8689 
   -8715    -8725    -8725    -8716    -8702    -8698    -8699    -8703 
   -8721    -8723    -8710    -8711    -8708    -8691    -8698    -8723 
   -8742    -8758    -8765    -8748    -8727    -8722    -8712    -8703 
   -8700    -8699    -8706    -8712    -8710    -8718    -8735    -8733 
   -8721    -8711    -8695    -8689    -8718    -8753    -8766    -8753 
   -8730    -8731    -8746    -8729    -8700    -8704    -8710    -8696 
   -8696    -8703    -8706    -8712    -8708    -8700    -8704    -8702 
   -8698    -8710    -8716    -8710    -8704    -8706    -8718    -8719 
   -8700    -8704    -8721    -8710    -8708    -8735    -8753    -8752 
   -8743    -8730    -8723    -8722    -8714    -8711    -8731    -8756 
   -8779    -8799    -8802    -8776    -8742    -8718    -8706    -8691 
   -8679    -8688    -8704    -8692    -8680    -8696    -8703    -8695 
   -8708    -8721    -8719    -8727    -8739    -8746    -8754    -8756 
   -8745    -8722    -8691    -8681    -8695    -8711    -8721    -8710 
   -8692    -8689    -8703    -8721    -8738    -8750    -8752    -8754 
   -8760    -8758    -8750    -8727    -8696    -8699    -8718    -8721 
   -8723    -8735    -8729    -8712    -8702    -8688    -8687    -8704 
   -8719    -8725    -8726    -8730    -8727    -8723    -8726    -8708 
   -8672    -8653    -8669    -8699    -8716    -8721    -8731    -8749 
   -8745    -8733    -8741    -8748    -8738    -8727    -8723    -8722 
   -8719    -8727    -8737    -8738    -8734    -8727    -8725    -8737 
   -8750    -8739    -8706    -8679    -8688    -8714    -8715    -8703 
   -8707    -8707    -8702    -8703    -8696    -8692    -8710    -8741 
   -8764    -8761    -8743    -8737    -8737    -8737    -8739    -8741 
   -8741    -8741    -8723    -8696    -8696    -8698    -8684    -8679 
   -8677    -8668    -8661    -8667    -8673    -8671    -8665    -8662 
   -8673    -8695    -8708    -8721    -8725    -8716    -8722    -8739 
   -8749    -8738    -8719    -8730    -8757    -8758    -8733    -8712 
   -8707    -8708    -8719    -8726    -8730    -8743    -8746    -8721 
   -8696    -8687    -8685    -8680    -8673    -8679    -8694    -8704 
   -8727    -8741    -8716    -8687    -8684    -8696    -8710    -8727 
   -8741    -8742    -8743    -8752    -8757    -8754    -8752    -8760 
   -8769    -8766    -8760    -8761    -8770    -8769    -8752    -8738 
   -8739    -8741    -8750    -8770    -8775    -8753    -8725    -8680 
   -8626    -8606    -8617    -8640    -8692    -8752    -8779    -8788 
   -8795    -8784    -8753    -8711    -8673    -8662    -8677    -8699 
   -8731    -8760    -8765    -8762    -8749    -8715    -8673    -8635 
   -8614    -8627    -8661    -8680    -8687    -8703    -8721    -8737 
   -8743    -8726    -8700    -8689    -8700    -8727    -8753    -8769 
   -8772    -8761    -8745    -8729    -8695    -8661    -8667    -8684 
   -8692    -8706    -8719    -8725    -8730    -8729    -8722    -8718 
   -8718    -8716    -8703    -8696    -8700    -8703    -8698    -8694 
   -8694    -8694    -8700    -8703    -8684    -8667    -8668    -8688 
   -8730    -8776    -8797    -8796    -8776    -8739    -8714    -8702 
   -8677    -8658    -8668    -8687    -8707    -8737    -8752    -8742 
   -8741    -8764    -8784    -8789    -8772    -8734    -8708    -8702 
   -8699    -8691    -8689    -8696    -8699    -8691    -8684    -8679 
   -8675    -8680    -8687    -8685    -8695    -8708    -8714    -8726 
   -8748    -8749    -8741    -8758    -8781    -8779    -8766    -8760 
   -8765    -8781    -8787    -8769    -8746    -8733    -8722    -8708 
   -8706    -8719    -8726    -8716    -8698    -8683    -8696    -8723 
   -8730    -8715    -8695    -8698    -8708    -8694    -8681    -8684 
   -8685    -8691    -8700    -8716    -8750    -8766    -8756    -8745 
   -8726    -8706    -8706    -8723    -8746    -8757    -8750    -8731 
   -8699    -8675    -8676    -8685    -8699    -8726    -8743    -8742 
   -8741    -8734    -8714    -8687    -8661    -8657    -8672    -8696 
   -8719    -8710    -8691    -8696    -8716    -8727    -8731    -8739 
   -8746    -8750    -8753    -8754    -8762    -8765    -8754    -8739 
   -8714    -8676    -8657    -8664    -8668    -8662    -8654    -8650 
   -8664    -8688    -8703    -8715    -8729    -8733    -8741    -8753 
   -8761    -8777    -8787    -8770    -8753    -8754    -8752    -8737 
   -8725    -8721    -8714    -8681    -8650    -8657    -8683    -8698 
   -8711    -8714    -8703    -8704    -8725    -8742    -8757    -8772 
   -8779    -8781    -8780    -8779    -8779    -8765    -8749    -8735 
   -8719    -8708    -8715    -8742    -8772    -8773    -8756    -8743 
   -8745    -8742    -8711    -8688    -8694    -8675    -8635    -8623 
   -8623    -8629    -8646    -8656    -8653    -8661    -8681    -8708 
   -8737    -8741    -8727    -8725    -8721    -8714    -8719    -8726 
   -8727    -8738    -8742    -8723    -8704    -8691    -8680    -8692 
   -8711    -8718    -8722    -8725    -8729    -8726    -8703    -8684 
   -8681    -8688    -8698    -8707    -8707    -8708    -8723    -8739 
   -8749    -8746    -8737    -8733    -8743    -8765    -8775    -8766 
   -8754    -8743    -8746    -8754    -8746    -8729    -8715    -8699 
   -8683    -8671    -8667    -8672    -8684    -8689    -8677    -8664 
   -8669    -8683    -8698    -8726    -8746    -8743    -8738    -8735 
   -8721    -8708    -8716    -8731    -8739    -8741    -8723    -8699 
   -8696    -8711    -8725    -8729    -8729    -8730    -8737    -8758 
   -8772    -8757    -8753    -8761    -8758    -8749    -8722    -8683 
   -8669    -8679    -8679    -8672    -8672    -8680    -8695    -8715 
   -8726    -8715    -8706    -8721    -8730    -8712    -8700    -8712 
   -8719    -8712    -8712    -8722    -8733    -8742    -8738    -8725 
   -8725    -8756    -8803    -8820    -8807    -8785    -8742    -8685 
   -8648    -8634    -8629    -8634    -8652    -8683    -8711    -8716 
   -8711    -8714    -8710    -8696    -8689    -8699    -8716    -8729 
   -8737    -8742    -8749    -8750    -8735    -8706    -8677    -8665 
   -8667    -8680    -8702    -8718    -8730    -8752    -8764    -8753 
   -8727    -8688    -8667    -8689    -8734    -8762    -8772    -8773 
   -8768    -8758    -8745    -8734    -8727    -8702    -8665    -8662 
   -8685    -8710    -8739    -8741    -8710    -8684    -8656    -8622 
   -8617    -8637    -8654    -8658    -8652    -8648    -8653    -8664 
   -8671    -8661    -8646    -8653    -8671    -8696    -8729    -8760 
   -8792    -8811    -8815    -8818    -8800    -8758    -8725    -8711 
   -8710    -8733    -8772    -8799    -8814    -8816    -8804    -8799 
   -8810    -8800    -8766    -8754    -8779    -8814    -8831    -8811 
   -8760    -8681    -8581    -8494    -8475    -8548    -8667    -8772 
   -8835    -8838    -8796    -8766    -8762    -8768    -8787    -8816 
   -8851    -8876    -8866    -8827    -8799    -8792    -8779    -8730 
   -8668    -8633    -8623    -8607    -8584    -8586    -8625    -8681 
   -8745    -8772    -8743    -8726    -8752    -8765    -8741    -8684 
   -8630    -8615    -8630    -8644    -8650    -8649    -8657    -8680 
   -8706    -8735    -8768    -8780    -8764    -8764    -8792    -8822 
   -8842    -8847    -8806    -8719    -8623    -8537    -8479    -8459 
   -8472    -8509    -8588    -8707    -8804    -8845    -8843    -8820 
   -8781    -8746    -8752    -8806    -8854    -8843    -8775    -8689 
   -8633    -8627    -8677    -8754    -8803    -8802    -8800    -8841 
   -8900    -8941    -8914    -8820    -8714    -8631    -8590    -8614 
   -8680    -8710    -8657    -8571    -8541    -8598    -8679    -8722 
   -8706    -8642    -8587    -8580    -8623    -8681    -8683    -8613 
   -8541    -8509    -8519    -8594    -8702    -8785    -8838    -8857 
   -8823    -8773    -8764    -8795    -8815    -8793    -8760    -8775 
   -8845    -8900    -8891    -8830    -8761    -8734    -8762    -8811 
   -8833    -8785    -8703    -8676    -8706    -8729    -8737    -8731 
   -8716    -8726    -8768    -8815    -8856    -8868    -8804    -8703 
   -8630    -8586    -8560    -8559    -8594    -8637    -8626    -8569 
   -8541    -8577    -8646    -8725    -8811    -8895    -8958    -9000 
   -9011    -8984    -8926    -8854    -8781    -8721    -8680    -8645 
   -8630    -8672    -8761    -8847    -8865    -8811    -8749    -8695 
   -8633    -8579    -8560    -8596    -8661    -8672    -8615    -8559 
   -8541    -8540    -8550    -8581    -8615    -8657    -8718    -8777 
   -8830    -8858    -8850    -8862    -8900    -8903    -8842    -8756 
   -8707    -8689    -8668    -8652    -8641    -8627    -8634    -8656 
   -8648    -8603    -8561    -8544    -8545    -8581    -8641    -8696 
   -8769    -8853    -8866    -8827    -8827    -8853    -8851    -8827 
   -8780    -8725    -8700    -8708    -8687    -8604    -8529    -8487 
   -8467    -8510    -8622    -8756    -8864    -8899    -8860    -8775 
   -8675    -8618    -8622    -8664    -8721    -8764    -8800    -8865 
   -8926    -8918    -8858    -8814    -8760    -8642    -8506    -8441 
   -8483    -8594    -8675    -8680    -8644    -8592    -8577    -8627 
   -8681    -8714    -8764    -8822    -8872    -8938    -9012    -9077 
   -9116    -9103    -9009    -8827    -8622    -8482    -8437    -8483 
   -8575    -8645    -8660    -8637    -8625    -8648    -8688    -8735 
   -8792    -8820    -8787    -8745    -8745    -8791    -8837    -8845 
   -8826    -8816    -8810    -8772    -8700    -8631    -8568    -8495 
   -8475    -8548    -8641    -8695    -8730    -8764    -8793    -8830 
   -8861    -8860    -8808    -8689    -8530    -8453    -8492    -8548 
   -8586    -8619    -8637    -8665    -8700    -8684    -8644    -8627 
   -8649    -8715    -8822    -8928    -9004    -8993    -8864    -8694 
   -8579    -8546    -8608    -8689    -8700    -8711    -8781    -8835 
   -8814    -8735    -8661    -8652    -8702    -8749    -8770    -8822 
   -8915    -8951    -8888    -8800    -8712    -8610    -8526    -8459 
   -8398    -8387    -8442    -8537    -8650    -8762    -8850    -8928 
   -8992    -8996    -8976    -9005    -9058    -9066    -9028    -8955 
   -8845    -8711    -8590    -8484    -8398    -8367    -8419    -8494 
   -8510    -8469    -8437    -8452    -8521    -8626    -8743    -8842 
   -8903    -8926    -8926    -8905    -8815    -8630    -8434    -8349 
   -8414    -8542    -8626    -8654    -8664    -8656    -8629    -8627 
   -8653    -8646    -8610    -8600    -8635    -8725    -8856    -8981 
   -9059    -9085    -9050    -8945    -8826    -8776    -8810    -8858 
   -8865    -8841    -8791    -8730    -8688    -8657    -8649    -8669 
   -8667    -8615    -8534    -8488    -8550    -8692    -8803    -8854 
   -8891    -8907    -8874    -8819    -8788    -8780    -8762    -8742 
   -8730    -8712    -8708    -8735    -8753    -8737    -8702    -8683 
   -8702    -8721    -8718    -8700    -8667    -8645    -8667    -8726 
   -8791    -8815    -8802    -8784    -8748    -8642    -8506    -8444 
   -8465    -8496    -8522    -8567    -8627    -8681    -8699    -8679 
   -8657    -8677    -8725    -8761    -8761    -8721    -8696    -8750 
   -8861    -8949    -8951    -8873    -8781    -8698    -8614    -8550 
   -8499    -8453    -8457    -8532    -8617    -8676    -8746    -8796 
   -8785    -8784    -8824    -8830    -8785    -8758    -8785    -8823 
   -8835    -8824    -8785    -8737    -8738    -8792    -8854    -8903 
   -8910    -8856    -8804    -8804    -8831    -8864    -8904    -8923 
   -8864    -8716    -8541    -8415    -8365    -8343    -8341    -8405 
   -8464    -8473    -8492    -8527    -8538    -8571    -8649    -8731 
   -8810    -8892    -8937    -8918    -8870    -8835    -8831    -8858 
   -8900    -8939    -8945    -8893    -8818    -8745    -8664    -8586 
   -8541    -8542    -8606    -8704    -8787    -8838    -8846    -8793 
   -8714    -8683    -8722    -8770    -8765    -8739    -8741    -8734 
   -8687    -8641    -8618    -8606    -8599    -8590    -8594    -8644 
   -8730    -8843    -8968    -9070    -9148    -9194    -9173    -9099 
   -8996    -8861    -8711    -8571    -8475    -8471    -8532    -8563 
   -8518    -8467    -8473    -8476    -8467    -8521    -8604    -8684 
   -8807    -8916    -8923    -8874    -8864    -8884    -8880    -8830 
   -8723    -8602    -8517    -8436    -8379    -8424    -8500    -8534 
   -8567    -8607    -8621    -8626    -8634    -8629    -8629    -8642 
   -8634    -8608    -8613    -8642    -8673    -8719    -8776    -8829 
   -8883    -8915    -8930    -8954    -8968    -8955    -8908    -8814 
   -8750    -8742    -8689    -8603    -8579    -8592    -8592    -8600 
   -8629    -8692    -8777    -8814    -8791    -8758    -8706    -8644 
   -8648    -8708    -8769    -8842    -8905    -8903    -8846    -8776 
   -8733    -8746    -8785    -8784    -8746    -8712    -8661    -8594 
   -8587    -8614    -8587    -8529    -8500    -8496    -8525    -8602 
   -8675    -8691    -8721    -8812    -8901    -8977    -9054    -9076 
   -9035    -8991    -8947    -8897    -8857    -8808    -8729    -8650 
   -8592    -8565    -8563    -8546    -8554    -8638    -8722    -8735 
   -8696    -8640    -8622    -8658    -8700    -8716    -8704    -8661 
   -8633    -8662    -8704    -8745    -8816    -8869    -8857    -8829 
   -8792    -8721    -8646    -8602    -8588    -8638    -8742    -8812 
   -8843    -8874    -8889    -8893    -8885    -8823    -8762    -8768 
   -8797    -8816    -8826    -8789    -8700    -8592    -8503    -8433 
   -8364    -8326    -8355    -8422    -8519    -8625    -8673    -8688 
   -8750    -8827    -8856    -8869    -8885    -8869    -8829    -8814 
   -8837    -8891    -8914    -8847    -8733    -8656    -8652    -8694 
   -8719    -8722    -8723    -8726    -8721    -8710    -8707    -8702 
   -8696    -8699    -8710    -8765    -8881    -8974    -8992    -8982 
   -8950    -8854    -8727    -8635    -8604    -8613    -8630    -8669 
   -8722    -8753    -8766    -8752    -8699    -8654    -8637    -8626 
   -8629    -8634    -8634    -8645    -8645    -8638    -8642    -8630 
   -8602    -8614    -8668    -8743    -8824    -8868    -8856    -8845 
   -8841    -8784    -8681    -8613    -8599    -8613    -8604    -8534 
   -8472    -8500    -8586    -8676    -8743    -8772    -8799    -8829 
   -8824    -8802    -8791    -8795    -8806    -8822    -8822    -8791 
   -8752    -8729    -8721    -8706    -8677    -8637    -8591    -8572 
   -8586    -8603    -8635    -8669    -8676    -8676    -8684    -8692 
   -8694    -8694    -8707    -8699    -8664    -8675    -8745    -8820 
   -8878    -8916    -8939    -8934    -8897    -8850    -8762    -8637 
   -8564    -8563    -8560    -8579    -8689    -8818    -8883    -8895 
   -8851    -8769    -8721    -8725    -8730    -8721    -8695    -8660 
   -8660    -8684    -8677    -8656    -8653    -8669    -8700    -8752 
   -8797    -8784    -8706    -8627    -8587    -8560    -8541    -8549 
   -8575    -8608    -8648    -8696    -8765    -8829    -8851    -8841 
   -8814    -8816    -8854    -8873    -8877    -8907    -8931    -8916 
   -8895    -8889    -8873    -8815    -8703    -8599    -8549    -8544 
   -8590    -8660    -8696    -8700    -8662    -8575    -8500    -8472 
   -8488    -8560    -8640    -8673    -8695    -8719    -8688    -8630 
   -8613    -8619    -8638    -8681    -8725    -8779    -8826    -8824 
   -8812    -8804    -8791    -8788    -8760    -8716    -8726    -8765 
   -8796    -8834    -8876    -8897    -8872    -8784    -8671    -8581 
   -8552    -8604    -8719    -8823    -8856    -8819    -8742    -8661 
   -8611    -8602    -8627    -8665    -8695    -8721    -8769    -8815 
   -8815    -8787    -8766    -8748    -8721    -8716    -8737    -8749 
   -8753    -8743    -8715    -8700    -8714    -8711    -8676    -8642 
   -8614    -8573    -8554    -8591    -8638    -8675    -8730    -8787 
   -8796    -8788    -8793    -8808    -8849    -8864    -8785    -8676 
   -8650    -8727    -8842    -8905    -8873    -8807    -8762    -8730 
   -8718    -8739    -8764    -8760    -8734    -8719    -8726    -8748 
   -8760    -8739    -8719    -8716    -8673    -8607    -8579    -8549 
   -8496    -8498    -8560    -8637    -8727    -8800    -8822    -8831 
   -8858    -8858    -8829    -8826    -8831    -8810    -8793    -8783 
   -8735    -8681    -8657    -8631    -8602    -8586    -8584    -8603 
   -8644    -8672    -8668    -8637    -8590    -8546    -8536    -8546 
   -8565    -8621    -8677    -8677    -8660    -8673    -8714    -8787 
   -8873    -8924    -8927    -8897    -8853    -8824    -8811    -8777 
   -8719    -8644    -8567    -8529    -8557    -8623    -8685    -8722 
   -8753    -8757    -8719    -8712    -8770    -8822    -8847    -8862 
   -8850    -8812    -8797    -8819    -8838    -8823    -8783    -8752 
   -8773    -8803    -8769    -8702    -8661    -8649    -8644    -8658 
   -8723    -8810    -8847    -8831    -8807    -8796    -8788    -8776 
   -8756    -8742    -8743    -8742    -8734    -8730    -8716    -8683 
   -8645    -8621    -8606    -8577    -8537    -8507    -8488    -8490 
   -8550    -8642    -8685    -8688    -8676    -8644    -8623    -8634 
   -8660    -8700    -8737    -8745    -8735    -8718    -8708    -8726 
   -8738    -8708    -8691    -8730    -8773    -8785    -8797    -8806 
   -8766    -8684    -8614    -8588    -8604    -8629    -8627    -8627 
   -8680    -8753    -8787    -8776    -8721    -8676    -8714    -8789 
   -8833    -8854    -8872    -8868    -8856    -8873    -8905    -8919 
   -8904    -8873    -8833    -8766    -8698    -8673    -8677    -8675 
   -8691    -8727    -8752    -8753    -8721    -8648    -8563    -8511 
   -8515    -8542    -8573    -8640    -8719    -8731    -8692    -8660 
   -8629    -8590    -8575    -8591    -8599    -8596    -8629    -8672 
