Origin Time       2025/06/03 22:18:00
Lat.              41.7
Long.             143.6
Depth. (km)       30
Mag.              5.2
Station Code      NMRH03
Station Lat.      43.5508
Station Long.     144.9665
Station Height(m) 30
Record Time       2025/06/03 22:19:24
Sampling Freq(Hz) 100Hz
Duration Time(s)  120
Dir.              5
Scale Factor      7845(gal)/8223790
Max. Acc. (gal)   0.876
Last Correction   2025/06/03 22:19:25
Memo.             
[...]
  -10218   -10219   -10199   -10164   -10141   -10141   -10152   -10164 
  -10170   -10161   -10143   -10137   -10142   -10150   -10160   -10168 
  -10168   -10168   -10176   -10179   -10169   -10169   -10181   -10188 
  -10173   -10147   -10133   -10127   -10120   -10110   -10096   -10098 
  -10133   -10188   -10242   -10278   -10287   -10265   -10227   -10183 
  -10137   -10111   -10119   -10143   -10156   -10149   -10127   -10107 
  -10104   -10126   -10170   -10219   -10247   -10243   -10220   -10192 
  -10149   -10093   -10069   -10093   -10131   -10154   -10165   -10168 
  -10162   -10146   -10127   -10127   -10152   -10173   -10180   -10174 
  -10146   -10107   -10098   -10123   -10153   -10173   -10193   -10206 
  -10199   -10180   -10157   -10146   -10153   -10149   -10133   -10135 
  -10164   -10191   -10199   -10203   -10201   -10185   -10161   -10137 
  -10116   -10107   -10118   -10153   -10201   -10228   -10206   -10153 
  -10116   -10111   -10116   -10131   -10164   -10200   -10226   -10243 
  -10241   -10207   -10164   -10138   -10130   -10122   -10112   -10126 
  -10165   -10206   -10226   -10219   -10196   -10161   -10119   -10102 
  -10118   -10142   -10154   -10164   -10177   -10169   -10131   -10093 
  -10092   -10130   -10177   -10208   -10220   -10207   -10164   -10116 
  -10107   -10142   -10200   -10247   -10257   -10219   -10147   -10083 
  -10060   -10071   -10096   -10129   -10169   -10211   -10237   -10239 
  -10231   -10207   -10170   -10149   -10145   -10157   -10179   -10188 
  -10177   -10150   -10118   -10087   -10069   -10076   -10102   -10126 
  -10149   -10188   -10231   -10237   -10208   -10181   -10168   -10168 
  -10180   -10181   -10162   -10139   -10116   -10092   -10088   -10108 
  -10133   -10156   -10180   -10207   -10235   -10255   -10260   -10241 
  -10210   -10170   -10133   -10103   -10096   -10122   -10166   -10189 
  -10179   -10160   -10162   -10183   -10191   -10173   -10143   -10126 
  -10126   -10142   -10169   -10185   -10172   -10149   -10131   -10116 
  -10115   -10129   -10138   -10150   -10170   -10184   -10191   -10192 
  -10173   -10149   -10153   -10173   -10173   -10141   -10110   -10122 
  -10166   -10204   -10224   -10224   -10188   -10139   -10129   -10157 
  -10184   -10196   -10216   -10237   -10234   -10201   -10152   -10116 
  -10127   -10153   -10165   -10172   -10180   -10187   -10196   -10201 
  -10188   -10156   -10130   -10126   -10126   -10122   -10127   -10147 
  -10176   -10197   -10192   -10169   -10162   -10165   -10164   -10169 
  -10191   -10210   -10203   -10168   -10118   -10080   -10069   -10083 
  -10116   -10160   -10176   -10157   -10129   -10114   -10112   -10122 
  -10146   -10181   -10211   -10219   -10206   -10179   -10160   -10164 
  -10180   -10183   -10172   -10162   -10158   -10156   -10152   -10152 
  -10165   -10189   -10195   -10180   -10176   -10196   -10224   -10233 
  -10212   -10179   -10138   -10095   -10073   -10084   -10110   -10123 
  -10115   -10103   -10103   -10118   -10142   -10164   -10181   -10200 
  -10212   -10207   -10191   -10172   -10150   -10147   -10157   -10150 
  -10135   -10131   -10141   -10153   -10153   -10145   -10147   -10170 
  -10204   -10235   -10250   -10239   -10207   -10165   -10125   -10093 
  -10079   -10080   -10102   -10152   -10215   -10255   -10246   -10197 
  -10145   -10118   -10126   -10160   -10189   -10196   -10185   -10164 
  -10127   -10085   -10054   -10053   -10080   -10120   -10158   -10180 
  -10172   -10158   -10174   -10214   -10230   -10214   -10195   -10195 
  -10204   -10211   -10204   -10188   -10173   -10162   -10150   -10142 
  -10150   -10188   -10239   -10272   -10262   -10222   -10169   -10123 
  -10103   -10123   -10162   -10180   -10160   -10126   -10114   -10122 
  -10141   -10172   -10184   -10149   -10096   -10072   -10087   -10125 
  -10166   -10200   -10230   -10251   -10249   -10210   -10149   -10095 
  -10069   -10069   -10098   -10141   -10176   -10192   -10191   -10172 
  -10134   -10092   -10076   -10108   -10173   -10233   -10268   -10274 
  -10251   -10207   -10164   -10139   -10131   -10130   -10135   -10153 
  -10179   -10188   -10168   -10131   -10107   -10115   -10153   -10192 
  -10208   -10210   -10197   -10173   -10154   -10158   -10174   -10189 
  -10201   -10199   -10176   -10147   -10125   -10118   -10139   -10183 
  -10215   -10214   -10181   -10143   -10116   -10116   -10142   -10169 
  -10173   -10165   -10156   -10146   -10134   -10116   -10103   -10104 
  -10110   -10108   -10106   -10123   -10162   -10187   -10177   -10179 
  -10207   -10220   -10195   -10160   -10143   -10139   -10135   -10141 
  -10160   -10180   -10188   -10191   -10207   -10226   -10215   -10173 
  -10139   -10127   -10123   -10133   -10153   -10172   -10181   -10179 
  -10164   -10150   -10145   -10141   -10149   -10174   -10197   -10206 
  -10208   -10219   -10222   -10203   -10173   -10158   -10169   -10189 
  -10201   -10180   -10126   -10087   -10096   -10129   -10158   -10165 
  -10146   -10131   -10142   -10161   -10177   -10187   -10179   -10158 
  -10150   -10156   -10157   -10157   -10160   -10161   -10156   -10146 
  -10139   -10133   -10115   -10092   -10089   -10114   -10141   -10152 
  -10157   -10164   -10170   -10173   -10173   -10177   -10184   -10169 
  -10135   -10114   -10115   -10111   -10104   -10120   -10153   -10165 
  -10161   -10181   -10226   -10261   -10255   -10214   -10168   -10142 
  -10143   -10166   -10200   -10226   -10227   -10199   -10154   -10103 
  -10056   -10039   -10077   -10168   -10270   -10332   -10338   -10301 
  -10241   -10164   -10096   -10054   -10046   -10071   -10110   -10142 
  -10165   -10180   -10195   -10197   -10162   -10102   -10064   -10083 
  -10139   -10201   -10243   -10261   -10262   -10264   -10255   -10216 
  -10154   -10103   -10081   -10079   -10075   -10065   -10076   -10112 
  -10152   -10191   -10238   -10265   -10250   -10208   -10166   -10139 
  -10139   -10164   -10201   -10241   -10254   -10228   -10192   -10160 
  -10122   -10087   -10080   -10114   -10168   -10216   -10246   -10268 
  -10276   -10258   -10224   -10188   -10146   -10112   -10108   -10130 
  -10149   -10153   -10162   -10192   -10227   -10227   -10181   -10123 
  -10077   -10052   -10061   -10096   -10139   -10179   -10203   -10207 
  -10181   -10120   -10057   -10027   -10033   -10061   -10100   -10133 
  -10150   -10157   -10157   -10162   -10176   -10179   -10161   -10146 
  -10141   -10138   -10134   -10131   -10130   -10131   -10150   -10185 
  -10222   -10233   -10207   -10185   -10193   -10206   -10206   -10197 
  -10188   -10179   -10172   -10168   -10165   -10158   -10160   -10173 
  -10188   -10177   -10138   -10104   -10112   -10145   -10174   -10203 
  -10231   -10242   -10224   -10191   -10146   -10099   -10069   -10064 
  -10081   -10114   -10143   -10153   -10143   -10125   -10118   -10145 
  -10191   -10222   -10223   -10206   -10180   -10157   -10139   -10116 
  -10106   -10126   -10157   -10183   -10199   -10189   -10162   -10146 
  -10145   -10142   -10138   -10149   -10168   -10172   -10145   -10089 
  -10045   -10050   -10092   -10142   -10193   -10233   -10243   -10233 
  -10220   -10220   -10214   -10192   -10176   -10188   -10222   -10258 
  -10288   -10301   -10291   -10250   -10195   -10145   -10115   -10104 
  -10107   -10125   -10149   -10180   -10207   -10204   -10168   -10118 
  -10077   -10072   -10114   -10180   -10235   -10261   -10247   -10203 
  -10149   -10108   -10107   -10131   -10152   -10160   -10162   -10169 
  -10180   -10188   -10188   -10188   -10177   -10143   -10107   -10089 
  -10093   -10123   -10161   -10177   -10166   -10146   -10134   -10129 
  -10125   -10129   -10150   -10176   -10176   -10145   -10104   -10087 
  -10106   -10157   -10220   -10276   -10303   -10280   -10208   -10127 
  -10087   -10106   -10157   -10204   -10220   -10196   -10146   -10104 
  -10077   -10062   -10068   -10085   -10088   -10083   -10091   -10110 
  -10131   -10164   -10207   -10246   -10264   -10261   -10245   -10238 
  -10247   -10257   -10258   -10247   -10216   -10170   -10133   -10110 
  -10092   -10088   -10099   -10110   -10115   -10126   -10145   -10165 
  -10193   -10230   -10247   -10234   -10189   -10130   -10081   -10068 
  -10088   -10126   -10157   -10172   -10181   -10193   -10207   -10220 
  -10226   -10212   -10192   -10184   -10189   -10199   -10196   -10174 
  -10150   -10135   -10123   -10103   -10085   -10089   -10119   -10157 
  -10180   -10183   -10184   -10196   -10210   -10210   -10191   -10149 
  -10099   -10060   -10039   -10049   -10103   -10189   -10272   -10322 
  -10320   -10264   -10176   -10100   -10064   -10073   -10119   -10189 
  -10243   -10249   -10204   -10126   -10054   -10019   -10030   -10080 
  -10142   -10185   -10212   -10235   -10243   -10234   -10210   -10170 
  -10135   -10112   -10087   -10062   -10062   -10093   -10141   -10185 
  -10208   -10195   -10156   -10130   -10138   -10154   -10162   -10164 
  -10177   -10216   -10261   -10281   -10262   -10215   -10162   -10126 
  -10108   -10107   -10118   -10145   -10187   -10224   -10234   -10214 
  -10180   -10150   -10139   -10143   -10145   -10137   -10142   -10185 
  -10260   -10324   -10341   -10307   -10246   -10176   -10102   -10049 
  -10048   -10091   -10152   -10210   -10255   -10258   -10214   -10152 
  -10120   -10129   -10141   -10142   -10156   -10189   -10218   -10227 
  -10230   -10224   -10201   -10170   -10147   -10131   -10125   -10126 
  -10138   -10168   -10215   -10258   -10272   -10260   -10234   -10197 
  -10157   -10139   -10154   -10168   -10168   -10168   -10174   -10172 
  -10160   -10158   -10176   -10192   -10189   -10187   -10197   -10206 
  -10196   -10184   -10188   -10200   -10195   -10184   -10177   -10157 
  -10127   -10108   -10103   -10102   -10107   -10133   -10172   -10197 
  -10181   -10131   -10083   -10053   -10044   -10045   -10057   -10084 
  -10116   -10131   -10131   -10125   -10112   -10099   -10096   -10103 
  -10093   -10065   -10030   -10004   -10003   -10022   -10050   -10079 
  -10081   -10049   -10004    -9975    -9977   -10021   -10075   -10116 
  -10156   -10201   -10234   -10228   -10177   -10103   -10054   -10049 
  -10068   -10104   -10160   -10211   -10226   -10210   -10184   -10156 
  -10139   -10157   -10207   -10261   -10278   -10245   -10191   -10147 
  -10116   -10095   -10095   -10118   -10153   -10208   -10266   -10297 
  -10300   -10280   -10251   -10230   -10226   -10234   -10238   -10231 
  -10210   -10176   -10143   -10125   -10120   -10122   -10110   -10080 
  -10054   -10050   -10061   -10071   -10095   -10154   -10246   -10343 
  -10435   -10513   -10551   -10534   -10481   -10430   -10399   -10401 
  -10438   -10466   -10442   -10355   -10212   -10034    -9869    -9753 
   -9707    -9740    -9828    -9949   -10098   -10245   -10351   -10409 
  -10413   -10363   -10288   -10215   -10164   -10153   -10200   -10289 
  -10372   -10389   -10289   -10079    -9845    -9684    -9649    -9764 
  -10006   -10293   -10516   -10601   -10550   -10416   -10277   -10195 
  -10180   -10185   -10160   -10073    -9942    -9823    -9769    -9779 
   -9818    -9876    -9944    -9979    -9938    -9849    -9811    -9883 
  -10057   -10277   -10470   -10555   -10494   -10324   -10122    -9941 
   -9805    -9714    -9678    -9701    -9776    -9879    -9992   -10089 
  -10133   -10111   -10052   -10002   -10004   -10069   -10184   -10341 
  -10504   -10592   -10547   -10392   -10187   -10004    -9914    -9926 
  -10006   -10118   -10223   -10285   -10316   -10354   -10427   -10554 
  -10716   -10837   -10848   -10747   -10566   -10359   -10211   -10176 
  -10222   -10280   -10303   -10273   -10199   -10106   -10037   -10033 
  -10104   -10227   -10369   -10465   -10458   -10373   -10289   -10261 
  -10285   -10339   -10393   -10403   -10334   -10192   -10037    -9921 
   -9864    -9880    -9967   -10080   -10176   -10219   -10203   -10143 
  -10066    -9981    -9892    -9814    -9776    -9803    -9890   -10006 
  -10110   -10168   -10169   -10125   -10073   -10046   -10056   -10110 
  -10210   -10327   -10424   -10470   -10461   -10409   -10349   -10314 
  -10322   -10341   -10297   -10169   -10023    -9942    -9940    -9988 
  -10083   -10195   -10266   -10237   -10073    -9813    -9549    -9393 
   -9429    -9668   -10010   -10318   -10494   -10486   -10304   -10031 
   -9774    -9632    -9670    -9856   -10096   -10282   -10345   -10264 
  -10080    -9876    -9718    -9639    -9664    -9794    -9975   -10152 
  -10326   -10521   -10737   -10928   -11018   -10956   -10758   -10507 
  -10309   -10241   -10304   -10453   -10631   -10763   -10763   -10597 
  -10312   -10007    -9801    -9747    -9829   -10007   -10203   -10331 
  -10362   -10323   -10254   -10208   -10210   -10230   -10230   -10188 
  -10088    -9938    -9811    -9790    -9894   -10079   -10258   -10346 
  -10300   -10139    -9931    -9759    -9706    -9823   -10098   -10443 
  -10728   -10831   -10717   -10434   -10048    -9674    -9458    -9478 
   -9721   -10108   -10516   -10816   -10920   -10812   -10524   -10115 
   -9718    -9486    -9502    -9761   -10172   -10592   -10885   -10944 
  -10752   -10370    -9919    -9544    -9352    -9367    -9541    -9796 
  -10029   -10162   -10203   -10210   -10207   -10200   -10210   -10220 
  -10197   -10146   -10110   -10129   -10226   -10366   -10465   -10431 
  -10228    -9909    -9603    -9455    -9529    -9806   -10220   -10658 
  -10979   -11080   -10940   -10625   -10274   -10010    -9867    -9822 
   -9859    -9942   -10033   -10116   -10192   -10254   -10282   -10269 
  -10242   -10233   -10241   -10285   -10396   -10566   -10724   -10785 
  -10717   -10551   -10331   -10075    -9795    -9525    -9344    -9324 
   -9455    -9653    -9848    -9994   -10060   -10031    -9937    -9872 
   -9933   -10126   -10361   -10528   -10585   -10542   -10417   -10237 
  -10035    -9849    -9707    -9640    -9661    -9736    -9823    -9917 
  -10041   -10207   -10390   -10570   -10712   -10781   -10746   -10621 
  -10467   -10327   -10185   -10025    -9895    -9877    -9985   -10152 
  -10301   -10397   -10408   -10322   -10180   -10065   -10029   -10079 
  -10223   -10449   -10679   -10814   -10790   -10594   -10264    -9882 
   -9572    -9435    -9478    -9653    -9900   -10157   -10359   -10457 
  -10454   -10381   -10262   -10147   -10111   -10180   -10301   -10411 
  -10494   -10544   -10524   -10411   -10247   -10083    -9940    -9856 
   -9867    -9957   -10054   -10116   -10158   -10172   -10119    -9987 
   -9822    -9713    -9729    -9875   -10106   -10335   -10471   -10473 
  -10362   -10212   -10092   -10026   -10002   -10007   -10045   -10111 
  -10174   -10177   -10115   -10053   -10058   -10119   -10179   -10208 
  -10197   -10152   -10095   -10044    -9987    -9923    -9877    -9875 
   -9921   -10041   -10257   -10511   -10702   -10756   -10639   -10405 
  -10185   -10054   -10022   -10072   -10177   -10296   -10362   -10351 
  -10284   -10200   -10129   -10079   -10044   -10023   -10037   -10095 
  -10174   -10250   -10315   -10350   -10341   -10316   -10296   -10255 
  -10180   -10106   -10081   -10125   -10201   -10264   -10273   -10220 
  -10120   -10014    -9950    -9927    -9906    -9904    -9972   -10125 
  -10315   -10462   -10507   -10428   -10235    -9994    -9803    -9730 
   -9790    -9960   -10196   -10417   -10531   -10503   -10347   -10110 
   -9859    -9684    -9653    -9775    -9990   -10223   -10435   -10590 
  -10652   -10606   -10474   -10295   -10100    -9931    -9844    -9873 
  -10008   -10200   -10382   -10505   -10540   -10476   -10342   -10204 
  -10106   -10054   -10042   -10058   -10100   -10161   -10242   -10328 
  -10365   -10320   -10230   -10143   -10107   -10115   -10126   -10156 
  -10234   -10303   -10287   -10183   -10026    -9838    -9648    -9518 
   -9489    -9555    -9706    -9909   -10119   -10319   -10509   -10669 
  -10768   -10791   -10708   -10503   -10224    -9921    -9628    -9433 
   -9440    -9651    -9971   -10291   -10524   -10629   -10620   -10530 
  -10378   -10228   -10172   -10241   -10358   -10411   -10326   -10098 
   -9796    -9543    -9441    -9537    -9798   -10130   -10438   -10667 
  -10802   -10856   -10840   -10770   -10666   -10531   -10354   -10108 
   -9815    -9566    -9435    -9436    -9547    -9733    -9938   -10084 
  -10150   -10145   -10056    -9929    -9876    -9953   -10118   -10323 
  -10513   -10619   -10598   -10459   -10227    -9976    -9792    -9713 
   -9765    -9969   -10269   -10542   -10709   -10758   -10713   -10620 
  -10531   -10458   -10393   -10328   -10254   -10181   -10131   -10122 
  -10147   -10180   -10197   -10189   -10137   -10034    -9934    -9903 
   -9957   -10075   -10215   -10315   -10353   -10350   -10318   -10262 
  -10181   -10075    -9950    -9801    -9636    -9497    -9432    -9471 
   -9612    -9828   -10062   -10257   -10376   -10416   -10407   -10388 
  -10376   -10362   -10347   -10326   -10282   -10226   -10196   -10222 
  -10299   -10393   -10436   -10363   -10183    -9960    -9778    -9720 
   -9845   -10111   -10392   -10573   -10597   -10457   -10201    -9936 
   -9760    -9732    -9833    -9981   -10106   -10183   -10204   -10185 
  -10181   -10215   -10246   -10224   -10135    -9991    -9821    -9675 
   -9629    -9749   -10033   -10393   -10713   -10898   -10881   -10669 
  -10354   -10052    -9850    -9795    -9891   -10098   -10330   -10469 
  -10427   -10219    -9964    -9784    -9752    -9886   -10133   -10396 
  -10582   -10638   -10547   -10353   -10142   -10002    -9954    -9981 
  -10053   -10125   -10161   -10162   -10139   -10104   -10087   -10107 
  -10147   -10185   -10220   -10247   -10239   -10195   -10137   -10084 
  -10062   -10095   -10181   -10284   -10376   -10442   -10451   -10386 
  -10257   -10091    -9961    -9940   -10003   -10080   -10156   -10238 
  -10314   -10369   -10385   -10354   -10300   -10253   -10211   -10156 
  -10092   -10046   -10038   -10064   -10099   -10126   -10156   -10191 
  -10212   -10195   -10150   -10120   -10119   -10138   -10179   -10218 
  -10224   -10210   -10189   -10165   -10138   -10098   -10038    -9958 
   -9865    -9782    -9745    -9783    -9903   -10088   -10287   -10426 
  -10458   -10385   -10251   -10118   -10027   -10014   -10087   -10196 
  -10274   -10282   -10183    -9983    -9772    -9660    -9707    -9918 
  -10222   -10501   -10650   -10640   -10520   -10351   -10192   -10092 
  -10091   -10195   -10355   -10486   -10551   -10571   -10584   -10590 
  -10561   -10469   -10328   -10169   -10018    -9895    -9811    -9784 
   -9810    -9864    -9921    -9963    -9987    -9990    -9975    -9972 
  -10007   -10065   -10115   -10146   -10152   -10131   -10096   -10045 
   -9975    -9902    -9856    -9873    -9971   -10130   -10315   -10474 
  -10558   -10543   -10447   -10314   -10199   -10153   -10195   -10292 
  -10401   -10484   -10507   -10454   -10341   -10231   -10191   -10220 
  -10284   -10349   -10380   -10345   -10246   -10119   -10007    -9925 
   -9873    -9859    -9876    -9904    -9926    -9923    -9911    -9937 
  -10019   -10152   -10292   -10366   -10327   -10188   -10000    -9832 
   -9747    -9784    -9931   -10133   -10318   -10436   -10466   -10420 
  -10336   -10266   -10251   -10299   -10370   -10416   -10416   -10380 
