Origin Time       2025/06/03 22:18:00
Lat.              41.7
Long.             143.6
Depth. (km)       30
Mag.              5.2
Station Code      NMRH04
Station Lat.      43.3978
Station Long.     145.1224
Station Height(m) 30
Record Time       2025/06/03 22:19:23
Sampling Freq(Hz) 100Hz
Duration Time(s)  120
Dir.              6
Scale Factor      7845(gal)/8223790
Max. Acc. (gal)   0.446
Last Correction   2025/06/03 22:19:24
Memo.             
[...]
    9278     9329     9379     9363     9302     9248     9227     9262 
    9319     9331     9293     9244     9215     9209     9232     9266 
    9259     9239     9282     9337     9313     9256     9243     9254 
    9250     9208     9173     9223     9343     9427     9402     9312 
    9278     9325     9369     9371     9346     9271     9184     9169 
    9244     9355     9436     9393     9250     9178     9217     9289 
    9366     9409     9386     9332     9292     9316     9387     9383 
    9288     9205     9185     9228     9297     9313     9274     9265 
    9278     9273     9293     9360     9409     9387     9281     9144 
    9123     9248     9386     9448     9421     9346     9308     9301 
    9278     9269     9285     9327     9364     9315     9235     9279 
    9387     9409     9356     9320     9312     9298     9275     9251 
    9252     9296     9336     9356     9370     9351     9317     9293 
    9261     9262     9308     9329     9324     9320     9313     9331 
    9354     9316     9256     9221     9194     9188     9227     9289 
    9366     9424     9393     9293     9228     9228     9238     9263 
    9309     9328     9302     9259     9248     9306     9346     9310 
    9266     9234     9200     9201     9247     9316     9369     9356 
    9302     9278     9308     9367     9397     9348     9243     9159 
    9162     9250     9360     9428     9443     9425     9373     9310 
    9315     9363     9350     9266     9205     9224     9292     9320 
    9269     9207     9205     9236     9261     9283     9325     9375 
    9394     9377     9351     9328     9319     9315     9279     9239 
    9259     9305     9289     9236     9240     9313     9391     9414 
    9370     9286     9225     9228     9270     9323     9381     9397 
    9346     9286     9274     9319     9360     9346     9298     9275 
    9293     9310     9296     9277     9301     9346     9344     9281 
    9221     9238     9306     9347     9342     9300     9232     9224 
    9296     9337     9319     9288     9286     9320     9319     9259 
    9217     9219     9234     9248     9266     9286     9305     9292 
    9251     9238     9288     9362     9391     9327     9208     9178 
    9283     9396     9424     9387     9294     9208     9224     9290 
    9317     9317     9310     9309     9319     9289     9240     9250 
    9275     9271     9290     9343     9393     9398     9304     9188 
    9219     9348     9406     9374     9293     9228     9279     9406 
    9463     9413     9301     9200     9178     9240     9323     9371 
    9367     9335     9296     9265     9282     9342     9405     9459 
    9448     9333     9239     9261     9313     9316     9312     9352 
    9404     9408     9358     9281     9227     9236     9269     9278 
    9259     9243     9273     9333     9352     9312     9270     9270 
    9278     9248     9197     9200     9279     9371     9416     9393 
    9316     9234     9182     9171     9227     9347     9450     9437 
    9316     9197     9175     9251     9347     9363     9292     9251 
    9279     9271     9193     9146     9216     9354     9425     9382 
    9285     9213     9224     9298     9343     9302     9235     9217 
    9258     9315     9352     9367     9363     9336     9265     9170 
    9140     9207     9305     9362     9359     9343     9331     9269 
    9166     9116     9177     9310     9431     9451     9335     9177 
    9142     9263     9433     9514     9454     9312     9194     9153 
    9188     9271     9347     9373     9369     9364     9347     9305 
    9275     9256     9247     9286     9344     9375     9390     9377 
    9317     9283     9308     9335     9306     9256     9289     9390 
    9440     9428     9393     9327     9271     9273     9293     9294 
    9290     9296     9302     9290     9270     9273     9298     9324 
    9348     9362     9346     9325     9329     9301     9225     9190 
    9244     9333     9347     9266     9204     9204     9221     9252 
    9294     9317     9313     9296     9286     9266     9204     9182 
    9267     9356     9377     9346     9267     9198     9221     9335 
    9431     9432     9416     9444     9404     9246     9107     9104 
    9231     9359     9382     9346     9320     9308     9300     9285 
    9258     9242     9248     9262     9283     9304     9324     9355 
    9359     9308     9250     9223     9238     9302     9350     9313 
    9266     9312     9389     9370     9277     9240     9271     9267 
    9216     9194     9225     9277     9317     9331     9325     9315 
    9305     9294     9263     9261     9335     9410     9402     9350 
    9312     9308     9352     9418     9448     9405     9302     9231 
    9255     9344     9421     9420     9374     9320     9224     9120 
    9119     9215     9332     9412     9409     9375     9378     9363 
    9288     9236     9273     9340     9355     9331     9319     9306 
    9273     9246     9234     9223     9217     9228     9238     9232 
    9232     9251     9293     9327     9298     9259     9289     9327 
    9304     9278     9294     9340     9383     9377     9331     9294 
    9297     9332     9355     9335     9310     9324     9366     9385 
    9339     9267     9215     9185     9202     9258     9292     9290 
    9293     9310     9292     9238     9225     9259     9296     9343 
    9382     9364     9317     9302     9296     9278     9292     9336 
    9370     9359     9288     9207     9211     9282     9317     9297 
    9277     9254     9239     9271     9309     9283     9240     9244 
    9270     9274     9286     9332     9379     9364     9281     9186 
    9177     9298     9445     9490     9451     9367     9270     9246 
    9285     9302     9329     9377     9360     9289     9252     9265 
    9279     9294     9305     9304     9312     9333     9333     9315 
    9321     9347     9337     9288     9251     9228     9202     9196 
    9239     9327     9377     9336     9281     9270     9274     9277 
    9302     9339     9323     9231     9167     9229     9356     9435 
    9431     9386     9339     9289     9244     9223     9244     9292 
    9282     9221     9250     9363     9398     9323     9244     9235 
    9279     9304     9274     9261     9320     9400     9414     9337 
    9251     9239     9242     9188     9140     9205     9348     9440 
    9428     9390     9386     9369     9300     9219     9182     9207 
    9270     9343     9382     9373     9346     9319     9300     9324 
    9340     9282     9234     9277     9342     9358     9342     9342 
    9360     9331     9250     9213     9258     9323     9343     9296 
    9243     9250     9297     9328     9331     9309     9290     9296 
    9288     9261     9265     9320     9387     9382     9301     9258 
    9277     9294     9290     9256     9227     9271     9346     9394 
    9443     9458     9381     9282     9238     9231     9229     9219 
    9213     9248     9279     9259     9256     9296     9332     9346 
    9321     9279     9274     9281     9262     9232     9228     9300 
    9405     9425     9358     9274     9224     9243     9283     9288 
    9288     9317     9359     9385     9348     9252     9196     9216 
    9246     9263     9277     9288     9323     9354     9336     9312 
    9298     9274     9239     9211     9235     9348     9470     9501 
    9443     9344     9266     9261     9315     9377     9386     9309 
    9209     9173     9234     9340     9379     9342     9321     9315 
    9278     9261     9313     9396     9410     9321     9227     9246 
    9321     9313     9231     9200     9279     9379     9398     9331 
    9258     9266     9319     9317     9283     9308     9375     9393 
    9340     9278     9259     9275     9281     9229     9155     9148 
    9223     9305     9324     9274     9220     9212     9254     9301 
    9279     9216     9208     9255     9321     9406     9482     9532 
    9576     9535     9355     9189     9159     9201     9186     9103 
    9055     9101     9196     9294     9332     9261     9188     9209 
    9247     9251     9273     9304     9300     9310     9400     9522 
    9586     9553     9455     9342     9273     9267     9298     9354 
    9425     9464     9433     9335     9223     9198     9293     9393 
    9378     9283     9223     9186     9134     9161     9310     9459 
    9493     9394     9207     9054     9073     9235     9364     9398 
    9412     9423     9418     9405     9351     9236     9142     9159 
    9255     9317     9328     9344     9352     9325     9292     9248 
    9192     9184     9246     9336     9427     9495     9514     9483 
    9439     9379     9316     9319     9394     9425     9321     9144 
    9035     9053     9127     9192     9251     9316     9369     9360 
    9242     9072     8991     9058     9188     9277     9328     9410 
    9513     9509     9367     9216     9162     9193     9244     9279 
    9308     9344     9362     9344     9333     9356     9390     9383 
    9279     9126     9082     9193     9337     9423     9435     9383 
    9313     9270     9231     9192     9174     9196     9301     9440 
    9478     9420     9350     9293     9265     9228     9173     9224 
    9391     9501     9483     9373     9225     9157     9201     9279 
    9342     9377     9409     9443     9386     9236     9143     9154 
    9197     9250     9306     9350     9410     9482     9509     9506 
    9487     9437     9367     9277     9154     9053     9043     9120 
    9238     9343     9400     9443     9489     9460     9305     9093 
    8959     8989     9158     9367     9529     9597     9563     9463 
    9339     9209     9138     9169     9229     9252     9244     9254 
    9321     9400     9451     9499     9468     9290     9067     8951 
    8997     9113     9185     9224     9285     9391     9552     9647 
    9555     9379     9244     9142     9076     9058     9089     9170 
    9263     9359     9468     9494     9382     9252     9232     9331 
    9463     9514     9474     9424     9416     9420     9370     9254 
    9136     9073     9050     9069     9161     9317     9478     9575 
    9567     9463     9335     9254     9235     9254     9277     9282 
    9278     9289     9298     9298     9308     9309     9271     9196 
    9100     9042     9081     9207     9363     9486     9524     9458 
    9294     9126     9076     9108     9140     9196     9283     9374 
    9468     9539     9533     9485     9447     9382     9239     9097 
    9115     9278     9412     9443     9447     9455     9386     9228 
    9069     8965     8954     9024     9111     9197     9306     9418 
    9525     9597     9543     9350     9157     9124     9252     9387 
    9433     9462     9513     9506     9400     9263     9169     9112 
    9078     9062     9096     9261     9521     9668     9603     9450 
    9344     9315     9316     9310     9304     9342     9397     9375 
    9312     9329     9418     9445     9340     9184     9077     9015 
    8989     9049     9209     9410     9551     9558     9443     9265 
    9086     8954     8907     8958     9090     9297     9520     9621 
    9566     9456     9355     9259     9181     9150     9200     9329 
    9459     9497     9406     9252     9142     9085     9073     9115 
    9167     9223     9335     9481     9586     9620     9589     9497 
    9337     9144     9038     9117     9336     9524     9535     9401 
    9269     9219     9232     9259     9256     9231     9198     9157 
    9159     9290     9497     9593     9491     9285     9080     8965 
    9016     9181     9329     9390     9379     9397     9456     9428 
    9319     9250     9228     9252     9329     9364     9343     9340 
    9339     9281     9182     9119     9140     9234     9355     9468 
    9529     9509     9410     9292     9259     9340     9433     9431 
    9312     9157     9053     9062     9194     9347     9413     9391 
    9328     9297     9325     9329     9234     9101     9061     9144 
    9288     9404     9459     9466     9425     9325     9213     9158 
    9204     9325     9401     9335     9213     9159     9185     9236 
    9274     9335     9435     9477     9416     9306     9204     9219 
    9370     9490     9521     9545     9551     9471     9290     9066 
    8945     9045     9301     9504     9510     9387     9278     9243 
    9232     9190     9165     9198     9243     9275     9313     9342 
    9374     9413     9424     9421     9414     9366     9267     9140 
    9035     9050     9209     9385     9439     9366     9244     9108 
    9007     9001     9076     9170     9265     9369     9483     9533 
    9468     9373     9306     9297     9355     9398     9398     9410 
    9404     9344     9274     9209     9167     9197     9271     9332 
    9337     9263     9158     9138     9255     9416     9487     9450 
    9373     9317     9275     9211     9150     9159     9255     9410 
    9567     9657     9639     9475     9231     9050     9013     9105 
    9259     9375     9413     9443     9475     9417     9248     9082 
    9011     9035     9123     9248     9385     9509     9594     9587 
    9472     9312     9205     9219     9325     9405     9356     9194 
    9070     9109     9242     9319     9293     9229     9223     9262 
    9248     9186     9205     9377     9618     9767     9733     9563 
    9356     9166     9003     8910     8972     9165     9335     9381 
    9351     9320     9294     9262     9217     9186     9220     9297 
    9351     9379     9356     9267     9216     9252     9293     9285 
    9277     9329     9428     9493     9462     9340     9220     9202 
    9242     9235     9193     9201     9261     9278     9224     9197 
    9220     9224     9181     9119     9135     9289     9475     9574 
    9606     9598     9526     9385     9228     9138     9105     9080 
    9105     9201     9310     9400     9425     9364     9282     9213 
    9147     9132     9189     9254     9306     9379     9451     9489 
    9472     9396     9309     9282     9312     9320     9269     9213 
    9201     9231     9270     9281     9278     9308     9354     9354 
    9317     9294     9305     9336     9363     9385     9375     9290 
    9200     9190     9227     9283     9371     9433     9447     9414 
    9298     9180     9212     9347     9445     9468     9410     9335 
    9325     9312     9228     9165     9180     9240     9275     9219 
    9127     9121     9217     9313     9331     9289     9265     9313 
    9410     9452     9355     9192     9130     9209     9313     9354 
    9342     9329     9333     9321     9269     9235     9297     9401 
    9433     9387     9327     9298     9301     9282     9223     9207 
    9293     9420     9467     9414     9351     9335     9325     9277 
    9219     9198     9212     9212     9162     9111     9163     9320 
    9494     9609     9598     9458     9294     9208     9190     9221 
    9304     9379     9375     9305     9240     9234     9273     9281 
    9240     9213     9209     9243     9328     9387     9383     9381 
    9366     9339     9351     9375     9373     9355     9316     9297 
    9340     9371     9344     9323     9339     9348     9310     9217 
    9126     9103     9143     9205     9238     9234     9231     9215 
    9180     9193     9259     9344     9451     9541     9567     9558 
    9516     9424     9325     9285     9302     9305     9229     9108 
    9015     8995     9072     9221     9369     9450     9455     9418 
    9400     9375     9321     9293     9288     9298     9363     9413 
    9389     9362     9335     9282     9251     9239     9234     9258 
    9298     9332     9371     9432     9514     9543     9441     9266 
    9140     9104     9108     9105     9116     9161     9205     9211 
    9184     9196     9256     9290     9266     9215     9204     9266 
    9305     9271     9244     9235     9224     9271     9366     9423 
    9412     9362     9298     9242     9216     9229     9239     9225 
    9248     9329     9428     9512     9547     9499     9383     9250 
    9139     9100     9135     9192     9251     9310     9374     9477 
    9567     9570     9518     9452     9382     9339     9352     9412 
    9445     9412     9379     9389     9381     9320     9209     9076 
    9011     9046     9140     9271     9378     9408     9396     9371 
    9356     9371     9387     9371     9337     9320     9290     9225 
    9209     9282     9350     9313     9190     9082     9034     9012 
    9027     9105     9207     9273     9296     9274     9235     9234 
    9258     9259     9259     9316     9409     9460     9427     9370 
    9346     9348     9354     9309     9232     9220     9273     9317 
    9335     9336     9337     9355     9350     9281     9194     9147 
    9162     9240     9356     9440     9452     9436     9432     9402 
    9325     9256     9216     9189     9198     9267     9358     9414 
    9397     9298     9180     9142     9194     9269     9327     9355 
    9333     9292     9275     9302     9337     9329     9308     9305 
    9296     9275     9261     9250     9275     9339     9404     9451 
    9483     9508     9497     9417     9329     9315     9363     9405 
    9391     9321     9215     9101     9050     9092     9169     9232 
    9293     9346     9375     9374     9320     9231     9157     9124 
    9154     9251     9359     9425     9444     9417     9362     9306 
    9278     9275     9277     9271     9278     9300     9290     9244 
    9194     9155     9161     9208     9236     9254     9279     9286 
    9269     9238     9208     9212     9261     9333     9414     9464 
    9445     9390     9360     9350     9337     9329     9319     9300 
    9315     9382     9448     9464     9448     9421     9389     9354 
    9319     9285     9240     9200     9198     9232     9265     9258 
    9212     9178     9182     9223     9312     9413     9462     9450 
    9400     9348     9327     9317     9310     9336     9379     9381 
    9317     9232     9205     9244     9275     9277     9270     9273 
    9266     9219     9163     9180     9270     9391     9514     9572 
    9525     9418     9297     9184     9097     9067     9128     9266 
    9378     9400     9370     9335     9312     9297     9258     9208 
    9220     9301     9383     9428     9418     9342     9227     9132 
    9096     9135     9229     9332     9400     9428     9427     9402 
    9367     9333     9327     9358     9381     9359     9288     9200 
    9139     9108     9117     9196     9282     9317     9312     9286 
    9277     9321     9369     9362     9333     9319     9313     9298 
    9270     9240     9201     9165     9188     9281     9364     9377 
    9354     9335     9297     9215     9127     9085     9101     9139 
    9173     9248     9385     9499     9495     9373     9228     9151 
    9181     9271     9313     9282     9258     9282     9308     9296 
    9278     9301     9321     9290     9250     9243     9274     9329 
    9373     9393     9427     9454     9431     9371     9298     9254 
