Origin Time       2025/06/03 22:18:00
Lat.              41.7
Long.             143.6
Depth. (km)       30
Mag.              5.2
Station Code      NMRH03
Station Lat.      43.5508
Station Long.     144.9665
Station Height(m) -197.5
Record Time       2025/06/03 22:19:24
Sampling Freq(Hz) 100Hz
Duration Time(s)  120
Dir.              3
Scale Factor      2942(gal)/8224139
Max. Acc. (gal)   0.110
Last Correction   2025/06/03 22:19:25
Memo.             
[...]
 -137785  -137786  -137745  -137705  -137712  -137739  -137737  -137709 
 -137689  -137691  -137679  -137629  -137589  -137594  -137605  -137590 
 -137602  -137658  -137689  -137689  -137686  -137655  -137617  -137623 
 -137648  -137677  -137725  -137772  -137802  -137812  -137781  -137724 
 -137706  -137706  -137679  -137650  -137632  -137633  -137673  -137706 
 -137714  -137712  -137695  -137681  -137690  -137687  -137673  -137691 
 -137695  -137644  -137620  -137652  -137693  -137729  -137751  -137735 
 -137709  -137720  -137754  -137752  -137722  -137702  -137679  -137644 
 -137623  -137640  -137689  -137716  -137706  -137709  -137717  -137683 
 -137632  -137612  -137631  -137667  -137697  -137695  -137670  -137677 
 -137712  -137717  -137681  -137608  -137556  -137589  -137656  -137694 
 -137706  -137701  -137674  -137667  -137695  -137697  -137666  -137641 
 -137632  -137639  -137643  -137614  -137594  -137623  -137656  -137681 
 -137704  -137712  -137709  -137700  -137674  -137652  -137635  -137606 
 -137598  -137620  -137648  -137683  -137713  -137714  -137697  -137686 
 -137691  -137708  -137712  -137686  -137651  -137643  -137658  -137671 
 -137683  -137710  -137731  -137704  -137675  -137678  -137678  -137683 
 -137682  -137640  -137610  -137619  -137604  -137590  -137636  -137691 
 -137713  -137697  -137671  -137693  -137732  -137722  -137698  -137685 
 -137666  -137651  -137650  -137663  -137705  -137751  -137758  -137743 
 -137733  -137729  -137736  -137751  -137755  -137728  -137670  -137617 
 -137616  -137650  -137691  -137729  -137736  -137709  -137700  -137722 
 -137728  -137698  -137674  -137664  -137663  -137673  -137671  -137655 
 -137666  -137704  -137718  -137693  -137671  -137685  -137721  -137752 
 -137762  -137754  -137733  -137717  -137708  -137694  -137674  -137647 
 -137631  -137648  -137685  -137710  -137713  -137694  -137690  -137718 
 -137747  -137754  -137737  -137718  -137706  -137683  -137655  -137647 
 -137651  -137652  -137643  -137632  -137644  -137670  -137660  -137608 
 -137581  -137601  -137614  -137605  -137596  -137571  -137546  -137562 
 -137620  -137679  -137693  -137673  -137685  -137714  -137735  -137747 
 -137722  -137689  -137685  -137682  -137681  -137690  -137685  -137678 
 -137690  -137705  -137706  -137691  -137658  -137624  -137616  -137620 
 -137621  -137624  -137636  -137652  -137674  -137704  -137708  -137660 
 -137587  -137546  -137556  -137600  -137637  -137648  -137629  -137609 
 -137625  -137677  -137705  -137695  -137698  -137725  -137745  -137748 
 -137733  -137716  -137718  -137727  -137725  -137724  -137701  -137668 
 -137674  -137679  -137631  -137582  -137566  -137566  -137605  -137660 
 -137687  -137701  -137682  -137620  -137581  -137579  -137585  -137604 
 -137636  -137652  -137686  -137744  -137760  -137747  -137752  -137752 
 -137752  -137770  -137778  -137763  -137722  -137655  -137610  -137614 
 -137613  -137605  -137644  -137698  -137712  -137709  -137708  -137721 
 -137763  -137781  -137764  -137745  -137704  -137655  -137668  -137709 
 -137716  -137713  -137701  -137673  -137674  -137697  -137708  -137722 
 -137706  -137631  -137578  -137594  -137628  -137648  -137646  -137624 
 -137602  -137594  -137608  -137655  -137714  -137724  -137667  -137624 
 -137648  -137690  -137689  -137660  -137641  -137640  -137647  -137654 
 -137658  -137639  -137613  -137621  -137646  -137655  -137639  -137613 
 -137619  -137616  -137581  -137585  -137639  -137698  -137744  -137768 
 -137748  -137700  -137673  -137675  -137702  -137755  -137781  -137766 
 -137744  -137724  -137716  -137722  -137713  -137700  -137709  -137716 
 -137720  -137737  -137740  -137709  -137673  -137646  -137631  -137643 
 -137695  -137744  -137744  -137709  -137673  -137643  -137629  -137640 
 -137667  -137700  -137747  -137791  -137793  -137751  -137716  -137691 
 -137660  -137658  -137695  -137718  -137712  -137706  -137686  -137654 
 -137658  -137675  -137674  -137700  -137731  -137718  -137700  -137687 
 -137670  -137670  -137697  -137724  -137737  -137751  -137756  -137731 
 -137689  -137654  -137617  -137582  -137566  -137581  -137612  -137650 
 -137685  -137685  -137652  -137639  -137652  -137664  -137654  -137633 
 -137641  -137664  -137685  -137717  -137736  -137725  -137710  -137710 
 -137727  -137751  -137751  -137701  -137639  -137606  -137590  -137601 
 -137637  -137652  -137662  -137689  -137702  -137694  -137693  -137701 
 -137709  -137700  -137666  -137654  -137675  -137686  -137691  -137722 
 -137763  -137774  -137758  -137744  -137717  -137666  -137637  -137655 
 -137666  -137643  -137612  -137593  -137602  -137641  -137678  -137695 
 -137698  -137700  -137713  -137716  -137690  -137668  -137658  -137663 
 -137679  -137683  -137673  -137656  -137647  -137659  -137664  -137637 
 -137600  -137582  -137586  -137596  -137619  -137643  -137636  -137623 
 -137636  -137656  -137654  -137624  -137605  -137637  -137691  -137686 
 -137640  -137631  -137647  -137664  -137660  -137617  -137578  -137573 
 -137600  -137641  -137663  -137674  -137679  -137674  -137691  -137722 
 -137709  -137662  -137628  -137606  -137583  -137565  -137554  -137558 
 -137587  -137616  -137631  -137641  -137644  -137627  -137621  -137632 
 -137625  -137606  -137624  -137693  -137766  -137806  -137822  -137810 
 -137789  -137787  -137803  -137814  -137806  -137763  -137706  -137673 
 -137648  -137619  -137617  -137658  -137678  -137663  -137670  -137694 
 -137709  -137743  -137760  -137754  -137774  -137805  -137820  -137833 
 -137837  -137813  -137776  -137760  -137764  -137747  -137708  -137690 
 -137691  -137697  -137714  -137733  -137727  -137722  -137741  -137735 
 -137701  -137683  -137679  -137685  -137713  -137720  -137700  -137701 
 -137691  -137646  -137632  -137652  -137658  -137652  -137640  -137635 
 -137651  -137635  -137594  -137594  -137619  -137631  -137643  -137663 
 -137683  -137698  -137700  -137667  -137609  -137567  -137552  -137531 
 -137511  -137511  -137535  -137562  -137555  -137536  -137551  -137598 
 -137654  -137693  -137704  -137697  -137678  -137667  -137673  -137686 
 -137709  -137729  -137720  -137689  -137654  -137621  -137604  -137590 
 -137560  -137525  -137523  -137559  -137609  -137650  -137693  -137731 
 -137752  -137762  -137755  -137760  -137805  -137833  -137805  -137755 
 -137731  -137741  -137760  -137774  -137793  -137789  -137728  -137651 
 -137605  -137565  -137533  -137559  -137609  -137636  -137666  -137700 
 -137722  -137744  -137758  -137764  -137762  -137736  -137718  -137748 
 -137802  -137806  -137741  -137662  -137612  -137600  -137601  -137608 
 -137631  -137631  -137589  -137577  -137606  -137621  -137631  -137656 
 -137666  -137686  -137735  -137748  -137713  -137659  -137610  -137605 
 -137632  -137664  -137712  -137735  -137705  -137683  -137706  -137747 
 -137762  -137720  -137652  -137616  -137592  -137575  -137627  -137717 
 -137787  -137849  -137874  -137808  -137718  -137670  -137644  -137654 
 -137667  -137639  -137635  -137682  -137714  -137740  -137783  -137785 
 -137731  -137666  -137623  -137593  -137567  -137562  -137583  -137637 
 -137709  -137749  -137766  -137782  -137772  -137728  -137658  -137608 
 -137616  -137654  -137693  -137743  -137786  -137772  -137713  -137690 
 -137743  -137795  -137774  -137694  -137623  -137556  -137469  -137408 
 -137417  -137451  -137492  -137554  -137636  -137717  -137763  -137754 
 -137708  -137659  -137628  -137629  -137667  -137721  -137764  -137766 
 -137710  -137637  -137587  -137570  -137593  -137644  -137704  -137754 
 -137778  -137763  -137731  -137713  -137682  -137639  -137629  -137633 
 -137633  -137675  -137745  -137768  -137748  -137758  -137778  -137745 
 -137697  -137674  -137683  -137713  -137705  -137656  -137616  -137582 
 -137554  -137554  -137586  -137623  -137646  -137679  -137748  -137820 
 -137828  -137767  -137682  -137613  -137593  -137614  -137654  -137679 
 -137666  -137621  -137571  -137532  -137533  -137590  -137671  -137732 
 -137774  -137798  -137775  -137731  -137712  -137718  -137737  -137739 
 -137693  -137636  -137613  -137613  -137610  -137612  -137617  -137621 
 -137639  -137675  -137704  -137681  -137604  -137550  -137593  -137693 
 -137754  -137748  -137690  -137628  -137631  -137671  -137694  -137718 
 -137752  -137772  -137759  -137731  -137716  -137671  -137610  -137616 
 -137664  -137690  -137697  -137695  -137700  -137720  -137732  -137727 
 -137728  -137756  -137810  -137856  -137841  -137767  -137710  -137697 
 -137698  -137693  -137668  -137652  -137658  -137675  -137695  -137694 
 -137667  -137635  -137632  -137677  -137705  -137662  -137583  -137554 
 -137598  -137629  -137605  -137593  -137614  -137629  -137655  -137701 
 -137725  -137701  -137662  -137632  -137608  -137574  -137531  -137496 
 -137506  -137563  -137627  -137654  -137646  -137650  -137671  -137664 
 -137627  -137596  -137610  -137670  -137717  -137710  -137712  -137728 
 -137683  -137623  -137621  -137646  -137659  -137664  -137656  -137647 
 -137663  -137694  -137694  -137644  -137594  -137597  -137659  -137752 
 -137857  -137920  -137883  -137801  -137737  -137664  -137592  -137581 
 -137605  -137613  -137629  -137656  -137652  -137625  -137624  -137679 
 -137755  -137798  -137817  -137821  -137821  -137840  -137852  -137845 
 -137844  -137828  -137783  -137758  -137751  -137704  -137624  -137574 
 -137571  -137597  -137633  -137659  -137687  -137732  -137755  -137718 
 -137656  -137635  -137650  -137663  -137660  -137632  -137581  -137547 
 -137565  -137623  -137675  -137702  -137694  -137652  -137629  -137659 
 -137698  -137722  -137748  -137770  -137731  -137631  -137562  -137560 
 -137570  -137558  -137556  -137596  -137636  -137635  -137619  -137639 
 -137678  -137683  -137675  -137681  -137673  -137644  -137628  -137647 
 -137681  -137701  -137739  -137771  -137745  -137704  -137663  -137610 
 -137601  -137629  -137652  -137687  -137718  -137728  -137754  -137786 
 -137779  -137729  -137668  -137650  -137689  -137737  -137748  -137710 
 -137660  -137631  -137628  -137659  -137694  -137687  -137663  -137656 
 -137663  -137690  -137717  -137743  -137785  -137836  -137870  -137867 
 -137853  -137848  -137813  -137745  -137679  -137639  -137619  -137602 
 -137604  -137628  -137643  -137640  -137621  -137601  -137593  -137565 
 -137524  -137535  -137612  -137722  -137806  -137822  -137812  -137787 
 -137713  -137636  -137643  -137712  -137772  -137824  -137876  -137911 
 -137917  -137867  -137774  -137687  -137613  -137555  -137577  -137666 
 -137717  -137718  -137744  -137762  -137716  -137637  -137574  -137554 
 -137548  -137508  -137477  -137508  -137573  -137632  -137664  -137655 
 -137616  -137577  -137578  -137623  -137651  -137678  -137759  -137839 
 -137841  -137799  -137770  -137727  -137646  -137577  -137554  -137554 
 -137531  -137471  -137427  -137448  -137529  -137635  -137717  -137725 
 -137690  -137682  -137709  -137740  -137749  -137720  -137678  -137679 
 -137706  -137714  -137720  -137732  -137712  -137660  -137629  -137631 
 -137639  -137655  -137668  -137633  -137563  -137494  -137428  -137421 
 -137502  -137565  -137559  -137571  -137617  -137625  -137605  -137602 
 -137614  -137675  -137782  -137862  -137902  -137891  -137810  -137702 
 -137654  -137706  -137781  -137797  -137795  -137794  -137779  -137775 
 -137764  -137697  -137589  -137519  -137509  -137504  -137475  -137462 
 -137467  -137477  -137512  -137554  -137567  -137606  -137700  -137785 
 -137840  -137851  -137795  -137739  -137714  -137668  -137598  -137575 
 -137592  -137578  -137539  -137529  -137569  -137652  -137743  -137779 
 -137754  -137717  -137697  -137683  -137671  -137673  -137685  -137686 
 -137700  -137735  -137760  -137764  -137747  -137709  -137668  -137632 
 -137601  -137604  -137655  -137712  -137728  -137740  -137802  -137857 
 -137852  -137843  -137856  -137849  -137822  -137779  -137718  -137662 
 -137624  -137623  -137675  -137749  -137803  -137810  -137752  -137650 
 -137573  -137581  -137678  -137771  -137790  -137779  -137771  -137752 
 -137764  -137814  -137810  -137770  -137766  -137778  -137767  -137713 
 -137632  -137590  -137608  -137639  -137654  -137648  -137643  -137641 
 -137624  -137594  -137573  -137554  -137538  -137533  -137567  -137658 
 -137762  -137813  -137767  -137663  -137598  -137566  -137515  -137494 
 -137548  -137589  -137587  -137620  -137660  -137648  -137629  -137627 
 -137632  -137685  -137752  -137771  -137774  -137782  -137787  -137782 
 -137724  -137631  -137582  -137577  -137559  -137509  -137486  -137529 
 -137609  -137681  -137697  -137652  -137605  -137578  -137569  -137594 
 -137629  -137640  -137646  -137664  -137697  -137724  -137712  -137668 
 -137643  -137641  -137659  -137698  -137747  -137787  -137809  -137790 
 -137731  -137686  -137660  -137647  -137690  -137741  -137704  -137614 
 -137540  -137496  -137494  -137513  -137523  -137551  -137612  -137687 
 -137771  -137840  -137864  -137857  -137871  -137903  -137891  -137835 
 -137803  -137799  -137771  -137720  -137679  -137644  -137598  -137571 
 -137570  -137570  -137589  -137639  -137687  -137718  -137722  -137709 
 -137709  -137732  -137767  -137797  -137782  -137720  -137643  -137586 
 -137563  -137566  -137597  -137671  -137758  -137801  -137789  -137748 
 -137718  -137693  -137662  -137647  -137623  -137562  -137529  -137550 
 -137559  -137552  -137550  -137532  -137498  -137465  -137462  -137515 
 -137563  -137581  -137600  -137620  -137664  -137755  -137840  -137902 
 -137960  -137982  -137941  -137880  -137825  -137772  -137731  -137697 
 -137683  -137690  -137682  -137670  -137691  -137717  -137736  -137747 
 -137717  -137667  -137643  -137652  -137686  -137709  -137704  -137701 
 -137724  -137763  -137806  -137844  -137843  -137828  -137852  -137876 
 -137868  -137848  -137812  -137798  -137824  -137833  -137814  -137785 
 -137763  -137782  -137801  -137756  -137654  -137556  -137512  -137511 
 -137523  -137531  -137540  -137559  -137582  -137600  -137614  -137613 
 -137589  -137556  -137529  -137505  -137475  -137461  -137517  -137605 
 -137640  -137646  -137671  -137709  -137735  -137748  -137741  -137689 
 -137617  -137616  -137678  -137713  -137710  -137697  -137671  -137654 
 -137663  -137677  -137668  -137659  -137671  -137693  -137673  -137608 
 -137559  -137555  -137577  -137601  -137593  -137558  -137563  -137635 
 -137716  -137775  -137816  -137806  -137764  -137740  -137710  -137654 
 -137597  -137539  -137498  -137516  -137571  -137625  -137662  -137663 
 -137648  -137660  -137701  -137731  -137721  -137683  -137648  -137619 
 -137585  -137569  -137585  -137594  -137606  -137650  -137650  -137594 
 -137592  -137636  -137656  -137679  -137673  -137613  -137587  -137592 
 -137578  -137583  -137582  -137547  -137555  -137620  -137694  -137756 
 -137786  -137776  -137756  -137744  -137744  -137747  -137724  -137683 
 -137644  -137596  -137555  -137548  -137558  -137589  -137629  -137651 
 -137674  -137702  -137739  -137799  -137830  -137814  -137799  -137803 
 -137829  -137872  -137898  -137874  -137806  -137741  -137714  -137712 
 -137717  -137752  -137793  -137799  -137805  -137835  -137836  -137803 
 -137764  -137740  -137741  -137749  -137762  -137772  -137772  -137793 
 -137809  -137779  -137736  -137709  -137691  -137662  -137616  -137601 
 -137624  -137646  -137679  -137728  -137758  -137772  -137798  -137832 
 -137853  -137852  -137840  -137826  -137822  -137813  -137755  -137679 
 -137640  -137627  -137594  -137542  -137509  -137484  -137443  -137427 
 -137443  -137469  -137511  -137560  -137589  -137598  -137623  -137648 
 -137641  -137644  -137675  -137686  -137673  -137667  -137664  -137664 
 -137668  -137682  -137687  -137639  -137569  -137538  -137528  -137531 
 -137578  -137639  -137667  -137690  -137735  -137768  -137772  -137771 
 -137754  -137705  -137647  -137606  -137586  -137550  -137489  -137458 
 -137471  -137502  -137540  -137586  -137641  -137706  -137735  -137704 
 -137675  -137681  -137695  -137706  -137697  -137686  -137701  -137739 
 -137789  -137812  -137783  -137741  -137704  -137685  -137705  -137697 
 -137637  -137616  -137633  -137635  -137636  -137632  -137608  -137628 
 -137712  -137789  -137806  -137772  -137725  -137687  -137629  -137544 
 -137486  -137465  -137457  -137477  -137538  -137590  -137601  -137585 
 -137569  -137563  -137560  -137546  -137536  -137555  -137593  -137654 
 -137729  -137774  -137783  -137793  -137795  -137763  -137725  -137724 
 -137727  -137712  -137705  -137702  -137700  -137710  -137729  -137751 
 -137775  -137782  -137763  -137733  -137687  -137623  -137583  -137589 
 -137613  -137656  -137732  -137833  -137918  -137953  -137951  -137928 
 -137884  -137856  -137862  -137867  -137879  -137889  -137843  -137763 
 -137702  -137675  -137681  -137685  -137664  -137631  -137578  -137520 
 -137498  -137509  -137536  -137570  -137590  -137610  -137647  -137685 
 -137716  -137725  -137709  -137691  -137681  -137675  -137667  -137663 
 -137674  -137693  -137721  -137764  -137806  -137802  -137741  -137671 
 -137632  -137635  -137674  -137710  -137713  -137694  -137651  -137583 
 -137517  -137492  -137500  -137511  -137531  -137565  -137581  -137575 
 -137563  -137547  -137551  -137608  -137671  -137689  -137687  -137682 
 -137648  -137613  -137612  -137637  -137674  -137693  -137675  -137646 
 -137633  -137646  -137664  -137664  -137667  -137694  -137716  -137706 
 -137691  -137682  -137667  -137651  -137633  -137625  -137660  -137716 
 -137732  -137713  -137683  -137652  -137639  -137633  -137628  -137631 
 -137631  -137628  -137624  -137616  -137636  -137690  -137729  -137752 
 -137770  -137775  -137791  -137808  -137794  -137778  -137770  -137741 
 -137717  -137718  -137725  -137736  -137749  -137747  -137732  -137728 
 -137743  -137745  -137722  -137704  -137718  -137744  -137741  -137709 
 -137674  -137651  -137639  -137639  -137655  -137681  -137705  -137729 
 -137770  -137793  -137774  -137754  -137733  -137704  -137664  -137585 
 -137492  -137435  -137428  -137470  -137524  -137565  -137619  -137670 
 -137686  -137698  -137714  -137712  -137716  -137737  -137743  -137712 
 -137663  -137621  -137604  -137616  -137640  -137655  -137679  -137716 
 -137737  -137736  -137725  -137722  -137717  -137686  -137651  -137621 
 -137598  -137608  -137654  -137721  -137767  -137748  -137713  -137718 
 -137722  -137701  -137695  -137706  -137701  -137689  -137686  -137685 
 -137678  -137671  -137674  -137689  -137685  -137647  -137612  -137629 
 -137689  -137714  -137695  -137687  -137701  -137716  -137737  -137754 
 -137749  -137744  -137725  -137682  -137658  -137655  -137659  -137675 
 -137690  -137685  -137659  -137623  -137596  -137585  -137592  -137623 
 -137668  -137708  -137716  -137691  -137666  -137644  -137598  -137536 
 -137508  -137539  -137597  -137644  -137677  -137700  -137702  -137683 
 -137644  -137609  -137597  -137605  -137639  -137678  -137694  -137681 
 -137654  -137623  -137592  -137569  -137563  -137560  -137566  -137590 
 -137619  -137656  -137704  -137729  -137710  -137689  -137695  -137700 
 -137687  -137685  -137677  -137631  -137573  -137552  -137556  -137565 
 -137586  -137619  -137660  -137712  -137745  -137764  -137771  -137751 
 -137717  -137695  -137678  -137667  -137673  -137681  -137679  -137667 
 -137646  -137646  -137658  -137656  -137673  -137708  -137714  -137682 
