Origin Time       2025/06/03 22:18:00
Lat.              41.7
Long.             143.6
Depth. (km)       30
Mag.              5.2
Station Code      NMRH03
Station Lat.      43.5508
Station Long.     144.9665
Station Height(m) -197.5
Record Time       2025/06/03 22:19:24
Sampling Freq(Hz) 100Hz
Duration Time(s)  120
Dir.              1
Scale Factor      2942(gal)/8224139
Max. Acc. (gal)   0.265
Last Correction   2025/06/03 22:19:25
Memo.             
[...]
  264439   264458   264442   264444   264489   264493   264475   264497 
  264485   264482   264525   264529   264524   264525   264496   264473 
  264477   264489   264496   264483   264494   264520   264494   264473 
  264509   264516   264493   264506   264489   264443   264444   264501 
  264552   264519   264456   264479   264498   264433   264396   264413 
  264444   264474   264460   264467   264517   264505   264459   264452 
  264485   264541   264532   264494   264509   264500   264517   264551 
  264493   264475   264501   264479   264470   264486   264517   264519 
  264494   264501   264490   264465   264471   264487   264501   264532 
  264574   264582   264544   264477   264444   264501   264517   264452 
  264459   264478   264455   264512   264555   264492   264467   264475 
  264467   264486   264494   264482   264440   264423   264487   264489 
  264425   264440   264466   264446   264448   264483   264500   264483 
  264466   264470   264466   264417   264406   264469   264492   264505 
  264531   264494   264512   264568   264501   264439   264459   264465 
  264486   264514   264512   264520   264535   264543   264547   264519 
  264479   264460   264463   264489   264513   264546   264570   264552 
  264544   264533   264451   264389   264447   264498   264458   264440 
  264470   264485   264459   264438   264466   264454   264427   264451 
  264442   264451   264504   264490   264473   264486   264466   264435 
  264450   264504   264535   264551   264556   264512   264474   264487 
  264504   264493   264483   264470   264456   264483   264510   264497 
  264496   264469   264423   264447   264478   264465   264454   264500 
  264543   264474   264448   264497   264463   264470   264548   264514 
  264448   264494   264532   264497   264500   264510   264500   264508 
  264487   264451   264494   264527   264474   264477   264509   264508 
  264533   264517   264467   264456   264439   264454   264467   264443 
  264455   264467   264478   264494   264473   264481   264519   264521 
  264521   264519   264502   264482   264483   264525   264531   264483 
  264440   264427   264439   264427   264402   264398   264406   264467 
  264496   264435   264429   264466   264456   264458   264483   264500 
  264498   264475   264479   264506   264477   264460   264520   264535 
  264470   264443   264489   264539   264552   264560   264568   264563 
  264570   264541   264482   264481   264497   264497   264532   264563 
  264564   264555   264510   264465   264466   264474   264444   264400 
  264400   264431   264455   264466   264483   264510   264479   264419 
  264436   264465   264459   264502   264536   264509   264506   264502 
  264451   264408   264394   264400   264419   264417   264404   264466 
  264517   264465   264482   264586   264595   264560   264601   264614 
  264544   264516   264505   264438   264428   264462   264475   264479 
  264473   264506   264547   264544   264554   264514   264433   264412 
  264425   264439   264446   264455   264502   264523   264482   264467 
  264485   264479   264454   264454   264496   264540   264536   264462 
  264436   264521   264564   264535   264527   264505   264443   264423 
  264451   264412   264374   264439   264504   264523   264566   264609 
  264562   264487   264496   264498   264458   264460   264474   264440 
  264394   264393   264432   264450   264447   264492   264512   264475 
  264466   264463   264455   264473   264477   264498   264509   264427 
  264393   264504   264552   264482   264470   264459   264405   264447 
  264512   264502   264509   264541   264577   264601   264527   264439 
  264469   264502   264492   264508   264514   264513   264512   264497 
  264513   264529   264517   264487   264459   264482   264513   264496 
  264486   264496   264483   264469   264452   264425   264446   264508 
  264508   264478   264498   264506   264477   264497   264550   264520 
  264450   264455   264467   264451   264463   264452   264436   264448 
  264485   264532   264529   264509   264486   264436   264440   264474 
  264462   264469   264492   264513   264558   264570   264558   264581 
  264560   264498   264494   264519   264493   264451   264451   264475 
  264478   264469   264456   264425   264413   264429   264438   264450 
  264487   264532   264541   264516   264524   264531   264470   264446 
  264456   264409   264406   264483   264504   264492   264479   264435 
  264455   264490   264436   264431   264496   264506   264517   264548 
  264502   264465   264505   264493   264440   264471   264500   264470 
  264440   264459   264535   264556   264509   264527   264582   264587 
  264556   264513   264459   264427   264425   264400   264385   264401 
  264397   264405   264425   264448   264501   264512   264474   264474 
  264475   264470   264524   264537   264514   264548   264521   264446 
  264439   264456   264478   264497   264498   264524   264525   264496 
  264487   264469   264440   264452   264496   264527   264552   264564 
  264543   264533   264541   264535   264487   264454   264514   264563 
  264520   264494   264497   264492   264505   264510   264460   264397 
  264393   264415   264413   264417   264462   264504   264462   264435 
  264479   264477   264460   264475   264489   264504   264483   264460 
  264477   264466   264447   264456   264459   264446   264447   264483 
  264528   264510   264454   264477   264532   264535   264533   264513 
  264514   264589   264609   264587   264590   264528   264474   264485 
  264466   264456   264486   264500   264512   264541   264548   264509 
  264469   264433   264401   264402   264375   264340   264382   264443 
  264456   264427   264427   264481   264479   264447   264474   264514 
  264516   264459   264447   264523   264514   264473   264535   264571 
  264536   264497   264474   264492   264478   264425   264438   264485 
  264502   264478   264465   264516   264520   264451   264424   264408 
  264400   264452   264510   264541   264539   264512   264508   264482 
  264446   264477   264504   264483   264465   264446   264438   264448 
  264477   264502   264496   264493   264508   264516   264532   264539 
  264485   264405   264396   264424   264413   264405   264420   264435 
  264474   264493   264482   264510   264529   264504   264489   264481 
  264483   264470   264443   264469   264501   264513   264523   264501 
  264456   264435   264492   264543   264516   264498   264517   264562 
  264585   264533   264498   264477   264456   264490   264516   264519 
  264512   264502   264521   264523   264521   264564   264585   264559 
  264546   264525   264498   264532   264547   264496   264481   264469 
  264412   264390   264428   264482   264512   264541   264585   264595 
  264571   264550   264564   264573   264535   264508   264486   264438 
  264404   264390   264381   264374   264359   264335   264335   264378 
  264390   264373   264397   264436   264463   264482   264481   264471 
  264455   264454   264485   264485   264431   264404   264429   264458 
  264494   264531   264521   264519   264556   264560   264536   264516 
  264497   264512   264524   264498   264519   264560   264527   264508 
  264560   264562   264490   264465   264523   264562   264516   264483 
  264498   264487   264455   264442   264446   264428   264438   264493 
  264497   264528   264627   264627   264573   264574   264564   264560 
  264579   264536   264479   264485   264478   264443   264400   264334 
  264296   264289   264309   264374   264401   264393   264408   264390 
  264388   264429   264465   264505   264523   264477   264474   264544 
  264527   264473   264529   264589   264637   264736   264776   264775 
  264780   264720   264654   264632   264558   264428   264313   264257 
  264239   264227   264227   264250   264336   264417   264385   264357 
  264433   264490   264493   264527   264548   264550   264570   264551 
  264520   264554   264566   264520   264502   264479   264429   264427 
  264435   264440   264483   264525   264550   264577   264612   264614 
  264556   264483   264436   264433   264489   264525   264535   264564 
  264558   264494   264405   264317   264257   264196   264153   264150 
  264172   264213   264243   264250   264213   264192   264289   264393 
  264450   264525   264604   264702   264775   264729   264595   264424 
  264277   264234   264231   264199   264232   264328   264389   264454 
  264539   264639   264778   264865   264847   264771   264703   264689 
  264730   264805   264813   264703   264567   264467   264405   264354 
  264325   264374   264408   264369   264351   264369   264405   264497 
  264625   264717   264714   264689   264682   264637   264605   264614 
  264605   264622   264689   264712   264685   264668   264655   264586 
  264493   264440   264421   264439   264451   264416   264382   264379 
  264432   264535   264621   264632   264554   264451   264342   264224 
  264155   264147   264226   264392   264493   264482   264450   264335 
  264163   264108   264134   264097   264042   264039   264051   264028 
  264004   264065   264208   264365   264500   264543   264485   264373 
  264265   264277   264378   264504   264632   264712   264821   264940 
  264942   264907   264871   264776   264651   264539   264498   264567 
  264675   264763   264849   264894   264820   264708   264647   264579 
  264516   264487   264493   264562   264622   264600   264585   264641 
  264644   264520   264357   264181   264039   264037   264141   264250 
  264354   264528   264737   264888   264969   264921   264783   264649 
  264454   264288   264308   264331   264217   264089   263999   263970 
  264043   264134   264228   264424   264678   264841   264872   264789 
  264675   264639   264629   264610   264633   264705   264801   264852 
  264803   264641   264393   264201   264176   264196   264157   264107 
  264107   264123   264111   264195   264334   264311   264270   264334 
  264351   264365   264478   264594   264699   264849   264992   265087 
  265162   265207   265169   265021   264799   264587   264371   264157 
  264104   264181   264193   264181   264215   264305   264463   264604 
  264695   264753   264740   264697   264624   264502   264489   264587 
  264617   264537   264340   264107   264033   264084   264085   264066 
  264084   264034   263946   263953   264038   264145   264244   264308 
  264286   264231   264313   264394   264374   264517   264724   264772 
  264817   264863   264806   264693   264585   264546   264570   264556 
  264543   264648   264753   264764   264793   264874   265006   265123 
  265045   264749   264429   264235   264155   264151   264189   264284 
  264405   264405   264346   264346   264327   264288   264316   264424 
  264612   264820   264892   264863   264874   264872   264813   264770 
  264776   264760   264670   264606   264546   264369   264170   264055 
  264018   264073   264166   264258   264370   264452   264566   264689 
  264606   264417   264330   264281   264307   264455   264608   264749 
  264865   264876   264759   264637   264618   264578   264470   264366 
  264243   264161   264165   264173   264159   264162   264146   264003 
  263830   263845   264053   264312   264513   264639   264726   264806 
  264919   265023   265064   265100   265075   264855   264523   264255 
  264158   264262   264375   264320   264200   264131   264151   264265 
  264384   264470   264563   264676   264766   264778   264740   264751 
  264791   264791   264813   264843   264803   264698   264533   264415 
  264398   264347   264249   264165   264126   264204   264378   264587 
  264740   264767   264740   264666   264458   264155   263976   264033 
  264178   264288   264390   264455   264450   264479   264594   264675 
  264683   264659   264598   264573   264712   264929   264995   264865 
  264672   264501   264379   264371   264420   264370   264297   264311 
  264324   264276   264227   264178   264087   264015   264020   264111 
  264247   264342   264460   264636   264729   264767   264789   264762 
  264766   264786   264810   264870   264853   264756   264645   264568 
  264578   264571   264528   264494   264370   264227   264188   264201 
  264231   264228   264211   264235   264254   264352   264554   264682 
  264708   264659   264524   264431   264420   264382   264359   264388 
  264382   264423   264535   264574   264582   264635   264608   264427 
  264190   264045   264055   264207   264440   264583   264585   264617 
  264694   264739   264729   264644   264594   264573   264443   264359 
  264427   264516   264627   264743   264820   264851   264705   264439 
  264281   264258   264343   264492   264555   264578   264640   264597 
  264458   264358   264308   264315   264371   264469   264566   264613 
  264633   264605   264574   264566   264467   264336   264249   264249 
  264447   264697   264830   264887   264817   264624   264443   264325 
  264226   264127   264060   264097   264234   264325   264393   264487 
  264487   264451   264462   264447   264470   264506   264440   264408 
  264444   264397   264307   264261   264282   264400   264525   264582 
  264608   264614   264612   264648   264701   264656   264536   264524 
  264618   264699   264695   264543   264344   264208   264085   263993 
  264055   264236   264427   264721   265049   265123   264988   264852 
  264752   264586   264355   264255   264249   264261   264444   264625 
  264595   264544   264586   264675   264740   264730   264741   264757 
  264643   264455   264216   263906   263742   263819   264004   264215 
  264336   264336   264375   264473   264532   264547   264564   264575 
  264620   264799   264899   264709   264521   264517   264490   264354 
  264186   264061   264051   264235   264525   264689   264694   264637 
  264525   264438   264440   264440   264431   264469   264546   264689 
  264782   264710   264616   264539   264396   264327   264406   264467 
  264492   264556   264614   264652   264621   264479   264311   264244 
  264370   264585   264699   264714   264749   264780   264679   264543 
  264473   264392   264342   264385   264401   264351   264330   264362 
  264450   264547   264539   264502   264568   264644   264718   264793 
  264736   264652   264639   264559   264405   264278   264246   264321 
  264397   264361   264246   264176   264219   264311   264367   264352 
  264285   264301   264404   264427   264443   264519   264535   264551 
  264637   264698   264683   264647   264639   264655   264676   264683 
  264641   264583   264514   264439   264494   264647   264671   264555 
  264363   264172   264108   264142   264246   264462   264718   264913 
  264968   264871   264718   264554   264344   264203   264228   264282 
  264266   264259   264254   264217   264186   264190   264277   264419 
  264546   264601   264536   264493   264465   264312   264207   264219 
  264172   264065   264078   264284   264523   264648   264664   264587 
  264497   264508   264591   264633   264651   264745   264878   264934 
  264953   264926   264753   264581   264540   264512   264456   264448 
  264474   264416   264332   264359   264409   264381   264286   264200 
  264213   264289   264386   264516   264577   264552   264617   264720 
  264699   264717   264843   264888   264809   264641   264483   264435 
  264438   264433   264462   264536   264567   264510   264446   264369 
  264243   264159   264192   264238   264246   264319   264440   264520 
  264537   264504   264471   264493   264493   264444   264492   264651 
  264830   264946   264936   264853   264667   264458   264448   264508 
  264506   264551   264489   264270   264141   264093   264069   264182 
  264347   264406   264393   264419   264524   264625   264658   264606 
  264455   264313   264278   264317   264371   264431   264539   264616 
  264544   264402   264274   264170   264130   264204   264351   264520 
  264713   264880   264911   264772   264625   264604   264589   264520 
  264546   264627   264601   264527   264479   264471   264536   264578 
  264547   264502   264471   264424   264398   264478   264535   264504 
  264516   264475   264354   264317   264346   264365   264378   264373 
  264340   264362   264459   264474   264371   264290   264286   264304 
  264243   264184   264286   264447   264529   264550   264571   264644 
  264720   264720   264668   264689   264820   264955   264976   264840 
  264639   264494   264440   264421   264343   264246   264240   264280 
  264276   264269   264281   264347   264563   264775   264790   264686 
  264585   264540   264535   264531   264539   264504   264370   264251 
  264216   264242   264338   264381   264335   264373   264467   264514 
  264546   264575   264616   264659   264663   264628   264560   264494 
  264454   264420   264421   264431   264348   264234   264216   264254 
  264269   264284   264374   264614   264868   264917   264816   264730 
  264751   264816   264798   264748   264749   264749   264728   264670 
  264560   264469   264415   264358   264277   264172   264112   264190 
  264355   264462   264498   264514   264525   264519   264460   264401 
  264400   264429   264459   264446   264408   264409   264408   264406 
  264446   264450   264411   264413   264456   264505   264540   264529 
  264539   264575   264558   264598   264710   264701   264612   264558 
  264528   264554   264593   264516   264381   264338   264344   264301 
  264230   264173   264195   264297   264325   264251   264220   264277 
  264323   264312   264350   264451   264509   264558   264628   264651 
  264674   264667   264509   264384   264446   264521   264622   264791 
  264775   264594   264490   264466   264467   264543   264681   264766 
  264778   264763   264705   264627   264531   264408   264361   264369 
  264327   264354   264439   264394   264382   264514   264581   264606 
  264681   264662   264560   264500   264436   264342   264266   264207 
  264203   264282   264355   264413   264490   264528   264543   264586 
  264621   264636   264600   264520   264523   264563   264554   264525 
  264435   264375   264382   264290   264244   264357   264421   264375 
  264307   264288   264331   264370   264392   264382   264332   264312 
  264361   264463   264582   264720   264899   265025   265014   264949 
  264872   264764   264654   264582   264529   264473   264481   264531 
  264489   264366   264294   264285   264281   264309   264402   264508 
  264586   264589   264533   264546   264610   264644   264648   264590 
  264485   264398   264312   264261   264280   264273   264217   264174 
  264128   264112   264216   264398   264532   264593   264643   264699 
  264681   264586   264482   264394   264369   264389   264406   264456 
  264510   264540   264593   264643   264667   264670   264656   264658 
  264610   264529   264493   264427   264390   264473   264504   264452 
  264435   264435   264473   264581   264662   264679   264689   264706 
  264709   264726   264779   264786   264705   264598   264508   264421 
  264321   264205   264135   264122   264080   264018   264027   264107 
  264235   264405   264544   264591   264552   264452   264433   264512 
  264485   264406   264427   264440   264415   264447   264535   264606 
  264647   264660   264585   264466   264429   264406   264355   264330 
  264304   264290   264305   264335   264413   264485   264483   264467 
