Origin Time       2025/06/03 22:18:00
Lat.              41.7
Long.             143.6
Depth. (km)       30
Mag.              5.2
Station Code      NMRH03
Station Lat.      43.5508
Station Long.     144.9665
Station Height(m) 30
Record Time       2025/06/03 22:19:24
Sampling Freq(Hz) 100Hz
Duration Time(s)  120
Dir.              6
Scale Factor      7845(gal)/8223790
Max. Acc. (gal)   0.351
Last Correction   2025/06/03 22:19:25
Memo.             
[...]
  -14004   -13964   -13906   -13883   -13925   -13976   -13976   -13948 
  -13946   -13986   -14004   -13963   -13938   -13995   -14065   -14062 
  -13990   -13910   -13868   -13884   -13949   -13992   -13959   -13890 
  -13876   -13930   -14002   -14052   -14062   -14048   -14035   -14023 
  -14006   -13986   -13968   -13963   -13983   -14007   -14011   -14004 
  -13994   -13981   -13969   -13954   -13941   -13952   -13979   -13995 
  -13990   -13975   -13960   -13973   -14011   -14025   -13998   -13972 
  -13980   -14010   -14019   -13984   -13944   -13954   -14002   -14017 
  -13981   -13965   -14018   -14058   -13995   -13886   -13860   -13934 
  -14003   -14006   -13992   -14003   -14000   -13965   -13937   -13940 
  -13938   -13921   -13926   -13959   -13972   -13950   -13925   -13936 
  -13981   -14007   -13973   -13927   -13950   -14034   -14060   -13971 
  -13859   -13849   -13952   -14046   -14027   -13963   -13994   -14089 
  -14106   -14022   -13964   -13983   -14000   -13963   -13918   -13921 
  -13945   -13940   -13910   -13918   -13976   -13999   -13948   -13907 
  -13952   -14035   -14069   -14031   -13968   -13945   -13976   -14008 
  -13994   -13953   -13937   -13949   -13961   -13968   -13976   -13981 
  -13991   -14003   -14025   -14073   -14126   -14112   -14027   -13944 
  -13938   -13996   -14035   -14017   -14002   -14034   -14067   -14044 
  -13969   -13896   -13903   -14000   -14094   -14084   -13983   -13890 
  -13905   -14011   -14076   -14034   -13948   -13880   -13863   -13903 
  -13960   -13973   -13959   -13965   -13988   -13961   -13884   -13867 
  -13965   -14062   -14034   -13918   -13868   -13937   -14008   -13987 
  -13952   -13994   -14048   -14030   -13977   -13960   -13988   -14027 
  -14027   -13976   -13926   -13919   -13946   -13987   -14021   -14013 
  -13953   -13911   -13954   -14035   -14034   -13940   -13883   -13936 
  -14017   -14023   -13963   -13914   -13921   -13960   -13975   -13940 
  -13884   -13880   -13965   -14057   -14049   -13972   -13940   -13977 
  -14017   -14003   -13963   -13954   -13984   -13992   -13950   -13918 
  -13956   -14027   -14040   -13979   -13926   -13944   -14022   -14096 
  -14111   -14058   -13980   -13940   -13953   -13992   -14035   -14050 
  -14002   -13934   -13938   -14007   -14054   -14042   -14015   -14019 
  -14040   -14034   -14002   -13977   -13990   -14014   -14008   -13980 
  -13973   -13986   -13988   -13976   -13952   -13929   -13922   -13917 
  -13891   -13896   -13965   -14031   -14022   -13976   -13954   -13961 
  -13973   -13984   -13991   -13984   -13980   -14000   -13996   -13907 
  -13809   -13818   -13915   -13968   -13933   -13891   -13919   -13995 
  -14041   -14027   -13998   -13987   -13994   -14019   -14056   -14068 
  -14011   -13914   -13895   -14000   -14106   -14089   -13998   -13949 
  -13965   -13961   -13903   -13865   -13915   -13992   -14002   -13968 
  -13973   -14037   -14081   -14030   -13937   -13922   -13975   -13995 
  -13944   -13878   -13880   -13948   -13996   -13977   -13940   -13944 
  -13994   -14062   -14110   -14076   -13954   -13856   -13910   -14065 
  -14134   -14053   -13959   -13957   -13994   -13980   -13918   -13871 
  -13875   -13914   -13950   -13963   -13959   -13948   -13932   -13917 
  -13915   -13918   -13925   -13949   -13988   -14017   -14042   -14089 
  -14122   -14060   -13930   -13878   -13957   -14056   -14038   -13941 
  -13906   -13950   -13977   -13948   -13917   -13937   -13973   -13992 
  -14026   -14079   -14092   -14052   -13988   -13952   -13965   -13995 
  -13996   -13980   -13977   -13988   -13986   -13975   -13988   -14030 
  -14046   -13987   -13899   -13898   -13995   -14076   -14062   -14007 
  -13990   -14015   -14018   -13973   -13923   -13902   -13915   -13940 
  -13941   -13933   -13952   -14003   -14044   -14030   -13969   -13921 
  -13957   -14050   -14069   -13980   -13922   -13972   -14021   -13973 
  -13911   -13936   -13996   -14000   -13965   -13949   -13946   -13923 
  -13913   -13973   -14058   -14056   -13972   -13913   -13932   -13988 
  -14014   -13986   -13930   -13907   -13938   -13986   -14006   -14011 
  -14019   -14013   -13988   -13980   -13981   -13968   -13965   -13999 
  -14019   -13972   -13891   -13869   -13934   -14007   -14015   -13976 
  -13961   -13986   -13988   -13950   -13945   -13980   -13995   -13980 
  -13971   -13991   -14021   -14013   -13965   -13925   -13919   -13961 
  -14018   -14031   -13990   -13934   -13918   -13969   -14041   -14056 
  -14004   -13956   -13952   -13979   -14003   -14018   -14014   -13983 
  -13944   -13933   -13949   -13954   -13934   -13936   -13990   -14037 
  -14006   -13937   -13940   -14022   -14057   -14002   -13956   -13988 
  -14038   -14023   -13971   -13959   -14007   -14056   -14046   -13994 
  -13941   -13926   -13964   -14029   -14073   -14062   -14006   -13963 
  -13979   -14023   -14019   -13961   -13925   -13959   -14023   -14050 
  -14013   -13965   -13963   -13979   -13972   -13938   -13906   -13923 
  -13992   -14023   -13967   -13906   -13933   -14017   -14054   -14014 
  -13959   -13952   -13971   -13963   -13930   -13919   -13942   -13976 
  -13995   -13991   -13988   -13991   -13983   -13980   -14002   -14034 
  -14054   -14052   -14045   -14027   -13964   -13895   -13914   -14006 
  -14049   -13976   -13876   -13886   -13995   -14050   -13976   -13872 
  -13859   -13921   -13959   -13932   -13882   -13863   -13890   -13967 
  -14046   -14035   -13938   -13888   -13948   -14014   -13998   -13944 
  -13930   -13963   -14003   -14025   -14033   -14035   -14038   -14041 
  -14031   -14008   -14003   -14018   -14019   -14010   -14011   -14029 
  -14044   -14022   -13959   -13910   -13940   -14023   -14049   -13963 
  -13867   -13875   -13967   -14037   -14011   -13907   -13822   -13833 
  -13917   -13983   -13986   -13960   -13954   -13983   -14015   -14011 
  -13976   -13945   -13944   -13961   -13953   -13926   -13933   -13968 
  -13972   -13936   -13909   -13927   -13965   -13990   -13996   -13999 
  -14019   -14040   -14015   -13968   -13954   -13977   -13998   -14008 
  -14013   -14018   -14041   -14076   -14076   -14027   -13990   -14015 
  -14092   -14134   -14077   -13968   -13880   -13865   -13932   -13994 
  -13980   -13952   -13975   -14007   -13987   -13942   -13941   -13991 
  -14038   -14027   -13957   -13896   -13923   -14011   -14048   -13981 
  -13906   -13905   -13944   -13959   -13960   -13969   -13981   -13980 
  -13940   -13884   -13883   -13945   -14000   -13998   -13965   -13954 
  -13959   -13946   -13942   -13976   -14003   -13973   -13923   -13930 
  -13986   -14010   -13983   -13971   -14007   -14041   -14019   -13971 
  -13957   -13975   -13991   -13996   -13998   -13996   -13990   -13976 
  -13933   -13876   -13880   -13972   -14067   -14068   -13994   -13946 
  -13956   -13968   -13957   -13964   -14025   -14087   -14077   -14000 
  -13946   -13967   -14022   -14048   -14040   -14027   -14010   -13983 
  -13969   -13991   -14013   -13992   -13963   -13964   -13987   -14025 
  -14057   -14044   -13986   -13934   -13934   -13965   -13972   -13944 
  -13930   -13984   -14062   -14060   -13975   -13910   -13903   -13913 
  -13932   -13990   -14046   -14031   -13979   -13954   -13959   -13979 
  -13995   -13979   -13967   -14008   -14068   -14068   -14004   -13945 
  -13952   -14004   -14048   -14058   -14045   -13998   -13930   -13891 
  -13902   -13936   -13954   -13959   -13949   -13940   -13956   -13979 
  -13950   -13883   -13864   -13926   -13999   -13996   -13936   -13909 
  -13952   -14030   -14081   -14071   -14011   -13965   -13965   -13988 
  -13994   -13963   -13911   -13878   -13898   -13960   -14003   -13994 
  -13980   -14002   -14031   -14035   -14017   -14017   -14046   -14065 
  -14042   -13995   -13964   -13973   -13988   -13980   -13981   -14018 
  -14048   -14021   -13960   -13917   -13915   -13969   -14052   -14075 
  -13995   -13890   -13859   -13919   -14002   -14033   -13994   -13940 
  -13934   -13979   -14015   -14011   -13995   -13990   -13983   -13963 
  -13948   -13945   -13937   -13932   -13949   -13976   -13965   -13932 
  -13936   -13968   -13975   -13967   -13977   -13988   -13963   -13905 
  -13863   -13871   -13892   -13903   -13934   -13981   -13973   -13906 
  -13869   -13909   -13967   -13973   -13933   -13906   -13941   -14013 
  -14052   -14035   -14015   -14017   -14023   -14025   -14031   -14019 
  -13959   -13894   -13890   -13930   -13946   -13934   -13933   -13973 
  -14031   -14049   -14025   -13994   -13964   -13941   -13957   -14000 
  -14023   -14015   -14004   -14018   -14044   -14052   -14025   -13984 
  -13964   -13992   -14060   -14107   -14087   -14033   -14002   -13994 
  -13986   -13981   -13977   -13945   -13905   -13910   -13972   -14053 
  -14104   -14104   -14079   -14072   -14088   -14094   -14061   -14003 
  -13950   -13923   -13937   -13977   -13991   -13953   -13914   -13933 
  -13987   -14023   -14019   -13999   -13995   -14013   -14031   -14030 
  -13994   -13936   -13906   -13936   -13979   -13977   -13930   -13868 
  -13821   -13821   -13895   -13991   -14027   -13992   -13957   -13960 
  -13954   -13914   -13879   -13884   -13905   -13906   -13906   -13938 
  -13981   -13990   -13944   -13867   -13821   -13837   -13867   -13887 
  -13915   -13957   -13992   -13996   -13983   -13981   -13996   -14030 
  -14067   -14065   -14022   -13979   -13984   -14044   -14102   -14103 
  -14053   -13998   -13961   -13930   -13918   -13952   -13995   -14006 
  -14000   -14006   -14023   -14035   -14033   -14021   -14010   -13994 
  -13964   -13954   -14002   -14081   -14127   -14083   -13973   -13902 
  -13933   -14010   -14029   -13995   -13990   -13995   -13949   -13875 
  -13849   -13896   -13953   -13967   -13968   -13992   -14010   -13988 
  -13953   -13948   -13969   -13968   -13934   -13927   -13975   -14007 
  -13963   -13887   -13880   -13952   -14013   -14021   -14018   -14034 
  -14031   -13995   -13987   -14026   -14034   -13973   -13903   -13898 
  -13963   -14025   -14027   -13981   -13922   -13880   -13891   -13948 
  -14003   -14021   -13999   -13968   -13976   -14054   -14121   -14058 
  -13907   -13838   -13917   -14041   -14095   -14079   -14060   -14084 
  -14133   -14142   -14071   -13946   -13855   -13873   -13977   -14041 
  -14002   -13936   -13941   -14010   -14061   -14049   -13976   -13888 
  -13861   -13913   -13984   -14026   -14033   -14025   -14014   -13973 
  -13890   -13830   -13882   -14006   -14049   -13942   -13809   -13821 
  -13967   -14083   -14111   -14107   -14069   -13953   -13837   -13848 
  -13968   -14044   -14010   -13967   -13980   -13975   -13922   -13886 
  -13880   -13861   -13848   -13905   -14034   -14130   -14092   -13956 
  -13880   -13956   -14077   -14103   -14025   -13934   -13892   -13875 
  -13859   -13880   -13945   -13995   -13996   -13991   -14015   -14022 
  -13971   -13926   -13980   -14081   -14104   -14035   -13979   -13988 
  -14033   -14064   -14034   -13964   -13954   -14003   -13964   -13807 
  -13740   -13918   -14173   -14218   -14060   -13932   -13957   -14049 
  -14079   -14030   -13976   -13946   -13921   -13923   -13976   -13995 
  -13911   -13809   -13817   -13933   -14037   -14048   -13991   -13927 
  -13884   -13886   -13940   -13998   -13996   -13922   -13833   -13845 
  -13995   -14145   -14138   -14008   -13921   -13944   -13992   -13994 
  -13965   -13954   -13968   -14011   -14084   -14141   -14115   -14050 
  -14042   -14081   -14076   -13976   -13845   -13810   -13891   -13950 
  -13910   -13852   -13872   -13967   -14050   -14049   -13973   -13925 
  -13965   -14037   -14073   -14121   -14216   -14272   -14177   -13968 
  -13778   -13720   -13805   -13933   -13984   -13938   -13886   -13907 
  -13975   -14000   -13971   -13929   -13927   -13998   -14095   -14142 
  -14126   -14077   -14013   -13941   -13907   -13949   -13991   -13959 
  -13913   -13949   -14044   -14064   -13948   -13824   -13822   -13898 
  -13932   -13906   -13907   -13971   -14014   -13987   -13967   -14021 
  -14079   -14058   -13986   -13936   -13930   -13938   -13945   -13961 
  -13999   -14045   -14053   -14000   -13915   -13851   -13801   -13738 
  -13726   -13838   -13971   -13977   -13910   -13932   -14064   -14181 
  -14192   -14129   -14065   -14026   -13984   -13923   -13856   -13840 
  -13910   -13995   -14004   -13973   -13994   -14041   -14022   -13936 
  -13869   -13898   -14023   -14168   -14218   -14162   -14108   -14106 
  -14094   -14031   -13953   -13887   -13833   -13842   -13954   -14075 
  -14096   -14056   -14049   -14076   -14083   -14054   -14021   -14010 
  -14037   -14067   -14076   -14098   -14126   -14103   -14023   -13948 
  -13921   -13910   -13868   -13819   -13802   -13805   -13801   -13811 
  -13879   -13971   -13999   -13942   -13865   -13846   -13905   -13986 
  -14030   -14037   -14030   -13992   -13915   -13860   -13884   -13937 
  -13926   -13869   -13830   -13821   -13859   -13961   -14073   -14100 
  -14050   -14019   -14031   -13998   -13871   -13761   -13824   -14044 
  -14226   -14241   -14157   -14099   -14099   -14104   -14076   -14019 
  -13969   -13968   -14011   -14050   -14054   -13999   -13892   -13772 
  -13686   -13695   -13798   -13915   -13999   -14040   -14037   -13988 
  -13949   -13988   -14062   -14091   -14083   -14069   -14042   -14010 
  -13998   -14011   -14034   -14049   -14067   -14094   -14118   -14127 
  -14073   -13929   -13779   -13740   -13824   -13934   -14026   -14158 
  -14318   -14345   -14176   -13963   -13895   -13952   -13965   -13896 
  -13860   -13892   -13900   -13832   -13761   -13761   -13794   -13817 
  -13863   -13965   -14079   -14107   -14053   -14031   -14076   -14095 
  -14044   -14015   -14050   -14046   -13942   -13842   -13849   -13915 
  -13948   -13967   -14010   -14045   -14040   -14041   -14092   -14130 
  -14073   -13995   -14007   -14044   -13980   -13861   -13822   -13860 
  -13872   -13859   -13902   -13996   -14046   -14000   -13930   -13937 
  -13994   -14003   -13957   -13921   -13930   -13967   -13976   -13918 
  -13824   -13776   -13805   -13856   -13903   -13969   -14056   -14107 
  -14077   -14006   -14008   -14122   -14235   -14235   -14121   -13994 
  -13949   -13949   -13887   -13775   -13733   -13832   -13988   -14079 
  -14077   -14044   -14018   -13992   -13971   -13976   -14002   -14015 
  -14015   -14025   -14014   -13950   -13867   -13810   -13807   -13852 
  -13892   -13887   -13875   -13911   -13969   -13976   -13926   -13896 
  -13949   -14040   -14085   -14081   -14088   -14123   -14133   -14080 
  -14019   -14003   -14000   -13952   -13859   -13776   -13747   -13790 
  -13887   -13961   -13960   -13919   -13899   -13914   -13929   -13917 
  -13919   -13983   -14075   -14111   -14080   -14052   -14056   -14058 
  -14054   -14064   -14080   -14062   -13994   -13925   -13917   -13956 
  -13960   -13902   -13873   -13933   -14000   -14006   -13963   -13905 
  -13869   -13887   -13957   -14046   -14108   -14127   -14137   -14148 
  -14123   -14030   -13900   -13821   -13848   -13936   -13999   -14034 
  -14111   -14233   -14292   -14230   -14139   -14118   -14123   -14062 
  -13961   -13923   -13942   -13921   -13849   -13810   -13822   -13807 
  -13751   -13745   -13840   -13960   -14011   -13987   -13953   -13952 
  -14015   -14149   -14262   -14227   -14041   -13856   -13813   -13876 
  -13919   -13900   -13886   -13953   -14084   -14156   -14091   -13972 
  -13918   -13915   -13886   -13864   -13922   -13994   -13986   -13932 
  -13909   -13930   -13957   -13941   -13915   -13979   -14133   -14215 
  -14108   -13936   -13900   -14021   -14121   -14069   -13938   -13855 
  -13834   -13841   -13882   -13949   -13991   -13977   -13950   -13977 
  -14072   -14130   -14050   -13903   -13856   -13918   -13961   -13923 
  -13865   -13863   -13915   -13959   -13971   -13983   -13994   -13981 
  -13960   -13956   -13971   -13990   -14010   -14015   -13988   -13942 
  -13906   -13894   -13871   -13818   -13814   -13906   -13998   -14027 
  -14042   -14083   -14123   -14123   -14110   -14122   -14107   -14013 
  -13883   -13798   -13806   -13883   -13944   -13929   -13882   -13872 
  -13898   -13914   -13907   -13909   -13944   -14027   -14138   -14216 
  -14245   -14239   -14227   -14230   -14230   -14180   -14076   -13961 
  -13871   -13828   -13829   -13849   -13861   -13867   -13894   -13938 
  -13969   -13979   -13988   -14025   -14087   -14135   -14125   -14056 
  -13972   -13925   -13926   -13934   -13911   -13886   -13900   -13938 
  -13953   -13987   -14089   -14177   -14126   -13961   -13825   -13829 
  -13919   -13932   -13845   -13799   -13849   -13909   -13895   -13842 
  -13849   -13914   -13938   -13896   -13875   -13946   -14058   -14123 
  -14122   -14089   -14062   -14045   -14014   -13980   -13959   -13952 
  -13975   -14004   -14003   -13986   -13979   -13975   -13975   -14019 
  -14092   -14112   -14067   -14025   -14044   -14112   -14149   -14102 
  -14026   -13992   -13994   -13994   -13980   -13954   -13944   -13999 
  -14100   -14157   -14122   -14029   -13964   -13992   -14073   -14121 
  -14081   -13979   -13879   -13825   -13806   -13811   -13846   -13915 
  -14002   -14050   -14033   -13990   -13980   -14022   -14068   -14064 
  -14006   -13944   -13918   -13906   -13872   -13848   -13873   -13922 
  -13945   -13949   -13954   -13976   -14038   -14118   -14137   -14054 
  -13946   -13921   -13976   -14025   -14002   -13907   -13790   -13721 
  -13737   -13810   -13878   -13918   -13964   -14022   -14073   -14108 
  -14130   -14125   -14068   -13998   -13976   -13979   -13936   -13853 
  -13790   -13802   -13873   -13914   -13894   -13894   -13967   -14050 
  -14079   -14071   -14034   -13932   -13795   -13730   -13778   -13859 
  -13883   -13863   -13884   -13956   -13995   -13977   -13956   -13968 
  -14011   -14067   -14102   -14091   -14035   -13960   -13900   -13880 
  -13923   -14010   -14064   -14060   -14034   -14004   -13963   -13937 
  -13957   -14015   -14058   -14041   -13992   -13957   -13922   -13890 
  -13910   -13965   -13971   -13932   -13927   -13996   -14084   -14126 
  -14110   -14079   -14062   -14042   -13986   -13905   -13853   -13860 
  -13902   -13932   -13934   -13932   -13956   -14002   -14038   -14061 
  -14076   -14071   -14045   -14013   -14015   -14100   -14224   -14280 
  -14230   -14146   -14098   -14073   -14050   -14044   -14060   -14089 
  -14087   -14014   -13937   -13937   -13969   -13949   -13883   -13860 
  -13918   -13983   -13987   -13971   -14008   -14072   -14098   -14065 
  -14014   -13980   -13972   -13968   -13950   -13919   -13917   -13957 
  -13969   -13909   -13837   -13833   -13883   -13906   -13890   -13878 
  -13883   -13906   -13968   -14060   -14119   -14099   -14033   -13992 
  -13971   -13929   -13869   -13838   -13863   -13905   -13911   -13895 
  -13899   -13923   -13936   -13923   -13902   -13891   -13886   -13872 
  -13867   -13895   -13937   -13963   -13964   -13954   -13936   -13937 
  -13988   -14034   -14003   -13948   -13960   -14030   -14095   -14126 
  -14114   -14056   -14007   -14040   -14125   -14170   -14139   -14080 
  -14038   -14019   -14019   -14010   -13954   -13882   -13853   -13871 
  -13886   -13876   -13875   -13914   -13967   -13984   -13984   -14019 
  -14077   -14087   -14013   -13913   -13887   -13930   -13940   -13871 
