Origin Time       2025/06/03 22:18:00
Lat.              41.7
Long.             143.6
Depth. (km)       30
Mag.              5.2
Station Code      NMRH04
Station Lat.      43.3978
Station Long.     145.1224
Station Height(m) -186
Record Time       2025/06/03 22:19:23
Sampling Freq(Hz) 100Hz
Duration Time(s)  120
Dir.              2
Scale Factor      3923(gal)/8224838
Max. Acc. (gal)   0.204
Last Correction   2025/06/03 22:19:24
Memo.             
[...]
  -12117   -12116   -12124   -12135   -12140   -12155   -12174   -12183 
  -12194   -12198   -12190   -12187   -12179   -12163   -12174   -12191 
  -12177   -12150   -12143   -12148   -12163   -12174   -12160   -12155 
  -12182   -12205   -12204   -12197   -12177   -12148   -12154   -12175 
  -12171   -12158   -12145   -12128   -12123   -12118   -12110   -12129 
  -12164   -12175   -12170   -12163   -12168   -12186   -12177   -12143 
  -12132   -12145   -12154   -12152   -12151   -12156   -12167   -12172 
  -12156   -12136   -12133   -12133   -12145   -12177   -12186   -12175 
  -12182   -12190   -12182   -12189   -12195   -12177   -12162   -12159 
  -12152   -12154   -12151   -12135   -12133   -12151   -12151   -12139 
  -12147   -12156   -12152   -12150   -12151   -12154   -12164   -12171 
  -12163   -12164   -12187   -12204   -12187   -12152   -12129   -12131 
  -12145   -12159   -12168   -12172   -12170   -12172   -12172   -12166 
  -12166   -12170   -12178   -12191   -12183   -12158   -12159   -12162 
  -12141   -12135   -12135   -12118   -12109   -12118   -12136   -12155 
  -12171   -12177   -12181   -12182   -12171   -12158   -12154   -12156 
  -12155   -12154   -12156   -12175   -12189   -12174   -12158   -12155 
  -12150   -12145   -12155   -12171   -12179   -12171   -12159   -12156 
  -12164   -12182   -12190   -12166   -12141   -12135   -12141   -12158 
  -12164   -12155   -12150   -12145   -12136   -12148   -12177   -12197 
  -12201   -12189   -12170   -12159   -12158   -12150   -12151   -12166 
  -12166   -12162   -12185   -12201   -12199   -12206   -12206   -12187 
  -12167   -12140   -12116   -12116   -12141   -12174   -12185   -12174 
  -12168   -12170   -12160   -12140   -12135   -12150   -12163   -12160 
  -12155   -12148   -12147   -12155   -12154   -12145   -12145   -12145 
  -12143   -12139   -12127   -12118   -12128   -12143   -12151   -12156 
  -12158   -12155   -12145   -12147   -12171   -12193   -12194   -12193 
  -12194   -12187   -12181   -12178   -12166   -12151   -12148   -12141 
  -12136   -12148   -12170   -12179   -12167   -12155   -12158   -12164 
  -12174   -12179   -12179   -12177   -12177   -12183   -12177   -12162 
  -12162   -12160   -12148   -12147   -12156   -12163   -12159   -12145 
  -12140   -12154   -12160   -12164   -12179   -12178   -12179   -12193 
  -12190   -12189   -12199   -12187   -12168   -12167   -12156   -12145 
  -12155   -12156   -12143   -12123   -12106   -12108   -12125   -12156 
  -12183   -12186   -12171   -12158   -12158   -12162   -12170   -12179 
  -12181   -12182   -12193   -12195   -12187   -12174   -12148   -12128 
  -12135   -12135   -12116   -12118   -12139   -12152   -12177   -12198 
  -12194   -12178   -12179   -12170   -12148   -12140   -12137   -12137 
  -12158   -12178   -12182   -12168   -12159   -12167   -12177   -12178 
  -12174   -12158   -12144   -12151   -12168   -12185   -12194   -12187 
  -12178   -12181   -12175   -12159   -12159   -12164   -12158   -12148 
  -12145   -12140   -12141   -12148   -12145   -12143   -12145   -12147 
  -12158   -12164   -12159   -12152   -12156   -12166   -12171   -12177 
  -12195   -12199   -12174   -12150   -12132   -12114   -12113   -12128 
  -12150   -12178   -12189   -12174   -12152   -12135   -12132   -12147 
  -12174   -12190   -12189   -12190   -12201   -12212   -12210   -12201 
  -12186   -12171   -12156   -12143   -12141   -12150   -12152   -12154 
  -12148   -12139   -12137   -12141   -12145   -12151   -12159   -12167 
  -12170   -12174   -12187   -12198   -12190   -12183   -12181   -12152 
  -12125   -12129   -12128   -12118   -12131   -12141   -12140   -12151 
  -12162   -12159   -12166   -12171   -12168   -12185   -12206   -12209 
  -12202   -12201   -12199   -12178   -12155   -12141   -12129   -12127 
  -12139   -12145   -12136   -12135   -12136   -12131   -12137   -12158 
  -12179   -12204   -12214   -12205   -12189   -12168   -12152   -12164 
  -12185   -12179   -12154   -12131   -12129   -12136   -12133   -12132 
  -12145   -12166   -12171   -12166   -12164   -12160   -12160   -12177 
  -12190   -12177   -12147   -12129   -12129   -12140   -12155   -12154 
  -12132   -12124   -12154   -12182   -12181   -12187   -12208   -12218 
  -12214   -12197   -12177   -12174   -12189   -12191   -12172   -12156 
  -12144   -12141   -12158   -12163   -12156   -12158   -12158   -12154 
  -12158   -12156   -12145   -12156   -12175   -12178   -12171   -12159 
  -12148   -12144   -12145   -12150   -12144   -12144   -12159   -12166 
  -12163   -12159   -12162   -12166   -12164   -12166   -12160   -12145 
  -12128   -12112   -12110   -12133   -12164   -12187   -12206   -12216 
  -12218   -12226   -12231   -12205   -12171   -12160   -12143   -12110 
  -12101   -12114   -12129   -12141   -12132   -12098   -12083   -12109 
  -12150   -12181   -12195   -12189   -12181   -12187   -12195   -12204 
  -12199   -12189   -12187   -12171   -12150   -12145   -12141   -12136 
  -12145   -12151   -12139   -12140   -12152   -12151   -12156   -12182 
  -12201   -12206   -12206   -12210   -12209   -12213   -12208   -12179 
  -12154   -12140   -12131   -12135   -12131   -12121   -12132   -12158 
  -12171   -12154   -12124   -12114   -12114   -12117   -12137   -12159 
  -12164   -12172   -12179   -12170   -12163   -12164   -12175   -12194 
  -12209   -12206   -12190   -12178   -12175   -12183   -12191   -12178 
  -12152   -12140   -12147   -12164   -12175   -12170   -12158   -12150 
  -12150   -12154   -12152   -12145   -12148   -12164   -12178   -12179 
  -12181   -12187   -12186   -12177   -12163   -12144   -12127   -12117 
  -12105   -12090   -12094   -12117   -12136   -12152   -12168   -12179 
  -12178   -12166   -12159   -12160   -12158   -12155   -12158   -12178 
  -12206   -12213   -12197   -12177   -12168   -12162   -12139   -12123 
  -12125   -12121   -12114   -12145   -12189   -12202   -12191   -12172 
  -12167   -12177   -12177   -12168   -12167   -12174   -12171   -12162 
  -12159   -12160   -12170   -12190   -12199   -12190   -12179   -12172 
  -12162   -12151   -12144   -12145   -12160   -12162   -12147   -12137 
  -12132   -12133   -12139   -12136   -12125   -12113   -12117   -12140 
  -12174   -12206   -12222   -12217   -12198   -12175   -12144   -12125 
  -12135   -12150   -12152   -12154   -12143   -12135   -12144   -12158 
  -12155   -12139   -12129   -12131   -12143   -12159   -12175   -12209 
  -12226   -12201   -12168   -12154   -12152   -12162   -12171   -12171 
  -12167   -12160   -12140   -12129   -12135   -12141   -12150   -12156 
  -12170   -12186   -12179   -12160   -12167   -12178   -12179   -12198 
  -12213   -12199   -12178   -12168   -12162   -12144   -12136   -12141 
  -12147   -12151   -12150   -12136   -12152   -12198   -12201   -12167 
  -12156   -12151   -12148   -12166   -12159   -12135   -12145   -12167 
  -12168   -12163   -12163   -12175   -12194   -12201   -12190   -12185 
  -12197   -12197   -12155   -12090   -12059   -12077   -12104   -12121 
  -12131   -12137   -12140   -12139   -12143   -12164   -12201   -12220 
  -12216   -12220   -12222   -12198   -12172   -12159   -12156   -12150 
  -12127   -12112   -12128   -12160   -12171   -12163   -12163   -12159 
  -12156   -12177   -12205   -12206   -12183   -12162   -12145   -12151 
  -12166   -12156   -12143   -12151   -12155   -12154   -12163   -12175 
  -12172   -12160   -12150   -12140   -12139   -12151   -12170   -12183 
  -12183   -12174   -12175   -12193   -12201   -12190   -12168   -12144 
  -12133   -12140   -12147   -12135   -12121   -12140   -12166   -12171 
  -12152   -12132   -12140   -12175   -12181   -12143   -12117   -12131 
  -12152   -12167   -12171   -12159   -12144   -12132   -12124   -12129 
  -12145   -12178   -12212   -12216   -12212   -12212   -12186   -12160 
  -12158   -12156   -12151   -12145   -12132   -12132   -12155   -12177 
  -12183   -12185   -12183   -12172   -12167   -12168   -12156   -12145 
  -12162   -12181   -12181   -12159   -12141   -12145   -12152   -12158 
  -12163   -12164   -12158   -12148   -12148   -12160   -12182   -12197 
  -12194   -12202   -12225   -12235   -12228   -12214   -12186   -12145 
  -12120   -12123   -12133   -12140   -12150   -12164   -12170   -12162 
  -12150   -12133   -12132   -12155   -12168   -12177   -12191   -12183 
  -12158   -12135   -12108   -12101   -12118   -12124   -12129   -12151 
  -12155   -12140   -12129   -12120   -12116   -12123   -12136   -12162 
  -12183   -12187   -12195   -12201   -12190   -12172   -12156   -12143 
  -12139   -12143   -12158   -12183   -12199   -12199   -12204   -12213 
  -12216   -12204   -12179   -12177   -12190   -12174   -12156   -12166 
  -12164   -12155   -12148   -12131   -12123   -12141   -12160   -12154 
  -12132   -12118   -12127   -12155   -12194   -12222   -12214   -12197 
  -12187   -12171   -12158   -12159   -12168   -12163   -12129   -12097 
  -12104   -12128   -12135   -12131   -12135   -12147   -12160   -12163 
  -12158   -12164   -12177   -12189   -12197   -12185   -12158   -12128 
  -12104   -12093   -12085   -12081   -12093   -12110   -12118   -12133 
  -12152   -12164   -12170   -12172   -12186   -12213   -12226   -12214 
  -12213   -12225   -12221   -12210   -12208   -12212   -12208   -12183 
  -12162   -12151   -12137   -12129   -12125   -12110   -12108   -12133 
  -12162   -12185   -12208   -12212   -12205   -12201   -12186   -12175 
  -12174   -12159   -12140   -12145   -12172   -12187   -12186   -12182 
  -12177   -12170   -12171   -12177   -12174   -12154   -12143   -12151 
  -12150   -12143   -12145   -12151   -12155   -12154   -12131   -12104 
  -12101   -12116   -12125   -12125   -12131   -12145   -12163   -12178 
  -12190   -12191   -12175   -12162   -12164   -12166   -12154   -12140 
  -12136   -12143   -12162   -12185   -12199   -12206   -12218   -12224 
  -12216   -12204   -12193   -12195   -12189   -12171   -12172   -12182 
  -12189   -12190   -12167   -12132   -12108   -12089   -12078   -12093 
  -12108   -12113   -12151   -12197   -12201   -12175   -12152   -12151 
  -12163   -12172   -12172   -12167   -12167   -12164   -12145   -12128 
  -12133   -12159   -12172   -12163   -12159   -12164   -12159   -12145 
  -12158   -12179   -12178   -12182   -12193   -12178   -12159   -12154 
  -12147   -12151   -12178   -12201   -12202   -12182   -12160   -12151 
  -12154   -12178   -12210   -12217   -12198   -12170   -12159   -12167 
  -12174   -12171   -12167   -12170   -12172   -12164   -12152   -12150 
  -12158   -12174   -12182   -12185   -12189   -12177   -12162   -12163 
  -12170   -12172   -12175   -12178   -12170   -12163   -12170   -12185 
  -12197   -12206   -12199   -12175   -12162   -12166   -12167   -12166 
  -12186   -12216   -12224   -12204   -12181   -12166   -12166   -12172 
  -12164   -12152   -12159   -12160   -12155   -12171   -12193   -12185 
  -12166   -12162   -12158   -12150   -12172   -12208   -12209   -12198 
  -12201   -12198   -12189   -12183   -12174   -12167   -12152   -12116 
  -12083   -12069   -12071   -12096   -12109   -12106   -12131   -12170 
  -12187   -12195   -12198   -12198   -12208   -12194   -12152   -12125 
  -12118   -12128   -12158   -12185   -12190   -12182   -12168   -12156 
  -12150   -12151   -12154   -12137   -12106   -12098   -12097   -12077 
  -12070   -12091   -12129   -12171   -12193   -12193   -12186   -12167 
  -12131   -12082   -12051   -12060   -12090   -12117   -12129   -12120 
  -12100   -12083   -12071   -12054   -12039   -12042   -12056   -12073 
  -12093   -12131   -12182   -12209   -12217   -12233   -12241   -12239 
  -12243   -12247   -12239   -12237   -12253   -12267   -12268   -12256 
  -12240   -12235   -12232   -12226   -12197   -12137   -12091   -12059 
  -12032   -12046   -12079   -12104   -12141   -12181   -12213   -12264 
  -12306   -12290   -12231   -12156   -12093   -12062   -12062   -12086 
  -12136   -12195   -12245   -12278   -12285   -12267   -12228   -12166 
  -12113   -12098   -12098   -12096   -12086   -12082   -12123   -12195 
  -12225   -12198   -12168   -12156   -12166   -12204   -12253   -12295 
  -12306   -12301   -12307   -12314   -12309   -12299   -12267   -12204 
  -12131   -12060   -11986   -11921   -11886   -11917   -12010   -12078 
  -12097   -12125   -12159   -12170   -12179   -12174   -12150   -12140 
  -12151   -12160   -12163   -12141   -12091   -12043   -12051   -12118 
  -12199   -12256   -12279   -12270   -12266   -12302   -12345   -12355 
  -12332   -12282   -12216   -12162   -12124   -12098   -12066   -12027 
  -12024   -12081   -12170   -12233   -12239   -12202   -12140   -12071 
  -12027   -12021   -12055   -12117   -12151   -12123   -12060   -12002 
  -11977   -11993   -12033   -12078   -12128   -12178   -12222   -12244 
  -12232   -12199   -12168   -12159   -12162   -12140   -12082   -11993 
  -11907   -11893   -11962   -12059   -12132   -12150   -12129   -12106 
  -12082   -12063   -12070   -12086   -12102   -12143   -12202   -12256 
  -12297   -12328   -12343   -12306   -12208   -12113   -12062   -12055 
  -12120   -12212   -12252   -12275   -12303   -12282   -12199   -12100 
  -12012   -11970   -11998   -12105   -12247   -12360   -12418   -12402 
  -12310   -12209   -12144   -12109   -12102   -12121   -12145   -12194 
  -12270   -12322   -12339   -12340   -12345   -12359   -12348   -12285 
  -12198   -12121   -12081   -12078   -12083   -12083   -12069   -12056 
  -12094   -12168   -12256   -12364   -12444   -12425   -12318   -12187 
  -12096   -12087   -12148   -12208   -12237   -12267   -12286   -12231 
  -12073   -11885   -11766   -11734   -11769   -11875   -12036   -12198 
  -12325   -12387   -12363   -12289   -12232   -12194   -12156   -12093 
  -11994   -11917   -11927   -12025   -12167   -12266   -12263   -12212 
  -12195   -12220   -12233   -12193   -12141   -12147   -12197   -12258 
  -12320   -12348   -12313   -12236   -12167   -12132   -12109   -12085 
  -12086   -12112   -12125   -12128   -12144   -12168   -12167   -12137 
  -12109   -12070   -12020   -11996   -12010   -12050   -12093   -12124 
  -12185   -12302   -12411   -12415   -12316   -12198   -12135   -12104 
  -12067   -12043   -12032   -12010   -12001   -12063   -12163   -12204 
  -12178   -12143   -12124   -12139   -12198   -12248   -12256   -12241 
  -12199   -12135   -12078   -12031   -12006   -12044   -12108   -12162 
  -12226   -12290   -12318   -12293   -12233   -12221   -12278   -12299 
  -12253   -12202   -12170   -12170   -12228   -12303   -12329   -12303 
  -12252   -12174   -12110   -12125   -12190   -12236   -12218   -12137 
  -12058   -12025   -12042   -12086   -12105   -12082   -12055   -12047 
  -12066   -12116   -12193   -12264   -12314   -12329   -12299   -12256 
  -12255   -12290   -12314   -12297   -12205   -12075   -12019   -12028 
  -12015   -11998   -12044   -12141   -12228   -12253   -12232   -12237 
  -12299   -12348   -12306   -12179   -12046   -11944   -11881   -11881 
  -11943   -12048   -12174   -12268   -12291   -12256   -12195   -12152 
  -12139   -12114   -12046   -11986   -12020   -12143   -12252   -12272 
  -12216   -12145   -12139   -12170   -12120   -11990   -11878   -11811 
  -11820   -11958   -12160   -12301   -12347   -12366   -12388   -12401 
  -12411   -12444   -12495   -12505   -12426   -12309   -12206   -12125 
  -12079   -12063   -12050   -12050   -12054   -12039   -12032   -12047 
  -12067   -12118   -12237   -12370   -12445   -12433   -12320   -12170 
  -12060   -11979   -11916   -11882   -11884   -11955   -12055   -12108 
  -12137   -12166   -12172   -12177   -12181   -12178   -12178   -12194 
  -12212   -12202   -12170   -12177   -12259   -12376   -12437   -12393 
  -12289   -12190   -12136   -12140   -12210   -12321   -12390   -12344 
  -12210   -12074   -11985   -11951   -11956   -11978   -12015   -12096 
  -12205   -12283   -12295   -12251   -12204   -12199   -12216   -12209 
  -12177   -12124   -12046   -11971   -11929   -11901   -11907   -11966 
  -12033   -12058   -12047   -12062   -12152   -12264   -12328   -12310 
  -12235   -12178   -12193   -12248   -12297   -12295   -12243   -12204 
  -12232   -12293   -12297   -12222   -12137   -12077   -12032   -12048 
  -12166   -12310   -12348   -12258   -12132   -12071   -12089   -12120 
  -12112   -12096   -12112   -12158   -12201   -12194   -12137   -12086 
  -12052   -12012   -11965   -11948   -12005   -12117   -12220   -12293 
  -12325   -12320   -12295   -12221   -12104   -12039   -12081   -12171 
  -12213   -12182   -12150   -12194   -12301   -12388   -12411   -12395 
  -12355   -12285   -12214   -12208   -12237   -12236   -12226   -12213 
  -12136   -12035   -12015   -12079   -12147   -12159   -12117   -12050 
  -11996   -11975   -12006   -12097   -12175   -12160   -12101   -12086 
  -12112   -12137   -12148   -12144   -12132   -12129   -12155   -12193 
  -12220   -12208   -12164   -12131   -12118   -12114   -12128   -12160 
  -12171   -12148   -12131   -12116   -12089   -12105   -12185   -12267 
  -12313   -12337   -12340   -12278   -12166   -12117   -12170   -12229 
  -12217   -12175   -12156   -12151   -12144   -12125   -12066   -11989 
  -11950   -11948   -11961   -11998   -12064   -12128   -12177   -12214 
  -12229   -12217   -12206   -12229   -12297   -12366   -12364   -12289 
  -12198   -12109   -12020   -11973   -11990   -12036   -12086   -12101 
  -12048   -11994   -11996   -12027   -12062   -12098   -12128   -12175 
  -12260   -12347   -12406   -12437   -12405   -12313   -12255   -12236 
  -12202   -12183   -12194   -12167   -12086   -12012   -11989   -11997 
  -12024   -12091   -12164   -12208   -12253   -12289   -12282   -12267 
  -12272   -12270   -12237   -12166   -12050   -11942   -11894   -11907 
  -11916   -11886   -11884   -11961   -12090   -12228   -12347   -12413 
  -12429   -12442   -12413   -12286   -12164   -12154   -12226   -12329 
  -12430   -12484   -12471   -12438   -12407   -12347   -12235   -12071 
  -11888   -11765   -11761   -11857   -12002   -12133   -12216   -12255 
  -12240   -12199   -12172   -12123   -12031   -11935   -11889   -11932 
  -12043   -12160   -12236   -12259   -12244   -12235   -12275   -12325 
  -12329   -12340   -12390   -12422   -12402   -12348   -12295   -12232 
  -12128   -12006   -11904   -11858   -11912   -12017   -12071   -12081 
  -12098   -12094   -12052   -12036   -12044   -12039   -12062   -12108 
  -12128   -12163   -12216   -12216   -12179   -12170   -12183   -12181 
  -12141   -12106   -12127   -12191   -12270   -12317   -12280   -12201 
  -12156   -12144   -12168   -12237   -12286   -12279   -12256   -12205 
  -12102   -12006   -11969   -11973   -12046   -12191   -12326   -12388 
  -12348   -12224   -12083   -11989   -11966   -11993   -12036   -12098 
  -12154   -12198   -12241   -12240   -12179   -12140   -12129   -12093 
  -12054   -12020   -11975   -11969   -12025   -12102   -12182   -12259 
  -12317   -12366   -12405   -12388   -12320   -12249   -12182   -12125 
  -12102   -12108   -12137   -12182   -12208   -12197   -12170   -12160 
  -12177   -12201   -12213   -12208   -12224   -12293   -12368   -12387 
  -12326   -12214   -12109   -12032   -11988   -11977   -11969   -11966 
  -12004   -12073   -12166   -12301   -12410   -12417   -12379   -12376 
  -12395   -12402   -12363   -12276   -12199   -12160   -12128   -12114 
  -12131   -12162   -12206   -12235   -12221   -12191   -12151   -12101 
  -12085   -12086   -12079   -12085   -12087   -12064   -12035   -12005 
