Origin Time       2025/06/03 22:18:00
Lat.              41.7
Long.             143.6
Depth. (km)       30
Mag.              5.2
Station Code      NMRH04
Station Lat.      43.3978
Station Long.     145.1224
Station Height(m) -186
Record Time       2025/06/03 22:19:23
Sampling Freq(Hz) 100Hz
Duration Time(s)  120
Dir.              3
Scale Factor      3923(gal)/8224838
Max. Acc. (gal)   0.104
Last Correction   2025/06/03 22:19:24
Memo.             
[...]
  -29628   -29613   -29628   -29628   -29616   -29655   -29686   -29644 
  -29612   -29633   -29641   -29633   -29636   -29621   -29602   -29608 
  -29604   -29582   -29581   -29589   -29587   -29586   -29581   -29583 
  -29631   -29686   -29671   -29625   -29610   -29589   -29560   -29583 
  -29629   -29635   -29602   -29592   -29623   -29633   -29589   -29546 
  -29547   -29586   -29627   -29633   -29624   -29635   -29674   -29698 
  -29687   -29706   -29740   -29705   -29628   -29605   -29627   -29614 
  -29573   -29559   -29581   -29605   -29609   -29614   -29646   -29662 
  -29640   -29613   -29593   -29596   -29616   -29632   -29656   -29678 
  -29667   -29639   -29608   -29593   -29610   -29619   -29608   -29636 
  -29686   -29679   -29631   -29609   -29614   -29613   -29606   -29609 
  -29609   -29600   -29604   -29610   -29606   -29619   -29647   -29655 
  -29639   -29619   -29598   -29578   -29562   -29540   -29540   -29565 
  -29581   -29601   -29631   -29646   -29639   -29633   -29647   -29668 
  -29674   -29667   -29633   -29582   -29556   -29528   -29506   -29536 
  -29573   -29586   -29617   -29632   -29616   -29621   -29633   -29624 
  -29628   -29631   -29608   -29614   -29637   -29636   -29652   -29682 
  -29695   -29712   -29694   -29647   -29641   -29636   -29589   -29565 
  -29565   -29571   -29596   -29604   -29582   -29569   -29579   -29604 
  -29629   -29636   -29612   -29571   -29546   -29560   -29596   -29604 
  -29610   -29655   -29712   -29740   -29716   -29693   -29713   -29713 
  -29666   -29636   -29628   -29629   -29655   -29656   -29628   -29621 
  -29600   -29552   -29550   -29585   -29613   -29625   -29612   -29589 
  -29578   -29567   -29574   -29614   -29652   -29664   -29647   -29620 
  -29624   -29659   -29681   -29682   -29682   -29687   -29687   -29662 
  -29637   -29628   -29598   -29546   -29501   -29490   -29504   -29515 
  -29505   -29497   -29520   -29544   -29560   -29604   -29641   -29631 
  -29627   -29654   -29668   -29668   -29671   -29662   -29640   -29621 
  -29602   -29583   -29592   -29612   -29616   -29606   -29598   -29605 
  -29613   -29605   -29601   -29612   -29640   -29677   -29681   -29654 
  -29629   -29619   -29627   -29637   -29635   -29625   -29617   -29628 
  -29646   -29625   -29589   -29590   -29614   -29621   -29624   -29640 
  -29668   -29700   -29725   -29727   -29694   -29655   -29659   -29705 
  -29721   -29700   -29675   -29652   -29651   -29677   -29690   -29664 
  -29609   -29577   -29601   -29624   -29617   -29604   -29583   -29563 
  -29558   -29569   -29592   -29609   -29628   -29662   -29660   -29602 
  -29551   -29544   -29552   -29565   -29583   -29597   -29594   -29586 
  -29575   -29551   -29539   -29558   -29583   -29589   -29593   -29633 
  -29687   -29709   -29697   -29650   -29583   -29552   -29592   -29664 
  -29690   -29647   -29596   -29573   -29562   -29550   -29543   -29558 
  -29583   -29605   -29625   -29628   -29616   -29602   -29590   -29586 
  -29587   -29586   -29596   -29617   -29637   -29627   -29581   -29555 
  -29587   -29650   -29682   -29671   -29659   -29647   -29632   -29640 
  -29646   -29636   -29666   -29717   -29704   -29650   -29633   -29632 
  -29600   -29558   -29536   -29523   -29525   -29562   -29605   -29635 
  -29668   -29702   -29744   -29794   -29810   -29791   -29772   -29745 
  -29709   -29691   -29679   -29646   -29612   -29594   -29577   -29542 
  -29516   -29519   -29523   -29532   -29567   -29610   -29644   -29648 
  -29612   -29598   -29624   -29627   -29629   -29652   -29655   -29647 
  -29644   -29614   -29575   -29575   -29593   -29596   -29590   -29592 
  -29598   -29616   -29656   -29702   -29700   -29651   -29610   -29577 
  -29546   -29544   -29563   -29589   -29635   -29650   -29602   -29538 
  -29490   -29486   -29521   -29556   -29606   -29668   -29701   -29718 
  -29733   -29716   -29667   -29637   -29632   -29598   -29550   -29552 
  -29577   -29577   -29571   -29579   -29590   -29579   -29550   -29511 
  -29477   -29477   -29521   -29581   -29625   -29664   -29697   -29714 
  -29725   -29735   -29736   -29720   -29663   -29619   -29644   -29667 
  -29650   -29644   -29648   -29644   -29640   -29623   -29594   -29570 
  -29548   -29539   -29546   -29559   -29592   -29644   -29697   -29724 
  -29716   -29704   -29701   -29671   -29625   -29617   -29606   -29569 
  -29569   -29574   -29539   -29535   -29570   -29598   -29616   -29612 
  -29594   -29574   -29566   -29606   -29677   -29709   -29706   -29713 
  -29722   -29714   -29706   -29714   -29708   -29656   -29601   -29567 
  -29539   -29520   -29528   -29548   -29554   -29547   -29554   -29579 
  -29604   -29624   -29651   -29671   -29689   -29700   -29675   -29617 
  -29571   -29582   -29632   -29658   -29644   -29637   -29660   -29689 
  -29687   -29659   -29627   -29602   -29604   -29632   -29635   -29624 
  -29643   -29658   -29647   -29668   -29728   -29739   -29697   -29663 
  -29629   -29585   -29577   -29613   -29655   -29691   -29714   -29712 
  -29682   -29632   -29569   -29515   -29500   -29529   -29566   -29574 
  -29590   -29656   -29713   -29700   -29664   -29650   -29631   -29608 
  -29585   -29559   -29556   -29585   -29612   -29601   -29560   -29523 
  -29481   -29454   -29474   -29512   -29525   -29544   -29582   -29604 
  -29612   -29625   -29636   -29646   -29647   -29633   -29636   -29643 
  -29616   -29587   -29606   -29632   -29613   -29582   -29569   -29555 
  -29536   -29533   -29558   -29600   -29644   -29675   -29682   -29664 
  -29659   -29683   -29704   -29704   -29698   -29689   -29682   -29690 
  -29698   -29700   -29679   -29633   -29612   -29614   -29596   -29554 
  -29520   -29506   -29521   -29558   -29579   -29577   -29582   -29604 
  -29616   -29616   -29635   -29670   -29691   -29675   -29641   -29647 
  -29677   -29689   -29693   -29689   -29667   -29639   -29619   -29629 
  -29667   -29681   -29643   -29610   -29621   -29614   -29566   -29525 
  -29505   -29496   -29505   -29508   -29505   -29529   -29555   -29555 
  -29575   -29629   -29656   -29651   -29659   -29690   -29747   -29797 
  -29783   -29743   -29714   -29667   -29617   -29589   -29577   -29582 
  -29593   -29594   -29604   -29610   -29586   -29543   -29516   -29531 
  -29575   -29631   -29698   -29748   -29740   -29691   -29631   -29571 
  -29548   -29582   -29627   -29637   -29641   -29643   -29613   -29558 
  -29521   -29517   -29535   -29583   -29643   -29679   -29712   -29728 
  -29717   -29733   -29754   -29727   -29714   -29740   -29718   -29646 
  -29596   -29569   -29527   -29479   -29447   -29447   -29492   -29565 
  -29602   -29589   -29587   -29625   -29652   -29660   -29670   -29686 
  -29713   -29722   -29694   -29656   -29605   -29563   -29585   -29604 
  -29543   -29486   -29508   -29543   -29546   -29563   -29620   -29668 
  -29687   -29700   -29687   -29644   -29606   -29592   -29583   -29573 
  -29569   -29587   -29610   -29597   -29563   -29554   -29555   -29562 
  -29597   -29635   -29629   -29612   -29636   -29691   -29737   -29751 
  -29741   -29735   -29728   -29712   -29700   -29697   -29705   -29717 
  -29714   -29693   -29658   -29614   -29592   -29596   -29581   -29542 
  -29516   -29504   -29505   -29543   -29582   -29570   -29548   -29548 
  -29548   -29559   -29590   -29621   -29637   -29651   -29666   -29655 
  -29605   -29559   -29554   -29563   -29573   -29610   -29671   -29697 
  -29677   -29637   -29598   -29577   -29582   -29606   -29639   -29655 
  -29646   -29650   -29664   -29647   -29600   -29562   -29532   -29504 
  -29496   -29515   -29540   -29555   -29535   -29484   -29434   -29431 
  -29496   -29594   -29667   -29706   -29729   -29737   -29720   -29681 
  -29650   -29644   -29663   -29693   -29712   -29712   -29694   -29660 
  -29629   -29602   -29563   -29536   -29539   -29546   -29555   -29569 
  -29563   -29554   -29571   -29604   -29632   -29647   -29650   -29652 
  -29651   -29633   -29594   -29566   -29569   -29582   -29600   -29608 
  -29609   -29631   -29663   -29668   -29648   -29641   -29666   -29683 
  -29662   -29641   -29652   -29666   -29682   -29722   -29756   -29758 
  -29747   -29741   -29748   -29762   -29754   -29709   -29658   -29627 
  -29616   -29604   -29585   -29596   -29635   -29636   -29590   -29562 
  -29575   -29578   -29550   -29547   -29570   -29569   -29544   -29532 
  -29562   -29602   -29610   -29631   -29682   -29700   -29689   -29685 
  -29644   -29592   -29600   -29621   -29612   -29602   -29604   -29610 
  -29631   -29656   -29662   -29609   -29532   -29517   -29552   -29565 
  -29582   -29641   -29702   -29732   -29714   -29667   -29633   -29604 
  -29567   -29578   -29629   -29664   -29677   -29662   -29617   -29563 
  -29511   -29494   -29528   -29559   -29575   -29587   -29581   -29593 
  -29643   -29641   -29586   -29579   -29601   -29617   -29633   -29624 
  -29602   -29609   -29625   -29616   -29596   -29598   -29635   -29704 
  -29764   -29763   -29736   -29745   -29779   -29776   -29731   -29663 
  -29585   -29527   -29528   -29547   -29533   -29524   -29555   -29606 
  -29644   -29656   -29629   -29582   -29556   -29569   -29593   -29614 
  -29640   -29658   -29640   -29600   -29573   -29571   -29587   -29592 
  -29582   -29597   -29621   -29610   -29585   -29578   -29577   -29578 
  -29605   -29628   -29616   -29597   -29598   -29619   -29636   -29635 
  -29619   -29601   -29583   -29577   -29590   -29613   -29609   -29571 
  -29543   -29552   -29583   -29623   -29646   -29628   -29594   -29575 
  -29554   -29536   -29554   -29592   -29621   -29656   -29693   -29713 
  -29713   -29681   -29633   -29614   -29601   -29569   -29546   -29540 
  -29528   -29521   -29554   -29608   -29643   -29663   -29673   -29652 
  -29628   -29620   -29606   -29606   -29646   -29662   -29654   -29666 
  -29646   -29596   -29606   -29646   -29659   -29674   -29667   -29643 
  -29663   -29695   -29691   -29656   -29606   -29573   -29562   -29556 
  -29566   -29592   -29601   -29593   -29589   -29601   -29614   -29590 
  -29570   -29605   -29619   -29593   -29600   -29612   -29602   -29616 
  -29639   -29656   -29685   -29712   -29713   -29682   -29631   -29590 
  -29569   -29565   -29571   -29560   -29540   -29543   -29544   -29536 
  -29532   -29520   -29519   -29556   -29594   -29601   -29620   -29658 
  -29675   -29702   -29751   -29775   -29774   -29768   -29743   -29701 
  -29683   -29697   -29701   -29690   -29683   -29668   -29652   -29650 
  -29646   -29636   -29629   -29612   -29575   -29533   -29509   -29513 
  -29538   -29582   -29621   -29637   -29647   -29648   -29646   -29659 
  -29656   -29633   -29651   -29674   -29664   -29666   -29668   -29637 
  -29597   -29565   -29552   -29566   -29555   -29517   -29511   -29532 
  -29535   -29515   -29490   -29481   -29496   -29521   -29543   -29563 
  -29590   -29610   -29586   -29559   -29566   -29577   -29594   -29648 
  -29718   -29748   -29717   -29674   -29646   -29612   -29577   -29570 
  -29597   -29636   -29647   -29629   -29623   -29647   -29671   -29677 
  -29681   -29685   -29677   -29663   -29646   -29632   -29620   -29609 
  -29606   -29621   -29650   -29660   -29643   -29646   -29667   -29668 
  -29660   -29650   -29628   -29620   -29619   -29606   -29620   -29651 
  -29664   -29675   -29693   -29702   -29686   -29666   -29660   -29654 
  -29647   -29656   -29682   -29705   -29721   -29722   -29705   -29683 
  -29666   -29637   -29597   -29563   -29528   -29498   -29496   -29520 
  -29547   -29586   -29632   -29637   -29598   -29558   -29529   -29513 
  -29517   -29521   -29508   -29504   -29540   -29578   -29582   -29579 
  -29573   -29565   -29578   -29596   -29619   -29666   -29690   -29681 
  -29683   -29695   -29690   -29675   -29671   -29673   -29668   -29650 
  -29625   -29625   -29641   -29641   -29636   -29647   -29660   -29654 
  -29636   -29635   -29631   -29627   -29655   -29673   -29648   -29625 
  -29620   -29621   -29636   -29652   -29648   -29632   -29610   -29571 
  -29546   -29582   -29650   -29687   -29712   -29735   -29708   -29656 
  -29635   -29616   -29592   -29602   -29623   -29608   -29585   -29571 
  -29556   -29563   -29583   -29583   -29579   -29585   -29586   -29589 
  -29601   -29621   -29632   -29635   -29651   -29668   -29682   -29717 
  -29729   -29677   -29614   -29589   -29571   -29550   -29542   -29542 
  -29536   -29539   -29538   -29533   -29550   -29563   -29563   -29569 
  -29573   -29589   -29632   -29651   -29625   -29604   -29594   -29573 
  -29565   -29596   -29624   -29612   -29578   -29543   -29505   -29471 
  -29471   -29515   -29555   -29575   -29600   -29621   -29629   -29631 
  -29620   -29613   -29631   -29660   -29679   -29700   -29736   -29748 
  -29702   -29648   -29632   -29639   -29640   -29631   -29619   -29624 
  -29647   -29651   -29629   -29612   -29601   -29575   -29558   -29565 
  -29563   -29556   -29579   -29623   -29660   -29683   -29677   -29650 
  -29644   -29651   -29652   -29654   -29647   -29643   -29656   -29662 
  -29648   -29643   -29648   -29633   -29589   -29563   -29569   -29562 
  -29556   -29575   -29585   -29571   -29570   -29578   -29578   -29583 
  -29598   -29605   -29600   -29606   -29633   -29659   -29682   -29721 
  -29764   -29776   -29751   -29722   -29722   -29732   -29729   -29728 
  -29747   -29766   -29758   -29716   -29655   -29593   -29556   -29535 
  -29513   -29500   -29500   -29517   -29555   -29604   -29633   -29616 
  -29585   -29596   -29629   -29647   -29674   -29720   -29759   -29783 
  -29799   -29818   -29837   -29821   -29748   -29658   -29585   -29519 
  -29458   -29438   -29452   -29470   -29490   -29533   -29590   -29629 
  -29639   -29647   -29673   -29694   -29693   -29686   -29693   -29702 
  -29705   -29709   -29701   -29668   -29624   -29569   -29506   -29462 
  -29436   -29427   -29436   -29454   -29475   -29489   -29512   -29562 
  -29597   -29590   -29593   -29625   -29651   -29658   -29662   -29659 
  -29644   -29624   -29583   -29520   -29469   -29465   -29502   -29533 
  -29536   -29527   -29524   -29538   -29559   -29577   -29589   -29578 
  -29565   -29579   -29602   -29605   -29594   -29594   -29609   -29614 
  -29601   -29581   -29562   -29559   -29574   -29581   -29577   -29582 
  -29593   -29604   -29619   -29637   -29663   -29679   -29689   -29705 
  -29704   -29679   -29681   -29717   -29752   -29743   -29693   -29646 
  -29614   -29594   -29575   -29548   -29533   -29556   -29586   -29593 
  -29596   -29606   -29632   -29673   -29706   -29727   -29740   -29737 
  -29718   -29690   -29660   -29633   -29614   -29619   -29633   -29643 
  -29658   -29683   -29710   -29735   -29744   -29736   -29724   -29701 
  -29652   -29612   -29614   -29639   -29648   -29652   -29658   -29635 
  -29581   -29524   -29474   -29442   -29430   -29442   -29490   -29546 
  -29579   -29598   -29612   -29623   -29640   -29650   -29637   -29623 
  -29623   -29627   -29616   -29594   -29575   -29573   -29578   -29585 
  -29604   -29624   -29627   -29633   -29663   -29682   -29674   -29670 
  -29686   -29702   -29709   -29706   -29675   -29637   -29625   -29619 
  -29602   -29596   -29578   -29548   -29539   -29527   -29496   -29485 
  -29508   -29532   -29542   -29546   -29566   -29604   -29629   -29636 
  -29641   -29636   -29614   -29601   -29606   -29610   -29605   -29608 
  -29617   -29602   -29579   -29577   -29570   -29548   -29527   -29516 
  -29521   -29536   -29555   -29582   -29606   -29629   -29656   -29682 
  -29717   -29756   -29770   -29751   -29706   -29662   -29643   -29632 
  -29620   -29616   -29609   -29594   -29583   -29590   -29606   -29609 
  -29614   -29640   -29674   -29700   -29722   -29735   -29714   -29677 
  -29651   -29648   -29664   -29693   -29716   -29721   -29706   -29685 
  -29671   -29651   -29619   -29587   -29566   -29570   -29596   -29613 
  -29627   -29648   -29662   -29667   -29682   -29709   -29741   -29751 
  -29733   -29731   -29740   -29740   -29736   -29718   -29685   -29656 
  -29621   -29579   -29555   -29546   -29533   -29521   -29524   -29546 
  -29571   -29594   -29629   -29660   -29655   -29629   -29610   -29590 
  -29575   -29581   -29597   -29629   -29667   -29681   -29675   -29682 
  -29695   -29693   -29686   -29681   -29663   -29631   -29587   -29552 
  -29543   -29559   -29585   -29606   -29617   -29613   -29604   -29602 
  -29590   -29546   -29504   -29493   -29504   -29535   -29562   -29567 
  -29583   -29613   -29617   -29609   -29617   -29631   -29632   -29633 
  -29636   -29628   -29612   -29597   -29592   -29594   -29612   -29632 
  -29648   -29662   -29655   -29620   -29593   -29605   -29625   -29635 
  -29644   -29639   -29601   -29574   -29566   -29543   -29527   -29529 
  -29517   -29496   -29490   -29500   -29511   -29508   -29512   -29538 
  -29567   -29587   -29605   -29629   -29646   -29648   -29659   -29671 
  -29659   -29648   -29660   -29673   -29666   -29654   -29636   -29624 
  -29628   -29624   -29601   -29578   -29563   -29548   -29544   -29563 
  -29589   -29604   -29613   -29631   -29648   -29654   -29654   -29655 
  -29656   -29643   -29617   -29601   -29598   -29601   -29605   -29604 
  -29602   -29601   -29587   -29563   -29539   -29536   -29547   -29565 
  -29598   -29631   -29628   -29605   -29581   -29573   -29592   -29605 
  -29601   -29605   -29617   -29617   -29619   -29625   -29644   -29675 
  -29695   -29702   -29709   -29709   -29690   -29667   -29651   -29644 
  -29636   -29628   -29627   -29628   -29627   -29621   -29608   -29604 
  -29613   -29613   -29608   -29625   -29662   -29687   -29702   -29720 
  -29743   -29755   -29748   -29733   -29724   -29705   -29668   -29635 
  -29610   -29586   -29571   -29563   -29543   -29527   -29516   -29502 
  -29513   -29544   -29573   -29590   -29604   -29621   -29629   -29628 
  -29637   -29646   -29636   -29614   -29581   -29552   -29540   -29528 
  -29516   -29521   -29547   -29570   -29578   -29585   -29590   -29593 
  -29601   -29604   -29606   -29624   -29643   -29640   -29623   -29604 
  -29592   -29587   -29586   -29583   -29585   -29596   -29600   -29597 
  -29602   -29612   -29619   -29627   -29654   -29681   -29697   -29705 
  -29685   -29651   -29639   -29640   -29635   -29625   -29620   -29625 
  -29635   -29643   -29646   -29644   -29639   -29635   -29654   -29687 
  -29708   -29712   -29709   -29689   -29668   -29656   -29637   -29628 
  -29635   -29624   -29593   -29571   -29565   -29573   -29586   -29586 
  -29578   -29590   -29612   -29614   -29621   -29639   -29627   -29590 
  -29585   -29605   -29612   -29608   -29619   -29627   -29619   -29604 
  -29587   -29573   -29560   -29544   -29531   -29536   -29555   -29565 
  -29565   -29578   -29612   -29641   -29654   -29651   -29648   -29651 
  -29641   -29617   -29600   -29578   -29544   -29532   -29559   -29593 
  -29605   -29597   -29585   -29583   -29579   -29574   -29581   -29600 
  -29621   -29631   -29639   -29652   -29658   -29668   -29685   -29687 
  -29691   -29691   -29674   -29668   -29686   -29686   -29662   -29637 
  -29620   -29606   -29600   -29592   -29594   -29620   -29646   -29658 
  -29663   -29667   -29666   -29654   -29644   -29651   -29670   -29686 
  -29695   -29700   -29700   -29697   -29671   -29637   -29635   -29640 
  -29614   -29602   -29628   -29656   -29671   -29668   -29652   -29635 
  -29613   -29575   -29552   -29556   -29562   -29570   -29585   -29597 
