Origin Time       2025/06/03 22:18:00
Lat.              41.7
Long.             143.6
Depth. (km)       30
Mag.              5.2
Station Code      SRCH08
Station Lat.      43.5138
Station Long.     141.9090
Station Height(m) -92
Record Time       2025/06/03 22:19:42
Sampling Freq(Hz) 100Hz
Duration Time(s)  120
Dir.              3
Scale Factor      2942(gal)/8224139
Max. Acc. (gal)   0.129
Last Correction   2025/06/03 22:19:43
Memo.             
[...]
  108731   108731   108726   108720   108708   108693   108683   108672 
  108660   108650   108645   108637   108626   108616   108607   108594 
  108585   108579   108573   108569   108567   108564   108561   108558 
  108556   108554   108554   108553   108549   108542   108537   108530 
  108519   108504   108494   108486   108476   108468   108461   108456 
  108448   108438   108432   108426   108415   108407   108406   108402 
  108399   108399   108400   108402   108406   108406   108410   108421 
  108430   108437   108448   108460   108471   108479   108486   108492 
  108499   108507   108521   108531   108538   108546   108554   108561 
  108568   108575   108583   108589   108595   108603   108610   108611 
  108618   108626   108630   108631   108634   108637   108635   108630 
  108626   108623   108618   108610   108606   108600   108595   108584 
  108576   108572   108567   108561   108558   108554   108546   108541 
  108534   108527   108526   108523   108519   108522   108525   108526 
  108526   108523   108525   108530   108534   108538   108545   108549 
  108549   108550   108554   108560   108564   108568   108572   108575 
  108576   108577   108581   108584   108581   108581   108583   108583 
  108577   108571   108565   108560   108552   108544   108541   108541 
  108541   108535   108531   108527   108521   108515   108506   108498 
  108490   108477   108464   108454   108448   108440   108433   108429 
  108426   108427   108432   108433   108441   108454   108464   108476 
  108495   108511   108527   108548   108568   108585   108599   108615 
  108631   108650   108668   108687   108706   108722   108737   108756 
  108770   108783   108796   108805   108810   108812   108815   108814 
  108811   108808   108805   108803   108797   108792   108784   108776 
  108770   108761   108749   108739   108733   108722   108711   108706 
  108700   108693   108683   108676   108670   108658   108646   108638 
  108625   108606   108589   108572   108553   108533   108517   108500 
  108479   108459   108441   108426   108413   108399   108386   108380 
  108372   108355   108341   108336   108325   108313   108303   108294 
  108286   108279   108271   108261   108255   108247   108238   108234 
  108232   108226   108225   108225   108221   108218   108217   108214 
  108213   108211   108203   108199   108198   108194   108193   108194 
  108202   108213   108225   108236   108249   108267   108287   108306 
  108328   108346   108365   108387   108406   108423   108448   108468 
  108488   108511   108531   108550   108573   108592   108611   108633 
  108650   108664   108680   108695   108703   108712   108720   108727 
  108730   108730   108729   108729   108730   108727   108722   108718 
  108716   108715   108715   108719   108720   108719   108722   108727 
  108729   108724   108720   108718   108719   108719   108718   108719 
  108723   108719   108719   108726   108730   108727   108720   108716 
  108715   108714   108708   108703   108702   108703   108706   108706 
  108707   108711   108714   108715   108718   108726   108733   108738 
  108746   108756   108765   108773   108780   108785   108789   108788 
  108787   108784   108776   108766   108757   108747   108737   108722 
  108704   108687   108668   108645   108626   108608   108592   108579 
  108568   108558   108548   108542   108537   108529   108522   108514 
  108504   108499   108492   108480   108468   108457   108446   108434 
  108423   108417   108406   108390   108376   108363   108348   108333 
  108313   108290   108271   108257   108245   108240   108233   108228 
  108226   108229   108230   108229   108230   108234   108237   108241 
  108245   108251   108256   108263   108272   108283   108295   108307 
  108324   108336   108349   108367   108379   108388   108403   108417 
  108425   108441   108457   108467   108481   108500   108515   108531 
  108548   108565   108577   108589   108603   108616   108631   108643 
  108648   108654   108661   108661   108661   108661   108657   108650 
  108642   108634   108630   108626   108621   108618   108622   108625 
  108625   108627   108633   108637   108639   108643   108646   108649 
  108650   108653   108657   108658   108660   108665   108669   108670 
  108669   108666   108668   108669   108669   108672   108677   108679 
  108679   108683   108685   108684   108680   108675   108673   108665 
  108660   108658   108656   108648   108642   108643   108645   108638 
  108627   108619   108610   108594   108579   108565   108552   108542 
  108530   108518   108513   108506   108494   108481   108471   108459 
  108449   108438   108427   108421   108410   108400   108395   108387 
  108379   108376   108378   108378   108369   108368   108369   108368 
  108365   108369   108379   108383   108387   108399   108409   108415 
  108426   108433   108438   108449   108460   108467   108471   108473 
  108480   108488   108494   108502   108511   108522   108533   108544 
  108552   108560   108576   108592   108604   108616   108635   108652 
  108665   108681   108693   108707   108723   108739   108754   108765 
  108773   108783   108789   108793   108796   108797   108797   108799 
  108799   108793   108788   108783   108778   108770   108760   108747 
  108737   108724   108710   108693   108680   108668   108653   108639 
  108630   108618   108608   108602   108595   108591   108587   108579 
  108575   108562   108546   108535   108523   108510   108498   108484 
  108471   108463   108450   108434   108425   108415   108406   108398 
  108394   108390   108386   108383   108382   108383   108382   108383 
  108387   108387   108388   108395   108400   108402   108402   108406 
  108410   108413   108415   108421   108426   108430   108438   108445 
  108452   108457   108464   108471   108477   108481   108488   108498 
  108506   108510   108513   108521   108526   108529   108531   108534 
  108535   108537   108537   108537   108537   108538   108540   108540 
  108542   108542   108545   108554   108562   108569   108579   108581 
  108585   108591   108595   108599   108604   108606   108607   108606 
  108603   108602   108602   108598   108594   108592   108589   108583 
  108575   108571   108569   108564   108557   108553   108554   108552 
  108546   108540   108540   108544   108542   108540   108542   108546 
  108545   108548   108554   108558   108557   108560   108562   108556 
  108546   108545   108544   108535   108531   108534   108534   108531 
  108527   108526   108526   108529   108530   108526   108526   108527 
  108526   108521   108518   108515   108507   108498   108491   108481 
  108473   108467   108456   108446   108440   108430   108425   108421 
  108417   108414   108413   108410   108407   108410   108417   108422 
  108426   108432   108434   108440   108446   108450   108459   108469 
  108480   108492   108499   108503   108511   108518   108522   108526 
  108531   108537   108540   108542   108544   108544   108545   108548 
  108546   108544   108545   108548   108549   108550   108558   108569 
  108577   108583   108592   108600   108606   108612   108621   108626 
  108633   108639   108650   108662   108668   108673   108681   108687 
  108689   108693   108700   108706   108707   108707   108710   108710 
  108706   108706   108706   108706   108707   108707   108704   108703 
  108708   108714   108715   108719   108722   108724   108727   108727 
  108727   108730   108729   108723   108724   108726   108719   108710 
  108707   108703   108692   108685   108681   108670   108660   108652 
  108641   108629   108621   108615   108608   108598   108588   108581 
  108575   108565   108557   108550   108544   108533   108525   108514 
  108503   108494   108481   108467   108454   108446   108440   108433 
  108429   108426   108423   108421   108422   108422   108422   108425 
  108425   108423   108427   108427   108426   108426   108425   108425 
  108429   108434   108438   108437   108434   108438   108444   108448 
  108454   108457   108460   108463   108463   108467   108471   108472 
  108471   108469   108471   108473   108472   108469   108467   108465 
  108464   108465   108467   108468   108475   108481   108487   108492 
  108494   108498   108504   108508   108508   108511   108514   108515 
  108517   108513   108507   108506   108502   108495   108494   108491 
  108483   108479   108480   108475   108465   108459   108456   108450 
  108445   108448   108449   108444   108442   108448   108449   108446 
  108448   108450   108453   108454   108459   108467   108476   108479 
  108481   108488   108495   108502   108510   108518   108522   108525 
  108527   108531   108534   108534   108538   108544   108544   108542 
  108548   108550   108556   108562   108567   108571   108577   108580 
  108581   108588   108596   108602   108608   108618   108626   108635 
  108648   108658   108669   108685   108697   108710   108726   108739 
  108750   108760   108768   108776   108780   108780   108784   108789 
  108792   108788   108783   108780   108777   108770   108764   108760 
  108751   108739   108729   108715   108700   108691   108684   108673 
  108664   108654   108638   108621   108611   108600   108587   108577 
  108568   108553   108540   108529   108515   108503   108495   108483 
  108472   108463   108450   108438   108427   108419   108410   108399 
  108388   108382   108375   108369   108365   108360   108359   108363 
  108367   108372   108378   108383   108388   108396   108407   108419 
  108432   108444   108452   108463   108473   108483   108492   108503 
  108511   108523   108538   108546   108552   108560   108571   108580 
  108587   108595   108603   108608   108610   108612   108611   108610 
  108614   108616   108615   108616   108614   108607   108604   108602 
  108596   108589   108584   108579   108572   108567   108560   108553 
  108545   108545   108544   108538   108538   108537   108530   108529 
  108526   108518   108515   108515   108513   108507   108500   108494 
  108487   108477   108468   108460   108454   108445   108432   108422 
  108419   108411   108402   108399   108395   108392   108398   108405 
  108406   108409   108417   108421   108425   108434   108442   108449 
  108459   108465   108472   108481   108487   108492   108502   108515 
  108527   108535   108545   108552   108556   108565   108575   108579 
  108581   108584   108583   108583   108585   108589   108591   108594 
  108598   108599   108603   108612   108618   108623   108629   108630 
  108634   108643   108650   108657   108664   108669   108675   108680 
  108684   108689   108695   108699   108699   108699   108699   108703 
  108706   108702   108696   108695   108692   108687   108687   108687 
  108683   108680   108679   108673   108666   108658   108648   108637 
  108626   108614   108603   108594   108584   108575   108565   108554 
  108545   108540   108534   108529   108522   108513   108508   108506 
  108502   108502   108504   108507   108510   108511   108511   108515 
  108522   108527   108534   108545   108553   108557   108562   108568 
  108573   108579   108581   108585   108589   108589   108589   108594 
  108596   108598   108602   108603   108600   108603   108602   108599 
  108598   108594   108588   108591   108592   108584   108584   108587 
  108583   108579   108580   108576   108571   108571   108565   108553 
  108545   108540   108530   108518   108508   108500   108492   108484 
  108476   108467   108457   108448   108440   108430   108417   108406 
  108399   108391   108383   108378   108371   108363   108356   108349 
  108341   108336   108332   108329   108326   108326   108324   108322 
  108325   108329   108333   108336   108340   108345   108346   108352 
  108356   108360   108368   108376   108382   108394   108407   108418 
  108427   108438   108452   108465   108476   108495   108513   108523 
  108537   108546   108553   108565   108576   108577   108584   108596 
  108603   108610   108616   108622   108629   108639   108646   108656 
  108669   108677   108681   108691   108702   108710   108716   108722 
  108729   108739   108747   108753   108758   108762   108764   108768 
  108772   108773   108773   108776   108777   108776   108773   108768 
  108762   108758   108754   108749   108739   108730   108718   108704 
  108689   108676   108662   108649   108637   108625   108614   108602 
  108587   108575   108562   108552   108542   108531   108522   108518 
  108511   108500   108490   108486   108480   108472   108463   108456 
  108446   108437   108430   108425   108417   108414   108411   108406 
  108403   108400   108392   108388   108387   108379   108371   108368 
  108363   108357   108357   108356   108353   108356   108359   108363 
  108373   108379   108387   108400   108414   108425   108441   108459 
  108477   108498   108521   108540   108560   108579   108596   108615 
  108635   108654   108670   108687   108704   108719   108730   108742 
  108757   108766   108776   108789   108797   108804   108815   108818 
  108818   108818   108818   108816   108811   108803   108797   108789 
  108777   108764   108750   108735   108722   108708   108695   108675 
  108657   108645   108625   108599   108584   108567   108545   108527 
  108506   108479   108460   108444   108421   108403   108390   108369 
  108351   108337   108321   108305   108291   108274   108253   108237 
  108225   108214   108205   108199   108194   108190   108187   108190 
  108193   108199   108207   108216   108228   108240   108252   108268 
  108284   108302   108321   108340   108360   108382   108403   108423 
  108444   108464   108483   108494   108504   108521   108535   108549 
  108560   108564   108571   108579   108584   108591   108599   108603 
  108606   108614   108616   108614   108619   108626   108626   108633 
  108638   108642   108650   108656   108658   108665   108675   108680 
  108683   108687   108691   108696   108702   108703   108704   108708 
  108711   108712   108715   108718   108719   108722   108727   108729 
  108731   108734   108733   108738   108743   108742   108738   108739 
  108738   108738   108738   108734   108727   108723   108719   108712 
  108703   108691   108677   108666   108656   108643   108631   108622 
  108611   108599   108587   108575   108562   108553   108546   108537 
  108526   108519   108514   108504   108494   108486   108480   108477 
  108472   108464   108460   108457   108452   108449   108450   108452 
  108450   108449   108446   108445   108445   108445   108449   108449 
  108449   108454   108457   108459   108460   108465   108473   108481 
  108486   108492   108500   108506   108511   108519   108529   108533 
  108538   108546   108554   108564   108575   108583   108588   108598 
  108606   108612   108619   108626   108631   108633   108634   108641 
  108643   108641   108643   108649   108649   108645   108641   108642 
  108641   108637   108634   108629   108623   108619   108610   108599 
  108589   108579   108567   108554   108546   108538   108527   108514 
  108502   108495   108487   108479   108472   108464   108454   108445 
  108436   108427   108422   108414   108410   108406   108399   108395 
  108392   108387   108382   108380   108376   108369   108364   108359 
  108348   108337   108330   108324   108317   108314   108311   108307 
  108306   108305   108305   108303   108306   108314   108321   108329 
  108344   108356   108368   108387   108402   108415   108429   108445 
  108464   108480   108492   108508   108529   108544   108558   108572 
  108583   108598   108615   108626   108634   108650   108662   108669 
  108681   108696   108702   108710   108724   108737   108745   108756 
  108765   108776   108785   108793   108803   108810   108818   108827 
  108834   108835   108839   108847   108850   108849   108849   108851 
  108849   108842   108835   108828   108822   108814   108803   108797 
  108789   108776   108766   108757   108743   108733   108724   108712 
  108703   108689   108673   108660   108650   108637   108623   108612 
  108599   108583   108571   108558   108542   108527   108515   108502 
  108488   108479   108469   108454   108444   108436   108422   108407 
  108399   108390   108378   108369   108360   108348   108338   108330 
  108321   108315   108310   108302   108295   108287   108279   108275 
  108274   108272   108270   108270   108272   108271   108271   108275 
  108280   108286   108292   108299   108306   108314   108322   108333 
  108344   108355   108368   108382   108395   108411   108426   108441 
  108454   108465   108477   108494   108510   108523   108535   108544 
  108554   108568   108579   108588   108598   108604   108615   108626 
  108631   108638   108649   108656   108658   108665   108669   108672 
  108676   108680   108685   108688   108684   108685   108691   108691 
  108688   108689   108692   108695   108697   108697   108697   108702 
  108703   108704   108708   108714   108715   108718   108722   108726 
  108731   108735   108738   108743   108746   108746   108746   108745 
  108741   108739   108735   108729   108724   108718   108707   108697 
  108691   108679   108666   108658   108645   108626   108612   108600 
  108584   108572   108558   108541   108525   108506   108490   108473 
  108454   108438   108426   108415   108405   108392   108383   108376 
  108373   108369   108364   108360   108361   108360   108357   108361 
  108364   108367   108369   108371   108371   108376   108380   108382 
  108384   108383   108384   108387   108388   108390   108396   108403 
  108402   108400   108407   108411   108410   108414   108421   108426 
  108432   108436   108434   108437   108442   108446   108452   108456 
  108460   108467   108471   108472   108479   108487   108490   108495 
  108503   108507   108514   108523   108533   108541   108548   108554 
  108558   108562   108573   108581   108587   108599   108608   108615 
  108625   108633   108637   108646   108653   108653   108654   108660 
  108664   108665   108669   108669   108665   108660   108656   108652 
  108649   108649   108645   108637   108635   108637   108633   108631 
  108630   108629   108626   108626   108626   108627   108625   108621 
  108622   108623   108621   108623   108625   108622   108623   108627 
  108630   108634   108637   108639   108642   108643   108648   108652 
  108653   108654   108657   108660   108661   108664   108669   108670 
  108670   108673   108677   108676   108672   108669   108662   108657 
  108656   108652   108643   108637   108630   108623   108615   108604 
  108598   108591   108584   108577   108569   108561   108549   108540 
  108534   108527   108519   108511   108503   108498   108496   108491 
  108481   108473   108467   108460   108453   108445   108438   108433 
  108426   108415   108409   108402   108395   108390   108384   108383 
  108379   108371   108365   108365   108364   108363   108367   108371 
  108375   108379   108380   108384   108394   108399   108402   108409 
  108419   108426   108430   108438   108448   108456   108461   108469 
  108479   108487   108494   108499   108504   108510   108513   108517 
  108522   108525   108527   108531   108531   108533   108537   108538 
