Origin Time       2025/06/03 22:18:00
Lat.              41.7
Long.             143.6
Depth. (km)       30
Mag.              5.2
Station Code      SRCH10
Station Lat.      42.9930
Station Long.     142.0085
Station Height(m) 195
Record Time       2025/06/03 22:19:24
Sampling Freq(Hz) 100Hz
Duration Time(s)  120
Dir.              4
Scale Factor      7845(gal)/8223790
Max. Acc. (gal)   0.324
Last Correction   2025/06/03 22:19:25
Memo.             
[...]
   39830    39830    39833    39839    39852    39864    39869    39872 
   39872    39873    39872    39872    39869    39865    39862    39864 
   39864    39864    39862    39860    39856    39852    39847    39843 
   39839    39834    39829    39825    39820    39816    39815    39816 
   39820    39825    39833    39841    39845    39845    39849    39853 
   39852    39849    39847    39846    39839    39837    39838    39835 
   39834    39838    39838    39837    39837    39835    39831    39833 
   39834    39833    39833    39835    39839    39843    39845    39847 
   39846    39843    39842    39841    39841    39838    39833    39830 
   39830    39827    39826    39826    39831    39837    39842    39847 
   39850    39846    39842    39843    39846    39847    39854    39860 
   39858    39852    39847    39843    39842    39845    39849    39853 
   39850    39847    39847    39847    39850    39852    39845    39838 
   39838    39837    39837    39838    39841    39845    39846    39843 
   39841    39838    39837    39838    39838    39837    39835    39831 
   39830    39834    39838    39842    39849    39854    39854    39853 
   39854    39856    39854    39849    39843    39841    39838    39838 
   39841    39839    39842    39845    39842    39841    39845    39847 
   39849    39849    39847    39847    39852    39857    39860    39861 
   39862    39868    39870    39873    39872    39866    39861    39857 
   39853    39854    39858    39860    39861    39864    39868    39868 
   39866    39864    39858    39854    39852    39854    39857    39857 
   39857    39864    39873    39880    39887    39891    39889    39885 
   39883    39880    39879    39873    39869    39869    39866    39862 
   39857    39853    39852    39850    39847    39841    39834    39830 
   39823    39816    39815    39816    39816    39816    39818    39816 
   39815    39815    39814    39811    39807    39802    39799    39802 
   39804    39806    39808    39812    39819    39826    39830    39827 
   39825    39823    39823    39825    39830    39835    39838    39847 
   39860    39866    39873    39880    39885    39893    39897    39899 
   39897    39893    39892    39892    39889    39884    39880    39877 
   39876    39877    39877    39873    39870    39865    39860    39854 
   39849    39846    39841    39833    39827    39820    39815    39814 
   39811    39810    39811    39808    39806    39804    39802    39802 
   39806    39810    39812    39816    39820    39818    39814    39814 
   39818    39818    39818    39819    39820    39822    39825    39830 
   39833    39833    39830    39830    39829    39831    39839    39846 
   39849    39852    39853    39856    39860    39862    39864    39865 
   39862    39860    39856    39854    39857    39856    39852    39850 
   39846    39843    39843    39847    39847    39847    39852    39856 
   39854    39857    39860    39856    39854    39857    39858    39857 
   39857    39862    39868    39872    39872    39873    39874    39872 
   39869    39872    39873    39873    39877    39880    39879    39880 
   39884    39887    39883    39874    39870    39865    39858    39853 
   39850    39845    39838    39831    39826    39826    39830    39838 
   39843    39849    39854    39858    39861    39869    39879    39883 
   39888    39893    39893    39891    39887    39880    39872    39861 
   39849    39838    39823    39814    39807    39802    39802    39804 
   39798    39791    39787    39787    39791    39792    39795    39799 
   39802    39806    39815    39823    39827    39834    39842    39850 
   39854    39858    39857    39856    39861    39865    39866    39866 
   39866    39866    39868    39864    39858    39857    39854    39849 
   39847    39846    39842    39839    39834    39831    39831    39829 
   39825    39819    39814    39812    39811    39808    39807    39802 
   39793    39788    39787    39791    39795    39798    39803    39810 
   39818    39829    39839    39849    39857    39861    39866    39877 
   39888    39896    39897    39896    39893    39893    39895    39897 
   39900    39901    39899    39893    39885    39876    39869    39868 
   39869    39870    39869    39866    39866    39866    39869    39869 
   39868    39862    39856    39853    39853    39853    39852    39847 
   39842    39837    39830    39825    39825    39826    39825    39819 
   39815    39812    39812    39814    39812    39808    39807    39807 
   39808    39812    39816    39818    39819    39822    39826    39827 
   39827    39829    39830    39833    39839    39843    39845    39847 
   39849    39846    39842    39839    39839    39839    39838    39841 
   39847    39856    39865    39874    39884    39893    39904    39914 
   39920    39919    39918    39916    39916    39920    39919    39911 
   39904    39896    39888    39880    39874    39866    39856    39845 
   39835    39826    39818    39811    39804    39799    39789    39780 
   39773    39771    39769    39775    39779    39775    39773    39775 
   39771    39773    39783    39788    39793    39802    39810    39820 
   39830    39837    39843    39849    39856    39861    39864    39866 
   39869    39869    39870    39869    39860    39849    39843    39841 
   39841    39845    39846    39847    39846    39849    39854    39861 
   39868    39873    39876    39874    39879    39883    39883    39884 
   39887    39887    39888    39892    39893    39892    39891    39885 
   39879    39873    39869    39866    39862    39857    39852    39849 
   39850    39850    39849    39849    39849    39850    39850    39850 
   39852    39852    39849    39847    39845    39847    39850    39847 
   39846    39852    39852    39849    39850    39850    39849    39850 
   39856    39860    39858    39856    39857    39860    39865    39870 
   39872    39868    39865    39865    39864    39861    39861    39864 
   39861    39861    39860    39854    39847    39846    39845    39841 
   39837    39833    39829    39822    39818    39816    39816    39822 
   39827    39830    39838    39849    39854    39854    39853    39854 
   39858    39864    39868    39866    39864    39856    39847    39841 
   39834    39831    39829    39823    39825    39827    39826    39829 
   39833    39833    39834    39841    39842    39842    39841    39841 
   39842    39846    39846    39843    39839    39837    39838    39841 
   39841    39837    39829    39823    39816    39812    39810    39808 
   39807    39804    39804    39807    39808    39808    39808    39810 
   39811    39811    39812    39816    39820    39823    39830    39838 
   39841    39842    39846    39849    39853    39858    39861    39866 
   39868    39870    39879    39888    39893    39901    39906    39907 
   39906    39906    39906    39904    39901    39900    39897    39895 
   39892    39888    39881    39876    39869    39858    39850    39842 
   39834    39830    39827    39823    39819    39815    39814    39811 
   39807    39807    39807    39804    39802    39798    39791    39788 
   39783    39773    39765    39758    39752    39752    39760    39769 
   39773    39780    39789    39798    39804    39811    39818    39827 
   39838    39845    39853    39865    39879    39892    39904    39912 
   39918    39922    39924    39930    39939    39946    39946    39946 
   39945    39943    39938    39930    39920    39908    39897    39888 
   39874    39864    39860    39856    39849    39842    39831    39820 
   39812    39808    39810    39811    39808    39806    39808    39812 
   39819    39827    39833    39834    39837    39839    39839    39841 
   39842    39845    39846    39849    39850    39849    39842    39841 
   39838    39835    39833    39825    39816    39810    39802    39799 
   39803    39804    39799    39796    39795    39792    39793    39798 
   39799    39800    39804    39810    39815    39823    39831    39838 
   39845    39852    39858    39865    39870    39874    39881    39885 
   39885    39887    39887    39884    39884    39883    39877    39874 
   39874    39872    39869    39866    39860    39856    39854    39850 
   39845    39839    39831    39825    39823    39819    39814    39810 
   39806    39804    39802    39802    39804    39806    39808    39814 
   39823    39831    39839    39849    39858    39865    39872    39877 
   39879    39881    39885    39887    39889    39887    39883    39881 
   39879    39876    39876    39876    39873    39870    39872    39874 
   39877    39877    39874    39865    39856    39850    39845    39841 
   39838    39834    39829    39826    39823    39823    39827    39831 
   39830    39826    39823    39819    39815    39814    39812    39808 
   39806    39800    39792    39787    39788    39795    39799    39798 
   39793    39784    39773    39769    39771    39773    39779    39785 
   39791    39795    39803    39812    39822    39835    39845    39847 
   39850    39856    39860    39868    39874    39877    39880    39883 
   39887    39891    39892    39888    39884    39879    39873    39876 
   39880    39881    39888    39900    39911    39920    39930    39937 
   39941    39943    39939    39934    39927    39919    39911    39901 
   39891    39883    39877    39866    39858    39849    39834    39823 
   39815    39804    39796    39789    39783    39773    39765    39757 
   39750    39745    39738    39735    39734    39734    39735    39738 
   39742    39748    39753    39757    39758    39758    39761    39768 
   39775    39780    39787    39789    39789    39796    39804    39808 
   39814    39825    39834    39841    39850    39860    39870    39883 
   39893    39908    39919    39928    39945    39965    39981    39997 
   40015    40031    40047    40065    40080    40092    40100    40105 
   40112    40117    40119    40116    40115    40111    40103    40099 
   40093    40081    40072    40063    40055    40047    40041    40034 
   40024    40014    40004    39997    39991    39981    39962    39941 
   39920    39895    39862    39829    39792    39756    39721    39688 
   39663    39640    39615    39595    39584    39583    39583    39588 
   39596    39603    39607    39611    39615    39621    39625    39627 
   39630    39637    39650    39667    39683    39702    39723    39739 
   39753    39764    39771    39769    39765    39761    39756    39750 
   39745    39739    39733    39727    39723    39726    39737    39748 
   39753    39757    39764    39773    39784    39803    39826    39845 
   39858    39872    39888    39906    39926    39943    39957    39968 
   39973    39976    39976    39976    39976    39976    39978    39985 
   39988    39989    39988    39984    39974    39957    39937    39919 
   39895    39870    39856    39846    39835    39825    39810    39793 
   39781    39777    39781    39785    39784    39777    39766    39756 
   39749    39742    39735    39726    39718    39712    39711    39710 
   39715    39725    39734    39742    39748    39756    39766    39780 
   39795    39807    39819    39838    39854    39868    39883    39893 
   39900    39906    39914    39920    39923    39928    39935    39941 
   39947    39953    39950    39945    39943    39941    39934    39922 
   39911    39900    39891    39889    39895    39896    39896    39896 
   39893    39889    39888    39884    39879    39879    39881    39883 
   39888    39904    39919    39928    39939    39950    39954    39957 
   39957    39947    39931    39915    39895    39868    39842    39819 
   39795    39773    39766    39764    39761    39762    39764    39758 
   39754    39754    39753    39753    39754    39753    39752    39746 
   39739    39730    39718    39708    39700    39694    39694    39699 
   39707    39723    39748    39771    39793    39816    39831    39843 
   39856    39864    39870    39879    39887    39896    39911    39930 
   39950    39968    39982    39993    39996    39992    39987    39976 
   39958    39945    39934    39919    39903    39887    39869    39854 
   39843    39834    39823    39810    39795    39784    39775    39766 
   39764    39766    39769    39775    39787    39799    39810    39826 
   39842    39858    39876    39889    39900    39914    39927    39941 
   39951    39955    39955    39954    39949    39943    39935    39920 
   39903    39883    39862    39845    39826    39806    39793    39785 
   39780    39777    39773    39768    39761    39753    39741    39727 
   39723    39725    39734    39756    39787    39814    39839    39870 
   39901    39931    39962    39992    40022    40051    40077    40097 
   40113    40128    40140    40144    40143    40130    40109    40090 
   40068    40043    40024    40007    39980    39953    39930    39907 
   39883    39860    39841    39823    39803    39781    39765    39750 
   39738    39729    39718    39708    39706    39702    39703    39708 
   39715    39721    39726    39731    39737    39737    39738    39744 
   39749    39760    39776    39789    39802    39815    39820    39816 
   39803    39780    39754    39726    39700    39681    39665    39650 
   39636    39622    39611    39604    39598    39595    39595    39592 
   39594    39600    39611    39622    39633    39641    39646    39649 
   39658    39675    39688    39703    39731    39765    39807    39856 
   39901    39945    39988    40026    40057    40084    40108    40128 
   40144    40157    40166    40171    40177    40184    40185    40182 
   40174    40157    40135    40111    40084    40058    40036    40014 
   39989    39966    39942    39915    39889    39861    39830    39803 
   39777    39749    39725    39703    39681    39668    39660    39657 
   39654    39657    39668    39683    39696    39710    39725    39745 
   39768    39791    39818    39843    39870    39893    39912    39931 
   39946    39955    39958    39951    39942    39933    39926    39920 
   39920    39920    39914    39899    39887    39870    39856    39843 
   39829    39812    39799    39787    39775    39764    39754    39742 
   39726    39708    39696    39691    39692    39704    39723    39745 
   39769    39798    39831    39864    39889    39910    39924    39928 
   39923    39915    39906    39896    39884    39869    39853    39837 
   39822    39806    39792    39780    39764    39746    39730    39718 
   39714    39718    39722    39727    39737    39744    39757    39779 
   39800    39818    39834    39847    39858    39869    39881    39893 
   39903    39916    39931    39943    39957    39966    39972    39977 
   39985    39988    39989    39992    39991    39987    39981    39970 
   39957    39946    39934    39920    39912    39910    39903    39893 
   39891    39891    39892    39897    39903    39906    39907    39906 
   39903    39903    39904    39907    39906    39900    39895    39885 
   39877    39870    39865    39865    39869    39872    39876    39883 
   39891    39895    39897    39897    39891    39883    39874    39865 
   39857    39852    39846    39843    39842    39845    39850    39856 
   39857    39853    39847    39845    39842    39838    39831    39819 
   39799    39776    39754    39738    39719    39706    39704    39704 
   39702    39706    39712    39725    39735    39741    39741    39741 
   39741    39738    39735    39733    39730    39729    39731    39733 
   39737    39742    39748    39757    39765    39771    39780    39791 
   39802    39815    39831    39841    39845    39856    39866    39879 
   39893    39906    39912    39916    39919    39919    39919    39919 
   39918    39918    39914    39907    39904    39901    39899    39893 
   39889    39884    39879    39872    39864    39860    39856    39849 
   39845    39841    39835    39833    39834    39838    39843    39847 
   39852    39857    39861    39865    39872    39876    39873    39869 
   39865    39864    39864    39866    39870    39870    39872    39877 
   39888    39903    39922    39942    39955    39962    39962    39960 
   39954    39943    39924    39900    39876    39849    39822    39802 
   39783    39764    39748    39733    39721    39708    39694    39683 
   39679    39679    39683    39687    39692    39702    39711    39719 
   39733    39749    39764    39777    39793    39807    39812    39819 
   39827    39827    39829    39838    39845    39850    39856    39861 
   39868    39876    39885    39891    39891    39888    39884    39877 
   39869    39864    39858    39847    39838    39834    39831    39826 
   39816    39804    39791    39783    39783    39789    39799    39810 
   39819    39833    39850    39864    39876    39887    39897    39910 
   39918    39924    39928    39923    39916    39914    39908    39901 
   39895    39884    39874    39868    39865    39862    39862    39860 
   39852    39845    39842    39838    39834    39830    39830    39834 
   39843    39854    39864    39872    39880    39885    39892    39900 
   39903    39904    39906    39903    39903    39906    39907    39907 
   39906    39904    39900    39892    39884    39876    39866    39861 
   39854    39845    39835    39827    39822    39825    39830    39835 
   39843    39853    39862    39866    39870    39880    39885    39884 
   39885    39887    39887    39892    39900    39907    39908    39907 
   39906    39900    39896    39893    39888    39883    39881    39877 
   39873    39870    39869    39868    39868    39869    39873    39880 
   39880    39881    39889    39896    39899    39903    39908    39914 
   39918    39924    39934    39941    39942    39945    39945    39943 
   39943    39937    39926    39915    39891    39860    39831    39804 
   39781    39762    39745    39730    39712    39695    39681    39671 
   39657    39648    39638    39634    39638    39646    39658    39676 
   39692    39706    39719    39727    39733    39739    39745    39749 
   39752    39752    39750    39750    39756    39757    39749    39739 
   39731    39723    39717    39717    39722    39730    39741    39754 
   39768    39783    39802    39826    39852    39872    39885    39895 
   39906    39916    39927    39937    39947    39955    39958    39961 
   39965    39969    39970    39972    39970    39965    39955    39950 
   39949    39945    39941    39937    39931    39926    39920    39914 
   39907    39896    39884    39874    39869    39865    39864    39866 
   39866    39866    39865    39861    39856    39850    39843    39831 
   39818    39806    39795    39788    39788    39789    39788    39791 
   39795    39796    39799    39803    39807    39811    39811    39810 
   39811    39811    39814    39819    39820    39820    39820    39818 
   39811    39807    39803    39800    39799    39799    39804    39815 
   39827    39843    39858    39874    39891    39906    39919    39933 
   39939    39943    39946    39946    39943    39941    39939    39935 
   39937    39938    39938    39938    39938    39933    39928    39923 
   39911    39900    39892    39881    39872    39864    39854    39843 
   39833    39826    39826    39827    39826    39820    39816    39811 
   39810    39811    39810    39807    39807    39808    39807    39807 
   39808    39810    39811    39810    39808    39811    39812    39815 
