Origin Time       2025/06/03 22:18:00
Lat.              41.7
Long.             143.6
Depth. (km)       30
Mag.              5.2
Station Code      SRCH08
Station Lat.      43.5138
Station Long.     141.9090
Station Height(m) -92
Record Time       2025/06/03 22:19:42
Sampling Freq(Hz) 100Hz
Duration Time(s)  120
Dir.              2
Scale Factor      2942(gal)/8224139
Max. Acc. (gal)   0.165
Last Correction   2025/06/03 22:19:43
Memo.             
[...]
   50215    50198    50179    50160    50144    50129    50120    50110 
   50102    50098    50097    50091    50087    50086    50079    50071 
   50064    50053    50036    50016    50004    49999    49994    49991 
   49997    50006    50016    50028    50045    50063    50080    50102 
   50128    50147    50163    50179    50190    50201    50211    50224 
   50236    50240    50241    50242    50238    50229    50224    50221 
   50213    50205    50202    50199    50191    50184    50178    50171 
   50168    50168    50166    50164    50167    50172    50175    50183 
   50198    50215    50233    50251    50271    50290    50303    50311 
   50318    50329    50340    50349    50357    50361    50364    50372 
   50379    50383    50391    50399    50406    50410    50411    50413 
   50414    50411    50400    50391    50383    50372    50356    50338 
   50325    50303    50279    50265    50249    50232    50214    50195 
   50178    50160    50140    50126    50114    50102    50089    50079 
   50075    50071    50060    50049    50039    50026    50012    49994 
   49978    49955    49929    49908    49887    49863    49837    49819 
   49805    49793    49785    49788    49798    49808    49823    49842 
   49859    49878    49904    49928    49950    49978    50012    50041 
   50063    50086    50112    50132    50147    50161    50182    50197 
   50202    50206    50210    50213    50210    50205    50199    50190 
   50178    50170    50161    50155    50147    50136    50124    50112 
   50102    50094    50087    50078    50070    50067    50063    50058 
   50056    50053    50052    50055    50063    50071    50079    50089 
   50105    50126    50147    50167    50194    50224    50245    50268 
   50298    50322    50338    50359    50377    50392    50407    50418 
   50429    50442    50450    50450    50454    50456    50453    50449 
   50445    50442    50438    50433    50430    50429    50426    50426 
   50425    50419    50415    50411    50407    50404    50396    50384 
   50373    50363    50349    50337    50325    50311    50299    50288 
   50278    50267    50261    50260    50261    50265    50274    50287 
   50302    50318    50337    50356    50373    50391    50407    50421 
   50430    50429    50427    50429    50419    50403    50384    50361 
   50334    50309    50283    50255    50228    50203    50184    50166 
   50145    50133    50122    50105    50083    50067    50053    50035 
   50014    50001    49990    49978    49970    49964    49963    49966 
   49968    49977    49987    49998    50008    50021    50036    50048 
   50058    50067    50075    50080    50086    50094    50098    50101 
   50107    50116    50116    50110    50106    50105    50097    50086 
   50083    50080    50067    50051    50048    50051    50048    50049 
   50059    50062    50060    50067    50078    50083    50089    50098 
   50105    50109    50116    50128    50144    50161    50175    50191 
   50214    50236    50256    50275    50294    50314    50329    50341 
   50355    50369    50380    50386    50391    50392    50391    50392 
   50392    50391    50394    50392    50384    50377    50376    50375 
   50367    50360    50357    50350    50333    50314    50302    50287 
   50260    50237    50221    50203    50183    50167    50156    50145 
   50136    50130    50126    50125    50129    50130    50128    50125 
   50124    50122    50118    50114    50113    50106    50098    50097 
   50094    50083    50074    50067    50059    50047    50035    50028 
   50022    50010    49998    49991    49985    49970    49951    49941 
   49939    49932    49925    49925    49927    49927    49929    49941 
   49952    49960    49972    49986    49997    50005    50009    50013 
   50014    50010    50004    50001    49999    49998    49998    50001 
   50002    50001    49997    49998    50006    50013    50016    50020 
   50025    50035    50045    50056    50072    50093    50110    50130 
   50156    50182    50203    50228    50252    50275    50295    50311 
   50326    50334    50336    50334    50333    50326    50318    50310 
   50299    50288    50276    50263    50252    50240    50225    50217 
   50207    50193    50178    50168    50157    50143    50128    50117 
   50112    50109    50102    50102    50110    50121    50134    50151 
   50167    50183    50201    50224    50251    50272    50288    50310 
   50334    50350    50364    50383    50404    50419    50431    50444 
   50457    50465    50475    50481    50480    50475    50468    50461 
   50452    50438    50423    50411    50398    50383    50368    50359 
   50350    50337    50323    50314    50305    50294    50284    50279 
   50275    50272    50274    50274    50272    50272    50274    50274 
   50272    50275    50278    50280    50286    50288    50288    50288 
   50288    50284    50283    50283    50279    50276    50275    50269 
   50265    50259    50252    50247    50241    50230    50222    50217 
   50207    50197    50193    50197    50201    50202    50209    50217 
   50224    50233    50245    50253    50251    50248    50248    50242 
   50234    50228    50221    50210    50202    50201    50201    50198 
   50198    50202    50201    50198    50199    50201    50195    50190 
   50187    50179    50168    50160    50149    50139    50128    50117 
   50106    50097    50087    50076    50067    50056    50041    50031 
   50024    50014    50009    50006    50004    50002    50001    49998 
   49994    49994    49991    49986    49985    49986    49982    49981 
   49985    49983    49981    49981    49983    49987    49989    49990 
   49998    50006    50012    50020    50033    50045    50055    50064 
   50074    50086    50093    50097    50103    50110    50110    50113 
   50121    50125    50126    50126    50129    50132    50128    50121 
   50120    50120    50110    50101    50101    50101    50095    50089 
   50090    50090    50079    50071    50071    50066    50049    50033 
   50028    50022    50008    50001    50008    50002    49990    49993 
   49999    49994    49991    49999    50010    50014    50022    50037 
   50044    50045    50048    50052    50056    50058    50059    50063 
   50064    50066    50068    50071    50075    50080    50086    50093 
   50098    50106    50116    50124    50136    50143    50151    50163 
   50176    50184    50193    50203    50215    50226    50237    50251 
   50267    50284    50303    50322    50340    50361    50387    50407 
   50425    50449    50473    50491    50504    50523    50535    50541 
   50544    50549    50550    50548    50546    50548    50545    50538 
   50534    50530    50525    50519    50514    50508    50500    50492 
   50485    50479    50471    50460    50450    50438    50422    50404 
   50386    50367    50349    50329    50310    50296    50280    50260 
   50245    50233    50221    50209    50201    50194    50184    50171 
   50160    50156    50147    50136    50130    50125    50114    50102 
   50099    50095    50086    50079    50086    50091    50085    50083 
   50094    50099    50097    50101    50109    50112    50116    50122 
   50124    50124    50129    50139    50145    50153    50161    50171 
   50180    50188    50195    50201    50209    50214    50215    50218 
   50226    50228    50224    50222    50225    50229    50232    50233 
   50241    50251    50259    50267    50274    50278    50280    50282 
   50282    50280    50276    50272    50269    50265    50257    50253 
   50251    50245    50234    50228    50222    50213    50199    50187 
   50176    50159    50139    50124    50113    50095    50079    50076 
   50071    50056    50047    50045    50041    50035    50037    50044 
   50047    50048    50053    50064    50075    50079    50090    50101 
   50103    50106    50109    50112    50114    50113    50110    50109 
   50103    50098    50094    50090    50083    50076    50068    50060 
   50052    50044    50035    50029    50021    50009    50001    49994 
   49986    49981    49977    49972    49970    49967    49968    49978 
   49985    49990    50005    50024    50040    50055    50070    50086 
   50097    50101    50105    50112    50112    50107    50105    50103 
   50099    50095    50091    50089    50086    50080    50078    50078 
   50070    50064    50064    50064    50063    50063    50066    50070 
   50074    50080    50093    50102    50110    50121    50134    50153 
   50170    50184    50201    50218    50236    50252    50267    50282 
   50295    50309    50321    50332    50338    50344    50345    50341 
   50338    50334    50325    50310    50298    50284    50269    50256 
   50237    50221    50210    50195    50180    50174    50171    50170 
   50167    50164    50164    50166    50170    50182    50198    50206 
   50211    50225    50238    50247    50255    50265    50279    50288 
   50294    50301    50307    50311    50314    50315    50318    50321 
   50328    50333    50336    50337    50341    50342    50344    50344 
   50340    50334    50329    50317    50303    50288    50274    50257 
   50240    50224    50210    50194    50178    50163    50149    50141 
   50137    50128    50121    50117    50112    50107    50106    50107 
   50109    50112    50114    50116    50120    50125    50129    50129 
   50134    50145    50152    50156    50161    50168    50174    50178 
   50182    50188    50194    50199    50210    50218    50224    50232 
   50241    50247    50255    50263    50271    50282    50291    50296 
   50302    50309    50313    50315    50321    50322    50321    50323 
   50326    50329    50333    50336    50344    50352    50356    50357 
   50356    50355    50352    50348    50345    50342    50338    50334 
   50329    50319    50310    50305    50301    50291    50278    50263 
   50249    50237    50224    50211    50201    50188    50175    50166 
   50156    50145    50133    50122    50113    50105    50099    50095 
   50090    50086    50080    50076    50072    50064    50059    50052 
   50044    50037    50026    50016    50010    50006    49997    49991 
   49991    49987    49979    49975    49972    49967    49966    49967 
   49968    49968    49970    49971    49977    49983    49989    49995 
   50004    50012    50018    50029    50040    50048    50062    50079 
   50093    50106    50121    50134    50151    50170    50183    50198 
   50215    50230    50244    50256    50265    50276    50291    50305 
   50313    50319    50328    50338    50342    50345    50350    50359 
   50365    50369    50369    50371    50371    50369    50367    50365 
   50361    50353    50346    50337    50325    50314    50305    50291 
   50279    50268    50255    50245    50237    50222    50210    50203 
   50199    50194    50186    50182    50180    50176    50174    50174 
   50176    50179    50182    50186    50191    50195    50199    50207 
   50217    50222    50225    50225    50221    50214    50202    50186 
   50171    50156    50140    50120    50097    50079    50058    50035 
   50017    50005    49989    49977    49968    49959    49951    49945 
   49941    49939    49939    49941    49947    49948    49954    49964 
   49972    49975    49987    50009    50024    50036    50052    50070 
   50086    50102    50117    50130    50144    50159    50171    50176 
   50183    50191    50194    50195    50194    50188    50184    50182 
   50174    50163    50156    50149    50140    50132    50122    50110 
   50102    50095    50087    50083    50080    50076    50074    50075 
   50075    50074    50075    50082    50090    50098    50106    50116 
   50126    50136    50144    50155    50161    50167    50175    50182 
   50184    50190    50194    50195    50194    50191    50188    50183 
   50179    50178    50174    50168    50168    50164    50159    50152 
   50147    50144    50143    50139    50137    50136    50129    50125 
   50126    50125    50125    50130    50139    50147    50152    50160 
   50174    50186    50195    50205    50215    50228    50240    50253 
   50267    50278    50287    50302    50311    50317    50323    50332 
   50336    50333    50332    50332    50326    50321    50315    50310 
   50306    50302    50301    50295    50291    50292    50296    50299 
   50298    50299    50303    50301    50298    50299    50302    50303 
   50307    50314    50322    50325    50325    50330    50336    50337 
   50346    50357    50361    50363    50371    50377    50377    50382 
   50387    50387    50388    50391    50392    50391    50388    50386 
   50383    50377    50371    50363    50352    50345    50337    50326 
   50314    50301    50290    50279    50263    50252    50245    50233 
   50222    50217    50211    50209    50213    50215    50218    50226 
   50233    50236    50237    50240    50242    50242    50242    50245 
   50247    50247    50245    50242    50242    50245    50247    50253 
   50261    50267    50271    50275    50278    50278    50276    50272 
   50267    50263    50259    50256    50251    50245    50241    50236 
   50230    50228    50229    50232    50229    50224    50221    50220 
   50211    50199    50190    50180    50168    50156    50147    50133 
   50122    50113    50097    50080    50070    50056    50037    50017 
   49998    49981    49960    49936    49913    49896    49877    49855 
   49833    49815    49800    49783    49769    49756    49746    49738 
   49729    49721    49719    49723    49724    49723    49724    49731 
   49739    49744    49754    49767    49783    49804    49821    49837 
   49855    49873    49890    49910    49931    49950    49970    49989 
   50006    50026    50047    50062    50076    50094    50109    50124 
   50137    50147    50156    50163    50170    50178    50180    50184 
   50191    50191    50190    50194    50198    50202    50206    50211 
   50218    50224    50226    50232    50241    50253    50264    50272 
   50279    50286    50292    50301    50310    50318    50321    50322 
   50326    50330    50330    50333    50337    50340    50340    50344 
   50349    50353    50359    50365    50368    50369    50372    50376 
   50380    50384    50386    50388    50394    50396    50399    50400 
   50402    50404    50409    50410    50409    50409    50407    50404 
   50398    50391    50384    50377    50371    50363    50353    50344 
   50333    50319    50309    50302    50295    50290    50286    50279 
   50271    50263    50253    50245    50236    50222    50207    50195 
   50183    50172    50159    50145    50139    50134    50130    50128 
   50126    50133    50145    50153    50163    50176    50190    50202 
   50215    50230    50245    50253    50263    50272    50282    50288 
   50292    50296    50302    50305    50307    50307    50303    50298 
   50290    50279    50269    50256    50240    50228    50214    50198 
   50183    50168    50153    50141    50128    50116    50103    50090 
   50076    50066    50055    50043    50036    50031    50024    50018 
   50016    50013    50013    50013    50010    50013    50018    50021 
   50028    50037    50041    50045    50052    50056    50059    50062 
   50063    50066    50070    50070    50070    50068    50066    50062 
   50059    50056    50053    50052    50051    50049    50048    50045 
   50047    50049    50049    50049    50048    50048    50051    50052 
   50052    50056    50062    50063    50066    50071    50078    50086 
   50097    50109    50116    50124    50133    50144    50155    50163 
   50174    50186    50191    50195    50202    50209    50214    50217 
   50222    50230    50233    50237    50244    50248    50256    50265 
   50271    50279    50288    50294    50296    50303    50311    50315 
   50315    50315    50318    50317    50315    50315    50314    50310 
   50309    50307    50306    50306    50306    50302    50298    50296 
   50295    50294    50294    50292    50291    50287    50284    50282 
   50283    50282    50279    50279    50276    50275    50276    50280 
   50282    50283    50283    50283    50284    50287    50287    50287 
   50286    50283    50283    50280    50274    50269    50264    50256 
   50252    50245    50234    50228    50225    50222    50214    50205 
   50199    50194    50186    50182    50178    50172    50167    50163 
   50156    50151    50148    50145    50140    50136    50130    50124 
   50117    50109    50099    50090    50085    50074    50064    50058 
   50052    50045    50039    50035    50033    50031    50029    50029 
   50031    50032    50033    50036    50041    50047    50053    50062 
   50071    50082    50091    50103    50118    50133    50148    50163 
   50180    50198    50214    50229    50240    50248    50256    50267 
   50275    50274    50274    50276    50278    50278    50278    50280 
   50282    50280    50282    50282    50280    50280    50280    50278 
   50274    50271    50267    50261    50255    50247    50242    50238 
   50230    50225    50221    50214    50209    50203    50201    50198 
   50195    50194    50194    50190    50186    50184    50184    50184 
   50184    50183    50182    50179    50175    50174    50172    50171 
   50168    50166    50163    50157    50153    50149    50144    50137 
   50129    50124    50117    50110    50103    50097    50089    50079 
   50070    50060    50051    50040    50029    50022    50018    50009 
   50002    49998    49993    49987    49983    49979    49982    49983 
   49982    49983    49985    49986    49987    49989    49987    49986 
   49986    49990    49993    49994    49994    49995    50002    50006 
   50008    50014    50024    50032    50039    50045    50052    50060 
   50068    50074    50080    50089    50093    50098    50107    50116 
   50120    50124    50130    50136    50139    50144    50151    50159 
   50164    50171    50182    50191    50197    50202    50209    50217 
   50225    50233    50240    50249    50257    50267    50275    50286 
   50295    50302    50309    50319    50328    50333    50341    50346 
   50350    50353    50356    50359    50361    50359    50357    50357 
   50355    50357    50359    50355    50352    50349    50344    50336 
   50326    50321    50314    50307    50299    50292    50288    50283 
   50279    50278    50279    50279    50280    50284    50287    50288 
   50294    50299    50303    50307    50311    50315    50317    50317 
   50319    50319    50317    50317    50318    50314    50311    50313 
   50311    50309    50307    50307    50305    50303    50301    50294 
   50291    50288    50280    50271    50263    50257    50251    50240 
   50228    50222    50218    50210    50205    50205    50205    50203 
   50206    50207    50207    50210    50213    50214    50213    50214 
   50220    50220    50215    50213    50213    50210    50205    50201 
   50198    50194    50187    50182    50178    50174    50166    50156 
   50155    50149    50140    50136    50134    50132    50130    50128 
   50124    50120    50117    50116    50113    50109    50105    50101 
   50095    50087    50080    50076    50072    50066    50060    50055 
   50047    50039    50031    50026    50024    50017    50013    50009 
   50005    49999    49997    49994    49995    49994    49991    49994 
