Origin Time       2025/06/03 22:18:00
Lat.              41.7
Long.             143.6
Depth. (km)       30
Mag.              5.2
Station Code      SRCH10
Station Lat.      42.9930
Station Long.     142.0085
Station Height(m) -5
Record Time       2025/06/03 22:19:24
Sampling Freq(Hz) 100Hz
Duration Time(s)  120
Dir.              2
Scale Factor      2942(gal)/8224139
Max. Acc. (gal)   0.178
Last Correction   2025/06/03 22:19:25
Memo.             
[...]
   56157    56153    56149    56146    56150    56155    56155    56154 
   56151    56145    56135    56126    56118    56107    56096    56091 
   56091    56091    56096    56104    56112    56120    56126    56123 
   56122    56122    56119    56115    56116    56118    56119    56122 
   56123    56123    56131    56139    56146    56161    56176    56185 
   56192    56200    56204    56204    56204    56212    56216    56215 
   56219    56223    56223    56222    56218    56211    56203    56188 
   56176    56165    56151    56142    56137    56134    56133    56131 
   56131    56133    56131    56127    56122    56114    56100    56087 
   56080    56074    56073    56068    56060    56052    56045    56035 
   56025    56020    56019    56018    56018    56022    56029    56038 
   56049    56060    56074    56092    56111    56126    56141    56151 
   56160    56165    56165    56160    56154    56151    56150    56154 
   56158    56166    56177    56187    56193    56196    56197    56199 
   56200    56207    56216    56219    56223    56231    56238    56241 
   56242    56243    56241    56232    56222    56208    56197    56188 
   56180    56173    56164    56157    56154    56149    56146    56146 
   56147    56149    56146    56142    56142    56141    56138    56134 
   56135    56142    56153    56166    56180    56189    56199    56207 
   56211    56218    56223    56227    56230    56228    56228    56231 
   56227    56223    56218    56209    56201    56193    56185    56178 
   56174    56174    56177    56181    56185    56185    56182    56182 
   56184    56182    56182    56184    56185    56184    56182    56187 
   56191    56191    56189    56192    56188    56180    56172    56166 
   56158    56146    56135    56128    56120    56115    56111    56114 
   56120    56127    56128    56128    56126    56120    56115    56110 
   56107    56106    56101    56097    56100    56104    56108    56118 
   56127    56137    56147    56153    56157    56162    56161    56154 
   56150    56146    56139    56137    56141    56146    56155    56172 
   56189    56201    56212    56220    56222    56223    56223    56218 
   56211    56205    56197    56187    56180    56180    56180    56181 
   56185    56187    56187    56189    56189    56192    56196    56196 
   56197    56199    56196    56192    56192    56193    56193    56195 
   56195    56199    56200    56196    56189    56182    56174    56166 
   56157    56149    56142    56138    56138    56142    56150    56158 
   56166    56177    56185    56188    56193    56195    56189    56181 
   56172    56164    56155    56147    56143    56139    56133    56130 
   56127    56122    56118    56115    56111    56110    56107    56104 
   56101    56104    56111    56122    56131    56139    56150    56157 
   56158    56161    56164    56165    56165    56164    56165    56168 
   56166    56166    56170    56174    56177    56181    56188    56192 
   56191    56189    56188    56182    56177    56177    56176    56178 
   56185    56188    56191    56196    56199    56200    56205    56207 
   56207    56207    56203    56197    56193    56181    56169    56166 
   56165    56162    56164    56162    56162    56164    56161    56160 
   56160    56154    56149    56149    56150    56147    56145    56142 
   56139    56134    56127    56120    56112    56103    56092    56087 
   56085    56085    56085    56087    56091    56097    56104    56111 
   56116    56122    56127    56135    56145    56154    56164    56172 
   56177    56177    56176    56176    56173    56169    56164    56158 
   56155    56153    56153    56158    56165    56168    56169    56169 
   56169    56173    56173    56172    56172    56169    56160    56149 
   56145    56141    56135    56130    56128    56128    56126    56126 
   56133    56138    56145    56151    56160    56168    56174    56181 
   56189    56196    56200    56204    56203    56200    56197    56192 
   56185    56180    56174    56166    56161    56162    56164    56165 
   56170    56174    56176    56178    56181    56178    56173    56166 
   56165    56165    56166    56172    56177    56184    56192    56199 
   56203    56205    56207    56203    56200    56196    56188    56182 
   56180    56176    56176    56178    56182    56184    56184    56182 
   56178    56170    56161    56149    56135    56123    56115    56112 
   56108    56106    56106    56100    56097    56099    56101    56106 
   56110    56114    56118    56119    56122    56124    56126    56124 
   56126    56130    56131    56133    56134    56135    56141    56150 
   56154    56155    56157    56158    56161    56162    56165    56168 
   56173    56177    56177    56176    56181    56188    56196    56204 
   56216    56224    56224    56223    56220    56214    56205    56200 
   56193    56188    56184    56181    56177    56172    56170    56168 
   56162    56158    56155    56150    56149    56147    56145    56146 
   56153    56161    56172    56178    56184    56195    56203    56207 
   56214    56214    56209    56208    56208    56208    56205    56199 
   56191    56184    56180    56178    56176    56174    56173    56173 
   56173    56177    56184    56192    56199    56201    56205    56215 
   56224    56231    56239    56247    56251    56254    56246    56232 
   56222    56207    56188    56174    56158    56139    56124    56115 
   56110    56108    56114    56124    56133    56135    56138    56145 
   56153    56157    56162    56169    56168    56160    56151    56137 
   56118    56097    56081    56066    56054    56049    56047    56049 
   56047    56049    56054    56066    56080    56089    56096    56106 
   56115    56120    56126    56128    56130    56131    56131    56134 
   56138    56139    56142    56143    56138    56134    56135    56135 
   56135    56138    56138    56137    56137    56139    56142    56143 
   56150    56161    56174    56188    56201    56209    56216    56224 
   56231    56235    56236    56238    56238    56234    56228    56227 
   56226    56219    56211    56204    56197    56195    56195    56196 
   56200    56205    56209    56216    56226    56234    56242    56250 
   56255    56254    56249    56242    56234    56223    56209    56196 
   56184    56169    56154    56139    56124    56112    56103    56091 
   56077    56068    56058    56047    56046    56056    56062    56069 
   56076    56081    56091    56100    56110    56124    56142    56153 
   56160    56166    56172    56172    56169    56164    56154    56145 
   56134    56122    56115    56112    56107    56107    56111    56116 
   56120    56128    56139    56149    56161    56173    56187    56195 
   56200    56204    56204    56201    56199    56193    56191    56188 
   56182    56174    56165    56157    56149    56141    56135    56134 
   56134    56134    56139    56151    56162    56170    56180    56188 
   56192    56195    56196    56192    56182    56176    56170    56165 
   56162    56157    56150    56151    56157    56155    56154    56155 
   56154    56150    56145    56135    56130    56126    56122    56122 
   56127    56128    56131    56138    56145    56149    56154    56161 
   56162    56157    56154    56153    56147    56143    56137    56128 
   56126    56126    56130    56135    56139    56141    56143    56150 
   56157    56165    56174    56182    56191    56197    56197    56196 
   56195    56196    56197    56199    56197    56199    56201    56200 
   56200    56201    56204    56215    56226    56236    56246    56255 
   56261    56261    56258    56249    56239    56231    56222    56214 
   56211    56211    56211    56212    56218    56220    56223    56223 
   56215    56209    56209    56205    56197    56189    56181    56169 
   56157    56149    56145    56142    56138    56135    56135    56134 
   56133    56131    56127    56122    56115    56110    56103    56100 
   56096    56095    56097    56095    56088    56085    56083    56076 
   56072    56072    56066    56062    56061    56066    56076    56091 
   56110    56127    56142    56155    56168    56177    56189    56200 
   56205    56211    56219    56223    56226    56226    56218    56209 
   56199    56185    56174    56170    56166    56162    56155    56147 
   56139    56135    56131    56127    56128    56134    56142    56150 
   56155    56155    56153    56151    56150    56147    56145    56142 
   56139    56138    56135    56135    56137    56135    56135    56139 
   56145    56149    56151    56153    56157    56165    56169    56174 
   56182    56188    56196    56207    56216    56224    56228    56230 
   56234    56231    56224    56224    56224    56218    56211    56208 
   56205    56201    56203    56209    56216    56222    56222    56223 
   56226    56224    56222    56220    56216    56209    56199    56187 
   56173    56157    56141    56128    56116    56106    56096    56088 
   56081    56080    56083    56084    56087    56099    56111    56116 
   56126    56133    56133    56134    56137    56131    56123    56118 
   56110    56099    56093    56095    56096    56100    56106    56107 
   56111    56115    56116    56115    56119    56123    56126    56126 
   56134    56146    56160    56172    56184    56195    56205    56211 
   56216    56219    56219    56219    56219    56212    56199    56184 
   56170    56157    56145    56141    56145    56146    56146    56149 
   56150    56154    56161    56168    56172    56177    56182    56187 
   56192    56195    56193    56191    56188    56180    56169    56158 
   56147    56134    56122    56111    56099    56087    56079    56074 
   56074    56080    56088    56095    56099    56103    56106    56104 
   56107    56108    56103    56095    56087    56079    56070    56064 
   56062    56064    56069    56076    56085    56092    56099    56107 
   56111    56112    56115    56123    56138    56153    56169    56185 
   56203    56215    56220    56223    56223    56223    56223    56223 
   56222    56219    56215    56215    56220    56222    56218    56215 
   56214    56208    56203    56199    56199    56197    56199    56204 
   56208    56212    56220    56228    56236    56239    56242    56242 
   56241    56239    56238    56232    56223    56208    56193    56182 
   56172    56165    56162    56160    56155    56146    56139    56134 
   56123    56108    56100    56096    56091    56091    56093    56091 
   56089    56089    56087    56081    56085    56093    56099    56104 
   56107    56108    56110    56107    56103    56101    56101    56104 
   56114    56123    56128    56137    56146    56151    56158    56162 
   56161    56158    56158    56157    56155    56155    56154    56153 
   56151    56147    56142    56137    56133    56133    56128    56123 
   56118    56115    56112    56111    56112    56118    56126    56133 
   56138    56145    56149    56150    56151    56149    56143    56139 
   56135    56131    56130    56130    56131    56134    56139    56145 
   56147    56149    56153    56160    56164    56169    56173    56180 
   56185    56189    56200    56212    56219    56230    56246    56258 
   56270    56280    56286    56289    56286    56280    56270    56262 
   56257    56257    56259    56261    56265    56273    56280    56288 
   56295    56299    56300    56303    56304    56307    56311    56317 
   56323    56324    56326    56331    56334    56334    56336    56338 
   56332    56327    56324    56316    56301    56285    56272    56254 
   56236    56222    56211    56207    56205    56205    56207    56205 
   56203    56203    56205    56207    56209    56209    56205    56200 
   56192    56182    56177    56173    56165    56154    56146    56139 
   56131    56124    56124    56122    56115    56110    56103    56095 
   56089    56087    56088    56091    56091    56099    56111    56118 
   56123    56130    56133    56135    56137    56138    56143    56151 
   56158    56161    56162    56164    56165    56169    56173    56180 
   56191    56201    56212    56224    56236    56245    56253    56262 
   56268    56272    56278    56281    56284    56282    56278    56274 
   56270    56268    56266    56265    56261    56259    56259    56253 
   56243    56235    56222    56207    56195    56184    56170    56158 
   56153    56145    56135    56133    56130    56124    56119    56114 
   56110    56107    56106    56104    56100    56095    56089    56083 
   56074    56070    56068    56066    56069    56073    56072    56072 
   56070    56065    56061    56060    56056    56050    56046    56042 
   56035    56033    56033    56029    56026    56030    56031    56031 
   56038    56043    56046    56053    56058    56062    56068    56079 
   56088    56099    56111    56124    56138    56151    56165    56177 
   56189    56200    56208    56218    56230    56242    56253    56265 
   56273    56276    56277    56277    56277    56277    56276    56277 
   56277    56276    56273    56272    56268    56266    56268    56270 
   56273    56276    56273    56268    56268    56263    56258    56253 
   56247    56242    56243    56243    56242    56239    56232    56220 
   56204    56185    56161    56134    56104    56074    56043    56015 
   55992    55972    55954    55937    55918    55906    55891    55872 
   55854    55840    55826    55815    55804    55792    55779    55764 
   55746    55730    55717    55703    55687    55674    55667    55665 
   55665    55672    55683    55695    55707    55723    55742    55757 
   55775    55799    55826    55853    55880    55906    55929    55946 
   55958    55972    55984    55996    56006    56015    56030    56041 
   56049    56057    56068    56072    56076    56083    56089    56096 
   56099    56104    56112    56119    56131    56151    56176    56199 
   56222    56242    56259    56276    56290    56303    56311    56320 
   56334    56339    56343    56351    56358    56358    56355    56346 
   56331    56312    56292    56273    56251    56234    56223    56214 
   56208    56212    56218    56223    56232    56246    56261    56277 
   56295    56313    56330    56344    56366    56382    56392    56401 
   56409    56415    56417    56416    56420    56425    56435    56450 
   56471    56492    56512    56529    56544    56556    56569    56578 
   56583    56590    56594    56598    56601    56601    56601    56600 
   56597    56586    56569    56551    56528    56497    56463    56430 
   56392    56351    56313    56286    56262    56246    56238    56230 
   56227    56227    56224    56219    56211    56200    56187    56176 
   56166    56157    56143    56124    56103    56079    56049    56020 
   55995    55964    55931    55906    55876    55846    55819    55791 
   55768    55756    55752    55757    55772    55796    55830    55865 
   55896    55922    55945    55957    55960    55961    55962    55962 
   55964    55969    55975    55981    55987    55991    55998    56003 
   56006    56010    56015    56027    56047    56073    56107    56153 
   56203    56254    56307    56358    56405    56448    56488    56513 
   56525    56528    56521    56511    56500    56484    56466    56452 
   56434    56415    56397    56377    56358    56336    56312    56292 
   56273    56258    56251    56246    56245    56247    56251    56257 
   56259    56261    56259    56251    56232    56207    56177    56143 
   56111    56083    56057    56035    56018    55999    55981    55969 
   55956    55942    55930    55917    55907    55904    55904    55904 
   55910    55915    55922    55935    55952    55968    55992    56020 
   56052    56087    56118    56146    56178    56205    56232    56262 
   56286    56309    56334    56350    56366    56381    56392    56401 
   56412    56415    56412    56409    56400    56386    56370    56353 
   56338    56323    56309    56296    56284    56272    56261    56250 
   56238    56223    56203    56184    56161    56139    56126    56118 
   56115    56114    56114    56118    56124    56131    56131    56128 
   56130    56126    56115    56111    56103    56087    56072    56057 
   56039    56029    56018    56003    55991    55980    55968    55954 
   55939    55925    55910    55898    55892    55887    55884    55883 
   55884    55885    55887    55887    55892    55902    55907    55914 
   55927    55941    55957    55981    56006    56027    56052    56072 
   56087    56099    56107    56111    56111    56116    56124    56128 
   56137    56147    56155    56162    56174    56185    56191    56197 
   56207    56208    56203    56200    56200    56197    56196    56200 
   56211    56228    56251    56276    56299    56315    56326    56332 
   56335    56330    56319    56311    56300    56282    56265    56249 
   56231    56215    56201    56193    56188    56187    56189    56197 
   56207    56216    56223    56230    56231    56222    56211    56201 
   56191    56178    56169    56162    56155    56153    56147    56141 
   56137    56128    56119    56110    56099    56083    56066    56047 
   56030    56011    55996    55985    55979    55975    55979    55985 
   55993    56008    56025    56039    56052    56065    56079    56095 
   56110    56127    56150    56172    56195    56218    56241    56263 
   56286    56305    56323    56342    56363    56384    56405    56431 
   56451    56466    56482    56497    56508    56515    56521    56529 
   56539    56547    56554    56560    56567    56571    56574    56574 
   56567    56555    56544    56532    56516    56500    56485    56471 
   56462    56459    56458    56457    56452    56443    56428    56409 
   56386    56357    56327    56296    56265    56235    56208    56187 
   56170    56154    56137    56119    56099    56076    56053    56025 
   55998    55972    55944    55918    55896    55872    55846    55823 
   55800    55779    55757    55733    55710    55691    55675    55667 
   55665    55665    55671    55682    55692    55705    55719    55734 
   55748    55763    55779    55795    55815    55837    55856    55875 
   55895    55911    55921    55930    55937    55939    55941    55945 
   55948    55946    55948    55950    55952    55954    55957    55961 
   55969    55976    55987    56003    56023    56049    56076    56100 
   56124    56146    56170    56195    56219    56242    56259    56273 
   56286    56300    56315    56326    56331    56336    56342    56342 
   56338    56332    56327    56322    56317    56313    56312    56313 
   56315    56312    56308    56307    56312    56320    56326    56332 
   56340    56351    56363    56376    56389    56401    56415    56427 
   56439    56448    56457    56457    56452    56448    56438    56420 
   56403    56388    56377    56370    56365    56361    56355    56351 
   56343    56327    56308    56288    56268    56251    56238    56228 
   56222    56216    56216    56215    56215    56215    56211    56204 
   56193    56176    56161    56150    56135    56119    56112    56103 
   56089    56081    56070    56057    56041    56023    56006    55988 
   55976    55968    55964    55960    55962    55973    55985    55999 
   56014    56026    56030    56030    56027    56026    56026    56025 
