Origin Time       2025/06/03 22:18:00
Lat.              41.7
Long.             143.6
Depth. (km)       30
Mag.              5.2
Station Code      SRCH08
Station Lat.      43.5138
Station Long.     141.9090
Station Height(m) 30
Record Time       2025/06/03 22:19:42
Sampling Freq(Hz) 100Hz
Duration Time(s)  120
Dir.              4
Scale Factor      7845(gal)/8223790
Max. Acc. (gal)   0.327
Last Correction   2025/06/03 22:19:43
Memo.             
[...]
    -384     -382     -382     -392     -410     -394     -373     -369 
    -356     -338     -329     -326     -328     -336     -345     -349 
    -355     -364     -372     -379     -382     -378     -380     -386 
    -373     -368     -367     -360     -353     -349     -359     -361 
    -356     -361     -369     -365     -349     -341     -341     -341 
    -345     -345     -332     -324     -330     -325     -306     -295 
    -301     -313     -325     -340     -341     -345     -368     -378 
    -382     -391     -382     -371     -375     -382     -367     -346 
    -353     -359     -349     -342     -336     -333     -337     -338 
    -336     -334     -346     -356     -363     -376     -372     -369 
    -388     -386     -371     -365     -369     -373     -361     -359 
    -363     -349     -351     -360     -356     -351     -357     -369 
    -372     -369     -369     -364     -364     -390     -413     -409 
    -403     -415     -433     -433     -430     -429     -422     -421 
    -415     -410     -395     -359     -344     -346     -332     -310 
    -306     -324     -332     -342     -359     -365     -379     -400 
    -411     -414     -411     -410     -407     -396     -372     -341 
    -333     -332     -311     -290     -280     -276     -280     -291 
    -298     -307     -330     -360     -391     -405     -398     -403 
    -418     -415     -399     -382     -355     -321     -306     -305 
    -288     -287     -309     -321     -325     -332     -342     -342 
    -342     -361     -372     -373     -371     -373     -380     -372 
    -372     -379     -363     -360     -371     -363     -345     -342 
    -357     -368     -373     -388     -400     -426     -441     -429 
    -427     -429     -434     -441     -437     -437     -436     -438 
    -441     -437     -423     -399     -398     -419     -413     -395 
    -403     -418     -427     -430     -438     -436     -415     -411 
    -403     -378     -365     -361     -356     -351     -342     -329 
    -306     -297     -301     -298     -292     -294     -319     -353 
    -373     -388     -400     -406     -409     -403     -387     -363 
    -342     -338     -333     -321     -319     -322     -318     -315 
    -324     -337     -342     -346     -353     -348     -340     -338 
    -341     -351     -356     -352     -346     -345     -349     -348 
    -333     -313     -297     -297     -297     -276     -264     -267 
    -272     -294     -313     -311     -318     -334     -341     -342 
    -361     -376     -382     -399     -410     -411     -411     -415 
    -425     -418     -405     -407     -415     -409     -398     -395 
    -398     -398     -407     -418     -409     -403     -411     -407 
    -394     -380     -373     -365     -364     -368     -360     -344 
    -336     -341     -341     -325     -309     -292     -295     -305 
    -298     -297     -302     -302     -307     -322     -326     -326 
    -340     -353     -353     -342     -332     -325     -314     -297 
    -279     -275     -265     -263     -274     -280     -275     -280 
    -311     -324     -310     -318     -338     -345     -344     -364 
    -376     -371     -392     -413     -415     -421     -422     -426 
    -438     -441     -427     -418     -423     -433     -438     -436 
    -433     -444     -457     -456     -450     -440     -436     -441 
    -432     -409     -387     -378     -372     -371     -382     -383 
    -384     -403     -423     -427     -415     -403     -402     -403 
    -390     -369     -361     -359     -355     -344     -337     -340 
    -344     -346     -351     -346     -337     -338     -348     -351 
    -346     -353     -361     -359     -371     -380     -367     -357 
    -368     -382     -379     -365     -361     -364     -378     -384 
    -387     -398     -402     -409     -417     -402     -382     -372 
    -367     -367     -364     -356     -356     -376     -395     -402 
    -410     -421     -430     -433     -429     -419     -399     -378 
    -376     -369     -346     -342     -361     -371     -375     -394 
    -405     -406     -417     -433     -429     -411     -415     -425 
    -414     -402     -384     -371     -368     -361     -345     -328 
    -325     -319     -317     -330     -329     -314     -317     -336 
    -344     -336     -348     -364     -359     -351     -342     -330 
    -318     -314     -310     -298     -292     -301     -313     -322 
    -317     -314     -330     -340     -334     -336     -340     -342 
    -355     -372     -380     -373     -373     -378     -375     -369 
    -352     -337     -344     -346     -337     -333     -344     -353 
    -359     -372     -376     -351     -330     -330     -322     -297 
    -284     -295     -299     -309     -329     -330     -329     -346 
    -357     -356     -346     -344     -351     -357     -373     -388 
    -380     -368     -367     -359     -336     -305     -286     -282 
    -276     -278     -286     -292     -314     -346     -378     -387 
    -390     -417     -433     -430     -432     -429     -417     -399 
    -390     -380     -359     -344     -337     -333     -332     -319 
    -319     -336     -346     -352     -367     -396     -423     -437 
    -457     -473     -477     -494     -507     -502     -486     -475 
    -476     -459     -442     -438     -419     -409     -413     -419 
    -417     -409     -432     -457     -467     -481     -491     -495 
    -499     -496     -491     -473     -465     -465     -448     -436 
    -423     -399     -398     -403     -402     -388     -384     -399 
    -390     -375     -371     -355     -345     -349     -345     -321 
    -288     -276     -272     -260     -256     -264     -278     -290 
    -302     -314     -309     -307     -317     -324     -330     -330 
    -326     -334     -330     -314     -311     -306     -302     -317 
    -321     -310     -305     -310     -313     -311     -314     -307 
    -307     -328     -336     -341     -346     -345     -348     -340 
    -324     -303     -290     -295     -294     -301     -319     -332 
    -349     -375     -399     -414     -418     -433     -448     -442 
    -430     -411     -395     -375     -346     -324     -294     -276 
    -275     -270     -267     -271     -292     -322     -336     -344 
    -351     -351     -353     -349     -336     -321     -318     -328 
    -330     -334     -338     -328     -333     -351     -353     -349 
    -363     -387     -392     -409     -436     -426     -419     -437 
    -442     -422     -407     -410     -395     -378     -372     -359 
    -364     -383     -396     -415     -434     -446     -446     -452 
    -449     -417     -390     -382     -367     -353     -342     -333 
    -322     -330     -346     -334     -321     -332     -340     -344 
    -352     -361     -375     -395     -409     -406     -396     -392 
    -391     -373     -346     -321     -309     -306     -292     -280 
    -282     -288     -295     -301     -306     -298     -288     -297 
    -303     -305     -303     -299     -306     -324     -336     -340 
    -345     -348     -361     -375     -380     -388     -398     -411 
    -441     -464     -465     -463     -464     -465     -456     -434 
    -422     -417     -414     -407     -406     -400     -384     -382 
    -382     -373     -373     -388     -413     -425     -430     -446 
    -450     -448     -446     -419     -379     -346     -324     -303 
    -265     -232     -213     -197     -206     -222     -229     -247 
    -271     -305     -330     -346     -359     -363     -369     -361 
    -344     -332     -318     -310     -310     -302     -282     -274 
    -287     -306     -324     -352     -387     -411     -441     -461 
    -463     -467     -472     -481     -483     -472     -467     -473 
    -487     -490     -480     -479     -477     -472     -472     -465 
    -446     -429     -422     -430     -413     -392     -400     -390 
    -371     -353     -326     -302     -279     -267     -252     -228 
    -226     -229     -230     -245     -255     -267     -284     -298 
    -311     -307     -310     -326     -329     -332     -342     -348 
    -346     -349     -364     -363     -342     -341     -348     -342 
    -341     -338     -332     -340     -363     -382     -394     -411 
    -433     -456     -477     -477     -469     -476     -473     -471 
    -467     -441     -419     -422     -426     -417     -407     -409 
    -411     -419     -440     -459     -468     -483     -498     -498 
    -483     -459     -434     -406     -380     -359     -330     -311 
    -310     -318     -330     -336     -352     -375     -384     -382 
    -383     -380     -369     -357     -346     -329     -319     -319 
    -315     -310     -307     -307     -322     -346     -356     -352 
    -355     -363     -367     -363     -355     -346     -333     -328 
    -326     -306     -287     -298     -310     -317     -342     -359 
    -351     -356     -367     -348     -321     -303     -283     -260 
    -241     -216     -191     -186     -178     -170     -174     -182 
    -194     -209     -232     -248     -249     -252     -268     -284 
    -279     -274     -290     -306     -317     -324     -330     -355 
    -379     -411     -450     -475     -500     -534     -565     -573 
    -560     -542     -523     -500     -471     -436     -399     -371 
    -367     -364     -359     -364     -372     -384     -399     -415 
    -426     -436     -464     -494     -499     -494     -496     -507 
    -508     -499     -491     -483     -481     -484     -475     -464 
    -464     -468     -469     -464     -464     -454     -438     -436 
    -427     -400     -383     -383     -391     -400     -414     -427 
    -438     -457     -481     -490     -483     -468     -456     -450 
    -425     -379     -342     -321     -297     -272     -265     -255 
    -244     -252     -265     -271     -271     -280     -298     -305 
    -306     -306     -295     -295     -307     -299     -276     -259 
    -251     -245     -229     -214     -209     -211     -220     -230 
    -248     -267     -287     -313     -332     -348     -351     -357 
    -384     -394     -384     -380     -375     -368     -356     -342 
    -337     -328     -333     -348     -346     -336     -332     -333 
    -328     -311     -292     -268     -249     -240     -224     -211 
    -206     -203     -220     -244     -263     -282     -317     -365 
    -394     -411     -432     -448     -461     -460     -449     -432 
    -406     -387     -368     -351     -340     -344     -360     -382 
    -399     -415     -426     -437     -449     -453     -449     -449 
    -450     -452     -454     -457     -450     -446     -456     -463 
    -467     -452     -437     -448     -450     -440     -430     -417 
    -398     -378     -356     -317     -279     -264     -251     -234 
    -226     -233     -265     -313     -351     -364     -376     -392 
    -398     -388     -373     -348     -321     -310     -307     -287 
    -270     -271     -276     -278     -284     -298     -314     -346 
    -399     -426     -445     -487     -517     -525     -522     -500 
    -468     -426     -375     -315     -257     -207     -174     -156 
    -143     -141     -149     -166     -194     -218     -243     -267 
    -286     -321     -351     -359     -359     -363     -372     -382 
    -390     -386     -375     -379     -394     -402     -402     -410 
    -423     -426     -432     -442     -433     -417     -413     -411 
    -405     -395     -407     -433     -456     -477     -495     -522 
    -542     -540     -529     -506     -483     -473     -471     -464 
    -450     -442     -456     -469     -457     -434     -411     -391 
    -372     -359     -338     -309     -302     -309     -307     -302 
    -301     -317     -333     -338     -341     -340     -328     -315 
    -305     -291     -268     -257     -265     -260     -260     -276 
    -284     -307     -353     -378     -391     -415     -432     -436 
    -432     -423     -403     -390     -392     -388     -379     -378 
    -379     -387     -391     -388     -379     -368     -380     -380 
    -359     -356     -356     -373     -395     -394     -400     -399 
    -391     -394     -378     -359     -353     -355     -365     -371 
    -387     -407     -422     -459     -477     -475     -477     -477 
    -480     -472     -460     -448     -421     -425     -437     -421 
    -426     -444     -448     -449     -441     -429     -425     -423 
    -429     -436     -442     -444     -441     -449     -448     -422 
    -394     -361     -317     -260     -199     -149     -103      -74 
     -64      -56      -58      -82     -112     -147     -182     -205 
    -240     -291     -336     -360     -360     -373     -392     -390 
    -391     -392     -391     -394     -396     -398     -391     -386 
    -383     -388     -407     -419     -418     -433     -457     -480 
    -502     -517     -546     -577     -603     -626     -622     -618 
    -621     -604     -584     -561     -537     -522     -515     -518 
    -508     -492     -494     -491     -477     -453     -422     -390 
    -353     -318     -283     -244     -224     -224     -228     -232 
    -226     -222     -230     -230     -216     -202     -189     -166 
    -144     -122      -87      -52      -39      -31      -22      -25 
     -35      -48      -82     -124     -159     -189     -232     -295 
    -345     -388     -430     -464     -492     -502     -503     -495 
    -476     -471     -453     -422     -384     -346     -332     -324 
    -310     -311     -314     -321     -344     -361     -364     -357 
    -368     -383     -372     -361     -349     -326     -307     -299 
    -294     -275     -272     -283     -284     -292     -299     -305 
    -326     -342     -344     -351     -359     -353     -337     -328 
    -313     -276     -261     -271     -259     -253     -270     -292 
    -324     -352     -378     -398     -417     -436     -442     -446 
    -445     -442     -453     -463     -463     -459     -463     -492 
    -504     -491     -486     -480     -471     -468     -461     -463 
    -467     -469     -492     -525     -541     -550     -581     -615 
    -626     -629     -634     -631     -622     -606     -575     -537 
    -498     -469     -450     -421     -391     -373     -364     -364 
    -355     -342     -330     -329     -351     -361     -367     -375 
    -376     -382     -379     -357     -329     -302     -284     -268 
    -248     -240     -234     -244     -267     -275     -276     -283 
    -290     -291     -288     -280     -267     -276     -292     -294 
    -306     -324     -333     -346     -357     -359     -348     -336 
    -329     -322     -314     -306     -310     -324     -334     -351 
    -367     -378     -391     -409     -422     -415     -402     -398 
    -396     -383     -356     -341     -330     -322     -342     -368 
    -382     -406     -445     -471     -473     -471     -465     -452 
    -436     -414     -378     -340     -315     -297     -286     -271 
    -268     -290     -313     -329     -344     -359     -379     -402 
    -419     -418     -400     -391     -379     -349     -311     -264 
    -220     -203     -190     -172     -178     -201     -220     -252 
    -301     -317     -336     -383     -398     -396     -403     -399 
    -387     -375     -367     -349     -326     -326     -326     -321 
    -314     -310     -321     -334     -355     -364     -360     -382 
    -394     -390     -395     -382     -359     -340     -324     -295 
    -257     -241     -240     -240     -245     -252     -270     -297 
    -324     -352     -372     -391     -427     -464     -491     -498 
    -499     -513     -513     -506     -500     -480     -463     -454 
    -465     -479     -476     -498     -544     -572     -595     -608 
    -608     -607     -595     -572     -540     -499     -472     -449 
    -425     -410     -392     -383     -387     -394     -391     -379 
    -391     -403     -398     -409     -421     -425     -437     -453 
    -452     -419     -390     -372     -326     -270     -229     -183 
    -143     -121     -112     -108      -99     -120     -152     -160 
    -174     -182     -184     -184     -166     -152     -140     -124 
    -117     -124     -129     -121     -128     -144     -149     -156 
    -167     -175     -199     -244     -279     -311     -357     -395 
    -433     -481     -504     -498     -504     -513     -488     -460 
    -444     -418     -383     -367     -360     -337     -322     -328 
    -332     -330     -342     -359     -376     -414     -441     -449 
    -459     -472     -483     -473     -450     -432     -414     -410 
    -407     -392     -378     -365     -364     -367     -360     -359 
    -357     -357     -363     -361     -357     -360     -365     -368 
    -359     -344     -321     -307     -297     -276     -271     -267 
    -261     -272     -284     -292     -286     -286     -306     -315 
    -321     -334     -346     -365     -391     -418     -436     -440 
    -450     -471     -472     -459     -459     -465     -465     -475 
    -490     -502     -526     -558     -572     -572     -562     -560 
    -565     -554     -546     -541     -529     -533     -542     -538 
    -530     -515     -504     -506     -496     -483     -481     -488 
    -502     -525     -538     -541     -550     -564     -565     -553 
    -533     -513     -504     -490     -448     -411     -386     -357 
    -336     -318     -299     -282     -283     -299     -306     -310 
    -324     -338     -360     -367     -355     -334     -317     -303 
    -275     -245     -226     -203     -198     -201     -184     -175 
    -175     -176     -193     -217     -221     -206     -214     -237 
    -234     -226     -224     -226     -237     -251     -253     -247 
    -253     -271     -276     -271     -267     -270     -275     -268 
    -257     -256     -263     -280     -297     -310     -319     -333 
    -360     -384     -407     -426     -445     -475     -506     -529 
    -537     -541     -546     -546     -548     -533     -507     -490 
    -473     -453     -438     -426     -410     -407     -417     -418 
    -406     -400     -402     -394     -379     -360     -344     -332 
    -319     -309     -287     -268     -280     -298     -307     -325 
    -349     -382     -413     -433     -456     -463     -463     -476 
    -477     -467     -444     -419     -419     -419     -403     -380 
    -367     -369     -379     -388     -395     -402     -423     -457 
    -477     -492     -492     -491     -504     -488     -450     -413 
    -382     -353     -314     -288     -265     -237     -248     -270 
    -268     -268     -282     -303     -319     -322     -317     -307 
    -298     -286     -255     -217     -170     -129     -110      -82 
     -54      -41      -44      -58      -62      -78     -103     -114 
    -136     -164     -178     -197     -216     -230     -247     -247 
    -249     -257     -265     -286     -299     -303     -315     -333 
