Origin Time       2025/06/03 22:18:00
Lat.              41.7
Long.             143.6
Depth. (km)       30
Mag.              5.2
Station Code      SRCH10
Station Lat.      42.9930
Station Long.     142.0085
Station Height(m) 195
Record Time       2025/06/03 22:19:24
Sampling Freq(Hz) 100Hz
Duration Time(s)  120
Dir.              6
Scale Factor      7845(gal)/8223790
Max. Acc. (gal)   0.195
Last Correction   2025/06/03 22:19:25
Memo.             
[...]
   -8083    -8082    -8083    -8083    -8083    -8086    -8087    -8090 
   -8094    -8102    -8109    -8114    -8120    -8122    -8124    -8127 
   -8128    -8128    -8129    -8127    -8124    -8124    -8121    -8117 
   -8116    -8113    -8113    -8113    -8118    -8127    -8131    -8129 
   -8128    -8124    -8118    -8117    -8112    -8102    -8094    -8086 
   -8077    -8073    -8074    -8074    -8077    -8082    -8091    -8100 
   -8105    -8105    -8102    -8102    -8098    -8095    -8097    -8097 
   -8095    -8095    -8100    -8100    -8094    -8091    -8090    -8087 
   -8083    -8077    -8073    -8070    -8070    -8070    -8071    -8074 
   -8073    -8074    -8077    -8079    -8086    -8093    -8097    -8097 
   -8095    -8093    -8097    -8101    -8100    -8101    -8106    -8105 
   -8102    -8104    -8101    -8095    -8094    -8093    -8091    -8094 
   -8098    -8101    -8104    -8110    -8117    -8118    -8121    -8129 
   -8135    -8141    -8151    -8155    -8158    -8159    -8152    -8147 
   -8144    -8139    -8132    -8125    -8114    -8106    -8105    -8102 
   -8101    -8104    -8104    -8104    -8104    -8105    -8105    -8100 
   -8091    -8087    -8089    -8093    -8097    -8104    -8109    -8112 
   -8114    -8118    -8121    -8121    -8118    -8120    -8121    -8117 
   -8113    -8110    -8101    -8089    -8082    -8078    -8073    -8067 
   -8064    -8066    -8063    -8062    -8063    -8066    -8066    -8066 
   -8067    -8070    -8068    -8066    -8070    -8077    -8079    -8085 
   -8095    -8100    -8100    -8100    -8095    -8091    -8093    -8091 
   -8091    -8089    -8083    -8082    -8082    -8082    -8083    -8086 
   -8086    -8085    -8085    -8082    -8082    -8083    -8083    -8083 
   -8083    -8082    -8086    -8091    -8095    -8101    -8104    -8104 
   -8109    -8118    -8122    -8125    -8129    -8133    -8136    -8139 
   -8137    -8135    -8133    -8129    -8124    -8120    -8114    -8109 
   -8104    -8097    -8086    -8077    -8073    -8070    -8066    -8066 
   -8071    -8077    -8079    -8086    -8091    -8095    -8101    -8106 
   -8110    -8114    -8118    -8124    -8127    -8124    -8121    -8118 
   -8114    -8109    -8106    -8102    -8097    -8094    -8093    -8091 
   -8091    -8090    -8089    -8087    -8086    -8082    -8081    -8083 
   -8086    -8090    -8094    -8093    -8089    -8087    -8081    -8074 
   -8074    -8073    -8074    -8079    -8086    -8089    -8091    -8097 
   -8102    -8102    -8101    -8102    -8104    -8102    -8104    -8104 
   -8101    -8100    -8098    -8093    -8083    -8081    -8079    -8077 
   -8074    -8074    -8077    -8079    -8083    -8090    -8095    -8100 
   -8105    -8109    -8110    -8113    -8116    -8120    -8127    -8132 
   -8137    -8143    -8148    -8151    -8149    -8147    -8141    -8140 
   -8139    -8136    -8131    -8122    -8120    -8120    -8116    -8112 
   -8110    -8110    -8110    -8108    -8104    -8095    -8089    -8087 
   -8086    -8082    -8079    -8074    -8070    -8068    -8068    -8068 
   -8074    -8082    -8091    -8097    -8104    -8109    -8110    -8110 
   -8108    -8106    -8108    -8106    -8105    -8106    -8109    -8113 
   -8116    -8114    -8118    -8125    -8131    -8137    -8141    -8140 
   -8136    -8135    -8131    -8125    -8121    -8120    -8117    -8114 
   -8113    -8108    -8102    -8095    -8086    -8079    -8077    -8075 
   -8078    -8082    -8082    -8077    -8077    -8082    -8085    -8086 
   -8091    -8098    -8104    -8106    -8106    -8105    -8105    -8100 
   -8090    -8082    -8073    -8066    -8060    -8056    -8054    -8054 
   -8054    -8059    -8064    -8064    -8064    -8070    -8077    -8085 
   -8095    -8105    -8116    -8118    -8110    -8105    -8102    -8095 
   -8090    -8089    -8091    -8098    -8106    -8112    -8114    -8116 
   -8120    -8121    -8124    -8125    -8120    -8109    -8101    -8098 
   -8097    -8100    -8105    -8112    -8122    -8132    -8137    -8141 
   -8147    -8148    -8145    -8144    -8144    -8140    -8136    -8131 
   -8125    -8117    -8112    -8108    -8104    -8101    -8098    -8095 
   -8095    -8098    -8105    -8110    -8113    -8113    -8109    -8105 
   -8098    -8091    -8087    -8086    -8083    -8082    -8081    -8078 
   -8077    -8074    -8070    -8068    -8067    -8062    -8058    -8058 
   -8056    -8054    -8050    -8046    -8044    -8044    -8039    -8032 
   -8031    -8032    -8033    -8033    -8037    -8047    -8056    -8064 
   -8071    -8073    -8075    -8077    -8077    -8075    -8074    -8077 
   -8082    -8082    -8083    -8087    -8090    -8089    -8089    -8090 
   -8093    -8097    -8100    -8105    -8113    -8117    -8121    -8128 
   -8135    -8141    -8148    -8154    -8155    -8152    -8148    -8141 
   -8137    -8132    -8127    -8132    -8137    -8135    -8132    -8133 
   -8127    -8121    -8120    -8117    -8118    -8125    -8129    -8132 
   -8135    -8135    -8133    -8132    -8133    -8136    -8135    -8129 
   -8127    -8124    -8122    -8120    -8117    -8118    -8120    -8120 
   -8122    -8124    -8122    -8121    -8118    -8113    -8106    -8098 
   -8093    -8093    -8091    -8085    -8081    -8083    -8083    -8081 
   -8079    -8075    -8073    -8074    -8073    -8071    -8074    -8078 
   -8083    -8086    -8086    -8090    -8094    -8094    -8097    -8101 
   -8106    -8112    -8118    -8121    -8122    -8125    -8124    -8117 
   -8109    -8104    -8100    -8097    -8094    -8091    -8091    -8094 
   -8100    -8104    -8108    -8109    -8113    -8116    -8117    -8118 
   -8121    -8124    -8129    -8135    -8135    -8135    -8136    -8135 
   -8132    -8131    -8127    -8118    -8110    -8100    -8090    -8083 
   -8077    -8071    -8071    -8077    -8081    -8082    -8085    -8081 
   -8074    -8070    -8071    -8073    -8074    -8079    -8085    -8085 
   -8085    -8087    -8093    -8097    -8095    -8093    -8091    -8094 
   -8100    -8102    -8106    -8108    -8104    -8101    -8101    -8097 
   -8094    -8091    -8090    -8093    -8097    -8097    -8095    -8093 
   -8089    -8082    -8075    -8073    -8071    -8066    -8062    -8060 
   -8063    -8068    -8071    -8071    -8074    -8078    -8085    -8093 
   -8101    -8108    -8113    -8114    -8113    -8114    -8116    -8120 
   -8121    -8118    -8120    -8124    -8122    -8120    -8116    -8112 
   -8109    -8105    -8104    -8098    -8090    -8082    -8073    -8064 
   -8059    -8056    -8052    -8051    -8051    -8054    -8058    -8063 
   -8066    -8064    -8064    -8068    -8078    -8086    -8089    -8093 
   -8102    -8109    -8113    -8120    -8124    -8122    -8124    -8128 
   -8127    -8127    -8132    -8133    -8131    -8128    -8125    -8121 
   -8116    -8112    -8110    -8110    -8112    -8114    -8114    -8113 
   -8112    -8110    -8108    -8100    -8089    -8082    -8077    -8071 
   -8066    -8062    -8059    -8056    -8054    -8055    -8055    -8056 
   -8059    -8063    -8070    -8079    -8093    -8105    -8120    -8129 
   -8136    -8144    -8145    -8144    -8145    -8144    -8141    -8137 
   -8133    -8131    -8129    -8124    -8121    -8124    -8128    -8132 
   -8135    -8136    -8140    -8144    -8145    -8145    -8144    -8148 
   -8158    -8170    -8179    -8187    -8191    -8191    -8187    -8183 
   -8179    -8175    -8170    -8160    -8152    -8149    -8143    -8133 
   -8127    -8118    -8106    -8095    -8085    -8073    -8062    -8056 
   -8054    -8051    -8048    -8046    -8041    -8040    -8041    -8046 
   -8048    -8051    -8051    -8052    -8060    -8064    -8066    -8067 
   -8068    -8068    -8073    -8077    -8075    -8073    -8068    -8066 
   -8070    -8075    -8075    -8074    -8071    -8063    -8055    -8051 
   -8047    -8044    -8040    -8039    -8039    -8039    -8037    -8037 
   -8037    -8035    -8031    -8032    -8036    -8041    -8050    -8062 
   -8074    -8087    -8100    -8109    -8116    -8122    -8128    -8133 
   -8141    -8148    -8147    -8145    -8148    -8147    -8143    -8139 
   -8133    -8128    -8122    -8121    -8120    -8116    -8110    -8108 
   -8109    -8110    -8108    -8105    -8105    -8109    -8114    -8118 
   -8120    -8121    -8121    -8129    -8140    -8147    -8151    -8158 
   -8163    -8160    -8158    -8156    -8152    -8144    -8139    -8136 
   -8129    -8122    -8118    -8117    -8116    -8116    -8117    -8116 
   -8113    -8112    -8110    -8108    -8104    -8098    -8094    -8097 
   -8100    -8101    -8102    -8104    -8109    -8114    -8116    -8120 
   -8124    -8122    -8124    -8122    -8120    -8114    -8110    -8109 
   -8106    -8102    -8098    -8097    -8093    -8087    -8082    -8077 
   -8073    -8073    -8074    -8079    -8085    -8089    -8094    -8100 
   -8098    -8097    -8097    -8094    -8087    -8087    -8086    -8083 
   -8083    -8082    -8078    -8075    -8071    -8067    -8066    -8067 
   -8071    -8077    -8078    -8079    -8083    -8089    -8093    -8097 
   -8097    -8094    -8091    -8089    -8087    -8089    -8089    -8085 
   -8078    -8071    -8067    -8066    -8062    -8059    -8062    -8063 
   -8067    -8074    -8074    -8073    -8075    -8079    -8087    -8094 
   -8098    -8108    -8120    -8129    -8132    -8135    -8140    -8137 
   -8136    -8133    -8131    -8131    -8129    -8125    -8122    -8118 
   -8110    -8105    -8104    -8104    -8101    -8094    -8089    -8086 
   -8090    -8087    -8082    -8081    -8078    -8075    -8073    -8070 
   -8068    -8070    -8070    -8067    -8066    -8063    -8060    -8058 
   -8055    -8052    -8052    -8054    -8052    -8050    -8051    -8055 
   -8056    -8059    -8058    -8054    -8054    -8054    -8052    -8055 
   -8060    -8064    -8070    -8077    -8081    -8081    -8079    -8079 
   -8079    -8082    -8093    -8101    -8109    -8113    -8112    -8110 
   -8113    -8117    -8124    -8128    -8131    -8132    -8131    -8129 
   -8129    -8132    -8139    -8144    -8151    -8162    -8167    -8170 
   -8175    -8176    -8172    -8175    -8178    -8174    -8167    -8159 
   -8151    -8147    -8140    -8131    -8125    -8121    -8114    -8104 
   -8094    -8086    -8081    -8082    -8085    -8081    -8079    -8081 
   -8078    -8077    -8074    -8070    -8068    -8070    -8075    -8086 
   -8091    -8090    -8093    -8093    -8087    -8082    -8079    -8075 
   -8067    -8064    -8068    -8070    -8067    -8063    -8062    -8062 
   -8058    -8055    -8058    -8060    -8063    -8066    -8070    -8074 
   -8078    -8081    -8082    -8079    -8077    -8079    -8082    -8086 
   -8093    -8095    -8098    -8102    -8100    -8101    -8106    -8104 
   -8098    -8100    -8101    -8100    -8095    -8091    -8089    -8090 
   -8093    -8095    -8101    -8108    -8112    -8114    -8113    -8109 
   -8110    -8116    -8120    -8127    -8132    -8136    -8144    -8155 
   -8168    -8182    -8190    -8195    -8201    -8201    -8198    -8191 
   -8185    -8182    -8179    -8174    -8171    -8168    -8163    -8156 
   -8147    -8137    -8129    -8121    -8112    -8105    -8098    -8091 
   -8086    -8083    -8081    -8078    -8074    -8068    -8063    -8059 
   -8056    -8055    -8051    -8048    -8050    -8052    -8058    -8063 
   -8070    -8077    -8081    -8081    -8079    -8079    -8075    -8070 
   -8064    -8060    -8055    -8050    -8043    -8036    -8032    -8025 
   -8020    -8019    -8016    -8012    -8010    -8012    -8012    -8013 
   -8020    -8027    -8036    -8048    -8059    -8068    -8079    -8087 
   -8097    -8105    -8112    -8122    -8135    -8143    -8148    -8155 
   -8162    -8168    -8178    -8183    -8187    -8194    -8195    -8187 
   -8178    -8178    -8175    -8172    -8178    -8183    -8183    -8182 
   -8182    -8182    -8182    -8183    -8181    -8174    -8167    -8162 
   -8158    -8156    -8156    -8154    -8152    -8149    -8144    -8140 
   -8139    -8140    -8139    -8139    -8137    -8135    -8128    -8122 
   -8117    -8114    -8114    -8114    -8116    -8120    -8122    -8124 
   -8127    -8124    -8117    -8110    -8105    -8100    -8097    -8093 
   -8087    -8082    -8078    -8073    -8068    -8064    -8059    -8059 
   -8062    -8062    -8062    -8064    -8062    -8056    -8052    -8044 
   -8036    -8036    -8044    -8050    -8054    -8060    -8066    -8071 
   -8079    -8085    -8087    -8090    -8090    -8091    -8091    -8089 
   -8087    -8083    -8085    -8086    -8085    -8083    -8082    -8079 
   -8082    -8085    -8085    -8090    -8093    -8093    -8090    -8085 
   -8081    -8081    -8074    -8064    -8060    -8059    -8056    -8055 
   -8056    -8058    -8059    -8060    -8064    -8066    -8064    -8063 
   -8060    -8051    -8043    -8037    -8029    -8021    -8020    -8023 
   -8028    -8033    -8037    -8046    -8052    -8058    -8067    -8078 
   -8087    -8091    -8095    -8098    -8100    -8102    -8109    -8114 
   -8122    -8132    -8144    -8154    -8162    -8168    -8170    -8171 
   -8174    -8182    -8191    -8197    -8201    -8209    -8213    -8213 
   -8218    -8224    -8225    -8230    -8237    -8241    -8244    -8247 
   -8244    -8240    -8237    -8235    -8236    -8237    -8237    -8239 
   -8241    -8237    -8235    -8232    -8224    -8213    -8202    -8194 
   -8186    -8182    -8175    -8162    -8152    -8145    -8137    -8129 
   -8120    -8108    -8091    -8074    -8055    -8033    -8013    -7996 
   -7979    -7965    -7950    -7935    -7923    -7917    -7911    -7904 
   -7905    -7902    -7896    -7905    -7911    -7908    -7919    -7928 
   -7925    -7936    -7950    -7958    -7975    -7993    -8001    -8014 
   -8027    -8031    -8041    -8050    -8050    -8056    -8067    -8081 
   -8091    -8102    -8112    -8117    -8124    -8132    -8139    -8144 
   -8155    -8163    -8167    -8171    -8174    -8178    -8181    -8185 
   -8185    -8179    -8174    -8170    -8160    -8154    -8154    -8154 
   -8149    -8147    -8143    -8140    -8137    -8133    -8128    -8124 
   -8117    -8108    -8100    -8091    -8082    -8077    -8077    -8073 
   -8063    -8054    -8050    -8043    -8037    -8032    -8025    -8023 
   -8025    -8023    -8023    -8025    -8020    -8012    -8010    -8012 
   -8009    -8005    -8006    -8008    -8006    -8012    -8021    -8025 
   -8032    -8046    -8054    -8055    -8056    -8058    -8058    -8056 
   -8055    -8059    -8067    -8071    -8075    -8082    -8083    -8082 
   -8082    -8082    -8085    -8089    -8090    -8091    -8094    -8095 
   -8100    -8104    -8108    -8109    -8106    -8105    -8105    -8101 
   -8101    -8102    -8101    -8102    -8109    -8113    -8117    -8124 
   -8129    -8129    -8131    -8133    -8135    -8133    -8136    -8139 
   -8136    -8133    -8137    -8143    -8145    -8149    -8156    -8160 
   -8164    -8168    -8172    -8181    -8189    -8193    -8195    -8197 
   -8197    -8197    -8197    -8194    -8189    -8182    -8179    -8174 
   -8171    -8168    -8162    -8156    -8149    -8139    -8129    -8125 
   -8116    -8106    -8100    -8094    -8089    -8083    -8081    -8079 
   -8074    -8068    -8066    -8063    -8066    -8068    -8071    -8074 
   -8075    -8077    -8075    -8074    -8077    -8077    -8074    -8077 
   -8079    -8079    -8082    -8086    -8087    -8086    -8087    -8087 
   -8083    -8074    -8066    -8060    -8051    -8046    -8047    -8048 
   -8050    -8055    -8059    -8062    -8068    -8074    -8079    -8085 
   -8094    -8108    -8121    -8133    -8141    -8145    -8149    -8149 
   -8151    -8152    -8152    -8154    -8156    -8154    -8151    -8149 
   -8147    -8140    -8131    -8121    -8113    -8101    -8089    -8078 
   -8067    -8055    -8044    -8035    -8029    -8027    -8025    -8027 
   -8033    -8043    -8054    -8059    -8060    -8064    -8068    -8070 
   -8073    -8075    -8081    -8089    -8095    -8102    -8110    -8118 
   -8124    -8128    -8132    -8137    -8144    -8148    -8151    -8156 
   -8164    -8170    -8171    -8171    -8171    -8168    -8170    -8168 
   -8166    -8168    -8170    -8170    -8171    -8178    -8183    -8187 
   -8195    -8202    -8208    -8210    -8210    -8206    -8203    -8202 
   -8195    -8190    -8189    -8185    -8178    -8170    -8159    -8151 
   -8145    -8137    -8127    -8116    -8108    -8098    -8089    -8083 
   -8075    -8066    -8060    -8055    -8048    -8043    -8037    -8031 
   -8020    -8009    -8002    -7994    -7983    -7974    -7969    -7959 
   -7947    -7938    -7932    -7925    -7924    -7924    -7923    -7933 
   -7942    -7947    -7966    -7981    -7996    -8021    -8036    -8051 
   -8071    -8078    -8087    -8105    -8118    -8129    -8139    -8147 
   -8154    -8158    -8162    -8163    -8162    -8156    -8152    -8144 
   -8135    -8128    -8122    -8118    -8117    -8117    -8116    -8112 
   -8108    -8106    -8105    -8105    -8112    -8122    -8131    -8139 
   -8148    -8156    -8159    -8159    -8158    -8154    -8151    -8149 
   -8144    -8144    -8145    -8141    -8140    -8141    -8139    -8132 
   -8131    -8127    -8120    -8120    -8121    -8118    -8113    -8109 
   -8106    -8109    -8112    -8116    -8117    -8118    -8118    -8114 
   -8114    -8116    -8109    -8101    -8094    -8089    -8082    -8074 
   -8066    -8059    -8054    -8048    -8043    -8039    -8039    -8037 
   -8039    -8044    -8054    -8063    -8077    -8086    -8093    -8106 
   -8121    -8131    -8137    -8144    -8148    -8149    -8151    -8151 
   -8148    -8144    -8137    -8127    -8118    -8110    -8100    -8089 
   -8081    -8078    -8075    -8071    -8070    -8071    -8071    -8074 
   -8078    -8079    -8079    -8079    -8079    -8078    -8079    -8078 
   -8073    -8070    -8068    -8066    -8062    -8063    -8063    -8059 
   -8054    -8054    -8058    -8058    -8058    -8059    -8060    -8063 
   -8064    -8064    -8066    -8066    -8064    -8060    -8056    -8056 
   -8056    -8055    -8058    -8064    -8071    -8078    -8083    -8082 
   -8083    -8083    -8081    -8082    -8085    -8086    -8091    -8097 
   -8100    -8104    -8110    -8116    -8118    -8121    -8129    -8137 
   -8145    -8155    -8164    -8171    -8179    -8189    -8194    -8201 
   -8209    -8213    -8216    -8218    -8220    -8220    -8218    -8216 
   -8212    -8209    -8206    -8203    -8201    -8198    -8195    -8193 
   -8189    -8182    -8178    -8172    -8166    -8160    -8156    -8151 
   -8144    -8135    -8129    -8124    -8114    -8108    -8101    -8090 
   -8082    -8075    -8063    -8056    -8051    -8044    -8041    -8037 
   -8033    -8035    -8035    -8033    -8033    -8033    -8037    -8043 
   -8047    -8051    -8059    -8068    -8078    -8087    -8094    -8098 
   -8100    -8097    -8093    -8087    -8083    -8082    -8078    -8074 
   -8070    -8063    -8054    -8044    -8036    -8032    -8031    -8033 
   -8036    -8041    -8050    -8055    -8058    -8064    -8073    -8078 
   -8081    -8086    -8087    -8089    -8093    -8094    -8095    -8100 
   -8098    -8093    -8090    -8091    -8091    -8091    -8093    -8091 
   -8090    -8087    -8085    -8082    -8081    -8081    -8078    -8073 
   -8070    -8070    -8068    -8071    -8075    -8077    -8081    -8087 
   -8091    -8093    -8094    -8097    -8098    -8097    -8098    -8100 
   -8098    -8101    -8102    -8097    -8093    -8094    -8095    -8091 
