Origin Time       2025/06/03 22:18:00
Lat.              41.7
Long.             143.6
Depth. (km)       30
Mag.              5.2
Station Code      SRCH10
Station Lat.      42.9930
Station Long.     142.0085
Station Height(m) -5
Record Time       2025/06/03 22:19:24
Sampling Freq(Hz) 100Hz
Duration Time(s)  120
Dir.              1
Scale Factor      2942(gal)/8224139
Max. Acc. (gal)   0.158
Last Correction   2025/06/03 22:19:25
Memo.             
[...]
  -54515   -54518   -54525   -54531   -54538   -54546   -54554   -54564 
  -54575   -54587   -54594   -54603   -54614   -54621   -54627   -54641 
  -54650   -54656   -54661   -54661   -54656   -54650   -54641   -54630 
  -54619   -54611   -54604   -54596   -54589   -54584   -54583   -54585 
  -54587   -54589   -54595   -54599   -54607   -54618   -54627   -54634 
  -54642   -54646   -54649   -54650   -54646   -54639   -54637   -54633 
  -54626   -54621   -54615   -54611   -54608   -54604   -54602   -54602 
  -54602   -54603   -54604   -54603   -54599   -54598   -54599   -54596 
  -54594   -54595   -54596   -54603   -54611   -54618   -54627   -54637 
  -54643   -54646   -54646   -54642   -54639   -54635   -54625   -54619 
  -54618   -54611   -54612   -54616   -54614   -54619   -54630   -54634 
  -54635   -54642   -54650   -54652   -54652   -54652   -54648   -54641 
  -54637   -54634   -54631   -54635   -54638   -54635   -54633   -54631 
  -54626   -54619   -54618   -54616   -54616   -54616   -54616   -54616 
  -54614   -54612   -54614   -54614   -54612   -54611   -54607   -54603 
  -54600   -54599   -54595   -54592   -54592   -54589   -54583   -54581 
  -54584   -54585   -54587   -54592   -54599   -54607   -54618   -54625 
  -54630   -54638   -54642   -54643   -54645   -54646   -54643   -54639 
  -54638   -54634   -54629   -54625   -54626   -54623   -54621   -54618 
  -54615   -54614   -54612   -54611   -54615   -54619   -54622   -54626 
  -54630   -54631   -54630   -54626   -54622   -54616   -54606   -54595 
  -54587   -54577   -54569   -54562   -54560   -54562   -54567   -54572 
  -54580   -54589   -54594   -54596   -54596   -54591   -54589   -54587 
  -54583   -54581   -54581   -54579   -54581   -54583   -54580   -54577 
  -54572   -54565   -54560   -54552   -54544   -54540   -54541   -54541 
  -54542   -54545   -54549   -54557   -54565   -54572   -54576   -54577 
  -54577   -54581   -54584   -54581   -54577   -54577   -54581   -54584 
  -54585   -54589   -54592   -54591   -54585   -54580   -54577   -54575 
  -54573   -54576   -54583   -54591   -54600   -54614   -54626   -54637 
  -54646   -54654   -54664   -54668   -54666   -54665   -54666   -54664 
  -54660   -54662   -54662   -54664   -54670   -54679   -54683   -54683 
  -54680   -54673   -54664   -54649   -54634   -54625   -54616   -54607 
  -54602   -54599   -54595   -54596   -54599   -54596   -54594   -54596 
  -54594   -54589   -54589   -54589   -54587   -54588   -54591   -54596 
  -54602   -54608   -54610   -54611   -54614   -54614   -54610   -54607 
  -54606   -54603   -54599   -54598   -54596   -54599   -54604   -54608 
  -54614   -54619   -54623   -54629   -54631   -54630   -54630   -54629 
  -54625   -54625   -54623   -54623   -54626   -54627   -54631   -54637 
  -54641   -54645   -54652   -54660   -54665   -54666   -54670   -54670 
  -54666   -54660   -54652   -54638   -54629   -54623   -54615   -54610 
  -54607   -54607   -54607   -54608   -54610   -54614   -54616   -54616 
  -54615   -54618   -54621   -54614   -54606   -54599   -54592   -54589 
  -54592   -54592   -54598   -54607   -54616   -54626   -54635   -54638 
  -54637   -54634   -54629   -54625   -54619   -54614   -54606   -54596 
  -54592   -54591   -54585   -54579   -54576   -54569   -54561   -54557 
  -54557   -54553   -54548   -54549   -54549   -54550   -54557   -54565 
  -54573   -54580   -54584   -54588   -54592   -54595   -54595   -54589 
  -54585   -54583   -54577   -54575   -54572   -54569   -54568   -54564 
  -54556   -54548   -54537   -54525   -54517   -54508   -54506   -54510 
  -54518   -54530   -54545   -54562   -54579   -54592   -54602   -54611 
  -54618   -54621   -54626   -54633   -54637   -54641   -54643   -54639 
  -54635   -54637   -54633   -54627   -54626   -54627   -54626   -54626 
  -54630   -54631   -54633   -54641   -54649   -54652   -54657   -54662 
  -54668   -54666   -54664   -54662   -54657   -54650   -54646   -54641 
  -54638   -54638   -54637   -54634   -54630   -54626   -54621   -54614 
  -54611   -54610   -54607   -54608   -54612   -54616   -54621   -54630 
  -54634   -54638   -54648   -54653   -54657   -54662   -54665   -54665 
  -54665   -54665   -54661   -54658   -54658   -54656   -54650   -54648 
  -54643   -54637   -54630   -54626   -54622   -54616   -54610   -54604 
  -54600   -54599   -54594   -54589   -54588   -54591   -54596   -54598 
  -54595   -54591   -54584   -54575   -54564   -54553   -54544   -54534 
  -54525   -54519   -54517   -54513   -54510   -54511   -54515   -54522 
  -54529   -54538   -54548   -54554   -54562   -54571   -54575   -54581 
  -54594   -54602   -54608   -54618   -54626   -54631   -54639   -54643 
  -54650   -54660   -54665   -54669   -54677   -54684   -54687   -54688 
  -54688   -54684   -54679   -54676   -54673   -54668   -54662   -54658 
  -54653   -54648   -54639   -54633   -54626   -54619   -54615   -54615 
  -54615   -54615   -54614   -54607   -54599   -54591   -54581   -54571 
  -54562   -54558   -54553   -54549   -54549   -54550   -54552   -54550 
  -54550   -54553   -54558   -54562   -54564   -54568   -54572   -54575 
  -54579   -54581   -54585   -54592   -54598   -54602   -54607   -54610 
  -54614   -54614   -54615   -54619   -54623   -54626   -54630   -54634 
  -54639   -54642   -54643   -54648   -54652   -54656   -54658   -54658 
  -54654   -54652   -54650   -54650   -54650   -54646   -54641   -54642 
  -54648   -54653   -54654   -54660   -54669   -54673   -54677   -54679 
  -54676   -54673   -54670   -54662   -54653   -54643   -54635   -54629 
  -54625   -54618   -54611   -54604   -54598   -54594   -54587   -54580 
  -54573   -54565   -54557   -54554   -54553   -54550   -54549   -54550 
  -54548   -54550   -54557   -54558   -54557   -54556   -54556   -54558 
  -54561   -54567   -54571   -54571   -54575   -54577   -54579   -54580 
  -54581   -54581   -54575   -54569   -54568   -54567   -54561   -54558 
  -54558   -54562   -54571   -54579   -54587   -54594   -54602   -54607 
  -54612   -54618   -54619   -54616   -54615   -54608   -54600   -54592 
  -54577   -54561   -54550   -54538   -54526   -54521   -54518   -54515 
  -54517   -54522   -54529   -54531   -54538   -54549   -54556   -54564 
  -54573   -54584   -54594   -54603   -54612   -54625   -54635   -54642 
  -54646   -54649   -54645   -54638   -54633   -54626   -54621   -54615 
  -54611   -54608   -54604   -54602   -54606   -54614   -54619   -54626 
  -54634   -54639   -54643   -54646   -54646   -54646   -54642   -54639 
  -54637   -54630   -54627   -54629   -54629   -54627   -54627   -54630 
  -54627   -54622   -54616   -54611   -54602   -54596   -54596   -54594 
  -54591   -54598   -54606   -54612   -54625   -54638   -54652   -54662 
  -54670   -54676   -54677   -54672   -54662   -54653   -54645   -54642 
  -54639   -54637   -54638   -54641   -54646   -54653   -54662   -54669 
  -54668   -54669   -54669   -54665   -54662   -54658   -54654   -54649 
  -54645   -54642   -54642   -54641   -54637   -54635   -54631   -54623 
  -54616   -54614   -54606   -54596   -54588   -54581   -54576   -54575 
  -54573   -54569   -54561   -54553   -54549   -54545   -54540   -54531 
  -54527   -54523   -54521   -54521   -54521   -54522   -54527   -54534 
  -54541   -54548   -54550   -54557   -54565   -54571   -54577   -54587 
  -54598   -54612   -54626   -54638   -54654   -54672   -54683   -54693 
  -54703   -54707   -54714   -54719   -54720   -54720   -54719   -54718 
  -54718   -54712   -54706   -54700   -54692   -54681   -54669   -54654 
  -54642   -54630   -54618   -54611   -54603   -54592   -54584   -54580 
  -54575   -54571   -54567   -54562   -54557   -54554   -54556   -54557 
  -54554   -54552   -54552   -54552   -54554   -54560   -54564   -54564 
  -54571   -54577   -54576   -54572   -54572   -54571   -54568   -54568 
  -54572   -54571   -54567   -54567   -54567   -54562   -54561   -54565 
  -54565   -54564   -54571   -54579   -54584   -54589   -54598   -54607 
  -54618   -54633   -54643   -54652   -54661   -54669   -54677   -54683 
  -54685   -54691   -54696   -54695   -54692   -54693   -54695   -54693 
  -54689   -54687   -54680   -54675   -54666   -54656   -54645   -54634 
  -54621   -54611   -54607   -54602   -54600   -54603   -54602   -54599 
  -54600   -54602   -54604   -54607   -54607   -54606   -54603   -54599 
  -54598   -54598   -54599   -54607   -54612   -54614   -54619   -54625 
  -54626   -54629   -54629   -54627   -54626   -54623   -54619   -54619 
  -54619   -54621   -54622   -54625   -54626   -54623   -54619   -54612 
  -54607   -54604   -54600   -54598   -54598   -54594   -54591   -54591 
  -54587   -54583   -54576   -54571   -54569   -54571   -54576   -54581 
  -54585   -54588   -54591   -54592   -54592   -54594   -54594   -54588 
  -54580   -54573   -54567   -54557   -54552   -54546   -54542   -54542 
  -54542   -54546   -54553   -54561   -54571   -54583   -54592   -54596 
  -54602   -54610   -54618   -54630   -54643   -54654   -54664   -54673 
  -54679   -54680   -54683   -54684   -54685   -54685   -54685   -54687 
  -54691   -54695   -54697   -54702   -54702   -54704   -54704   -54696 
  -54691   -54685   -54672   -54661   -54658   -54656   -54654   -54658 
  -54660   -54660   -54665   -54669   -54669   -54669   -54669   -54669 
  -54670   -54672   -54673   -54677   -54680   -54681   -54683   -54681 
  -54676   -54665   -54649   -54629   -54606   -54579   -54550   -54525 
  -54502   -54484   -54469   -54457   -54450   -54452   -54453   -54456 
  -54463   -54464   -54465   -54467   -54468   -54469   -54477   -54491 
  -54508   -54527   -54545   -54562   -54580   -54595   -54602   -54610 
  -54621   -54631   -54642   -54649   -54653   -54661   -54669   -54677 
  -54687   -54695   -54699   -54700   -54703   -54706   -54706   -54704 
  -54707   -54708   -54704   -54702   -54704   -54706   -54704   -54706 
  -54708   -54708   -54712   -54720   -54723   -54726   -54727   -54723 
  -54719   -54716   -54710   -54697   -54684   -54665   -54648   -54629 
  -54604   -54575   -54545   -54513   -54479   -54446   -54415   -54386 
  -54356   -54332   -54310   -54291   -54272   -54257   -54244   -54236 
  -54232   -54230   -54229   -54229   -54234   -54238   -54241   -54243 
  -54244   -54243   -54243   -54244   -54243   -54241   -54241   -54244 
  -54247   -54255   -54270   -54288   -54310   -54336   -54364   -54396 
  -54430   -54459   -54488   -54518   -54540   -54561   -54587   -54606 
  -54621   -54637   -54652   -54666   -54684   -54704   -54727   -54749 
  -54772   -54796   -54816   -54837   -54854   -54865   -54872   -54874 
  -54878   -54885   -54892   -54901   -54913   -54926   -54942   -54958 
  -54970   -54980   -54982   -54978   -54974   -54962   -54947   -54932 
  -54918   -54903   -54891   -54881   -54877   -54873   -54865   -54853 
  -54837   -54818   -54795   -54772   -54749   -54726   -54700   -54677 
  -54658   -54646   -54641   -54639   -54639   -54639   -54634   -54631 
  -54629   -54621   -54608   -54598   -54588   -54580   -54580   -54584 
  -54589   -54594   -54595   -54589   -54581   -54571   -54557   -54546 
  -54534   -54519   -54503   -54488   -54480   -54475   -54473   -54476 
  -54487   -54500   -54514   -54529   -54542   -54556   -54569   -54584 
  -54599   -54615   -54633   -54649   -54665   -54681   -54696   -54712 
  -54722   -54726   -54731   -54734   -54727   -54718   -54707   -54697 
  -54685   -54670   -54664   -54658   -54652   -54649   -54646   -54641 
  -54638   -54642   -54641   -54633   -54633   -54634   -54631   -54627 
  -54627   -54625   -54619   -54615   -54608   -54596   -54583   -54568 
  -54556   -54546   -54541   -54541   -54545   -54549   -54550   -54550 
  -54548   -54541   -54530   -54514   -54495   -54477   -54457   -54442 
  -54434   -54433   -54437   -54448   -54463   -54487   -54510   -54530 
  -54554   -54577   -54592   -54602   -54608   -54611   -54610   -54610 
  -54610   -54610   -54612   -54612   -54607   -54599   -54588   -54576 
  -54567   -54561   -54557   -54560   -54572   -54584   -54602   -54623 
  -54643   -54658   -54673   -54684   -54689   -54688   -54683   -54677 
  -54670   -54660   -54650   -54645   -54638   -54634   -54630   -54622 
  -54612   -54607   -54602   -54600   -54604   -54614   -54629   -54642 
  -54656   -54676   -54691   -54697   -54702   -54706   -54706   -54702 
  -54696   -54692   -54685   -54680   -54677   -54677   -54677   -54676 
  -54676   -54677   -54681   -54683   -54680   -54672   -54658   -54646 
  -54633   -54615   -54595   -54577   -54560   -54545   -54530   -54515 
  -54503   -54490   -54476   -54468   -54457   -54452   -54450   -54452 
  -54460   -54476   -54491   -54506   -54525   -54540   -54553   -54568 
  -54577   -54577   -54576   -54576   -54573   -54573   -54580   -54591 
  -54603   -54619   -54637   -54649   -54653   -54649   -54637   -54621 
  -54602   -54581   -54564   -54544   -54523   -54504   -54487   -54469 
  -54453   -54436   -54418   -54405   -54394   -54383   -54379   -54382 
  -54388   -54396   -54407   -54423   -54436   -54444   -54452   -54454 
  -54452   -54449   -54444   -54434   -54427   -54422   -54422   -54426 
  -54434   -54445   -54461   -54479   -54498   -54517   -54531   -54545 
  -54558   -54569   -54579   -54591   -54607   -54622   -54637   -54650 
  -54658   -54665   -54668   -54665   -54660   -54656   -54650   -54650 
  -54656   -54670   -54691   -54718   -54750   -54784   -54819   -54851 
  -54878   -54907   -54932   -54950   -54965   -54978   -54989   -54999 
  -55009   -55020   -55028   -55031   -55034   -55038   -55040   -55043 
  -55047   -55048   -55050   -55050   -55048   -55047   -55038   -55020 
  -55001   -54978   -54942   -54903   -54865   -54822   -54778   -54738 
  -54697   -54657   -54614   -54571   -54526   -54481   -54433   -54387 
  -54346   -54313   -54288   -54265   -54247   -54238   -54230   -54221 
  -54211   -54198   -54183   -54174   -54168   -54166   -54168   -54180 
  -54203   -54234   -54265   -54305   -54349   -54394   -54434   -54473 
  -54510   -54542   -54571   -54598   -54623   -54648   -54673   -54693 
  -54704   -54715   -54720   -54716   -54708   -54697   -54679   -54660 
  -54645   -54630   -54622   -54616   -54616   -54621   -54623   -54625 
  -54621   -54611   -54598   -54585   -54577   -54571   -54571   -54577 
  -54587   -54600   -54608   -54614   -54621   -54626   -54627   -54627 
  -54627   -54629   -54635   -54646   -54657   -54668   -54681   -54689 
  -54693   -54696   -54695   -54689   -54683   -54673   -54661   -54649 
  -54639   -54635   -54637   -54641   -54652   -54662   -54668   -54672 
  -54676   -54676   -54675   -54681   -54691   -54699   -54711   -54720 
  -54726   -54729   -54726   -54722   -54714   -54702   -54687   -54670 
  -54653   -54638   -54625   -54611   -54600   -54596   -54599   -54604 
  -54614   -54625   -54635   -54642   -54643   -54646   -54648   -54650 
  -54654   -54654   -54649   -54645   -54638   -54626   -54614   -54602 
  -54589   -54579   -54568   -54556   -54544   -54527   -54508   -54492 
  -54479   -54461   -54448   -54433   -54417   -54402   -54391   -54382 
  -54373   -54368   -54368   -54371   -54372   -54373   -54373   -54373 
  -54378   -54379   -54382   -54388   -54395   -54402   -54411   -54418 
  -54423   -54432   -54441   -54448   -54459   -54473   -54488   -54502 
  -54517   -54533   -54544   -54552   -54558   -54565   -54568   -54568 
  -54568   -54568   -54572   -54577   -54581   -54584   -54589   -54598 
  -54607   -54618   -54637   -54660   -54684   -54707   -54729   -54747 
  -54762   -54772   -54777   -54780   -54780   -54787   -54796   -54807 
  -54820   -54837   -54853   -54866   -54873   -54877   -54880   -54874 
  -54868   -54862   -54854   -54845   -54837   -54832   -54828   -54823 
  -54815   -54803   -54787   -54765   -54741   -54714   -54687   -54660 
  -54633   -54607   -54585   -54568   -54556   -54546   -54541   -54535 
  -54530   -54523   -54519   -54517   -54511   -54503   -54498   -54495 
  -54494   -54496   -54503   -54506   -54510   -54517   -54525   -54535 
  -54545   -54556   -54571   -54585   -54596   -54606   -54612   -54618 
  -54619   -54618   -54614   -54610   -54608   -54608   -54611   -54614 
  -54616   -54625   -54635   -54643   -54649   -54654   -54660   -54658 
  -54652   -54645   -54634   -54618   -54602   -54584   -54567   -54553 
  -54546   -54538   -54534   -54534   -54537   -54544   -54558   -54572 
  -54584   -54600   -54616   -54626   -54634   -54645   -54656   -54666 
  -54676   -54683   -54688   -54692   -54693   -54691   -54684   -54679 
  -54679   -54679   -54681   -54688   -54696   -54708   -54724   -54742 
  -54761   -54777   -54796   -54812   -54823   -54827   -54824   -54815 
  -54803   -54784   -54762   -54742   -54720   -54699   -54679   -54658 
  -54641   -54631   -54623   -54615   -54611   -54604   -54594   -54589 
  -54584   -54577   -54576   -54579   -54583   -54587   -54592   -54594 
  -54591   -54588   -54585   -54579   -54569   -54558   -54549   -54542 
  -54535   -54533   -54538   -54549   -54561   -54575   -54588   -54602 
  -54622   -54639   -54648   -54650   -54654   -54657   -54660   -54657 
  -54654   -54652   -54646   -54638   -54629   -54615   -54598   -54583 
  -54567   -54546   -54525   -54504   -54487   -54469   -54454   -54444 
  -54436   -54433   -54436   -54437   -54438   -54440   -54440   -54441 
  -54448   -54452   -54460   -54475   -54488   -54504   -54527   -54545 
  -54560   -54573   -54584   -54596   -54607   -54612   -54614   -54616 
  -54615   -54607   -54598   -54587   -54572   -54560   -54552   -54545 
  -54544   -54549   -54549   -54546   -54550   -54548   -54540   -54533 
  -54525   -54519   -54519   -54521   -54522   -54530   -54540   -54548 
  -54554   -54561   -54571   -54580   -54587   -54589   -54589   -54587 
  -54585   -54577   -54569   -54568   -54568   -54567   -54571   -54576 
  -54580   -54581   -54579   -54572   -54562   -54548   -54531   -54518 
  -54503   -54491   -54483   -54473   -54471   -54475   -54479   -54488 
  -54500   -54510   -54519   -54530   -54538   -54544   -54553   -54564 
  -54572   -54581   -54595   -54608   -54616   -54625   -54630   -54634 
  -54637   -54638   -54645   -54656   -54666   -54683   -54707   -54731 
  -54758   -54788   -54816   -54843   -54869   -54892   -54912   -54930 
  -54946   -54961   -54973   -54984   -54988   -54986   -54982   -54972 
  -54955   -54939   -54916   -54889   -54862   -54838   -54812   -54792 
  -54776   -54757   -54742   -54735   -54726   -54716   -54708   -54699 
  -54689   -54677   -54664   -54654   -54646   -54637   -54631   -54626 
  -54616   -54607   -54596   -54579   -54553   -54530   -54507   -54481 
  -54457   -54438   -54426   -54417   -54406   -54398   -54390   -54379 
  -54372   -54367   -54361   -54360   -54367   -54380   -54396   -54417 
  -54440   -54463   -54491   -54518   -54541   -54561   -54573   -54583 
  -54592   -54598   -54599   -54602   -54608   -54615   -54621   -54626 
  -54630   -54630   -54626   -54623   -54621   -54616   -54611   -54607 
  -54608   -54612   -54621   -54635   -54653   -54668   -54684   -54696 
  -54703   -54703   -54699   -54691   -54681   -54670   -54660   -54648 
  -54631   -54616   -54608   -54606   -54603   -54602   -54604   -54606 
  -54608   -54614   -54618   -54623   -54629   -54629   -54631   -54635 
  -54637   -54637   -54633   -54627   -54623   -54616   -54607   -54596 
  -54584   -54571   -54558   -54548   -54540   -54531   -54526   -54526 
