Origin Time       2025/06/03 22:18:00
Lat.              41.7
Long.             143.6
Depth. (km)       30
Mag.              5.2
Station Code      SRCH08
Station Lat.      43.5138
Station Long.     141.9090
Station Height(m) 30
Record Time       2025/06/03 22:19:42
Sampling Freq(Hz) 100Hz
Duration Time(s)  120
Dir.              5
Scale Factor      7845(gal)/8223790
Max. Acc. (gal)   0.280
Last Correction   2025/06/03 22:19:43
Memo.             
[...]
    1613     1621     1615     1618     1622     1624     1622     1614 
    1611     1615     1632     1648     1653     1656     1661     1669 
    1671     1655     1636     1629     1624     1621     1620     1610 
    1603     1609     1621     1626     1633     1645     1651     1656 
    1656     1640     1621     1606     1597     1580     1559     1539 
    1528     1536     1543     1540     1547     1568     1586     1593 
    1593     1588     1584     1576     1567     1548     1522     1502 
    1486     1476     1462     1447     1445     1455     1468     1489 
    1514     1533     1548     1574     1594     1594     1580     1582 
    1584     1568     1555     1544     1536     1544     1557     1568 
    1579     1591     1603     1610     1605     1595     1586     1583 
    1591     1602     1602     1597     1599     1605     1606     1601 
    1588     1588     1595     1599     1597     1593     1597     1602 
    1599     1593     1580     1572     1570     1566     1552     1537 
    1528     1528     1536     1541     1540     1545     1560     1576 
    1588     1595     1599     1603     1606     1609     1602     1593 
    1590     1595     1595     1588     1590     1601     1614     1626 
    1633     1638     1644     1649     1655     1648     1636     1629 
    1630     1636     1630     1625     1629     1638     1647     1645 
    1636     1628     1624     1628     1632     1633     1641     1656 
    1664     1665     1659     1644     1629     1622     1607     1582 
    1564     1556     1553     1559     1567     1567     1576     1601 
    1620     1621     1621     1626     1624     1609     1593     1575 
    1557     1552     1553     1557     1564     1564     1571     1584 
    1591     1587     1579     1582     1582     1579     1571     1560 
    1545     1529     1521     1510     1490     1476     1475     1480 
    1479     1472     1472     1479     1487     1491     1489     1490 
    1495     1505     1521     1526     1521     1522     1532     1534 
    1528     1518     1520     1525     1530     1526     1516     1507 
    1501     1497     1494     1487     1485     1491     1498     1498 
    1490     1490     1499     1503     1507     1509     1505     1510 
    1525     1539     1544     1552     1574     1588     1598     1611 
    1622     1636     1659     1679     1684     1683     1694     1705 
    1702     1690     1669     1647     1628     1605     1587     1574 
    1561     1570     1588     1595     1599     1602     1607     1606 
    1594     1587     1579     1571     1580     1590     1590     1590 
    1605     1625     1637     1649     1657     1661     1665     1659 
    1641     1617     1595     1590     1594     1599     1591     1579 
    1583     1590     1591     1595     1595     1595     1599     1607 
    1609     1597     1594     1603     1603     1601     1594     1591 
    1595     1595     1601     1599     1591     1597     1601     1599 
    1597     1595     1606     1615     1625     1633     1633     1647 
    1656     1645     1634     1622     1613     1606     1601     1598 
    1578     1568     1575     1570     1561     1559     1564     1574 
    1580     1590     1586     1572     1576     1579     1575     1571 
    1568     1574     1576     1571     1563     1552     1559     1568 
    1566     1561     1556     1547     1548     1545     1537     1534 
    1536     1540     1547     1551     1549     1549     1568     1580 
    1580     1586     1586     1591     1597     1590     1586     1586 
    1594     1603     1606     1606     1599     1603     1613     1611 
    1610     1602     1597     1605     1599     1583     1570     1563 
    1570     1571     1570     1563     1552     1555     1553     1539 
    1526     1516     1517     1517     1502     1485     1468     1464 
    1468     1470     1472     1471     1472     1483     1489     1487 
    1482     1487     1501     1506     1509     1512     1513     1524 
    1537     1545     1543     1548     1560     1555     1549     1551 
    1551     1561     1583     1602     1609     1617     1637     1655 
    1672     1684     1690     1699     1711     1717     1705     1694 
    1686     1667     1653     1649     1637     1628     1637     1648 
    1644     1640     1645     1647     1647     1644     1633     1624 
    1621     1622     1617     1614     1620     1629     1636     1638 
    1629     1609     1597     1591     1587     1584     1578     1575 
    1579     1584     1578     1559     1545     1539     1533     1528 
    1520     1516     1518     1524     1524     1521     1517     1520 
    1526     1529     1530     1529     1534     1551     1568     1576 
    1583     1598     1609     1613     1613     1607     1601     1591 
    1578     1552     1522     1495     1479     1472     1462     1459 
    1471     1486     1503     1518     1526     1528     1532     1543 
    1539     1525     1521     1520     1520     1524     1524     1529 
    1534     1541     1549     1540     1528     1517     1509     1506 
    1501     1502     1507     1526     1555     1574     1587     1601 
    1620     1642     1651     1648     1648     1645     1641     1640 
    1636     1629     1626     1637     1641     1625     1613     1598 
    1579     1563     1539     1518     1509     1509     1518     1524 
    1537     1559     1575     1594     1607     1605     1610     1624 
    1634     1638     1637     1641     1638     1633     1638     1632 
    1617     1610     1614     1615     1602     1597     1599     1601 
    1615     1615     1602     1606     1614     1621     1625     1626 
    1638     1649     1664     1679     1683     1687     1695     1699 
    1692     1675     1659     1644     1628     1620     1603     1586 
    1594     1611     1628     1640     1648     1663     1675     1678 
    1668     1656     1645     1632     1626     1628     1624     1625 
    1641     1660     1674     1686     1701     1706     1705     1698 
    1675     1648     1638     1634     1628     1625     1621     1615 
    1620     1618     1603     1586     1576     1572     1571     1572 
    1566     1560     1563     1559     1547     1526     1503     1485 
    1471     1448     1412     1381     1358     1340     1332     1331 
    1339     1362     1398     1432     1463     1490     1507     1525 
    1537     1530     1510     1491     1482     1479     1470     1462 
    1463     1467     1476     1489     1489     1493     1520     1549 
    1570     1588     1610     1630     1652     1668     1667     1653 
    1641     1630     1611     1588     1561     1537     1526     1518 
    1503     1493     1494     1497     1491     1486     1466     1440 
    1418     1395     1371     1350     1336     1335     1351     1381 
    1401     1428     1471     1509     1547     1584     1611     1626 
    1633     1633     1625     1615     1611     1617     1630     1645 
    1661     1684     1719     1755     1782     1798     1807     1814 
    1815     1796     1775     1761     1750     1742     1740     1737 
    1734     1740     1753     1757     1753     1749     1741     1738 
    1738     1729     1714     1702     1701     1694     1676     1655 
    1630     1601     1567     1532     1495     1463     1449     1455 
    1460     1470     1487     1507     1529     1549     1561     1567 
    1563     1555     1544     1524     1497     1482     1487     1494 
    1501     1517     1530     1544     1555     1556     1548     1539 
    1536     1541     1544     1543     1548     1555     1560     1563 
    1556     1544     1532     1528     1522     1516     1512     1514 
    1524     1530     1537     1551     1561     1579     1595     1599 
    1602     1599     1601     1605     1601     1599     1601     1613 
    1640     1660     1679     1698     1717     1730     1726     1713 
    1695     1674     1664     1655     1637     1628     1625     1633 
    1647     1660     1668     1672     1675     1672     1661     1644 
    1613     1584     1557     1518     1482     1451     1429     1422 
    1417     1410     1410     1422     1444     1462     1476     1487 
    1498     1518     1532     1533     1537     1551     1567     1578 
    1578     1570     1559     1557     1555     1547     1549     1563 
    1583     1607     1636     1660     1671     1684     1699     1695 
    1679     1661     1653     1648     1637     1630     1624     1621 
    1630     1630     1624     1618     1611     1601     1587     1571 
    1552     1532     1524     1524     1518     1513     1510     1509 
    1517     1526     1532     1548     1575     1605     1632     1657 
    1680     1691     1702     1702     1678     1653     1634     1620 
    1618     1621     1626     1640     1660     1674     1669     1659 
    1641     1617     1591     1556     1513     1471     1449     1447 
    1447     1462     1490     1522     1553     1580     1597     1597 
    1603     1609     1598     1575     1548     1520     1502     1494 
    1487     1474     1470     1483     1485     1467     1451     1443 
    1436     1426     1426     1424     1425     1444     1467     1486 
    1505     1518     1540     1566     1574     1571     1567     1559 
    1553     1555     1556     1556     1566     1584     1597     1602 
    1601     1601     1609     1610     1610     1610     1614     1633 
    1663     1694     1717     1737     1761     1777     1783     1773 
    1753     1734     1709     1674     1638     1598     1564     1549 
    1530     1514     1502     1491     1498     1512     1520     1536 
    1564     1601     1632     1648     1659     1659     1655     1647 
    1628     1606     1586     1571     1553     1530     1516     1502 
    1494     1507     1517     1528     1541     1551     1566     1564 
    1551     1544     1533     1529     1525     1510     1499     1485 
    1483     1490     1480     1485     1495     1509     1536     1556 
    1570     1584     1603     1620     1617     1617     1610     1588 
    1582     1579     1564     1556     1551     1553     1561     1567 
    1579     1601     1636     1674     1699     1718     1733     1745 
    1759     1756     1746     1742     1744     1753     1755     1744 
    1734     1719     1699     1676     1647     1624     1606     1595 
    1595     1593     1586     1580     1570     1559     1540     1510 
    1486     1463     1441     1412     1377     1358     1359     1378 
    1406     1439     1485     1529     1561     1588     1595     1588 
    1587     1583     1578     1566     1549     1544     1544     1545 
    1548     1548     1561     1575     1580     1579     1568     1568 
    1578     1587     1597     1606     1614     1621     1630     1638 
    1629     1617     1609     1598     1584     1560     1540     1536 
    1540     1551     1574     1598     1632     1669     1695     1696 
    1679     1659     1632     1594     1556     1517     1480     1460 
    1452     1453     1467     1494     1534     1580     1622     1656 
    1678     1691     1695     1680     1655     1621     1590     1560 
    1528     1506     1485     1475     1491     1513     1536     1559 
    1588     1625     1655     1675     1687     1694     1699     1688 
    1668     1636     1583     1539     1503     1467     1440     1433 
    1449     1474     1506     1540     1566     1599     1630     1648 
    1656     1652     1644     1637     1626     1609     1586     1570 
    1561     1540     1516     1493     1462     1444     1436     1428 
    1426     1429     1452     1482     1502     1521     1534     1544 
    1553     1555     1552     1544     1534     1533     1539     1553 
    1571     1590     1630     1675     1705     1728     1750     1775 
    1787     1788     1783     1773     1764     1750     1737     1725 
    1707     1699     1707     1714     1715     1719     1732     1750 
    1755     1750     1742     1721     1701     1679     1647     1609 
    1568     1540     1510     1476     1449     1425     1414     1416 
    1413     1417     1424     1437     1463     1482     1497     1509 
    1525     1553     1566     1567     1568     1568     1571     1566 
    1552     1540     1529     1526     1528     1526     1524     1520 
    1521     1521     1513     1498     1482     1470     1452     1428 
    1409     1395     1393     1397     1399     1399     1398     1408 
    1426     1443     1453     1463     1479     1498     1518     1530 
    1534     1545     1555     1564     1567     1561     1567     1588 
    1615     1644     1679     1717     1753     1783     1802     1806 
    1800     1798     1787     1764     1733     1699     1671     1651 
    1637     1630     1618     1617     1632     1647     1659     1671 
    1687     1703     1713     1715     1711     1702     1698     1690 
    1669     1651     1636     1628     1625     1625     1625     1628 
    1645     1660     1667     1679     1679     1676     1682     1678 
    1655     1621     1593     1563     1530     1509     1486     1471 
    1480     1493     1509     1528     1549     1567     1582     1602 
    1599     1591     1597     1593     1575     1552     1528     1509 
    1487     1474     1459     1435     1421     1418     1413     1410 
    1412     1422     1439     1462     1482     1491     1499     1505 
    1501     1494     1463     1424     1394     1362     1329     1301 
    1286     1287     1289     1305     1331     1343     1364     1397 
    1420     1439     1452     1471     1491     1507     1521     1526 
    1537     1560     1576     1594     1614     1626     1636     1644 
    1659     1668     1669     1687     1710     1719     1721     1725 
    1723     1710     1698     1682     1651     1634     1637     1640 
    1640     1638     1647     1664     1669     1672     1665     1651 
    1649     1649     1644     1637     1628     1630     1636     1630 
    1621     1618     1630     1644     1663     1684     1698     1713 
    1737     1750     1757     1765     1761     1753     1748     1730 
    1705     1687     1679     1674     1676     1680     1680     1690 
    1710     1719     1717     1721     1729     1728     1722     1713 
    1696     1683     1682     1680     1674     1671     1667     1659 
    1653     1640     1620     1595     1575     1560     1544     1526 
    1507     1499     1499     1495     1494     1498     1505     1521 
    1529     1528     1525     1522     1524     1525     1524     1521 
    1520     1526     1528     1526     1525     1514     1516     1521 
    1514     1501     1485     1476     1468     1456     1444     1425 
    1413     1413     1412     1409     1406     1414     1429     1443 
    1458     1467     1471     1485     1499     1505     1505     1507 
    1520     1532     1543     1556     1574     1595     1620     1647 
    1664     1669     1682     1699     1701     1692     1676     1657 
    1644     1632     1624     1621     1624     1633     1644     1652 
    1656     1663     1671     1676     1675     1667     1651     1634 
    1625     1611     1595     1591     1598     1615     1634     1647 
    1660     1674     1692     1703     1702     1695     1688     1688 
    1692     1690     1684     1679     1683     1688     1682     1674 
    1661     1653     1656     1653     1645     1636     1624     1622 
    1614     1597     1579     1561     1549     1528     1499     1476 
    1451     1432     1417     1398     1383     1374     1377     1386 
    1393     1402     1410     1424     1445     1463     1471     1475 
    1489     1513     1528     1537     1545     1549     1557     1564 
    1561     1547     1539     1533     1529     1526     1521     1524 
    1534     1553     1571     1571     1575     1582     1579     1566 
    1540     1507     1490     1480     1466     1455     1456     1470 
    1487     1505     1514     1514     1529     1553     1571     1579 
    1580     1583     1588     1588     1586     1579     1566     1557 
    1556     1547     1529     1517     1521     1524     1526     1533 
    1534     1541     1549     1556     1560     1553     1548     1549 
    1541     1532     1522     1520     1532     1540     1549     1571 
    1595     1628     1659     1683     1703     1707     1713     1719 
    1710     1691     1660     1637     1618     1588     1563     1543 
    1532     1533     1537     1541     1541     1543     1555     1557 
    1555     1555     1547     1548     1549     1545     1544     1541 
    1555     1580     1594     1605     1618     1638     1664     1678 
    1692     1709     1723     1742     1755     1757     1761     1760 
    1761     1761     1744     1723     1705     1692     1684     1668 
    1657     1652     1652     1659     1659     1653     1652     1656 
    1663     1663     1655     1641     1633     1636     1628     1615 
    1610     1606     1611     1615     1609     1605     1605     1610 
    1618     1613     1611     1610     1609     1621     1632     1633 
    1640     1651     1665     1669     1660     1648     1637     1633 
    1622     1603     1583     1556     1547     1551     1541     1536 
    1540     1548     1563     1571     1560     1547     1543     1537 
    1522     1510     1502     1495     1503     1510     1512     1516 
    1526     1544     1555     1560     1570     1574     1575     1576 
    1567     1551     1540     1530     1522     1512     1499     1497 
    1501     1509     1516     1522     1539     1555     1574     1591 
    1593     1590     1603     1615     1618     1618     1615     1610 
    1603     1593     1572     1545     1536     1529     1518     1517 
    1510     1512     1524     1540     1559     1566     1576     1593 
    1598     1593     1576     1561     1552     1544     1540     1529 
    1518     1518     1524     1528     1524     1513     1507     1502 
    1497     1489     1472     1466     1471     1474     1468     1459 
    1464     1476     1486     1499     1507     1514     1524     1534 
    1540     1533     1524     1514     1503     1491     1467     1445 
    1431     1418     1417     1413     1399     1401     1412     1421 
    1426     1428     1437     1455     1471     1476     1474     1471 
    1470     1475     1482     1480     1487     1510     1533     1555 
    1578     1598     1624     1652     1676     1690     1690     1696 
    1705     1705     1701     1692     1690     1686     1684     1692 
    1687     1690     1703     1713     1721     1719     1722     1742 
    1752     1749     1745     1744     1748     1749     1752     1746 
    1737     1734     1740     1744     1738     1736     1740     1744 
    1748     1741     1728     1713     1702     1695     1686     1672 
    1663     1664     1672     1678     1688     1694     1702     1713 
    1725     1737     1728     1718     1722     1707     1682     1657 
    1632     1607     1582     1561     1537     1514     1520     1529 
    1534     1547     1556     1571     1586     1598     1603     1584 
    1574     1572     1551     1528     1506     1489     1476     1460 
    1451     1435     1418     1420     1414     1401     1391     1386 
    1389     1391     1405     1421     1433     1462     1490     1507 
