Origin Time       2025/06/03 22:18:00
Lat.              41.7
Long.             143.6
Depth. (km)       30
Mag.              5.2
Station Code      SRCH10
Station Lat.      42.9930
Station Long.     142.0085
Station Height(m) -5
Record Time       2025/06/03 22:19:24
Sampling Freq(Hz) 100Hz
Duration Time(s)  120
Dir.              3
Scale Factor      2942(gal)/8224139
Max. Acc. (gal)   0.161
Last Correction   2025/06/03 22:19:25
Memo.             
[...]
   72469    72466    72472    72490    72468    72465    72468    72438 
   72453    72474    72451    72451    72468    72468    72450    72427 
   72432    72434    72404    72416    72436    72403    72399    72397 
   72341    72334    72376    72387    72381    72347    72327    72372 
   72389    72376    72397    72387    72368    72407    72424    72430 
   72453    72428    72397    72404    72403    72411    72431    72424 
   72426    72426    72442    72492    72466    72424    72453    72459 
   72461    72454    72411    72478    72588    72507    72416    72488 
   72522    72490    72489    72477    72465    72492    72543    72543 
   72481    72474    72501    72474    72458    72463    72442    72443 
   72470    72496    72509    72468    72427    72451    72457    72438 
   72422    72366    72347    72391    72418    72412    72387    72414 
   72466    72432    72397    72409    72393    72404    72432    72384 
   72316    72328    72382    72355    72318    72362    72354    72349 
   72403    72378    72324    72338    72374    72382    72364    72370 
   72385    72396    72409    72405    72401    72393    72392    72401 
   72392    72393    72408    72428    72462    72463    72450    72473 
   72461    72401    72411    72472    72478    72455    72505    72544 
   72508    72509    72527    72507    72539    72600    72588    72523 
   72517    72577    72589    72566    72598    72598    72530    72530 
   72570    72534    72508    72532    72532    72515    72501    72505 
   72542    72571    72555    72512    72527    72574    72526    72472 
   72504    72493    72461    72485    72486    72454    72428    72415 
   72404    72387    72376    72387    72382    72362    72370    72400 
   72396    72349    72335    72357    72339    72331    72346    72324 
   72300    72288    72289    72330    72327    72296    72337    72349 
   72306    72285    72284    72295    72301    72316    72345    72347 
   72353    72366    72364    72362    72365    72397    72416    72373 
   72357    72372    72350    72346    72366    72358    72374    72418 
   72393    72376    72432    72449    72432    72450    72458    72465 
   72469    72457    72469    72462    72430    72435    72463    72484 
   72473    72446    72454    72463    72465    72455    72439    72490 
   72499    72432    72470    72480    72382    72388    72446    72426 
   72396    72395    72399    72408    72419    72422    72423    72434 
   72415    72392    72418    72423    72384    72373    72396    72434 
   72430    72369    72370    72416    72393    72355    72374    72404 
   72395    72366    72362    72372    72385    72401    72420    72438 
   72414    72388    72436    72465    72423    72419    72447    72457 
   72488    72515    72509    72500    72495    72500    72497    72489 
   72496    72484    72470    72473    72453    72443    72473    72462 
   72427    72435    72451    72446    72435    72426    72414    72400 
   72387    72381    72401    72434    72445    72459    72458    72381 
   72353    72446    72492    72458    72473    72488    72438    72451 
   72507    72489    72501    72530    72470    72454    72486    72457 
   72481    72520    72454    72459    72532    72489    72428    72480 
   72526    72473    72436    72461    72419    72358    72393    72432 
   72449    72449    72388    72370    72409    72412    72393    72366 
   72380    72414    72385    72396    72474    72472    72441    72455 
   72447    72473    72497    72441    72472    72539    72489    72480 
   72512    72493    72493    72474    72445    72470    72481    72470 
   72488    72474    72431    72428    72424    72430    72449    72411 
   72399    72422    72389    72381    72441    72446    72380    72360 
   72388    72391    72372    72376    72414    72430    72395    72388 
   72447    72450    72431    72512    72501    72384    72419    72511 
   72492    72484    72527    72522    72500    72508    72493    72468 
   72454    72436    72441    72443    72415    72426    72449    72396 
   72347    72364    72397    72381    72308    72320    72370    72319 
   72312    72328    72272    72299    72338    72283    72289    72346 
   72343    72308    72283    72291    72297    72257    72225    72230 
   72237    72212    72199    72249    72280    72249    72237    72238 
   72243    72273    72284    72324    72409    72414    72395    72420 
   72400    72403    72476    72504    72504    72516    72482    72490 
   72558    72526    72508    72570    72569    72570    72580    72517 
   72507    72553    72543    72528    72543    72528    72501    72500 
   72517    72544    72551    72531    72507    72508    72534    72535 
   72540    72565    72534    72505    72531    72573    72589    72536 
   72528    72611    72620    72571    72582    72601    72581    72566 
   72563    72547    72519    72474    72457    72505    72515    72436 
   72409    72445    72443    72438    72420    72373    72374    72373 
   72339    72360    72370    72355    72374    72364    72354    72382 
   72374    72360    72384    72387    72361    72350    72365    72411 
   72419    72337    72326    72411    72416    72357    72347    72396 
   72399    72357    72395    72415    72328    72300    72368    72389 
   72343    72354    72376    72310    72297    72345    72351    72357 
   72342    72343    72365    72366    72389    72372    72353    72442 
   72454    72369    72401    72462    72441    72409    72384    72391 
   72420    72405    72397    72408    72412    72449    72466    72414 
   72416    72493    72465    72400    72435    72419    72358    72395 
   72455    72466    72439    72426    72428    72380    72327    72351 
   72457    72476    72362    72399    72497    72454    72465    72490 
   72447    72459    72463    72438    72436    72446    72469    72466 
   72458    72490    72489    72469    72497    72515    72476    72449 
   72468    72486    72482    72480    72492    72493    72489    72504 
   72508    72492    72476    72482    72547    72578    72530    72530 
   72540    72503    72496    72512    72567    72593    72495    72472 
   72528    72492    72477    72500    72468    72449    72455    72441 
   72418    72409    72424    72427    72416    72420    72428    72419 
   72397    72391    72395    72397    72401    72423    72438    72424 
   72430    72439    72412    72416    72434    72428    72454    72476 
   72472    72493    72519    72497    72463    72492    72524    72497 
   72490    72520    72531    72544    72573    72561    72530    72528 
   72535    72536    72535    72546    72574    72574    72554    72566 
   72573    72578    72598    72561    72526    72565    72561    72513 
   72531    72544    72504    72500    72496    72461    72468    72486 
   72473    72470    72463    72442    72422    72404    72420    72430 
   72389    72377    72376    72345    72328    72342    72346    72319 
   72314    72303    72269    72270    72260    72238    72270    72307 
   72277    72212    72247    72314    72276    72266    72307    72299 
   72323    72357    72335    72341    72374    72381    72382    72401 
   72409    72407    72426    72455    72463    72469    72480    72480 
   72500    72515    72492    72482    72481    72499    72530    72509 
   72520    72569    72554    72540    72551    72530    72522    72522 
   72505    72513    72536    72543    72550    72553    72535    72524 
   72536    72547    72543    72549    72569    72534    72472    72477 
   72492    72492    72507    72481    72453    72435    72408    72424 
   72442    72428    72418    72419    72439    72453    72468    72469 
   72401    72378    72445    72428    72327    72326    72405    72420 
   72392    72399    72400    72361    72362    72396    72387    72404 
   72419    72319    72237    72280    72291    72218    72233    72265 
   72183    72184    72285    72270    72231    72280    72281    72242 
   72254    72269    72264    72288    72333    72339    72307    72312 
   72385    72399    72328    72355    72449    72466    72477    72473 
   72420    72474    72540    72466    72511    72621    72528    72512 
   72604    72544    72493    72530    72559    72563    72535    72555 
   72576    72532    72551    72605    72593    72565    72571    72611 
   72642    72631    72621    72636    72630    72608    72620    72628 
   72584    72567    72607    72611    72561    72516    72523    72553 
   72536    72505    72524    72526    72482    72465    72446    72393 
   72350    72304    72283    72320    72334    72280    72234    72227 
   72234    72233    72211    72189    72188    72208    72222    72199 
   72176    72193    72241    72219    72156    72187    72222    72214 
   72250    72252    72239    72269    72264    72268    72289    72266 
   72258    72281    72289    72311    72311    72265    72274    72326 
   72342    72333    72330    72354    72347    72333    72370    72368 
   72334    72347    72362    72373    72408    72424    72415    72428 
   72476    72501    72466    72438    72457    72462    72495    72528 
   72486    72486    72550    72538    72472    72489    72554    72523 
   72485    72578    72644    72585    72550    72554    72554    72567 
   72551    72535    72544    72534    72534    72543    72546    72561 
   72582    72567    72523    72540    72581    72547    72553    72580 
   72512    72488    72519    72480    72476    72516    72493    72458 
   72465    72480    72490    72505    72523    72546    72546    72505 
   72496    72531    72527    72516    72517    72488    72481    72501 
   72478    72466    72497    72489    72484    72553    72539    72436 
   72453    72503    72461    72420    72382    72399    72488    72493 
   72480    72512    72446    72378    72436    72442    72412    72473 
   72486    72387    72296    72283    72365    72449    72377    72220 
   72220    72322    72276    72183    72214    72220    72191    72230 
   72229    72189    72200    72183    72144    72165    72172    72150 
   72185    72157    72114    72196    72192    72134    72196    72180 
   72106    72145    72188    72152    72119    72144    72156    72148 
   72192    72204    72161    72177    72229    72250    72249    72269 
   72333    72349    72308    72343    72439    72476    72466    72495 
   72526    72528    72544    72557    72555    72562    72594    72662 
   72700    72663    72652    72702    72728    72720    72728    72771 
   72808    72778    72783    72829    72802    72800    72851    72821 
   72763    72754    72748    72721    72704    72740    72729    72643 
   72627    72617    72539    72492    72462    72459    72492    72447 
   72357    72354    72372    72316    72295    72357    72338    72260 
   72281    72307    72266    72246    72272    72323    72319    72234 
   72227    72285    72280    72270    72315    72354    72374    72399 
   72426    72445    72469    72513    72517    72447    72418    72495 
   72549    72511    72493    72528    72531    72512    72539    72557 
   72554    72562    72536    72507    72511    72526    72557    72585 
   72605    72603    72576    72611    72643    72613    72604    72596 
   72573    72566    72574    72597    72598    72598    72603    72563 
   72551    72588    72611    72624    72605    72576    72571    72539 
   72527    72542    72517    72509    72501    72465    72454    72473 
   72457    72424    72439    72442    72403    72401    72436    72447 
   72431    72439    72445    72409    72408    72432    72415    72399 
   72400    72403    72419    72395    72377    72436    72423    72377 
   72443    72468    72427    72454    72454    72405    72403    72380 
   72334    72345    72337    72281    72257    72258    72268    72260 
   72223    72188    72168    72181    72214    72226    72226    72225 
   72223    72230    72233    72223    72202    72192    72225    72260 
   72260    72249    72304    72370    72343    72322    72345    72350 
   72400    72431    72397    72431    72485    72480    72501    72515 
   72469    72454    72495    72520    72499    72477    72482    72481 
   72484    72497    72478    72439    72446    72478    72473    72447 
   72430    72434    72485    72530    72497    72474    72543    72571 
   72534    72543    72555    72553    72574    72561    72540    72577 
   72601    72594    72584    72530    72481    72495    72501    72461 
   72436    72445    72431    72414    72376    72319    72304    72287 
   72287    72376    72396    72277    72242    72341    72377    72358 
   72392    72392    72361    72399    72423    72430    72504    72538 
   72532    72593    72585    72526    72559    72604    72609    72598 
   72603    72630    72616    72616    72617    72574    72569    72567 
   72558    72581    72544    72477    72486    72501    72453    72426 
   72436    72414    72372    72357    72328    72264    72256    72307 
   72283    72233    72247    72243    72216    72188    72162    72161 
   72145    72146    72154    72115    72121    72161    72135    72081 
   72075    72127    72139    72092    72127    72156    72115    72153 
   72173    72125    72157    72188    72157    72212    72320    72320 
   72291    72330    72354    72370    72412    72439    72485    72516 
   72485    72527    72600    72574    72596    72686    72673    72650 
   72719    72758    72751    72759    72785    72800    72797    72835 
   72851    72820    72855    72886    72851    72825    72821    72837 
   72848    72813    72789    72773    72720    72711    72719    72670 
   72646    72658    72608    72517    72492    72524    72504    72445 
   72459    72503    72418    72310    72376    72412    72335    72360 
   72369    72280    72301    72378    72346    72312    72331    72303 
   72261    72265    72287    72307    72327    72330    72318    72351 
   72409    72404    72378    72412    72430    72370    72354    72387 
   72364    72349    72370    72347    72327    72351    72387    72420 
   72404    72350    72343    72351    72339    72366    72395    72368 
   72364    72372    72327    72306    72354    72393    72404    72411 
   72435    72453    72427    72454    72493    72446    72463    72503 
   72478    72507    72526    72503    72503    72489    72478    72474 
   72463    72469    72455    72436    72466    72492    72450    72400 
   72426    72465    72418    72369    72411    72430    72404    72430 
   72419    72389    72438    72455    72407    72404    72408    72389 
   72411    72447    72459    72466    72473    72489    72511    72519 
   72538    72569    72557    72526    72544    72562    72527    72511 
   72535    72535    72519    72522    72538    72523    72480    72488 
   72544    72540    72495    72526    72561    72515    72507    72554 
   72580    72571    72513    72484    72549    72577    72509    72488 
   72523    72497    72457    72463    72455    72472    72513    72485 
   72449    72443    72450    72453    72391    72392    72468    72445 
   72389    72346    72314    72355    72372    72342    72324    72300 
   72333    72400    72373    72320    72319    72311    72280    72269 
   72279    72242    72188    72176    72142    72125    72141    72107 
   72096    72118    72100    72111    72144    72142    72150    72183 
   72200    72212    72253    72270    72283    72328    72353    72376 
   72401    72395    72434    72500    72481    72466    72532    72543 
   72532    72625    72661    72588    72566    72590    72624    72638 
   72617    72632    72624    72590    72603    72594    72581    72569 
   72535    72554    72561    72490    72486    72549    72538    72488 
   72492    72495    72457    72463    72480    72438    72455    72503 
   72435    72403    72493    72482    72426    72478    72480    72439 
   72484    72519    72532    72563    72565    72567    72590    72574 
   72544    72551    72559    72551    72551    72546    72546    72551 
   72532    72522    72511    72476    72469    72469    72489    72513 
   72453    72427    72485    72500    72495    72485    72466    72503 
   72534    72503    72497    72528    72539    72539    72547    72569 
   72577    72551    72553    72562    72503    72463    72492    72468 
   72424    72458    72454    72382    72395    72434    72404    72378 
   72376    72370    72389    72381    72337    72357    72405    72392 
   72376    72401    72439    72443    72422    72414    72420    72435 
   72418    72399    72427    72423    72397    72391    72369    72368 
   72381    72381    72380    72345    72296    72292    72315    72295 
   72233    72222    72285    72333    72308    72254    72270    72312 
   72296    72301    72330    72338    72345    72345    72361    72365 
   72346    72361    72365    72351    72384    72407    72387    72387 
   72377    72366    72415    72418    72370    72403    72447    72430 
   72436    72472    72459    72418    72414    72466    72489    72426 
   72426    72504    72482    72463    72519    72504    72470    72468 
   72459    72470    72462    72462    72500    72465    72387    72447 
   72557    72495    72446    72482    72414    72418    72486    72441 
   72438    72461    72445    72468    72472    72455    72477    72519 
   72512    72463    72476    72505    72495    72517    72555    72535 
   72523    72581    72615    72570    72553    72600    72617    72586 
   72581    72593    72563    72551    72550    72528    72569    72580 
   72543    72584    72582    72519    72540    72557    72497    72486 
   72513    72474    72441    72462    72462    72449    72449    72435 
   72400    72377    72419    72455    72400    72361    72370    72342 
   72339    72345    72323    72333    72312    72287    72295    72284 
   72280    72239    72212    72289    72312    72272    72307    72320 
   72299    72350    72389    72365    72370    72393    72399    72420 
   72439    72434    72457    72508    72535    72526    72503    72497 
   72500    72493    72481    72478    72530    72586    72573    72520 
   72480    72511    72566    72522    72489    72528    72520    72477 
   72462    72523    72553    72461    72441    72522    72553    72524 
   72485    72509    72547    72530    72526    72528    72519    72530 
   72520    72504    72523    72543    72536    72516    72489    72481 
   72519    72516    72441    72458    72512    72453    72419    72449 
   72441    72430    72419    72395    72391    72392    72389    72387 
   72374    72361    72335    72316    72341    72364    72353    72318 
   72281    72307    72349    72324    72308    72318    72280    72285 
   72361    72349    72299    72333    72381    72387    72353    72341 
   72382    72373    72353    72374    72365    72368    72377    72354 
   72357    72350    72330    72335    72338    72308    72304    72354 
   72334    72256    72277    72334    72322    72308    72338    72346 
   72324    72355    72423    72432    72403    72412    72461    72472 
   72461    72499    72527    72511    72513    72527    72528    72523 
   72505    72488    72504    72539    72517    72480    72495    72500 
   72477    72476    72485    72482    72477    72490    72507    72472 
   72419    72436    72462    72428    72446    72507    72480    72436 
