Origin Time       2025/06/03 22:18:00
Lat.              41.7
Long.             143.6
Depth. (km)       30
Mag.              5.2
Station Code      SRCH10
Station Lat.      42.9930
Station Long.     142.0085
Station Height(m) 195
Record Time       2025/06/03 22:19:24
Sampling Freq(Hz) 100Hz
Duration Time(s)  120
Dir.              5
Scale Factor      7845(gal)/8223790
Max. Acc. (gal)   0.268
Last Correction   2025/06/03 22:19:25
Memo.             
[...]
   21270    21270    21271    21269    21270    21276    21281    21286 
   21293    21292    21289    21285    21281    21278    21280    21281 
   21280    21278    21276    21271    21273    21273    21271    21273 
   21274    21273    21269    21266    21265    21263    21261    21257 
   21250    21243    21234    21227    21224    21219    21209    21196 
   21185    21177    21173    21176    21185    21190    21188    21182 
   21181    21181    21184    21189    21195    21197    21200    21203 
   21201    21204    21212    21222    21232    21242    21250    21257 
   21265    21274    21288    21300    21311    21316    21316    21316 
   21313    21309    21307    21303    21297    21297    21296    21293 
   21297    21297    21293    21286    21278    21274    21269    21266 
   21265    21263    21258    21249    21236    21228    21230    21236 
   21242    21244    21240    21234    21235    21239    21243    21249 
   21253    21251    21247    21246    21247    21242    21234    21224 
   21212    21203    21195    21185    21180    21174    21172    21172 
   21170    21170    21178    21188    21199    21211    21223    21234 
   21238    21236    21239    21243    21247    21253    21258    21259 
   21262    21266    21270    21269    21269    21270    21273    21274 
   21277    21281    21285    21288    21288    21282    21278    21277 
   21277    21278    21274    21269    21259    21246    21234    21231 
   21230    21230    21232    21231    21227    21224    21223    21223 
   21227    21238    21249    21255    21262    21267    21274    21280 
   21281    21280    21278    21277    21269    21258    21254    21254 
   21251    21249    21240    21230    21226    21226    21227    21232 
   21236    21236    21235    21235    21240    21244    21244    21240 
   21235    21234    21236    21239    21246    21255    21259    21259 
   21261    21263    21266    21267    21267    21269    21269    21269 
   21271    21274    21277    21276    21266    21257    21247    21236 
   21230    21228    21226    21226    21227    21227    21224    21219 
   21215    21209    21205    21204    21208    21212    21216    21222 
   21228    21234    21238    21240    21239    21239    21240    21244 
   21250    21255    21258    21261    21267    21273    21277    21281 
   21282    21282    21281    21277    21277    21277    21273    21270 
   21263    21254    21249    21242    21236    21238    21242    21247 
   21253    21254    21251    21244    21235    21228    21226    21223 
   21219    21215    21212    21212    21216    21226    21234    21240 
   21249    21257    21262    21269    21278    21289    21297    21307 
   21312    21308    21307    21307    21305    21305    21307    21307 
   21308    21309    21307    21303    21297    21292    21284    21276 
   21263    21250    21239    21227    21216    21215    21216    21216 
   21217    21217    21220    21234    21244    21246    21250    21253 
   21251    21254    21258    21257    21249    21238    21226    21217 
   21213    21215    21220    21226    21226    21220    21216    21219 
   21228    21243    21257    21263    21262    21258    21253    21250 
   21249    21244    21239    21232    21223    21213    21207    21205 
   21204    21199    21195    21193    21193    21196    21200    21203 
   21203    21204    21211    21223    21239    21253    21262    21266 
   21262    21259    21259    21259    21261    21263    21258    21247 
   21238    21234    21232    21232    21235    21235    21234    21234 
   21236    21239    21243    21247    21247    21247    21247    21251 
   21259    21267    21269    21267    21269    21271    21277    21282 
   21290    21297    21296    21290    21289    21290    21293    21292 
   21286    21280    21269    21257    21250    21250    21251    21250 
   21249    21251    21250    21250    21254    21258    21261    21259 
   21257    21250    21244    21240    21239    21236    21234    21230 
   21230    21234    21235    21236    21238    21236    21235    21236 
   21242    21247    21253    21261    21265    21266    21270    21273 
   21278    21281    21280    21274    21270    21269    21266    21263 
   21261    21253    21238    21228    21217    21207    21199    21193 
   21184    21177    21177    21178    21184    21193    21203    21209 
   21215    21219    21228    21239    21244    21247    21249    21249 
   21246    21244    21246    21254    21261    21267    21270    21267 
   21270    21276    21280    21284    21284    21276    21267    21259 
   21251    21247    21249    21246    21240    21238    21235    21232 
   21235    21239    21236    21235    21236    21234    21230    21230 
   21231    21230    21227    21224    21224    21228    21234    21235 
   21232    21228    21220    21215    21219    21228    21235    21238 
   21238    21231    21228    21230    21232    21236    21239    21242 
   21243    21243    21247    21257    21270    21281    21285    21288 
   21292    21298    21304    21307    21301    21296    21292    21289 
   21292    21297    21298    21297    21290    21281    21276    21274 
   21271    21269    21265    21261    21253    21244    21238    21234 
   21231    21228    21222    21223    21228    21232    21239    21251 
   21255    21257    21257    21253    21250    21247    21243    21244 
   21246    21243    21242    21243    21246    21249    21249    21244 
   21243    21244    21246    21249    21251    21247    21240    21235 
   21230    21230    21231    21228    21227    21227    21228    21235 
   21240    21244    21247    21249    21246    21242    21242    21246 
   21250    21255    21257    21251    21246    21242    21240    21243 
   21243    21240    21235    21232    21232    21231    21231    21236 
   21239    21243    21249    21251    21253    21257    21261    21261 
   21258    21255    21251    21250    21250    21249    21249    21246 
   21235    21227    21224    21226    21230    21228    21227    21226 
   21219    21220    21230    21239    21250    21259    21262    21259 
   21258    21257    21255    21253    21251    21247    21246    21244 
   21243    21244    21246    21247    21254    21262    21265    21271 
   21281    21285    21290    21294    21290    21289    21293    21292 
   21286    21282    21278    21271    21266    21265    21269    21269 
   21267    21266    21263    21262    21266    21267    21267    21267 
   21265    21259    21259    21259    21257    21254    21246    21232 
   21226    21223    21223    21224    21222    21216    21213    21211 
   21207    21208    21213    21217    21219    21213    21207    21204 
   21205    21205    21211    21216    21222    21227    21231    21230 
   21228    21227    21224    21223    21220    21219    21217    21215 
   21211    21205    21201    21200    21203    21209    21219    21231 
   21243    21253    21258    21265    21276    21284    21293    21307 
   21316    21321    21327    21330    21328    21327    21323    21317 
   21311    21300    21292    21282    21266    21253    21239    21226 
   21213    21208    21200    21193    21193    21192    21186    21184 
   21181    21178    21180    21182    21188    21196    21204    21208 
   21213    21219    21222    21227    21234    21238    21244    21251 
   21254    21258    21263    21262    21261    21259    21259    21261 
   21261    21265    21265    21261    21259    21259    21257    21250 
   21243    21236    21231    21226    21220    21216    21212    21207 
   21208    21219    21226    21226    21224    21223    21222    21226 
   21232    21240    21249    21258    21263    21265    21273    21282 
   21286    21290    21290    21284    21280    21281    21282    21284 
   21281    21276    21271    21266    21265    21270    21273    21270 
   21267    21267    21267    21267    21271    21278    21280    21274 
   21267    21262    21262    21263    21265    21267    21269    21266 
   21261    21255    21251    21247    21242    21231    21222    21216 
   21216    21222    21228    21234    21230    21219    21209    21205 
   21205    21212    21223    21228    21231    21231    21232    21234 
   21236    21239    21236    21224    21211    21201    21199    21204 
   21211    21213    21209    21207    21208    21215    21228    21240 
   21246    21243    21239    21240    21243    21247    21257    21259 
   21251    21242    21231    21222    21217    21216    21213    21205 
   21197    21189    21185    21192    21203    21209    21213    21217 
   21222    21230    21243    21262    21277    21282    21282    21282 
   21281    21284    21289    21292    21293    21289    21282    21276 
   21270    21266    21266    21270    21276    21278    21281    21286 
   21292    21293    21293    21293    21293    21292    21289    21286 
   21288    21288    21285    21285    21288    21288    21289    21292 
   21292    21292    21292    21290    21293    21296    21293    21289 
   21288    21284    21278    21277    21277    21274    21274    21276 
   21278    21284    21288    21289    21294    21298    21300    21304 
   21309    21311    21311    21311    21309    21313    21321    21327 
   21331    21334    21331    21324    21320    21315    21305    21296 
   21286    21277    21269    21262    21263    21262    21254    21249 
   21242    21235    21232    21230    21230    21228    21223    21209 
   21195    21186    21184    21182    21181    21178    21173    21170 
   21168    21170    21182    21193    21197    21197    21196    21197 
   21204    21217    21232    21244    21253    21258    21263    21266 
   21269    21276    21280    21274    21267    21266    21271    21276 
   21278    21280    21277    21271    21266    21263    21267    21277 
   21286    21292    21296    21301    21301    21304    21312    21315 
   21316    21320    21317    21311    21305    21300    21293    21290 
   21290    21289    21289    21294    21298    21303    21305    21303 
   21296    21288    21281    21273    21263    21254    21242    21230 
   21219    21207    21196    21185    21173    21157    21139    21127 
   21122    21126    21136    21145    21149    21154    21157    21161 
   21169    21177    21177    21181    21188    21190    21190    21195 
   21196    21199    21203    21204    21205    21208    21205    21200 
   21196    21193    21192    21188    21184    21185    21189    21190 
   21197    21208    21216    21228    21240    21246    21251    21258 
   21265    21271    21281    21292    21304    21313    21321    21332 
   21346    21357    21367    21374    21375    21379    21384    21385 
   21390    21393    21390    21386    21382    21377    21371    21365 
   21351    21332    21316    21303    21285    21270    21259    21251 
   21243    21239    21239    21240    21244    21250    21255    21258 
   21257    21253    21246    21235    21223    21207    21189    21169 
   21146    21122    21097    21073    21050    21033    21022    21016 
   21016    21016    21015    21018    21016    21012    21011    21006 
   21000    21000    21000    21000    21004    21010    21011    21015 
   21023    21033    21043    21058    21068    21077    21085    21092 
   21101    21115    21127    21138    21147    21158    21170    21185 
   21201    21220    21238    21250    21263    21276    21284    21293 
   21298    21300    21305    21313    21312    21313    21316    21317 
   21313    21305    21292    21278    21263    21247    21235    21228 
   21226    21226    21231    21240    21251    21263    21277    21285 
   21290    21296    21300    21305    21311    21313    21319    21327 
   21331    21332    21339    21344    21347    21352    21361    21362 
   21357    21350    21338    21331    21330    21323    21313    21308 
   21300    21292    21293    21303    21312    21323    21334    21339 
   21347    21361    21375    21385    21393    21397    21392    21379 
   21366    21352    21340    21334    21332    21338    21348    21366 
   21390    21415    21436    21455    21469    21479    21487    21489 
   21490    21492    21490    21483    21474    21466    21452    21439 
   21427    21408    21386    21362    21335    21307    21280    21249 
   21215    21184    21153    21126    21108    21097    21092    21095 
   21096    21095    21095    21095    21095    21095    21091    21084 
   21074    21065    21057    21049    21041    21035    21035    21039 
   21045    21047    21046    21045    21045    21047    21054    21062 
   21074    21095    21114    21130    21154    21181    21208    21235 
   21258    21280    21296    21305    21316    21324    21320    21313 
   21309    21300    21286    21276    21267    21258    21254    21247 
   21242    21242    21247    21262    21284    21312    21342    21373 
   21402    21429    21451    21469    21482    21490    21492    21481 
   21465    21447    21427    21409    21396    21384    21367    21348 
   21330    21319    21313    21309    21305    21297    21285    21270 
   21255    21242    21232    21224    21213    21199    21184    21173 
   21170    21173    21178    21182    21180    21173    21165    21158 
   21147    21134    21119    21103    21087    21076    21065    21057 
   21053    21049    21046    21047    21055    21068    21082    21100 
   21111    21116    21128    21139    21155    21184    21219    21253 
   21289    21327    21361    21394    21427    21454    21479    21502 
   21519    21525    21527    21528    21529    21528    21523    21512 
   21494    21465    21429    21394    21357    21315    21273    21235 
   21203    21172    21145    21124    21111    21100    21088    21078 
   21069    21062    21058    21057    21058    21065    21073    21082 
   21099    21123    21147    21172    21195    21215    21234    21254 
   21280    21307    21328    21342    21347    21350    21343    21332 
   21323    21309    21292    21273    21250    21230    21213    21196 
   21176    21159    21145    21131    21124    21120    21118    21115 
   21115    21112    21108    21103    21099    21095    21089    21084 
   21087    21100    21123    21149    21177    21211    21243    21269 
   21292    21311    21325    21339    21352    21358    21357    21352 
   21348    21343    21336    21328    21324    21328    21328    21324 
   21324    21319    21309    21301    21293    21282    21277    21271 
   21262    21257    21257    21255    21253    21249    21239    21227 
   21215    21200    21186    21180    21177    21174    21169    21170 
   21177    21185    21195    21205    21216    21230    21244    21257 
   21265    21270    21271    21269    21266    21263    21254    21242 
   21235    21230    21224    21224    21232    21239    21246    21253 
   21258    21262    21266    21267    21266    21258    21247    21236 
   21227    21220    21215    21213    21215    21219    21228    21238 
   21247    21259    21269    21274    21284    21289    21293    21300 
   21308    21311    21313    21316    21320    21327    21334    21343 
   21351    21361    21377    21393    21406    21423    21438    21447 
   21451    21447    21440    21432    21421    21412    21405    21405 
   21408    21411    21417    21428    21436    21442    21447    21450 
   21447    21439    21424    21402    21381    21362    21343    21324 
   21308    21293    21277    21262    21246    21224    21207    21189 
   21166    21151    21143    21132    21120    21112    21099    21088 
   21078    21069    21061    21055    21047    21037    21024    21016 
   21018    21023    21024    21023    21018    21011    21004    21003 
   21004    21008    21008    21003    21006    21015    21033    21053 
   21073    21089    21097    21101    21112    21127    21141    21155 
   21166    21170    21174    21182    21190    21193    21195    21193 
   21188    21184    21186    21189    21195    21201    21211    21219 
   21232    21250    21267    21288    21307    21319    21325    21332 
   21334    21338    21343    21348    21355    21359    21355    21350 
   21348    21346    21346    21347    21348    21347    21338    21325 
   21321    21316    21312    21316    21320    21320    21317    21308 
   21303    21300    21296    21292    21290    21288    21284    21278 
   21277    21277    21273    21274    21278    21280    21288    21296 
   21298    21303    21309    21315    21325    21342    21357    21369 
   21378    21385    21386    21388    21382    21375    21369    21358 
   21342    21331    21324    21316    21315    21316    21311    21304 
   21298    21286    21271    21261    21253    21246    21244    21249 
   21247    21244    21242    21239    21232    21226    21220    21209 
   21193    21176    21162    21149    21138    21132    21126    21115 
   21103    21089    21076    21062    21047    21034    21026    21022 
   21022    21026    21035    21055    21081    21108    21145    21184 
   21222    21257    21288    21311    21324    21336    21348    21362 
   21375    21381    21378    21373    21363    21354    21343    21332 
   21320    21308    21300    21298    21301    21305    21309    21312 
   21307    21300    21294    21289    21280    21267    21254    21235 
   21220    21215    21213    21215    21220    21231    21246    21262 
   21280    21300    21320    21339    21351    21355    21357    21357 
   21354    21352    21354    21351    21347    21342    21335    21325 
   21316    21303    21290    21282    21271    21258    21249    21244 
   21238    21230    21220    21207    21192    21177    21161    21149 
   21143    21141    21139    21139    21141    21139    21134    21127 
   21124    21122    21123    21123    21123    21126    21131    21131 
   21128    21122    21116    21108    21096    21085    21077    21069 
   21065    21064    21066    21074    21087    21103    21120    21138 
   21153    21172    21196    21217    21238    21254    21267    21273 
   21280    21288    21297    21305    21315    21321    21325    21331 
   21343    21355    21365    21375    21386    21397    21408    21419 
   21428    21436    21443    21444    21446    21452    21459    21465 
   21466    21460    21448    21432    21412    21396    21389    21385 
   21377    21366    21348    21327    21308    21289    21267    21247 
   21224    21201    21181    21170    21162    21153    21143    21135 
   21127    21122    21122    21128    21138    21145    21147    21150 
   21151    21153    21159    21166    21165    21162    21159    21155 
   21157    21162    21169    21174    21170    21159    21149    21132 
   21120    21112    21107    21101    21095    21091    21093    21105 
   21123    21147    21172    21192    21208    21226    21242    21259 
   21277    21293    21309    21320    21324    21328    21342    21355 
   21363    21366    21366    21358    21344    21335    21323    21315 
   21304    21284    21266    21258    21251    21249    21251    21254 
   21258    21265    21270    21278    21289    21297    21301    21305 
   21315    21321    21327    21335    21336    21325    21313    21298 
   21281    21266    21257    21244    21227    21207    21186    21169 
   21153    21142    21134    21126    21119    21111    21105    21109 
   21115    21118    21126    21135    21141    21147    21153    21161 
