Origin Time       2025/06/03 22:18:00
Lat.              41.7
Long.             143.6
Depth. (km)       30
Mag.              5.2
Station Code      SRCH08
Station Lat.      43.5138
Station Long.     141.9090
Station Height(m) -92
Record Time       2025/06/03 22:19:42
Sampling Freq(Hz) 100Hz
Duration Time(s)  120
Dir.              1
Scale Factor      2942(gal)/8224139
Max. Acc. (gal)   0.156
Last Correction   2025/06/03 22:19:43
Memo.             
[...]
  182996   182996   182995   182997   183000   183001   183006   183008 
  183004   182997   182991   182989   182987   182976   182968   182968 
  182968   182965   182966   182970   182977   182983   182985   182987 
  182987   182987   182985   182988   182997   183003   183006   183010 
  183015   183023   183034   183042   183047   183046   183043   183047 
  183049   183046   183050   183050   183043   183035   183028   183016 
  183001   182995   182996   182996   182992   182989   182991   182991 
  182988   182989   182995   182997   182995   182997   183001   182996 
  182988   182985   182983   182979   182977   182974   182972   182972 
  182972   182972   182973   182974   182976   182980   182991   183001 
  183008   183016   183028   183038   183039   183041   183047   183049 
  183049   183050   183049   183049   183050   183049   183041   183026 
  183015   183008   183001   182995   182991   182987   182984   182983 
  182985   182991   182997   183003   183008   183014   183018   183016 
  183015   183014   183011   183014   183020   183023   183027   183034 
  183042   183051   183062   183076   183084   183089   183093   183095 
  183096   183096   183096   183099   183100   183095   183087   183081 
  183078   183073   183068   183060   183045   183028   183012   183000 
  182987   182976   182969   182961   182956   182954   182953   182950 
  182947   182949   182954   182957   182960   182965   182974   182983 
  182988   182995   183001   183008   183011   183010   183011   183012 
  183010   183004   183004   183006   183004   183003   183003   183003 
  183001   183003   183006   183010   183015   183022   183028   183033 
  183038   183045   183051   183055   183057   183058   183060   183057 
  183049   183039   183028   183020   183012   183008   183012   183014 
  183015   183022   183024   183024   183026   183026   183026   183030 
  183035   183034   183035   183039   183039   183041   183043   183043 
  183041   183039   183039   183038   183038   183041   183042   183043 
  183046   183046   183047   183043   183037   183033   183031   183026 
  183023   183022   183019   183020   183022   183019   183016   183010 
  182996   182984   182972   182960   182943   182927   182915   182903 
  182889   182879   182876   182879   182884   182891   182902   182914 
  182923   182934   182949   182962   182974   182984   182989   182996 
  183000   183004   183012   183018   183023   183030   183035   183037 
  183035   183035   183033   183024   183016   183015   183011   183001 
  182997   182999   182996   182991   182988   182989   182987   182977 
  182972   182969   182964   182956   182956   182960   182965   182969 
  182972   182979   182987   182988   182989   182991   182993   183000 
  183007   183008   183012   183023   183033   183042   183058   183074 
  183082   183091   183103   183112   183119   183122   183123   183124 
  183123   183122   183118   183111   183103   183097   183096   183091 
  183082   183077   183070   183060   183047   183037   183026   183019 
  183015   183010   183003   182997   182992   182984   182974   182968 
  182966   182965   182960   182957   182961   182961   182961   182965 
  182970   182973   182976   182981   182989   182997   183001   183008 
  183018   183023   183026   183033   183041   183047   183055   183065 
  183072   183078   183080   183082   183081   183074   183070   183069 
  183066   183064   183061   183061   183064   183064   183062   183062 
  183060   183055   183051   183049   183050   183049   183047   183050 
  183047   183041   183035   183034   183028   183018   183011   183007 
  183006   183003   183003   183006   183010   183011   183014   183015 
  183019   183024   183026   183031   183038   183038   183038   183043 
  183050   183050   183050   183053   183057   183051   183046   183045 
  183042   183039   183037   183030   183023   183019   183016   183020 
  183026   183028   183037   183039   183039   183039   183035   183028 
  183024   183014   182997   182992   182989   182984   182979   182977 
  182970   182962   182958   182956   182953   182950   182947   182947 
  182945   182934   182926   182923   182922   182922   182922   182920 
  182918   182914   182910   182903   182893   182888   182891   182892 
  182891   182896   182906   182914   182922   182930   182937   182943 
  182950   182953   182957   182960   182964   182972   182981   182989 
  182999   183008   183011   183015   183018   183016   183012   183010 
  183006   183003   182993   182983   182980   182980   182980   182983 
  182987   182987   182991   182999   182999   182996   183000   183003 
  182999   182999   183001   183000   183000   182999   182993   182995 
  182995   182996   183006   183014   183018   183019   183019   183019 
  183018   183010   183006   183006   183003   183000   183001   183006 
  183008   183007   183006   183004   183001   183003   183004   183003 
  182997   182992   182991   182987   182980   182974   182969   182961 
  182952   182949   182942   182935   182937   182939   182941   182952 
  182966   182980   182995   183007   183020   183042   183058   183074 
  183093   183111   183127   183139   183154   183166   183169   183168 
  183166   183162   183158   183161   183168   183166   183161   183159 
  183158   183151   183143   183138   183135   183131   183127   183123 
  183119   183108   183095   183082   183066   183041   183023   183014 
  183001   182988   182980   182977   182974   182970   182972   182980 
  182988   182997   183015   183030   183039   183046   183047   183045 
  183045   183045   183042   183039   183038   183037   183035   183033 
  183028   183023   183022   183022   183016   183012   183006   182999 
  182992   182983   182972   182964   182956   182950   182953   182957 
  182958   182961   182965   182970   182977   182983   182987   182991 
  182992   182991   182985   182974   182958   182939   182922   182904 
  182893   182885   182880   182880   182885   182893   182906   182916 
  182927   182943   182961   182976   182989   182996   182997   183003 
  183004   182995   182992   182992   182988   182981   182977   182974 
  182973   182966   182958   182958   182958   182954   182952   182949 
  182939   182930   182923   182914   182903   182896   182892   182889 
  182891   182895   182899   182903   182906   182907   182910   182911 
  182910   182910   182910   182910   182907   182906   182910   182912 
  182911   182916   182931   182943   182953   182969   182988   182999 
  183012   183027   183039   183050   183062   183069   183072   183076 
  183084   183088   183087   183088   183091   183091   183088   183087 
  183089   183093   183096   183107   183115   183119   183124   183135 
  183139   183138   183142   183150   183155   183161   183169   183180 
  183184   183182   183184   183189   183186   183177   183168   183162 
  183153   183141   183134   183128   183122   183118   183118   183116 
  183111   183104   183100   183097   183087   183074   183065   183057 
  183046   183039   183034   183027   183023   183022   183020   183022 
  183027   183030   183034   183038   183039   183037   183034   183031 
  183024   183015   183011   183011   183007   183003   183003   183006 
  183006   183003   183001   183006   183010   183006   183000   182999 
  182995   182985   182979   182974   182969   182968   182966   182964 
  182962   182965   182969   182970   182974   182987   182995   182997 
  183006   183020   183033   183038   183043   183047   183049   183046 
  183042   183039   183035   183030   183027   183023   183019   183018 
  183019   183020   183019   183018   183022   183020   183018   183014 
  183007   183000   182991   182980   182969   182962   182957   182949 
  182942   182937   182927   182922   182916   182908   182907   182916 
  182925   182930   182938   182946   182956   182970   182985   182996 
  183011   183026   183037   183054   183069   183077   183087   183100 
  183107   183111   183116   183116   183115   183115   183114   183111 
  183111   183105   183103   183104   183099   183088   183081   183074 
  183066   183054   183042   183031   183020   183008   182993   182984 
  182976   182966   182961   182961   182956   182950   182947   182943 
  182942   182939   182935   182933   182931   182933   182935   182941 
  182950   182960   182972   182985   182996   183010   183026   183041 
  183057   183074   183091   183104   183118   183128   183136   183142 
  183147   183149   183145   183136   183127   183120   183114   183107 
  183100   183092   183084   183073   183057   183039   183024   183010 
  182996   182981   182962   182945   182930   182918   182910   182902 
  182892   182884   182879   182873   182868   182868   182868   182865 
  182865   182868   182869   182873   182879   182885   182892   182899 
  182906   182912   182915   182919   182926   182930   182933   182938 
  182949   182960   182969   182981   182993   183004   183016   183024 
  183030   183038   183043   183041   183042   183043   183037   183027 
  183018   183007   182993   182983   182974   182965   182956   182949 
  182942   182939   182942   182945   182947   182950   182961   182973 
  182983   182989   182993   182999   183000   182992   182983   182973 
  182960   182949   182943   182943   182946   182954   182966   182981 
  182999   183016   183035   183049   183055   183058   183058   183055 
  183047   183041   183038   183034   183026   183023   183024   183023 
  183024   183028   183033   183038   183042   183047   183055   183065 
  183074   183084   183091   183091   183092   183093   183093   183092 
  183095   183099   183100   183104   183114   183122   183131   183145 
  183153   183155   183153   183139   183119   183097   183069   183038 
  183010   182985   182969   182961   182958   182964   182973   182985 
  183003   183022   183034   183046   183060   183069   183074   183082 
  183082   183077   183074   183073   183066   183065   183069   183076 
  183082   183089   183099   183108   183112   183119   183127   183131 
  183132   183131   183122   183109   183100   183084   183065   183050 
  183033   183016   183004   182991   182980   182970   182962   182960 
  182956   182946   182939   182933   182923   182906   182887   182871 
  182854   182837   182823   182814   182804   182800   182803   182814 
  182829   182845   182866   182888   182902   182910   182912   182912 
  182907   182898   182889   182885   182876   182868   182865   182864 
  182861   182864   182868   182872   182879   182885   182891   182898 
  182903   182907   182915   182926   182938   182950   182962   182972 
  182974   182974   182969   182958   182950   182947   182952   182958 
  182972   182987   183003   183016   183023   183035   183049   183058 
  183070   183085   183097   183111   183127   183145   183158   183172 
  183190   183208   183217   183223   183227   183231   183232   183231 
  183228   183223   183212   183199   183177   183151   183124   183095 
  183068   183050   183035   183019   183007   182999   182995   182991 
  182984   182980   182976   182966   182958   182956   182950   182945 
  182942   182941   182938   182937   182935   182935   182935   182935 
  182939   182947   182958   182974   182996   183016   183037   183060 
  183080   183097   183111   183122   183136   183149   183153   183159 
  183168   183172   183178   183186   183197   183207   183212   183216 
  183217   183216   183215   183211   183203   183195   183190   183186 
  183184   183181   183180   183180   183180   183173   183159   183145 
  183128   183111   183091   183069   183045   183020   182999   182981 
  182966   182956   182952   182952   182954   182961   182965   182973 
  182985   182993   183001   183012   183022   183034   183047   183061 
  183076   183088   183093   183093   183088   183080   183069   183055 
  183039   183022   183004   182989   182974   182958   182943   182933 
  182923   182911   182898   182887   182877   182865   182853   182844 
  182834   182827   182821   182808   182799   182790   182779   182768 
  182754   182740   182727   182717   182713   182715   182722   182738 
  182764   182794   182827   182860   182892   182931   182973   183008 
  183043   183081   183112   183136   183155   183173   183188   183199 
  183208   183211   183207   183200   183192   183178   183161   183147 
  183135   183120   183105   183097   183089   183078   183066   183060 
  183051   183041   183034   183026   183015   183004   182992   182979 
  182964   182949   182929   182904   182880   182858   182834   182810 
  182795   182792   182791   182798   182814   182833   182858   182883 
  182908   182942   182980   183012   183039   183064   183084   183099 
  183112   183123   183132   183139   183146   183147   183147   183147 
  183147   183146   183147   183145   183136   183131   183120   183097 
  183074   183054   183028   183003   182985   182968   182947   182934 
  182925   182912   182903   182898   182892   182889   182889   182891 
  182891   182891   182891   182892   182893   182893   182892   182893 
  182902   182911   182923   182939   182961   182987   183011   183037 
  183061   183082   183103   183123   183139   183154   183163   183168 
  183172   183169   183161   183149   183138   183130   183126   183116 
  183101   183087   183069   183047   183023   182991   182958   182930 
  182900   182868   182833   182802   182773   182749   182725   182703 
  182687   182671   182646   182622   182607   182591   182578   182575 
  182576   182578   182583   182599   182623   182650   182680   182718 
  182760   182799   182837   182877   182920   182958   182993   183028 
  183062   183091   183116   183141   183162   183182   183199   183213 
  183236   183255   183269   183285   183301   183308   183312   183317 
  183321   183327   183330   183325   183321   183319   183308   183293 
  183280   183267   183254   183243   183234   183220   183205   183190 
  183173   183153   183127   183101   183078   183049   183019   182992 
  182966   182947   182937   182923   182915   182916   182919   182920 
  182927   182938   182950   182962   182977   182993   183007   183016 
  183027   183039   183053   183065   183076   183089   183105   183119 
  183135   183155   183172   183188   183207   183228   183246   183261 
  183273   183280   183284   183285   183282   183274   183265   183255 
  183243   183228   183213   183203   183190   183178   183166   183154 
  183139   183126   183116   183111   183111   183105   183093   183088 
  183087   183078   183065   183053   183041   183028   183015   183007 
  182997   182983   182966   182956   182943   182925   182903   182885 
  182869   182846   182818   182795   182780   182764   182750   182746 
  182742   182740   182745   182760   182773   182777   182787   182804 
  182819   182827   182837   182848   182857   182864   182872   182880 
  182887   182893   182906   182922   182938   182954   182973   182991 
  183000   183006   183012   183019   183026   183027   183024   183026 
  183026   183022   183018   183015   183012   183010   183011   183014 
  183015   183019   183024   183030   183033   183035   183037   183033 
  183022   183007   182987   182962   182933   182907   182885   182858 
  182834   182817   182803   182792   182781   182773   182775   182780 
  182790   182800   182818   182839   182858   182877   182895   182910 
  182923   182931   182945   182958   182969   182983   182999   183014 
  183030   183047   183068   183089   183107   183120   183139   183154 
  183162   183170   183178   183185   183188   183188   183185   183174 
  183165   183157   183142   183127   183114   183103   183089   183073 
  183055   183037   183019   183008   183001   182997   182995   182995 
  182999   183007   183011   183015   183023   183033   183038   183045 
  183049   183055   183057   183054   183054   183050   183043   183039 
  183041   183042   183043   183046   183050   183057   183066   183070 
  183076   183080   183074   183069   183066   183061   183054   183049 
  183043   183039   183034   183028   183030   183034   183033   183033 
  183041   183051   183060   183068   183080   183091   183095   183100 
  183112   183124   183127   183124   183127   183126   183119   183122 
  183126   183120   183109   183107   183111   183109   183099   183085 
  183074   183058   183033   183012   182993   182968   182945   182929 
  182918   182904   182887   182877   182876   182876   182875   182879 
  182889   182902   182911   182920   182926   182935   182950   182958 
  182960   182960   182961   182960   182958   182962   182965   182961 
  182958   182958   182958   182958   182956   182953   182949   182945 
  182938   182933   182934   182931   182923   182919   182922   182919 
  182914   182914   182919   182927   182935   182950   182972   182987 
  183006   183035   183058   183074   183103   183134   183154   183168 
  183180   183192   183200   183201   183200   183199   183190   183180 
  183172   183159   183139   183127   183119   183109   183101   183096 
  183089   183082   183073   183064   183060   183051   183042   183033 
  183026   183020   183016   183014   183012   183015   183024   183034 
  183042   183053   183064   183076   183085   183093   183105   183116 
  183124   183132   183143   183149   183149   183150   183150   183153 
  183153   183149   183150   183155   183153   183153   183155   183153 
  183155   183161   183154   183145   183139   183132   183120   183107 
  183096   183088   183082   183082   183084   183087   183092   183099 
  183108   183111   183107   183108   183107   183089   183072   183053 
  183023   182991   182958   182925   182889   182856   182826   182802 
  182777   182753   182734   182722   182715   182707   182702   182706 
  182711   182715   182726   182740   182750   182756   182763   182768 
  182773   182783   182792   182804   182822   182844   182864   182883 
  182899   182914   182929   182939   182945   182947   182950   182953 
  182954   182956   182954   182954   182950   182946   182943   182933 
  182918   182911   182908   182903   182891   182877   182871   182868 
  182860   182850   182846   182839   182829   182818   182811   182806 
  182807   182814   182818   182826   182844   182861   182868   182875 
  182885   182898   182911   182919   182926   182937   182949   182960 
  182966   182979   182997   183012   183024   183039   183054   183065 
  183074   183085   183093   183093   183091   183093   183101   183107 
  183107   183103   183095   183087   183081   183070   183054   183047 
  183043   183033   183022   183024   183028   183030   183030   183037 
  183047   183054   183057   183062   183068   183066   183064   183061 
  183058   183058   183057   183054   183061   183066   183070   183081 
  183096   183108   183116   183124   183136   183145   183150   183153 
  183159   183168   183170   183168   183170   183174   183172   183169 
  183168   183162   183155   183146   183136   183127   183112   183096 
  183087   183073   183049   183027   183018   183001   182976   182957 
  182945   182926   182903   182884   182876   182868   182853   182845 
  182845   182842   182839   182849   182862   182869   182879   182896 
  182915   182925   182930   182943   182958   182966   182973   182988 
