Origin Time       2025/06/03 22:18:00
Lat.              41.7
Long.             143.6
Depth. (km)       30
Mag.              5.2
Station Code      SRCH08
Station Lat.      43.5138
Station Long.     141.9090
Station Height(m) 30
Record Time       2025/06/03 22:19:42
Sampling Freq(Hz) 100Hz
Duration Time(s)  120
Dir.              6
Scale Factor      7845(gal)/8223790
Max. Acc. (gal)   0.164
Last Correction   2025/06/03 22:19:43
Memo.             
   -7705    -7716    -7717    -7724    -7734    -7740    -7739    -7731 
   -7719    -7705    -7703    -7703    -7700    -7703    -7703    -7700 
   -7696    -7692    -7696    -7700    -7700    -7701    -7696    -7695 
   -7695    -7692    -7696    -7700    -7704    -7705    -7709    -7716 
   -7713    -7711    -7708    -7709    -7712    -7707    -7711    -7711 
   -7700    -7693    -7690    -7686    -7688    -7693    -7701    -7701 
   -7699    -7701    -7699    -7692    -7688    -7686    -7684    -7686 
   -7695    -7690    -7682    -7684    -7688    -7682    -7681    -7684 
   -7680    -7666    -7655    -7649    -7642    -7643    -7643    -7646 
   -7649    -7642    -7634    -7630    -7628    -7630    -7630    -7630 
   -7632    -7634    -7635    -7639    -7643    -7647    -7647    -7657 
   -7672    -7676    -7682    -7688    -7689    -7692    -7696    -7699 
   -7699    -7695    -7697    -7703    -7699    -7700    -7707    -7707 
   -7712    -7731    -7747    -7746    -7744    -7747    -7743    -7739 
   -7744    -7743    -7738    -7743    -7750    -7750    -7753    -7754 
   -7744    -7728    -7719    -7709    -7703    -7707    -7704    -7697 
   -7690    -7678    -7668    -7661    -7658    -7657    -7658    -7663 
   -7665    -7669    -7674    -7673    -7669    -7669    -7662    -7655 
   -7659    -7670    -7673    -7676    -7682    -7681    -7670    -7662 
   -7657    -7650    -7649    -7657    -7657    -7645    -7646    -7653 
   -7646    -7641    -7642    -7641    -7643    -7653    -7663    -7669 
   -7666    -7663    -7661    -7663    -7677    -7684    -7692    -7697 
   -7690    -7684    -7681    -7682    -7686    -7690    -7695    -7699 
   -7700    -7700    -7695    -7692    -7693    -7695    -7697    -7692 
   -7684    -7684    -7688    -7696    -7700    -7696    -7701    -7703 
   -7703    -7712    -7719    -7722    -7719    -7716    -7717    -7717 
   -7719    -7723    -7726    -7730    -7736    -7734    -7731    -7732 
   -7730    -7724    -7724    -7726    -7716    -7709    -7707    -7696 
   -7688    -7685    -7681    -7676    -7673    -7673    -7670    -7665 
   -7668    -7663    -7655    -7651    -7646    -7642    -7641    -7643 
   -7645    -7642    -7649    -7651    -7646    -7647    -7643    -7636 
   -7646    -7649    -7646    -7647    -7650    -7645    -7636    -7642 
   -7646    -7646    -7657    -7661    -7657    -7661    -7666    -7668 
   -7668    -7670    -7676    -7678    -7681    -7693    -7703    -7704 
   -7707    -7716    -7723    -7719    -7719    -7724    -7727    -7732 
   -7734    -7736    -7732    -7722    -7726    -7727    -7726    -7730 
   -7736    -7749    -7753    -7757    -7769    -7770    -7771    -7771 
   -7766    -7763    -7762    -7755    -7750    -7744    -7732    -7717 
   -7713    -7707    -7693    -7685    -7681    -7677    -7676    -7676 
   -7672    -7670    -7674    -7680    -7688    -7695    -7692    -7690 
   -7686    -7676    -7668    -7663    -7654    -7645    -7646    -7650 
   -7647    -7651    -7654    -7650    -7647    -7647    -7651    -7654 
   -7654    -7657    -7657    -7661    -7662    -7659    -7661    -7659 
   -7666    -7678    -7681    -7688    -7696    -7697    -7692    -7684 
   -7686    -7682    -7680    -7688    -7689    -7692    -7693    -7688 
   -7688    -7688    -7690    -7692    -7685    -7689    -7688    -7688 
   -7693    -7693    -7692    -7686    -7685    -7690    -7688    -7689 
   -7699    -7701    -7704    -7713    -7726    -7731    -7728    -7731 
   -7727    -7717    -7717    -7716    -7717    -7713    -7709    -7704 
   -7684    -7674    -7677    -7672    -7668    -7668    -7670    -7672 
   -7668    -7665    -7662    -7658    -7661    -7662    -7661    -7655 
   -7646    -7642    -7646    -7655    -7666    -7673    -7676    -7678 
   -7678    -7680    -7672    -7662    -7658    -7659    -7665    -7668 
   -7668    -7673    -7681    -7686    -7692    -7699    -7705    -7708 
   -7708    -7708    -7709    -7712    -7711    -7707    -7707    -7700 
   -7692    -7696    -7700    -7700    -7703    -7708    -7711    -7703 
   -7700    -7696    -7684    -7686    -7696    -7700    -7701    -7699 
   -7692    -7677    -7669    -7668    -7665    -7665    -7666    -7666 
   -7666    -7661    -7655    -7658    -7657    -7659    -7665    -7663 
   -7655    -7651    -7654    -7650    -7647    -7649    -7643    -7639 
   -7638    -7638    -7634    -7638    -7650    -7653    -7662    -7672 
   -7673    -7678    -7681    -7680    -7684    -7689    -7688    -7689 
   -7695    -7697    -7697    -7704    -7719    -7726    -7724    -7723 
   -7722    -7728    -7730    -7728    -7732    -7735    -7732    -7731 
   -7738    -7730    -7715    -7712    -7709    -7704    -7697    -7705 
   -7712    -7715    -7726    -7728    -7726    -7728    -7724    -7723 
   -7723    -7719    -7716    -7719    -7720    -7720    -7719    -7713 
   -7708    -7708    -7705    -7699    -7700    -7700    -7703    -7705 
   -7701    -7700    -7701    -7704    -7703    -7699    -7697    -7689 
   -7686    -7689    -7685    -7684    -7688    -7695    -7695    -7685 
   -7677    -7676    -7670    -7659    -7647    -7643    -7645    -7645 
   -7639    -7634    -7624    -7620    -7623    -7627    -7631    -7636 
   -7636    -7646    -7653    -7643    -7643    -7651    -7651    -7654 
   -7662    -7670    -7674    -7681    -7686    -7686    -7696    -7700 
   -7703    -7711    -7709    -7709    -7716    -7717    -7712    -7709 
   -7711    -7712    -7709    -7704    -7701    -7699    -7696    -7696 
   -7697    -7704    -7711    -7713    -7719    -7723    -7717    -7712 
   -7712    -7709    -7701    -7700    -7701    -7695    -7692    -7699 
   -7697    -7693    -7699    -7704    -7703    -7697    -7697    -7696 
   -7692    -7688    -7686    -7689    -7689    -7680    -7670    -7661 
   -7657    -7647    -7639    -7643    -7642    -7642    -7650    -7658 
   -7661    -7658    -7668    -7668    -7659    -7658    -7659    -7662 
   -7663    -7657    -7655    -7659    -7666    -7670    -7672    -7672 
   -7673    -7678    -7692    -7703    -7711    -7712    -7709    -7711 
   -7708    -7709    -7716    -7719    -7726    -7731    -7728    -7728 
   -7730    -7728    -7731    -7731    -7727    -7724    -7728    -7731 
   -7727    -7730    -7731    -7717    -7708    -7707    -7700    -7690 
   -7689    -7697    -7699    -7697    -7695    -7684    -7680    -7681 
   -7676    -7670    -7662    -7650    -7641    -7635    -7635    -7634 
   -7628    -7632    -7639    -7638    -7636    -7632    -7627    -7623 
   -7616    -7619    -7623    -7626    -7638    -7645    -7647    -7646 
   -7642    -7653    -7659    -7662    -7674    -7684    -7684    -7676 
   -7672    -7669    -7658    -7654    -7649    -7642    -7641    -7641 
   -7639    -7642    -7649    -7657    -7663    -7673    -7681    -7685 
   -7696    -7701    -7707    -7727    -7740    -7743    -7742    -7744 
   -7753    -7746    -7746    -7753    -7751    -7753    -7753    -7755 
   -7753    -7740    -7742    -7742    -7739    -7743    -7740    -7738 
   -7735    -7730    -7727    -7719    -7715    -7711    -7700    -7705 
   -7707    -7699    -7699    -7701    -7703    -7699    -7708    -7727 
   -7724    -7724    -7727    -7720    -7716    -7716    -7716    -7713 
   -7707    -7709    -7705    -7696    -7692    -7688    -7688    -7689 
   -7688    -7689    -7681    -7672    -7669    -7668    -7672    -7672 
   -7670    -7674    -7673    -7666    -7666    -7669    -7672    -7673 
   -7669    -7666    -7666    -7669    -7669    -7665    -7666    -7665 
   -7666    -7677    -7673    -7673    -7680    -7685    -7697    -7704 
   -7708    -7707    -7704    -7701    -7688    -7681    -7677    -7668 
   -7668    -7670    -7674    -7681    -7674    -7669    -7663    -7657 
   -7659    -7662    -7662    -7654    -7643    -7639    -7623    -7611 
   -7612    -7612    -7618    -7628    -7642    -7654    -7655    -7662 
   -7668    -7665    -7665    -7659    -7650    -7649    -7655    -7661 
   -7659    -7662    -7665    -7655    -7655    -7658    -7654    -7657 
   -7663    -7670    -7674    -7689    -7708    -7705    -7707    -7712 
   -7709    -7703    -7701    -7707    -7701    -7696    -7697    -7696 
   -7703    -7707    -7707    -7715    -7724    -7730    -7730    -7731 
   -7730    -7723    -7727    -7734    -7736    -7742    -7747    -7747 
   -7744    -7746    -7749    -7743    -7746    -7757    -7762    -7761 
   -7755    -7754    -7749    -7736    -7730    -7728    -7728    -7728 
   -7731    -7724    -7713    -7705    -7704    -7704    -7696    -7692 
   -7692    -7690    -7685    -7680    -7676    -7666    -7662    -7665 
   -7668    -7670    -7669    -7662    -7659    -7659    -7659    -7661 
   -7658    -7653    -7654    -7653    -7657    -7666    -7670    -7670 
   -7672    -7670    -7666    -7663    -7662    -7659    -7657    -7658 
   -7666    -7670    -7674    -7677    -7681    -7684    -7682    -7690 
   -7696    -7697    -7704    -7709    -7712    -7709    -7715    -7736 
   -7746    -7755    -7767    -7766    -7766    -7769    -7765    -7761 
   -7749    -7738    -7736    -7731    -7732    -7738    -7740    -7740 
   -7736    -7736    -7728    -7731    -7738    -7736    -7730    -7722 
   -7713    -7705    -7690    -7684    -7682    -7677    -7672    -7670 
   -7670    -7672    -7670    -7676    -7677    -7672    -7674    -7669 
   -7665    -7666    -7662    -7659    -7646    -7630    -7624    -7619 
   -7616    -7615    -7611    -7615    -7620    -7615    -7611    -7612 
   -7616    -7618    -7619    -7630    -7632    -7642    -7658    -7663 
   -7673    -7678    -7677    -7677    -7670    -7669    -7663    -7655 
   -7663    -7661    -7658    -7672    -7676    -7681    -7685    -7682 
   -7682    -7678    -7678    -7678    -7673    -7673    -7678    -7689 
   -7696    -7696    -7699    -7696    -7686    -7681    -7670    -7659 
   -7654    -7649    -7647    -7647    -7649    -7654    -7659    -7666 
   -7672    -7673    -7673    -7663    -7662    -7670    -7669    -7670 
   -7676    -7676    -7677    -7681    -7689    -7693    -7696    -7705 
   -7715    -7722    -7731    -7739    -7747    -7753    -7754    -7759 
   -7765    -7761    -7758    -7751    -7743    -7735    -7724    -7719 
   -7716    -7717    -7719    -7713    -7709    -7713    -7717    -7722 
   -7730    -7736    -7734    -7728    -7723    -7716    -7716    -7717 
   -7717    -7717    -7713    -7705    -7701    -7699    -7686    -7674 
   -7677    -7682    -7682    -7684    -7682    -7677    -7674    -7674 
   -7673    -7666    -7666    -7673    -7672    -7673    -7685    -7682 
   -7668    -7665    -7661    -7649    -7643    -7643    -7634    -7622 
   -7618    -7612    -7609    -7615    -7615    -7615    -7620    -7622 
   -7619    -7618    -7623    -7624    -7623    -7628    -7634    -7646 
   -7651    -7651    -7657    -7658    -7653    -7649    -7649    -7653 
   -7645    -7642    -7641    -7628    -7627    -7628    -7630    -7638 
   -7643    -7651    -7658    -7661    -7662    -7665    -7661    -7653 
   -7651    -7651    -7654    -7661    -7670    -7676    -7676    -7681 
   -7692    -7696    -7704    -7719    -7732    -7740    -7750    -7761 
   -7759    -7754    -7754    -7749    -7747    -7754    -7754    -7755 
   -7761    -7763    -7765    -7761    -7762    -7765    -7763    -7767 
   -7771    -7770    -7769    -7770    -7774    -7771    -7767    -7767 
   -7763    -7753    -7743    -7735    -7727    -7715    -7713    -7722 
   -7719    -7713    -7716    -7715    -7704    -7695    -7699    -7693 
   -7686    -7688    -7688    -7685    -7681    -7680    -7681    -7678 
   -7677    -7678    -7677    -7677    -7678    -7676    -7678    -7682 
   -7685    -7685    -7681    -7680    -7681    -7682    -7684    -7688 
   -7693    -7693    -7697    -7701    -7701    -7711    -7717    -7715 
   -7716    -7711    -7709    -7713    -7712    -7713    -7709    -7703 
   -7700    -7690    -7686    -7682    -7672    -7658    -7653    -7654 
   -7647    -7639    -7638    -7634    -7627    -7623    -7616    -7612 
   -7604    -7592    -7584    -7580    -7576    -7573    -7578    -7587 
   -7580    -7577    -7577    -7573    -7580    -7582    -7588    -7600 
   -7601    -7604    -7609    -7607    -7601    -7601    -7607    -7611 
   -7615    -7623    -7628    -7631    -7631    -7627    -7628    -7636 
   -7645    -7653    -7654    -7654    -7657    -7659    -7665    -7674 
   -7685    -7688    -7696    -7713    -7720    -7724    -7736    -7746 
   -7750    -7751    -7751    -7747    -7746    -7754    -7758    -7758 
   -7765    -7777    -7794    -7811    -7819    -7828    -7842    -7850 
   -7854    -7858    -7859    -7859    -7851    -7843    -7836    -7821 
   -7809    -7794    -7778    -7763    -7746    -7730    -7723    -7723 
   -7730    -7735    -7747    -7761    -7766    -7771    -7769    -7762 
   -7763    -7762    -7753    -7746    -7742    -7736    -7731    -7739 
   -7747    -7753    -7761    -7767    -7771    -7767    -7763    -7757 
   -7747    -7746    -7738    -7720    -7705    -7689    -7672    -7657 
   -7649    -7641    -7635    -7634    -7636    -7641    -7638    -7636 
   -7642    -7641    -7643    -7649    -7639    -7628    -7622    -7618 
   -7612    -7603    -7611    -7618    -7611    -7608    -7609    -7612 
   -7612    -7609    -7609    -7612    -7614    -7611    -7608    -7611 
   -7609    -7607    -7607    -7605    -7601    -7595    -7589    -7593 
   -7595    -7600    -7608    -7612    -7622    -7627    -7636    -7647 
   -7655    -7668    -7672    -7666    -7668    -7666    -7663    -7663 
   -7661    -7665    -7673    -7674    -7677    -7676    -7676    -7682 
   -7689    -7703    -7713    -7716    -7716    -7708    -7699    -7686 
   -7670    -7662    -7653    -7645    -7643    -7634    -7630    -7636 
   -7636    -7639    -7647    -7661    -7677    -7689    -7707    -7712 
   -7709    -7719    -7726    -7731    -7734    -7732    -7744    -7744 
   -7740    -7746    -7740    -7739    -7740    -7739    -7743    -7740 
   -7744    -7750    -7753    -7765    -7763    -7765    -7770    -7765 
   -7759    -7751    -7744    -7738    -7724    -7722    -7713    -7696 
   -7697    -7701    -7699    -7705    -7712    -7719    -7723    -7726 
   -7730    -7728    -7728    -7732    -7727    -7722    -7713    -7705 
   -7701    -7690    -7677    -7663    -7651    -7649    -7639    -7630 
   -7631    -7631    -7635    -7642    -7646    -7653    -7658    -7662 
   -7676    -7686    -7690    -7692    -7684    -7678    -7672    -7663 
   -7665    -7666    -7668    -7663    -7653    -7647    -7642    -7641 
   -7639    -7634    -7635    -7632    -7623    -7620    -7614    -7608 
   -7611    -7612    -7622    -7631    -7635    -7643    -7647    -7649 
   -7654    -7658    -7668    -7669    -7666    -7665    -7670    -7681 
   -7682    -7689    -7705    -7708    -7707    -7704    -7701    -7701 
   -7697    -7696    -7699    -7697    -7705    -7713    -7716    -7719 
   -7712    -7701    -7697    -7690    -7681    -7674    -7673    -7672 
   -7666    -7668    -7672    -7673    -7682    -7693    -7700    -7712 
   -7716    -7717    -7723    -7724    -7726    -7730    -7731    -7738 
   -7739    -7740    -7746    -7753    -7761    -7769    -7784    -7789 
   -7789    -7798    -7792    -7781    -7773    -7758    -7751    -7743 
   -7730    -7722    -7711    -7700    -7693    -7686    -7676    -7669 
   -7674    -7676    -7668    -7669    -7672    -7668    -7666    -7662 
   -7654    -7642    -7639    -7636    -7624    -7619    -7614    -7609 
   -7611    -7604    -7597    -7600    -7604    -7607    -7608    -7615 
   -7627    -7634    -7653    -7670    -7666    -7669    -7673    -7673 
   -7680    -7685    -7692    -7699    -7705    -7709    -7709    -7716 
   -7720    -7728    -7747    -7753    -7747    -7747    -7744    -7744 
   -7738    -7727    -7726    -7722    -7716    -7708    -7697    -7696 
   -7696    -7697    -7707    -7716    -7723    -7732    -7749    -7762 
   -7761    -7759    -7766    -7767    -7761    -7753    -7743    -7734 
   -7724    -7715    -7705    -7692    -7686    -7684    -7684    -7686 
   -7684    -7688    -7692    -7695    -7703    -7700    -7699    -7703 
   -7704    -7708    -7707    -7703    -7701    -7693    -7689    -7682 
   -7666    -7661    -7657    -7658    -7663    -7663    -7663    -7663 
   -7663    -7658    -7651    -7649    -7645    -7646    -7647    -7643 
   -7641    -7636    -7634    -7634    -7634    -7634    -7630    -7627 
   -7622    -7618    -7622    -7626    -7626    -7626    -7626    -7631 
   -7643    -7655    -7662    -7665    -7668    -7666    -7669    -7672 
   -7674    -7677    -7677    -7681    -7684    -7685    -7692    -7697 
   -7701    -7708    -7719    -7727    -7730    -7731    -7734    -7735 
   -7738    -7744    -7744    -7743    -7750    -7754    -7754    -7751 
   -7753    -7759    -7758    -7751    -7747    -7746    -7738    -7730 
   -7727    -7715    -7696    -7681    -7665    -7650    -7645    -7632 
   -7622    -7620    -7615    -7608    -7608    -7609    -7604    -7600 
   -7608    -7607    -7604    -7609    -7608    -7609    -7614    -7619 
   -7628    -7634    -7643    -7650    -7654    -7663    -7665    -7666 
   -7670    -7669    -7673    -7674    -7678    -7680    -7678    -7685 
   -7681    -7680    -7689    -7686    -7682    -7682    -7688    -7688 
   -7686    -7695    -7701    -7704    -7708    -7715    -7723    -7728 
   -7730    -7736    -7731    -7727    -7730    -7728    -7727    -7724 
   -7724    -7731    -7730    -7731    -7740    -7743    -7750    -7754 
   -7761    -7773    -7773    -7777    -7782    -7774    -7774    -7780 
   -7780    -7777    -7773    -7769    -7758    -7750    -7749    -7735 
   -7723    -7723    -7711    -7700    -7696    -7688    -7678    -7669 
   -7674    -7677    -7670    -7672    -7676    -7677    -7678    -7682 
   -7688    -7685    -7689    -7695    -7684    -7674    -7672    -7657 
   -7645    -7636    -7631    -7635    -7628    -7628    -7631    -7627 
   -7631    -7638    -7647    -7654    -7653    -7657    -7655    -7650 
   -7651    -7654    -7657    -7659    -7659    -7655    -7646    -7641 
   -7641    -7634    -7630    -7634    -7638    -7646    -7661    -7666 
   -7670    -7684    -7690    -7689    -7699    -7703    -7696    -7696 
   -7697    -7690    -7685    -7685    -7685    -7688    -7695    -7697 
   -7696    -7695    -7696    -7695    -7696    -7704    -7704    -7704 
   -7713    -7719    -7717    -7713    -7713    -7715    -7712    -7713 
   -7711    -7705    -7703    -7700    -7703    -7705    -7707    -7715 
   -7716    -7716    -7719    -7716    -7713    -7709    -7707    -7708 
   -7703    -7700    -7697    -7689    -7680    -7672    -7673    -7668 
   -7665    -7668    -7663    -7661    -7659    -7661    -7665    -7665 
   -7672    -7678    -7682    -7693    -7700    -7707    -7711    -7708 
   -7707    -7709    -7707    -7707    -7712    -7712    -7708    -7711 
   -7717    -7719    -7724    -7731    -7727    -7720    -7715    -7709 
   -7701    -7689    -7689    -7693    -7690    -7697    -7700    -7693 
   -7692    -7688    -7686    -7689    -7688    -7690    -7695    -7695 
   -7693    -7690    -7689    -7689    -7695    -7705    -7709    -7711 
   -7712    -7711    -7711    -7705    -7692    -7688    -7688    -7678 
   -7672    -7663    -7653    -7645    -7643    -7639    -7635    -7642 
