Origin Time       2025/06/03 22:18:00
Lat.              41.7
Long.             143.6
Depth. (km)       30
Mag.              5.2
Station Code      TKCH05
Station Lat.      43.1211
Station Long.     143.6181
Station Height(m) 65
Record Time       2025/06/03 22:18:56
Sampling Freq(Hz) 100Hz
Duration Time(s)  120
Dir.              4
Scale Factor      7845(gal)/8223790
Max. Acc. (gal)   2.082
Last Correction   2025/06/03 22:18:57
Memo.             
[...]
   31353    31321    31226    31060    30861    30705    30657    30713 
   30819    30921    30998    31058    31124    31189    31220    31216 
   31199    31190    31206    31252    31303    31334    31330    31276 
   31179    31077    31006    30963    30940    30948    30979    31032 
   31133    31282    31419    31499    31518    31483    31415    31340 
   31252    31140    31024    30933    30877    30859    30871    30896 
   30932    31006    31136    31291    31414    31469    31457    31392 
   31302    31226    31172    31116    31071    31054    31052    31058 
   31074    31101    31125    31109    31033    30919    30808    30731 
   30703    30717    30771    30871    31014    31187    31353    31450 
   31461    31433    31391    31334    31257    31149    31021    30913 
   30869    30898    30964    31025    31074    31106    31137    31193 
   31270    31320    31307    31244    31160    31083    31043    31043 
   31037    30998    30959    30947    30959    31006    31093    31179 
   31230    31256    31278    31306    31341    31369    31371    31332 
   31268    31214    31197    31205    31205    31166    31078    30956 
   30842    30781    30785    30834    30924    31062    31214    31342 
   31422    31417    31310    31132    30923    30711    30537    30442 
   30437    30515    30685    30939    31213    31445    31598    31634 
   31538    31352    31152    31006    30937    30931    30966    31040 
   31140    31237    31318    31394    31452    31475    31445    31352 
   31221    31114    31055    31036    31051    31072    31063    31048 
   31063    31089    31106    31128    31148    31147    31133    31124 
   31095    31059    31055    31075    31085    31081    31082    31095 
   31121    31163    31225    31301    31365    31407    31430    31433 
   31396    31314    31197    31058    30931    30862    30862    30913 
   30977    31032    31078    31117    31149    31186    31226    31249 
   31236    31194    31149    31116    31077    31012    30916    30816 
   30759    30794    30933    31136    31336    31475    31534    31525 
   31460    31353    31222    31078    30931    30816    30750    30727 
   30757    30843    30954    31052    31140    31217    31263    31266 
   31234    31179    31110    31051    31020    30985    30913    30829 
   30780    30788    30835    30877    30898    30909    30925    30964 
   31018    31072    31124    31158    31190    31264    31363    31434 
   31464    31456    31410    31344    31287    31236    31159    31048 
   30935    30838    30778    30781    30843    30939    31041    31132 
   31206    31280    31363    31417    31409    31334    31214    31071 
   30951    30908    30924    30959    31001    31036    31043    31039 
   31052    31083    31139    31218    31279    31284    31230    31133 
   31035    30986    30991    31012    31021    31028    31050    31090 
   31144    31203    31253    31286    31297    31291    31290    31295 
   31284    31253    31197    31109    31018    30951    30909    30901 
   30928    30958    30969    30987    31052    31179    31360    31542 
   31668    31718    31699    31607    31441    31212    30939    30655 
   30419    30308    30357    30527    30766    31041    31306    31526 
   31700    31811    31815    31707    31533    31332    31132    30962 
   30843    30781    30763    30782    30835    30910    31006    31110 
   31201    31257    31264    31226    31171    31128    31118    31137 
   31149    31136    31118    31104    31074    31025    30948    30827 
   30704    30651    30682    30767    30897    31062    31225    31353 
   31442    31475    31438    31348    31222    31083    30960    30871 
   30832    30862    30948    31051    31148    31245    31333    31392 
   31415    31392    31325    31249    31179    31105    31033    30970 
   30908    30877    30906    30969    31029    31090    31163    31255 
   31351    31423    31461    31469    31449    31399    31329    31255 
   31176    31089    31016    30979    30975    30996    31029    31051 
   31051    31055    31059    31045    31025    31016    31017    31033 
   31068    31105    31120    31112    31087    31066    31062    31077 
   31116    31162    31180    31156    31099    31048    31033    31043 
   31048    31043    31037    31036    31045    31078    31124    31158 
   31170    31163    31158    31167    31176    31167    31143    31117 
   31099    31104    31114    31095    31039    30962    30897    30878 
   30920    30994    31052    31071    31066    31085    31153    31240 
   31295    31298    31257    31187    31098    31006    30929    30879 
   30863    30896    30983    31099    31221    31341    31419    31401 
   31298    31179    31094    31058    31082    31144    31170    31131 
   31072    31037    31039    31066    31089    31082    31051    31035 
   31070    31139    31198    31210    31155    31055    30954    30893 
   30902    30969    31044    31117    31194    31264    31320    31361 
   31398    31426    31428    31388    31320    31240    31178    31152 
   31144    31129    31118    31121    31129    31136    31133    31114 
   31093    31081    31077    31071    31058    31035    31010    31006 
   31033    31086    31149    31206    31234    31233    31220    31193 
   31132    31036    30932    30847    30793    30775    30811    30916 
   31063    31212    31352    31469    31526    31498    31401    31261 
   31116    30991    30909    30863    30840    30859    30929    31018 
   31108    31206    31307    31392    31445    31460    31446    31406 
   31336    31229    31074    30896    30761    30734    30805    30920 
   31048    31171    31264    31325    31363    31368    31318    31217 
   31093    30964    30858    30809    30815    30843    30901    31001 
   31112    31212    31293    31324    31282    31182    31060    30963 
   30927    30943    30963    30956    30942    30954    31009    31093 
   31182    31248    31276    31264    31202    31094    30981    30886 
   30801    30748    30759    30834    30947    31081    31191    31257 
   31293    31307    31298    31276    31261    31255    31239    31217 
   31198    31176    31144    31108    31071    31048    31068    31116 
   31136    31139    31170    31230    31287    31326    31328    31267 
   31155    31035    30944    30896    30886    30912    30960    31012 
   31050    31093    31141    31156    31125    31062    30971    30890 
   30856    30854    30873    30933    31025    31125    31234    31353 
   31463    31544    31598    31603    31540    31422    31283    31144 
   31033    30971    30932    30882    30825    30789    30774    30788 
   30847    30959    31116    31294    31452    31560    31606    31584 
   31498    31372    31236    31094    30954    30843    30789    30805 
   30893    31031    31170    31271    31324    31330    31298    31245 
   31185    31128    31083    31052    31041    31067    31121    31171 
   31205    31229    31232    31197    31139    31075    31024    30996 
   30985    30959    30892    30798    30716    30672    30690    30781 
   30901    31016    31114    31170    31186    31210    31248    31261 
   31259    31261    31253    31229    31224    31251    31290    31328 
   31341    31306    31226    31139    31070    31035    31040    31063 
   31071    31075    31116    31191    31268    31332    31353    31306 
   31217    31139    31094    31091    31129    31174    31185    31167 
   31124    31054    30979    30920    30870    30829    30815    30843 
   30908    30991    31071    31124    31131    31102    31060    31017 
   30981    30956    30951    30971    31020    31090    31149    31182 
   31205    31228    31234    31209    31153    31098    31090    31143 
   31213    31249    31245    31206    31137    31068    31054    31117 
   31224    31325    31392    31394    31309    31174    31037    30925 
   30865    30863    30910    30989    31081    31158    31203    31228 
   31245    31261    31278    31280    31268    31260    31268    31274 
   31268    31257    31228    31149    31035    30935    30878    30885 
   30986    31166    31365    31545    31653    31658    31592    31494 
   31363    31212    31060    30900    30740    30628    30599    30663 
   30811    30978    31097    31160    31164    31098    30994    30909 
   30854    30820    30825    30881    30963    31064    31182    31264 
   31271    31224    31149    31054    30950    30843    30723    30632 
   30640    30758    30975    31261    31541    31730    31799    31750 
   31607    31407    31209    31059    30969    30920    30886    30821 
   30708    30599    30568    30622    30735    30885    31032    31145 
   31232    31326    31426    31503    31542    31522    31399    31172 
   30915    30701    30601    30657    30838    31066    31284    31467 
   31599    31642    31561    31374    31137    30919    30767    30747 
   30892    31164    31503    31835    32039    32019    31781    31396 
   30937    30520    30268    30219    30357    30653    31035    31399 
   31673    31820    31797    31588    31251    30894    30627    30508 
   30526    30634    30821    31081    31364    31606    31743    31722 
   31522    31216    30935    30769    30723    30757    30827    30908 
   30991    31074    31166    31276    31363    31367    31307    31218 
   31104    30974    30881    30865    30920    31035    31207    31369 
   31442    31417    31279    31016    30707    30503    30491    30640 
   30878    31128    31324    31444    31507    31499    31379    31172 
   30969    30835    30801    30871    31041    31251    31407    31472 
   31455    31365    31243    31120    30996    30873    30790    30804 
   30921    31113    31329    31509    31592    31563    31425    31195 
   30917    30685    30599    30665    30812    30977    31122    31205 
   31212    31185    31166    31152    31131    31104    31090    31091 
   31094    31124    31206    31324    31432    31498    31499    31438 
   31365    31298    31217    31125    31041    30963    30869    30747 
   30612    30489    30438    30538    30788    31085    31318    31444 
   31471    31428    31342    31213    31039    30832    30657    30604 
   30723    30987    31325    31635    31800    31765    31580    31322 
   31041    30781    30595    30516    30545    30643    30763    30850 
   30893    30948    31050    31191    31341    31444    31459    31398 
   31279    31132    31010    30943    30927    30958    31008    31064 
   31156    31307    31492    31672    31793    31795    31681    31522 
   31386    31299    31271    31276    31283    31268    31201    31045 
   30817    30603    30489    30501    30616    30782    30923    31008 
   31071    31140    31232    31340    31406    31357    31198    31023 
   30958    31067    31276    31423    31394    31229    31031    30873 
   30790    30780    30802    30832    30879    30956    31037    31098 
   31137    31159    31140    31066    30952    30829    30735    30719 
   30831    31051    31274    31395    31406    31352    31290    31283 
   31351    31440    31513    31606    31731    31834    31874    31810 
   31594    31256    30896    30592    30391    30321    30384    30564 
   30831    31158    31498    31769    31874    31768    31465    31031 
   30578    30234    30091    30202    30546    31024    31504    31899 
   32163    32248    32105    31754    31291    30811    30377    30051 
   29879    29876    30051    30379    30767    31122    31398    31577 
   31664    31687    31671    31608    31495    31359    31233    31129 
   31048    30990    30970    31023    31171    31388    31614    31754 
   31719    31490    31159    30873    30740    30786    30937    31099 
   31257    31429    31576    31658    31665    31584    31418    31217 
   31012    30781    30511    30233    30011    29932    30040    30271 
   30526    30747    30921    31072    31272    31556    31846    32032 
   32069    31946    31684    31363    31077    30840    30638    30504 
   30484    30589    30805    31095    31368    31507    31483    31351 
   31144    30882    30626    30429    30275    30175    30202    30397 
   30732    31174    31700    32219    32589    32726    32584    32143 
   31486    30785    30183    29770    29620    29725    29994    30370 
   30859    31418    31939    32319    32479    32394    32117    31776 
   31467    31195    30952    30755    30603    30507    30493    30530 
   30551    30546    30528    30519    30566    30694    30856    30994 
   31086    31124    31128    31159    31275    31472    31684    31837 
   31880    31801    31641    31469    31349    31338    31445    31583 
   31646    31625    31537    31369    31148    30925    30677    30404 
   30198    30109    30127    30294    30634    31070    31502    31922 
   32320    32616    32769    32755    32510    32049    31475    30870 
   30304    29882    29694    29740    29976    30333    30717    31074 
   31382    31571    31580    31430    31179    30877    30591    30441 
   30504    30750    31095    31459    31731    31774    31534    31090 
   30562    30080    29817    29887    30279    30885    31583    32231 
   32717    33010    33112    32968    32517    31827    31050    30364 
   29949    29910    30184    30608    31041    31392    31611    31696 
   31656    31477    31179    30862    30645    30574    30626    30755 
   30897    30975    30967    30870    30655    30338    30030    29871 
   29956    30322    30928    31649    32336    32886    33231    33297 
   33054    32545    31850    31056    30275    29621    29200    29072 
   29236    29637    30176    30703    31085    31267    31284    31214 
   31132    31078    31081    31186    31414    31706    31957    32098 
   32090    31922    31638    31303    30942    30620    30454    30462 
   30588    30804    31047    31225    31326    31361    31286    31095 
   30862    30643    30462    30360    30383    30514    30705    30925 
   31125    31232    31201    31023    30715    30381    30203    30285 
   30600    31068    31569    31965    32177    32231    32171    32004 
   31753    31490    31270    31095    30956    30862    30825    30871 
   31014    31226    31428    31544    31552    31452    31253    31005 
   30792    30678    30663    30697    30740    30801    30897    31045 
   31263    31506    31672    31703    31619    31471    31344    31311 
   31363    31446    31519    31558    31563    31514    31364    31132 
   30905    30731    30624    30612    30715    30865    30971    31001 
   30927    30731    30493    30352    30345    30415    30539    30727 
   30975    31311    31760    32228    32563    32668    32518    32135 
   31594    31005    30484    30115    29948    30010    30273    30654 
   31067    31471    31843    32143    32304    32267    32004    31557 
   31039    30561    30213    30036    30011    30117    30338    30627 
   30950    31302    31637    31874    31954    31854    31610    31301 
   30991    30724    30531    30438    30484    30681    30971    31257 
   31465    31561    31548    31425    31187    30866    30555    30384 
   30454    30773    31232    31668    31951    32043    31996    31897 
   31779    31608    31368    31101    30856    30658    30547    30547 
   30619    30715    30813    30890    30933    30964    30986    31000 
   31027    31085    31151    31210    31276    31345    31387    31365 
   31279    31163    31067    31025    31045    31099    31149    31174 
   31182    31174    31135    31070    30987    30874    30736    30603 
   30492    30415    30392    30449    30624    30950    31401    31893 
   32350    32709    32907    32908    32725    32383    31909    31369 
   30865    30478    30252    30179    30215    30310    30418    30523 
   30613    30704    30807    30890    30905    30850    30773    30750 
   30842    31029    31236    31403    31531    31637    31719    31753 
   31735    31680    31602    31510    31402    31268    31070    30759 
   30356    29960    29686    29600    29691    29895    30129    30311 
   30410    30485    30632    30901    31257    31594    31795    31816 
   31718    31600    31504    31423    31344    31255    31151    31067 
   31059    31172    31401    31679    31927    32105    32189    32174 
   32065    31855    31554    31221    30925    30700    30555    30497 
   30496    30508    30515    30507    30488    30489    30542    30650 
   30817    31043    31301    31554    31788    31963    32026    31945 
   31729    31407    31044    30699    30437    30310    30322    30439 
   30657    30963    31315    31676    31996    32190    32193    32023 
   31742    31415    31105    30855    30672    30522    30393    30318 
   30323    30418    30591    30794    30977    31124    31240    31337 
   31419    31476    31537    31671    31872    32030    32054    31946 
   31734    31450    31148    30852    30569    30352    30285    30377 
   30568    30790    30977    31064    31016    30832    30565    30298 
   30127    30126    30299    30589    30898    31141    31306    31418 
   31482    31503    31500    31472    31414    31334    31229    31116 
   31059    31098    31207    31357    31540    31712    31810    31822 
   31769    31645    31452    31228    30981    30731    30551    30501 
   30605    30874    31266    31660    31958    32142    32219    32186 
   32040    31772    31388    30966    30589    30306    30144    30106 
   30153    30240    30365    30557    30800    31043    31237    31299 
   31164    30892    30620    30434    30354    30373    30443    30510 
   30591    30738    30954    31201    31426    31560    31554    31449 
   31321    31214    31140    31085    31039    31013    31040    31132 
   31264    31396    31511    31592    31611    31560    31461    31342 
   31222    31135    31116    31194    31360    31554    31698    31742 
   31684    31545    31353    31159    30990    30840    30719    30646 
   30622    30662    30790    31002    31257    31525    31747    31860 
   31837    31707    31525    31328    31149    31035    31018    31075 
   31136    31152    31108    31032    31017    31137    31392    31711 
   31978    32097    32051    31900    31700    31461    31166    30829 
   30512    30283    30218    30364    30662    30973    31175    31243 
   31195    31075    30932    30786    30618    30410    30202    30053 
   30005    30056    30199    30414    30658    30902    31140    31349 
   31500    31604    31677    31715    31702    31631    31553    31550 
   31652    31797    31881    31787    31488    31093    30715    30429 
   30283    30277    30376    30537    30697    30798    30838    30855 
   30866    30858    30834    30813    30801    30794    30800    30842 
   30955    31147    31342    31452    31465    31413    31324    31233 
   31187    31187    31221    31297    31398    31475    31494    31428 
   31272    31085    30951    30905    30929    30969    30970    30905 
   30808    30754    30782    30871    30955    30993    30991    31004 
   31081    31251    31519    31828    32098    32282    32364    32343 
   32243    32093    31895    31665    31425    31178    30946    30770 
   30646    30564    30547    30611    30721    30820    30859    30828 
   30755    30694    30658    30609    30534    30485    30508    30591 
