Origin Time       2025/06/03 22:18:00
Lat.              41.7
Long.             143.6
Depth. (km)       30
Mag.              5.2
Station Code      TKCH08
Station Lat.      42.4865
Station Long.     143.1520
Station Height(m) 360
Record Time       2025/06/03 22:18:42
Sampling Freq(Hz) 100Hz
Duration Time(s)  120
Dir.              4
Scale Factor      7845(gal)/8223790
Max. Acc. (gal)   4.008
Last Correction   2025/06/03 22:18:42
Memo.             
[...]
  -19980   -19980   -19985   -19989   -19989   -19986   -19986   -19990 
  -19996   -19993   -19994   -19998   -20000   -20002   -20001   -19997 
  -19998   -20005   -20009   -20012   -20015   -20020   -20025   -20024 
  -20016   -20001   -19980   -19961   -19951   -19944   -19946   -19963 
  -20000   -20035   -20054   -20046   -20008   -19947   -19882   -19828 
  -19815   -19853   -19946   -20085   -20243   -20370   -20405   -20310 
  -20106   -19862   -19654   -19537   -19549   -19700   -19957   -20224 
  -20398   -20409   -20228   -19888   -19499   -19225   -19172   -19344 
  -19678   -20065   -20383   -20559   -20533   -20293   -19927   -19572 
  -19342   -19311   -19481   -19795   -20159   -20452   -20564   -20440 
  -20137   -19824   -19662   -19739   -20056   -20544   -21087   -21532 
  -21726   -21568   -21066   -20353   -19673   -19279   -19322   -19751 
  -20351   -20883   -21163   -21058   -20540   -19762   -18978   -18393 
  -18148   -18293   -18781   -19479   -20174   -20626   -20683   -20295 
  -19518   -18563   -17760   -17397   -17602   -18295   -19232   -20125 
  -20726   -20848   -20429   -19627   -18774   -18246   -18316   -19030 
  -20174   -21388   -22337   -22774   -22573   -21802   -20734   -19739 
  -19124   -19032   -19460   -20244   -21087   -21676   -21810   -21427 
  -20595   -19565   -18724   -18373   -18625   -19388   -20385   -21296 
  -21865   -21894   -21316   -20316   -19287   -18638   -18581   -19053 
  -19788   -20460   -20818   -20753   -20279   -19541   -18831   -18473 
  -18655   -19368   -20409   -21417   -22023   -22050   -21505   -20493 
  -19286   -18311   -17925   -18222   -19035   -20017   -20768   -21008 
  -20663   -19840   -18824   -18027   -17776   -18141   -18979   -20020 
  -20925   -21439   -21489   -21124   -20487   -19812   -19341   -19203 
  -19399   -19816   -20283   -20672   -20888   -20854   -20603   -20256 
  -19919   -19666   -19549   -19581   -19765   -20058   -20367   -20619 
  -20773   -20780   -20618   -20348   -20069   -19846   -19730   -19750 
  -19874   -19996   -20008   -19865   -19585   -19240   -18948   -18817 
  -18902   -19211   -19689   -20204   -20575   -20663   -20445   -20070 
  -19746   -19577   -19543   -19604   -19764   -20020   -20301   -20494 
  -20497   -20304   -19981   -19624   -19349   -19249   -19337   -19565 
  -19870   -20191   -20455   -20607   -20644   -20586   -20487   -20430 
  -20455   -20551   -20659   -20673   -20520   -20247   -19985   -19835 
  -19818   -19889   -19970   -20029   -20106   -20225   -20356   -20436 
  -20406   -20272   -20105   -19985   -19939   -19940   -19948   -19915 
  -19807   -19627   -19388   -19120   -18908   -18866   -19006   -19268 
  -19595   -19897   -20047   -19980   -19750   -19519   -19452   -19596 
  -19892   -20221   -20463   -20567   -20534   -20385   -20194   -20081 
  -20124   -20308   -20533   -20665   -20644   -20499   -20275   -20019 
  -19785   -19606   -19526   -19580   -19714   -19851   -19966   -20047 
  -20083   -20075   -20042   -19989   -19916   -19842   -19807   -19838 
  -19957   -20152   -20366   -20530   -20603   -20552   -20376   -20135 
  -19900   -19695   -19491   -19291   -19153   -19157   -19333   -19596 
  -19801   -19873   -19822   -19703   -19570   -19480   -19476   -19568 
  -19742   -19965   -20163   -20271   -20264   -20187   -20146   -20198 
  -20297   -20339   -20252   -20055   -19831   -19689   -19747   -20070 
  -20599   -21163   -21568   -21683   -21458   -20911   -20140   -19356 
  -18817   -18681   -18936   -19456   -20046   -20510   -20714   -20574 
  -20073   -19344   -18652   -18262   -18320   -18831   -19665   -20568 
  -21239   -21474   -21240   -20661   -19969   -19410   -19159   -19269 
  -19658   -20101   -20372   -20372   -20146   -19831   -19577   -19444 
  -19438   -19606   -19944   -20309   -20525   -20530   -20382   -20182 
  -20054   -20058   -20164   -20297   -20393   -20428   -20403   -20308 
  -20136   -19923   -19726   -19588   -19552   -19654   -19888   -20177 
  -20437   -20625   -20736   -20775   -20723   -20578   -20358   -20093 
  -19820   -19602   -19484   -19469   -19512   -19565   -19580   -19516 
  -19387   -19273   -19249   -19345   -19539   -19791   -20052   -20254 
  -20349   -20329   -20178   -19916   -19656   -19521   -19550   -19712 
  -19946   -20178   -20348   -20416   -20341   -20127   -19831   -19523 
  -19294   -19230   -19352   -19626   -20012   -20422   -20733   -20839 
  -20721   -20436   -20066   -19673   -19327   -19132   -19182   -19475 
  -19853   -20127   -20216   -20142   -19961   -19724   -19506   -19403 
  -19510   -19805   -20142   -20359   -20398   -20282   -20094   -19940 
  -19874   -19907   -20042   -20225   -20379   -20461   -20488   -20507 
  -20552   -20641   -20777   -20930   -21037   -21018   -20823   -20517 
  -20233   -20051   -19961   -19923   -19913   -19928   -19971   -20029 
  -20029   -19917   -19734   -19535   -19326   -19132   -18997   -18947 
  -19003   -19171   -19426   -19719   -19994   -20181   -20212   -20061 
  -19745   -19325   -18917   -18665   -18636   -18839   -19260   -19835 
  -20437   -20935   -21215   -21208   -20961   -20617   -20316   -20144 
  -20124   -20200   -20294   -20355   -20337   -20236   -20119   -20078 
  -20196   -20449   -20682   -20753   -20667   -20517   -20360   -20190 
  -20020   -19926   -19963   -20100   -20239   -20302   -20250   -20066 
  -19789   -19506   -19278   -19132   -19055   -19016   -19026   -19121 
  -19318   -19585   -19822   -19942   -19965   -19955   -19932   -19878 
  -19796   -19719   -19681   -19719   -19854   -20046   -20206   -20275 
  -20228   -20078   -19888   -19750   -19755   -19931   -20210   -20471 
  -20579   -20457   -20146   -19778   -19523   -19526   -19851   -20410 
  -20977   -21307   -21215   -20688   -19934   -19240   -18823   -18781 
  -19082   -19593   -20154   -20592   -20749   -20567   -20156   -19726 
  -19450   -19421   -19651   -20096   -20646   -21114   -21298   -21116 
  -20601   -19888   -19195   -18769   -18792   -19294   -20083   -20819 
  -21207   -21139   -20707   -20112   -19572   -19267   -19296   -19662 
  -20223   -20718   -20946   -20834   -20416   -19828   -19275   -18910 
  -18770   -18827   -19070   -19475   -19948   -20349   -20530   -20416 
  -20056   -19558   -19059   -18738   -18732   -19067   -19627   -20217 
  -20652   -20818   -20696   -20339   -19838   -19371   -19145   -19249 
  -19634   -20164   -20661   -20968   -21015   -20811   -20440   -20050 
  -19788   -19742   -19928   -20318   -20822   -21290   -21566   -21536 
  -21182   -20602   -19971   -19491   -19302   -19421   -19738   -20086 
  -20321   -20343   -20094   -19631   -19126   -18790   -18750   -18981 
  -19326   -19604   -19704   -19635   -19476   -19313   -19226   -19291 
  -19538   -19944   -20413   -20783   -20922   -20783   -20393   -19865 
  -19373   -19064   -19003   -19197   -19558   -19927   -20183   -20278 
  -20193   -19978   -19750   -19614   -19650   -19893   -20268   -20628 
  -20857   -20893   -20706   -20362   -20011   -19751   -19591   -19521 
  -19529   -19627   -19843   -20150   -20464   -20706   -20814   -20771 
  -20633   -20497   -20390   -20285   -20193   -20127   -20042   -19886 
  -19649   -19381   -19207   -19226   -19427   -19716   -19961   -20061 
  -20002   -19846   -19680   -19610   -19700   -19915   -20147   -20310 
  -20364   -20304   -20173   -20051   -20007   -20061   -20183   -20314 
  -20418   -20486   -20525   -20529   -20460   -20281   -20011   -19715 
  -19460   -19321   -19368   -19620   -20044   -20544   -20934   -21049 
  -20818   -20279   -19591   -18990   -18631   -18554   -18759   -19194 
  -19716   -20159   -20422   -20455   -20255   -19897   -19518   -19272 
  -19295   -19622   -20143   -20663   -20995   -21018   -20736   -20233 
  -19638   -19080   -18677   -18509   -18607   -18945   -19456   -20019 
  -20521   -20916   -21200   -21332   -21249   -20931   -20464   -19969 
  -19539   -19236   -19097   -19153   -19404   -19768   -20128   -20390 
  -20520   -20548   -20509   -20418   -20295   -20170   -20078   -20039 
  -20029   -20029   -20040   -20079   -20136   -20154   -20075   -19894 
  -19637   -19359   -19161   -19134   -19319   -19676   -20074   -20380 
  -20518   -20472   -20306   -20128   -20035   -20071   -20241   -20498 
  -20723   -20791   -20671   -20410   -20069   -19728   -19487   -19417 
  -19506   -19685   -19880   -20015   -20027   -19920   -19753   -19624 
  -19626   -19778   -20025   -20277   -20401   -20285   -19930   -19468 
  -19067   -18866   -18958   -19317   -19795   -20202   -20356   -20163 
  -19718   -19245   -18974   -19048   -19475   -20119   -20776   -21278 
  -21525   -21450   -21054   -20474   -19924   -19593   -19579   -19867 
  -20360   -20881   -21220   -21215   -20823   -20150   -19380   -18751 
  -18501   -18746   -19386   -20166   -20808   -21096   -20946   -20428 
  -19728   -19074   -18655   -18562   -18790   -19275   -19869   -20378 
  -20661   -20660   -20386   -19969   -19584   -19352   -19340   -19566 
  -19966   -20439   -20869   -21130   -21142   -20919   -20537   -20115 
  -19777   -19610   -19608   -19693   -19777   -19819   -19824   -19803 
  -19768   -19758   -19796   -19857   -19915   -19955   -19984   -20008 
  -20007   -19954   -19861   -19761   -19668   -19587   -19530   -19525 
  -19622   -19840   -20097   -20291   -20385   -20374   -20259   -20073 
  -19885   -19757   -19720   -19791   -19947   -20139   -20298   -20359 
  -20290   -20106   -19866   -19649   -19548   -19635   -19903   -20256 
  -20602   -20846   -20906   -20754   -20456   -20146   -19969   -20000 
  -20198   -20426   -20556   -20524   -20308   -19947   -19534   -19198 
  -19059   -19153   -19421   -19726   -19942   -20017   -19955   -19789 
  -19581   -19408   -19332   -19373   -19484   -19575   -19602   -19623 
  -19715   -19899   -20121   -20281   -20313   -20241   -20120   -19988 
  -19897   -19913   -20077   -20375   -20711   -20970   -21080   -21024 
  -20850   -20617   -20382   -20218   -20173   -20221   -20304   -20372 
  -20412   -20436   -20460   -20468   -20417   -20277   -20061   -19774 
  -19434   -19101   -18855   -18774   -18891   -19163   -19516   -19874 
  -20142   -20252   -20186   -19954   -19623   -19294   -19044   -18928 
  -18964   -19143   -19442   -19822   -20183   -20430   -20515   -20440 
  -20240   -19981   -19738   -19579   -19564   -19695   -19927   -20189 
  -20425   -20595   -20675   -20669   -20601   -20470   -20302   -20163 
  -20101   -20148   -20310   -20521   -20688   -20753   -20690   -20499 
  -20209   -19867   -19549   -19348   -19337   -19506   -19759   -19981 
  -20097   -20083   -19943   -19715   -19476   -19322   -19325   -19495 
  -19791   -20129   -20407   -20522   -20426   -20156   -19813   -19504 
  -19307   -19284   -19440   -19680   -19882   -19965   -19862   -19584 
  -19260   -19020   -18939   -19066   -19381   -19788   -20163   -20402 
  -20439   -20290   -20047   -19816   -19688   -19730   -19940   -20236 
  -20507   -20652   -20580   -20260   -19731   -19113   -18607   -18416 
  -18646   -19267   -20124   -20983   -21613   -21868   -21708   -21211 
  -20556   -19962   -19637   -19697   -20100   -20636   -21043   -21163 
  -20985   -20618   -20223   -19919   -19777   -19839   -20110   -20537 
  -21003   -21378   -21591   -21663   -21629   -21497   -21278   -20991 
  -20633   -20196   -19683   -19130   -18588   -18117   -17802   -17740 
  -18006   -18620   -19510   -20529   -21450   -22011   -22006   -21366 
  -20209   -18825   -17593   -16858   -16812   -17432   -18527   -19750 
  -20692   -21043   -20710   -19863   -18897   -18234   -18164   -18802 
  -20039   -21520   -22789   -23465   -23332   -22419   -21049   -19712 
  -18827   -18598   -18975   -19685   -20370   -20695   -20484   -19799 
  -18902   -18153   -17883   -18280   -19279   -20561   -21699   -22316 
  -22216   -21443   -20271   -19103   -18322   -18142   -18561   -19398 
  -20364   -21123   -21382   -21049   -20281   -19386   -18696   -18451 
  -18705   -19321   -20071   -20726   -21108   -21115   -20723   -20008 
  -19133   -18277   -17566   -17076   -16858   -16915   -17196   -17613 
  -18080   -18539   -18991   -19481   -20032   -20607   -21154   -21622 
  -21951   -22054   -21876   -21463   -20964   -20548   -20328   -20318 
  -20479   -20698   -20790   -20613   -20191   -19705   -19365   -19314 
  -19597   -20154   -20849   -21519   -21978   -22081   -21798   -21251 
  -20671   -20244   -20066   -20163   -20479   -20861   -21123   -21101 
  -20741   -20147   -19541   -19178   -19255   -19843   -20848   -21998 
  -22918   -23265   -22852   -21714   -20155   -18642   -17606   -17313 
  -17805   -18870   -20135   -21180   -21672   -21483   -20746   -19777 
  -18935   -18490   -18501   -18836   -19325   -19809   -20113   -20078 
  -19674   -19044   -18382   -17874   -17628   -17635   -17832   -18171 
  -18581   -18975   -19278   -19467   -19614   -19822   -20101   -20371 
  -20557   -20632   -20587   -20441   -20266   -20152   -20160   -20289 
  -20463   -20563   -20474   -20133   -19568   -18886   -18234   -17739 
  -17520   -17698   -18311   -19219   -20214   -21095   -21659   -21748 
  -21328   -20506   -19538   -18773   -18492   -18766   -19452   -20295 
  -20950   -21111   -20711   -19944   -19122   -18582   -18578   -19184 
  -20240   -21413   -22303   -22577   -22133   -21168   -20079   -19302 
  -19136   -19653   -20711   -22005   -23121   -23653   -23382   -22395 
  -21057   -19835   -19126   -19140   -19850   -21057   -22435   -23587 
  -24182   -24059   -23260   -22018   -20682   -19565   -18855   -18589 
  -18663   -18889   -19068   -19071   -18839   -18384   -17766   -17080 
  -16476   -16127   -16133   -16476   -17034   -17660   -18268   -18786 
  -19159   -19379   -19479   -19543   -19695   -20007   -20398   -20680 
  -20719   -20533   -20251   -20043   -20074   -20402   -20937   -21493 
  -21880   -21961   -21701   -21181   -20536   -19907   -19427   -19184 
  -19182   -19359   -19585   -19710   -19651   -19452   -19206   -19028 
  -18997   -19130   -19430   -19900   -20491   -21077   -21502   -21635 
  -21427   -20952   -20372   -19904   -19741   -19915   -20318   -20783 
  -21124   -21228   -21084   -20710   -20163   -19573   -19079   -18763 
  -18640   -18666   -18785   -18995   -19307   -19674   -20007   -20248 
  -20399   -20474   -20434   -20231   -19901   -19603   -19519   -19738 
  -20233   -20885   -21524   -22005   -22230   -22106   -21593   -20810 
  -20024   -19527   -19487   -19842   -20352   -20752   -20829   -20460 
  -19672   -18642   -17618   -16810   -16340   -16256   -16529   -17061 
  -17709   -18331   -18858   -19288   -19635   -19912   -20142   -20352 
  -20571   -20830   -21155   -21498   -21709   -21667   -21370   -20899 
  -20391   -20004   -19876   -20044   -20416   -20800   -21027   -21042 
  -20911   -20775   -20787   -21050   -21556   -22179   -22715   -22994 
  -22932   -22524   -21879   -21197   -20650   -20317   -20213   -20279 
  -20385   -20386   -20171   -19719   -19099   -18426   -17809   -17332 
  -17049   -16978   -17093   -17296   -17458   -17505   -17463   -17401 
  -17388   -17471   -17671   -17996   -18441   -18951   -19465   -19934 
  -20328   -20621   -20773   -20795   -20734   -20637   -20610   -20777 
  -21177   -21755   -22368   -22824   -22943   -22648   -22011   -21219 
  -20503   -20047   -19894   -19969   -20144   -20271   -20224   -19970 
  -19570   -19176   -18979   -19129   -19642   -20383   -21158   -21753 
  -21980   -21778   -21220   -20439   -19611   -18937   -18550   -18477 
  -18643   -18894   -19064   -19051   -18867   -18600   -18372   -18303 
  -18470   -18870   -19402   -19930   -20356   -20642   -20756   -20661 
  -20370   -19967   -19593   -19376   -19387   -19634   -20081   -20673 
  -21330   -21924   -22331   -22477   -22353   -21994   -21456   -20856 
  -20356   -20066   -20000   -20127   -20382   -20679   -20934   -21074 
  -21037   -20779   -20316   -19728   -19120   -18596   -18254   -18165 
  -18350   -18769   -19309   -19823   -20182   -20290   -20097   -19657 
  -19118   -18632   -18306   -18211   -18373   -18738   -19194   -19649 
  -20073   -20429   -20652   -20690   -20557   -20316   -20038   -19768 
  -19537   -19380   -19330   -19410   -19618   -19919   -20262   -20610 
  -20934   -21174   -21238   -21051   -20644   -20133   -19684   -19475 
  -19639   -20178   -20935   -21691   -22221   -22358   -22056   -21362 
  -20414   -19452   -18747   -18504   -18778   -19415   -20146   -20745 
  -21081   -21074   -20698   -19997   -19109   -18264   -17705   -17543 
  -17726   -18144   -18669   -19155   -19445   -19415   -19052   -18492 
  -17930   -17529   -17427   -17697   -18292   -19057   -19781   -20267 
  -20387   -20132   -19646   -19147   -18823   -18804   -19111   -19681 
  -20378   -21034   -21514   -21789   -21903   -21917   -21880   -21851 
  -21845   -21820   -21759   -21691   -21666   -21716   -21837   -21982 
  -22059   -21982   -21691   -21172   -20487   -19765   -19159   -18813 
  -18809   -19117   -19614   -20115   -20432   -20456   -20193   -19732 
  -19188   -18677   -18307   -18148   -18222   -18504   -18906   -19360 
  -19834   -20293   -20714   -21058   -21247   -21243   -21060   -20737 
  -20366   -20059   -19861   -19751   -19732   -19807   -19908   -19936 
  -19827   -19579   -19244   -18935   -18765   -18789   -19029   -19425 
  -19842   -20169   -20359   -20380   -20237   -19997   -19766   -19658 
  -19776   -20133   -20618   -21076   -21375   -21420   -21197   -20787 
  -20316   -19909   -19665   -19612   -19687   -19785   -19811   -19678 
  -19394   -19066   -18797   -18636   -18612   -18701   -18843   -18970 
  -19029   -18983   -18837   -18663   -18570   -18640   -18909   -19357 
  -19907   -20445   -20869   -21109   -21165   -21076   -20925   -20811 
  -20814   -20974   -21265   -21571   -21768   -21810   -21699   -21483 
  -21261   -21116   -21078   -21145   -21285   -21435   -21521   -21478 
  -21250   -20852   -20391   -19965   -19604   -19338   -19197   -19155 
  -19147   -19111   -18995   -18742   -18354   -17928   -17597   -17504 
  -17717   -18180   -18759   -19283   -19591   -19620   -19422   -19121 
  -18841   -18694   -18769   -19084   -19575   -20120   -20606   -20954 
  -21139   -21204   -21215   -21216   -21219   -21217   -21219   -21234 
  -21227   -21123   -20885   -20536   -20132   -19772   -19552   -19527 
  -19681   -19935   -20205   -20410   -20466   -20345   -20104   -19843 
  -19668   -19627   -19742   -19980   -20243   -20445   -20565   -20611 
  -20596   -20528   -20422   -20316   -20217   -20108   -19969   -19791 
  -19572   -19337   -19140   -19022   -18994   -19052   -19155   -19236 
  -19278   -19286   -19249   -19201   -19211   -19332   -19558   -19845 
  -20124   -20321   -20385   -20309   -20156   -20009   -19900   -19832 
  -19822   -19885   -20004   -20128   -20177   -20088   -19890   -19666 
  -19479   -19387   -19430   -19607   -19890   -20223   -20497   -20603 
  -20506   -20267   -20000   -19824   -19823   -19989   -20259   -20548 
  -20784   -20918   -20919   -20790   -20583   -20358   -20147   -19953 
  -19778   -19639   -19549   -19507   -19512   -19566   -19665   -19778 
  -19872   -19923   -19907   -19813   -19678   -19557   -19491   -19492 
  -19552   -19666   -19823   -19977   -20070   -20062   -19955   -19811 
  -19705   -19691   -19781   -19959   -20223   -20544   -20833   -20980 
