Origin Time       2025/06/03 22:18:00
Lat.              41.7
Long.             143.6
Depth. (km)       30
Mag.              5.2
Station Code      TKCH08
Station Lat.      42.4865
Station Long.     143.1520
Station Height(m) 260
Record Time       2025/06/03 22:18:42
Sampling Freq(Hz) 100Hz
Duration Time(s)  120
Dir.              1
Scale Factor      2942(gal)/8224139
Max. Acc. (gal)   1.116
Last Correction   2025/06/03 22:18:42
Memo.             
[...]
  192473   192469   192469   192473   192474   192472   192472   192473 
  192473   192472   192473   192472   192472   192474   192474   192473 
  192474   192470   192472   192474   192470   192469   192470   192466 
  192465   192468   192464   192460   192461   192457   192451   192451 
  192447   192438   192430   192424   192426   192427   192420   192418 
  192426   192435   192445   192456   192461   192464   192457   192449 
  192451   192456   192465   192491   192524   192559   192588   192585 
  192541   192460   192365   192267   192173   192111   192105   192168 
  192295   192437   192545   192600   192591   192526   192468   192466 
  192504   192541   192585   192674   192798   192878   192832   192686 
  192551   192470   192414   192358   192321   192342   192416   192489 
  192569   192673   192801   192921   192933   192827   192709   192642 
  192624   192608   192520   192308   191924   191440   191096   191056 
  191277   191606   191922   192180   192366   192470   192485   192424 
  192298   192099   191920   191951   192238   192565   192703   192659 
  192597   192597   192561   192402   192272   192361   192599   192840 
  193071   193306   193544   193742   193754   193515   193185   192950 
  192838   192743   192632   192558   192470   192300   192156   192176 
  192310   192406   192406   192385   192441   192624   192882   193071 
  193147   193189   193229   193217   193081   192817   192555   192426 
  192441   192549   192705   192851   192870   192746   192628   192593 
  192549   192466   192410   192381   192334   192219   192013   191754 
  191533   191432   191496   191685   191833   191803   191683   191650 
  191751   191864   191884   191905   192063   192318   192499   192478 
  192281   192084   192072   192203   192306   192342   192350   192360 
  192433   192580   192736   192852   192954   193033   193044   193032 
  193016   192936   192792   192628   192549   192615   192703   192711 
  192704   192743   192794   192794   192765   192770   192808   192827 
  192775   192655   192524   192404   192318   192303   192285   192198 
  192099   192061   192079   192125   192202   192315   192407   192407 
  192350   192350   192458   192601   192682   192684   192655   192649 
  192665   192693   192753   192797   192746   192612   192516   192532 
  192593   192608   192595   192609   192658   192686   192653   192573 
  192465   192372   192397   192539   192654   192661   192562   192411 
  192330   192358   192391   192343   192235   192115   192030   192042 
  192188   192381   192511   192559   192541   192503   192488   192419 
  192277   192217   192289   192379   192381   192311   192285   192349 
  192384   192337   192277   192295   192412   192554   192647   192657 
  192541   192338   192194   192175   192195   192160   192056   191951 
  191949   192038   192146   192303   192535   192786   192951   192916 
  192732   192599   192618   192728   192850   192879   192736   192496 
  192283   192137   192111   192262   192504   192666   192673   192592 
  192518   192468   192439   192469   192549   192605   192603   192565 
  192523   192530   192613   192708   192721   192670   192635   192627 
  192589   192508   192404   192242   192046   191957   192078   192341 
  192592   192789   192958   193056   193052   192966   192846   192755 
  192686   192578   192429   192319   192300   192338   192369   192385 
  192450   192526   192501   192410   192352   192356   192395   192434 
  192461   192485   192526   192593   192665   192705   192677   192550 
  192361   192217   192194   192258   192361   192535   192766   192946 
  193000   192933   192815   192735   192709   192649   192484   192287 
  192168   192145   192198   192307   192442   192518   192454   192268 
  192051   191913   191918   192006   192092   192175   192283   192397 
  192458   192451   192473   192582   192700   192689   192537   192365 
  192272   192240   192230   192234   192264   192370   192584   192811 
  192933   192937   192885   192825   192744   192596   192439   192400 
  192461   192451   192326   192219   192245   192365   192420   192318 
  192137   192001   191941   191957   192061   192217   192356   192418 
  192370   192252   192187   192229   192281   192302   192343   192427 
  192538   192600   192520   192338   192188   192191   192327   192489 
  192616   192731   192854   192910   192846   192780   192801   192817 
  192750   192615   192481   192403   192368   192377   192491   192677 
  192813   192851   192842   192820   192784   192717   192627   192568 
  192584   192635   192649   192643   192662   192716   192813   192929 
  192996   192990   192943   192897   192843   192734   192593   192516 
  192576   192755   192947   193058   193063   192950   192740   192534 
  192384   192316   192365   192445   192449   192392   192296   192176 
  192084   192056   192083   192114   192082   191972   191862   191808 
  191779   191756   191758   191790   191874   192007   192096   192079 
  192030   192064   192235   192499   192705   192762   192720   192650 
  192549   192404   192273   192242   192338   192477   192599   192716 
  192823   192844   192789   192757   192782   192807   192778   192696 
  192578   192464   192376   192289   192187   192119   192113   192118 
  192133   192252   192489   192701   192766   192721   192674   192646 
  192585   192545   192615   192709   192689   192589   192518   192516 
  192546   192530   192451   192353   192264   192211   192206   192237 
  192267   192267   192258   192279   192331   192383   192388   192329 
  192215   192107   192092   192176   192279   192362   192441   192503 
  192542   192588   192645   192681   192703   192739   192784   192832 
  192873   192858   192753   192595   192477   192472   192577   192758 
  192983   193168   193189   193028   192775   192565   192453   192384 
  192348   192410   192572   192715   192738   192669   192624   192658 
  192686   192626   192488   192349   192299   192342   192384   192358 
  192285   192192   192094   192005   191945   191933   191972   192067 
  192214   192350   192383   192298   192171   192090   192098   192145 
  192163   192156   192157   192200   192310   192451   192531   192512 
  192449   192373   192283   192213   192213   192291   192396   192476 
  192542   192588   192576   192518   192485   192495   192497   192489 
  192504   192570   192693   192794   192816   192744   192580   192420 
  192379   192420   192464   192492   192512   192546   192591   192624 
  192624   192604   192612   192661   192708   192759   192821   192854 
  192854   192829   192747   192586   192389   192218   192126   192142 
  192225   192319   192375   192322   192168   192040   192029   192122 
  192268   192412   192505   192507   192391   192213   192113   192145 
  192229   192306   192408   192539   192630   192627   192561   192512 
  192484   192418   192343   192311   192312   192342   192387   192422 
  192491   192635   192798   192904   192974   193082   193239   193378 
  193403   193267   193045   192883   192856   192915   192943   192890 
  192798   192728   192724   192761   192805   192846   192848   192786 
  192657   192443   192214   192067   192009   192015   192079   192134 
  192121   192110   192194   192335   192470   192580   192604   192531 
  192437   192358   192304   192289   192295   192314   192365   192424 
  192450   192414   192303   192171   192096   192086   192099   192142 
  192208   192254   192250   192192   192127   192129   192203   192275 
  192260   192152   192038   192045   192214   192438   192615   192709 
  192693   192591   192514   192539   192626   192685   192662   192562 
  192466   192441   192445   192424   192408   192396   192348   192275 
  192213   192171   192169   192230   192316   192352   192322   192298 
  192306   192346   192420   192512   192605   192707   192867   193114 
  193356   193480   193498   193469   193369   193159   192929   192780 
  192693   192622   192545   192489   192497   192532   192541   192547 
  192582   192596   192578   192565   192549   192512   192435   192312 
  192190   192111   192075   192103   192229   192407   192573   192689 
  192731   192704   192632   192543   192487   192468   192434   192364 
  192269   192175   192107   192096   192156   192235   192287   192321 
  192352   192366   192339   192283   192244   192218   192194   192176 
  192177   192214   192279   192362   192454   192512   192510   192473 
  192435   192411   192407   192437   192484   192519   192518   192466 
  192384   192350   192400   192518   192682   192827   192825   192658 
  192445   192300   192257   192302   192410   192551   192684   192743 
  192719   192665   192618   192581   192554   192553   192595   192647 
  192705   192808   192898   192885   192754   192581   192442   192352 
  192323   192387   192510   192607   192618   192577   192553   192535 
  192469   192375   192299   192271   192292   192333   192362   192381 
  192395   192404   192418   192415   192388   192384   192429   192473 
  192480   192445   192356   192225   192134   192110   192119   192176 
  192275   192383   192488   192547   192526   192484   192484   192524 
  192591   192678   192738   192721   192653   192582   192566   192603 
  192604   192557   192520   192534   192603   192659   192616   192515 
  192447   192454   192524   192636   192747   192813   192809   192719 
  192564   192383   192200   192069   192053   192168   192369   192528 
  192570   192549   192514   192474   192458   192510   192609   192676 
  192680   192663   192666   192669   192620   192520   192439   192404 
  192376   192329   192272   192256   192308   192376   192395   192384 
  192406   192473   192505   192450   192349   192292   192310   192331 
  192312   192265   192171   192056   192014   192079   192235   192443 
  192623   192735   192769   192730   192697   192724   192769   192775 
  192732   192640   192512   192402   192338   192312   192311   192325 
  192339   192354   192384   192422   192435   192399   192319   192218 
  192159   192186   192265   192334   192376   192393   192365   192289 
  192172   192068   192075   192194   192341   192454   192511   192539 
  192559   192551   192516   192476   192431   192372   192295   192234 
  192203   192173   192149   192190   192326   192487   192592   192658 
  192720   192758   192753   192724   192700   192677   192634   192549 
  192453   192423   192496   192631   192761   192819   192798   192754 
  192724   192709   192681   192653   192657   192666   192630   192545 
  192431   192338   192292   192275   192299   192369   192446   192514 
  192572   192582   192534   192483   192485   192534   192577   192574 
  192550   192554   192592   192616   192605   192572   192526   192461 
  192362   192238   192148   192144   192180   192199   192244   192358 
  192465   192489   192483   192507   192562   192657   192782   192867 
  192871   192840   192817   192807   192805   192793   192767   192761 
  192789   192819   192836   192852   192881   192928   192986   193047 
  193114   193179   193243   193307   193376   193426   193406   193310 
  193175   193002   192828   192721   192657   192558   192433   192308 
  192161   192024   191953   191947   192010   192118   192154   192056 
  191867   191664   191538   191517   191542   191554   191515   191384 
  191204   191072   191007   190966   190941   190958   191020   191100 
  191201   191374   191613   191883   192153   192339   192358   192207 
  191921   191558   191185   190887   190765   190863   191138   191547 
  192029   192484   192798   192940   192959   192932   192925   192987 
  193083   193166   193189   193091   192871   192651   192557   192611 
  192792   193059   193365   193681   193962   194125   194119   193946 
  193699   193545   193577   193749   193972   194178   194306   194313 
  194213   194047   193830   193584   193372   193251   193209   193210 
  193220   193164   192977   192669   192325   192007   191710   191401 
  191127   191004   191025   191064   191095   191154   191224   191266 
  191273   191304   191405   191569   191764   191957   192154   192381 
  192626   192901   193248   193645   194017   194266   194336   194274 
  194128   193923   193718   193517   193282   193006   192732   192554 
  192516   192577   192672   192717   192712   192738   192767   192700 
  192519   192306   192172   192153   192176   192206   192302   192487 
  192685   192851   193013   193193   193351   193436   193415   193251 
  192935   192524   192106   191762   191582   191592   191690   191759 
  191748   191644   191458   191219   190944   190665   190440   190296 
  190220   190190   190196   190232   190281   190325   190355   190387 
  190470   190629   190822   190993   191110   191200   191297   191390 
  191482   191631   191843   192034   192167   192331   192627   193012 
  193342   193529   193607   193658   193711   193774   193853   193915 
  193931   193927   193947   193984   193999   193972   193889   193742 
  193583   193472   193444   193521   193650   193745   193784   193766 
  193688   193591   193477   193329   193186   193117   193180   193342 
  193456   193438   193328   193199   193132   193183   193336   193549 
  193749   193835   193768   193594   193406   193299   193303   193419 
  193634   193843   193912   193807   193588   193341   193133   192946 
  192765   192658   192636   192603   192504   192291   191887   191307 
  190665   190108   189722   189486   189352   189363   189567   189882 
  190201   190474   190679   190809   190819   190702   190586   190587 
  190719   190984   191300   191513   191556   191450   191293   191261 
  191436   191747   192083   192358   192546   192662   192708   192651 
  192488   192265   192053   191933   191928   191986   192096   192257 
  192412   192530   192607   192650   192667   192640   192603   192622 
  192680   192716   192709   192663   192628   192677   192835   193072 
  193329   193558   193730   193858   194027   194297   194618   194894 
  195076   195169   195130   194923   194630   194329   194028   193758 
  193542   193365   193198   193009   192811   192623   192431   192199 
  191883   191502   191164   190983   191008   191185   191408   191586 
  191679   191714   191782   191922   192136   192403   192638   192759 
  192789   192762   192658   192461   192237   192087   192026   191971 
  191876   191845   191982   192225   192441   192549   192492   192262 
  191974   191781   191725   191762   191848   191921   191914   191816 
  191631   191411   191276   191315   191520   191794   192061   192334 
  192589   192754   192886   193102   193392   193625   193712   193696 
  193699   193780   193911   194038   194077   193955   193704   193418 
  193170   193017   192985   193014   193036   193018   192932   192762 
  192539   192318   192127   191988   191930   191972   192049   192056 
  191961   191813   191697   191689   191791   191945   192061   192076 
  191984   191789   191516   191253   191053   190895   190790   190771 
  190836   190980   191212   191505   191789   192029   192248   192472 
  192696   192892   193048   193172   193261   193317   193334   193307 
  193240   193133   193016   192924   192875   192904   193002   193125 
  193282   193468   193585   193584   193491   193291   192981   192638 
  192368   192241   192258   192373   192539   192699   192808   192879 
  192989   193186   193413   193560   193560   193414   193186   192944 
  192723   192497   192238   191960   191674   191404   191230   191200 
  191257   191316   191342   191366   191450   191620   191839   192034 
  192181   192275   192295   192273   192275   192319   192387   192445 
  192469   192466   192478   192557   192704   192883   193077   193232 
  193270   193180   193024   192854   192681   192485   192280   192123 
  192032   191980   191956   191957   192019   192177   192364   192466 
  192481   192454   192391   192279   192157   192067   191987   191891 
  191791   191717   191694   191736   191832   191951   192073   192187 
  192287   192397   192505   192562   192566   192543   192522   192531 
  192591   192694   192765   192740   192677   192620   192535   192408 
  192289   192230   192208   192176   192157   192215   192383   192651 
  192964   193226   193371   193410   193390   193309   193151   192956 
  192780   192669   192645   192678   192713   192705   192630   192489 
  192335   192233   192217   192261   192272   192195   192094   192028 
  192001   191992   191964   191899   191843   191840   191870   191905 
  191970   192098   192308   192578   192816   192958   193027   193064 
  193086   193063   193017   193008   193059   193156   193244   193282 
  193257   193156   193016   192925   192942   193071   193272   193472 
  193614   193700   193734   193691   193579   193452   193348   193275 
  193240   193245   193247   193185   193083   193008   192977   192986 
  193004   192970   192877   192759   192609   192419   192223   192056 
  191932   191851   191829   191883   191956   192024   192094   192109 
  192033   191924   191843   191835   191882   191878   191764   191610 
  191500   191486   191566   191682   191768   191749   191589   191359 
  191151   190991   190879   190798   190736   190725   190796   190950 
  191165   191439   191771   192111   192393   192589   192738   192889 
  193033   193131   193185   193225   193264   193280   193286   193329 
  193371   193342   193266   193174   193058   192924   192770   192586 
  192411   192260   192122   192015   191972   191998   192068   192127 
  192137   192111   192127   192233   192407   192619   192847   193044 
  193170   193228   193240   193260   193333   193421   193472   193491 
  193471   193402   193307   193197   193075   192975   192893   192807 
  192734   192704   192673   192588   192492   192445   192424   192412 
  192384   192327   192304   192300   192252   192213   192208   192198 
  192187   192192   192221   192260   192267   192227   192173   192179 
  192244   192283   192276   192233   192115   191933   191785   191749 
  191816   191928   192045   192130   192136   192034   191841   191667 
  191616   191683   191839   192037   192206   192311   192384   192449 
  192512   192588   192674   192739   192761   192744   192713   192684 
  192673   192694   192734   192758   192757   192747   192761   192813 
  192905   193020   193104   193133   193112   193040   192928   192785 
  192635   192493   192365   192291   192285   192311   192335   192352 
  192353   192314   192230   192149   192095   192034   191943   191830 
  191729   191664   191639   191662   191745   191851   191937   192026 
  192134   192234   192343   192492   192632   192736   192846   192940 
  192951   192906   192847   192762   192684   192653   192663   192728 
  192839   192955   193052   193102   193089   193067   193043   192969 
  192873   192793   192728   192720   192758   192759   192735   192724 
  192719   192735   192763   192782   192819   192875   192909   192939 
  192991   193016   192974   192906   192850   192817   192802   192773 
  192694   192588   192480   192373   192304   192322   192408   192511 
  192559   192532   192461   192349   192218   192115   192036   191980 
  191984   192025   192082   192141   192164   192130   192059   192006 
