Origin Time       2025/06/03 22:18:00
Lat.              41.7
Long.             143.6
Depth. (km)       30
Mag.              5.2
Station Code      TKCH02
Station Lat.      43.3822
Station Long.     143.8983
Station Height(m) 328
Record Time       2025/06/03 22:19:21
Sampling Freq(Hz) 100Hz
Duration Time(s)  120
Dir.              4
Scale Factor      7845(gal)/8223790
Max. Acc. (gal)   0.378
Last Correction   2025/06/03 22:19:21
Memo.             
[...]
  -10999   -10989   -10976   -10966   -10959   -10957   -10957   -10956 
  -10948   -10935   -10921   -10916   -10917   -10914   -10901   -10883 
  -10862   -10833   -10814   -10814   -10825   -10833   -10847   -10870 
  -10899   -10929   -10948   -10952   -10948   -10937   -10926   -10926 
  -10937   -10952   -10962   -10964   -10968   -10971   -10970   -10960 
  -10949   -10945   -10947   -10948   -10955   -10975   -10997   -11010 
  -11013   -11003   -10991   -10980   -10967   -10957   -10959   -10962 
  -10966   -10975   -10987   -10997   -10999   -10993   -10982   -10972 
  -10959   -10940   -10918   -10895   -10870   -10848   -10837   -10837 
  -10851   -10870   -10885   -10886   -10885   -10889   -10897   -10910 
  -10929   -10939   -10939   -10929   -10913   -10899   -10898   -10905 
  -10914   -10929   -10952   -10976   -10994   -10990   -10964   -10939 
  -10924   -10926   -10943   -10962   -10972   -10963   -10939   -10920 
  -10917   -10926   -10939   -10947   -10949   -10945   -10936   -10924 
  -10908   -10893   -10894   -10918   -10953   -10983   -10990   -10971 
  -10948   -10937   -10943   -10963   -10984   -10990   -10982   -10963 
  -10944   -10937   -10944   -10955   -10963   -10966   -10963   -10952 
  -10936   -10929   -10945   -10982   -11021   -11045   -11049   -11037 
  -11011   -10986   -10968   -10957   -10948   -10940   -10932   -10926 
  -10932   -10944   -10959   -10975   -10979   -10970   -10955   -10933 
  -10914   -10908   -10902   -10899   -10905   -10916   -10921   -10917 
  -10903   -10890   -10879   -10870   -10868   -10878   -10889   -10899 
  -10906   -10908   -10916   -10926   -10932   -10944   -10963   -10979 
  -10994   -11003   -10998   -10978   -10951   -10917   -10887   -10872 
  -10876   -10894   -10912   -10921   -10921   -10914   -10908   -10902 
  -10901   -10912   -10925   -10917   -10895   -10885   -10887   -10903 
  -10921   -10930   -10926   -10912   -10897   -10894   -10910   -10935 
  -10956   -10970   -10971   -10960   -10944   -10929   -10921   -10935 
  -10960   -10974   -10975   -10963   -10935   -10906   -10897   -10918 
  -10964   -11005   -11014   -11002   -10991   -10995   -11003   -11009 
  -11009   -10994   -10966   -10936   -10929   -10953   -10993   -11025 
  -11048   -11060   -11060   -11051   -11033   -11014   -11001   -10995 
  -10986   -10964   -10936   -10908   -10883   -10863   -10849   -10844 
  -10844   -10854   -10876   -10916   -10956   -10976   -10976   -10959 
  -10929   -10902   -10889   -10893   -10910   -10929   -10941   -10943 
  -10929   -10914   -10902   -10889   -10875   -10864   -10862   -10871 
  -10894   -10916   -10926   -10924   -10914   -10899   -10886   -10890 
  -10912   -10949   -10990   -11016   -11020   -11003   -10971   -10940 
  -10924   -10928   -10947   -10971   -10991   -11005   -11011   -11009 
  -10999   -10991   -10990   -10984   -10970   -10959   -10956   -10959 
  -10971   -10993   -11013   -11022   -11016   -10989   -10948   -10903 
  -10864   -10836   -10835   -10863   -10903   -10943   -10971   -10982 
  -10971   -10944   -10917   -10913   -10930   -10956   -10975   -10986 
  -10986   -10976   -10959   -10932   -10903   -10887   -10882   -10893 
  -10914   -10922   -10910   -10887   -10863   -10847   -10848   -10864 
  -10882   -10893   -10897   -10894   -10882   -10870   -10872   -10889 
  -10910   -10932   -10951   -10964   -10959   -10941   -10926   -10910 
  -10891   -10875   -10871   -10885   -10910   -10940   -10962   -10963 
  -10951   -10935   -10924   -10922   -10928   -10941   -10963   -10982 
  -10997   -11005   -11002   -10993   -10979   -10964   -10956   -10959 
  -10970   -10982   -10993   -11003   -11009   -11002   -10979   -10945 
  -10913   -10889   -10874   -10868   -10868   -10875   -10889   -10901 
  -10909   -10913   -10924   -10947   -10976   -11001   -11011   -11006 
  -10983   -10953   -10929   -10917   -10922   -10937   -10945   -10945 
  -10943   -10940   -10930   -10916   -10913   -10937   -10979   -11013 
  -11029   -11040   -11049   -11053   -11043   -11028   -11017   -11005 
  -10990   -10976   -10970   -10956   -10926   -10883   -10844   -10824 
  -10825   -10844   -10881   -10926   -10960   -10968   -10952   -10918 
  -10889   -10881   -10893   -10905   -10914   -10922   -10930   -10949 
  -10979   -11006   -11016   -11003   -10980   -10953   -10932   -10921 
  -10920   -10921   -10933   -10953   -10968   -10976   -10979   -10971 
  -10955   -10935   -10914   -10902   -10901   -10910   -10926   -10937 
  -10939   -10933   -10933   -10939   -10944   -10947   -10948   -10940 
  -10930   -10928   -10936   -10952   -10964   -10960   -10941   -10917 
  -10898   -10890   -10893   -10908   -10928   -10947   -10960   -10966 
  -10960   -10951   -10941   -10935   -10929   -10924   -10921   -10929 
  -10943   -10956   -10956   -10932   -10901   -10886   -10890   -10906 
  -10932   -10955   -10968   -10974   -10978   -10976   -10960   -10937 
  -10913   -10891   -10883   -10893   -10912   -10929   -10945   -10963 
  -10976   -10974   -10962   -10955   -10957   -10970   -10997   -11032 
  -11053   -11052   -11032   -10993   -10949   -10917   -10905   -10920 
  -10953   -10983   -10990   -10970   -10943   -10918   -10910   -10921 
  -10932   -10926   -10914   -10908   -10912   -10930   -10953   -10959 
  -10941   -10920   -10914   -10932   -10952   -10956   -10947   -10935 
  -10930   -10930   -10924   -10914   -10913   -10920   -10936   -10957 
  -10974   -10980   -10975   -10966   -10962   -10963   -10974   -10997 
  -11022   -11040   -11053   -11057   -11034   -10993   -10952   -10921 
  -10899   -10879   -10860   -10845   -10839   -10847   -10875   -10910 
  -10933   -10940   -10937   -10936   -10944   -10955   -10962   -10963 
  -10957   -10948   -10944   -10947   -10947   -10941   -10933   -10916 
  -10891   -10866   -10844   -10829   -10824   -10827   -10831   -10833 
  -10831   -10821   -10813   -10816   -10831   -10848   -10866   -10883 
  -10899   -10924   -10956   -10984   -11005   -11014   -11005   -10980 
  -10948   -10912   -10878   -10854   -10843   -10847   -10871   -10910 
  -10956   -10998   -11029   -11049   -11048   -11029   -11005   -10979 
  -10953   -10929   -10908   -10891   -10885   -10893   -10912   -10940 
  -10966   -10967   -10953   -10941   -10936   -10937   -10947   -10956 
  -10957   -10943   -10921   -10908   -10908   -10917   -10926   -10918 
  -10897   -10876   -10862   -10856   -10872   -10897   -10921   -10943 
  -10951   -10943   -10929   -10920   -10918   -10924   -10925   -10930 
  -10952   -10990   -11034   -11067   -11079   -11079   -11067   -11040 
  -11013   -10997   -10993   -11001   -11011   -11010   -10998   -10978 
  -10962   -10955   -10945   -10932   -10917   -10910   -10916   -10921 
  -10920   -10918   -10917   -10917   -10925   -10940   -10962   -10982 
  -10993   -10997   -10997   -10997   -10994   -10978   -10952   -10935 
  -10937   -10967   -11014   -11064   -11102   -11113   -11094   -11055 
  -11016   -10984   -10964   -10956   -10953   -10949   -10941   -10935 
  -10937   -10947   -10941   -10918   -10894   -10893   -10914   -10943 
  -10963   -10980   -10984   -10974   -10951   -10920   -10878   -10836 
  -10816   -10821   -10845   -10875   -10902   -10922   -10941   -10964 
  -10987   -10998   -10982   -10948   -10922   -10918   -10936   -10963 
  -10984   -10986   -10963   -10937   -10922   -10924   -10937   -10945 
  -10944   -10944   -10949   -10949   -10940   -10916   -10876   -10833 
  -10798   -10785   -10797   -10828   -10876   -10941   -10995   -11017 
  -10997   -10940   -10868   -10810   -10778   -10779   -10804   -10845 
  -10906   -10978   -11041   -11079   -11079   -11048   -11005   -10962 
  -10926   -10910   -10908   -10908   -10901   -10889   -10875   -10864 
  -10876   -10916   -10967   -11014   -11051   -11065   -11065   -11061 
  -11052   -11026   -10976   -10913   -10854   -10808   -10783   -10779 
  -10791   -10817   -10864   -10925   -10994   -11060   -11102   -11114 
  -11111   -11099   -11080   -11045   -10984   -10917   -10874   -10860 
  -10874   -10899   -10921   -10930   -10921   -10906   -10889   -10867 
  -10848   -10847   -10868   -10905   -10945   -10966   -10957   -10935 
  -10909   -10887   -10872   -10855   -10848   -10860   -10882   -10901 
  -10913   -10902   -10879   -10867   -10871   -10882   -10890   -10885 
  -10874   -10870   -10881   -10903   -10924   -10926   -10914   -10906 
  -10926   -10979   -11045   -11098   -11122   -11124   -11102   -11065 
  -11018   -10974   -10944   -10936   -10947   -10959   -10959   -10953 
  -10960   -10993   -11049   -11119   -11187   -11226   -11223   -11183 
  -11121   -11063   -11022   -10993   -10982   -10987   -10986   -10972 
  -10956   -10951   -10957   -10967   -10956   -10901   -10808   -10714 
  -10665   -10678   -10756   -10860   -10952   -11016   -11041   -11024 
  -10970   -10891   -10809   -10755   -10741   -10758   -10790   -10832 
  -10890   -10957   -11024   -11072   -11084   -11065   -11030   -10990 
  -10967   -10972   -10987   -10993   -10980   -10947   -10903   -10854 
  -10808   -10775   -10762   -10768   -10800   -10848   -10898   -10937 
  -10963   -10983   -10997   -10990   -10967   -10953   -10956   -10968 
  -10980   -10971   -10920   -10851   -10790   -10752   -10737   -10732 
  -10723   -10721   -10736   -10768   -10818   -10878   -10924   -10949 
  -10963   -10975   -10993   -11016   -11044   -11067   -11078   -11071 
  -11043   -10997   -10933   -10859   -10794   -10762   -10768   -10817 
  -10887   -10949   -10989   -11001   -11003   -11013   -11038   -11075 
  -11106   -11114   -11105   -11092   -11078   -11060   -11040   -11010 
  -10974   -10943   -10925   -10928   -10951   -10982   -11003   -11010 
  -10994   -10971   -10949   -10930   -10914   -10908   -10909   -10912 
  -10913   -10916   -10920   -10925   -10936   -10966   -11009   -11053 
  -11078   -11064   -11014   -10952   -10893   -10844   -10808   -10783 
  -10763   -10754   -10771   -10813   -10872   -10928   -10941   -10898 
  -10816   -10737   -10698   -10719   -10797   -10903   -10997   -11048 
  -11052   -11017   -10960   -10905   -10867   -10863   -10893   -10941 
  -10986   -11025   -11051   -11056   -11047   -11032   -11016   -11003 
  -10999   -11007   -11028   -11055   -11068   -11053   -11022   -10987 
  -10951   -10917   -10893   -10887   -10895   -10909   -10918   -10926 
  -10935   -10939   -10932   -10916   -10901   -10902   -10916   -10939 
  -10975   -11028   -11088   -11137   -11157   -11138   -11080   -10995 
  -10908   -10843   -10818   -10832   -10870   -10920   -10967   -11003 
  -11028   -11036   -11021   -10979   -10928   -10890   -10878   -10882 
  -10886   -10891   -10893   -10889   -10883   -10885   -10893   -10914 
  -10941   -10959   -10955   -10917   -10848   -10781   -10748   -10763 
  -10813   -10883   -10951   -10997   -11017   -11013   -10987   -10955 
  -10930   -10920   -10921   -10924   -10912   -10883   -10858   -10855 
  -10882   -10929   -10975   -10998   -11001   -10998   -10998   -11003 
  -11017   -11041   -11075   -11119   -11169   -11206   -11200   -11155 
  -11079   -10993   -10918   -10874   -10867   -10902   -10967   -11036 
  -11068   -11048   -10983   -10902   -10836   -10805   -10805   -10822 
  -10847   -10874   -10899   -10922   -10937   -10932   -10916   -10909 
  -10920   -10940   -10949   -10949   -10953   -10963   -10979   -10995 
  -11002   -10998   -10987   -10984   -10999   -11025   -11044   -11030 
  -10968   -10879   -10789   -10714   -10663   -10646   -10662   -10701 
  -10755   -10805   -10841   -10868   -10890   -10908   -10920   -10924 
  -10920   -10909   -10899   -10899   -10906   -10903   -10886   -10856 
  -10833   -10831   -10843   -10871   -10908   -10932   -10929   -10909 
  -10893   -10893   -10903   -10924   -10940   -10936   -10918   -10905 
  -10906   -10926   -10955   -10978   -10989   -10986   -10987   -11011 
  -11047   -11076   -11094   -11090   -11067   -11034   -10991   -10940 
  -10889   -10854   -10855   -10899   -10975   -11049   -11083   -11055 
  -10982   -10895   -10845   -10858   -10918   -11006   -11105   -11186 
  -11229   -11236   -11213   -11156   -11075   -10997   -10947   -10939 
  -10967   -11016   -11065   -11094   -11080   -11022   -10935   -10835 
  -10732   -10651   -10621   -10648   -10710   -10779   -10840   -10879 
  -10891   -10885   -10874   -10871   -10883   -10903   -10926   -10964 
  -11029   -11099   -11142   -11142   -11097   -11020   -10944   -10899 
  -10895   -10918   -10943   -10966   -10986   -11005   -11030   -11059 
  -11082   -11097   -11095   -11075   -11036   -10990   -10943   -10897 
  -10858   -10817   -10775   -10736   -10694   -10650   -10619   -10611 
  -10625   -10656   -10698   -10750   -10801   -10856   -10921   -10993 
  -11061   -11105   -11105   -11061   -10990   -10925   -10895   -10906 
  -10949   -11005   -11037   -11032   -10993   -10943   -10912   -10914 
  -10947   -11005   -11068   -11115   -11128   -11101   -11053   -11011 
  -10980   -10956   -10937   -10925   -10925   -10940   -10962   -10980 
  -10990   -10976   -10944   -10912   -10895   -10901   -10932   -10986 
  -11040   -11068   -11061   -11029   -10994   -10976   -10978   -10993 
  -11009   -11014   -11006   -11001   -10999   -11006   -11014   -11010 
  -10990   -10960   -10928   -10898   -10879   -10868   -10855   -10840 
  -10832   -10837   -10863   -10908   -10960   -11001   -11011   -10991 
  -10952   -10916   -10895   -10897   -10898   -10860   -10779   -10674 
  -10585   -10543   -10547   -10581   -10627   -10678   -10739   -10810 
  -10893   -10966   -11010   -11013   -10987   -10956   -10945   -10975 
  -11038   -11113   -11173   -11202   -11182   -11119   -11038   -10960 
  -10895   -10854   -10839   -10849   -10879   -10920   -10978   -11052 
  -11122   -11171   -11188   -11175   -11140   -11091   -11029   -10968 
  -10921   -10881   -10843   -10824   -10827   -10844   -10867   -10889 
  -10910   -10925   -10925   -10917   -10910   -10905   -10902   -10898 
  -10889   -10875   -10855   -10825   -10787   -10747   -10720   -10727 
  -10778   -10871   -10983   -11072   -11113   -11109   -11071   -11022 
  -10978   -10940   -10906   -10876   -10852   -10837   -10835   -10854 
  -10894   -10944   -11001   -11063   -11114   -11146   -11173   -11192 
  -11194   -11172   -11121   -11040   -10939   -10840   -10777   -10771 
  -10822   -10902   -10971   -11005   -11003   -10983   -10966   -10960 
  -10975   -11002   -11013   -10993   -10947   -10898   -10874   -10881 
  -10910   -10952   -10990   -11014   -11034   -11064   -11109   -11155 
  -11183   -11192   -11192   -11188   -11190   -11192   -11179   -11134 
  -11060   -10964   -10866   -10778   -10706   -10655   -10621   -10600 
  -10589   -10585   -10586   -10600   -10632   -10685   -10748   -10808 
  -10851   -10872   -10883   -10887   -10885   -10870   -10851   -10836 
  -10832   -10835   -10835   -10827   -10816   -10816   -10841   -10901 
  -10980   -11055   -11101   -11106   -11082   -11045   -11006   -10971 
  -10951   -10941   -10941   -10952   -10974   -10998   -11013   -11016 
  -11002   -10967   -10916   -10860   -10818   -10795   -10795   -10814 
  -10851   -10901   -10957   -11020   -11080   -11140   -11190   -11215 
  -11217   -11192   -11137   -11060   -10991   -10947   -10932   -10941 
  -10972   -11018   -11055   -11057   -11014   -10932   -10845   -10789 
  -10779   -10820   -10890   -10951   -10971   -10953   -10916   -10870 
  -10824   -10777   -10725   -10686   -10693   -10759   -10862   -10968 
  -11047   -11079   -11072   -11045   -11024   -11028   -11063   -11113 
  -11149   -11157   -11133   -11075   -10991   -10901   -10806   -10728 
  -10685   -10681   -10706   -10763   -10836   -10902   -10945   -10975 
  -10997   -11005   -11007   -11002   -10980   -10948   -10912   -10874 
  -10845   -10835   -10839   -10855   -10886   -10920   -10947   -10960 
  -10956   -10945   -10939   -10936   -10935   -10935   -10929   -10918 
  -10910   -10914   -10928   -10945   -10962   -10980   -11002   -11018 
  -11030   -11033   -11022   -11005   -10971   -10922   -10871   -10839 
  -10845   -10895   -10983   -11083   -11168   -11226   -11259   -11269 
  -11268   -11256   -11229   -11188   -11145   -11115   -11109   -11111 
  -11103   -11070   -11011   -10933   -10852   -10778   -10719   -10690 
  -10700   -10740   -10793   -10837   -10860   -10862   -10866   -10883 
  -10908   -10936   -10960   -10963   -10947   -10930   -10926   -10936 
  -10951   -10949   -10925   -10895   -10876   -10879   -10906   -10941 
  -10963   -10959   -10929   -10899   -10898   -10930   -10974   -11002 
  -11005   -10987   -10967   -10960   -10968   -10970   -10951   -10910 
  -10854   -10790   -10733   -10687   -10647   -10613   -10592   -10592 
  -10628   -10687   -10751   -10813   -10859   -10879   -10894   -10912 
  -10926   -10936   -10941   -10940   -10936   -10940   -10953   -10959 
  -10940   -10902   -10854   -10809   -10793   -10814   -10866   -10929 
  -10994   -11052   -11102   -11140   -11159   -11157   -11137   -11107 
  -11079   -11063   -11052   -11036   -11017   -11005   -11001   -11007 
  -11021   -11038   -11049   -11045   -11026   -10999   -10970   -10937 
  -10913   -10899   -10891   -10887   -10881   -10874   -10870   -10875 
  -10901   -10939   -10974   -10989   -10975   -10933   -10885   -10852 
  -10840   -10845   -10862   -10889   -10935   -10998   -11060   -11114 
  -11159   -11187   -11194   -11178   -11142   -11095   -11047   -11006 
  -10972   -10943   -10918   -10895   -10874   -10848   -10822   -10801 
  -10768   -10725   -10689   -10669   -10683   -10731   -10794   -10856 
  -10910   -10951   -10976   -10993   -10993   -10976   -10955   -10940 
  -10937   -10944   -10949   -10956   -10968   -10979   -10989   -11013 
  -11055   -11102   -11138   -11148   -11130   -11101   -11076   -11072 
  -11094   -11114   -11110   -11082   -11034   -10982   -10940   -10912 
  -10895   -10891   -10899   -10916   -10936   -10945   -10926   -10885 
  -10833   -10779   -10733   -10704   -10694   -10700   -10705   -10700 
  -10683   -10669   -10662   -10660   -10669   -10686   -10705   -10725 
  -10746   -10770   -10802   -10836   -10874   -10913   -10949   -10982 
  -11006   -11018   -11018   -11010   -10993   -10968   -10947   -10939 
  -10948   -10971   -10999   -11028   -11056   -11094   -11137   -11178 
  -11213   -11225   -11209   -11184   -11160   -11144   -11134   -11122 
  -11113   -11113   -11117   -11117   -11110   -11092   -11064   -11038 
  -11032   -11040   -11045   -11036   -11011   -10984   -10963   -10951 
  -10937   -10922   -10905   -10881   -10851   -10824   -10801   -10787 
  -10790   -10805   -10824   -10845   -10868   -10886   -10898   -10906 
  -10914   -10921   -10928   -10940   -10964   -10994   -11024   -11049 
  -11057   -11048   -11024   -10984   -10933   -10871   -10805   -10755 
  -10733   -10733   -10741   -10740   -10729   -10720   -10724   -10746 
  -10774   -10806   -10840   -10879   -10918   -10952   -10980   -11005 
  -11029   -11059   -11094   -11137   -11179   -11211   -11237   -11250 
  -11253   -11249   -11234   -11211   -11183   -11141   -11080   -11007 
  -10930   -10862   -10810   -10778   -10756   -10737   -10719   -10700 
  -10689   -10692   -10700   -10705   -10702   -10693   -10682   -10677 
  -10674   -10673   -10677   -10692   -10727   -10783   -10851   -10914 
