Origin Time       2025/06/03 22:18:00
Lat.              41.7
Long.             143.6
Depth. (km)       30
Mag.              5.2
Station Code      TKCH04
Station Lat.      43.1739
Station Long.     142.9176
Station Height(m) 48
Record Time       2025/06/03 22:18:53
Sampling Freq(Hz) 100Hz
Duration Time(s)  120
Dir.              3
Scale Factor      2942(gal)/8224139
Max. Acc. (gal)   0.214
Last Correction   2025/06/03 22:18:54
Memo.             
[...]
   50724    50742    50728    50684    50630    50577    50538    50503 
   50454    50388    50301    50234    50226    50247    50287    50326 
   50329    50310    50274    50230    50207    50210    50218    50198 
   50148    50128    50168    50245    50325    50373    50406    50438 
   50434    50403    50375    50365    50391    50430    50438    50450 
   50481    50488    50468    50449    50441    50446    50467    50485 
   50517    50583    50650    50704    50751    50755    50715    50666 
   50616    50556    50491    50434    50410    50429    50488    50554 
   50592    50612    50592    50502    50392    50311    50257    50218 
   50171    50114    50076    50068    50093    50128    50153    50180 
   50193    50175    50143    50095    50047    50026    50036    50080 
   50148    50202    50249    50326    50430    50511    50545    50556 
   50553    50539    50548    50565    50568    50571    50572    50593 
   50661    50746    50812    50861    50889    50885    50858    50820 
   50784    50751    50710    50658    50591    50496    50414    50396 
   50438    50469    50461    50442    50414    50364    50318    50309 
   50310    50274    50214    50163    50112    50076    50080    50106 
   50144    50211    50279    50313    50329    50334    50296    50229 
   50193    50187    50179    50180    50209    50268    50342    50413 
   50479    50526    50552    50562    50530    50490    50494    50499 
   50463    50415    50391    50398    50440    50510    50595    50672 
   50722    50739    50720    50664    50599    50541    50464    50382 
   50338    50345    50383    50449    50531    50581    50572    50526 
   50445    50337    50247    50187    50166    50175    50184    50198 
   50230    50275    50322    50350    50338    50282    50224    50214 
   50248    50326    50422    50472    50492    50521    50546    50580 
   50603    50584    50553    50530    50508    50517    50557    50607 
   50660    50697    50697    50661    50623    50600    50565    50530 
   50519    50511    50487    50483    50485    50441    50371    50310 
   50260    50236    50233    50236    50253    50283    50313    50352 
   50376    50361    50345    50336    50318    50291    50255    50237 
   50238    50233    50247    50311    50391    50456    50507    50553 
   50584    50599    50625    50650    50639    50610    50587    50571 
   50560    50549    50537    50514    50484    50469    50475    50498 
   50548    50588    50572    50531    50515    50483    50422    50382 
   50352    50326    50317    50295    50263    50260    50276    50278 
   50275    50272    50241    50197    50178    50164    50141    50145 
   50186    50218    50211    50198    50201    50198    50186    50193 
   50213    50218    50218    50226    50228    50242    50295    50355 
   50395    50423    50457    50504    50572    50638    50684    50712 
   50719    50706    50718    50737    50742    50787    50854    50881 
   50886    50896    50872    50791    50696    50634    50591    50548 
   50511    50488    50472    50467    50483    50498    50475    50417 
   50346    50275    50206    50153    50116    50059    50020    50052 
   50101    50134    50179    50198    50171    50134    50107    50103 
   50133    50191    50255    50306    50350    50391    50421    50437 
   50436    50423    50406    50394    50423    50483    50517    50518 
   50507    50494    50511    50576    50642    50664    50661    50654 
   50623    50604    50625    50653    50660    50641    50603    50569 
   50548    50514    50463    50431    50437    50448    50445    50431 
   50426    50431    50429    50423    50444    50472    50450    50372 
   50261    50139    50044    50021    50076    50170    50245    50282 
   50296    50292    50264    50234    50237    50275    50287    50263 
   50240    50240    50296    50391    50454    50510    50595    50654 
   50661    50669    50695    50688    50635    50591    50571    50569 
   50607    50634    50608    50607    50637    50639    50646    50668 
   50645    50558    50467    50418    50410    50433    50463    50476 
   50461    50433    50413    50379    50313    50261    50236    50214 
   50209    50207    50198    50199    50229    50284    50332    50349 
   50350    50342    50336    50338    50329    50323    50356    50410 
   50457    50490    50500    50512    50523    50502    50473    50480 
   50502    50504    50500    50492    50463    50446    50469    50495 
   50518    50549    50530    50463    50445    50463    50452    50465 
   50504    50495    50460    50413    50344    50318    50329    50309 
   50292    50328    50382    50419    50427    50407    50371    50314 
   50263    50238    50205    50174    50174    50188    50217    50263 
   50303    50332    50344    50336    50307    50252    50203    50188 
   50203    50255    50334    50425    50511    50584    50631    50639 
   50630    50622    50595    50544    50507    50506    50537    50587 
   50638    50688    50730    50762    50792    50778    50710    50646 
   50614    50585    50564    50556    50554    50568    50568    50525 
   50471    50431    50406    50395    50364    50314    50275    50241 
   50211    50205    50201    50178    50157    50140    50103    50062 
   50032    50008    50014    50064    50126    50168    50186    50193 
   50209    50251    50299    50322    50337    50356    50360    50349 
   50355    50400    50479    50548    50568    50569    50599    50610 
   50595    50606    50610    50607    50629    50645    50653    50666 
   50670    50669    50641    50592    50566    50564    50557    50537 
   50480    50419    50419    50441    50453    50481    50494    50480 
   50475    50475    50483    50480    50430    50356    50295    50240 
   50205    50207    50214    50226    50264    50329    50417    50477 
   50469    50446    50431    50403    50380    50368    50365    50373 
   50380    50383    50387    50400    50436    50494    50558    50592 
   50576    50548    50529    50506    50467    50402    50338    50319 
   50334    50371    50426    50457    50461    50465    50468    50468 
   50473    50491    50480    50425    50380    50332    50275    50307 
   50409    50460    50461    50438    50387    50348    50337    50321 
   50292    50303    50346    50382    50425    50469    50461    50438 
   50431    50404    50379    50377    50365    50345    50332    50333 
   50369    50422    50454    50476    50488    50476    50457    50461 
   50471    50449    50426    50431    50426    50410    50425    50445 
   50444    50458    50488    50485    50464    50457    50460    50457 
   50454    50426    50353    50278    50238    50237    50259    50299 
   50336    50357    50376    50388    50384    50387    50391    50369 
   50341    50313    50260    50224    50255    50323    50383    50411 
   50413    50422    50446    50473    50504    50525    50542    50562 
   50558    50539    50535    50552    50571    50575    50581    50603 
   50612    50599    50589    50584    50576    50573    50579    50588 
   50572    50530    50518    50517    50483    50457    50472    50481 
   50456    50414    50375    50341    50325    50342    50373    50404 
   50423    50410    50372    50333    50318    50332    50365    50403 
   50425    50421    50398    50369    50344    50321    50288    50261 
   50247    50228    50205    50217    50257    50301    50371    50445 
   50449    50387    50328    50296    50261    50232    50242    50271 
   50295    50322    50341    50353    50384    50440    50480    50464 
   50406    50353    50315    50296    50311    50350    50399    50438 
   50453    50472    50498    50490    50461    50446    50423    50402 
   50414    50431    50464    50533    50573    50573    50588    50606 
   50588    50530    50479    50476    50498    50507    50515    50546 
   50581    50585    50575    50568    50546    50508    50458    50392 
   50334    50305    50294    50317    50400    50487    50504    50485 
   50480    50473    50437    50373    50306    50272    50276    50280 
   50282    50292    50306    50333    50375    50414    50448    50483 
   50511    50534    50541    50519    50498    50512    50527    50506 
   50484    50488    50499    50491    50475    50481    50494    50492 
   50512    50545    50553    50534    50484    50431    50414    50400 
   50364    50341    50317    50272    50256    50278    50309    50350 
   50375    50353    50329    50323    50318    50294    50247    50206 
   50193    50188    50201    50230    50271    50328    50379    50423 
   50472    50476    50431    50395    50371    50348    50355    50376 
   50373    50346    50330    50349    50388    50429    50480    50538 
   50591    50623    50616    50598    50589    50579    50583    50599 
   50581    50552    50552    50553    50537    50515    50467    50392 
   50342    50307    50263    50256    50295    50311    50294    50275 
   50272    50305    50342    50345    50315    50275    50240    50198 
   50171    50191    50210    50222    50278    50340    50382    50442 
   50510    50557    50572    50548    50526    50521    50511    50519 
   50549    50583    50602    50593    50577    50573    50569    50542 
   50479    50411    50360    50336    50359    50400    50436    50494 
   50544    50552    50523    50454    50388    50379    50394    50415 
   50472    50525    50534    50527    50511    50471    50434    50411 
   50368    50310    50272    50242    50202    50161    50128    50110 
   50102    50102    50112    50101    50094    50124    50156    50206 
   50309    50427    50533    50606    50637    50650    50657    50653 
   50650    50653    50664    50670    50654    50634    50637    50656 
   50685    50714    50726    50693    50580    50457    50383    50332 
   50315    50346    50382    50423    50480    50522    50560    50580 
   50548    50477    50409    50367    50352    50337    50323    50344 
   50395    50449    50508    50560    50568    50562    50565    50522 
   50442    50396    50415    50465    50519    50576    50608    50593 
   50562    50537    50507    50477    50444    50413    50418    50463 
   50499    50521    50553    50569    50545    50523    50518    50519 
   50549    50600    50643    50699    50758    50762    50706    50637 
   50560    50445    50315    50233    50194    50159    50149    50194 
   50260    50298    50275    50215    50180    50166    50134    50099 
   50097    50117    50141    50168    50190    50242    50376    50521 
   50584    50596    50603    50593    50564    50541    50542    50553 
   50584    50634    50639    50607    50593    50596    50599    50569 
   50499    50429    50382    50361    50369    50409    50477    50541 
   50560    50554    50561    50565    50548    50537    50553    50587 
   50591    50560    50527    50492    50441    50391    50340    50286 
   50218    50152    50141    50174    50183    50166    50125    50037 
   49941    49901    49902    49943    50032    50120    50176    50215 
   50222    50203    50191    50198    50240    50309    50367    50414 
   50488    50596    50683    50734    50804    50876    50893    50873 
   50854    50841    50788    50697    50650    50641    50611    50553 
   50461    50369    50303    50211    50107    50047    50020    50016 
   50028    50026    50033    50083    50153    50218    50287    50368 
   50426    50444    50440    50450    50490    50554    50631    50688 
   50720    50738    50707    50618    50496    50350    50193    50068 
   50001    49960    49951    50008    50079    50126    50176    50230 
   50263    50276    50298    50360    50457    50579    50714    50807 
   50839    50889    50958    50959    50897    50808    50700    50596 
   50483    50356    50280    50284    50321    50344    50325    50305 
   50294    50268    50274    50295    50252    50193    50187    50210 
   50267    50352    50399    50407    50427    50471    50510    50523 
   50506    50476    50471    50488    50503    50514    50508    50471 
   50417    50392    50410    50438    50487    50550    50577    50588 
   50571    50491    50430    50410    50388    50394    50440    50492 
   50514    50534    50612    50677    50656    50610    50557    50484 
   50449    50448    50434    50452    50515    50571    50595    50614 
   50642    50674    50695    50658    50546    50411    50286    50207 
   50222    50295    50360    50399    50384    50326    50269    50199 
   50097    50001    49960    49991    50080    50202    50341    50471 
   50561    50600    50595    50557    50504    50450    50398    50361 
   50365    50410    50476    50544    50566    50549    50519    50468 
   50404    50345    50275    50215    50195    50188    50194    50229 
   50267    50292    50317    50336    50356    50373    50383    50413 
   50454    50477    50480    50475    50500    50575    50641    50676 
   50688    50665    50631    50623    50615    50592    50572    50538 
   50484    50453    50454    50414    50305    50202    50122    50025 
   49944    49917    49916    49927    49960    50001    50039    50079 
   50109    50151    50229    50305    50352    50379    50409    50471 
   50507    50471    50442    50471    50491    50473    50471    50471 
   50425    50364    50340    50342    50332    50309    50282    50238 
   50221    50284    50379    50476    50592    50683    50735    50800 
   50882    50947    50992    51017    51000    50942    50873    50826 
   50831    50865    50874    50830    50768    50720    50672    50620 
   50577    50553    50539    50521    50499    50477    50425    50355 
   50305    50248    50182    50143    50145    50176    50209    50230 
   50261    50302    50353    50395    50383    50355    50342    50313 
   50275    50237    50190    50175    50183    50170    50153    50157 
   50167    50174    50182    50205    50263    50341    50387    50379 
   50353    50330    50295    50268    50305    50395    50461    50512 
   50591    50653    50660    50641    50606    50583    50611    50653 
   50662    50662    50665    50658    50654    50652    50645    50633 
   50622    50618    50595    50558    50522    50460    50384    50344 
   50318    50291    50295    50340    50377    50375    50361    50355 
   50326    50291    50291    50303    50317    50340    50348    50357 
   50403    50465    50502    50488    50423    50303    50168    50097 
   50078    50070    50130    50251    50341    50394    50463    50552 
   50604    50585    50529    50476    50433    50402    50375    50340 
   50310    50314    50329    50317    50290    50259    50237    50245 
   50275    50303    50337    50384    50437    50452    50382    50256 
   50155    50124    50163    50253    50369    50484    50591    50679 
   50718    50735    50772    50795    50773    50737    50704    50668 
   50629    50589    50562    50550    50525    50490    50475    50452 
   50423    50421    50445    50500    50554    50561    50550    50562 
   50568    50553    50529    50500    50460    50386    50299    50226 
   50156    50091    50036    49989    49982    50013    50066    50130 
   50167    50167    50161    50157    50159    50160    50155    50151 
   50156    50187    50256    50353    50464    50554    50599    50625 
   50639    50633    50627    50645    50676    50703    50731    50774 
   50816    50827    50787    50726    50687    50665    50656    50664 
   50665    50665    50688    50715    50726    50734    50718    50635 
   50519    50422    50361    50346    50383    50457    50531    50561 
   50537    50490    50438    50350    50226    50122    50044    49977 
   49944    49954    50004    50098    50187    50240    50291    50373 
   50452    50476    50444    50392    50348    50341    50375    50417 
   50456    50476    50469    50477    50514    50553    50557    50534 
   50529    50552    50589    50646    50695    50720    50749    50766 
   50774    50789    50796    50799    50819    50842    50831    50788 
   50728    50653    50587    50560    50546    50522    50502    50485 
   50449    50398    50363    50321    50256    50187    50112    50036 
   49990    49993    50041    50109    50180    50267    50345    50377 
   50380    50387    50372    50322    50278    50252    50247    50278 
   50344    50426    50495    50531    50535    50507    50452    50387 
   50334    50294    50252    50234    50271    50332    50390    50433 
   50454    50452    50421    50348    50267    50191    50132    50114 
   50102    50082    50099    50147    50184    50224    50249    50251 
   50257    50267    50248    50237    50274    50311    50326    50329 
   50292    50230    50180    50121    50064    50031    49997    49997 
   50071    50186    50298    50402    50492    50550    50575    50588 
   50579    50538    50487    50423    50375    50388    50425    50461 
   50518    50575    50638    50712    50739    50714    50672    50607 
   50512    50396    50288    50226    50217    50240    50286    50342 
   50396    50452    50507    50553    50583    50585    50564    50519 
   50450    50394    50390    50430    50494    50565    50623    50652 
   50661    50670    50668    50654    50645    50629    50614    50614 
   50606    50606    50637    50685    50728    50743    50722    50680 
   50630    50591    50568    50533    50457    50392    50396    50448 
   50506    50539    50548    50561    50584    50593    50589    50581 
   50585    50604    50603    50544    50438    50341    50267    50202 
   50144    50122    50140    50157    50152    50141    50133    50117 
   50089    50066    50064    50070    50074    50094    50141    50195 
   50233    50257    50276    50280    50295    50330    50363    50396 
   50444    50500    50556    50599    50614    50596    50560    50521 
   50494    50500    50560    50639    50684    50695    50701    50706 
   50706    50712    50715    50726    50761    50796    50803    50793 
   50793    50788    50738    50645    50561    50508    50467    50446 
   50458    50479    50491    50471    50414    50344    50268    50206 
   50166    50144    50134    50122    50109    50080    50029    49975 
   49933    49923    49939    49943    49936    49954    49983    50018 
   50066    50118    50174    50228    50272    50318    50369    50413 
   50448    50477    50496    50506    50504    50492    50498    50527 
   50560    50599    50652    50697    50733    50764    50787    50816 
   50843    50836    50820    50808    50782    50746    50720    50700 
   50669    50630    50592    50556    50534    50545    50569    50573 
   50545    50500    50461    50423    50363    50261    50157    50099 
   50070    50051    50052    50067    50071    50051    50005    49971 
   49959    49937    49928    49963    50021    50095    50187    50274 
   50342    50400    50448    50467    50461    50449    50445    50453 
   50471    50485    50487    50476    50471    50471    50465    50457 
   50472    50519    50576    50607    50604    50596    50587    50565 
   50549    50562    50596    50631    50679    50728    50776    50814 
   50824    50807    50772    50707    50618    50537    50491    50471 
   50449    50421    50390    50353    50318    50305    50305    50283 
