Origin Time       2025/06/03 22:18:00
Lat.              41.7
Long.             143.6
Depth. (km)       30
Mag.              5.2
Station Code      TKCH10
Station Lat.      43.3337
Station Long.     142.9448
Station Height(m) 365
Record Time       2025/06/03 22:19:19
Sampling Freq(Hz) 100Hz
Duration Time(s)  120
Dir.              5
Scale Factor      7845(gal)/8223790
Max. Acc. (gal)   0.279
Last Correction   2025/06/03 22:19:20
Memo.             
[...]
   -2481    -2430    -2430    -2492    -2569    -2601    -2579    -2517 
   -2438    -2390    -2420    -2492    -2535    -2535    -2504    -2462 
   -2424    -2423    -2466    -2519    -2539    -2529    -2508    -2478 
   -2463    -2492    -2551    -2601    -2613    -2574    -2501    -2439 
   -2424    -2463    -2527    -2575    -2587    -2573    -2540    -2505 
   -2489    -2494    -2509    -2531    -2551    -2550    -2521    -2481 
   -2446    -2436    -2459    -2500    -2533    -2547    -2531    -2502 
   -2482    -2490    -2528    -2569    -2586    -2575    -2543    -2498 
   -2467    -2469    -2500    -2542    -2562    -2532    -2478    -2451 
   -2469    -2509    -2548    -2560    -2538    -2500    -2477    -2478 
   -2504    -2536    -2554    -2551    -2535    -2512    -2493    -2484 
   -2490    -2519    -2547    -2555    -2540    -2519    -2506    -2515 
   -2543    -2566    -2559    -2531    -2504    -2486    -2485    -2504 
   -2527    -2536    -2529    -2515    -2497    -2484    -2479    -2485 
   -2494    -2508    -2524    -2535    -2543    -2546    -2540    -2531 
   -2521    -2501    -2469    -2444    -2435    -2446    -2479    -2519 
   -2542    -2542    -2525    -2511    -2512    -2517    -2520    -2520 
   -2519    -2525    -2542    -2562    -2569    -2548    -2505    -2470 
   -2466    -2488    -2523    -2546    -2538    -2509    -2489    -2486 
   -2494    -2502    -2506    -2501    -2484    -2470    -2475    -2492 
   -2509    -2525    -2540    -2546    -2527    -2493    -2465    -2451 
   -2470    -2511    -2531    -2520    -2493    -2471    -2471    -2492 
   -2525    -2554    -2558    -2547    -2543    -2544    -2536    -2516 
   -2497    -2486    -2482    -2492    -2523    -2566    -2593    -2587 
   -2562    -2528    -2497    -2485    -2497    -2520    -2536    -2546 
   -2542    -2523    -2509    -2512    -2519    -2525    -2531    -2528 
   -2513    -2506    -2515    -2521    -2509    -2473    -2431    -2413 
   -2430    -2469    -2516    -2546    -2546    -2536    -2533    -2542 
   -2554    -2562    -2566    -2559    -2539    -2506    -2478    -2466 
   -2469    -2481    -2497    -2506    -2500    -2493    -2500    -2513 
   -2531    -2543    -2539    -2521    -2502    -2490    -2493    -2512 
   -2542    -2555    -2533    -2486    -2436    -2408    -2417    -2458 
   -2506    -2544    -2555    -2535    -2504    -2486    -2486    -2494 
   -2497    -2494    -2492    -2493    -2502    -2509    -2508    -2509 
   -2523    -2538    -2543    -2535    -2515    -2497    -2502    -2535 
   -2575    -2593    -2579    -2548    -2520    -2500    -2494    -2506 
   -2529    -2547    -2554    -2548    -2550    -2552    -2542    -2524 
   -2511    -2508    -2521    -2540    -2550    -2543    -2527    -2516 
   -2520    -2527    -2527    -2519    -2504    -2490    -2484    -2488 
   -2493    -2501    -2509    -2504    -2497    -2494    -2494    -2502 
   -2525    -2555    -2574    -2575    -2548    -2497    -2442    -2413 
   -2434    -2485    -2527    -2529    -2502    -2467    -2454    -2474 
   -2525    -2577    -2594    -2569    -2517    -2471    -2451    -2447 
   -2454    -2469    -2479    -2490    -2502    -2502    -2486    -2473 
   -2477    -2492    -2515    -2539    -2548    -2540    -2531    -2531 
   -2535    -2535    -2524    -2504    -2492    -2504    -2535    -2562 
   -2574    -2559    -2512    -2463    -2440    -2454    -2496    -2539 
   -2559    -2551    -2533    -2513    -2500    -2506    -2529    -2546 
   -2543    -2519    -2489    -2473    -2484    -2511    -2531    -2528 
   -2504    -2471    -2447    -2447    -2470    -2501    -2524    -2525 
   -2517    -2515    -2520    -2531    -2546    -2558    -2563    -2558 
   -2538    -2512    -2486    -2462    -2452    -2458    -2465    -2469 
   -2475    -2489    -2511    -2536    -2556    -2562    -2548    -2521 
   -2500    -2508    -2544    -2583    -2596    -2569    -2524    -2496 
   -2496    -2520    -2558    -2586    -2593    -2586    -2573    -2548 
   -2524    -2513    -2525    -2538    -2528    -2497    -2471    -2474 
   -2496    -2516    -2525    -2517    -2485    -2452    -2457    -2486 
   -2513    -2528    -2524    -2493    -2465    -2466    -2489    -2512 
   -2528    -2527    -2504    -2469    -2439    -2436    -2457    -2482 
   -2511    -2540    -2552    -2539    -2527    -2525    -2528    -2532 
   -2538    -2529    -2506    -2478    -2463    -2475    -2500    -2516 
   -2511    -2486    -2461    -2452    -2475    -2524    -2574    -2597 
   -2582    -2538    -2490    -2473    -2493    -2538    -2579    -2587 
   -2559    -2508    -2462    -2438    -2440    -2473    -2517    -2544 
   -2544    -2524    -2493    -2470    -2467    -2481    -2512    -2552 
   -2585    -2597    -2586    -2559    -2528    -2505    -2506    -2531 
   -2567    -2596    -2614    -2613    -2583    -2542    -2509    -2492 
   -2492    -2513    -2538    -2542    -2525    -2497    -2467    -2451 
   -2452    -2458    -2466    -2471    -2463    -2455    -2465    -2485 
   -2500    -2500    -2473    -2431    -2404    -2413    -2462    -2524 
   -2566    -2558    -2516    -2489    -2501    -2536    -2569    -2582 
   -2563    -2517    -2477    -2478    -2516    -2555    -2583    -2596 
   -2585    -2558    -2529    -2508    -2502    -2515    -2540    -2569 
   -2594    -2609    -2608    -2587    -2552    -2519    -2500    -2497 
   -2504    -2506    -2506    -2506    -2494    -2481    -2481    -2490 
   -2500    -2511    -2525    -2533    -2523    -2504    -2488    -2471 
   -2452    -2448    -2474    -2529    -2596    -2637    -2629    -2571 
   -2486    -2412    -2382    -2398    -2450    -2516    -2559    -2559 
   -2528    -2477    -2427    -2417    -2448    -2500    -2544    -2551 
   -2517    -2463    -2417    -2397    -2412    -2450    -2482    -2502 
   -2513    -2505    -2478    -2450    -2430    -2420    -2430    -2466 
   -2508    -2528    -2517    -2481    -2442    -2420    -2423    -2455 
   -2511    -2563    -2590    -2596    -2594    -2590    -2582    -2567 
   -2540    -2506    -2485    -2488    -2505    -2527    -2558    -2582 
   -2579    -2554    -2523    -2485    -2455    -2463    -2504    -2538 
   -2550    -2552    -2546    -2544    -2567    -2608    -2644    -2670 
   -2663    -2617    -2555    -2504    -2481    -2497    -2551    -2613 
   -2644    -2629    -2581    -2523    -2475    -2459    -2470    -2479 
   -2473    -2458    -2438    -2427    -2447    -2504    -2565    -2597 
   -2589    -2543    -2485    -2443    -2435    -2451    -2467    -2471 
   -2465    -2470    -2492    -2502    -2501    -2506    -2511    -2506 
   -2511    -2515    -2502    -2490    -2496    -2508    -2517    -2528 
   -2539    -2556    -2585    -2613    -2623    -2604    -2552    -2490 
   -2452    -2448    -2474    -2509    -2532    -2540    -2528    -2494 
   -2455    -2427    -2408    -2401    -2423    -2455    -2479    -2501 
   -2532    -2578    -2635    -2675    -2670    -2620    -2539    -2438 
   -2349    -2304    -2313    -2357    -2423    -2490    -2525    -2519 
   -2502    -2489    -2477    -2477    -2486    -2501    -2515    -2523 
   -2533    -2548    -2551    -2532    -2489    -2451    -2451    -2501 
   -2600    -2700    -2736    -2686    -2587    -2498    -2465    -2504 
   -2600    -2686    -2697    -2631    -2532    -2444    -2397    -2400 
   -2436    -2482    -2505    -2489    -2451    -2417    -2396    -2407 
   -2455    -2505    -2521    -2509    -2502    -2520    -2566    -2636 
   -2689    -2673    -2601    -2516    -2446    -2413    -2423    -2452 
   -2486    -2502    -2498    -2486    -2470    -2446    -2430    -2431 
   -2447    -2475    -2501    -2505    -2494    -2492    -2517    -2562 
   -2594    -2585    -2525    -2443    -2373    -2343    -2354    -2385 
   -2421    -2436    -2428    -2444    -2506    -2587    -2662    -2708 
   -2698    -2635    -2555    -2502    -2492    -2512    -2535    -2539 
   -2523    -2493    -2459    -2434    -2434    -2454    -2481    -2515 
   -2558    -2590    -2608    -2623    -2643    -2662    -2679    -2677 
   -2646    -2609    -2593    -2604    -2633    -2654    -2631    -2556 
   -2457    -2361    -2301    -2304    -2377    -2484    -2570    -2594 
   -2544    -2443    -2357    -2335    -2370    -2417    -2442    -2436 
   -2415    -2413    -2442    -2471    -2489    -2501    -2517    -2546 
   -2594    -2646    -2681    -2689    -2674    -2640    -2586    -2516 
   -2462    -2450    -2481    -2533    -2573    -2578    -2559    -2533 
   -2520    -2525    -2529    -2508    -2459    -2398    -2353    -2353 
   -2404    -2484    -2569    -2616    -2596    -2536    -2484    -2469 
   -2505    -2575    -2636    -2654    -2625    -2563    -2502    -2489 
   -2527    -2589    -2629    -2602    -2501    -2373    -2289    -2299 
   -2392    -2498    -2560    -2555    -2488    -2398    -2335    -2319 
   -2362    -2455    -2542    -2570    -2540    -2490    -2462    -2481 
   -2547    -2613    -2625    -2573    -2493    -2438    -2444    -2516 
   -2605    -2651    -2628    -2560    -2498    -2488    -2540    -2619 
   -2663    -2646    -2575    -2479    -2393    -2350    -2366    -2435 
   -2520    -2575    -2583    -2555    -2523    -2516    -2540    -2570 
   -2592    -2606    -2610    -2604    -2601    -2601    -2592    -2560 
   -2502    -2423    -2362    -2357    -2394    -2450    -2516    -2582 
   -2624    -2625    -2600    -2562    -2525    -2498    -2481    -2467 
   -2454    -2446    -2457    -2482    -2516    -2547    -2547    -2519 
   -2490    -2469    -2447    -2432    -2430    -2424    -2412    -2400 
   -2388    -2388    -2411    -2451    -2489    -2509    -2513    -2506 
   -2484    -2459    -2447    -2446    -2461    -2489    -2517    -2529 
   -2512    -2470    -2436    -2440    -2492    -2569    -2636    -2662 
   -2628    -2551    -2484    -2462    -2496    -2571    -2656    -2708 
   -2713    -2685    -2644    -2617    -2609    -2609    -2616    -2620 
   -2617    -2613    -2608    -2585    -2543    -2500    -2470    -2462 
   -2478    -2493    -2482    -2442    -2381    -2313    -2272    -2289 
   -2377    -2512    -2656    -2754    -2756    -2685    -2585    -2504 
   -2475    -2501    -2552    -2612    -2660    -2679    -2658    -2605 
   -2539    -2482    -2450    -2431    -2408    -2389    -2396    -2430 
   -2467    -2484    -2471    -2438    -2405    -2405    -2443    -2501 
   -2550    -2571    -2560    -2535    -2511    -2494    -2493    -2502 
   -2505    -2484    -2451    -2425    -2417    -2442    -2497    -2559 
   -2593    -2583    -2536    -2465    -2403    -2381    -2403    -2436 
   -2451    -2440    -2424    -2419    -2440    -2481    -2517    -2535 
   -2529    -2501    -2466    -2454    -2479    -2535    -2587    -2605 
   -2577    -2521    -2473    -2454    -2467    -2502    -2516    -2505 
   -2502    -2516    -2540    -2579    -2625    -2655    -2651    -2614 
   -2565    -2529    -2528    -2566    -2621    -2663    -2659    -2605 
   -2532    -2478    -2459    -2474    -2504    -2505    -2459    -2397 
   -2366    -2385    -2452    -2544    -2616    -2633    -2592    -2523 
   -2461    -2431    -2443    -2486    -2531    -2551    -2536    -2494 
   -2443    -2428    -2473    -2554    -2621    -2639    -2598    -2533 
   -2494    -2505    -2539    -2560    -2554    -2515    -2477    -2477 
   -2516    -2567    -2597    -2575    -2501    -2416    -2365    -2371 
   -2427    -2492    -2532    -2540    -2521    -2488    -2446    -2409 
   -2392    -2390    -2397    -2413    -2443    -2485    -2539    -2596 
   -2640    -2646    -2619    -2582    -2554    -2535    -2535    -2552 
   -2569    -2567    -2552    -2538    -2535    -2554    -2594    -2628 
   -2620    -2563    -2475    -2390    -2346    -2358    -2408    -2455 
   -2465    -2434    -2388    -2362    -2381    -2430    -2478    -2506 
   -2509    -2496    -2481    -2485    -2521    -2581    -2640    -2667 
   -2652    -2613    -2575    -2558    -2550    -2536    -2513    -2498 
   -2502    -2527    -2559    -2575    -2548    -2481    -2412    -2373 
   -2378    -2428    -2488    -2515    -2516    -2520    -2539    -2577 
   -2617    -2629    -2606    -2562    -2521    -2500    -2501    -2525 
   -2558    -2577    -2571    -2531    -2481    -2463    -2493    -2559 
   -2621    -2640    -2608    -2555    -2516    -2504    -2520    -2539 
   -2532    -2506    -2477    -2446    -2421    -2415    -2420    -2447 
   -2496    -2559    -2627    -2677    -2682    -2640    -2574    -2524 
   -2512    -2527    -2546    -2544    -2515    -2478    -2462    -2481 
   -2516    -2540    -2538    -2513    -2463    -2411    -2389    -2415 
   -2475    -2550    -2602    -2608    -2552    -2450    -2340    -2285 
   -2316    -2398    -2471    -2494    -2447    -2354    -2274    -2259 
   -2313    -2409    -2502    -2554    -2554    -2520    -2477    -2455 
   -2477    -2527    -2571    -2581    -2550    -2512    -2502    -2543 
   -2613    -2678    -2701    -2668    -2610    -2569    -2566    -2601 
   -2651    -2695    -2704    -2666    -2601    -2532    -2477    -2463 
   -2494    -2543    -2578    -2582    -2556    -2520    -2501    -2512 
   -2550    -2604    -2648    -2650    -2606    -2547    -2504    -2494 
   -2513    -2521    -2502    -2477    -2462    -2478    -2515    -2535 
   -2538    -2544    -2565    -2598    -2631    -2633    -2608    -2578 
   -2566    -2567    -2569    -2552    -2512    -2457    -2407    -2374 
   -2370    -2398    -2439    -2463    -2466    -2467    -2474    -2470 
   -2434    -2371    -2301    -2243    -2220    -2236    -2270    -2307 
   -2342    -2374    -2401    -2407    -2397    -2397    -2423    -2477 
   -2535    -2569    -2573    -2563    -2555    -2555    -2571    -2604 
   -2640    -2662    -2660    -2632    -2594    -2567    -2550    -2543 
   -2552    -2567    -2566    -2536    -2479    -2423    -2389    -2394 
   -2443    -2498    -2519    -2501    -2462    -2424    -2417    -2444 
   -2482    -2512    -2516    -2492    -2463    -2473    -2539    -2627 
   -2691    -2709    -2663    -2578    -2511    -2488    -2515    -2573 
   -2631    -2658    -2639    -2587    -2542    -2529    -2544    -2567 
   -2593    -2612    -2604    -2566    -2519    -2477    -2458    -2469 
   -2500    -2531    -2538    -2512    -2469    -2442    -2444    -2469 
   -2505    -2535    -2535    -2509    -2490    -2496    -2511    -2512 
   -2486    -2446    -2420    -2439    -2498    -2563    -2600    -2609 
   -2600    -2566    -2515    -2471    -2457    -2467    -2489    -2511 
   -2517    -2505    -2486    -2486    -2515    -2555    -2579    -2575 
   -2551    -2528    -2517    -2521    -2542    -2563    -2565    -2546 
   -2506    -2457    -2411    -2386    -2393    -2430    -2484    -2535 
   -2574    -2597    -2608    -2602    -2569    -2513    -2465    -2444 
   -2443    -2450    -2470    -2490    -2496    -2488    -2465    -2430 
   -2417    -2440    -2473    -2489    -2474    -2432    -2405    -2428 
   -2493    -2567    -2617    -2620    -2583    -2535    -2500    -2481 
   -2489    -2517    -2540    -2539    -2527    -2521    -2532    -2559 
   -2589    -2597    -2574    -2533    -2493    -2471    -2475    -2486 
   -2490    -2493    -2484    -2467    -2466    -2481    -2501    -2521 
   -2531    -2521    -2502    -2500    -2515    -2532    -2540    -2538 
   -2531    -2532    -2539    -2551    -2563    -2566    -2547    -2516 
   -2489    -2473    -2470    -2484    -2500    -2500    -2492    -2488 
   -2493    -2517    -2552    -2573    -2562    -2538    -2519    -2509 
   -2511    -2516    -2506    -2475    -2438    -2421    -2446    -2497 
   -2548    -2567    -2547    -2509    -2478    -2461    -2465    -2479 
   -2490    -2498    -2512    -2523    -2529    -2546    -2575    -2610 
   -2633    -2625    -2582    -2536    -2519    -2535    -2583    -2636 
   -2659    -2644    -2604    -2552    -2512    -2497    -2509    -2532 
   -2536    -2519    -2497    -2493    -2508    -2529    -2554    -2581 
   -2592    -2569    -2523    -2481    -2478    -2525    -2596    -2656 
   -2679    -2660    -2621    -2585    -2559    -2543    -2535    -2531 
   -2532    -2525    -2502    -2474    -2454    -2446    -2442    -2431 
   -2403    -2359    -2319    -2303    -2327    -2371    -2404    -2411 
   -2394    -2369    -2358    -2367    -2389    -2412    -2430    -2436 
   -2431    -2424    -2428    -2439    -2443    -2448    -2462    -2482 
   -2498    -2505    -2500    -2497    -2500    -2504    -2515    -2523 
   -2512    -2497    -2500    -2525    -2554    -2566    -2558    -2535 
   -2512    -2505    -2523    -2555    -2589    -2612    -2612    -2585 
   -2543    -2502    -2466    -2451    -2475    -2520    -2558    -2574 
   -2559    -2520    -2490    -2485    -2496    -2513    -2523    -2519 
   -2505    -2496    -2498    -2523    -2560    -2594    -2613    -2614 
   -2605    -2598    -2604    -2619    -2636    -2652    -2670    -2690 
   -2694    -2671    -2631    -2589    -2559    -2552    -2555    -2546 
   -2520    -2490    -2473    -2473    -2474    -2461    -2428    -2396 
   -2384    -2401    -2432    -2447    -2438    -2416    -2400    -2397 
   -2409    -2432    -2450    -2462    -2479    -2500    -2516    -2529 
   -2528    -2511    -2488    -2454    -2417    -2401    -2412    -2446 
   -2492    -2525    -2531    -2512    -2493    -2498    -2536    -2590 
   -2636    -2647    -2627    -2600    -2585    -2586    -2608    -2644 
   -2671    -2675    -2651    -2601    -2547    -2504    -2485    -2498 
   -2524    -2527    -2504    -2482    -2470    -2474    -2497    -2516 
   -2504    -2470    -2436    -2416    -2419    -2448    -2482    -2494 
   -2484    -2466    -2457    -2459    -2474    -2494    -2506    -2508 
   -2504    -2492    -2475    -2465    -2465    -2482    -2516    -2551 
   -2570    -2569    -2567    -2563    -2552    -2546    -2554    -2574 
   -2601    -2628    -2644    -2636    -2613    -2586    -2552    -2523 
   -2505    -2497    -2502    -2527    -2550    -2559    -2554    -2539 
   -2528    -2532    -2558    -2586    -2597    -2586    -2559    -2525 
   -2502    -2497    -2494    -2489    -2479    -2462    -2439    -2425 
   -2424    -2430    -2439    -2454    -2465    -2461    -2451    -2451 
   -2459    -2467    -2478    -2492    -2500    -2501    -2505    -2515 
   -2515    -2498    -2469    -2436    -2420    -2424    -2444    -2473 
   -2497    -2505    -2500    -2481    -2446    -2407    -2388    -2397 
   -2421    -2448    -2471    -2479    -2481    -2493    -2512    -2520 
   -2519    -2516    -2519    -2525    -2531    -2531    -2531    -2542 
   -2555    -2558    -2550    -2543    -2535    -2529    -2540    -2556 
   -2559    -2551    -2547    -2558    -2581    -2604    -2605    -2573 
   -2524    -2492    -2493    -2519    -2540    -2542    -2521    -2500 
   -2493    -2506    -2535    -2559    -2566    -2555    -2531    -2508 
   -2497    -2492    -2489    -2489    -2493    -2502    -2509    -2505 
   -2498    -2498    -2508    -2525    -2542    -2551    -2547    -2538 
   -2540    -2562    -2582    -2586    -2575    -2555    -2538    -2535 
   -2544    -2552    -2560    -2569    -2569    -2555    -2539    -2521 
   -2498    -2484    -2481    -2482    -2481    -2477    -2473    -2461 
   -2434    -2405    -2392    -2403    -2431    -2459    -2467    -2448 
   -2421    -2401    -2398    -2421    -2458    -2479    -2475    -2454 
