Origin Time       2025/06/03 22:18:00
Lat.              41.7
Long.             143.6
Depth. (km)       30
Mag.              5.2
Station Code      TKCH05
Station Lat.      43.1211
Station Long.     143.6181
Station Height(m) -35
Record Time       2025/06/03 22:18:56
Sampling Freq(Hz) 100Hz
Duration Time(s)  120
Dir.              3
Scale Factor      2942(gal)/8224139
Max. Acc. (gal)   0.400
Last Correction   2025/06/03 22:18:57
Memo.             
[...]
   24883    24858    24838    24830    24846    24849    24818    24779 
   24733    24652    24549    24472    24444    24463    24503    24534 
   24556    24565    24520    24435    24368    24341    24339    24347 
   24383    24471    24583    24656    24664    24641    24622    24624 
   24622    24607    24619    24667    24676    24607    24520    24484 
   24505    24537    24580    24641    24690    24698    24675    24641 
   24598    24548    24517    24544    24614    24669    24695    24703 
   24687    24665    24673    24699    24698    24671    24665    24691 
   24719    24732    24705    24641    24592    24580    24571    24557 
   24559    24598    24655    24692    24691    24652    24591    24545 
   24522    24513    24521    24545    24575    24602    24615    24618 
   24605    24549    24498    24533    24642    24737    24775    24776 
   24754    24688    24605    24570    24592    24640    24698    24763 
   24784    24719    24617    24559    24552    24555    24572    24649 
   24764    24837    24860    24864    24819    24719    24619    24567 
   24580    24626    24652    24671    24713    24745    24714    24645 
   24583    24525    24466    24402    24333    24278    24244    24229 
   24228    24239    24267    24313    24368    24412    24436    24462 
   24501    24575    24682    24769    24798    24768    24726    24726 
   24768    24831    24919    25033    25145    25200    25176    25108 
   25049    25003    24950    24892    24864    24861    24848    24798 
   24729    24680    24675    24694    24698    24692    24678    24629 
   24559    24509    24494    24516    24561    24618    24679    24732 
   24740    24694    24653    24657    24671    24655    24645    24692 
   24763    24792    24777    24754    24717    24663    24615    24575 
   24547    24548    24561    24564    24582    24619    24621    24571 
   24514    24462    24418    24422    24474    24536    24583    24586 
   24568    24579    24609    24610    24578    24552    24552    24563 
   24587    24636    24687    24719    24744    24764    24750    24699 
   24664    24684    24737    24773    24767    24748    24759    24780 
   24780    24767    24757    24759    24779    24802    24827    24862 
   24852    24765    24669    24617    24605    24638    24705    24772 
   24823    24840    24813    24757    24680    24613    24582    24556 
   24511    24494    24520    24552    24594    24634    24613    24567 
   24584    24625    24617    24571    24503    24422    24382    24412 
   24470    24533    24599    24634    24601    24530    24467    24406 
   24344    24333    24387    24457    24540    24628    24669    24657 
   24625    24578    24521    24484    24502    24579    24684    24795 
   24904    24970    24970    24956    24953    24934    24891    24849 
   24827    24826    24854    24907    24938    24929    24914    24894 
   24852    24796    24732    24664    24602    24557    24540    24543 
   24561    24613    24684    24744    24760    24719    24634    24545 
   24487    24456    24447    24471    24506    24553    24646    24756 
   24814    24823    24813    24813    24838    24853    24818    24749 
   24698    24707    24756    24791    24796    24764    24676    24556 
   24455    24395    24382    24412    24470    24522    24521    24471 
   24456    24516    24575    24574    24547    24530    24503    24479 
   24478    24479    24484    24506    24517    24482    24416    24370 
   24362    24356    24355    24389    24457    24555    24645    24684 
   24694    24713    24754    24842    24952    25011    24995    24966 
   24972    24984    24968    24899    24795    24744    24773    24819 
   24853    24896    24949    24989    24966    24854    24721    24637 
   24595    24588    24619    24659    24686    24723    24746    24699 
   24583    24443    24312    24236    24236    24285    24344    24402 
   24471    24547    24591    24590    24572    24568    24576    24601 
   24640    24680    24702    24700    24722    24788    24860    24915 
   24952    24961    24973    24992    24956    24844    24729    24676 
   24694    24727    24756    24798    24840    24842    24800    24713 
   24590    24486    24466    24525    24567    24534    24501    24509 
   24522    24522    24517    24530    24572    24595    24617    24687 
   24763    24796    24808    24822    24842    24841    24794    24723 
   24651    24578    24532    24529    24545    24553    24579    24645 
   24726    24760    24709    24628    24580    24543    24466    24391 
   24417    24565    24740    24862    24925    24929    24906    24921 
   24956    24943    24898    24869    24830    24740    24622    24538 
   24521    24543    24575    24610    24637    24657    24652    24606 
   24544    24490    24425    24347    24298    24300    24349    24435 
   24480    24443    24354    24246    24194    24273    24413    24509 
   24563    24611    24641    24625    24595    24587    24594    24598 
   24552    24457    24389    24374    24406    24484    24591    24703 
   24800    24858    24861    24806    24705    24587    24499    24478 
   24509    24584    24714    24853    24952    25024    25083    25088 
   25016    24879    24714    24567    24463    24440    24525    24669 
   24784    24826    24811    24786    24781    24767    24710    24671 
   24673    24644    24592    24619    24710    24803    24895    24965 
   24985    24972    24923    24837    24759    24718    24718    24746 
   24779    24804    24830    24830    24784    24718    24645    24567 
   24499    24474    24494    24532    24571    24613    24649    24659 
   24625    24568    24517    24475    24452    24472    24514    24525 
   24502    24516    24595    24672    24698    24688    24645    24575 
   24514    24468    24439    24447    24501    24599    24729    24844 
   24919    24954    24949    24926    24902    24877    24873    24899 
   24941    24999    25056    25081    25105    25162    25200    25169 
   25091    25010    24981    24975    24896    24760    24659    24645 
   24719    24799    24795    24740    24709    24705    24694    24630 
   24522    24421    24344    24267    24189    24109    24044    24027 
   24043    24054    24088    24163    24214    24224    24232    24228 
   24190    24133    24082    24051    24032    24008    23993    24035 
   24140    24233    24273    24263    24229    24227    24278    24358 
   24456    24538    24580    24603    24625    24651    24699    24769 
   24821    24835    24856    24902    24925    24914    24934    24979 
   24975    24956    24987    25022    25035    25070    25118    25142 
   25177    25239    25285    25281    25215    25103    24996    24915 
   24842    24792    24813    24902    25004    25078    25116    25088 
   24941    24690    24424    24209    24078    24043    24097    24204 
   24324    24452    24564    24590    24534    24456    24371    24294 
   24260    24283    24355    24444    24532    24618    24676    24703 
   24723    24745    24769    24756    24656    24560    24572    24632 
   24655    24640    24592    24530    24494    24493    24511    24582 
   24718    24860    24961    25034    25061    25037    25012    25015 
   25056    25164    25303    25402    25454    25442    25321    25119 
   24908    24757    24696    24700    24745    24837    24915    24904 
   24823    24711    24579    24447    24360    24362    24452    24586 
   24699    24756    24738    24644    24513    24399    24321    24283 
   24279    24301    24356    24429    24486    24522    24570    24633 
   24703    24769    24783    24702    24583    24516    24548    24656 
   24765    24829    24848    24827    24768    24644    24493    24426 
   24451    24464    24455    24474    24533    24609    24634    24587 
   24552    24584    24644    24718    24822    24925    24995    25070 
   25169    25231    25195    25072    24910    24741    24597    24503 
   24451    24426    24459    24530    24568    24551    24505    24453 
   24436    24472    24502    24475    24441    24472    24522    24506 
   24449    24399    24343    24285    24241    24189    24143    24165 
   24254    24345    24414    24467    24471    24391    24266    24120 
   23966    23892    23950    24062    24144    24219    24345    24514 
   24651    24715    24719    24710    24721    24700    24602    24490 
   24444    24453    24480    24514    24565    24663    24813    24950 
   25033    25101    25186    25278    25357    25378    25320    25215 
   25107    25019    24965    24954    24952    24911    24849    24799 
   24765    24763    24783    24808    24838    24829    24696    24470 
   24275    24183    24190    24274    24408    24553    24676    24749 
   24761    24717    24649    24607    24606    24632    24646    24653 
   24690    24746    24808    24885    24965    25024    25062    25051 
   24960    24806    24656    24529    24441    24424    24466    24503 
   24499    24490    24524    24602    24691    24773    24849    24910 
   24904    24815    24699    24628    24640    24721    24815    24849 
   24795    24699    24628    24617    24646    24668    24679    24698 
   24718    24757    24853    24981    25087    25137    25120    25064 
   25002    24934    24877    24837    24742    24575    24435    24370 
   24332    24308    24295    24289    24314    24376    24422    24444 
   24456    24443    24416    24409    24410    24418    24460    24543 
   24657    24763    24804    24804    24814    24835    24856    24845 
   24772    24679    24651    24698    24754    24790    24830    24898 
   24966    25000    25024    25076    25139    25159    25116    25057 
   25046    25100    25157    25149    25076    24966    24846    24765 
   24715    24649    24565    24494    24466    24476    24483    24449 
   24368    24250    24148    24109    24071    23971    23851    23769 
   23719    23697    23693    23681    23683    23719    23795    23912 
   24051    24178    24297    24422    24549    24649    24702    24734 
   24788    24826    24771    24633    24480    24333    24233    24221 
   24250    24277    24349    24489    24617    24696    24773    24848 
   24868    24817    24717    24614    24557    24582    24667    24729 
   24753    24792    24852    24926    25038    25169    25290    25393 
   25439    25411    25358    25331    25342    25389    25454    25496 
   25493    25448    25394    25359    25305    25207    25122    25084 
   25050    25000    24976    25008    25069    25101    25087    25035 
   24961    24884    24845    24829    24777    24699    24625    24555 
   24494    24432    24347    24248    24167    24124    24108    24084 
   24028    23965    23957    24017    24096    24143    24146    24131 
   24138    24152    24171    24233    24333    24439    24560    24660 
   24684    24673    24695    24775    24884    24970    25014    25027 
   25010    24961    24899    24854    24856    24894    24915    24912 
   24919    24946    24966    24961    24943    24934    24900    24819 
   24699    24548    24412    24321    24240    24159    24129    24160 
   24223    24291    24359    24412    24420    24398    24401    24422 
   24449    24494    24513    24484    24439    24398    24375    24385 
   24440    24540    24634    24683    24703    24714    24714    24719 
   24746    24787    24818    24834    24837    24830    24846    24894 
   24927    24926    24916    24904    24896    24918    24925    24861 
   24759    24615    24424    24251    24144    24078    24048    24082 
   24154    24177    24127    24055    23993    23973    24008    24084 
   24179    24241    24239    24235    24268    24316    24391    24510 
   24641    24769    24871    24926    24946    24934    24902    24845 
   24740    24622    24538    24486    24460    24456    24466    24516 
   24614    24710    24768    24784    24750    24690    24637    24624 
   24687    24819    24970    25112    25236    25347    25455    25548 
   25621    25674    25689    25663    25621    25577    25509    25396 
   25265    25155    25070    24996    24921    24827    24733    24655 
   24574    24489    24405    24305    24200    24139    24121    24127 
   24156    24194    24232    24275    24291    24270    24258    24285 
   24351    24426    24487    24557    24660    24768    24860    24934 
   24975    24995    25033    25066    25068    25070    25110    25168 
   25222    25259    25270    25245    25174    25062    24923    24765 
   24602    24463    24368    24314    24274    24205    24131    24105 
   24128    24174    24248    24345    24430    24493    24526    24545 
   24606    24718    24800    24811    24790    24750    24660    24548 
   24487    24468    24436    24398    24395    24433    24487    24536 
   24587    24664    24768    24867    24956    25060    25164    25213 
   25193    25146    25132    25158    25178    25172    25142    25087 
   25008    24930    24860    24784    24727    24721    24737    24719 
   24659    24564    24452    24359    24282    24192    24086    23969 
   23835    23720    23672    23668    23656    23639    23646    23676 
   23728    23811    23922    24039    24131    24170    24158    24119 
   24096    24116    24175    24247    24313    24398    24497    24561 
   24578    24579    24591    24605    24602    24617    24665    24729 
   24804    24892    24975    25047    25131    25242    25363    25471 
   25563    25637    25704    25758    25772    25758    25753    25755 
   25739    25706    25645    25596    25593    25567    25463    25315 
   25142    24966    24831    24734    24632    24499    24379    24283 
   24167    24048    23976    23951    23938    23920    23908    23908 
   23913    23916    23911    23907    23913    23946    24017    24106 
   24186    24258    24312    24370    24452    24530    24582    24613 
   24632    24641    24652    24683    24721    24721    24690    24667 
   24645    24609    24576    24597    24660    24718    24746    24721 
   24638    24578    24609    24714    24852    24996    25130    25203 
   25188    25135    25073    24999    24939    24907    24883    24876 
   24885    24865    24795    24700    24632    24597    24568    24545 
   24545    24563    24591    24622    24649    24682    24738    24802 
   24837    24846    24840    24804    24765    24765    24819    24903 
   24991    25072    25145    25188    25188    25141    25041    24918 
   24815    24767    24771    24786    24771    24733    24698    24661 
   24588    24466    24316    24165    24034    23949    23919    23939 
   23992    24040    24047    24011    23949    23882    23859    23901 
   23981    24079    24196    24304    24386    24444    24480    24514 
   24560    24602    24625    24633    24617    24571    24525    24526 
   24565    24586    24576    24552    24507    24476    24505    24588 
   24695    24817    24931    25018    25058    25030    24948    24884 
   24869    24881    24907    24946    24996    25057    25116    25164 
   25208    25265    25323    25351    25348    25328    25278    25204 
   25141    25099    25058    25010    24965    24945    24948    24941 
   24946    24991    25034    25035    24993    24914    24821    24742 
   24698    24675    24629    24536    24420    24302    24190    24098 
   24036    24013    24046    24112    24175    24235    24281    24290 
   24274    24255    24240    24223    24197    24187    24201    24196 
   24174    24186    24236    24286    24329    24370    24405    24439 
   24464    24455    24421    24412    24443    24491    24543    24574 
   24583    24590    24595    24617    24678    24763    24850    24950 
   25045    25101    25132    25146    25126    25089    25065    25031 
   24969    24883    24803    24759    24737    24732    24757    24807 
   24856    24906    24945    24966    24991    25020    25043    25058 
   25068    25072    25065    25041    25022    25037    25056    25023 
   24958    24916    24896    24861    24823    24822    24834    24806 
   24737    24659    24578    24483    24402    24355    24335    24320 
   24293    24258    24232    24213    24202    24212    24233    24252 
   24273    24300    24331    24360    24383    24414    24451    24462 
   24433    24410    24422    24467    24533    24587    24618    24649 
   24696    24749    24794    24821    24830    24826    24815    24792 
   24750    24707    24700    24730    24759    24771    24771    24749 
   24721    24719    24734    24742    24760    24787    24804    24807 
   24781    24734    24695    24656    24609    24559    24495    24410 
   24332    24289    24278    24275    24264    24241    24217    24198 
   24178    24160    24159    24171    24175    24166    24183    24251 
   24336    24398    24433    24457    24463    24439    24409    24386 
   24364    24351    24347    24352    24393    24475    24563    24626 
   24676    24738    24798    24833    24860    24885    24919    24987 
   25083    25173    25239    25278    25293    25290    25290    25319 
   25370    25419    25466    25519    25569    25583    25556    25516 
   25483    25444    25394    25359    25331    25282    25218    25126 
   24993    24846    24718    24606    24498    24406    24343    24279 
   24189    24090    24016    23973    23955    23939    23897    23853 
   23830    23822    23827    23854    23901    23980    24077    24147 
   24185    24228    24289    24329    24337    24358    24420    24518 
   24637    24741    24803    24817    24792    24753    24734    24744 
   24771    24811    24862    24919    24989    25069    25137    25173 
   25188    25188    25186    25212    25253    25267    25255    25235 
   25208    25176    25145    25131    25153    25196    25238    25251 
   25213    25135    25058    25012    24995    24970    24918    24835 
   24732    24615    24498    24381    24277    24209    24174    24150 
   24128    24111    24093    24078    24057    24017    23959    23884 
   23815    23766    23724    23693    23707    23781    23903    24043 
   24177    24297    24395    24478    24551    24598    24634    24700 
   24790    24862    24916    24950    24970    25003    25060    25127 
   25191    25239    25277    25311    25334    25342    25327    25286 
   25234    25168    25088    25034    25006    24964    24888    24779 
   24657    24537    24421    24320    24251    24227    24221    24189 
   24115    24025    23951    23892    23831    23773    23734    23707 
   23687    23693    23734    23781    23814    23854    23930    24023 
   24116    24219    24339    24471    24609    24750    24869    24954 
   25022    25078    25127    25173    25218    25263    25305    25340 
   25371    25384    25377    25384    25411    25432    25451    25463 
   25443    25388    25327    25257    25155    25050    24966    24899 
   24842    24792    24736    24679    24636    24611    24605    24605 
   24606    24599    24584    24572    24560    24545    24524    24480 
   24435    24402    24358    24298    24258    24243    24250    24283 
   24347    24436    24521    24583    24617    24618    24597    24575 
   24561    24557    24575    24603    24614    24594    24555    24510 
   24463    24410    24363    24333    24331    24349    24375    24412 
