Origin Time       2025/06/03 22:18:00
Lat.              41.7
Long.             143.6
Depth. (km)       30
Mag.              5.2
Station Code      TKCH04
Station Lat.      43.1739
Station Long.     142.9176
Station Height(m) 220
Record Time       2025/06/03 22:18:53
Sampling Freq(Hz) 100Hz
Duration Time(s)  120
Dir.              4
Scale Factor      7845(gal)/8223790
Max. Acc. (gal)   1.006
Last Correction   2025/06/03 22:18:54
Memo.             
[...]
   15325    15299    15279    15261    15244    15218    15180    15161 
   15175    15187    15182    15179    15194    15222    15263    15307 
   15338    15334    15304    15286    15310    15368    15427    15450 
   15400    15288    15169    15103    15114    15171    15219    15226 
   15201    15175    15179    15223    15290    15349    15387    15402 
   15410    15425    15438    15430    15406    15404    15430    15448 
   15434    15394    15336    15269    15228    15246    15327    15433 
   15511    15523    15468    15372    15280    15234    15246    15290 
   15327    15338    15326    15288    15223    15164    15151    15187 
   15249    15299    15303    15249    15164    15090    15057    15066 
   15082    15080    15063    15047    15051    15093    15176    15256 
   15286    15269    15233    15187    15157    15159    15174    15192 
   15213    15214    15179    15145    15161    15221    15298    15388 
   15464    15495    15480    15444    15415    15418    15438    15437 
   15412    15398    15400    15419    15448    15465    15448    15411 
   15387    15391    15394    15365    15315    15282    15288    15333 
   15384    15429    15464    15477    15460    15429    15392    15348 
   15303    15267    15238    15219    15209    15202    15201    15205 
   15199    15179    15149    15121    15113    15141    15187    15207 
   15184    15145    15110    15082    15079    15101    15130    15171 
   15219    15275    15326    15350    15358    15381    15441    15534 
   15627    15665    15611    15466    15299    15180    15138    15152 
   15164    15140    15102    15072    15043    15029    15066    15155 
   15268    15379    15464    15507    15493    15433    15356    15284 
   15232    15213    15219    15222    15195    15138    15105    15134 
   15226    15348    15461    15552    15604    15599    15547    15485 
   15431    15384    15348    15315    15255    15155    15055    15007 
   15032    15099    15172    15232    15267    15277    15294    15345 
   15398    15403    15367    15315    15259    15199    15156    15136 
   15118    15109    15126    15159    15180    15201    15228    15244 
   15250    15267    15288    15302    15325    15379    15452    15496 
   15516    15553    15599    15619    15615    15593    15542    15461 
   15365    15283    15223    15176    15147    15157    15201    15245 
   15271    15292    15317    15326    15307    15257    15190    15128 
   15094    15087    15091    15111    15140    15153    15147    15125 
   15103    15083    15083    15122    15178    15225    15280    15349 
   15408    15444    15449    15425    15377    15340    15327    15321 
   15295    15230    15140    15083    15107    15182    15273    15380 
   15464    15466    15399    15314    15255    15245    15299    15403 
   15510    15561    15535    15449    15344    15269    15238    15246 
   15276    15282    15241    15201    15207    15245    15298    15387 
   15495    15558    15549    15481    15371    15249    15161    15136 
   15153    15176    15176    15145    15107    15115    15180    15253 
   15296    15306    15276    15232    15210    15203    15198    15207 
   15241    15292    15344    15379    15383    15360    15336    15346 
   15402    15493    15587    15622    15573    15477    15361    15242 
   15156    15114    15097    15090    15093    15113    15151    15214 
   15291    15361    15418    15465    15503    15526    15522    15496 
   15458    15417    15373    15327    15269    15202    15142    15098 
   15074    15093    15171    15273    15363    15430    15466    15457 
   15410    15356    15313    15257    15180    15099    15030    14993 
   14989    14980    14955    14933    14939    14982    15066    15159 
   15230    15290    15345    15371    15363    15340    15296    15245 
   15229    15250    15264    15265    15284    15314    15327    15323 
   15322    15319    15306    15295    15295    15309    15333    15352 
   15361    15372    15391    15415    15433    15445    15452    15457 
   15476    15502    15506    15472    15406    15340    15310    15311 
   15303    15236    15126    15053    15067    15148    15250    15338 
   15387    15391    15367    15336    15310    15295    15300    15331 
   15372    15391    15380    15352    15326    15315    15306    15279 
   15219    15144    15080    15057    15074    15113    15176    15263 
   15342    15391    15414    15407    15371    15317    15255    15176 
   15094    15025    15002    15039    15124    15237    15350    15423 
   15442    15435    15422    15403    15375    15352    15344    15329 
   15291    15249    15222    15205    15201    15217    15230    15228 
   15244    15290    15327    15356    15406    15453    15434    15344 
   15253    15225    15252    15296    15338    15365    15352    15298 
   15252    15246    15267    15290    15304    15310    15300    15280 
   15245    15195    15140    15095    15091    15122    15148    15171 
   15222    15315    15435    15550    15624    15626    15561    15471 
   15380    15302    15252    15241    15255    15272    15284    15269 
   15218    15151    15110    15132    15201    15271    15319    15342 
   15331    15296    15257    15225    15201    15198    15229    15268 
   15276    15250    15225    15223    15250    15292    15344    15390 
   15417    15427    15434    15446    15450    15414    15342    15257 
   15183    15161    15217    15303    15345    15317    15242    15159 
   15105    15107    15152    15207    15250    15272    15279    15283 
   15292    15295    15263    15198    15145    15136    15165    15237 
   15331    15390    15395    15385    15392    15403    15404    15406 
   15395    15341    15252    15172    15142    15171    15229    15299 
   15379    15448    15473    15466    15450    15412    15342    15267 
   15219    15210    15222    15245    15260    15248    15214    15160 
   15095    15057    15074    15138    15229    15314    15367    15376 
   15372    15377    15368    15318    15238    15157    15103    15094 
   15118    15168    15236    15283    15300    15331    15404    15492 
   15576    15637    15643    15577    15468    15367    15295    15240 
   15198    15163    15132    15114    15138    15207    15288    15352 
   15384    15396    15412    15426    15415    15380    15331    15250 
   15134    15034    14998    15016    15072    15159    15244    15272 
   15248    15236    15265    15309    15337    15333    15287    15228 
   15206    15242    15310    15357    15354    15313    15275    15269 
   15302    15369    15437    15449    15394    15311    15228    15147 
   15075    15039    15045    15064    15083    15130    15219    15322 
   15404    15457    15498    15529    15539    15542    15533    15487 
   15407    15326    15280    15277    15319    15404    15481    15503 
   15469    15412    15365    15337    15327    15327    15298    15230 
   15157    15118    15118    15132    15141    15151    15141    15113 
   15095    15109    15160    15234    15291    15303    15271    15213 
   15172    15165    15174    15180    15179    15167    15156    15157 
   15169    15179    15180    15191    15229    15284    15334    15369 
   15365    15311    15242    15210    15242    15325    15407    15444 
   15442    15426    15383    15317    15277    15288    15304    15302 
   15294    15276    15223    15157    15121    15132    15179    15255 
   15363    15481    15569    15608    15611    15584    15526    15461 
   15414    15384    15346    15283    15213    15161    15141    15155 
   15203    15271    15330    15377    15435    15491    15523    15539 
   15535    15496    15445    15407    15371    15315    15263    15252 
   15271    15287    15296    15309    15303    15271    15256    15282 
   15304    15282    15241    15213    15167    15091    15045    15059 
   15111    15180    15256    15303    15290    15233    15183    15152 
   15118    15070    15014    14952    14897    14894    14971    15095 
   15213    15291    15326    15327    15319    15350    15435    15543 
   15635    15676    15638    15527    15391    15280    15205    15145 
   15099    15079    15074    15071    15091    15156    15250    15368 
   15510    15627    15680    15684    15670    15634    15572    15504 
   15454    15425    15412    15419    15445    15481    15523    15542 
   15522    15480    15418    15310    15155    14987    14848    14773 
   14796    14909    15036    15107    15142    15180    15250    15363 
   15502    15626    15687    15665    15580    15450    15291    15138 
   15034    14985    14982    15022    15087    15129    15121    15084 
   15049    15020    15018    15071    15155    15219    15242    15245 
   15240    15218    15190    15183    15191    15188    15182    15201 
   15244    15303    15395    15520    15639    15700    15672    15572 
   15442    15325    15238    15159    15075    15029    15022    15021 
   15047    15148    15299    15441    15539    15583    15568    15514 
   15450    15385    15330    15303    15302    15313    15304    15260 
   15215    15218    15286    15408    15549    15668    15724    15693 
   15589    15446    15296    15178    15122    15151    15240    15338 
   15399    15385    15300    15186    15083    15001    14926    14850 
   14770    14706    14686    14704    14744    14809    14899    14998 
   15084    15156    15221    15273    15325    15400    15508    15607 
   15665    15718    15788    15844    15855    15830    15774    15669 
   15515    15354    15207    15067    14955    14887    14845    14820 
   14831    14885    14974    15102    15256    15358    15363    15317 
   15283    15302    15395    15533    15651    15707    15691    15638 
   15601    15592    15588    15589    15597    15611    15604    15546 
   15441    15326    15233    15165    15107    15053    15007    14970 
   14941    14949    15034    15191    15367    15503    15568    15541 
   15418    15232    15033    14872    14805    14848    14933    14978 
   14994    15041    15168    15380    15634    15865    16008    16032 
   15940    15774    15584    15391    15230    15134    15097    15095 
   15103    15107    15122    15165    15233    15306    15330    15268 
   15167    15101    15102    15195    15363    15526    15626    15662 
   15658    15631    15599    15592    15616    15628    15579    15435 
   15205    14939    14700    14538    14499    14571    14683    14769 
   14809    14828    14850    14922    15061    15206    15303    15369 
   15434    15475    15471    15461    15469    15471    15477    15539 
   15657    15792    15916    16013    16059    16016    15884    15689 
   15445    15169    14904    14670    14469    14322    14274    14343 
   14513    14748    15016    15291    15531    15688    15732    15643 
   15439    15214    15068    15028    15071    15195    15364    15522 
   15647    15745    15805    15809    15747    15643    15520    15388 
   15256    15149    15094    15097    15130    15163    15163    15105 
   15003    14932    14936    14986    15021    15003    14920    14804 
   14728    14743    14835    14982    15172    15407    15680    15934 
   16101    16171    16144    16025    15863    15722    15626    15560 
   15508    15460    15395    15294    15156    14995    14828    14697 
   14646    14715    14899    15130    15329    15465    15526    15487 
   15356    15198    15074    15018    15051    15153    15271    15357 
   15402    15417    15415    15408    15406    15391    15345    15272 
   15191    15133    15130    15188    15283    15385    15461    15492 
   15458    15326    15118    14914    14769    14693    14690    14742 
   14810    14881    14974    15120    15322    15553    15751    15857 
   15853    15777    15697    15660    15660    15650    15576    15421 
   15218    15034    14939    14963    15080    15228    15354    15429 
   15434    15377    15279    15174    15103    15084    15114    15195 
   15330    15480    15587    15612    15523    15329    15110    14947 
   14867    14883    14987    15149    15346    15562    15759    15885 
   15903    15828    15724    15635    15573    15537    15499    15418 
   15277    15111    14966    14872    14878    14994    15182    15379 
   15523    15573    15545    15491    15466    15456    15411    15319 
   15230    15199    15230    15287    15333    15327    15268    15187 
   15128    15138    15230    15352    15414    15388    15304    15184 
   15057    14980    14970    15006    15063    15140    15245    15345 
   15379    15315    15179    15037    14941    14922    14993    15109 
   15217    15294    15348    15403    15484    15606    15750    15859 
   15873    15759    15535    15272    15053    14909    14839    14844 
   14902    14978    15053    15134    15217    15277    15304    15292 
   15240    15171    15106    15037    14955    14864    14782    14752 
   14836    15028    15260    15462    15593    15622    15558    15462 
   15408    15392    15363    15315    15277    15276    15331    15445 
   15583    15689    15719    15660    15543    15406    15276    15187 
   15144    15126    15128    15153    15217    15318    15437    15558 
   15687    15808    15921    16032    16116    16127    16048    15880 
   15639    15371    15121    14931    14829    14804    14835    14905 
   14995    15091    15195    15292    15345    15341    15280    15161 
   15001    14837    14692    14543    14391    14269    14231    14326 
   14582    14960    15367    15735    16024    16194    16236    16181 
   16051    15862    15670    15511    15361    15215    15107    15037 
   14980    14944    14949    14982    15028    15109    15234    15363 
   15448    15471    15439    15376    15309    15238    15134    14978 
   14798    14647    14588    14673    14891    15165    15419    15608 
   15709    15714    15645    15552    15475    15460    15557    15743 
   15908    15955    15863    15660    15395    15147    14983    14910 
   14894    14917    14974    15043    15107    15192    15331    15496 
   15628    15699    15703    15637    15525    15415    15318    15198 
   15044    14908    14845    14882    14990    15129    15265    15367 
   15412    15433    15479    15557    15631    15646    15579    15431 
   15238    15051    14936    14931    14994    15051    15094    15160 
   15267    15402    15558    15720    15823    15800    15670    15518 
   15383    15260    15144    15030    14913    14823    14837    14991 
   15211    15384    15466    15487    15465    15400    15315    15240 
   15148    15012    14881    14841    14906    15022    15168    15349 
   15534    15684    15804    15908    15950    15870    15662    15387 
   15134    14974    14937    14999    15084    15140    15164    15175 
   15190    15205    15206    15195    15176    15161    15167    15191 
   15219    15234    15223    15188    15148    15128    15129    15140 
   15156    15191    15242    15268    15237    15161    15075    15028 
   15057    15159    15309    15469    15570    15561    15468    15349 
   15255    15217    15256    15365    15499    15599    15637    15612 
   15556    15519    15530    15566    15589    15568    15485    15365 
   15282    15269    15296    15309    15272    15211    15157    15120 
   15098    15061    14976    14860    14778    14767    14827    14926 
   15036    15138    15228    15284    15296    15269    15215    15156 
   15110    15094    15114    15163    15236    15337    15445    15538 
   15610    15661    15684    15662    15589    15456    15260    15043 
   14877    14823    14889    15024    15136    15153    15079    14989 
   14979    15098    15330    15601    15819    15917    15907    15834 
   15716    15579    15465    15404    15404    15449    15504    15545 
   15576    15611    15638    15645    15624    15561    15450    15322 
   15213    15142    15117    15142    15215    15311    15392    15448 
   15479    15502    15545    15615    15670    15653    15531    15326 
   15091    14894    14782    14773    14864    15024    15192    15330 
   15417    15433    15379    15280    15161    15039    14935    14871 
   14837    14816    14806    14823    14855    14870    14860    14850 
   14848    14870    14920    14971    15005    15047    15136    15273 
   15434    15596    15732    15809    15805    15731    15626    15526 
   15439    15361    15303    15265    15241    15248    15279    15318 
   15358    15398    15435    15465    15491    15519    15543    15550 
   15542    15538    15543    15564    15597    15633    15618    15492 
   15261    14995    14778    14674    14701    14828    14991    15140 
   15248    15317    15348    15348    15338    15337    15337    15334 
   15348    15407    15499    15569    15569    15500    15390    15286 
   15255    15330    15462    15570    15615    15604    15553    15477 
   15391    15288    15156    15026    14953    14951    14994    15061 
   15130    15168    15161    15110    15030    14956    14914    14914 
   14932    14948    14956    14951    14937    14933    14933    14922 
   14904    14905    14935    14998    15103    15229    15338    15435 
   15520    15572    15577    15546    15499    15427    15330    15233 
   15165    15129    15124    15153    15206    15269    15344    15438 
   15539    15611    15630    15608    15568    15534    15538    15583 
   15646    15715    15772    15778    15714    15591    15471    15411 
   15411    15426    15426    15398    15338    15267    15213    15191 
   15195    15196    15192    15196    15207    15214    15209    15198 
   15192    15194    15184    15132    15048    14980    14972    15029 
   15121    15213    15291    15350    15391    15410    15387    15310 
   15190    15067    14991    14971    14983    15020    15086    15183 
   15294    15408    15522    15620    15688    15712    15682    15601 
   15475    15309    15132    14998    14937    14952    15044    15192 
   15350    15473    15549    15584    15577    15523    15422    15287 
   15152    15047    14991    14995    15047    15113    15164    15187 
   15191    15188    15201    15250    15337    15444    15534    15576 
   15573    15545    15492    15437    15418    15453    15500    15514 
   15483    15414    15315    15207    15115    15048    15002    14978 
   14976    14995    15048    15144    15267    15385    15460    15456 
   15367    15234    15114    15044    15039    15086    15160    15240 
   15318    15399    15471    15503    15488    15449    15430    15465 
   15547    15650    15742    15784    15745    15622    15434    15230 
   15051    14914    14824    14793    14837    14924    15013    15094 
   15171    15246    15338    15464    15599    15699    15738    15701 
   15584    15390    15156    14952    14823    14771    14789    14850 
   14918    14970    15013    15068    15157    15283    15426    15539 
   15593    15564    15460    15323    15195    15103    15063    15071 
   15102    15129    15157    15214    15284    15333    15363    15391 
   15426    15461    15476    15462    15423    15390    15379    15358 
   15307    15259    15250    15280    15333    15379    15398    15388 
   15357    15322    15287    15244    15192    15157    15157    15190 
