Origin Time       2025/06/03 22:18:00
Lat.              41.7
Long.             143.6
Depth. (km)       30
Mag.              5.2
Station Code      TKCH08
Station Lat.      42.4865
Station Long.     143.1520
Station Height(m) 360
Record Time       2025/06/03 22:18:42
Sampling Freq(Hz) 100Hz
Duration Time(s)  120
Dir.              5
Scale Factor      7845(gal)/8223790
Max. Acc. (gal)   5.481
Last Correction   2025/06/03 22:18:42
Memo.             
[...]
   -6158    -6162    -6156    -6145    -6145    -6160    -6164    -6153 
   -6146    -6147    -6154    -6160    -6156    -6151    -6151    -6151 
   -6154    -6156    -6153    -6154    -6156    -6151    -6150    -6151 
   -6156    -6156    -6150    -6151    -6156    -6154    -6153    -6153 
   -6156    -6158    -6154    -6149    -6150    -6156    -6160    -6156 
   -6146    -6147    -6157    -6162    -6154    -6146    -6151    -6157 
   -6157    -6158    -6151    -6149    -6156    -6157    -6151    -6147 
   -6149    -6154    -6151    -6150    -6149    -6147    -6150    -6151 
   -6149    -6149    -6142    -6139    -6146    -6147    -6145    -6142 
   -6139    -6145    -6146    -6139    -6134    -6130    -6133    -6145 
   -6154    -6161    -6166    -6169    -6172    -6164    -6143    -6122 
   -6104    -6100    -6112    -6139    -6178    -6218    -6242    -6246 
   -6212    -6141    -6049    -5961    -5925    -5960    -6057    -6205 
   -6361    -6467    -6481    -6382    -6201    -5998    -5821    -5744 
   -5827    -6070    -6394    -6663    -6752    -6620    -6316    -5945 
   -5629    -5478    -5560    -5867    -6313    -6750    -6988    -6933 
   -6639    -6211    -5771    -5486    -5502    -5819    -6297    -6747 
   -6972    -6839    -6366    -5709    -5084    -4703    -4676    -5017 
   -5668    -6459    -7148    -7456    -7202    -6465    -5560    -4841 
   -4580    -4888    -5678    -6694    -7557    -7927    -7696    -6943 
   -5899    -4961    -4515    -4703    -5397    -6328    -7199    -7757 
   -7866    -7560    -6995    -6363    -5887    -5760    -5994    -6412 
   -6805    -7033    -7041    -6790    -6280    -5648    -5112    -4816 
   -4837    -5181    -5740    -6303    -6662    -6721    -6500    -6104 
   -5709    -5458    -5406    -5567    -5915    -6359    -6740    -6930 
   -6883    -6631    -6238    -5799    -5414    -5174    -5155    -5367 
   -5755    -6293    -6913    -7369    -7470    -7267    -6889    -6469 
   -6160    -6012    -5929    -5845    -5792    -5767    -5703    -5593 
   -5513    -5549    -5705    -5894    -6004    -5954    -5776    -5626 
   -5645    -5865    -6228    -6643    -7025    -7314    -7435    -7299 
   -6883    -6288    -5663    -5148    -4872    -4915    -5279    -5879 
   -6546    -7103    -7377    -7253    -6812    -6241    -5715    -5413 
   -5464    -5840    -6386    -6926    -7290    -7319    -6970    -6390 
   -5794    -5329    -5136    -5290    -5671    -6104    -6492    -6729 
   -6736    -6577    -6367    -6200    -6166    -6285    -6454    -6540 
   -6450    -6149    -5730    -5373    -5205    -5267    -5518    -5841 
   -6088    -6150    -6003    -5707    -5414    -5305    -5440    -5771 
   -6254    -6768    -7123    -7219    -7017    -6515    -5868    -5343 
   -5134    -5278    -5717    -6309    -6874    -7264    -7389    -7182 
   -6685    -6110    -5702    -5589    -5783    -6199    -6621    -6853 
   -6858    -6706    -6490    -6303    -6166    -6027    -5891    -5845 
   -5940    -6162    -6461    -6717    -6809    -6700    -6407    -5960 
   -5474    -5101    -4922    -4981    -5283    -5732    -6165    -6427 
   -6417    -6149    -5749    -5373    -5131    -5071    -5213    -5557 
   -6031    -6528    -6933    -7123    -7011    -6605    -6045    -5562 
   -5354    -5494    -5933    -6536    -7146    -7573    -7655    -7371 
   -6837    -6293    -5976    -5996    -6296    -6714    -7030    -7049 
   -6729    -6214    -5698    -5335    -5240    -5416    -5729    -6042 
   -6215    -6150    -5922    -5705    -5622    -5719    -5961    -6235 
   -6409    -6394    -6203    -5921    -5637    -5462    -5512    -5810 
   -6272    -6791    -7230    -7396    -7184    -6675    -6053    -5513 
   -5255    -5391    -5856    -6453    -6960    -7183    -6983    -6385 
   -5614    -4981    -4746    -5042    -5768    -6615    -7245    -7481 
   -7334    -6895    -6308    -5772    -5448    -5395    -5586    -5933 
   -6308    -6586    -6714    -6677    -6450    -6076    -5661    -5287 
   -5069    -5121    -5443    -5917    -6403    -6762    -6880    -6710 
   -6339    -5953    -5692    -5620    -5744    -6002    -6273    -6453 
   -6485    -6373    -6185    -6021    -5937    -5931    -5975    -6068 
   -6234    -6465    -6674    -6763    -6689    -6496    -6268    -6048 
   -5876    -5819    -5903    -6110    -6355    -6467    -6330    -6004 
   -5667    -5468    -5476    -5692    -6062    -6474    -6813    -6968 
   -6845    -6512    -6133    -5806    -5587    -5544    -5706    -6006 
   -6300    -6467    -6466    -6335    -6170    -6062    -6045    -6127 
   -6292    -6455    -6509    -6440    -6311    -6146    -5980    -5898 
   -5922    -6023    -6185    -6330    -6332    -6153    -5886    -5661 
   -5568    -5648    -5902    -6241    -6529    -6671    -6625    -6404 
   -6073    -5724    -5449    -5340    -5456    -5751    -6056    -6231 
   -6237    -6096    -5896    -5740    -5707    -5877    -6249    -6717 
   -7148    -7410    -7437    -7290    -7072    -6851    -6689    -6669 
   -6816    -7047    -7214    -7187    -6913    -6462    -5964    -5522 
   -5213    -5124    -5323    -5814    -6446    -6922    -7003    -6660 
   -6034    -5317    -4742    -4521    -4722    -5240    -5873    -6377 
   -6532    -6259    -5692    -5088    -4699    -4685    -5058    -5638 
   -6203    -6616    -6794    -6686    -6359    -5980    -5728    -5734 
   -6027    -6500    -6956    -7241    -7298    -7117    -6739    -6281 
   -5887    -5683    -5756    -6096    -6581    -7032    -7290    -7263 
   -6955    -6493    -6033    -5676    -5509    -5580    -5841    -6162 
   -6420    -6515    -6399    -6126    -5794    -5467    -5209    -5093 
   -5144    -5351    -5674    -6038    -6355    -6546    -6548    -6350 
   -6029    -5761    -5682    -5822    -6146    -6519    -6758    -6766 
   -6566    -6250    -5906    -5613    -5472    -5545    -5796    -6162 
   -6535    -6750    -6735    -6561    -6335    -6122    -5962    -5919 
   -6042    -6332    -6728    -7090    -7267    -7195    -6906    -6492 
   -6070    -5749    -5591    -5601    -5742    -5968    -6189    -6324 
   -6362    -6345    -6304    -6254    -6196    -6114    -5995    -5879 
   -5821    -5826    -5868    -5880    -5769    -5528    -5243    -5044 
   -5084    -5417    -5960    -6569    -7076    -7306    -7172    -6739 
   -6201    -5792    -5698    -5981    -6494    -6990    -7321    -7435 
   -7335    -7079    -6735    -6377    -6097    -5934    -5873    -5918 
   -6091    -6370    -6640    -6767    -6640    -6222    -5629    -5065 
   -4693    -4599    -4746    -5022    -5298    -5462    -5464    -5356 
   -5209    -5109    -5132    -5292    -5513    -5713    -5908    -6178 
   -6536    -6917    -7200    -7271    -7095    -6727    -6273    -5914 
   -5806    -5989    -6390    -6898    -7368    -7619    -7565    -7275 
   -6870    -6516    -6411    -6639    -7087    -7520    -7732    -7635 
   -7237    -6601    -5830    -5077    -4534    -4357    -4560    -5020 
   -5548    -5971    -6176    -6108    -5806    -5386    -5009    -4837 
   -4941    -5273    -5707    -6088    -6268    -6158    -5783    -5332 
   -5051    -5078    -5431    -6037    -6705    -7187    -7331    -7165 
   -6809    -6405    -6091    -5953    -6052    -6384    -6858    -7318 
   -7630    -7712    -7593    -7352    -7030    -6691    -6434    -6307 
   -6292    -6358    -6459    -6543    -6565    -6502    -6334    -6065 
   -5775    -5535    -5354    -5228    -5177    -5231    -5418    -5717 
   -6031    -6219    -6211    -6053    -5834    -5655    -5595    -5684 
   -5896    -6137    -6262    -6199    -5984    -5737    -5601    -5668 
   -5979    -6470    -6978    -7323    -7361    -7059    -6556    -6057 
   -5709    -5563    -5587    -5719    -5917    -6153    -6401    -6610 
   -6724    -6689    -6462    -6066    -5595    -5158    -4881    -4870 
   -5120    -5536    -6011    -6404    -6578    -6498    -6274    -6073 
   -6000    -6064    -6195    -6320    -6404    -6416    -6354    -6239 
   -6083    -5929    -5830    -5805    -5865    -6027    -6270    -6535 
   -6723    -6750    -6636    -6457    -6289    -6212    -6264    -6413 
   -6586    -6702    -6708    -6578    -6359    -6145    -5998    -5922 
   -5883    -5872    -5921    -6037    -6218    -6444    -6643    -6754 
   -6762    -6624    -6331    -5971    -5663    -5503    -5557    -5826 
   -6214    -6604    -6928    -7126    -7142    -6949    -6574    -6120 
   -5729    -5485    -5404    -5459    -5599    -5794    -5998    -6142 
   -6192    -6145    -6012    -5810    -5575    -5383    -5294    -5323 
   -5458    -5664    -5898    -6118    -6280    -6351    -6350    -6336 
   -6366    -6432    -6475    -6438    -6318    -6160    -6025    -5958 
   -5983    -6092    -6255    -6421    -6512    -6463    -6291    -6077 
   -5935    -5933    -6049    -6241    -6446    -6567    -6534    -6363 
   -6122    -5859    -5648    -5574    -5645    -5810    -6023    -6230 
   -6370    -6401    -6327    -6210    -6116    -6093    -6177    -6354 
   -6531    -6608    -6578    -6494    -6440    -6482    -6623    -6772 
   -6806    -6623    -6215    -5722    -5354    -5242    -5420    -5837 
   -6332    -6701    -6797    -6590    -6166    -5698    -5381    -5336 
   -5567    -5994    -6484    -6890    -7138    -7175    -6928    -6432 
   -5838    -5310    -4982    -4945    -5227    -5745    -6315    -6751 
   -6922    -6778    -6409    -6012    -5776    -5803    -6088    -6529 
   -6957    -7186    -7098    -6697    -6102    -5499    -5071    -4911 
   -5012    -5321    -5725    -6076    -6304    -6413    -6419    -6380 
   -6382    -6458    -6588    -6736    -6839    -6821    -6631    -6301 
   -5945    -5674    -5560    -5617    -5787    -5976    -6099    -6122 
   -6045    -5900    -5788    -5818    -6042    -6436    -6845    -7069 
   -7013    -6716    -6295    -5876    -5537    -5321    -5244    -5292 
   -5433    -5616    -5800    -5992    -6205    -6436    -6658    -6837 
   -6968    -7028    -6990    -6905    -6851    -6843    -6813    -6675 
   -6420    -6108    -5802    -5537    -5359    -5310    -5418    -5663 
   -5972    -6262    -6467    -6554    -6536    -6435    -6264    -6043 
   -5840    -5717    -5684    -5714    -5787    -5877    -5915    -5810 
   -5551    -5232    -4962    -4868    -5067    -5572    -6276    -7010 
   -7577    -7823    -7699    -7273    -6712    -6189    -5819    -5645 
   -5656    -5786    -5949    -6106    -6264    -6423    -6561    -6646 
   -6643    -6554    -6413    -6262    -6153    -6138    -6254    -6485 
   -6709    -6787    -6655    -6340    -5940    -5548    -5225    -5032 
   -5009    -5131    -5321    -5490    -5593    -5657    -5718    -5811 
   -5969    -6200    -6458    -6667    -6779    -6790    -6725    -6636 
   -6559    -6490    -6430    -6385    -6362    -6327    -6264    -6203 
   -6165    -6120    -6033    -5907    -5794    -5749    -5813    -5985 
   -6235    -6512    -6772    -6949    -6956    -6774    -6453    -6085 
   -5782    -5611    -5616    -5794    -6061    -6336    -6561    -6673 
   -6650    -6529    -6366    -6231    -6188    -6261    -6409    -6544 
   -6592    -6507    -6272    -5950    -5652    -5463    -5429    -5533 
   -5722    -5931    -6092    -6162    -6123    -5995    -5829    -5691 
   -5651    -5749    -5969    -6245    -6482    -6616    -6642    -6552 
   -6318    -5960    -5564    -5240    -5067    -5076    -5229    -5410 
   -5513    -5525    -5479    -5429    -5478    -5719    -6154    -6686 
   -7176    -7495    -7547    -7345    -7006    -6677    -6496    -6566 
   -6885    -7354    -7815    -8117    -8209    -8091    -7804    -7415 
   -7001    -6625    -6332    -6142    -6056    -6048    -6076    -6084 
   -5977    -5684    -5243    -4774    -4390    -4129    -4012    -4035 
   -4114    -4152    -4112    -4002    -3896    -3901    -4110    -4563 
   -5202    -5873    -6405    -6669    -6636    -6394    -6070    -5767 
   -5564    -5517    -5633    -5865    -6145    -6440    -6750    -7065 
   -7371    -7593    -7657    -7557    -7376    -7218    -7152    -7237 
   -7507    -7912    -8313    -8548    -8495    -8143    -7611    -7105 
   -6821    -6864    -7231    -7821    -8453    -8943    -9131    -8919 
   -8359    -7604    -6847    -6300    -6108    -6277    -6685    -7125 
   -7403    -7387    -7045    -6447    -5698    -4919    -4245    -3797 
   -3658    -3809    -4114    -4417    -4618    -4660    -4521    -4232 
   -3885    -3600    -3460    -3470    -3559    -3619    -3561    -3357 
   -3059    -2760    -2546    -2485    -2616    -2933    -3418    -4047 
   -4799    -5647    -6509    -7276    -7846    -8148    -8209    -8168 
   -8167    -8276    -8494    -8756    -8953    -8935    -8604    -8009 
   -7348    -6907    -6902    -7372    -8152    -8914    -9305    -9108 
   -8307    -7109    -5852    -4888    -4429    -4487    -4908    -5443 
   -5850    -6030    -6003    -5857    -5730    -5769    -6041    -6515 
   -7052    -7489    -7727    -7713    -7400    -6802    -6022    -5209 
   -4527    -4113    -4012    -4186    -4549    -4977    -5337    -5517 
   -5454    -5169    -4758    -4322    -3950    -3724    -3672    -3773 
   -4023    -4430    -4999    -5714    -6528    -7335    -7956    -8243 
   -8203    -7982    -7750    -7649    -7784    -8166    -8687    -9186 
   -9505    -9487    -9051    -8226    -7150    -6057    -5221    -4878 
   -5152    -6021    -7318    -8727    -9838   -10296    -9903    -8688 
   -6953    -5158    -3754    -3068    -3237    -4131    -5347    -6369 
   -6791    -6430    -5336    -3775    -2160     -922     -407     -750 
   -1845    -3366    -4868    -5942    -6377    -6214    -5728    -5301 
   -5231    -5645    -6489    -7543    -8500    -9080    -9162    -8802 
   -8203    -7655    -7358    -7345    -7539    -7838    -8139    -8365 
   -8486    -8496    -8413    -8251    -8004    -7645    -7199    -6718 
   -6242    -5780    -5336    -4943    -4598    -4243    -3829    -3346 
   -2840    -2440    -2284    -2448    -2972    -3821    -4843    -5834 
   -6628    -7123    -7258    -7057    -6678    -6297    -6046    -6000 
   -6146    -6397    -6617    -6674    -6521    -6200    -5826    -5536 
   -5404    -5444    -5591    -5702    -5697    -5613    -5541    -5605 
   -5907    -6448    -7079    -7566    -7743    -7558    -7075    -6519 
   -6164    -6157    -6493    -7032    -7545    -7812    -7716    -7319 
   -6831    -6455    -6297    -6335    -6493    -6750    -7088    -7443 
   -7746    -7978    -8152    -8168    -7862    -7190    -6255    -5258 
   -4446    -4028    -4102    -4608    -5319    -5908    -6083    -5715 
   -4934    -4020    -3260    -2891    -3080    -3866    -5112    -6517 
   -7719    -8437    -8588    -8259    -7615    -6878    -6269    -5919 
   -5853    -5975    -6103    -6100    -5922    -5617    -5312    -5166 
   -5296    -5709    -6285    -6864    -7283    -7410    -7218    -6787 
   -6268    -5821    -5574    -5595    -5859    -6249    -6606    -6751 
   -6532    -5908    -5009    -4128    -3608    -3700    -4487    -5836 
   -7403    -8739    -9466    -9412    -8662    -7510    -6400    -5746 
   -5729    -6278    -7138    -7951    -8397    -8297    -7686    -6745 
   -5705    -4828    -4348    -4371    -4861    -5634    -6409    -6909 
   -6939    -6420    -5429    -4220    -3142    -2544    -2641    -3411 
   -4571    -5728    -6540    -6821    -6596    -6061    -5497    -5193 
   -5300    -5765    -6423    -7047    -7419    -7441    -7142    -6660 
   -6207    -5999    -6137    -6589    -7248    -7938    -8442    -8614 
   -8419    -7943    -7376    -6941    -6804    -7011    -7466    -7971 
   -8321    -8352    -7993    -7290    -6408    -5575    -4976    -4704 
   -4738    -4954    -5185    -5286    -5146    -4695    -3910    -2872 
   -1796     -945     -537     -735    -1583    -2957    -4585    -6107 
   -7198    -7692    -7611    -7138    -6529    -6052    -5881    -6066 
   -6547    -7146    -7615    -7763    -7530    -6968    -6215    -5474 
   -4969    -4869    -5252    -6081    -7153    -8178    -8926    -9277 
   -9212    -8815    -8252    -7711    -7296    -7029    -6880    -6789 
   -6716    -6670    -6660    -6705    -6818    -6984    -7163    -7298 
   -7329    -7209    -6943    -6604    -6292    -6091    -6029    -6075 
   -6160    -6218    -6191    -6041    -5756    -5364    -4945    -4573 
   -4297    -4149    -4147    -4275    -4533    -4916    -5367    -5782 
   -6065    -6150    -5981    -5586    -5103    -4665    -4388    -4367 
   -4614    -5080    -5690    -6346    -6957    -7441    -7722    -7781 
   -7654    -7416    -7161    -6967    -6891    -6961    -7136    -7325 
   -7427    -7369    -7122    -6700    -6199    -5753    -5431    -5273 
   -5304    -5509    -5854    -6303    -6824    -7368    -7834    -8108 
   -8095    -7757    -7152    -6412    -5676    -5062    -4645    -4482 
   -4544    -4703    -4835    -4849    -4692    -4402    -4060    -3755 
   -3576    -3596    -3861    -4356    -5008    -5706    -6330    -6805 
   -7090    -7160    -7038    -6770    -6404    -6029    -5744    -5636 
   -5752    -6079    -6548    -7053    -7474    -7719    -7754    -7604 
   -7333    -7024    -6770    -6664    -6741    -6959    -7242    -7507 
   -7677    -7695    -7526    -7182    -6708    -6191    -5773    -5597 
   -5726    -6124    -6673    -7200    -7487    -7350    -6755    -5830 
   -4828    -4020    -3601    -3642    -4037    -4579    -5050    -5296 
   -5281    -5093    -4893    -4884    -5192    -5811    -6636    -7496 
   -8222    -8699    -8865    -8739    -8397    -7924    -7415    -6928 
   -6477    -6096    -5825    -5688    -5714    -5883    -6110    -6293 
   -6367    -6307    -6110    -5822    -5508    -5189    -4885    -4641 
   -4477    -4401    -4430    -4558    -4745    -4968    -5206    -5400 
   -5491    -5497    -5478    -5506    -5675    -6053    -6606    -7215 
   -7726    -8005    -7965    -7582    -6937    -6192    -5579    -5287 
   -5351    -5698    -6237    -6812    -7248    -7426    -7300    -6899 
   -6335    -5782    -5437    -5422    -5761    -6400    -7164    -7800 
   -8077    -7888    -7285    -6442    -5610    -5047    -4880    -5092 
   -5525    -5931    -6104    -5949    -5491    -4918    -4475    -4342 
   -4596    -5211    -6060    -6940    -7636    -8010    -8005    -7650 
   -7086    -6500    -6027    -5740    -5665    -5805    -6100    -6440 
   -6732    -6943    -7102    -7249    -7412    -7626    -7886    -8133 
   -8275    -8236    -7990    -7558    -6983    -6347    -5764    -5302 
   -4972    -4773    -4693    -4688    -4675    -4591    -4434    -4234 
   -4051    -3986    -4125    -4496    -5063    -5713    -6288    -6617 
   -6590    -6219    -5636    -5043    -4629    -4502    -4703    -5148 
   -5665    -6103    -6381    -6493    -6478    -6416    -6401    -6490 
   -6700    -7022    -7385    -7703    -7911    -7936    -7720    -7295 
   -6751    -6183    -5688    -5366    -5267    -5373    -5614    -5888 
   -6079    -6138    -6085    -5958    -5810    -5709    -5722    -5880 
   -6164    -6534    -6930    -7272    -7480    -7495    -7275    -6852 
   -6342    -5873    -5549    -5427    -5514    -5767    -6064    -6324 
   -6531    -6625    -6566    -6411    -6257    -6154    -6151    -6295 
   -6540    -6799    -7011    -7092    -6966    -6654    -6257    -5890 
   -5633    -5524    -5543    -5624    -5702    -5734    -5695    -5614 
