Origin Time       2025/06/03 22:18:00
Lat.              41.7
Long.             143.6
Depth. (km)       30
Mag.              5.2
Station Code      TKCH05
Station Lat.      43.1211
Station Long.     143.6181
Station Height(m) -35
Record Time       2025/06/03 22:18:56
Sampling Freq(Hz) 100Hz
Duration Time(s)  120
Dir.              2
Scale Factor      2942(gal)/8224139
Max. Acc. (gal)   0.406
Last Correction   2025/06/03 22:18:57
Memo.             
[...]
  156298   156243   156178   156118   156072   156050   156069   156092 
  156066   156019   156004   156027   156073   156092   156058   156023 
  156019   156042   156066   156101   156158   156184   156149   156105 
  156069   156024   156008   156049   156104   156145   156168   156184 
  156228   156313   156371   156350   156325   156338   156328   156331 
  156386   156435   156470   156524   156540   156504   156487   156492 
  156486   156501   156516   156520   156551   156577   156579   156587 
  156591   156577   156547   156533   156574   156622   156621   156559 
  156451   156361   156317   156292   156259   156209   156153   156135 
  156169   156199   156176   156138   156122   156100   156065   156035 
  156030   156061   156082   156074   156072   156051   156007   156003 
  156028   156055   156096   156126   156165   156246   156320   156378 
  156440   156479   156456   156411   156411   156421   156389   156365 
  156373   156386   156409   156428   156416   156389   156362   156354 
  156361   156348   156344   156334   156320   156358   156385   156347 
  156297   156267   156270   156316   156344   156321   156296   156278 
  156284   156343   156379   156366   156321   156234   156190   156211 
  156195   156176   156205   156239   156250   156236   156226   156205 
  156132   156078   156093   156122   156134   156151   156170   156178 
  156185   156188   156170   156136   156103   156080   156095   156134 
  156149   156163   156195   156220   156263   156317   156343   156334 
  156304   156280   156277   156273   156228   156177   156159   156165 
  156208   156285   156298   156240   156205   156201   156173   156186 
  156285   156357   156377   156431   156493   156513   156529   156547 
  156531   156497   156486   156486   156478   156486   156479   156436 
  156416   156398   156338   156297   156309   156321   156316   156328 
  156348   156313   156232   156170   156134   156091   156055   156077 
  156128   156143   156119   156064   156006   156003   156051   156081 
  156077   156088   156093   156065   156041   156022   156008   156018 
  156046   156093   156150   156181   156188   156188   156181   156184 
  156197   156207   156224   156278   156355   156390   156382   156381 
  156379   156371   156386   156411   156444   156494   156536   156558 
  156562   156550   156528   156479   156412   156369   156311   156231 
  156217   156277   156336   156357   156354   156371   156404   156439 
  156465   156435   156367   156334   156321   156277   156226   156216 
  156227   156224   156242   156270   156270   156266   156286   156331 
  156357   156303   156199   156135   156151   156223   156294   156357 
  156419   156446   156444   156443   156423   156379   156331   156276 
  156255   156289   156346   156439   156555   156594   156528   156431 
  156331   156253   156246   156286   156324   156393   156493   156550 
  156573   156612   156606   156478   156296   156143   156026   155981 
  156043   156143   156238   156313   156324   156285   156230   156172 
  156128   156116   156097   156042   156027   156124   156250   156317 
  156347   156311   156174   156024   155896   155800   155830   155973 
  156105   156200   156262   156254   156193   156127   156091   156116 
  156188   156293   156451   156628   156740   156725   156621   156474 
  156294   156150   156100   156124   156207   156324   156413   156439 
  156443   156443   156421   156398   156394   156401   156425   156469 
  156540   156633   156660   156585   156502   156436   156379   156408 
  156490   156544   156573   156548   156460   156362   156259   156143 
  156065   156061   156134   156240   156293   156270   156203   156131 
  156088   156051   156016   155979   155904   155862   155938   156108 
  156289   156409   156463   156447   156325   156142   155988   155915 
  155957   156089   156227   156332   156400   156363   156212   156087 
  156051   156080   156165   156211   156195   156223   156243   156177 
  156087   156039   156027   156065   156172   156255   156294   156384 
  156523   156675   156784   156783   156730   156720   156753   156795 
  156793   156722   156652   156589   156462   156285   156107   155962 
  155910   155945   156024   156111   156169   156231   156280   156265 
  156285   156348   156339   156278   156255   156269   156278   156244 
  156178   156136   156132   156138   156143   156139   156095   155989 
  155883   155841   155850   155895   155949   155996   156076   156172 
  156290   156463   156604   156632   156606   156562   156487   156385 
  156274   156254   156358   156475   156551   156566   156487   156354 
  156227   156124   156060   156042   156074   156166   156313   156467 
  156562   156560   156448   156274   156111   155968   155857   155822 
  155891   156047   156251   156439   156554   156587   156531   156412 
  156323   156286   156320   156442   156567   156644   156652   156594 
  156535   156475   156375   156277   156207   156147   156085   156015 
  155954   155946   156000   156064   156104   156165   156288   156448 
  156591   156683   156709   156631   156448   156246   156124   156118 
  156207   156358   156533   156660   156664   156583   156508   156456 
  156421   156389   156324   156239   156163   156095   156055   156064 
  156103   156146   156172   156189   156213   156249   156311   156389 
  156435   156433   156405   156338   156262   156224   156227   156263 
  156289   156273   156238   156215   156223   156282   156385   156431 
  156377   156289   156220   156180   156127   156061   156026   155996 
  155933   155868   155842   155835   155833   155846   155879   155943 
  156001   156022   156066   156159   156246   156297   156301   156267 
  156271   156324   156359   156385   156409   156366   156226   156024 
  155823   155709   155704   155746   155802   155848   155868   155968 
  156151   156282   156369   156455   156510   156578   156666   156690 
  156643   156571   156527   156521   156512   156485   156477   156463 
  156411   156357   156317   156253   156165   156088   156065   156153 
  156325   156506   156647   156702   156662   156555   156402   156278 
  156208   156116   156004   155939   155950   156001   156047   156049 
  155988   155906   155888   155985   156143   156286   156411   156502 
  156524   156512   156509   156510   156539   156621   156682   156610 
  156432   156246   156115   156097   156189   156304   156382   156385 
  156335   156290   156230   156155   156139   156193   156265   156338 
  156440   156590   156725   156766   156737   156687   156617   156541 
  156442   156330   156258   156236   156262   156324   156408   156513 
  156606   156671   156743   156798   156774   156655   156478   156292 
  156150   156078   156051   156041   156045   156061   156112   156186 
  156216   156196   156186   156212   156236   156231   156203   156158 
  156099   156035   155997   156022   156105   156231   156392   156532 
  156556   156497   156446   156412   156379   156339   156286   156219 
  156146   156095   156080   156030   155873   155669   155548   155567 
  155696   155895   156130   156340   156496   156605   156659   156666 
  156637   156590   156547   156469   156384   156390   156425   156393 
  156315   156204   156046   155889   155785   155702   155637   155619 
  155661   155804   155979   156049   156082   156184   156281   156340 
  156409   156478   156516   156514   156458   156351   156282   156289 
  156292   156257   156185   156085   156050   156127   156280   156479 
  156658   156786   156883   156909   156836   156741   156674   156639 
  156656   156721   156755   156667   156456   156235   156100   156065 
  156108   156154   156188   156271   156359   156381   156363   156355 
  156406   156487   156531   156571   156659   156782   156901   156944 
  156884   156748   156506   156193   155927   155792   155830   156014 
  156242   156462   156608   156574   156384   156159   155972   155852 
  155823   155854   155912   156014   156143   156259   156334   156307 
  156176   156033   155879   155677   155532   155537   155663   155883 
  156207   156535   156745   156861   156917   156861   156737   156660 
  156637   156625   156600   156536   156408   156216   156015   155838 
  155684   155567   155544   155675   155927   156197   156397   156475 
  156423   156284   156130   156006   155958   156054   156286   156547 
  156739   156865   156926   156879   156721   156492   156243   156047 
  155949   155950   156019   156124   156223   156244   156207   156195 
  156213   156257   156351   156478   156567   156543   156398   156216 
  156047   155915   155883   155961   156077   156154   156157   156099 
  156022   155965   155929   155918   155960   156054   156181   156350 
  156535   156682   156766   156737   156563   156325   156136   156037 
  156065   156254   156496   156660   156745   156762   156690   156543 
  156369   156223   156149   156127   156122   156124   156120   156124 
  156132   156087   156023   155976   155903   155848   155898   156050 
  156239   156388   156444   156401   156334   156325   156351   156385 
  156447   156531   156610   156662   156667   156622   156510   156315 
  156073   155831   155609   155420   155331   155399   155607   155861 
  156092   156308   156497   156605   156614   156527   156373   156244 
  156228   156293   156361   156456   156613   156771   156838   156768 
  156610   156440   156270   156135   156101   156147   156204   156259 
  156343   156459   156604   156763   156891   156949   156919   156818 
  156729   156686   156618   156489   156358   156253   156153   156065 
  156012   155997   156015   156033   156033   156055   156114   156174 
  156199   156157   156081   156042   156068   156172   156374   156639 
  156874   157029   157083   157023   156880   156706   156478   156154 
  155811   155560   155447   155452   155490   155522   155594   155702 
  155808   155906   155984   156061   156165   156280   156389   156490 
  156579   156676   156784   156805   156668   156466   156331   156284 
  156274   156294   156311   156278   156231   156212   156231   156297 
  156402   156527   156652   156791   156928   156991   156994   157010 
  157015   156968   156886   156794   156697   156605   156509   156388 
  156274   156207   156159   156119   156087   156046   155989   155926 
  155849   155753   155671   155632   155623   155634   155696   155821 
  155956   156096   156255   156365   156435   156537   156636   156687 
  156682   156606   156493   156375   156281   156209   156128   156030 
  155956   155943   155997   156096   156188   156213   156205   156199 
  156136   156000   155881   155823   155802   155829   155900   155933 
  155937   156001   156107   156201   156274   156265   156169   156061 
  155995   155976   155952   155889   155814   155722   155626   155584 
  155606   155656   155742   155899   156108   156340   156589   156775 
  156870   156956   157021   156991   156899   156787   156701   156671 
  156652   156628   156595   156562   156577   156618   156625   156616 
  156587   156523   156438   156339   156281   156273   156258   156282 
  156367   156466   156539   156595   156689   156772   156801   156832 
  156825   156720   156581   156429   156238   156055   155907   155806 
  155769   155768   155791   155819   155821   155825   155835   155839 
  155858   155879   155879   155880   155892   155922   155980   156088 
  156236   156369   156482   156585   156649   156668   156641   156559 
  156405   156228   156111   156055   156033   156010   155968   155929 
  155877   155821   155780   155769   155830   155934   156023   156134 
  156274   156373   156419   156504   156668   156847   156979   157084 
  157168   157212   157227   157198   157106   156984   156860   156748 
  156682   156629   156536   156425   156321   156213   156107   155993 
  155883   155842   155861   155862   155871   155935   155999   156010 
  156014   156053   156100   156104   156038   155956   155864   155748 
  155683   155696   155707   155703   155715   155719   155729   155784 
  155864   155962   156097   156230   156344   156436   156486   156519 
  156570   156621   156610   156506   156393   156327   156288   156270 
  156266   156263   156278   156303   156344   156444   156594   156724 
  156791   156791   156729   156655   156651   156695   156718   156732 
  156745   156705   156621   156578   156577   156567   156583   156676 
  156811   156915   156937   156879   156762   156587   156423   156330 
  156278   156255   156274   156286   156271   156280   156317   156361 
  156390   156386   156367   156324   156226   156111   156034   156016 
  156055   156097   156123   156159   156203   156228   156208   156159 
  156122   156085   156033   156011   156037   156058   156065   156089 
  156138   156192   156220   156186   156097   156022   155996   156001 
  156051   156107   156124   156158   156186   156145   156099   156100 
  156045   155939   155919   155942   155927   155973   156120   156298 
  156465   156564   156570   156529   156501   156479   156443   156386 
  156290   156190   156145   156128   156118   156122   156097   156042 
  155996   155976   156001   156092   156189   156254   156331   156397 
  156367   156257   156124   155968   155795   155668   155621   155665 
  155798   155912   155976   156050   156104   156088   156073   156130 
  156249   156424   156631   156820   157002   157172   157280   157346 
  157401   157415   157347   157216   157110   157040   156940   156838 
  156795   156790   156779   156749   156725   156721   156721   156721 
  156708   156676   156654   156649   156643   156600   156529   156460 
  156371   156259   156154   156050   155922   155785   155665   155557 
  155453   155368   155309   155282   155306   155356   155389   155426 
  155529   155657   155769   155899   156000   156031   156031   156019 
  156018   156045   156055   156026   155980   155945   155881   155790 
  155731   155719   155753   155804   155829   155849   155872   155862 
  155864   155923   156015   156111   156211   156338   156519   156710 
  156851   156926   156973   157030   157071   157067   157059   157036 
  156965   156895   156836   156753   156679   156648   156631   156594 
  156523   156400   156257   156153   156089   156031   155992   155991 
  155984   155942   155884   155835   155788   155737   155730   155815 
  155954   156104   156280   156469   156628   156747   156795   156760 
  156693   156624   156571   156528   156475   156429   156412   156402 
  156377   156315   156232   156178   156165   156176   156180   156174 
  156185   156174   156109   156051   156033   156022   156033   156082 
  156153   156211   156240   156274   156336   156401   156421   156409 
  156393   156358   156323   156307   156298   156344   156420   156455 
  156456   156432   156386   156307   156169   156049   156003   155980 
  155965   155983   156015   156082   156168   156204   156231   156334 
  156501   156659   156744   156783   156833   156878   156906   156932 
  156913   156833   156716   156595   156527   156521   156537   156541 
  156529   156525   156523   156494   156479   156508   156537   156559 
  156598   156625   156604   156579   156583   156608   156641   156624 
  156566   156537   156513   156492   156482   156470   156482   156524 
  156578   156625   156616   156536   156417   156296   156186   156057 
  155947   155925   155923   155875   155818   155780   155746   155733 
  155765   155811   155842   155872   155881   155856   155818   155784 
  155750   155715   155700   155703   155702   155711   155730   155754 
  155771   155745   155711   155704   155713   155745   155803   155860 
  155892   155910   155933   155957   155983   156037   156122   156200 
  156249   156315   156423   156537   156621   156666   156694   156726 
  156763   156791   156783   156757   156744   156726   156732   156766 
  156755   156729   156749   156779   156790   156793   156775   156735 
  156717   156729   156686   156573   156467   156400   156339   156276 
  156247   156240   156197   156163   156165   156123   156060   156034 
  156015   156023   156077   156128   156142   156100   156012   155919 
  155848   155812   155781   155756   155775   155821   155871   155925 
  155972   156001   155995   155981   156003   156043   156091   156161 
  156259   156362   156444   156514   156579   156635   156699   156766 
  156789   156768   156721   156644   156547   156459   156378   156294 
  156227   156195   156173   156127   156096   156105   156112   156095 
  156072   156041   156007   156006   156046   156112   156219   156335 
  156402   156442   156459   156438   156420   156415   156382   156340 
  156309   156266   156209   156192   156213   156242   156257   156222 
  156159   156123   156100   156101   156134   156166   156189   156211 
  156223   156217   156234   156267   156254   156234   156251   156230 
  156176   156145   156126   156154   156239   156311   156362   156411 
  156436   156466   156541   156643   156732   156790   156813   156809 
  156809   156841   156870   156870   156891   156922   156898   156816 
  156699   156571   156478   156450   156454   156459   156497   156571 
  156620   156609   156566   156523   156470   156375   156270   156190 
  156126   156064   156008   155962   155910   155827   155726   155628 
  155551   155534   155599   155669   155717   155804   155879   155883 
  155889   155914   155937   155961   155957   155931   155926   155931 
  155929   155914   155889   155883   155896   155893   155876   155857 
  155834   155815   155817   155834   155884   155999   156157   156320 
  156463   156554   156570   156533   156510   156547   156631   156739 
  156853   156937   156988   157029   157030   156976   156906   156836 
  156789   156780   156775   156770   156798   156837   156845   156825 
  156802   156763   156710   156679   156682   156698   156710   156687 
  156597   156465   156346   156261   156213   156192   156177   156173 
  156170   156151   156130   156122   156126   156139   156147   156151 
  156173   156219   156273   156325   156371   156385   156365   156354 
  156362   156371   156390   156427   156458   156466   156474   156496 
  156524   156548   156544   156502   156428   156351   156300   156226 
  156139   156080   156001   155889   155807   155768   155748   155738 
  155733   155742   155765   155790   155834   155889   155942   156003 
  156033   156008   155976   155957   155931   155910   155922   155950 
  155957   155939   155922   155926   155945   155981   156030   156069 
  156080   156073   156099   156170   156240   156317   156392   156429 
  156444   156446   156439   156431   156386   156332   156317   156319 
  156307   156293   156304   156343   156394   156452   156514   156568 
  156609   156635   156628   156616   156629   156622   156585   156575 
  156568   156506   156427   156359   156288   156226   156159   156061 
  155965   155885   155821   155811   155854   155920   156003   156077 
  156131   156186   156216   156192   156177   156207   156242   156261 
  156255   156220   156181   156147   156109   156065   156023   156008 
  156000   155976   155987   156035   156062   156073   156077   156038 
  155983   155985   156010   156039   156143   156315   156481   156622 
