Origin Time       2025/06/03 22:18:00
Lat.              41.7
Long.             143.6
Depth. (km)       30
Mag.              5.2
Station Code      TKCH02
Station Lat.      43.3822
Station Long.     143.8983
Station Height(m) 225
Record Time       2025/06/03 22:19:21
Sampling Freq(Hz) 100Hz
Duration Time(s)  120
Dir.              1
Scale Factor      2942(gal)/8224139
Max. Acc. (gal)   0.195
Last Correction   2025/06/03 22:19:21
Memo.             
[...]
   27569    27596    27627    27645    27635    27600    27558    27530 
   27508    27484    27450    27415    27399    27425    27473    27517 
   27533    27522    27495    27464    27422    27380    27363    27369 
   27378    27378    27379    27375    27361    27334    27284    27213 
   27139    27086    27068    27090    27137    27191    27234    27257 
   27267    27263    27249    27229    27199    27174    27172    27199 
   27252    27302    27317    27305    27303    27322    27342    27344 
   27324    27297    27265    27238    27225    27232    27249    27271 
   27299    27330    27364    27402    27430    27440    27437    27433 
   27444    27467    27487    27510    27531    27533    27518    27491 
   27454    27421    27394    27379    27390    27427    27475    27521 
   27548    27550    27535    27508    27471    27440    27421    27407 
   27399    27386    27360    27328    27295    27278    27276    27271 
   27252    27228    27210    27217    27243    27267    27275    27267 
   27245    27214    27191    27183    27191    27207    27230    27260 
   27279    27275    27261    27255    27259    27257    27234    27198 
   27183    27210    27265    27318    27356    27387    27411    27418 
   27405    27365    27314    27268    27228    27201    27211    27248 
   27279    27294    27298    27299    27298    27294    27291    27297 
   27313    27333    27357    27387    27417    27445    27468    27484 
   27503    27522    27527    27514    27496    27492    27498    27499 
   27495    27481    27460    27445    27429    27400    27371    27361 
   27371    27378    27380    27391    27415    27448    27471    27467 
   27442    27415    27392    27375    27357    27332    27298    27261 
   27220    27171    27120    27071    27039    27027    27035    27049 
   27067    27090    27116    27139    27162    27186    27209    27238 
   27267    27286    27306    27334    27355    27356    27348    27349 
   27364    27386    27413    27448    27487    27510    27519    27525 
   27519    27494    27449    27387    27325    27280    27264    27278 
   27310    27344    27367    27383    27396    27411    27432    27461 
   27498    27537    27562    27558    27523    27487    27477    27487 
   27483    27459    27440    27438    27444    27437    27410    27382 
   27372    27386    27406    27429    27467    27515    27558    27573 
   27553    27521    27494    27471    27448    27441    27450    27453 
   27436    27414    27398    27396    27410    27434    27465    27499 
   27514    27492    27436    27372    27336    27337    27367    27407 
   27440    27456    27460    27449    27427    27405    27382    27356 
   27336    27332    27357    27399    27434    27446    27422    27361 
   27284    27222    27178    27136    27102    27090    27097    27103 
   27090    27064    27039    27020    26998    26977    26962    26960 
   26990    27063    27167    27278    27375    27438    27450    27407 
   27333    27263    27226    27234    27276    27334    27391    27426 
   27426    27392    27345    27290    27217    27141    27090    27070 
   27074    27112    27191    27306    27426    27506    27533    27537 
   27530    27510    27476    27436    27402    27380    27360    27346 
   27337    27334    27340    27349    27361    27369    27376    27386 
   27413    27465    27534    27602    27654    27677    27666    27622 
   27564    27515    27479    27442    27419    27419    27429    27449 
   27477    27487    27464    27433    27402    27368    27341    27325 
   27337    27376    27411    27417    27395    27365    27341    27328 
   27325    27333    27348    27364    27373    27368    27352    27338 
   27337    27334    27329    27326    27324    27310    27291    27263 
   27222    27183    27159    27135    27108    27093    27093    27108 
   27129    27153    27172    27191    27217    27249    27268    27264 
   27245    27222    27195    27180    27190    27213    27234    27255 
   27268    27274    27283    27298    27311    27313    27301    27288 
   27298    27321    27346    27369    27386    27388    27391    27414 
   27453    27496    27541    27583    27614    27634    27653    27679 
   27707    27727    27729    27710    27685    27654    27618    27589 
   27577    27564    27534    27486    27429    27386    27363    27337 
   27303    27282    27271    27263    27265    27291    27342    27398 
   27426    27422    27391    27334    27264    27199    27151    27125 
   27120    27133    27164    27205    27240    27265    27283    27290 
   27279    27267    27268    27283    27318    27353    27372    27384 
   27398    27400    27387    27367    27356    27369    27406    27452 
   27506    27571    27629    27656    27638    27579    27500    27427 
   27367    27325    27315    27329    27352    27387    27419    27433 
   27429    27415    27392    27365    27352    27360    27378    27384 
   27365    27326    27286    27257    27240    27229    27222    27224 
   27243    27283    27338    27396    27442    27463    27449    27410 
   27356    27295    27247    27216    27189    27157    27136    27125 
   27124    27139    27162    27160    27136    27117    27118    27132 
   27141    27128    27102    27085    27071    27063    27059    27055 
   27055    27064    27081    27102    27130    27166    27211    27270 
   27330    27384    27430    27472    27511    27546    27573    27585 
   27584    27589    27611    27638    27665    27687    27687    27669 
   27648    27627    27607    27587    27583    27600    27637    27679 
   27714    27718    27684    27630    27571    27513    27467    27450 
   27457    27463    27449    27426    27410    27402    27410    27426 
   27433    27434    27436    27436    27433    27427    27417    27414 
   27421    27426    27418    27395    27363    27329    27290    27245 
   27199    27145    27089    27058    27058    27072    27095    27120 
   27132    27141    27152    27162    27175    27191    27199    27207 
   27224    27245    27272    27280    27260    27224    27189    27176 
   27193    27218    27244    27286    27344    27407    27465    27502 
   27519    27525    27506    27459    27405    27360    27336    27336 
   27338    27329    27318    27310    27310    27328    27359    27400 
   27456    27514    27554    27571    27572    27565    27562    27565 
   27552    27515    27460    27391    27321    27252    27201    27182 
   27186    27201    27226    27256    27295    27353    27417    27473 
   27510    27525    27534    27546    27550    27544    27538    27537 
   27533    27523    27511    27503    27496    27479    27441    27391 
   27341    27294    27256    27225    27201    27193    27190    27189 
   27199    27217    27228    27229    27222    27210    27195    27184 
   27178    27156    27125    27101    27074    27037    27000    26964 
   26944    26944    26959    26991    27040    27095    27151    27201 
   27243    27279    27318    27360    27398    27423    27429    27414 
   27395    27383    27378    27383    27391    27399    27406    27407 
   27405    27402    27386    27365    27356    27353    27355    27361 
   27357    27336    27307    27284    27272    27268    27270    27271 
   27275    27283    27291    27299    27311    27324    27333    27342 
   27353    27373    27406    27442    27471    27500    27538    27580 
   27616    27648    27677    27700    27715    27724    27729    27733 
   27730    27716    27692    27666    27650    27641    27622    27588 
   27542    27488    27450    27446    27473    27518    27560    27580 
   27579    27564    27540    27508    27467    27423    27392    27376 
   27364    27351    27349    27365    27378    27372    27356    27337 
   27319    27309    27298    27275    27252    27236    27217    27195 
   27172    27147    27130    27128    27143    27172    27209    27240 
   27253    27256    27249    27233    27210    27182    27162    27152 
   27151    27157    27160    27157    27156    27153    27153    27156 
   27160    27168    27184    27198    27195    27178    27152    27126 
   27114    27126    27163    27209    27249    27284    27332    27380 
   27426    27480    27538    27592    27641    27683    27707    27703 
   27669    27615    27556    27507    27483    27476    27476    27480 
   27486    27487    27480    27467    27453    27449    27444    27436 
   27425    27402    27373    27349    27329    27309    27297    27295 
   27297    27288    27267    27236    27211    27207    27224    27248 
   27265    27268    27264    27256    27243    27225    27207    27189 
   27168    27152    27149    27162    27186    27222    27268    27311 
   27345    27371    27394    27422    27454    27479    27492    27506 
   27530    27569    27618    27664    27700    27715    27708    27689 
   27664    27642    27626    27610    27598    27595    27596    27594 
   27588    27591    27595    27595    27595    27596    27596    27585 
   27558    27513    27449    27372    27292    27222    27162    27114 
   27085    27071    27064    27052    27033    27014    26994    26974 
   26966    26968    26967    26955    26943    26946    26975    27027 
   27076    27106    27108    27093    27083    27091    27114    27144 
   27178    27210    27237    27260    27274    27275    27286    27310 
   27344    27383    27415    27433    27448    27454    27448    27429 
   27400    27372    27351    27333    27309    27290    27292    27317 
   27361    27421    27468    27487    27483    27471    27469    27486 
   27511    27541    27564    27576    27577    27564    27534    27490 
   27432    27376    27334    27310    27297    27286    27268    27241 
   27206    27163    27124    27095    27074    27054    27039    27035 
   27043    27062    27090    27124    27162    27198    27234    27276 
   27330    27391    27452    27500    27542    27576    27594    27606 
   27627    27657    27689    27720    27747    27774    27803    27820 
   27815    27788    27761    27743    27738    27750    27765    27758 
   27742    27716    27675    27629    27595    27565    27535    27504 
   27486    27473    27452    27421    27386    27334    27274    27210 
   27145    27089    27058    27052    27058    27064    27078    27097 
   27113    27126    27133    27137    27148    27171    27206    27249 
   27291    27322    27345    27357    27365    27372    27376    27380 
   27378    27363    27340    27313    27297    27294    27297    27295 
   27297    27297    27295    27292    27286    27276    27268    27264 
   27270    27282    27287    27282    27271    27255    27237    27226 
   27220    27222    27233    27245    27260    27282    27313    27348 
   27373    27392    27421    27454    27484    27502    27504    27502 
   27502    27499    27483    27457    27426    27396    27361    27319 
   27278    27241    27210    27190    27182    27186    27201    27211 
   27209    27206    27203    27202    27202    27202    27197    27194 
   27198    27207    27217    27218    27213    27207    27209    27213 
   27221    27240    27274    27314    27357    27396    27426    27448 
   27467    27476    27477    27471    27460    27460    27463    27461 
   27467    27475    27477    27477    27471    27453    27438    27427 
   27423    27430    27437    27434    27427    27423    27414    27395 
   27376    27359    27344    27328    27310    27297    27290    27290 
   27303    27321    27330    27328    27326    27329    27338    27352 
   27376    27407    27436    27467    27500    27523    27533    27535 
   27535    27533    27533    27534    27534    27530    27526    27525 
   27527    27537    27546    27550    27544    27525    27506    27494 
   27481    27468    27456    27446    27437    27422    27407    27398 
   27386    27369    27356    27346    27342    27345    27344    27338 
   27338    27344    27349    27345    27336    27326    27306    27272 
   27240    27211    27195    27199    27211    27213    27209    27216 
   27218    27206    27190    27179    27164    27145    27133    27129 
   27132    27145    27160    27166    27162    27153    27144    27137 
   27128    27117    27106    27090    27074    27063    27051    27035 
   27018    27010    27008    27008    27009    27006    27002    27010 
   27039    27079    27117    27145    27170    27195    27225    27247 
   27249    27248    27260    27276    27297    27328    27368    27411 
   27456    27500    27540    27573    27600    27622    27646    27673 
   27696    27712    27719    27729    27746    27762    27772    27773 
   27766    27758    27756    27764    27787    27820    27849    27866 
   27870    27865    27851    27830    27797    27758    27719    27683 
   27646    27614    27585    27565    27553    27544    27529    27513 
   27499    27480    27459    27444    27430    27419    27414    27409 
   27398    27392    27395    27400    27403    27396    27387    27376 
   27363    27349    27340    27338    27340    27326    27305    27290 
   27286    27291    27307    27326    27349    27376    27409    27437 
   27456    27468    27476    27475    27475    27471    27460    27441 
   27415    27390    27364    27341    27322    27305    27282    27259 
   27234    27210    27191    27180    27174    27166    27157    27145 
   27128    27113    27099    27079    27052    27027    26998    26962 
   26923    26893    26871    26859    26858    26855    26848    26847 
   26840    26824    26812    26809    26816    26832    26846    26854 
   26856    26850    26843    26844    26854    26869    26889    26906 
   26921    26941    26971    27000    27025    27056    27095    27144 
   27193    27238    27280    27319    27356    27388    27421    27457 
   27494    27535    27579    27621    27657    27689    27720    27745 
   27760    27774    27797    27816    27828    27837    27841    27846 
   27850    27850    27851    27861    27870    27877    27881    27868 
   27835    27803    27778    27760    27747    27737    27719    27699 
   27683    27665    27641    27611    27575    27538    27513    27494 
   27472    27454    27449    27452    27457    27463    27457    27436 
   27410    27387    27369    27364    27357    27342    27325    27313 
   27307    27305    27305    27310    27319    27330    27336    27333 
   27332    27336    27342    27345    27342    27332    27311    27288 
   27270    27255    27237    27217    27201    27184    27164    27140 
   27110    27081    27055    27032    27004    26971    26947    26929 
   26913    26908    26910    26916    26931    26946    26959    26985 
   27021    27058    27090    27118    27144    27166    27186    27206 
   27229    27253    27280    27318    27359    27398    27427    27445 
   27464    27495    27530    27569    27615    27660    27707    27750 
   27785    27810    27815    27804    27792    27784    27778    27777 
   27774    27762    27734    27693    27633    27560    27486    27414 
   27352    27305    27270    27238    27211    27187    27168    27156 
   27149    27141    27130    27124    27133    27152    27170    27184 
   27198    27205    27202    27195    27194    27198    27199    27202 
   27207    27201    27190    27189    27190    27191    27202    27210 
   27213    27224    27241    27253    27264    27280    27292    27299 
   27301    27298    27295    27297    27309    27333    27359    27383 
   27407    27426    27445    27469    27492    27517    27538    27561 
   27587    27611    27635    27656    27660    27648    27627    27608 
   27595    27579    27560    27544    27523    27500    27481    27463 
   27438    27414    27391    27368    27352    27342    27336    27330 
   27324    27326    27340    27356    27372    27387    27403    27421 
   27438    27459    27479    27492    27500    27506    27515    27523 
   27534    27549    27556    27553    27546    27529    27498    27456 
   27411    27373    27342    27313    27282    27252    27222    27201 
   27189    27178    27170    27159    27152    27160    27183    27207 
   27230    27255    27279    27305    27333    27349    27356    27364 
   27369    27378    27396    27417    27432    27442    27445    27441 
   27433    27426    27426    27423    27414    27402    27388    27378 
   27373    27365    27356    27340    27309    27278    27257    27234 
   27203    27170    27140    27118    27106    27098    27097    27113 
   27133    27140    27136    27124    27105    27086    27067    27047 
   27029    27017    27013    27009    26998    26983    26968    26959 
   26959    26967    26983    27008    27032    27060    27093    27114 
   27125    27133    27143    27162    27193    27225    27265    27313 
   27356    27399    27440    27475    27511    27552    27588    27621 
   27645    27661    27680    27696    27704    27711    27723    27734 
   27738    27735    27735    27745    27758    27766    27773    27777 
   27773    27762    27757    27749    27733    27706    27679    27658 
   27638    27614    27591    27564    27533    27503    27473    27450 
   27434    27415    27391    27357    27324    27295    27265    27238 
   27216    27194    27171    27151    27141    27148    27162    27179 
   27197    27213    27226    27234    27232    27224    27213    27198 
   27183    27171    27164    27163    27174    27195    27225    27259 
   27292    27326    27359    27391    27423    27454    27484    27521 
   27562    27600    27627    27645    27654    27657    27653    27641 
   27618    27591    27561    27523    27483    27446    27410    27379 
   27348    27317    27295    27280    27260    27238    27218    27199 
   27190    27189    27191    27199    27209    27216    27218    27221 
   27222    27228    27234    27240    27249    27261    27275    27288 
   27305    27315    27322    27322    27328    27338    27346    27355 
   27363    27369    27375    27378    27378    27375    27371    27376 
   27387    27398    27414    27433    27444    27452    27459    27460 
   27450    27436    27421    27411    27399    27380    27361    27346 
   27337    27333    27332    27332    27329    27326    27326    27326 
   27329    27333    27329    27321    27310    27294    27272    27249 
   27225    27203    27189    27176    27170    27164    27159    27157 
   27162    27168    27180    27190    27197    27211    27228    27234 
   27241    27255    27271    27288    27311    27334    27365    27399 
   27427    27448    27461    27465    27463    27459    27452    27438 
   27418    27398    27378    27360    27344    27330    27318    27306 
   27294    27286    27280    27274    27261    27243    27229    27226 
   27230    27232    27229    27229    27236    27241    27252    27270 
   27276    27276    27282    27279    27270    27267    27268    27270 
   27274    27274    27276    27284    27299    27318    27338    27363 
   27384    27402    27422    27446    27467    27484    27494    27492 
   27475    27453    27437    27419    27402    27394    27386    27375 
   27369    27371    27373    27380    27387    27394    27395    27395 
   27400    27413    27429    27448    27471    27494    27510    27518 
   27522    27522    27519    27513    27510    27504    27494    27479 
   27460    27438    27419    27405    27391    27383    27376    27371 
