Origin Time       2025/06/03 22:18:00
Lat.              41.7
Long.             143.6
Depth. (km)       30
Mag.              5.2
Station Code      TKCH04
Station Lat.      43.1739
Station Long.     142.9176
Station Height(m) 220
Record Time       2025/06/03 22:18:53
Sampling Freq(Hz) 100Hz
Duration Time(s)  120
Dir.              5
Scale Factor      7845(gal)/8223790
Max. Acc. (gal)   0.940
Last Correction   2025/06/03 22:18:54
Memo.             
[...]
     243      214      245      322      364      295      135      -25 
    -130     -186     -182      -99       21      103      120      122 
     141      145      130      157      225      249      199      129 
      86       79       98      129      143      130      129      164 
     217      240      190       81      -17      -56      -27       72 
     206      292      290      224      152      129      145      139 
      81       12      -47      -87      -60       48      156      194 
     186      167      116       47       27       71      116      141 
     187      247      264      228      179      126       59        9 
      27       74       89       74       70       74       62       43 
      45       49       18      -18       -4       49       89      116 
     167      225      252      245      234      224      182      108 
      62       60       63       62       99      171      222      229 
     206      167      103       22      -40      -49      -12       49 
     110      156      168      139       93       86      135      186 
     189      148       98       47        6        9       60      120 
     159      171      153      118       93       91      106      133 
     180      230      245      229      225      234      220      168 
     108       74       72       91      130      156      113       16 
     -59      -91      -91      -49       22       90      112       89 
      87      140      207      253      260      216      126       36 
       6       43       98      136      141      109       48        0 
      -5       16       29       41       82      159      243      303 
     321      286      191       72       -4       -2       45       75 
      49       -5      -58      -93      -97      -54       27       95 
     130      178      256      319      342      342      325      272 
     209      194      229      261      260      228      170       83 
      -5      -55      -54      -36      -16       13       44       52 
      48       71      117      153      159      121       49        6 
      45      122      151      113       66       58      101      171 
     216      193      129       81       76      125      198      253 
     292      324      302      202       70      -31      -74      -60 
      -4       52       67       55       81      152      201      167 
      49      -85     -162     -157      -83       33      128      159 
     145      125      116      122      151      210      290      348 
     346      307      259      216      193      195      195      163 
     118      101      114      126      108       63       27       24 
      55       90      101       85       55       44       71      116 
     143      139      122      114       89       35       -1       17 
      72      130      163      144       71        4        4       81 
     179      241      257      245      218      172      126      112 
     124      118       49      -71     -184     -224     -167      -44 
      97      207      236      184      125      105      126      171 
     216      222      172       82       -4      -45      -37       -1 
      41       66       55       36       76      195      332      429 
     464      432      336      203       89       56       98      151 
     186      202      172       93       12      -28      -36      -33 
       4       87      175      232      241      193       93      -10 
     -49       -5       64      102       99       66       22       -2 
       1       40       94      140      178      190      168      156 
     182      205      194      155      109       89      105      132 
     137      114       89       82       99      133      168      178 
     153      120       93       66       47       48       70      125 
     205      267      284      271      240      203      186      205 
     230      217      153       78       12      -49      -94     -101 
     -91      -94      -93      -58       -4       35       56       78 
     112      148      168      172      163      139      114      112 
     130      163      202      224      209      184      189      213 
     221      202      159       90       21        1       25       43 
      22      -18      -51      -58      -37        2       47       83 
      99       81       43       29       67      139      218      290 
     324      295      236      197      184      172      149      120 
      94      101      137      163      137       67       -2      -24 
      14       90      149      156      114       54        1      -17 
      10       81      163      225      261      261      211      129 
      72       76      121      157      151      103       52       35 
      67      132      180      191      184      186      194      205 
     218      213      178      139      114       91       54        5 
     -41      -68      -55        2       86      151      159      116 
      51       -1      -17       16       70      101       91       59 
      37       43       68      108      137      145      137      124 
     120      129      144      170      195      194      155       93 
      39       16       33       89      153      187      178      153 
     143      156      197      232      217      163      120      101 
      94       94      106      124      139      149      149      133 
     113      102      105      114      116       99       87       97 
     113      108       79       44       25       32       63      110 
     145      141      106       75       71       63       27      -12 
     -22       -1       55      136      199      217      211      221 
     249      272      270      244      209      166      117       85 
      70       58       63      117      211      307      363      360 
     330      301      270      216      113      -29     -166     -251 
    -263     -216     -148      -86      -36      -18      -32      -41 
     -18       37      117      206      291      346      342      294 
     234      183      137       90       48       27       27       52 
     106      164      201      217      221      213      191      174 
     170      155      108       48       20       32       63       78 
      66       51       44       20      -20      -60     -108     -144 
    -117      -12      108      176      213      255      284      279 
     267      264      247      207      172      163      151      103 
      62       75      136      207      271      301      272      210 
     163      139      117       91       75       72       67       44 
       5      -37      -58      -43      -17       -5        6       48 
     101      135      157      182      179      144       99       51 
     -10      -68      -83      -48       18       83      128      171 
     210      244      286      321      318      276      207      140 
      95       91      137      197      221      201      156      108 
      81       78       82       76       68       72       76       67 
      59       52       45       56       91      128      145      140 
     122      128      178      236      255      237      182       89 
      16       -5       -8      -13      -18      -14      -16      -22 
      -9       48      124      174      190      199      230      265 
     274      276      282      260      213      172      148      130 
     130      143      136      109      105      144      184      175 
     108       12      -60      -70      -25       18       28        2 
     -51     -103     -117     -101      -90      -74      -24       43 
     105      145      149      135      126      116      106      121 
     167      221      259      276      276      257      243      256 
     288      325      348      325      252      171      108       62 
      29       -5      -56     -117     -162     -162     -117      -51 
      -4       -1      -20      -13       24       58       59       36 
      22       52      126      217      282      303      290      268 
     261      263      265      282      311      332      336      334 
     334      334      321      278      222      176      143      130 
     132      118       68      -12     -120     -211     -234     -195 
    -136      -52       62      157      201      210      207      199 
     179      153      139      139      128       82        5      -78 
    -139     -152     -129     -105     -109     -121      -94      -14 
      75      143      191      243      309      360      353      291 
     211      166      180      225      247      217      149       79 
      29       -1      -12       10       68      145      197      205 
     180      144      114       94       81       83      108      143 
     178      213      226      197      160      153      168      174 
     168      159      163      189      214      207      168      106 
      28      -49      -99     -108      -98      -99      -99      -71 
     -13       52      112      174      228      247      222      167 
      82      -18      -86      -79      -31       17       58       83 
      64       14      -14        5       48       87      124      162 
     189      201      211      233      257      287      333      349 
     290      197      147      137      130      122      117      117 
     125      143      184      229      234      206      194      213 
     240      247      209      125       36      -13      -18        2 
      31       45       55       66       62       35        2        5 
      62      139      209      270      306      303      260      183 
      95        5      -91     -168     -190     -166     -130      -93 
     -52      -22      -12        4       49      110      152      164 
     176      191      184      145       94       48       10        0 
      49      145      237      291      299      282      267      244 
     194      144      135      155      166      143      102       63 
      29       22       52       98      137      164      189      206 
     226      268      307      303      256      195      132       82 
      51       31       22       20        4      -21      -32      -20 
       2       28       52       71      102      167      244      311 
     352      355      310      218      109       14      -54      -90 
     -99      -91      -59        0       66      128      195      260 
     274      232      176      145      157      197      237      263 
     260      221      164      110       63       18        4       32 
      58       49       40       56       79       93      112      139 
     153      149      135      112       75       20      -39      -64 
     -56      -49      -58      -51       -4       67      139      207 
     241      197       83      -20      -56      -35        9       79 
     168      218      214      197      193      194      211      238 
     244      211      167      167      221      270      261      206 
     126       39      -24      -28       17       60       85      113 
     152      170      149      112       78       55       47       70 
     126      183      205      198      190      197      228      284 
     338      346      298      225      156      108      109      156 
     201      198      143       62      -29     -125     -190     -195 
    -171     -153     -122      -59       24      101      162      194 
     199      172      110       32      -41      -94     -105      -49 
      63      164      210      211      189      148      101       45 
       6        0        9       24       36       21      -14      -40 
     -35       16      102      184      221      214      217      260 
     315      349      353      318      236      145      108      129 
     172      217      252      255      216      159      121      118 
     124      129      143      143      108       70       63       70 
      68       45       17        1       -8      -13       -6        0 
     -12      -18       18       83      129      155      168      162 
     163      194      225      232      232      233      216      180 
     153      135      109       81       72       68       29      -37 
     -90     -117     -133     -136     -122     -122     -149     -168 
    -132      -54       28      102      175      232      248      240 
     247      282      317      333      340      330      294      260 
     251      241      224      229      255      261      233      197 
     168      135       87       29      -28      -62      -41       47 
     191      359      521      631      660      637      606      545 
     433      286      122      -59     -256     -440     -584     -679 
    -711     -673     -577     -423     -224      -14      156      267 
     301      263      201      163      159      184      237      280 
     256      157       51       14       71      209      384      525 
     577      560      503      417      315      216      125       37 
     -55     -122     -136     -122     -113      -97      -79      -82 
     -95     -102      -99      -85      -41       35      112      126 
      60      -28      -75      -55       47      225      419      573 
     666      708      716      700      664      608      548      492 
     426      328      190       14     -180     -388     -592     -745 
    -835     -874     -853     -765     -650     -526     -387     -251 
    -137      -41       54      140      201      249      340      510 
     737      946     1074     1084      966      777      599      469 
     382      321      287      271      252      203      116      -24 
    -205     -376     -507     -580     -564     -448     -264      -44 
     187      384      513      588      621      591      510      425 
     356      271      164       70        0      -71     -121      -76 
      81      279      456      595      689      726      706      643 
     526      329       94     -113     -276     -402     -491     -553 
    -572     -519     -406     -276     -176     -125     -135     -216 
    -338     -445     -500     -487     -390     -202       48      295 
     479      589      658      712      753      772      761      729 
     684      618      515      378      209       20     -153     -294 
    -395     -453     -441     -325     -124       85      225      261 
     207      117       51       52       94      108       76       54 
     103      233      379      459      437      337      211      128 
     110      110      120      178      276      346      317      168 
     -52     -272     -429     -484     -452     -368     -275     -218 
    -217     -253     -283     -272     -203      -59      145      364 
     572      753      876      911      826      630      378      132 
     -66     -182     -182      -78       68      199      283      278 
     186       85       51       62       58       40       36        6 
     -93     -224     -344     -442     -491     -468     -399     -301 
    -149       55      275      468      626      742      818      862 
     876      842      729      525      263        4     -207     -353 
    -417     -388     -286     -133       39      201      333      429 
     484      480      383      201        2     -140     -178     -113 
     -13       40       31        0       18      109      224      286 
     264      182       72      -16      -48      -36      -10       35 
     105      176      209      187       95      -59     -211     -288 
    -270     -172      -21      145      260      283      234      156 
      94       95      193      378      591      749      831      877 
     886      812      648      434      206      -17     -195     -302 
    -353     -371     -360     -298     -190      -78       20      105 
     155      159      148      145      120       39      -85     -218 
    -313     -326     -255     -133       20      203      399      581 
     735      819      780      622      410      209       64      -12 
     -13       37       54      -12     -125     -245     -341     -379 
    -368     -361     -395     -417     -352     -205      -28      140 
     276      349      357      332      297      261      224      175 
     102        1      -93     -125      -72       40      147      198 
     203      217      290      413      529      610      650      625 
     530      384      198       10     -114     -156     -132      -82 
     -37        5       68      147      191      162       68      -35 
     -83      -36       90      257      427      548      584      552 
     475      351      210      117       76       52       29       -6 
     -55      -66        2      128      236      264      209       91 
     -79     -280     -452     -545     -544     -477     -388     -279 
    -141       14      160      278      375      456      511      523 
     472      364      256      203      210      217      144      -29 
    -241     -407     -488     -465     -337     -139       91      337 
     576      757      830      796      693      560      440      351 
     268      168       28     -157     -334     -425     -403     -286 
    -118       45      172      253      306      345      360      321 
     222       89      -40     -155     -252     -317     -322     -255 
    -124       60      301      537      683      745      761      707 
     558      369      205       89       24       12       40       66 
      54       18      -12      -36      -49      -44       -6       52 
      99      117       94       18      -83     -166     -207     -206 
    -155      -63       32       90      116      143      186      243 
     278      256      195      167      226      376      560      691 
     712      625      461      252       36     -147     -279     -357 
    -386     -383     -361     -306     -201      -49      109      221 
     271      292      303      301      286      257      213      174 
     184      249      311      329      303      216       76      -35 
     -68      -66      -75      -91      -99     -101      -94      -52 
      32      152      283      382      411      368      265      133 
      32       -6      -22      -55      -83      -60        4       64 
     103      128      128      133      197      295      336      274 
     175      102       54       13      -16      -51     -106     -159 
    -180     -182     -178     -164     -124      -63       -6       55 
     162      303      441      552      610      588      487      348 
     218      109       27      -13        0       45       72       59 
      20      -41     -113     -133      -49      128      326      427 
     364      171      -71     -286     -402     -395     -326     -265 
    -210     -114       24      175      329      467      545      550 
     533      548      600      661      714      734      657      448 
     176      -55     -202     -272     -261     -172      -60       16 
      71      130      164      148      126      114       75        1 
     -56      -59      -45      -70     -122     -168     -197     -199 
    -141      -27       98      214      356      542      738      893 
