Origin Time       2025/06/03 22:18:00
Lat.              41.7
Long.             143.6
Depth. (km)       30
Mag.              5.2
Station Code      TKCH10
Station Lat.      43.3337
Station Long.     142.9448
Station Height(m) 265
Record Time       2025/06/03 22:19:19
Sampling Freq(Hz) 100Hz
Duration Time(s)  120
Dir.              1
Scale Factor      2942(gal)/8224139
Max. Acc. (gal)   0.138
Last Correction   2025/06/03 22:19:20
Memo.             
[...]
   48362    48388    48406    48413    48409    48408    48420    48436 
   48450    48455    48452    48455    48477    48509    48535    48550 
   48556    48560    48570    48583    48585    48578    48571    48556 
   48544    48544    48550    48548    48541    48532    48516    48497 
   48483    48477    48471    48465    48452    48432    48412    48400 
   48396    48404    48423    48435    48444    48452    48458    48465 
   48473    48477    48479    48485    48490    48487    48482    48474 
   48460    48439    48416    48401    48396    48406    48433    48459 
   48478    48497    48517    48528    48524    48510    48496    48477 
   48459    48452    48454    48463    48473    48477    48467    48444 
   48419    48401    48386    48366    48339    48316    48311    48327 
   48351    48373    48392    48408    48419    48419    48408    48390 
   48366    48346    48343    48352    48357    48362    48370    48378 
   48384    48382    48374    48357    48324    48294    48285    48292 
   48311    48342    48378    48409    48429    48428    48411    48389 
   48386    48415    48456    48493    48517    48523    48508    48479 
   48447    48429    48433    48458    48490    48512    48516    48514 
   48516    48519    48517    48506    48489    48475    48470    48470 
   48477    48489    48498    48504    48513    48521    48527    48529 
   48521    48501    48475    48452    48440    48444    48456    48473 
   48494    48510    48514    48513    48502    48479    48462    48456 
   48456    48466    48481    48486    48477    48455    48427    48390 
   48352    48325    48313    48315    48324    48334    48335    48340 
   48350    48359    48375    48402    48428    48451    48481    48509 
   48536    48571    48605    48631    48651    48664    48679    48701 
   48716    48722    48724    48714    48685    48639    48583    48525 
   48470    48427    48397    48371    48352    48343    48338    48338 
   48335    48324    48317    48315    48319    48323    48328    48344 
   48378    48415    48451    48483    48501    48504    48498    48492 
   48486    48475    48454    48429    48402    48373    48348    48330 
   48309    48282    48247    48203    48151    48112    48089    48076 
   48081    48118    48170    48232    48292    48338    48366    48384 
   48402    48435    48475    48520    48566    48602    48621    48621 
   48602    48568    48540    48528    48532    48550    48577    48597 
   48605    48602    48571    48513    48446    48393    48374    48392 
   48432    48477    48506    48521    48525    48527    48517    48483 
   48439    48398    48371    48369    48386    48423    48474    48523 
   48551    48559    48552    48539    48532    48540    48559    48577 
   48587    48593    48583    48558    48527    48504    48493    48494 
   48508    48523    48537    48555    48559    48535    48489    48443 
   48401    48363    48335    48316    48303    48298    48311    48328 
   48328    48308    48274    48231    48199    48189    48193    48204 
   48226    48253    48292    48357    48440    48524    48593    48640 
   48667    48681    48676    48652    48614    48570    48527    48505 
   48512    48544    48593    48629    48633    48614    48590    48571 
   48551    48523    48492    48465    48450    48458    48487    48525 
   48562    48591    48605    48598    48566    48509    48447    48392 
   48348    48324    48323    48338    48354    48363    48369    48373 
   48374    48366    48335    48290    48253    48222    48203    48208 
   48247    48312    48382    48444    48482    48475    48432    48381 
   48344    48320    48313    48336    48386    48458    48532    48591 
   48625    48632    48602    48536    48448    48363    48312    48313 
   48365    48431    48483    48513    48516    48497    48469    48446 
   48443    48469    48502    48521    48532    48544    48554    48559 
   48559    48544    48517    48493    48477    48459    48435    48406 
   48373    48346    48332    48316    48282    48234    48190    48177 
   48200    48254    48317    48367    48398    48416    48409    48378 
   48339    48301    48277    48288    48327    48377    48431    48485 
   48520    48531    48524    48501    48470    48451    48454    48479 
   48524    48567    48587    48587    48573    48540    48502    48475 
   48456    48438    48413    48388    48366    48362    48378    48402 
   48427    48435    48424    48411    48412    48417    48416    48413 
   48420    48439    48467    48500    48533    48559    48566    48546 
   48500    48447    48408    48394    48402    48425    48459    48500 
   48544    48587    48621    48637    48643    48643    48640    48644 
   48649    48651    48654    48655    48660    48670    48660    48625 
   48573    48509    48444    48388    48344    48321    48312    48315 
   48328    48336    48325    48289    48232    48174    48127    48100 
   48100    48115    48136    48166    48201    48235    48266    48288 
   48298    48315    48334    48342    48330    48303    48267    48238 
   48228    48246    48281    48331    48385    48429    48459    48460 
   48431    48388    48347    48324    48331    48370    48429    48486 
   48535    48579    48609    48621    48614    48597    48571    48540 
   48508    48487    48486    48510    48552    48602    48655    48703 
   48740    48753    48739    48699    48643    48589    48558    48559 
   48585    48617    48644    48655    48641    48604    48571    48559 
   48556    48558    48556    48539    48514    48493    48471    48443 
   48401    48351    48311    48289    48288    48304    48328    48344 
   48342    48320    48296    48284    48290    48324    48379    48444 
   48502    48533    48537    48529    48508    48481    48465    48460 
   48459    48462    48475    48498    48519    48529    48525    48509 
   48489    48465    48435    48411    48389    48363    48335    48307 
   48274    48246    48231    48226    48226    48234    48253    48273 
   48276    48263    48244    48224    48217    48235    48270    48323 
   48384    48438    48483    48519    48540    48532    48493    48448 
   48419    48408    48415    48433    48456    48482    48512    48525 
   48512    48473    48413    48348    48290    48246    48223    48217 
   48226    48254    48288    48317    48340    48357    48379    48402 
   48419    48436    48456    48475    48504    48532    48556    48585 
   48610    48624    48624    48629    48654    48695    48748    48786 
   48784    48741    48668    48581    48501    48444    48408    48388 
   48388    48409    48439    48475    48508    48527    48537    48541 
   48535    48531    48547    48587    48639    48679    48703    48712 
   48713    48717    48728    48732    48720    48697    48672    48647 
   48621    48582    48523    48458    48400    48347    48303    48265 
   48235    48216    48207    48212    48234    48254    48270    48289 
   48308    48323    48332    48335    48338    48342    48352    48374 
   48405    48444    48485    48508    48508    48490    48455    48411 
   48373    48354    48352    48362    48374    48388    48400    48411 
   48424    48435    48439    48440    48436    48424    48405    48384 
   48363    48339    48315    48309    48324    48343    48358    48367 
   48367    48365    48352    48336    48325    48328    48347    48384 
   48433    48489    48540    48579    48597    48590    48554    48498 
   48452    48433    48446    48474    48509    48552    48598    48629 
   48637    48632    48610    48563    48496    48425    48367    48335 
   48338    48366    48408    48451    48483    48500    48502    48489 
   48460    48432    48416    48411    48401    48390    48394    48424 
   48470    48519    48551    48550    48520    48474    48415    48363 
   48335    48323    48321    48324    48328    48328    48319    48289 
   48254    48227    48208    48204    48215    48231    48244    48262 
   48276    48285    48296    48309    48324    48344    48371    48402 
   48429    48462    48500    48533    48559    48581    48594    48605 
   48628    48670    48720    48766    48793    48791    48762    48714 
   48664    48620    48593    48585    48585    48583    48579    48563 
   48533    48490    48433    48377    48336    48308    48289    48278 
   48265    48262    48282    48312    48350    48381    48385    48381 
   48388    48412    48459    48516    48566    48606    48636    48664 
   48697    48730    48763    48793    48809    48813    48805    48790 
   48767    48732    48690    48643    48589    48541    48505    48473 
   48442    48404    48358    48313    48274    48236    48204    48185 
   48185    48203    48235    48276    48316    48346    48352    48335 
   48304    48269    48239    48230    48239    48265    48305    48346 
   48382    48419    48448    48462    48455    48428    48389    48352 
   48330    48324    48328    48335    48340    48348    48363    48371 
   48358    48320    48276    48243    48230    48232    48250    48280 
   48324    48377    48424    48454    48462    48455    48447    48443 
   48431    48411    48398    48390    48382    48381    48382    48389 
   48396    48396    48389    48386    48389    48401    48412    48409 
   48398    48386    48384    48390    48404    48429    48465    48506 
   48547    48582    48604    48616    48616    48606    48593    48585 
   48589    48606    48631    48660    48689    48713    48733    48755 
   48775    48783    48778    48766    48748    48729    48709    48678 
   48635    48593    48560    48537    48516    48487    48451    48408 
   48351    48289    48235    48197    48177    48169    48173    48188 
   48213    48243    48262    48262    48250    48242    48240    48254 
   48282    48317    48355    48396    48424    48429    48415    48392 
   48373    48367    48377    48389    48400    48409    48415    48424 
   48440    48456    48474    48490    48493    48486    48477    48465 
   48450    48439    48432    48429    48435    48444    48451    48458 
   48463    48462    48460    48465    48473    48474    48473    48469 
   48462    48458    48451    48433    48409    48393    48385    48393 
   48416    48438    48448    48460    48481    48504    48520    48524 
   48510    48487    48470    48458    48448    48439    48427    48417 
   48419    48433    48458    48486    48512    48525    48524    48509 
   48482    48462    48458    48466    48487    48514    48535    48555 
   48575    48578    48559    48528    48490    48451    48428    48417 
   48404    48392    48385    48381    48371    48343    48297    48259 
   48244    48250    48271    48305    48346    48389    48431    48465 
   48482    48478    48458    48432    48406    48382    48359    48343 
   48336    48335    48338    48336    48335    48332    48332    48330 
   48323    48319    48316    48311    48308    48311    48324    48348 
   48381    48415    48447    48475    48500    48524    48543    48547 
   48539    48532    48531    48539    48559    48587    48620    48655 
   48685    48699    48693    48668    48639    48613    48595    48582 
   48571    48568    48575    48590    48605    48614    48617    48610 
   48593    48564    48531    48500    48478    48463    48460    48463 
   48458    48438    48401    48350    48296    48243    48196    48168 
   48154    48155    48177    48208    48240    48269    48290    48307 
   48320    48335    48352    48371    48398    48436    48471    48493 
   48498    48493    48487    48490    48493    48492    48483    48467 
   48446    48420    48394    48381    48377    48378    48381    48382 
   48392    48413    48438    48459    48471    48475    48474    48470 
   48470    48478    48482    48482    48489    48505    48516    48524 
   48532    48543    48566    48585    48583    48571    48554    48529 
   48509    48502    48505    48504    48500    48501    48509    48512 
   48508    48497    48479    48462    48448    48444    48452    48465 
   48475    48482    48483    48469    48442    48411    48385    48375 
   48379    48390    48402    48417    48431    48436    48431    48417 
   48397    48371    48343    48315    48285    48261    48254    48262 
   48271    48276    48276    48276    48281    48292    48307    48323 
   48332    48339    48351    48366    48385    48412    48446    48477 
   48500    48517    48528    48533    48540    48551    48560    48566 
   48575    48595    48621    48651    48682    48712    48736    48749 
   48757    48762    48756    48744    48717    48683    48659    48640 
   48625    48610    48579    48540    48496    48450    48408    48373 
   48334    48294    48269    48254    48244    48246    48254    48263 
   48278    48300    48319    48327    48327    48316    48297    48278 
   48266    48259    48257    48262    48271    48284    48293    48296 
   48292    48274    48246    48219    48204    48199    48201    48217 
   48247    48286    48327    48358    48373    48373    48370    48378 
   48392    48406    48427    48442    48454    48466    48473    48474 
   48479    48493    48521    48562    48601    48631    48647    48655 
   48655    48644    48624    48595    48564    48541    48529    48520 
   48505    48483    48463    48450    48436    48415    48394    48379 
   48369    48367    48378    48393    48409    48428    48450    48478 
   48512    48548    48586    48624    48659    48685    48703    48725 
   48751    48772    48793    48811    48824    48828    48820    48798 
   48764    48721    48667    48606    48540    48471    48408    48354 
   48301    48257    48217    48184    48161    48145    48128    48116 
   48105    48092    48088    48093    48109    48134    48165    48207 
   48253    48293    48338    48392    48447    48493    48529    48555 
   48563    48562    48556    48548    48533    48512    48490    48474 
   48466    48462    48459    48455    48455    48463    48473    48477 
   48477    48470    48463    48462    48463    48460    48455    48447 
   48440    48436    48439    48447    48459    48470    48478    48479 
   48475    48469    48462    48450    48425    48397    48369    48344 
   48327    48317    48316    48320    48328    48339    48355    48369 
   48378    48384    48385    48382    48379    48377    48382    48389 
   48396    48402    48409    48419    48424    48423    48424    48420 
   48409    48406    48413    48428    48448    48469    48490    48517 
   48547    48577    48594    48594    48582    48573    48571    48573 
   48562    48536    48504    48471    48440    48416    48400    48382 
   48363    48340    48319    48307    48296    48285    48270    48246 
   48217    48199    48184    48174    48174    48184    48200    48224 
   48247    48271    48297    48332    48374    48409    48433    48456 
   48479    48504    48529    48554    48574    48591    48609    48631 
   48655    48676    48690    48694    48691    48683    48671    48651 
   48625    48597    48570    48551    48543    48535    48523    48510 
   48489    48456    48427    48398    48378    48374    48378    48384 
   48400    48427    48451    48467    48475    48481    48489    48501 
   48513    48525    48541    48562    48577    48582    48583    48579 
   48570    48566    48568    48573    48568    48555    48537    48514 
   48490    48460    48427    48393    48361    48336    48325    48330 
   48342    48357    48367    48374    48378    48378    48378    48386 
   48400    48416    48435    48451    48459    48463    48466    48465 
   48460    48451    48429    48405    48392    48388    48386    48390 
   48393    48384    48361    48340    48321    48311    48307    48308 
   48308    48305    48296    48282    48266    48254    48247    48249 
   48259    48276    48293    48312    48331    48354    48370    48382 
   48393    48398    48398    48402    48408    48411    48406    48397 
   48390    48388    48389    48392    48396    48401    48406    48409 
   48409    48419    48433    48448    48465    48475    48482    48493 
   48508    48519    48525    48536    48548    48559    48573    48585 
   48586    48586    48585    48577    48573    48571    48566    48566 
   48573    48578    48581    48578    48571    48566    48560    48554 
   48547    48539    48531    48517    48505    48489    48467    48446 
   48429    48423    48425    48431    48444    48462    48471    48474 
   48471    48465    48452    48438    48427    48428    48432    48433 
   48432    48429    48429    48431    48428    48423    48416    48417 
   48428    48444    48466    48492    48519    48550    48582    48608 
   48632    48652    48666    48671    48667    48656    48647    48633 
   48620    48616    48608    48597    48594    48594    48586    48575 
   48552    48523    48494    48463    48428    48401    48378    48352 
   48335    48324    48321    48327    48332    48335    48332    48321 
   48312    48311    48304    48297    48305    48317    48331    48348 
   48373    48398    48424    48443    48452    48456    48456    48450 
   48444    48442    48439    48432    48421    48412    48405    48400 
   48400    48402    48398    48396    48389    48377    48362    48344 
   48328    48311    48290    48269    48251    48236    48222    48209 
   48196    48180    48165    48153    48150    48153    48155    48163 
   48174    48185    48200    48212    48230    48253    48276    48304 
   48331    48355    48378    48400    48416    48435    48452    48465 
   48471    48481    48492    48498    48501    48504    48510    48517 
   48524    48536    48551    48563    48571    48581    48590    48598 
   48605    48612    48616    48616    48612    48602    48591    48582 
   48570    48559    48550    48537    48520    48498    48473    48450 
   48432    48412    48393    48384    48385    48393    48408    48427 
   48444    48451    48455    48459    48466    48479    48500    48524 
   48555    48586    48616    48635    48636    48628    48620    48609 
   48601    48595    48589    48582    48582    48581    48573    48562 
   48544    48521    48502    48482    48459    48438    48421    48408 
   48396    48384    48374    48371    48374    48379    48388    48394 
   48404    48419    48435    48447    48458    48471    48487    48505 
   48520    48529    48536    48546    48556    48563    48568    48574 
   48577    48568    48554    48539    48521    48500    48482    48469 
   48455    48442    48427    48406    48382    48361    48338    48316 
   48301    48297    48298    48300    48305    48313    48316    48317 
   48319    48317    48312    48303    48293    48292    48292    48290 
   48286    48282    48276    48270    48266    48258    48250    48247 
   48251    48255    48265    48282    48304    48324    48339    48352 
   48370    48386    48405    48429    48459    48486    48510    48532 
   48551    48566    48577    48586    48591    48593    48597    48602 
   48612    48620    48625    48624    48624    48624    48622    48621 
   48625    48629    48637    48649    48662    48667    48659    48644 
   48629    48609    48586    48568    48552    48531    48510    48489 
   48463    48435    48404    48370    48339    48313    48290    48280 
   48285    48298    48312    48325    48339    48352    48365    48378 
