Origin Time       2025/06/03 22:18:00
Lat.              41.7
Long.             143.6
Depth. (km)       30
Mag.              5.2
Station Code      TKCH08
Station Lat.      42.4865
Station Long.     143.1520
Station Height(m) 260
Record Time       2025/06/03 22:18:42
Sampling Freq(Hz) 100Hz
Duration Time(s)  120
Dir.              3
Scale Factor      2942(gal)/8224139
Max. Acc. (gal)   0.803
Last Correction   2025/06/03 22:18:42
Memo.             
[...]
  204687   204685   204682   204682   204685   204687   204687   204685 
  204687   204688   204685   204685   204685   204687   204687   204687 
  204682   204685   204688   204685   204684   204684   204685   204684 
  204681   204685   204688   204685   204685   204685   204685   204685 
  204682   204684   204687   204687   204684   204685   204688   204688 
  204684   204682   204687   204687   204681   204681   204688   204688 
  204684   204688   204689   204681   204680   204685   204687   204687 
  204684   204682   204687   204688   204682   204684   204689   204687 
  204681   204681   204687   204688   204684   204682   204687   204688 
  204688   204684   204681   204684   204684   204684   204687   204685 
  204684   204685   204684   204684   204689   204687   204681   204687 
  204688   204682   204681   204682   204684   204688   204689   204687 
  204687   204682   204678   204687   204691   204684   204682   204685 
  204684   204685   204685   204682   204684   204687   204687   204688 
  204689   204684   204681   204688   204688   204682   204685   204689 
  204685   204684   204684   204684   204685   204687   204684   204684 
  204687   204687   204684   204685   204687   204685   204688   204689 
  204682   204685   204687   204682   204689   204689   204681   204684 
  204687   204685   204688   204687   204685   204688   204689   204687 
  204684   204682   204688   204689   204684   204681   204684   204682 
  204685   204688   204681   204684   204689   204684   204682   204688 
  204684   204680   204684   204684   204682   204688   204691   204687 
  204687   204688   204687   204685   204685   204685   204689   204688 
  204685   204684   204682   204682   204687   204689   204682   204681 
  204685   204684   204684   204687   204689   204688   204684   204684 
  204687   204687   204685   204687   204685   204687   204687   204682 
  204684   204687   204682   204682   204685   204685   204689   204687 
  204682   204687   204685   204684   204687   204687   204685   204685 
  204685   204687   204687   204688   204684   204685   204688   204685 
  204684   204684   204677   204677   204682   204681   204676   204677 
  204678   204677   204672   204669   204670   204668   204660   204657 
  204654   204646   204635   204628   204628   204630   204631   204637 
  204641   204651   204666   204666   204657   204654   204647   204649 
  204669   204697   204735   204784   204830   204873   204894   204861 
  204765   204641   204527   204446   204404   204396   204437   204550 
  204716   204842   204854   204759   204591   204399   204299   204403 
  204650   204885   205070   205275   205456   205452   205204   204862 
  204657   204637   204674   204736   204874   204993   204959   204831 
  204753   204747   204759   204795   204853   204847   204736   204579 
  204495   204533   204539   204302   203841   203389   203183   203292 
  203578   203854   204005   203990   203841   203627   203422   203345 
  203440   203590   203773   204151   204718   205235   205501   205483 
  205357   205325   205271   205055   204973   205344   205961   206409 
  206574   206648   206782   206811   206454   205811   205330   205237 
  205437   205753   205988   206000   205777   205321   204726   204276 
  204140   204114   203968   203823   203899   204130   204276   204252 
  204179   204157   204137   204090   204102   204172   204201   204194 
  204290   204527   204808   205054   205173   205097   204921   204734 
  204479   204163   203949   204009   204333   204666   204754   204607 
  204390   204286   204391   204589   204689   204649   204569   204581 
  204681   204685   204519   204452   204708   205082   205232   205065 
  204720   204492   204531   204624   204566   204412   204261   204196 
  204277   204403   204452   204481   204533   204503   204357   204267 
  204333   204439   204504   204577   204685   204757   204697   204589 
  204639   204824   204963   205008   205015   205016   205038   205062 
  205008   204874   204772   204757   204832   204981   205094   205063 
  204942   204827   204759   204758   204770   204742   204689   204595 
  204429   204276   204219   204282   204510   204873   205164   205249 
  205225   205189   205105   204939   204742   204657   204785   205025 
  205159   205121   205016   204893   204749   204646   204607   204531 
  204349   204179   204246   204589   204947   205069   204950   204718 
  204479   204323   204307   204402   204476   204442   204390   204434 
  204520   204564   204599   204639   204627   204572   204508   204412 
  204273   204175   204210   204381   204619   204844   205001   205033 
  204912   204680   204399   204157   204106   204319   204660   204886 
  204884   204735   204580   204460   204314   204137   204029   204097 
  204367   204734   205013   205175   205324   205438   205376   205101 
  204762   204618   204786   205102   205378   205569   205625   205484 
  205206   204913   204691   204610   204685   204813   204820   204631 
  204394   204286   204309   204361   204388   204373   204311   204221 
  204179   204279   204527   204777   204884   204881   204851   204803 
  204747   204697   204642   204546   204383   204284   204448   204796 
  205074   205198   205227   205177   205036   204844   204693   204672 
  204759   204855   204939   205058   205151   205104   204952   204828 
  204774   204654   204334   203985   203899   204053   204233   204391 
  204592   204758   204704   204446   204228   204167   204205   204291 
  204418   204565   204673   204712   204753   204842   204940   205012 
  205017   204901   204676   204500   204543   204782   205040   205173 
  205212   205266   205318   205320   205291   205214   205033   204759 
  204477   204291   204277   204445   204715   204997   205217   205281 
  205104   204782   204542   204488   204512   204392   204098   203914 
  204043   204314   204525   204664   204736   204720   204619   204437 
  204222   204091   204084   204122   204145   204187   204319   204537 
  204678   204619   204493   204485   204573   204646   204662   204608 
  204498   204410   204400   204445   204512   204588   204668   204731 
  204742   204720   204746   204859   204952   204925   204851   204840 
  204894   204923   204836   204680   204592   204620   204732   204925 
  205124   205191   205106   204943   204758   204643   204670   204720 
  204626   204430   204271   204215   204280   204479   204765   205017 
  205096   204979   204822   204780   204827   204850   204819   204820 
  204932   205116   205297   205443   205551   205613   205556   205351 
  205110   204970   204993   205178   205403   205461   205294   205071 
  204943   204870   204773   204687   204678   204732   204726   204552 
  204264   204049   204013   204070   204102   204111   204137   204178 
  204218   204249   204260   204230   204120   203940   203818   203850 
  203960   204043   204048   204009   204037   204163   204217   204155 
  204175   204338   204477   204533   204592   204666   204732   204820 
  204957   205129   205289   205406   205533   205694   205754   205632 
  205456   205328   205198   205070   205031   205051   205054   205078 
  205137   205129   205006   204822   204628   204429   204210   204001 
  203872   203879   203978   204053   204095   204179   204331   204523 
  204668   204662   204579   204616   204800   204966   205040   205081 
  205093   205005   204849   204774   204811   204832   204826   204897 
  205042   205120   205016   204768   204481   204245   204148   204206 
  204327   204426   204477   204522   204597   204699   204762   204739 
  204709   204769   204884   204979   205023   205019   204979   204907 
  204769   204587   204511   204626   204800   204888   204882   204803 
  204650   204480   204364   204330   204394   204473   204457   204392 
  204385   204439   204546   204718   204892   204944   204839   204642 
  204453   204368   204429   204581   204745   204859   204884   204809 
  204689   204614   204615   204628   204568   204444   204365   204396 
  204425   204327   204180   204129   204178   204228   204245   204286 
  204407   204588   204741   204812   204788   204689   204599   204574 
  204589   204607   204612   204639   204750   204958   205168   205270 
  205258   205190   205133   205128   205119   205083   205116   205217 
  205262   205221   205222   205328   205401   205326   205181   205078 
  205036   204961   204769   204560   204483   204525   204568   204552 
  204527   204554   204599   204591   204515   204434   204394   204344 
  204260   204222   204277   204336   204327   204314   204342   204379 
  204392   204398   204444   204539   204603   204556   204429   204334 
  204314   204296   204242   204257   204392   204561   204697   204778 
  204807   204871   205011   205148   205235   205233   205147   205098 
  205146   205209   205251   205291   205297   205229   205114   204992 
  204913   204943   205005   204954   204811   204701   204680   204735 
  204766   204682   204566   204523   204515   204471   204419   204410 
  204419   204456   204546   204628   204643   204581   204464   204331 
  204252   204273   204379   204508   204607   204633   204622   204655 
  204774   204930   205033   205031   204940   204838   204749   204649 
  204597   204674   204815   204861   204765   204610   204512   204507 
  204525   204533   204568   204606   204566   204445   204353   204380 
  204472   204553   204612   204624   204566   204464   204353   204288 
  204341   204466   204539   204527   204477   204412   204333   204304 
  204388   204549   204726   204916   205110   205228   205175   204985 
  204812   204743   204734   204728   204734   204799   204886   204893 
  204840   204850   204923   204971   204950   204851   204712   204622 
  204628   204707   204809   204885   204901   204850   204773   204736 
  204722   204660   204596   204633   204745   204805   204762   204719 
  204786   204904   204928   204869   204838   204844   204840   204826 
  204805   204808   204869   204963   205036   205017   204903   204778 
  204714   204707   204736   204765   204784   204820   204865   204850 
  204730   204557   204403   204313   204307   204380   204477   204539 
  204535   204495   204481   204484   204456   204410   204367   204334 
  204344   204383   204396   204371   204341   204358   204415   204457 
  204489   204542   204579   204570   204556   204587   204676   204789 
  204877   204896   204828   204704   204614   204645   204800   205019 
  205221   205349   205374   205272   205066   204831   204655   204593 
  204649   204780   204934   205059   205074   204944   204785   204726 
  204709   204633   204553   204537   204519   204471   204477   204560 
  204638   204657   204649   204664   204707   204763   204799   204782 
  204734   204670   204597   204566   204581   204577   204562   204573 
  204570   204520   204457   204410   204402   204453   204526   204601 
  204684   204741   204762   204778   204788   204788   204826   204876 
  204853   204784   204741   204720   204726   204774   204838   204877 
  204908   204923   204885   204812   204736   204630   204496   204450 
  204503   204549   204599   204691   204773   204801   204758   204649 
  204526   204412   204319   204322   204460   204646   204804   204896 
  204888   204843   204851   204880   204838   204712   204577   204525 
  204539   204537   204511   204542   204646   204741   204749   204653 
  204523   204429   204352   204275   204238   204273   204379   204488 
  204545   204584   204641   204676   204680   204673   204680   204734 
  204805   204805   204731   204692   204734   204774   204763   204734 
  204738   204799   204861   204865   204844   204827   204774   204664 
  204542   204460   204442   204520   204684   204838   204886   204811 
  204650   204502   204452   204481   204534   204568   204574   204610 
  204739   204919   205031   205069   205106   205137   205089   204962 
  204834   204768   204759   204772   204772   204747   204735   204753 
  204742   204669   204589   204542   204519   204479   204375   204241 
  204205   204313   204468   204568   204627   204638   204535   204363 
  204256   204304   204465   204616   204704   204750   204751   204687 
  204612   204604   204647   204672   204655   204637   204650   204687 
  204711   204704   204678   204638   204588   204557   204549   204546 
  204549   204579   204647   204711   204700   204654   204666   204734 
  204809   204911   205033   205110   205114   205056   204947   204832 
  204765   204739   204722   204678   204611   204569   204591   204641 
  204660   204641   204614   204591   204557   204503   204460   204468 
  204525   204607   204689   204728   204699   204630   204579   204576 
  204635   204745   204851   204919   204943   204908   204824   204728 
  204616   204488   204376   204291   204222   204169   204155   204195 
  204280   204384   204460   204473   204458   204453   204457   204481 
  204561   204684   204769   204793   204805   204820   204819   204800 
  204781   204762   204699   204565   204415   204300   204211   204153 
  204157   204199   204221   204198   204140   204066   204007   203962 
  203891   203794   203755   203823   203886   203823   203662   203543 
  203548   203631   203750   203910   204080   204255   204456   204655 
  204832   205011   205187   205321   205409   205456   205420   205332 
  205320   205437   205636   205865   206097   206307   206497   206653 
  206729   206748   206802   206890   206930   206874   206724   206559 
  206497   206571   206695   206730   206609   206367   206080   205833 
  205683   205613   205625   205713   205803   205834   205807   205741 
  205660   205536   205330   205089   204897   204778   204693   204616 
  204547   204462   204310   204078   203818   203600   203436   203295 
  203172   203111   203112   203161   203235   203280   203261   203160 
  202967   202756   202641   202643   202730   202892   203108   203337 
  203542   203705   203804   203828   203812   203810   203887   204067 
  204315   204603   204892   205129   205281   205336   205325   205282 
  205212   205121   205032   204955   204892   204863   204904   204993 
  205086   205209   205417   205679   205888   205960   205911   205842 
  205798   205715   205607   205572   205629   205707   205745   205757 
  205794   205815   205731   205537   205306   205098   204920   204759 
  204643   204593   204573   204531   204456   204379   204345   204334 
  204291   204223   204125   203993   203883   203813   203746   203678 
  203617   203558   203505   203443   203355   203251   203139   203018 
  202899   202775   202645   202570   202586   202648   202741   202921 
  203191   203476   203708   203860   203913   203914   203987   204222 
  204604   205011   205345   205618   205815   205895   205904   205902 
  205910   205965   206062   206136   206151   206115   206049   205973 
  205866   205730   205615   205549   205561   205623   205634   205571 
  205503   205430   205282   205056   204824   204651   204558   204500 
  204433   204376   204367   204415   204533   204691   204817   204903 
  204962   204961   204913   204874   204809   204657   204438   204225 
  204084   204072   204142   204164   204091   203998   203897   203717 
  203458   203181   202942   202794   202722   202667   202648   202741 
  202911   203046   203114   203158   203223   203349   203598   203980 
  204417   204839   205236   205584   205852   206015   206070   206066 
  206030   205926   205771   205735   205927   206228   206486   206651 
  206707   206656   206520   206317   206107   205961   205876   205814 
  205784   205768   205704   205568   205366   205116   204870   204700 
  204642   204654   204657   204620   204564   204491   204387   204287 
  204248   204229   204179   204140   204133   204109   204060   204057 
  204148   204298   204439   204522   204543   204560   204615   204695 
  204751   204793   204865   204916   204858   204723   204596   204481 
  204411   204417   204429   204431   204498   204635   204805   204963 
  205046   205021   204913   204732   204519   204402   204421   204461 
  204433   204354   204296   204306   204349   204380   204415   204476 
  204515   204479   204398   204318   204257   204261   204357   204476 
  204522   204480   204403   204315   204176   203985   203839   203841 
  203967   204102   204187   204205   204164   204129   204182   204325 
  204495   204664   204849   205044   205232   205393   205510   205607 
  205719   205879   206077   206246   206340   206382   206358   206265 
  206159   206051   205923   205808   205725   205622   205445   205198 
  204955   204800   204724   204672   204638   204626   204610   204599 
  204615   204630   204622   204608   204583   204527   204444   204334 
  204213   204101   204036   204033   204041   203998   203901   203823 
  203808   203818   203812   203771   203674   203528   203401   203338 
  203331   203399   203550   203737   203924   204106   204267   204387 
  204483   204579   204682   204797   204905   204974   205023   205116 
  205260   205433   205598   205699   205740   205741   205686   205599 
  205561   205603   205652   205656   205632   205573   205449   205255 
  205038   204884   204840   204857   204873   204897   204950   204986 
  204934   204799   204650   204526   204419   204348   204363   204468 
  204572   204603   204557   204468   204392   204364   204338   204291 
  204283   204354   204493   204689   204885   205008   205056   205039 
  204957   204840   204753   204734   204755   204770   204781   204782 
  204759   204730   204682   204599   204491   204353   204215   204176 
  204234   204261   204201   204094   203963   203824   203717   203636 
  203581   203581   203615   203661   203717   203789   203910   204055 
  204103   204033   203951   203901   203855   203837   203898   204026 
  204207   204445   204691   204905   205109   205264   205314   205287 
  205236   205198   205235   205347   205463   205583   205704   205745 
  205710   205654   205540   205380   205260   205198   205158   205116 
  205069   205047   205052   205067   205074   205047   204974   204893 
  204831   204797   204792   204796   204788   204759   204697   204591 
  204437   204267   204153   204149   204233   204331   204430   204576 
  204755   204885   204927   204947   205009   205098   205195   205305 
  205413   205538   205679   205771   205796   205785   205718   205599 
  205476   205356   205248   205155   205032   204880   204770   204728 
  204722   204714   204669   204585   204476   204346   204178   203955 
  203739   203607   203565   203609   203705   203779   203812   203816 
  203813   203802   203781   203801   203887   203998   204086   204163 
  204273   204407   204535   204665   204801   204907   204958   204967 
  204935   204869   204832   204816   204762   204714   204715   204736 
  204778   204855   204950   205050   205102   205048   204931   204816 
  204705   204593   204477   204342   204232   204188   204183   204178 
  204153   204107   204060   204006   203940   203902   203909   203937 
  203993   204097   204222   204344   204450   204518   204557   204635 
  204768   204880   204930   204930   204917   204928   204942   204917 
  204886   204911   204974   205017   205033   205025   204982   204901 
