Origin Time       2025/06/03 22:18:00
Lat.              41.7
Long.             143.6
Depth. (km)       30
Mag.              5.2
Station Code      TKCH05
Station Lat.      43.1211
Station Long.     143.6181
Station Height(m) 65
Record Time       2025/06/03 22:18:56
Sampling Freq(Hz) 100Hz
Duration Time(s)  120
Dir.              5
Scale Factor      7845(gal)/8223790
Max. Acc. (gal)   2.653
Last Correction   2025/06/03 22:18:57
Memo.             
[...]
   -1844    -1802    -1661    -1452    -1228    -1051     -955     -926 
    -969    -1094    -1254    -1385    -1462    -1478    -1435    -1341 
   -1217    -1100    -1038    -1036    -1067    -1128    -1229    -1371 
   -1529    -1664    -1733    -1721    -1653    -1559    -1463    -1408 
   -1389    -1374    -1371    -1398    -1436    -1466    -1482    -1467 
   -1433    -1410    -1393    -1370    -1368    -1394    -1421    -1437 
   -1455    -1462    -1444    -1409    -1360    -1283    -1204    -1175 
   -1201    -1246    -1291    -1345    -1401    -1412    -1368    -1301 
   -1227    -1148    -1102    -1123    -1194    -1286    -1398    -1517 
   -1618    -1674    -1664    -1587    -1470    -1343    -1233    -1138 
   -1059    -1016    -1028    -1085    -1171    -1279    -1395    -1487 
   -1556    -1625    -1671    -1665    -1621    -1553    -1447    -1317 
   -1227    -1194    -1189    -1205    -1269    -1379    -1487    -1540 
   -1537    -1513    -1495    -1490    -1493    -1494    -1475    -1425 
   -1355    -1279    -1209    -1150    -1105    -1096    -1131    -1179 
   -1213    -1235    -1260    -1285    -1283    -1259    -1224    -1190 
   -1174    -1182    -1210    -1259    -1320    -1370    -1390    -1399 
   -1421    -1433    -1412    -1385    -1391    -1425    -1451    -1452 
   -1449    -1458    -1468    -1458    -1418    -1364    -1304    -1242 
   -1183    -1142    -1132    -1165    -1221    -1283    -1368    -1499 
   -1645    -1759    -1811    -1788    -1686    -1537    -1391    -1278 
   -1221    -1223    -1260    -1325    -1424    -1518    -1557    -1544 
   -1516    -1483    -1416    -1305    -1190    -1112    -1074    -1082 
   -1146    -1250    -1351    -1417    -1443    -1447    -1451    -1455 
   -1443    -1417    -1406    -1418    -1435    -1418    -1337    -1231 
   -1171    -1171    -1193    -1224    -1289    -1385    -1485    -1567 
   -1610    -1598    -1528    -1421    -1320    -1247    -1193    -1159 
   -1173    -1220    -1260    -1285    -1308    -1328    -1355    -1418 
   -1512    -1584    -1605    -1583    -1529    -1439    -1328    -1210 
   -1094    -1007     -985    -1030    -1097    -1152    -1219    -1324 
   -1464    -1603    -1702    -1740    -1707    -1594    -1426    -1260 
   -1117    -1001     -922     -888     -924    -1042    -1221    -1451 
   -1695    -1879    -1965    -1971    -1904    -1769    -1607    -1468 
   -1352    -1235    -1128    -1067    -1062    -1094    -1132    -1163 
   -1198    -1244    -1296    -1358    -1444    -1539    -1617    -1665 
   -1665    -1601    -1479    -1340    -1201    -1062     -950     -916 
    -994    -1154    -1318    -1463    -1602    -1713    -1750    -1706 
   -1584    -1413    -1247    -1123    -1038     -993    -1004    -1077 
   -1183    -1285    -1363    -1426    -1483    -1518    -1506    -1445 
   -1367    -1308    -1290    -1314    -1368    -1439    -1495    -1503 
   -1464    -1412    -1372    -1355    -1343    -1323    -1316    -1351 
   -1410    -1464    -1497    -1505    -1485    -1432    -1370    -1297 
   -1196    -1094    -1043    -1050    -1098    -1170    -1246    -1331 
   -1458    -1605    -1682    -1652    -1571    -1490    -1420    -1364 
   -1325    -1305    -1308    -1352    -1413    -1441    -1428    -1399 
   -1368    -1356    -1390    -1455    -1503    -1497    -1429    -1333 
   -1255    -1213    -1175    -1136    -1132    -1142    -1116    -1086 
   -1100    -1144    -1235    -1370    -1483    -1530    -1533    -1506 
   -1448    -1375    -1298    -1216    -1142    -1111    -1131    -1182 
   -1255    -1348    -1432    -1476    -1478    -1448    -1390    -1320 
   -1277    -1282    -1318    -1370    -1428    -1483    -1525    -1556 
   -1580    -1611    -1645    -1649    -1595    -1513    -1451    -1417 
   -1406    -1433    -1490    -1539    -1555    -1545    -1517    -1463 
   -1397    -1335    -1267    -1186    -1117    -1101    -1135    -1173 
   -1192    -1215    -1242    -1237    -1201    -1169    -1151    -1147 
   -1189    -1281    -1381    -1464    -1530    -1566    -1551    -1490 
   -1410    -1336    -1271    -1208    -1135    -1051     -970     -928 
    -959    -1047    -1148    -1254    -1391    -1547    -1661    -1706 
   -1707    -1686    -1651    -1614    -1576    -1537    -1498    -1458 
   -1414    -1375    -1339    -1313    -1318    -1356    -1409    -1487 
   -1587    -1660    -1668    -1626    -1552    -1428    -1252    -1086 
    -976     -919     -926    -1000    -1104    -1208    -1333    -1489 
   -1621    -1690    -1698    -1663    -1595    -1494    -1362    -1216 
   -1090    -1004     -958     -969    -1066    -1220    -1367    -1485 
   -1574    -1613    -1588    -1521    -1428    -1328    -1252    -1213 
   -1194    -1182    -1193    -1247    -1316    -1362    -1391    -1405 
   -1412    -1429    -1444    -1421    -1356    -1289    -1248    -1224 
   -1219    -1258    -1340    -1421    -1471    -1495    -1521    -1549 
   -1552    -1522    -1491    -1476    -1467    -1467    -1489    -1495 
   -1455    -1409    -1405    -1425    -1422    -1395    -1358    -1297 
   -1233    -1200    -1185    -1163    -1146    -1161    -1197    -1240 
   -1289    -1339    -1364    -1364    -1366    -1374    -1375    -1372 
   -1370    -1352    -1302    -1246    -1228    -1236    -1233    -1229 
   -1217    -1183    -1158    -1177    -1227    -1297    -1394    -1503 
   -1593    -1636    -1633    -1605    -1551    -1458    -1333    -1216 
   -1138    -1117    -1156    -1240    -1339    -1431    -1534    -1674 
   -1804    -1854    -1821    -1756    -1695    -1624    -1525    -1416 
   -1320    -1255    -1228    -1263    -1367    -1491    -1574    -1591 
   -1541    -1441    -1333    -1236    -1146    -1063    -1000     -981 
   -1028    -1144    -1285    -1387    -1444    -1476    -1452    -1347 
   -1194    -1057     -973     -942     -936     -953    -1013    -1138 
   -1294    -1425    -1497    -1524    -1513    -1464    -1390    -1318 
   -1259    -1206    -1163    -1142    -1162    -1248    -1377    -1482 
   -1534    -1560    -1572    -1561    -1539    -1510    -1458    -1387 
   -1333    -1316    -1339    -1404    -1495    -1571    -1588    -1545 
   -1480    -1441    -1426    -1414    -1401    -1394    -1383    -1360 
   -1347    -1360    -1378    -1390    -1408    -1405    -1360    -1309 
   -1275    -1231    -1162    -1102    -1088    -1112    -1152    -1179 
   -1186    -1202    -1264    -1356    -1433    -1478    -1497    -1486 
   -1441    -1375    -1302    -1233    -1185    -1182    -1231    -1308 
   -1377    -1420    -1443    -1474    -1516    -1545    -1552    -1541 
   -1502    -1432    -1363    -1314    -1262    -1202    -1179    -1221 
   -1308    -1401    -1501    -1621    -1736    -1819    -1836    -1733 
   -1521    -1271    -1057     -916     -861     -880     -961    -1098 
   -1282    -1487    -1686    -1846    -1944    -1969    -1923    -1790 
   -1560    -1273    -1008     -831     -770     -827     -966    -1147 
   -1354    -1560    -1736    -1872    -1945    -1895    -1715    -1480 
   -1246    -1021     -847     -783     -820     -903    -1013    -1154 
   -1282    -1368    -1433    -1497    -1540    -1530    -1452    -1325 
   -1194    -1089    -1023    -1008    -1069    -1197    -1350    -1498 
   -1611    -1642    -1601    -1557    -1543    -1520    -1486    -1466 
   -1452    -1447    -1471    -1509    -1522    -1510    -1491    -1459 
   -1414    -1378    -1355    -1355    -1416    -1525    -1599    -1587 
   -1524    -1447    -1364    -1289    -1240    -1216    -1205    -1201 
   -1212    -1247    -1302    -1351    -1366    -1360    -1367    -1377 
   -1354    -1282    -1178    -1070     -997    -1003    -1089    -1237 
   -1433    -1644    -1796    -1838    -1791    -1703    -1575    -1405 
   -1233    -1090     -977     -913     -932    -1039    -1200    -1368 
   -1520    -1657    -1761    -1790    -1728    -1609    -1487    -1390 
   -1304    -1202    -1100    -1026     -999    -1013    -1048    -1088 
   -1151    -1259    -1395    -1540    -1672    -1750    -1752    -1694 
   -1602    -1467    -1264    -1040     -870     -785     -793     -911 
   -1124    -1394    -1660    -1846    -1912    -1867    -1737    -1540 
   -1297    -1050     -847     -719     -704     -832    -1082    -1374 
   -1621    -1772    -1796    -1682    -1486    -1301    -1144     -997 
    -907     -920    -1013    -1159    -1325    -1447    -1494    -1506 
   -1499    -1476    -1472    -1526    -1638    -1786    -1917    -1954 
   -1885    -1744    -1529    -1259     -999     -816     -756     -832 
   -1024    -1266    -1514    -1742    -1908    -1952    -1857    -1653 
   -1355    -1023     -746     -595     -616     -818    -1105    -1383 
   -1638    -1848    -1949    -1937    -1842    -1647    -1341    -1008 
    -726     -531     -481     -622     -920    -1289    -1648    -1937 
   -2097    -2099    -1957    -1728    -1482    -1285    -1183    -1182 
   -1233    -1294    -1344    -1372    -1381    -1358    -1277    -1155 
   -1071    -1065    -1119    -1213    -1339    -1471    -1593    -1664 
   -1606    -1417    -1193    -1004     -878     -855     -973    -1209 
   -1498    -1779    -2018    -2170    -2185    -2050    -1780    -1420 
   -1067     -801     -643     -615     -774    -1108    -1480    -1777 
   -1966    -2020    -1922    -1705    -1437    -1182     -992     -904 
    -918     -985    -1034    -1047    -1089    -1210    -1393    -1568 
   -1652    -1593    -1459    -1385    -1428    -1526    -1601    -1622 
   -1601    -1525    -1362    -1112     -861     -724     -760     -932 
   -1158    -1366    -1517    -1617    -1659    -1622    -1507    -1340 
   -1167    -1038     -963     -957    -1053    -1267    -1555    -1838 
   -2047    -2133    -2085    -1933    -1711    -1464    -1247    -1100 
   -1032    -1026    -1066    -1138    -1237    -1360    -1485    -1580 
   -1625    -1590    -1476    -1336    -1224    -1179    -1225    -1348 
   -1475    -1539    -1525    -1475    -1447    -1448    -1435    -1359 
   -1229    -1094    -1026    -1062    -1182    -1321    -1421    -1458 
   -1410    -1266    -1067     -913     -876     -970    -1165    -1399 
   -1617    -1775    -1854    -1854    -1784    -1653    -1459    -1223 
   -1028     -950     -974    -1048    -1166    -1358    -1609    -1840 
   -1964    -1922    -1728    -1466    -1219    -1013     -874     -826 
    -864     -950    -1034    -1073    -1066    -1059    -1096    -1178 
   -1293    -1425    -1541    -1622    -1694    -1773    -1838    -1845 
   -1765    -1598    -1395    -1221    -1109    -1059    -1062    -1109 
   -1197    -1308    -1412    -1502    -1594    -1665    -1682    -1634 
   -1506    -1286    -1019     -765     -581     -514     -592     -812 
   -1097    -1348    -1533    -1669    -1794    -1942    -2110    -2207 
   -2155    -1934    -1570    -1112     -664     -342     -214     -292 
    -572     -985    -1443    -1912    -2340    -2625    -2717    -2623 
   -2336    -1883    -1368     -915     -575     -386     -410     -654 
   -1007    -1340    -1606    -1786    -1879    -1910    -1895    -1846 
   -1799    -1802    -1846    -1884    -1887    -1857    -1771    -1594 
   -1348    -1065     -745     -437     -257     -298     -542     -908 
   -1306    -1672    -1958    -2135    -2169    -2070    -1906    -1723 
   -1506    -1235     -949     -724     -618     -618     -680     -797 
    -988    -1239    -1509    -1740    -1880    -1919    -1888    -1807 
   -1656    -1437    -1190     -943     -716     -579     -595     -770 
   -1073    -1424    -1732    -1972    -2178    -2336    -2376    -2251 
   -1983    -1603    -1150     -700     -345     -159     -197     -461 
    -876    -1316    -1684    -1949    -2115    -2169    -2133    -2029 
   -1846    -1582    -1296    -1069     -943     -904     -920     -984 
   -1084    -1182    -1243    -1260    -1263    -1270    -1278    -1306 
   -1371    -1464    -1557    -1587    -1472    -1221     -926     -688 
    -587     -643     -816    -1008    -1175    -1364    -1595    -1807 
   -1938    -1968    -1892    -1734    -1549    -1359    -1156     -957 
    -819     -796     -904    -1111    -1329    -1476    -1525    -1490 
   -1414    -1351    -1333    -1352    -1389    -1443    -1534    -1659 
   -1779    -1877    -1944    -1937    -1804    -1549    -1232     -928 
    -691     -517     -400     -391     -540     -826    -1185    -1553 
   -1861    -2030    -2014    -1845    -1609    -1364    -1139     -988 
    -973    -1108    -1374    -1696    -1966    -2130    -2191    -2166 
   -2057    -1865    -1622    -1395    -1208    -1050     -969    -1039 
   -1221    -1397    -1487    -1480    -1371    -1188    -1023     -969 
   -1054    -1252    -1513    -1732    -1815    -1763    -1655    -1540 
   -1412    -1293    -1224    -1210    -1242    -1345    -1537    -1717 
   -1741    -1598    -1377    -1121     -854     -653     -595     -695 
    -947    -1359    -1871    -2340    -2637    -2705    -2513    -2054 
   -1371     -576      148      627      772      594      155     -469 
   -1204    -1934    -2542    -2951    -3096    -2936    -2496    -1844 
   -1081     -371      113      265       74     -378     -932    -1456 
   -1896    -2238    -2430    -2416    -2223    -1921    -1552    -1134 
    -693     -294      -33        4     -172     -491     -882    -1313 
   -1788    -2326    -2876    -3319    -3524    -3402    -2932    -2185 
   -1283     -349      465      999     1120      760      -48    -1146 
   -2324    -3354    -4002    -4137    -3769    -2976    -1914     -799 
     145      747      895      587      -33     -791    -1495    -1952 
   -2054    -1867    -1529    -1150     -815     -607     -591     -788 
   -1171    -1645    -2087    -2404    -2542    -2475    -2236    -1884 
   -1462    -1007     -583     -288     -248     -529    -1063    -1701 
   -2311    -2802    -3083    -3073    -2748    -2134    -1309     -419 
     334      787      864      573      -20     -789    -1571    -2226 
   -2635    -2725    -2504    -2038    -1417     -772     -253        9 
     -36     -340     -797    -1317    -1836    -2276    -2528    -2528 
   -2317    -1976    -1599    -1291    -1128    -1123    -1236    -1413 
   -1605    -1740    -1776    -1717    -1574    -1372    -1171    -1024 
    -980    -1082    -1341    -1710    -2083    -2335    -2388    -2231 
   -1919    -1520    -1082     -670     -375     -265     -332     -500 
    -683     -800     -830     -827     -878    -1020    -1251    -1547 
   -1852    -2127    -2357    -2496    -2488    -2305    -1981    -1571 
   -1142     -766     -480     -307     -310     -531     -915    -1355 
   -1771    -2110    -2319    -2376    -2289    -2081    -1794    -1507 
   -1283    -1109     -980     -926     -957    -1053    -1221    -1456 
   -1688    -1829    -1858    -1821    -1750    -1653    -1543    -1418 
   -1256    -1024     -695     -303       24      137      -32     -441 
    -982    -1557    -2080    -2452    -2583    -2413    -1977    -1417 
    -893     -495     -243     -128     -140     -288     -606    -1075 
   -1613    -2114    -2493    -2687    -2671    -2463    -2118    -1729 
   -1391    -1170    -1070    -1048    -1027     -957     -868     -834 
    -915    -1119    -1397    -1675    -1885    -1979    -1941    -1780 
   -1545    -1312    -1129    -1001     -893     -792     -753     -850 
   -1070    -1343    -1630    -1927    -2208    -2409    -2448    -2272 
   -1884    -1360     -819     -338       56      326      403      230 
    -202     -873    -1702    -2524    -3132    -3366    -3190    -2679 
   -1966    -1202     -537     -105       16     -162     -581    -1158 
   -1769    -2274    -2560    -2586    -2386    -2039    -1625    -1198 
    -778     -382      -45      193      286      160     -198     -739 
   -1379    -2022    -2594    -3037    -3269    -3221    -2893    -2361 
   -1695     -962     -265      248      452      318      -64     -580 
   -1163    -1775    -2330    -2724    -2876    -2731    -2288    -1640 
    -951     -352       85      309      290       36     -423    -1035 
   -1682    -2218    -2583    -2816    -2925    -2882    -2702    -2451 
   -2166    -1852    -1556    -1351    -1279    -1339    -1485    -1651 
   -1791    -1857    -1794    -1606    -1358    -1088     -793     -513 
    -334     -324     -483     -777    -1148    -1513    -1806    -2023 
   -2149    -2130    -1946    -1632    -1237     -835     -531     -399 
    -418     -541     -774    -1108    -1451    -1678    -1737    -1652 
   -1480    -1281    -1084     -896     -757     -729     -826    -1012 
   -1254    -1526    -1792    -2018    -2181    -2257    -2216    -2035 
   -1725    -1323     -896     -522     -276     -193     -265     -481 
    -828    -1294    -1830    -2331    -2681    -2808    -2717    -2461 
   -2079    -1613    -1148     -773     -534     -457     -554     -805 
   -1158    -1545    -1927    -2261    -2451    -2427    -2215    -1876 
   -1472    -1066     -703     -414     -252     -255     -387     -615 
    -913    -1215    -1460    -1667    -1846    -1962    -1995    -1962 
   -1876    -1745    -1590    -1405    -1171     -916     -691     -533 
    -484     -587     -823    -1090    -1298    -1421    -1463    -1426 
   -1323    -1186    -1043     -905     -819     -841    -1000    -1287 
   -1664    -2072    -2431    -2656    -2729    -2693    -2571    -2363 
   -2069    -1744    -1494    -1367    -1327    -1309    -1283    -1240 
   -1173    -1078     -978     -907     -904     -977    -1092    -1213 
   -1329    -1437    -1520    -1555    -1545    -1485    -1362    -1183 
    -977     -768     -584     -442     -357     -349     -432     -606 
    -854    -1151    -1476    -1821    -2139    -2355    -2420    -2334 
   -2128    -1838    -1476    -1078     -707     -415     -233     -201 
    -364     -707    -1155    -1649    -2141    -2513    -2632    -2446 
   -2014    -1470     -945     -525     -260     -187     -321     -657 
   -1159    -1738    -2274    -2679    -2902    -2902    -2667    -2242 
   -1725    -1223     -822     -585     -531     -594     -702     -822 
    -918     -981    -1055    -1183    -1360    -1560    -1737    -1844 
   -1875    -1831    -1701    -1491    -1269    -1113    -1054    -1070 
   -1147    -1278    -1428    -1594    -1782    -1958    -2050    -2012 
   -1840    -1553    -1228     -958     -776     -648     -572     -581 
    -691     -881    -1117    -1335    -1474    -1507    -1441    -1294 
   -1117     -977     -930    -1019    -1231    -1480    -1671    -1777 
   -1822    -1821    -1783    -1728    -1682    -1652    -1659    -1752 
   -1929    -2100    -2188    -2155    -2003    -1767    -1534    -1362 
   -1237    -1155    -1120    -1111    -1098    -1098    -1136    -1208 
   -1282    -1355    -1432    -1494    -1487    -1377    -1162     -881 
    -611     -434     -387     -464     -666     -958    -1229    -1386 
   -1408    -1316    -1146     -951     -769     -607     -483     -442 
    -523     -726    -1020    -1344    -1622    -1823    -1945    -1962 
   -1853    -1644    -1405    -1185    -1026     -992    -1112    -1333 
   -1582    -1825    -2047    -2220    -2311    -2315    -2254    -2166 
   -2076    -1973    -1829    -1657    -1513    -1435    -1420    -1435 
   -1445    -1443    -1448    -1474    -1480    -1443    -1389    -1327 
