Origin Time       2025/06/03 22:18:00
Lat.              41.7
Long.             143.6
Depth. (km)       30
Mag.              5.2
Station Code      TKCH10
Station Lat.      43.3337
Station Long.     142.9448
Station Height(m) 365
Record Time       2025/06/03 22:19:19
Sampling Freq(Hz) 100Hz
Duration Time(s)  120
Dir.              6
Scale Factor      7845(gal)/8223790
Max. Acc. (gal)   0.144
Last Correction   2025/06/03 22:19:20
Memo.             
[...]
   22654    22624    22609    22615    22624    22638    22657    22662 
   22640    22609    22597    22616    22643    22657    22657    22658 
   22659    22655    22650    22654    22662    22665    22666    22665 
   22659    22657    22666    22675    22681    22689    22690    22681 
   22666    22640    22611    22600    22605    22611    22619    22626 
   22619    22612    22617    22617    22605    22609    22620    22619 
   22621    22628    22636    22648    22638    22616    22626    22636 
   22613    22596    22601    22607    22616    22626    22617    22609 
   22621    22636    22640    22646    22650    22650    22639    22628 
   22643    22646    22613    22612    22663    22698    22689    22667 
   22653    22671    22712    22720    22700    22694    22690    22671 
   22667    22681    22686    22693    22717    22736    22734    22719 
   22712    22713    22707    22684    22662    22650    22634    22617 
   22609    22599    22594    22605    22617    22621    22617    22603 
   22584    22565    22545    22540    22558    22574    22572    22551 
   22540    22562    22593    22597    22588    22590    22611    22644 
   22658    22646    22643    22669    22704    22721    22717    22708 
   22702    22701    22697    22686    22680    22682    22689    22686 
   22674    22654    22624    22601    22594    22599    22612    22624 
   22619    22594    22570    22570    22590    22605    22611    22612 
   22630    22661    22669    22648    22638    22646    22653    22661 
   22670    22677    22689    22701    22696    22677    22677    22696 
   22712    22715    22698    22680    22665    22654    22657    22666 
   22671    22673    22673    22666    22661    22663    22663    22662 
   22677    22694    22689    22681    22673    22654    22635    22624 
   22619    22627    22651    22663    22655    22648    22647    22628 
   22603    22582    22574    22586    22599    22589    22574    22586 
   22617    22635    22624    22604    22603    22621    22639    22634 
   22621    22623    22640    22648    22638    22635    22653    22662 
   22661    22671    22694    22708    22697    22669    22655    22673 
   22698    22705    22688    22669    22651    22624    22604    22600 
   22604    22615    22628    22627    22611    22612    22636    22650 
   22646    22654    22673    22675    22659    22640    22631    22634 
   22638    22626    22605    22603    22611    22612    22617    22627 
   22630    22626    22617    22612    22613    22617    22628    22654 
   22674    22678    22686    22697    22692    22686    22686    22677 
   22675    22696    22705    22686    22671    22677    22680    22671 
   22666    22663    22665    22667    22665    22655    22642    22635 
   22632    22634    22632    22613    22586    22592    22632    22651 
   22628    22604    22597    22608    22638    22657    22655    22659 
   22669    22667    22659    22644    22631    22626    22626    22631 
   22642    22650    22635    22607    22604    22635    22669    22682 
   22677    22671    22685    22698    22693    22681    22678    22678 
   22671    22669    22662    22634    22605    22601    22604    22600 
   22601    22600    22599    22600    22592    22584    22599    22616 
   22616    22624    22631    22612    22596    22601    22620    22653 
   22680    22677    22669    22666    22657    22651    22665    22688 
   22700    22698    22700    22704    22678    22640    22634    22646 
   22640    22616    22590    22573    22572    22577    22574    22581 
   22605    22621    22624    22639    22662    22666    22651    22657 
   22680    22690    22680    22657    22640    22655    22678    22673 
   22657    22665    22684    22689    22684    22680    22680    22674 
   22659    22646    22646    22651    22647    22631    22621    22630 
   22646    22659    22665    22657    22638    22613    22612    22640 
   22669    22678    22678    22674    22673    22680    22675    22657 
   22647    22654    22663    22666    22667    22667    22669    22671 
   22658    22627    22612    22628    22647    22650    22636    22616 
   22605    22616    22636    22636    22608    22589    22593    22597 
   22589    22574    22567    22580    22589    22580    22574    22586 
   22611    22630    22642    22659    22669    22667    22675    22684 
   22686    22697    22707    22702    22698    22698    22701    22711 
   22709    22693    22670    22665    22677    22677    22650    22621 
   22619    22634    22642    22635    22627    22639    22648    22626 
   22594    22593    22607    22609    22620    22647    22659    22651 
   22653    22677    22708    22724    22717    22705    22702    22698 
   22701    22713    22709    22688    22669    22663    22670    22680 
   22680    22669    22665    22670    22663    22651    22648    22643 
   22630    22609    22593    22597    22619    22630    22613    22592 
   22584    22572    22553    22554    22578    22585    22572    22572 
   22580    22584    22593    22600    22615    22634    22624    22612 
   22631    22636    22604    22586    22596    22600    22594    22599 
   22615    22639    22661    22648    22620    22616    22616    22607 
   22616    22648    22673    22677    22670    22670    22666    22646 
   22635    22651    22661    22654    22644    22644    22657    22669 
   22655    22639    22657    22690    22702    22704    22708    22704 
   22704    22723    22740    22729    22701    22682    22671    22655 
   22630    22607    22604    22612    22609    22607    22609    22613 
   22626    22630    22632    22640    22626    22605    22617    22626 
   22607    22601    22630    22655    22665    22673    22689    22681 
   22636    22596    22586    22603    22628    22640    22647    22669 
   22693    22689    22659    22638    22635    22648    22673    22675 
   22647    22638    22662    22684    22690    22692    22682    22673 
   22681    22682    22675    22688    22696    22685    22682    22682 
   22684    22704    22708    22681    22673    22694    22711    22716 
   22708    22678    22650    22640    22631    22623    22627    22623 
   22599    22582    22584    22584    22576    22569    22572    22586 
   22600    22604    22601    22600    22608    22620    22617    22615 
   22631    22642    22634    22632    22640    22665    22692    22685 
   22658    22661    22663    22630    22603    22593    22570    22540 
   22516    22505    22518    22536    22542    22561    22586    22589 
   22563    22555    22585    22620    22632    22635    22647    22663 
   22685    22711    22719    22708    22700    22701    22702    22702 
   22705    22709    22728    22750    22746    22727    22715    22697 
   22682    22670    22651    22643    22643    22634    22624    22613 
   22613    22651    22682    22671    22666    22677    22662    22635 
   22644    22670    22688    22705    22713    22711    22721    22732 
   22727    22723    22723    22692    22640    22621    22634    22647 
   22654    22650    22638    22638    22648    22648    22647    22657 
   22666    22674    22698    22729    22731    22689    22644    22631 
   22635    22631    22611    22603    22615    22623    22613    22604 
   22609    22617    22599    22566    22553    22543    22531    22545 
   22573    22586    22576    22561    22561    22565    22542    22520 
   22540    22588    22626    22644    22657    22667    22674    22682 
   22701    22708    22684    22665    22670    22681    22693    22697 
   22688    22682    22680    22677    22688    22704    22707    22707 
   22721    22738    22748    22766    22778    22767    22740    22736 
   22747    22731    22701    22688    22693    22713    22738    22744 
   22732    22709    22684    22651    22617    22592    22574    22569 
   22570    22567    22585    22639    22688    22696    22667    22627 
   22612    22613    22604    22582    22558    22554    22582    22616 
   22631    22639    22642    22628    22620    22631    22632    22607 
   22572    22545    22527    22523    22534    22551    22570    22588 
   22599    22609    22627    22644    22651    22665    22675    22661 
   22631    22615    22621    22639    22646    22639    22642    22657 
   22663    22665    22678    22680    22662    22650    22647    22638 
   22628    22624    22634    22655    22658    22631    22607    22605 
   22620    22636    22650    22661    22671    22688    22713    22731 
   22734    22723    22702    22682    22659    22635    22628    22648 
   22673    22681    22661    22631    22617    22617    22620    22626 
   22627    22620    22611    22611    22627    22647    22648    22635 
   22630    22630    22616    22594    22582    22584    22589    22593 
   22603    22612    22616    22619    22624    22635    22655    22677 
   22690    22698    22705    22701    22681    22659    22646    22631 
   22621    22623    22631    22642    22647    22650    22653    22653 
   22647    22643    22654    22675    22678    22658    22639    22635 
   22650    22674    22678    22671    22665    22642    22619    22619 
   22627    22624    22609    22588    22580    22597    22624    22634 
   22624    22616    22621    22620    22620    22648    22677    22681 
   22698    22721    22732    22755    22783    22790    22781    22752 
   22712    22688    22678    22657    22624    22600    22590    22590 
   22582    22559    22545    22550    22559    22577    22601    22616 
   22638    22663    22658    22638    22628    22613    22584    22557 
   22550    22576    22604    22619    22627    22634    22646    22665 
   22659    22639    22628    22636    22661    22680    22682    22681 
   22681    22680    22673    22667    22685    22712    22720    22709 
   22708    22704    22678    22642    22613    22601    22609    22630 
   22644    22665    22697    22727    22739    22734    22717    22705 
   22694    22677    22663    22662    22659    22662    22684    22708 
   22708    22686    22663    22654    22646    22620    22586    22570 
   22576    22589    22605    22623    22640    22663    22680    22669 
   22628    22582    22555    22554    22562    22558    22549    22555 
   22566    22553    22535    22536    22549    22566    22597    22638 
   22677    22704    22712    22708    22704    22701    22700    22705 
   22725    22752    22761    22747    22723    22696    22680    22669 
   22646    22623    22605    22596    22603    22613    22611    22600 
   22576    22549    22538    22534    22522    22519    22531    22546 
   22563    22584    22601    22628    22669    22704    22719    22712 
   22694    22682    22681    22663    22628    22599    22586    22589 
   22604    22621    22628    22632    22655    22688    22709    22712 
   22694    22675    22677    22682    22669    22658    22661    22665 
   22677    22698    22713    22721    22721    22701    22681    22680 
   22669    22643    22634    22635    22643    22663    22666    22646 
   22634    22626    22609    22605    22616    22631    22654    22693 
   22732    22756    22756    22729    22696    22670    22653    22647 
   22663    22694    22723    22740    22742    22732    22720    22704 
   22677    22651    22627    22604    22592    22586    22590    22609 
   22619    22594    22570    22569    22572    22580    22594    22604 
   22613    22612    22590    22576    22576    22565    22545    22532 
   22528    22534    22547    22574    22597    22603    22596    22596 
   22601    22600    22616    22653    22680    22692    22702    22723 
   22743    22748    22752    22758    22754    22738    22715    22688 
   22661    22640    22636    22643    22655    22670    22673    22663 
   22650    22635    22624    22627    22634    22638    22639    22632 
   22617    22604    22605    22626    22638    22631    22631    22644 
   22654    22658    22662    22662    22663    22655    22634    22621 
   22619    22612    22608    22612    22609    22608    22616    22624 
   22624    22619    22617    22639    22662    22665    22666    22675 
   22680    22675    22671    22678    22693    22702    22697    22680 
   22667    22662    22647    22627    22624    22631    22631    22634 
   22638    22638    22643    22654    22647    22626    22612    22612 
   22623    22628    22619    22612    22619    22639    22666    22670 
   22650    22638    22647    22654    22658    22658    22644    22630 
   22631    22632    22623    22620    22630    22636    22643    22662 
   22677    22678    22678    22678    22675    22674    22680    22688 
   22697    22711    22724    22729    22723    22717    22719    22711 
   22694    22688    22678    22666    22662    22654    22632    22604 
   22576    22545    22522    22524    22540    22543    22543    22554 
   22562    22561    22555    22554    22558    22576    22608    22643 
   22658    22653    22636    22623    22617    22621    22631    22650 
   22675    22689    22694    22704    22717    22725    22724    22712 
   22692    22677    22675    22674    22681    22693    22686    22670 
   22667    22669    22667    22666    22665    22667    22674    22666 
   22642    22624    22623    22624    22627    22635    22631    22616 
   22619    22643    22670    22686    22685    22670    22669    22680 
   22669    22646    22630    22615    22607    22615    22616    22612 
   22616    22620    22608    22590    22586    22597    22620    22655 
   22692    22725    22759    22785    22797    22796    22783    22763 
   22734    22712    22701    22696    22693    22685    22675    22684 
   22705    22721    22715    22689    22662    22657    22674    22692 
   22694    22688    22682    22684    22684    22674    22662    22648 
   22634    22632    22638    22630    22620    22632    22643    22634 
   22620    22611    22599    22592    22588    22581    22581    22590 
   22599    22604    22605    22596    22574    22551    22543    22553 
   22558    22558    22567    22590    22611    22617    22617    22615 
   22609    22596    22570    22557    22569    22589    22599    22608 
   22626    22646    22654    22647    22638    22627    22605    22582 
   22566    22554    22551    22553    22554    22563    22576    22589 
   22609    22628    22646    22657    22659    22665    22678    22690 
   22693    22694    22712    22746    22773    22775    22762    22752 
   22751    22740    22709    22673    22646    22636    22636    22634 
   22626    22620    22611    22600    22596    22592    22577    22565 
   22570    22578    22584    22593    22601    22611    22621    22613 
   22593    22590    22600    22609    22627    22648    22662    22677 
   22689    22694    22707    22727    22734    22729    22725    22716 
   22697    22680    22671    22667    22661    22648    22634    22620 
   22612    22615    22626    22643    22655    22653    22653    22663 
   22665    22653    22640    22639    22647    22647    22639    22640 
   22657    22671    22678    22686    22690    22689    22686    22682 
   22670    22651    22636    22626    22616    22609    22592    22576 
   22581    22599    22616    22632    22638    22623    22599    22584 
   22588    22599    22600    22597    22611    22640    22671    22693 
   22697    22689    22697    22716    22716    22707    22696    22678 
   22661    22651    22643    22632    22623    22613    22605    22609 
   22620    22624    22632    22643    22654    22671    22694    22707 
   22707    22707    22705    22701    22696    22694    22700    22708 
   22716    22717    22717    22732    22746    22740    22727    22719 
   22713    22707    22698    22689    22675    22662    22663    22671 
   22674    22673    22673    22665    22646    22634    22636    22635 
   22619    22600    22588    22577    22563    22545    22534    22536 
   22538    22527    22519    22526    22536    22536    22538    22555 
   22569    22565    22563    22578    22596    22604    22611    22628 
   22648    22663    22681    22701    22717    22720    22715    22715 
   22719    22709    22686    22661    22640    22621    22607    22605 
   22611    22611    22600    22585    22582    22585    22588    22594 
   22599    22596    22608    22632    22643    22647    22662    22685 
   22713    22728    22719    22702    22688    22678    22673    22667 
   22661    22654    22648    22663    22689    22696    22685    22678 
   22674    22670    22667    22657    22647    22653    22657    22653 
   22650    22653    22658    22661    22657    22648    22640    22630 
   22624    22628    22631    22628    22617    22600    22592    22596 
   22604    22612    22620    22631    22642    22643    22639    22636 
   22631    22630    22628    22615    22597    22584    22573    22563 
   22549    22532    22530    22547    22563    22570    22577    22592 
   22619    22655    22682    22690    22698    22709    22708    22697 
   22688    22690    22698    22693    22684    22688    22704    22719 
   22727    22731    22732    22736    22739    22742    22743    22742 
   22729    22724    22731    22732    22719    22711    22711    22701 
   22678    22654    22636    22620    22599    22580    22570    22572 
   22577    22578    22572    22565    22555    22536    22524    22522 
   22515    22515    22532    22554    22573    22592    22612    22634 
   22654    22661    22665    22678    22688    22684    22686    22692 
   22685    22665    22651    22651    22661    22665    22659    22654 
   22663    22685    22701    22709    22713    22717    22713    22711 
   22719    22721    22715    22711    22721    22732    22728    22712 
   22690    22677    22677    22671    22667    22670    22677    22692 
   22702    22696    22682    22673    22661    22646    22631    22619 
   22617    22621    22616    22599    22577    22567    22567    22559 
   22555    22561    22563    22570    22590    22607    22613    22617 
   22628    22643    22653    22662    22673    22681    22684    22688 
   22696    22708    22720    22719    22708    22701    22693    22677 
   22661    22642    22619    22607    22599    22585    22572    22563 
   22561    22559    22553    22547    22551    22559    22565    22563 
   22567    22581    22594    22603    22607    22619    22636    22648 
   22661    22670    22675    22682    22678    22670    22677    22690 
   22688    22677    22678    22689    22694    22688    22675    22663 
   22661    22655    22636    22623    22624    22628    22626    22628 
   22636    22642    22644    22642    22631    22628    22638    22647 
   22654    22661    22663    22666    22674    22682    22684    22671 
   22662    22671    22684    22680    22674    22670    22670    22671 
   22661    22643    22632    22620    22609    22605    22600    22592 
   22593    22603    22612    22621    22627    22631    22647    22663 
   22666    22661    22646    22630    22619    22603    22582    22577 
   22582    22584    22576    22567    22570    22593    22611    22609 
   22613    22627    22634    22639    22644    22648    22658    22667 
   22681    22700    22709    22712    22720    22729    22734    22735 
   22743    22762    22773    22767    22756    22751    22755    22752 
   22739    22729    22732    22732    22723    22711    22702    22701 
