Origin Time       2025/06/03 22:18:00
Lat.              41.7
Long.             143.6
Depth. (km)       30
Mag.              5.2
Station Code      TKCH04
Station Lat.      43.1739
Station Long.     142.9176
Station Height(m) 48
Record Time       2025/06/03 22:18:53
Sampling Freq(Hz) 100Hz
Duration Time(s)  120
Dir.              2
Scale Factor      2942(gal)/8224139
Max. Acc. (gal)   0.337
Last Correction   2025/06/03 22:18:54
Memo.             
[...]
    3127     3129     3133     3133     3119     3094     3073     3071 
    3087     3121     3141     3126     3103     3080     3060     3073 
    3118     3150     3154     3154     3157     3137     3100     3079 
    3078     3094     3113     3109     3091     3072     3048     3034 
    3038     3055     3065     3052     3030     3033     3060     3111 
    3180     3223     3225     3211     3215     3234     3252     3252 
    3235     3223     3223     3207     3165     3140     3150     3148 
    3117     3083     3063     3064     3080     3096     3109     3113 
    3119     3148     3196     3233     3219     3173     3149     3157 
    3173     3177     3175     3164     3133     3105     3094     3091 
    3091     3087     3073     3061     3057     3056     3067     3078 
    3079     3105     3153     3160     3105     3045     3018     3019 
    3036     3044     3028     3003     2992     3006     3041     3073 
    3082     3072     3071     3084     3109     3142     3190     3238 
    3256     3241     3226     3214     3194     3173     3145     3125 
    3127     3127     3111     3092     3056     3018     3011     3024 
    3029     3040     3076     3137     3204     3265     3312     3339 
    3337     3310     3271     3219     3167     3129     3082     3011 
    2978     3014     3051     3053     3079     3133     3180     3213 
    3221     3206     3176     3148     3118     3088     3091     3109 
    3080     3015     2978     2979     2974     2953     2951     2965 
    2972     2982     3026     3094     3125     3111     3125     3179 
    3225     3258     3294     3312     3314     3307     3291     3261 
    3230     3229     3242     3234     3210     3188     3172     3167 
    3173     3186     3192     3188     3176     3146     3118     3122 
    3134     3132     3123     3095     3049     3025     3030     3040 
    3032     3011     2999     3002     3001     2986     2972     2987 
    3018     3036     3042     3055     3083     3126     3165     3172 
    3142     3117     3113     3111     3109     3119     3136     3130 
    3099     3071     3064     3063     3064     3083     3106     3119 
    3127     3148     3188     3242     3268     3253     3233     3234 
    3257     3276     3265     3222     3160     3099     3067     3064 
    3064     3046     3018     2983     2943     2928     2951     2979 
    2994     3003     3026     3076     3138     3186     3184     3130 
    3078     3069     3078     3068     3051     3042     3045     3053 
    3065     3091     3132     3176     3215     3242     3261     3276 
    3277     3257     3237     3248     3280     3295     3277     3245 
    3218     3192     3159     3132     3118     3118     3133     3153 
    3159     3138     3111     3100     3098     3086     3078     3080 
    3069     3055     3061     3068     3055     3041     3037     3030 
    3017     3011     3025     3042     3049     3055     3067     3080 
    3096     3118     3134     3115     3073     3057     3083     3119 
    3123     3096     3086     3119     3173     3208     3211     3202 
    3196     3180     3156     3138     3110     3073     3061     3079 
    3088     3083     3084     3092     3095     3106     3118     3123 
    3130     3133     3129     3144     3176     3204     3221     3213 
    3184     3180     3203     3199     3156     3106     3064     3034 
    3024     3022     3021     3036     3068     3088     3095     3125 
    3154     3145     3130     3142     3161     3171     3163     3172 
    3211     3226     3214     3245     3308     3329     3303     3284 
    3280     3257     3204     3152     3113     3087     3056     3011 
    2971     2956     2972     3002     3017     3029     3069     3122 
    3156     3171     3177     3169     3156     3144     3109     3056 
    3034     3068     3111     3119     3100     3084     3082     3098 
    3129     3154     3163     3161     3156     3150     3164     3188 
    3192     3179     3164     3152     3159     3181     3173     3114 
    3055     3024     3006     3005     3007     2994     2984     2994 
    3017     3065     3137     3194     3200     3165     3141     3148 
    3152     3149     3154     3149     3123     3106     3106     3109 
    3096     3076     3078     3109     3141     3148     3136     3136 
    3156     3180     3190     3173     3138     3110     3090     3061 
    3036     3038     3059     3079     3107     3137     3153     3164 
    3164     3152     3136     3110     3090     3094     3098     3088 
    3087     3098     3117     3146     3167     3172     3181     3195 
    3210     3238     3272     3283     3271     3249     3230     3213 
    3168     3113     3096     3099     3067     3032     3045     3073 
    3064     3033     3009     2994     2988     2986     2982     2976 
    2979     3017     3073     3109     3125     3164     3229     3277 
    3281     3252     3202     3161     3145     3138     3140     3134 
    3103     3068     3069     3117     3157     3161     3163     3196 
    3233     3240     3219     3188     3153     3138     3181     3250 
    3268     3231     3181     3132     3084     3049     3025     2995 
    2971     2975     2979     2970     2987     3042     3115     3191 
    3264     3316     3318     3273     3215     3175     3159     3127 
    3082     3064     3049     3013     2978     2945     2914     2914 
    2947     2972     2995     3046     3110     3169     3214     3222 
    3186     3142     3141     3180     3198     3181     3164     3134 
    3091     3080     3100     3099     3061     3048     3106     3204 
    3277     3285     3249     3213     3168     3110     3087     3087 
    3064     3028     2988     2963     2955     2940     2928     2933 
    2937     2956     3010     3061     3090     3118     3156     3181 
    3177     3161     3153     3150     3168     3215     3250     3260 
    3287     3331     3352     3334     3285     3218     3140     3060 
    3018     3030     3065     3105     3157     3204     3210     3187 
    3161     3133     3117     3141     3204     3260     3269     3264 
    3265     3252     3222     3206     3206     3204     3196     3181 
    3152     3105     3057     3024     2995     2972     2964     2951 
    2941     2967     3006     3029     3072     3125     3136     3132 
    3138     3114     3068     3059     3068     3046     3011     3009 
    3024     3036     3048     3064     3087     3113     3134     3163 
    3181     3157     3110     3076     3060     3063     3080     3083 
    3063     3049     3053     3059     3098     3169     3219     3221 
    3199     3183     3180     3203     3256     3306     3334     3349 
    3346     3315     3256     3196     3168     3156     3133     3103 
    3060     3003     2967     3006     3105     3173     3168     3137 
    3136     3154     3145     3113     3086     3052     3026     3030 
    3045     3056     3032     2965     2907     2886     2901     2945 
    3001     3052     3083     3102     3119     3119     3123     3140 
    3127     3094     3076     3075     3071     3052     3046     3078 
    3127     3157     3152     3142     3150     3144     3125     3132 
    3141     3123     3103     3109     3119     3125     3140     3160 
    3177     3213     3285     3361     3381     3356     3325     3296 
    3273     3283     3326     3353     3338     3312     3287     3246 
    3190     3122     3064     3032     3003     2957     2909     2907 
    2970     3051     3096     3095     3060     3025     3002     2978 
    2965     2967     2960     2947     2934     2940     2972     3003 
    3021     3051     3091     3137     3198     3253     3283     3295 
    3280     3246     3217     3198     3186     3160     3107     3064 
    3044     3032     3051     3087     3099     3096     3088     3073 
    3086     3099     3073     3063     3100     3149     3183     3188 
    3161     3127     3099     3053     3006     3003     3055     3102 
    3107     3115     3172     3253     3308     3307     3276     3258 
    3246     3225     3210     3204     3191     3180     3177     3165 
    3144     3138     3145     3146     3148     3157     3159     3150 
    3144     3157     3175     3149     3109     3098     3099     3094 
    3113     3165     3186     3142     3103     3105     3109     3103 
    3109     3117     3107     3087     3087     3130     3190     3213 
    3196     3176     3150     3123     3118     3118     3096     3067 
    3046     3041     3026     2978     2945     2982     3048     3095 
    3117     3113     3088     3061     3049     3056     3083     3126 
    3179     3221     3252     3279     3284     3261     3222     3168 
    3113     3076     3075     3111     3141     3115     3064     3049 
    3076     3082     3044     3017     3021     3028     3026     3019 
    3013     3017     3021     3003     2970     2965     3002     3044 
    3091     3153     3207     3227     3215     3218     3269     3329 
    3358     3375     3388     3383     3376     3372     3358     3343 
    3316     3262     3210     3173     3153     3146     3132     3109 
    3087     3059     3026     3001     2978     2955     2945     2974 
    3030     3067     3057     3029     3002     2974     2960     2968 
    2982     3009     3061     3119     3156     3184     3210     3202 
    3163     3136     3134     3145     3156     3141     3100     3061 
    3044     3025     2990     2972     2992     3005     2998     3010 
    3022     3007     2992     3010     3046     3065     3057     3055 
    3079     3140     3222     3268     3254     3233     3218     3184 
    3156     3164     3163     3137     3127     3141     3152     3134 
    3102     3103     3137     3152     3140     3125     3109     3079 
    3053     3053     3064     3065     3063     3057     3055     3064 
    3092     3136     3187     3235     3261     3265     3279     3294 
    3273     3221     3184     3200     3246     3288     3300     3249 
    3141     3045     3015     3021     2994     2943     2901     2862 
    2822     2814     2841     2864     2879     2913     2968     3022 
    3069     3122     3181     3217     3225     3242     3271     3272 
    3235     3202     3195     3191     3181     3188     3188     3163 
    3110     3024     2934     2899     2913     2934     2955     3013 
    3121     3234     3331     3423     3507     3555     3551     3512 
    3468     3407     3311     3204     3118     3037     2956     2891 
    2847     2832     2862     2949     3076     3180     3223     3230 
    3240     3262     3262     3240     3254     3314     3350     3342 
    3298     3225     3134     3049     2967     2886     2840     2875 
    2990     3130     3256     3331     3349     3353     3356     3321 
    3244     3164     3115     3071     3001     2936     2893     2859 
    2818     2779     2764     2758     2731     2708     2710     2721 
    2729     2768     2864     2979     3082     3203     3343     3451 
    3518     3553     3576     3615     3662     3684     3696     3721 
    3754     3748     3686     3609     3516     3357     3160     2983 
    2857     2779     2700     2589     2506     2479     2469     2427 
    2344     2270     2268     2357     2490     2608     2700     2812 
    2978     3171     3349     3499     3615     3699     3753     3758 
    3742     3761     3811     3831     3793     3715     3616     3503 
    3380     3267     3167     3055     2933     2812     2705     2637 
    2597     2566     2566     2610     2689     2782     2855     2890 
    2922     2979     3019     3022     3042     3107     3196     3321 
    3474     3611     3704     3770     3859     3969     4023     4005 
    3928     3797     3662     3526     3342     3145     3001     2936 
    2936     2964     2998     3028     3026     2964     2835     2658 
    2496     2412     2425     2484     2535     2606     2733     2890 
    3046     3221     3422     3589     3672     3682     3658     3608 
    3539     3483     3453     3412     3358     3300     3206     3072 
    2933     2789     2648     2560     2552     2593     2627     2624 
    2612     2659     2787     2910     2947     2959     3024     3107 
    3150     3160     3164     3156     3123     3109     3176     3308 
    3453     3591     3699     3738     3735     3746     3748     3707 
    3607     3437     3230     3060     2941     2833     2754     2722 
    2695     2640     2586     2574     2592     2636     2736     2879 
    3006     3092     3160     3214     3246     3264     3252     3176 
    3059     2959     2907     2914     2971     3063     3180     3310 
    3399     3400     3364     3330     3271     3175     3073     3002 
    2948     2864     2751     2666     2629     2613     2620     2693 
    2816     2938     3045     3127     3208     3334     3495     3634 
    3711     3732     3684     3568     3433     3281     3086     2909 
    2816     2814     2876     2936     2936     2890     2863     2903 
    2983     3049     3105     3159     3217     3287     3361     3418 
    3434     3391     3294     3169     3055     2974     2930     2929 
    2957     3005     3103     3260     3381     3422     3418     3377 
    3307     3237     3179     3150     3132     3083     3011     2937 
    2856     2783     2733     2677     2625     2620     2637     2683 
    2791     2928     3091     3333     3616     3859     4013     4064 
    4041     4016     3964     3802     3553     3323     3159     3044 
    2941     2828     2736     2716     2760     2826     2887     2929 
    2978     3015     2982     2893     2843     2867     2936     2997 
    3015     2987     2943     2925     2937     2945     2968     3061 
    3227     3412     3568     3674     3739     3781     3786     3761 
    3747     3765     3769     3690     3530     3353     3181     2995 
    2818     2691     2590     2484     2397     2376     2404     2454 
    2550     2702     2878     3067     3244     3319     3268     3153 
    3021     2883     2776     2748     2812     2930     3071     3208 
    3302     3322     3291     3233     3186     3192     3244     3272 
    3271     3294     3311     3257     3144     3051     2991     2913 
    2836     2816     2826     2853     2925     3013     3067     3084 
    3087     3095     3129     3199     3303     3418     3492     3500 
    3460     3370     3235     3111     3046     3029     3051     3129 
    3262     3397     3495     3574     3613     3546     3393     3277 
    3221     3161     3119     3130     3149     3181     3252     3284 
    3229     3138     3045     2951     2878     2855     2866     2866 
    2862     2883     2897     2857     2787     2751     2782     2836 
    2866     2909     3007     3144     3252     3289     3295     3315 
    3348     3379     3389     3349     3258     3141     3009     2878 
    2791     2779     2836     2928     3010     3072     3133     3165 
    3148     3141     3192     3253     3244     3149     3042     2992 
    2974     2943     2922     2944     3002     3049     3086     3167 
    3295     3437     3559     3618     3608     3541     3430     3316 
    3229     3176     3153     3149     3183     3253     3326     3358 
    3306     3194     3096     3007     2925     2894     2913     2941 
    2953     2953     2961     3006     3084     3154     3198     3225 
    3211     3136     3024     2913     2856     2887     2963     3010 
    3019     3029     3073     3137     3186     3217     3262     3341 
    3431     3514     3572     3568     3496     3418     3373     3337 
    3285     3219     3159     3118     3073     3001     2925     2862 
    2803     2763     2763     2829     2948     3060     3138     3208 
    3272     3307     3314     3283     3208     3121     3042     2953 
    2855     2805     2840     2911     2974     3040     3095     3114 
    3132     3184     3240     3262     3261     3262     3276     3272 
    3219     3159     3154     3198     3215     3180     3129     3094 
    3082     3067     3019     2980     3010     3092     3163     3187 
    3194     3204     3181     3127     3084     3049     2995     2924 
    2859     2808     2758     2718     2740     2837     2963     3061 
    3126     3184     3237     3275     3288     3307     3348     3379 
    3379     3357     3318     3258     3187     3123     3091     3079 
    3063     3052     3044     2999     2921     2879     2916     2976 
    3014     3051     3083     3068     3017     2953     2875     2799 
    2755     2767     2852     2952     3017     3067     3138     3227 
    3295     3321     3346     3404     3470     3539     3605     3613 
    3542     3433     3319     3221     3169     3157     3133     3073 
    2994     2941     2948     2961     2945     2925     2907     2895 
    2894     2902     2920     2953     3014     3091     3141     3165 
    3215     3268     3281     3292     3342     3410     3460     3495 
    3530     3557     3553     3518     3478     3412     3280     3126 
    3019     2960     2910     2851     2793     2743     2695     2679 
    2702     2735     2785     2857     2926     2990     3063     3152 
    3240     3292     3302     3299     3316     3343     3349     3300 
    3208     3137     3123     3141     3172     3202     3191     3146 
    3102     3037     2934     2867     2870     2898     2926     2956 
    2974     2987     3014     3032     3026     3007     2965     2897 
    2844     2856     2932     3018     3100     3187     3225     3200 
    3181     3169     3140     3126     3126     3094     3030     2964 
    2907     2851     2791     2748     2749     2803     2884     2961 
    3019     3049     3045     3038     3046     3044     3036     3040 
    3038     3014     2976     2959     2980     3019     3068     3144 
    3206     3230     3254     3296     3352     3449     3586     3707 
    3763     3762     3721     3646     3530     3407     3312     3240 
    3176     3136     3127     3144     3171     3198     3245     3325 
    3404     3465     3520     3557     3561     3551     3531     3505 
    3516     3541     3514     3446     3400     3383     3338     3260 
    3210     3211     3222     3215     3213     3214     3184     3130 
    3083     3042     3024     3037     3052     3041     3011     2988 
    2997     3032     3051     3030     2983     2937     2928     2943 
    2933     2899     2887     2910     2955     3014     3065     3092 
    3091     3049     2959     2857     2793     2768     2764     2772 
    2791     2805     2793     2768     2763     2789     2825     2847 
    2856     2897     2976     3065     3138     3199     3256     3299 
    3308     3291     3285     3314     3364     3438     3543     3645 
    3701     3713     3707     3688     3634     3530     3384     3219 
    3082     3029     3038     3033     2994     2948     2917     2905 
    2895     2878     2859     2852     2864     2883     2886     2863 
    2830     2816     2812     2818     2862     2948     3086     3254 
    3392     3474     3501     3473     3438     3407     3342     3262 
    3204     3146     3064     2957     2839     2725     2629     2569 
