Origin Time       2025/06/03 22:18:00
Lat.              41.7
Long.             143.6
Depth. (km)       30
Mag.              5.2
Station Code      TKCH08
Station Lat.      42.4865
Station Long.     143.1520
Station Height(m) 360
Record Time       2025/06/03 22:18:42
Sampling Freq(Hz) 100Hz
Duration Time(s)  120
Dir.              6
Scale Factor      7845(gal)/8223790
Max. Acc. (gal)   2.112
Last Correction   2025/06/03 22:18:42
Memo.             
[...]
  -21169   -21174   -21178   -21178   -21176   -21169   -21168   -21172 
  -21178   -21181   -21176   -21168   -21168   -21172   -21176   -21174 
  -21172   -21174   -21176   -21176   -21174   -21170   -21173   -21178 
  -21176   -21170   -21169   -21173   -21180   -21177   -21170   -21169 
  -21173   -21180   -21178   -21169   -21166   -21173   -21180   -21181 
  -21174   -21168   -21170   -21177   -21182   -21180   -21172   -21170 
  -21172   -21174   -21177   -21176   -21173   -21173   -21172   -21173 
  -21176   -21176   -21176   -21172   -21170   -21170   -21170   -21174 
  -21177   -21172   -21170   -21172   -21173   -21178   -21177   -21172 
  -21172   -21173   -21176   -21176   -21173   -21174   -21173   -21173 
  -21177   -21176   -21173   -21173   -21172   -21174   -21177   -21170 
  -21169   -21173   -21176   -21177   -21172   -21169   -21173   -21176 
  -21177   -21173   -21168   -21170   -21176   -21178   -21174   -21170 
  -21172   -21176   -21177   -21176   -21169   -21170   -21180   -21177 
  -21168   -21168   -21174   -21181   -21177   -21169   -21169   -21172 
  -21174   -21178   -21178   -21174   -21168   -21168   -21176   -21176 
  -21172   -21170   -21172   -21173   -21174   -21176   -21174   -21172 
  -21172   -21173   -21172   -21174   -21174   -21173   -21174   -21174 
  -21176   -21176   -21170   -21173   -21178   -21176   -21173   -21176 
  -21174   -21173   -21172   -21173   -21178   -21177   -21173   -21172 
  -21170   -21173   -21178   -21178   -21174   -21169   -21168   -21173 
  -21177   -21174   -21169   -21169   -21174   -21178   -21174   -21170 
  -21174   -21180   -21178   -21169   -21170   -21174   -21176   -21178 
  -21176   -21170   -21170   -21172   -21176   -21181   -21176   -21170 
  -21170   -21170   -21174   -21176   -21176   -21177   -21173   -21169 
  -21170   -21173   -21180   -21180   -21173   -21169   -21170   -21177 
  -21177   -21173   -21174   -21176   -21173   -21174   -21174   -21174 
  -21177   -21173   -21169   -21174   -21176   -21173   -21172   -21170 
  -21173   -21176   -21174   -21173   -21172   -21173   -21174   -21174 
  -21177   -21174   -21172   -21173   -21172   -21176   -21180   -21177 
  -21172   -21166   -21166   -21176   -21181   -21180   -21174   -21166 
  -21170   -21180   -21180   -21176   -21172   -21169   -21170   -21170 
  -21174   -21177   -21174   -21172   -21169   -21170   -21177   -21178 
  -21174   -21172   -21168   -21172   -21177   -21176   -21174   -21174 
  -21173   -21176   -21174   -21174   -21176   -21173   -21172   -21173 
  -21172   -21172   -21174   -21176   -21174   -21173   -21173   -21173 
  -21173   -21174   -21174   -21176   -21177   -21176   -21174   -21174 
  -21172   -21176   -21177   -21170   -21170   -21172   -21174   -21178 
  -21176   -21172   -21173   -21173   -21172   -21173   -21173   -21178 
  -21178   -21174   -21173   -21172   -21174   -21178   -21173   -21172 
  -21176   -21176   -21177   -21173   -21172   -21173   -21173   -21172 
  -21170   -21172   -21177   -21177   -21172   -21172   -21173   -21174 
  -21174   -21174   -21177   -21174   -21169   -21170   -21173   -21176 
  -21180   -21174   -21169   -21170   -21173   -21178   -21181   -21176 
  -21170   -21170   -21172   -21173   -21174   -21177   -21174   -21172 
  -21170   -21169   -21173   -21180   -21177   -21172   -21170   -21172 
  -21177   -21177   -21176   -21177   -21176   -21174   -21173   -21170 
  -21176   -21177   -21176   -21177   -21173   -21170   -21173   -21177 
  -21178   -21176   -21169   -21170   -21174   -21177   -21177   -21174 
  -21173   -21172   -21172   -21174   -21176   -21173   -21176   -21176 
  -21173   -21174   -21173   -21173   -21177   -21176   -21176   -21173 
  -21169   -21169   -21176   -21178   -21177   -21173   -21170   -21166 
  -21168   -21177   -21178   -21176   -21176   -21174   -21170   -21170 
  -21173   -21176   -21174   -21170   -21166   -21166   -21174   -21182 
  -21178   -21170   -21165   -21168   -21177   -21180   -21176   -21174 
  -21174   -21173   -21172   -21170   -21177   -21178   -21173   -21170 
  -21169   -21173   -21180   -21181   -21177   -21172   -21172   -21176 
  -21177   -21173   -21170   -21169   -21173   -21180   -21177   -21170 
  -21168   -21170   -21177   -21181   -21176   -21172   -21170   -21172 
  -21174   -21177   -21178   -21173   -21166   -21169   -21177   -21180 
  -21177   -21172   -21173   -21173   -21170   -21172   -21174   -21173 
  -21174   -21172   -21172   -21177   -21178   -21176   -21174   -21174 
  -21176   -21177   -21178   -21178   -21172   -21169   -21174   -21174 
  -21173   -21173   -21173   -21177   -21176   -21173   -21173   -21173 
  -21176   -21176   -21173   -21174   -21172   -21170   -21177   -21176 
  -21172   -21173   -21173   -21173   -21173   -21172   -21174   -21173 
  -21172   -21170   -21169   -21173   -21178   -21178   -21174   -21172 
  -21173   -21178   -21178   -21173   -21172   -21174   -21178   -21176 
  -21169   -21173   -21176   -21172   -21169   -21172   -21177   -21177 
  -21172   -21170   -21172   -21176   -21180   -21174   -21170   -21173 
  -21174   -21177   -21174   -21170   -21173   -21174   -21173   -21174 
  -21173   -21172   -21173   -21174   -21176   -21173   -21170   -21173 
  -21173   -21173   -21176   -21176   -21174   -21172   -21169   -21174 
  -21176   -21174   -21176   -21174   -21174   -21173   -21172   -21177 
  -21178   -21173   -21172   -21170   -21172   -21176   -21177   -21177 
  -21174   -21170   -21170   -21173   -21176   -21174   -21172   -21173 
  -21177   -21174   -21170   -21173   -21181   -21181   -21173   -21169 
  -21172   -21177   -21180   -21177   -21172   -21169   -21169   -21174 
  -21180   -21177   -21172   -21172   -21174   -21176   -21173   -21172 
  -21177   -21178   -21176   -21172   -21169   -21176   -21182   -21176 
  -21169   -21169   -21176   -21182   -21176   -21172   -21174   -21173 
  -21174   -21178   -21173   -21172   -21172   -21172   -21177   -21180 
  -21176   -21170   -21170   -21176   -21180   -21178   -21174   -21168 
  -21166   -21174   -21178   -21176   -21173   -21172   -21173   -21172 
  -21172   -21177   -21178   -21174   -21169   -21165   -21172   -21181 
  -21180   -21173   -21169   -21170   -21177   -21181   -21180   -21172 
  -21165   -21172   -21178   -21176   -21174   -21170   -21169   -21177 
  -21178   -21173   -21172   -21173   -21178   -21178   -21172   -21172 
  -21172   -21176   -21178   -21174   -21172   -21174   -21178   -21178 
  -21174   -21172   -21174   -21176   -21177   -21173   -21170   -21173 
  -21176   -21174   -21174   -21172   -21172   -21176   -21177   -21176 
  -21172   -21170   -21176   -21178   -21177   -21176   -21169   -21170 
  -21177   -21178   -21176   -21172   -21170   -21174   -21174   -21174 
  -21174   -21172   -21174   -21177   -21173   -21172   -21172   -21173 
  -21178   -21177   -21173   -21172   -21177   -21181   -21177   -21169 
  -21173   -21180   -21178   -21172   -21169   -21170   -21177   -21182 
  -21177   -21168   -21165   -21176   -21182   -21178   -21170   -21169 
  -21173   -21174   -21174   -21180   -21180   -21173   -21170   -21174 
  -21178   -21177   -21174   -21177   -21176   -21174   -21173   -21173 
  -21180   -21181   -21173   -21172   -21174   -21176   -21176   -21174 
  -21176   -21178   -21173   -21170   -21172   -21176   -21180   -21176 
  -21172   -21173   -21172   -21172   -21176   -21177   -21176   -21170 
  -21169   -21173   -21174   -21177   -21178   -21173   -21172   -21173 
  -21174   -21178   -21177   -21172   -21172   -21173   -21173   -21173 
  -21172   -21174   -21178   -21177   -21173   -21170   -21173   -21177 
  -21174   -21176   -21178   -21174   -21170   -21172   -21174   -21180 
  -21180   -21173   -21169   -21166   -21170   -21178   -21182   -21178 
  -21173   -21168   -21169   -21174   -21180   -21180   -21173   -21169 
  -21166   -21169   -21181   -21182   -21173   -21166   -21166   -21174 
  -21182   -21178   -21170   -21169   -21173   -21177   -21176   -21173 
  -21173   -21172   -21172   -21174   -21174   -21173   -21174   -21176 
  -21174   -21174   -21176   -21173   -21170   -21172   -21174   -21177 
  -21177   -21172   -21169   -21172   -21173   -21178   -21182   -21173 
  -21168   -21169   -21173   -21177   -21176   -21172   -21170   -21169 
  -21169   -21173   -21176   -21174   -21172   -21172   -21173   -21172 
  -21176   -21177   -21174   -21174   -21176   -21173   -21172   -21170 
  -21170   -21176   -21174   -21169   -21168   -21169   -21176   -21177 
  -21173   -21173   -21172   -21173   -21176   -21173   -21173   -21174 
  -21173   -21172   -21169   -21170   -21177   -21176   -21172   -21170 
  -21172   -21176   -21176   -21176   -21173   -21168   -21169   -21177 
  -21177   -21174   -21170   -21170   -21176   -21176   -21176   -21176 
  -21173   -21173   -21173   -21172   -21176   -21176   -21170   -21168 
  -21169   -21174   -21176   -21170   -21169   -21169   -21173   -21180 
  -21177   -21172   -21173   -21176   -21177   -21176   -21173   -21174 
  -21172   -21168   -21173   -21177   -21177   -21173   -21166   -21172 
  -21180   -21178   -21174   -21170   -21170   -21178   -21180   -21176 
  -21176   -21173   -21172   -21170   -21172   -21176   -21174   -21173 
  -21174   -21173   -21174   -21174   -21172   -21174   -21176   -21170 
  -21170   -21173   -21174   -21174   -21172   -21174   -21177   -21173 
  -21170   -21172   -21176   -21178   -21177   -21173   -21166   -21166 
  -21177   -21180   -21172   -21166   -21165   -21172   -21180   -21180 
  -21177   -21173   -21170   -21173   -21173   -21174   -21177   -21178 
  -21174   -21166   -21168   -21178   -21180   -21174   -21173   -21170 
  -21172   -21177   -21176   -21177   -21177   -21172   -21174   -21177 
  -21177   -21174   -21170   -21169   -21173   -21176   -21176   -21172 
  -21168   -21170   -21177   -21181   -21177   -21168   -21166   -21172 
  -21176   -21178   -21173   -21165   -21168   -21172   -21176   -21180 
  -21178   -21174   -21169   -21168   -21173   -21178   -21178   -21172 
  -21166   -21170   -21176   -21178   -21176   -21172   -21170   -21173 
  -21170   -21173   -21177   -21174   -21173   -21173   -21172   -21173 
  -21172   -21170   -21173   -21176   -21173   -21169   -21170   -21177 
  -21177   -21174   -21176   -21172   -21168   -21170   -21173   -21177 
  -21178   -21170   -21166   -21170   -21174   -21176   -21173   -21170 
  -21170   -21173   -21176   -21174   -21170   -21172   -21173   -21173 
  -21174   -21172   -21172   -21176   -21174   -21173   -21173   -21174 
  -21180   -21174   -21169   -21169   -21174   -21178   -21174   -21166 
  -21170   -21176   -21174   -21176   -21176   -21173   -21170   -21169 
  -21174   -21178   -21174   -21172   -21170   -21172   -21178   -21178 
  -21173   -21168   -21169   -21177   -21178   -21174   -21172   -21170 
  -21170   -21176   -21177   -21177   -21173   -21170   -21172   -21172 
  -21170   -21174   -21177   -21174   -21169   -21169   -21177   -21180 
  -21173   -21168   -21169   -21176   -21180   -21176   -21172   -21172 
  -21172   -21174   -21176   -21170   -21168   -21169   -21177   -21180 
  -21170   -21166   -21168   -21173   -21182   -21180   -21169   -21166 
  -21169   -21176   -21178   -21176   -21174   -21170   -21169   -21176 
  -21177   -21176   -21176   -21170   -21170   -21177   -21176   -21176 
  -21178   -21176   -21173   -21172   -21174   -21177   -21176   -21174 
  -21170   -21172   -21177   -21178   -21173   -21169   -21168   -21174 
  -21178   -21174   -21170   -21166   -21169   -21178   -21182   -21176 
  -21165   -21163   -21176   -21184   -21180   -21173   -21166   -21168 
  -21173   -21174   -21174   -21173   -21172   -21173   -21173   -21172 
  -21174   -21181   -21180   -21170   -21162   -21168   -21178   -21182 
  -21177   -21166   -21166   -21177   -21180   -21177   -21173   -21169 
  -21173   -21176   -21173   -21173   -21173   -21173   -21174   -21174 
  -21173   -21170   -21170   -21176   -21178   -21177   -21173   -21168 
  -21169   -21176   -21177   -21173   -21169   -21172   -21176   -21173 
  -21173   -21176   -21174   -21174   -21173   -21170   -21169   -21174 
  -21180   -21177   -21170   -21173   -21176   -21174   -21174   -21174 
  -21172   -21176   -21177   -21176   -21174   -21170   -21172   -21178 
  -21180   -21176   -21166   -21166   -21178   -21184   -21177   -21169 
  -21166   -21173   -21177   -21177   -21174   -21169   -21170   -21173 
  -21169   -21172   -21177   -21173   -21170   -21170   -21169   -21170 
  -21174   -21176   -21173   -21170   -21172   -21172   -21173   -21174 
  -21173   -21173   -21174   -21173   -21174   -21178   -21176   -21172 
  -21172   -21176   -21180   -21176   -21170   -21170   -21172   -21177 
  -21176   -21168   -21169   -21176   -21178   -21176   -21173   -21174 
  -21178   -21178   -21181   -21181   -21180   -21181   -21182   -21184 
  -21188   -21186   -21186   -21192   -21190   -21192   -21200   -21211 
  -21216   -21215   -21212   -21207   -21197   -21186   -21176   -21163 
  -21153   -21146   -21155   -21176   -21186   -21178   -21151   -21115 
  -21087   -21065   -21033   -20999   -21000   -21076   -21224   -21393 
  -21509   -21532   -21508   -21486   -21436   -21294   -21064   -20864 
  -20841   -21007   -21235   -21354   -21250   -20970   -20725   -20684 
  -20779   -20776   -20634   -20615   -20950   -21493   -21816   -21683 
  -21313   -21091   -21162   -21381   -21497   -21375   -21107   -20910 
  -20889   -20953   -20965   -20915   -20884   -20937   -21051   -21192 
  -21458   -22029   -22832   -23388   -23168   -22229   -21284   -20981 
  -21280   -21591   -21458   -21055   -20915   -21178   -21455   -21342 
  -20815   -20200   -19904   -20075   -20532   -20984   -21186   -21116 
  -21091   -21335   -21478   -21011   -20098   -19450   -19496   -19959 
  -20250   -20189   -20243   -20806   -21509   -21589   -20875   -20106 
  -20205   -21263   -22427   -22848   -22512   -22000   -21775   -21888 
  -22041   -21813   -21138   -20490   -20407   -20862   -21316   -21375 
  -21132   -20904   -20895   -21091   -21361   -21568   -21647   -21645 
  -21631   -21640   -21732   -21809   -21582   -20996   -20456   -20422 
  -20889   -21361   -21389   -21104   -21047   -21467   -21925   -21737 
  -20796   -19846   -19823   -20844   -22000   -22257   -21517   -20773 
  -20908   -21525   -21551   -20725   -19908   -20074   -21224   -22253 
  -22129   -21138   -20502   -20926   -21871   -22276   -21756   -20952 
  -20734   -21255   -21917   -22103   -21694   -21014   -20505   -20412 
  -20628   -20850   -20933   -21023   -21278   -21563   -21593   -21276 
  -20835   -20569   -20621   -20958   -21377   -21674   -21864   -21980 
  -21956   -21768   -21421   -20964   -20603   -20564   -20800   -21026 
  -21018   -20779   -20498   -20444   -20700   -21069   -21305   -21321 
  -21222   -21162   -21157   -21104   -20992   -20884   -20788   -20679 
  -20617   -20698   -20907   -21108   -21131   -20991   -20988   -21324 
  -21802   -22056   -21905   -21492   -21234   -21471   -22068   -22423 
  -22017   -21043   -20325   -20478   -21296   -21968   -21872   -21162 
  -20567   -20672   -21354   -21926   -21830   -21166   -20564   -20542 
  -20992   -21374   -21327   -20943   -20652   -20850   -21456   -21930 
  -21834   -21224   -20545   -20272   -20541   -21028   -21271   -21126 
  -20838   -20742   -20933   -21185   -21249   -21161   -21151   -21366 
  -21717   -22000   -22129   -22114   -21952   -21641   -21224   -20815 
  -20569   -20495   -20449   -20378   -20449   -20825   -21307   -21462 
  -21131   -20649   -20514   -20911   -21552   -21973   -21960   -21691 
  -21481   -21405   -21320   -21136   -20954   -20931   -21042   -21093 
  -21010   -20885   -20861   -20997   -21178   -21222   -21061   -20787 
  -20599   -20686   -21020   -21361   -21463   -21301   -21082   -21060 
  -21324   -21751   -22052   -21968   -21498   -20962   -20729   -20835 
  -21007   -20988   -20769   -20595   -20726   -21107   -21397   -21385 
  -21186   -21042   -21109   -21404   -21747   -21826   -21566   -21313 
  -21459   -21895   -22084   -21675   -20896   -20305   -20252   -20622 
  -21004   -21097   -20945   -20839   -21004   -21363   -21648   -21675 
  -21487   -21290   -21226   -21236   -21180   -20991   -20772   -20722 
  -20868   -20976   -20826   -20499   -20344   -20595   -21108   -21482 
  -21469   -21224   -21096   -21251   -21601   -21879   -21863   -21598 
  -21325   -21219   -21246   -21250   -21111   -20871   -20683   -20622 
  -20625   -20621   -20696   -21091   -21837   -22495   -22518   -21907 
  -21220   -20960   -21162   -21416   -21301   -20902   -20710   -20985 
  -21419   -21558   -21340   -21016   -20827   -20877   -21115   -21369 
  -21489   -21448   -21320   -21222   -21262   -21439   -21567   -21474 
  -21234   -21074   -21135   -21332   -21398   -21172   -20788   -20524 
  -20493   -20603   -20787   -21030   -21222   -21253   -21195   -21236 
  -21483   -21810   -21906   -21573   -20991   -20623   -20722   -21080 
  -21316   -21220   -20884   -20592   -20579   -20853   -21251   -21563 
  -21659   -21579   -21443   -21324   -21197   -21042   -20945   -20993 
  -21100   -21087   -20933   -20817   -20880   -21023   -21023   -20810 
  -20556   -20529   -20780   -21042   -21064   -20922   -20893   -21066 
  -21212   -21108   -20889   -20952   -21440   -21957   -21971   -21454 
  -20912   -20818   -21114   -21317   -21163   -20929   -21037   -21469 
  -21764   -21628   -21266   -21100   -21309   -21652   -21728   -21473 
  -21200   -21246   -21658   -22131   -22254   -21861   -21242   -20931 
  -21177   -21662   -21779   -21316   -20781   -20773   -21203   -21487 
  -21276   -20756   -20436   -20632   -21112   -21332   -21050   -20583 
  -20372   -20486   -20656   -20628   -20463   -20460   -20749   -21155 
  -21401   -21346   -21103   -20961   -21084   -21301   -21344   -21217 
  -21173   -21369   -21681   -21867   -21828   -21674   -21546   -21455 
  -21344   -21205   -21120   -21159   -21209   -21123   -20981   -21003 
  -21200   -21305   -21118   -20792   -20672   -20925   -21415   -21797 
  -21795   -21454   -21123   -21115   -21339   -21420   -21138   -20683 
  -20493   -20808   -21402   -21752   -21520   -20923   -20563   -20807 
  -21404   -21745   -21493   -20881   -20468   -20592   -21035   -21215 
  -20838   -20278   -20132   -20582   -21269   -21658   -21581   -21357 
  -21328   -21514   -21694   -21664   -21432   -21208   -21192   -21363 
  -21528   -21535   -21389   -21267   -21361   -21621   -21763   -21570 
  -21118   -20714   -20634   -20884   -21216   -21357   -21254   -21080 
  -21026   -21120   -21243   -21277   -21266   -21358   -21579   -21759 
  -21686   -21388   -21132   -21087   -21118   -20987   -20734   -20680 
  -20968   -21354   -21485   -21261   -20912   -20725   -20730   -20765 
  -20734   -20745   -20988   -21440   -21771   -21699   -21330   -21035 
  -21064   -21313   -21444   -21207   -20769   -20584   -20839   -21228 
  -21286   -20902   -20476   -20499   -20979   -21471   -21612   -21435 
  -21213   -21149   -21280   -21465   -21473   -21217   -20875   -20768 
  -21087   -21631   -21919   -21672   -21149   -20898   -21114   -21439 
  -21435   -21069   -20706   -20687   -20969   -21251   -21303   -21114 
  -20887   -20862   -21088   -21375   -21485   -21373   -21211   -21161 
  -21230   -21300   -21259   -21154   -21115   -21146   -21180   -21235 
