Origin Time       2025/06/03 22:18:00
Lat.              41.7
Long.             143.6
Depth. (km)       30
Mag.              5.2
Station Code      TKCH04
Station Lat.      43.1739
Station Long.     142.9176
Station Height(m) 48
Record Time       2025/06/03 22:18:53
Sampling Freq(Hz) 100Hz
Duration Time(s)  120
Dir.              1
Scale Factor      2942(gal)/8224139
Max. Acc. (gal)   0.380
Last Correction   2025/06/03 22:18:54
Memo.             
[...]
   78441    78421    78389    78366    78356    78339    78321    78317 
   78341    78385    78408    78424    78453    78456    78393    78295 
   78228    78209    78224    78235    78212    78167    78143    78170 
   78252    78332    78368    78395    78447    78489    78497    78494 
   78498    78505    78520    78549    78571    78563    78538    78499 
   78440    78386    78352    78321    78282    78264    78258    78224 
   78200    78194    78179    78160    78150    78156    78187    78243 
   78327    78408    78455    78483    78491    78487    78493    78487 
   78480    78487    78487    78483    78483    78479    78456    78430 
   78393    78335    78316    78340    78348    78340    78343    78379 
   78443    78491    78517    78505    78460    78448    78476    78528 
   78575    78559    78503    78436    78349    78293    78289    78313 
   78339    78333    78324    78337    78351    78370    78397    78412 
   78462    78532    78525    78483    78493    78503    78483    78463 
   78452    78472    78499    78493    78495    78505    78513    78545 
   78549    78540    78586    78634    78622    78563    78482    78403 
   78335    78312    78310    78301    78321    78336    78293    78241 
   78231    78237    78228    78209    78213    78241    78277    78336 
   78409    78456    78472    78480    78490    78486    78470    78460 
   78421    78354    78310    78286    78277    78275    78241    78206 
   78227    78268    78291    78318    78348    78358    78358    78376 
   78418    78472    78516    78549    78557    78522    78506    78521 
   78514    78497    78484    78476    78482    78490    78499    78494 
   78474    78498    78541    78522    78463    78402    78335    78290 
   78287    78306    78354    78382    78349    78314    78295    78273 
   78267    78258    78243    78270    78320    78387    78506    78622 
   78667    78657    78634    78614    78606    78602    78603    78603 
   78571    78497    78429    78420    78426    78387    78322    78279 
   78266    78262    78266    78248    78197    78165    78155    78142 
   78155    78179    78204    78250    78282    78318    78386    78436 
   78475    78538    78582    78587    78607    78636    78624    78576 
   78517    78467    78464    78498    78510    78486    78439    78393 
   78358    78329    78320    78337    78358    78359    78337    78324 
   78348    78372    78374    78374    78370    78378    78432    78457 
   78416    78379    78372    78352    78312    78268    78229    78219 
   78237    78254    78281    78329    78368    78398    78441    78476 
   78474    78464    78480    78493    78476    78455    78457    78444 
   78398    78367    78351    78344    78358    78371    78389    78424 
   78441    78432    78416    78436    78514    78572    78564    78530 
   78502    78490    78493    78484    78441    78382    78337    78336 
   78376    78414    78424    78440    78474    78484    78460    78425 
   78389    78363    78368    78382    78405    78439    78432    78416 
   78414    78383    78349    78332    78305    78275    78275    78310 
   78340    78359    78358    78333    78320    78321    78339    78383 
   78439    78490    78530    78541    78514    78493    78486    78470 
   78459    78467    78476    78478    78472    78462    78457    78463 
   78440    78389    78344    78285    78197    78138    78159    78214 
   78227    78216    78217    78219    78243    78283    78283    78268 
   78274    78289    78317    78363    78397    78414    78433    78447 
   78447    78455    78452    78425    78406    78399    78403    78455 
   78537    78602    78632    78622    78595    78565    78540    78548 
   78570    78576    78606    78661    78682    78663    78630    78556 
   78445    78344    78241    78154    78132    78173    78250    78325 
   78356    78362    78372    78387    78403    78424    78443    78467 
   78494    78506    78511    78511    78495    78483    78472    78462 
   78474    78475    78429    78351    78270    78236    78268    78314 
   78333    78325    78310    78293    78259    78223    78225    78259 
   78282    78264    78231    78227    78241    78246    78254    78281 
   78363    78489    78583    78629    78663    78695    78707    78698 
   78679    78642    78574    78490    78403    78327    78285    78268 
   78255    78235    78208    78210    78271    78341    78382    78398 
   78395    78399    78414    78418    78425    78428    78405    78383 
   78371    78345    78324    78310    78289    78279    78279    78259 
   78255    78289    78316    78331    78349    78382    78445    78510 
   78521    78498    78501    78545    78591    78588    78564    78541 
   78480    78412    78402    78421    78433    78443    78445    78462 
   78494    78513    78522    78518    78533    78591    78613    78571 
   78511    78439    78359    78302    78263    78233    78219    78185 
   78119    78074    78089    78150    78208    78237    78260    78300 
   78363    78414    78441    78464    78451    78421    78420    78408 
   78386    78385    78351    78293    78282    78297    78320    78372 
   78425    78432    78406    78399    78428    78456    78489    78551 
   78590    78597    78603    78567    78501    78456    78417    78362 
   78312    78275    78258    78247    78246    78291    78382    78445 
   78441    78429    78444    78449    78447    78452    78456    78457 
   78462    78472    78466    78420    78376    78363    78375    78405 
   78439    78486    78511    78457    78374    78333    78355    78433 
   78501    78498    78476    78484    78503    78506    78493    78476 
   78448    78420    78437    78478    78468    78395    78312    78254 
   78231    78259    78298    78304    78309    78318    78325    78371 
   78436    78479    78493    78489    78497    78530    78555    78561 
   78572    78545    78487    78468    78443    78379    78351    78371 
   78376    78375    78410    78474    78514    78525    78559    78619 
   78648    78640    78625    78615    78595    78525    78426    78351 
   78301    78246    78201    78171    78128    78081    78062    78071 
   78086    78104    78160    78233    78277    78324    78370    78381 
   78412    78489    78560    78579    78528    78467    78470    78487 
   78462    78433    78418    78379    78320    78279    78264    78263 
   78282    78293    78279    78295    78351    78391    78409    78386 
   78340    78331    78337    78321    78293    78267    78248    78237 
   78248    78267    78279    78305    78351    78382    78385    78394 
   78424    78448    78437    78379    78327    78352    78416    78474 
   78552    78630    78667    78672    78655    78622    78605    78587 
   78574    78579    78578    78557    78544    78567    78586    78572 
   78556    78534    78506    78484    78444    78393    78368    78363 
   78347    78313    78294    78291    78285    78290    78305    78312 
   78316    78298    78262    78258    78277    78285    78310    78332 
   78359    78402    78403    78383    78372    78349    78337    78320 
   78281    78278    78318    78364    78402    78439    78463    78466 
   78460    78443    78420    78437    78470    78462    78435    78413 
   78381    78345    78328    78340    78366    78385    78370    78320 
   78290    78313    78358    78383    78390    78417    78456    78460 
   78443    78444    78471    78510    78541    78549    78547    78560 
   78574    78568    78551    78514    78474    78455    78456    78470 
   78474    78464    78451    78425    78399    78389    78387    78390 
   78403    78409    78397    78368    78321    78274    78246    78209 
   78173    78167    78159    78132    78125    78148    78201    78297 
   78387    78406    78383    78382    78426    78491    78534    78552 
   78557    78559    78557    78545    78516    78495    78498    78497 
   78479    78462    78478    78530    78583    78584    78529    78460 
   78414    78386    78362    78352    78339    78295    78275    78305 
   78316    78295    78290    78294    78305    78343    78385    78403 
   78405    78394    78395    78403    78383    78370    78394    78410 
   78409    78421    78451    78489    78518    78499    78429    78381 
   78383    78363    78317    78305    78322    78327    78305    78279 
   78282    78295    78297    78286    78268    78262    78281    78306 
   78341    78398    78447    78476    78490    78487    78479    78471 
   78444    78405    78382    78383    78402    78435    78474    78495 
   78497    78497    78509    78534    78543    78526    78536    78560 
   78541    78513    78501    78493    78484    78448    78376    78314 
   78268    78235    78227    78212    78170    78143    78152    78187 
   78235    78282    78347    78429    78466    78457    78466    78489 
   78501    78491    78475    78479    78486    78479    78471    78451 
   78436    78462    78509    78548    78556    78528    78498    78478 
   78429    78358    78331    78363    78383    78371    78359    78339 
   78297    78266    78267    78282    78295    78305    78306    78277 
   78233    78240    78274    78273    78266    78264    78254    78264 
   78289    78306    78327    78347    78381    78430    78459    78468 
   78487    78517    78561    78607    78610    78598    78619    78645 
   78630    78579    78521    78491    78480    78445    78391    78355 
   78331    78306    78295    78321    78371    78405    78399    78381 
   78378    78391    78417    78460    78494    78506    78513    78510 
   78493    78483    78490    78478    78429    78379    78368    78372 
   78337    78262    78192    78135    78096    78112    78187    78250 
   78263    78267    78274    78262    78241    78232    78247    78275 
   78286    78293    78314    78327    78306    78274    78262    78281 
   78332    78386    78424    78445    78468    78516    78528    78478 
   78424    78394    78374    78354    78341    78349    78370    78402 
   78433    78453    78495    78559    78584    78576    78583    78590 
   78571    78567    78579    78594    78617    78628    78624    78603 
   78579    78578    78584    78570    78556    78570    78586    78584 
   78570    78563    78549    78513    78491    78480    78440    78402 
   78399    78399    78387    78376    78363    78332    78302    78271 
   78220    78181    78174    78194    78241    78287    78314    78358 
   78409    78437    78448    78444    78435    78430    78448    78483 
   78514    78517    78484    78460    78440    78376    78291    78231 
   78165    78073    78007    78005    78043    78100    78175    78252 
   78331    78418    78502    78564    78592    78598    78598    78575 
   78532    78513    78522    78522    78513    78495    78464    78447 
   78440    78421    78417    78432    78437    78420    78371    78343 
   78358    78395    78462    78538    78578    78588    78613    78621 
   78574    78524    78514    78521    78548    78603    78644    78641 
   78645    78675    78679    78655    78629    78587    78536    78479 
   78412    78367    78351    78317    78263    78220    78174    78105 
   78020    77942    77882    77863    77909    77967    77954    77889 
   77832    77812    77851    77955    78088    78244    78402    78528 
   78637    78721    78777    78810    78794    78736    78694    78702 
   78719    78699    78656    78614    78574    78511    78416    78278 
   78111    77969    77903    77900    77942    78012    78066    78096 
   78131    78171    78236    78318    78382    78480    78619    78695 
   78725    78764    78784    78796    78838    78876    78879    78869 
   78858    78798    78663    78514    78408    78321    78258    78209 
   78152    78120    78102    78070    78043    78052    78113    78175 
   78187    78181    78155    78098    78017    77922    77895    77994 
   78151    78327    78526    78691    78764    78746    78698    78664 
   78622    78575    78576    78618    78642    78636    78603    78548 
   78475    78390    78300    78198    78104    78043    77993    77922 
   77877    77919    78013    78106    78209    78314    78397    78482 
   78549    78601    78692    78784    78835    78900    78972    79012 
   79010    78919    78760    78637    78586    78545    78502    78503 
   78525    78497    78414    78347    78295    78216    78133    78063 
   77988    77981    78071    78167    78224    78281    78366    78457 
   78499    78464    78412    78409    78429    78436    78460    78516 
   78565    78615    78695    78773    78842    78916    78979    79003 
   78949    78811    78657    78529    78401    78268    78146    78024 
   77946    77954    78024    78117    78233    78374    78498    78552 
   78530    78471    78424    78399    78399    78448    78536    78601 
   78595    78522    78440    78398    78387    78376    78370    78386 
   78410    78410    78385    78370    78372    78379    78375    78348 
   78314    78320    78354    78371    78383    78416    78449    78472 
   78507    78565    78605    78592    78559    78533    78525    78516 
   78480    78405    78277    78146    78061    78007    77976    77946 
   77917    77911    77953    78058    78143    78132    78081    78061 
   78058    78038    78015    78055    78162    78283    78408    78555 
   78703    78794    78811    78814    78864    78948    79010    79024 
   79007    78988    78991    79015    79026    78979    78875    78710 
   78452    78120    77796    77568    77444    77365    77338    77375 
   77431    77494    77558    77618    77673    77750    77903    78138 
   78409    78687    78948    79166    79280    79267    79201    79114 
   79016    78949    78900    78849    78814    78765    78673    78584 
   78502    78394    78320    78321    78297    78221    78166    78125 
   78096    78069    78021    78000    78023    78036    78027    78011 
   77965    77897    77892    77988    78113    78225    78347    78453 
   78487    78463    78435    78468    78610    78834    79047    79153 
   79177    79186    79100    78868    78601    78374    78194    78081 
   78005    77940    77913    77913    77924    77967    78077    78232 
   78363    78417    78418    78444    78510    78545    78537    78547 
   78567    78541    78497    78468    78436    78399    78367    78358 
   78393    78433    78471    78472    78397    78324    78297    78291 
   78325    78374    78378    78364    78385    78405    78385    78352 
   78281    78163    78073    78023    78009    78084    78233    78391 
   78537    78665    78776    78868    78906    78857    78749    78637 
   78559    78540    78559    78572    78583    78583    78552    78505 
   78466    78459    78464    78457    78439    78399    78354    78337 
   78360    78441    78565    78675    78740    78746    78717    78694 
   78664    78613    78572    78567    78586    78594    78568    78529 
   78491    78432    78351    78313    78325    78317    78281    78279 
   78340    78394    78372    78320    78282    78223    78125    78004 
   77874    77789    77808    77944    78163    78420    78672    78858 
   78914    78861    78746    78574    78397    78283    78244    78262 
   78327    78422    78538    78636    78661    78618    78521    78390 
   78277    78190    78089    77961    77830    77728    77683    77738 
   77865    77973    78061    78116    78127    78182    78287    78366 
   78418    78484    78568    78626    78615    78549    78482    78457 
   78470    78491    78532    78555    78530    78524    78536    78491 
   78416    78381    78399    78420    78426    78453    78480    78495 
   78522    78559    78572    78540    78483    78429    78344    78243 
   78185    78162    78147    78160    78201    78224    78217    78236 
   78335    78483    78624    78748    78848    78895    78899    78902 
   78918    78908    78873    78852    78833    78791    78706    78587 
   78486    78410    78343    78295    78281    78312    78343    78317 
   78281    78268    78224    78162    78146    78140    78117    78124 
   78159    78201    78251    78290    78304    78279    78221    78160 
   78117    78120    78197    78329    78483    78603    78606    78533 
   78472    78412    78328    78241    78189    78192    78235    78316 
   78430    78525    78568    78586    78575    78526    78476    78471 
   78489    78466    78398    78318    78217    78090    77981    77899 
   77835    77827    77882    78000    78181    78381    78584    78745 
   78815    78833    78817    78767    78705    78636    78579    78529 
   78448    78345    78246    78160    78143    78194    78256    78335 
   78428    78501    78575    78699    78841    78922    78903    78844 
   78786    78696    78610    78565    78511    78403    78264    78146 
   78098    78112    78147    78209    78301    78403    78487    78545 
   78601    78624    78579    78536    78548    78565    78582    78594 
   78520    78385    78309    78278    78248    78247    78224    78144 
   78069    78039    78074    78181    78322    78471    78601    78695 
   78775    78853    78881    78830    78723    78549    78351    78205 
   78115    78081    78100    78128    78163    78221    78275    78310 
   78344    78371    78371    78333    78275    78252    78279    78337 
   78414    78462    78457    78433    78393    78331    78268    78260 
   78300    78370    78479    78572    78603    78584    78514    78399 
   78306    78294    78336    78381    78437    78518    78598    78641 
   78655    78648    78611    78528    78379    78225    78144    78119 
   78096    78074    78085    78112    78113    78078    78052    78067 
   78117    78189    78263    78321    78349    78376    78409    78412 
   78410    78410    78366    78305    78266    78252    78273    78291 
   78298    78325    78349    78382    78449    78525    78588    78614 
   78610    78610    78622    78664    78705    78709    78730    78791 
   78822    78807    78779    78721    78611    78486    78383    78306 
   78233    78151    78089    78061    78047    78040    78028    77988 
   77934    77912    77954    78017    78052    78085    78124    78163 
   78204    78232    78279    78372    78464    78549    78624    78659 
   78684    78719    78744    78753    78737    78684    78622    78575 
   78530    78498    78480    78484    78552    78671    78781    78830 
   78807    78760    78715    78660    78626    78629    78632    78637 
   78652    78668    78687    78702    78676    78603    78545    78530 
   78551    78640    78750    78806    78829    78850    78858    78813 
   78695    78563    78440    78308    78174    78086    78030    77947 
   77861    77834    77870    77935    77984    78000    78024    78063 
   78084    78092    78093    78096    78119    78165    78225    78291 
   78321    78325    78336    78324    78271    78229    78220    78246 
   78301    78344    78366    78410    78463    78478    78460    78417 
   78364    78327    78306    78309    78301    78244    78194    78169 
   78113    78047    78028    78052    78106    78185    78295    78424 
   78537    78648    78783    78900    78949    78930    78891    78858 
   78821    78768    78696    78611    78545    78502    78478    78468 
   78476    78526    78607    78692    78757    78763    78700    78621 
