Origin Time       2025/06/03 22:18:00
Lat.              41.7
Long.             143.6
Depth. (km)       30
Mag.              5.2
Station Code      TKCH08
Station Lat.      42.4865
Station Long.     143.1520
Station Height(m) 260
Record Time       2025/06/03 22:18:42
Sampling Freq(Hz) 100Hz
Duration Time(s)  120
Dir.              2
Scale Factor      2942(gal)/8224139
Max. Acc. (gal)   1.308
Last Correction   2025/06/03 22:18:42
Memo.             
[...]
   98369    98365    98365    98367    98365    98366    98367    98363 
   98363    98365    98366    98367    98365    98363    98366    98369 
   98366    98362    98366    98367    98365    98365    98365    98365 
   98367    98370    98367    98363    98367    98367    98363    98365 
   98367    98366    98365    98366    98367    98365    98363    98363 
   98363    98365    98365    98366    98369    98369    98363    98362 
   98366    98365    98362    98366    98366    98363    98363    98363 
   98363    98365    98363    98362    98365    98366    98365    98365 
   98365    98365    98365    98366    98369    98367    98365    98369 
   98369    98363    98367    98370    98365    98365    98366    98363 
   98365    98367    98365    98367    98367    98365    98366    98369 
   98366    98362    98363    98369    98370    98365    98365    98366 
   98366    98365    98365    98367    98367    98366    98365    98366 
   98365    98362    98366    98369    98365    98365    98366    98366 
   98363    98365    98369    98365    98362    98365    98365    98366 
   98367    98365    98366    98370    98367    98363    98363    98366 
   98369    98367    98369    98371    98367    98367    98369    98366 
   98370    98373    98373    98377    98378    98374    98374    98371 
   98370    98367    98365    98366    98369    98373    98379    98375 
   98369    98365    98359    98346    98329    98317    98319    98339 
   98371    98412    98454    98473    98477    98481    98469    98423 
   98355    98296    98266    98280    98320    98350    98347    98320 
   98293    98289    98311    98335    98351    98375    98431    98502 
   98531    98491    98415    98340    98308    98324    98362    98388 
   98374    98332    98281    98189    98059    97976    98000    98124 
   98278    98419    98575    98770    98956    99038    98944    98687 
   98378    98162    98097    98145    98250    98348    98370    98327 
   98282    98269    98274    98285    98309    98386    98552    98747 
   98821    98703    98478    98282    98157    98054    98028    98174 
   98393    98504    98444    98277    98128    98078    98078    98081 
   98118    98271    98585    98928    99110    99071    98825    98464 
   98174    98066    98134    98277    98325    98250    98200    98235 
   98273    98273    98259    98247    98226    98215    98275    98385 
   98424    98340    98205    98111    98108    98143    98138    98123 
   98155    98207    98274    98351    98386    98389    98406    98425 
   98416    98390    98404    98493    98626    98740    98737    98586 
   98413    98367    98443    98537    98544    98452    98386    98447 
   98564    98589    98485    98366    98340    98351    98290    98176 
   98081    98037    98041    98082    98167    98301    98419    98455 
   98440    98433    98444    98471    98493    98497    98527    98575 
   98566    98508    98408    98257    98172    98247    98381    98464 
   98496    98466    98379    98290    98244    98265    98347    98425 
   98397    98273    98134    98016    97939    97924    97961    98049 
   98186    98323    98401    98420    98389    98332    98294    98289 
   98294    98320    98416    98582    98706    98695    98579    98419 
   98298    98316    98428    98509    98528    98521    98524    98572 
   98629    98616    98532    98429    98362    98386    98477    98552 
   98564    98506    98448    98497    98624    98709    98699    98609 
   98458    98292    98143    98037    97995    97972    97918    97903 
   97985    98104    98180    98178    98124    98096    98130    98185 
   98247    98329    98406    98408    98313    98186    98115    98162 
   98297    98425    98506    98559    98594    98632    98680    98706 
   98705    98694    98671    98641    98570    98451    98390    98435 
   98508    98516    98448    98408    98466    98568    98652    98689 
   98635    98505    98386    98336    98315    98247    98173    98184 
   98263    98343    98369    98328    98247    98154    98072    98051 
   98127    98282    98469    98599    98604    98463    98235    98043 
   97973    98023    98163    98324    98435    98463    98390    98259 
   98150    98081    98057    98068    98099    98163    98258    98348 
   98417    98459    98474    98466    98460    98510    98617    98682 
   98636    98535    98463    98423    98381    98338    98309    98286 
   98263    98282    98346    98393    98417    98417    98355    98271 
   98228    98219    98257    98336    98388    98420    98443    98389 
   98257    98145    98143    98275    98450    98577    98671    98722 
   98675    98531    98340    98185    98131    98173    98270    98396 
   98513    98578    98602    98612    98587    98529    98451    98356 
   98296    98312    98396    98508    98585    98601    98587    98551 
   98477    98394    98321    98258    98200    98162    98147    98135 
   98127    98118    98111    98165    98300    98440    98531    98591 
   98624    98593    98493    98371    98289    98262    98275    98311 
   98347    98373    98388    98374    98350    98340    98311    98228 
   98151    98158    98238    98305    98308    98267    98216    98153 
   98103    98123    98215    98354    98520    98641    98679    98652 
   98556    98448    98405    98396    98359    98325    98346    98412 
   98482    98533    98560    98579    98606    98647    98717    98805 
   98821    98736    98604    98470    98366    98311    98282    98262 
   98262    98293    98329    98325    98251    98115    97954    97833 
   97802    97827    97852    97900    97999    98108    98201    98242 
   98193    98108    98045    98001    97999    98070    98193    98315 
   98378    98358    98292    98223    98176    98174    98221    98302 
   98389    98452    98489    98496    98443    98342    98319    98413 
   98517    98617    98736    98801    98786    98710    98568    98410 
   98281    98184    98167    98261    98423    98590    98705    98733 
   98664    98536    98409    98304    98250    98298    98429    98562 
   98626    98621    98595    98585    98571    98571    98604    98629 
   98601    98512    98404    98307    98208    98120    98100    98184 
   98335    98460    98521    98543    98533    98473    98381    98270 
   98153    98093    98113    98151    98166    98178    98242    98371 
   98502    98594    98668    98737    98770    98745    98651    98496 
   98369    98361    98413    98420    98355    98258    98192    98209 
   98307    98408    98439    98406    98355    98292    98194    98072 
   97985    97974    98045    98193    98381    98531    98578    98512 
   98388    98270    98170    98070    98004    98023    98118    98253 
   98416    98575    98703    98788    98811    98743    98602    98442 
   98304    98207    98127    98068    98042    98049    98091    98151 
   98223    98311    98382    98408    98409    98393    98343    98258 
   98169    98118    98122    98162    98188    98182    98166    98139 
   98131    98215    98378    98540    98628    98605    98532    98502 
   98520    98550    98591    98660    98722    98699    98591    98496 
   98478    98516    98517    98450    98373    98313    98244    98189 
   98193    98244    98324    98452    98641    98838    98965    98979 
   98909    98811    98693    98556    98477    98504    98579    98621 
   98622    98602    98548    98440    98298    98181    98149    98189 
   98203    98167    98159    98180    98167    98119    98064    97999 
   97911    97833    97834    97933    98084    98223    98292    98300 
   98319    98393    98496    98579    98612    98587    98510    98393 
   98282    98220    98208    98234    98270    98309    98379    98496 
   98645    98799    98883    98863    98774    98666    98581    98517 
   98466    98409    98313    98203    98136    98130    98180    98250 
   98282    98270    98212    98122    98057    98051    98099    98193 
   98275    98261    98161    98035    97947    97961    98043    98097 
   98096    98059    98027    98027    98046    98078    98153    98263 
   98377    98458    98486    98504    98547    98595    98618    98586 
   98473    98317    98178    98082    98069    98157    98274    98363 
   98458    98578    98694    98771    98771    98678    98525    98371 
   98263    98250    98327    98447    98617    98832    98983    99019 
   98995    98945    98867    98766    98686    98678    98663    98541 
   98362    98213    98128    98118    98169    98248    98319    98359 
   98367    98343    98277    98196    98158    98194    98285    98383 
   98473    98574    98686    98761    98757    98674    98568    98491 
   98432    98359    98285    98226    98172    98120    98091    98115 
   98188    98261    98300    98294    98244    98213    98215    98180 
   98113    98084    98092    98120    98151    98123    98020    97912 
   97829    97780    97800    97861    97939    98057    98158    98190 
   98204    98244    98304    98406    98540    98628    98631    98556 
   98405    98240    98162    98211    98355    98527    98652    98714 
   98749    98780    98803    98795    98733    98604    98436    98280 
   98173    98145    98205    98328    98473    98599    98682    98733 
   98775    98813    98828    98803    98739    98663    98609    98570 
   98529    98482    98415    98323    98242    98203    98209    98259 
   98325    98377    98417    98458    98479    98487    98491    98471 
   98442    98417    98373    98320    98320    98367    98393    98373 
   98338    98290    98243    98211    98155    98080    98041    98041 
   98084    98177    98258    98297    98320    98325    98327    98343 
   98381    98440    98469    98417    98313    98217    98150    98108 
   98092    98135    98231    98304    98321    98332    98365    98381 
   98354    98304    98263    98236    98239    98290    98347    98370 
   98354    98296    98250    98251    98228    98173    98167    98208 
   98271    98356    98424    98469    98517    98555    98559    98535 
   98498    98478    98485    98501    98508    98496    98466    98424 
   98358    98300    98308    98365    98405    98408    98385    98352 
   98325    98313    98312    98319    98344    98409    98489    98523 
   98460    98335    98234    98201    98242    98329    98419    98489 
   98544    98585    98613    98620    98598    98570    98566    98548 
   98478    98392    98332    98289    98240    98189    98149    98115 
   98064    98003    97977    98010    98074    98147    98224    98315 
   98390    98413    98381    98315    98231    98172    98172    98235 
   98319    98352    98340    98344    98385    98440    98482    98527 
   98608    98694    98729    98690    98597    98494    98436    98458 
   98532    98602    98625    98577    98487    98412    98323    98190 
   98077    98050    98122    98267    98409    98490    98540    98578 
   98579    98539    98490    98448    98404    98381    98388    98369 
   98312    98281    98312    98377    98448    98518    98559    98543 
   98477    98382    98305    98288    98308    98325    98339    98342 
   98312    98263    98251    98313    98412    98475    98478    98432 
   98365    98294    98254    98263    98294    98304    98300    98293 
   98277    98267    98266    98278    98319    98363    98379    98382 
   98396    98454    98577    98728    98853    98898    98824    98680 
   98556    98478    98417    98351    98290    98248    98204    98150 
   98103    98057    98012    97997    98018    98046    98061    98058 
   98054    98059    98058    98035    98004    98004    98055    98132 
   98212    98288    98348    98382    98389    98370    98328    98269 
   98223    98220    98265    98328    98371    98401    98443    98494 
   98521    98506    98467    98424    98400    98429    98500    98575 
   98640    98689    98743    98824    98915    99004    99103    99218 
   99297    99301    99254    99183    99053    98859    98652    98464 
   98311    98201    98135    98124    98158    98177    98149    98069 
   97935    97768    97605    97464    97356    97281    97260    97324 
   97451    97599    97750    97885    98015    98172    98325    98440 
   98517    98560    98597    98656    98722    98783    98834    98868 
   98923    99025    99118    99156    99137    99052    98923    98798 
   98687    98589    98523    98508    98523    98543    98585    98662 
   98771    98914    99040    99094    99084    99029    98940    98869 
   98860    98890    98922    98929    98860    98721    98578    98478 
   98431    98392    98277    98055    97758    97444    97181    97000 
   96894    96842    96788    96664    96462    96250    96083    95967 
   95906    95890    95889    95901    95958    96055    96137    96153 
   96105    96052    96078    96237    96547    96959    97368    97690 
   97902    98049    98185    98336    98509    98693    98863    98987 
   99050    99073    99150    99361    99667    99991   100284   100537 
  100796   101085   101362   101569   101636   101526   101281   100969 
  100680   100481   100348   100218   100093    99979    99839    99654 
   99476    99374    99382    99505    99729    99987   100183   100202 
   99975    99600    99249    98995    98865    98903    99090    99346 
   99578    99716    99746    99666    99499    99293    99075    98833 
   98537    98132    97605    96996    96372    95779    95256    94876 
   94710    94755    94960    95268    95650    96115    96649    97154 
   97511    97656    97629    97534    97463    97506    97706    98034 
   98433    98844    99231    99604    99936   100195   100380   100467 
  100388   100101    99646    99108    98537    98003    97583    97289 
   97108    97032    97039    97129    97279    97430    97568    97715 
   97899    98134    98382    98609    98788    98847    98743    98509 
   98177    97843    97622    97533    97561    97684    97845    97981 
   98039    97989    97870    97738    97611    97521    97529    97681 
   97960    98293    98587    98788    98896    98950    99013    99134 
   99322    99550    99785    99956    99954    99724    99312    98809 
   98321    97947    97735    97699    97798    97918    97993    98089 
   98226    98340    98402    98429    98425    98394    98356    98347 
   98398    98500    98586    98605    98540    98400    98200    97988 
   97831    97754    97704    97677    97738    97916    98178    98442 
   98620    98699    98725    98732    98721    98706    98721    98740 
   98725    98695    98648    98540    98381    98180    97956    97773 
   97684    97686    97773    97953    98178    98378    98550    98717 
   98865    98980    99094    99246    99411    99495    99450    99341 
   99277    99311    99389    99412    99333    99165    98937    98703 
   98555    98550    98655    98764    98806    98788    98718    98583 
   98421    98282    98211    98203    98185    98096    97938    97741 
   97529    97308    97119    97052    97125    97258    97374    97436 
   97436    97366    97239    97133    97120    97214    97410    97654 
   97873    98050    98196    98324    98454    98562    98610    98604 
   98537    98389    98190    97983    97800    97729    97819    98014 
   98221    98417    98597    98726    98797    98840    98845    98778 
   98679    98666    98783    98967    99148    99284    99331    99273 
   99152    98992    98813    98622    98431    98288    98221    98203 
   98230    98313    98397    98405    98290    98066    97807    97610 
   97555    97667    97881    98092    98201    98166    98038    97956 
   97997    98159    98413    98716    98982    99157    99237    99215 
   99067    98818    98558    98348    98196    98085    98014    97991 
   98027    98107    98176    98177    98086    97922    97764    97706 
   97752    97848    97950    98000    97984    97947    97933    97957 
   98023    98124    98286    98512    98744    98913    98969    98905 
   98737    98517    98325    98215    98169    98192    98296    98410 
   98450    98402    98319    98238    98147    98062    98034    98072 
   98147    98212    98232    98226    98207    98154    98086    98043 
   98053    98113    98194    98301    98454    98618    98782    98964 
   99179    99404    99577    99639    99574    99393    99148    98913 
   98734    98629    98610    98689    98828    98965    99080    99176 
   99246    99295    99347    99449    99624    99831    99991   100048 
   99993    99875    99728    99562    99405    99280    99173    99067 
   98952    98817    98648    98455    98248    98038    97821    97578 
   97312    97054    96812    96564    96303    96082    95970    96024 
   96219    96464    96685    96847    96931    96967    97021    97125 
   97245    97333    97351    97312    97324    97465    97669    97865 
   98049    98207    98324    98386    98362    98278    98234    98263 
   98327    98421    98554    98695    98818    98887    98902    98907 
   98944    99013    99080    99094    99021    98865    98656    98452 
   98319    98278    98296    98312    98315    98332    98362    98378 
   98374    98369    98406    98474    98548    98651    98786    98930 
   99063    99129    99080    98933    98724    98510    98350    98240 
   98151    98082    98054    98051    98062    98078    98089    98091 
   98089    98104    98176    98315    98475    98589    98626    98610 
   98595    98637    98737    98859    98963    99015    99034    99042 
   99025    99013    99049    99130    99230    99285    99252    99162 
   99058    98956    98876    98828    98811    98826    98826    98784 
   98733    98689    98629    98564    98532    98535    98548    98564 
   98572    98571    98545    98478    98386    98273    98115    97937 
   97798    97734    97765    97888    98073    98263    98371    98383 
   98344    98271    98189    98149    98157    98197    98244    98246 
   98145    97954    97721    97494    97333    97254    97198    97140 
   97109    97137    97239    97384    97532    97679    97818    97916 
   97989    98051    98093    98127    98145    98139    98120    98104 
   98119    98193    98329    98540    98807    99045    99185    99215 
   99144    99009    98882    98814    98786    98737    98660    98597 
   98556    98527    98478    98393    98300    98269    98339    98478 
   98633    98759    98815    98824    98834    98830    98809    98813 
   98864    98929    98945    98901    98841    98798    98798    98844 
   98884    98871    98799    98674    98541    98473    98475    98502 
   98456    98294    98077    97868    97710    97652    97695    97791 
   97911    98055    98194    98304    98377    98413    98419    98413 
   98409    98375    98305    98242    98178    98078    97966    97896 
   97883    97914    97970    98055    98161    98228    98224    98178 
   98096    97966    97812    97636    97447    97303    97240    97241 
   97308    97411    97515    97618    97718    97787    97825    97862 
   97918    97989    98074    98163    98270    98382    98462    98486 
   98466    98437    98435    98439    98427    98419    98425    98452 
   98514    98595    98682    98764    98829    98859    98867    98888 
   98932    98975    99029    99119    99216    99277    99307    99331 
