Origin Time       2025/06/03 22:18:00
Lat.              41.7
Long.             143.6
Depth. (km)       30
Mag.              5.2
Station Code      TKCH05
Station Lat.      43.1211
Station Long.     143.6181
Station Height(m) -35
Record Time       2025/06/03 22:18:56
Sampling Freq(Hz) 100Hz
Duration Time(s)  120
Dir.              1
Scale Factor      2942(gal)/8224139
Max. Acc. (gal)   0.397
Last Correction   2025/06/03 22:18:57
Memo.             
[...]
 -174460  -174424  -174425  -174438  -174457  -174482  -174517  -174559 
 -174575  -174537  -174469  -174395  -174329  -174324  -174398  -174479 
 -174528  -174556  -174568  -174564  -174553  -174545  -174548  -174557 
 -174572  -174582  -174572  -174563  -174590  -174622  -174606  -174542 
 -174474  -174426  -174398  -174364  -174330  -174310  -174309  -174324 
 -174337  -174320  -174290  -174271  -174241  -174222  -174260  -174343 
 -174438  -174544  -174633  -174673  -174657  -174594  -174515  -174447 
 -174384  -174330  -174293  -174264  -174258  -174271  -174307  -174380 
 -174444  -174457  -174467  -174517  -174577  -174626  -174663  -174669 
 -174631  -174577  -174538  -174506  -174453  -174380  -174325  -174294 
 -174297  -174353  -174413  -174433  -174426  -174413  -174407  -174409 
 -174413  -174426  -174456  -174499  -174536  -174536  -174495  -174425 
 -174343  -174293  -174279  -174282  -174307  -174364  -174430  -174494 
 -174573  -174656  -174698  -174696  -174690  -174679  -174656  -174631 
 -174629  -174641  -174645  -174642  -174617  -174556  -174503  -174492 
 -174507  -174528  -174557  -174611  -174665  -174680  -174672  -174665 
 -174640  -174590  -174538  -174487  -174440  -174425  -174438  -174472 
 -174530  -174579  -174580  -174546  -174510  -174479  -174463  -174471 
 -174480  -174486  -174518  -174553  -174529  -174438  -174325  -174224 
 -174136  -174069  -174043  -174063  -174096  -174117  -174162  -174231 
 -174283  -174318  -174364  -174422  -174480  -174538  -174596  -174634 
 -174636  -174619  -174611  -174603  -174591  -174594  -174607  -174599 
 -174565  -174540  -174537  -174540  -174556  -174571  -174563  -174557 
 -174573  -174590  -174591  -174565  -174523  -174507  -174515  -174515 
 -174498  -174478  -174474  -174491  -174507  -174503  -174491  -174461 
 -174411  -174366  -174351  -174384  -174463  -174548  -174598  -174613 
 -174630  -174673  -174706  -174702  -174680  -174658  -174642  -174640 
 -174642  -174625  -174584  -174552  -174548  -174553  -174541  -174505 
 -174457  -174420  -174397  -174378  -174363  -174368  -174415  -174483 
 -174532  -174559  -174580  -174586  -174552  -174494  -174461  -174479 
 -174509  -174522  -174523  -174522  -174522  -174538  -174568  -174576 
 -174546  -174509  -174488  -174499  -174540  -174583  -174614  -174637 
 -174640  -174602  -174533  -174475  -174459  -174475  -174506  -174525 
 -174494  -174418  -174363  -174339  -174325  -174334  -174345  -174332 
 -174320  -174318  -174325  -174353  -174391  -174405  -174398  -174378 
 -174347  -174318  -174294  -174275  -174279  -174313  -174352  -174370 
 -174368  -174353  -174325  -174310  -174325  -174355  -174398  -174455 
 -174498  -174506  -174502  -174486  -174456  -174438  -174430  -174414 
 -174415  -174433  -174455  -174501  -174569  -174644  -174704  -174745 
 -174773  -174775  -174749  -174719  -174677  -174606  -174534  -174487 
 -174451  -174426  -174407  -174379  -174352  -174343  -174364  -174407 
 -174452  -174495  -174522  -174525  -174523  -174509  -174479  -174472 
 -174483  -174479  -174464  -174438  -174399  -174371  -174367  -174376 
 -174384  -174382  -174379  -174391  -174420  -174440  -174429  -174402 
 -174393  -174390  -174386  -174409  -174471  -174537  -174583  -174598 
 -174565  -174501  -174453  -174441  -174459  -174491  -174532  -174579 
 -174602  -174580  -174560  -174583  -174630  -174673  -174703  -174708 
 -174695  -174671  -174661  -174683  -174706  -174703  -174683  -174664 
 -174654  -174663  -174684  -174706  -174719  -174718  -174706  -174698 
 -174684  -174642  -174594  -174563  -174549  -174555  -174569  -174569 
 -174564  -174552  -174510  -174444  -174393  -174378  -174383  -174393 
 -174417  -174438  -174433  -174420  -174403  -174382  -174380  -174413 
 -174461  -174503  -174536  -174579  -174613  -174599  -174553  -174498 
 -174433  -174397  -174422  -174468  -174509  -174537  -174541  -174533 
 -174519  -174471  -174402  -174367  -174370  -174397  -174456  -174514 
 -174533  -174533  -174499  -174436  -174384  -174351  -174340  -174364 
 -174405  -174426  -174428  -174422  -174425  -174449  -174484  -174503 
 -174496  -174468  -174436  -174432  -174436  -174432  -174430  -174426 
 -174418  -174406  -174375  -174333  -174303  -174293  -174299  -174324 
 -174359  -174387  -174387  -174384  -174410  -174441  -174453  -174455 
 -174432  -174402  -174398  -174398  -174386  -174388  -174406  -174434 
 -174480  -174532  -174561  -174567  -174577  -174600  -174604  -174598 
 -174621  -174656  -174663  -174644  -174631  -174634  -174642  -174649 
 -174641  -174637  -174648  -174644  -174627  -174623  -174614  -174580 
 -174537  -174495  -174464  -174452  -174463  -174495  -174530  -174546 
 -174550  -174557  -174552  -174517  -174464  -174403  -174345  -174310 
 -174306  -174328  -174343  -174317  -174270  -174237  -174210  -174182 
 -174204  -174285  -174363  -174428  -174479  -174480  -174449  -174444 
 -174467  -174486  -174521  -174588  -174642  -174654  -174667  -174681 
 -174663  -174609  -174541  -174483  -174461  -174480  -174532  -174596 
 -174638  -174633  -174607  -174598  -174594  -174591  -174595  -174592 
 -174587  -174595  -174618  -174642  -174650  -174638  -174606  -174533 
 -174428  -174345  -174324  -174330  -174352  -174409  -174463  -174483 
 -174487  -174471  -174417  -174356  -174341  -174372  -174414  -174453 
 -174492  -174514  -174507  -174480  -174436  -174361  -174266  -174186 
 -174143  -174152  -174236  -174370  -174488  -174563  -174604  -174609 
 -174559  -174479  -174414  -174383  -174372  -174359  -174344  -174344 
 -174332  -174291  -174272  -174294  -174322  -174334  -174341  -174337 
 -174316  -174295  -174310  -174368  -174460  -174573  -174664  -174688 
 -174669  -174638  -174587  -174533  -174511  -174498  -174484  -174498 
 -174507  -174515  -174588  -174722  -174831  -174884  -174918  -174949 
 -174949  -174895  -174799  -174698  -174649  -174664  -174685  -174698 
 -174742  -174780  -174750  -174663  -174532  -174391  -174326  -174368 
 -174459  -174549  -174625  -174679  -174712  -174703  -174625  -174514 
 -174420  -174366  -174357  -174367  -174376  -174388  -174433  -174523 
 -174609  -174621  -174567  -174478  -174372  -174298  -174309  -174380 
 -174465  -174559  -174644  -174652  -174587  -174528  -174479  -174418 
 -174382  -174382  -174379  -174384  -174425  -174498  -174583  -174636 
 -174606  -174492  -174351  -174251  -174214  -174210  -174209  -174201 
 -174225  -174325  -174447  -174498  -174482  -174445  -174397  -174345 
 -174329  -174371  -174429  -174464  -174503  -174559  -174602  -174637 
 -174676  -174673  -174598  -174515  -174498  -174503  -174474  -174444 
 -174465  -174521  -174577  -174619  -174631  -174596  -174532  -174464 
 -174417  -174413  -174424  -174421  -174418  -174401  -174349  -174334 
 -174382  -174449  -174522  -174580  -174569  -174479  -174347  -174220 
 -174129  -174106  -174172  -174303  -174438  -174549  -174640  -174691 
 -174688  -174649  -174625  -174614  -174569  -174505  -174492  -174538 
 -174604  -174681  -174753  -174773  -174748  -174726  -174699  -174625 
 -174528  -174447  -174415  -174452  -174509  -174552  -174625  -174721 
 -174780  -174776  -174712  -174611  -174513  -174432  -174371  -174380 
 -174451  -174519  -174571  -174602  -174565  -174445  -174297  -174195 
 -174175  -174185  -174156  -174093  -174055  -174077  -174158  -174253 
 -174313  -174332  -174339  -174353  -174386  -174428  -174463  -174502 
 -174571  -174667  -174753  -174791  -174777  -174750  -174723  -174684 
 -174629  -174553  -174478  -174442  -174440  -174468  -174533  -174603 
 -174636  -174595  -174498  -174417  -174414  -174484  -174573  -174646 
 -174704  -174739  -174729  -174700  -174707  -174769  -174849  -174868 
 -174807  -174722  -174653  -174615  -174588  -174540  -174506  -174530 
 -174603  -174681  -174710  -174650  -174536  -174437  -174383  -174333 
 -174245  -174159  -174147  -174170  -174194  -174276  -174413  -174513 
 -174530  -174486  -174441  -174430  -174430  -174430  -174448  -174486 
 -174514  -174519  -174518  -174483  -174361  -174214  -174158  -174190 
 -174259  -174348  -174432  -174482  -174513  -174513  -174471  -174436 
 -174428  -174395  -174330  -174295  -174341  -174468  -174626  -174727 
 -174748  -174718  -174642  -174559  -174534  -174568  -174623  -174671 
 -174681  -174681  -174715  -174771  -174825  -174869  -174861  -174769 
 -174622  -174480  -174407  -174421  -174482  -174529  -174521  -174467 
 -174413  -174375  -174324  -174262  -174222  -174225  -174251  -174260 
 -174237  -174212  -174240  -174310  -174330  -174298  -174309  -174366 
 -174386  -174355  -174310  -174291  -174299  -174299  -174275  -174262 
 -174275  -174306  -174330  -174322  -174278  -174231  -174195  -174164 
 -174147  -174141  -174128  -174129  -174193  -174321  -174483  -174646 
 -174780  -174865  -174919  -174943  -174899  -174800  -174725  -174704 
 -174688  -174646  -174606  -174588  -174595  -174607  -174598  -174559 
 -174487  -174415  -174415  -174498  -174582  -174619  -174600  -174542 
 -174538  -174606  -174634  -174587  -174533  -174505  -174491  -174475 
 -174449  -174421  -174407  -174402  -174399  -174415  -174436  -174415 
 -174341  -174279  -174302  -174391  -174482  -174519  -174469  -174374 
 -174289  -174216  -174171  -174190  -174212  -174181  -174147  -174159 
 -174201  -174270  -174352  -174406  -174421  -174441  -174498  -174572 
 -174663  -174775  -174883  -174972  -175051  -175088  -175077  -175069 
 -175062  -175049  -175080  -175150  -175169  -175119  -175031  -174919 
 -174800  -174668  -174475  -174233  -174000  -173824  -173763  -173869 
 -174127  -174428  -174669  -174831  -174928  -174965  -174943  -174887 
 -174814  -174714  -174596  -174537  -174579  -174644  -174644  -174595 
 -174526  -174445  -174366  -174286  -174241  -174294  -174414  -174534 
 -174661  -174808  -174923  -174927  -174816  -174692  -174622  -174582 
 -174576  -174641  -174723  -174758  -174738  -174642  -174437  -174140 
 -173838  -173657  -173623  -173672  -173770  -173867  -173905  -173936 
 -174019  -174113  -174189  -174271  -174367  -174472  -174602  -174731 
 -174831  -174915  -174973  -174968  -174951  -174972  -174912  -174672 
 -174320  -173989  -173761  -173646  -173587  -173551  -173565  -173637 
 -173758  -173902  -174050  -174191  -174307  -174390  -174451  -174501 
 -174536  -174573  -174657  -174791  -174935  -175034  -175035  -174934 
 -174787  -174627  -174441  -174283  -174235  -174307  -174459  -174637 
 -174783  -174857  -174831  -174700  -174541  -174418  -174287  -174158 
 -174128  -174170  -174183  -174218  -174340  -174479  -174599  -174719 
 -174784  -174746  -174663  -174586  -174515  -174456  -174438  -174456 
 -174461  -174406  -174285  -174164  -174125  -174136  -174143  -174198 
 -174347  -174529  -174663  -174718  -174737  -174766  -174785  -174766 
 -174729  -174669  -174545  -174363  -174187  -174105  -174144  -174248 
 -174374  -174510  -174596  -174586  -174521  -174467  -174440  -174437 
 -174451  -174460  -174521  -174708  -174978  -175239  -175436  -175531 
 -175540  -175524  -175437  -175217  -174924  -174645  -174376  -174117 
 -173929  -173836  -173780  -173745  -173763  -173816  -173889  -174006 
 -174150  -174287  -174432  -174590  -174754  -174914  -175065  -175200 
 -175296  -175331  -175271  -175117  -174938  -174800  -174721  -174685 
 -174677  -174680  -174687  -174707  -174739  -174733  -174661  -174541 
 -174402  -174299  -174312  -174460  -174637  -174704  -174673  -174663 
 -174703  -174725  -174680  -174617  -174609  -174637  -174633  -174602 
 -174595  -174621  -174663  -174703  -174745  -174803  -174838  -174795 
 -174694  -174598  -174499  -174367  -174240  -174168  -174139  -174093 
 -174010  -173958  -173988  -174048  -174069  -174059  -174051  -174046 
 -174025  -173985  -173954  -173966  -174028  -174148  -174299  -174376 
 -174320  -174185  -174040  -173940  -173943  -174048  -174233  -174479 
 -174746  -174987  -175131  -175124  -175003  -174810  -174542  -174244 
 -173988  -173808  -173724  -173767  -173947  -174224  -174522  -174764 
 -174899  -174930  -174885  -174775  -174646  -174563  -174536  -174548 
 -174582  -174591  -174552  -174498  -174459  -174433  -174448  -174519 
 -174594  -174640  -174663  -174649  -174596  -174495  -174320  -174101 
 -173890  -173705  -173596  -173638  -173851  -174151  -174437  -174652 
 -174781  -174846  -174865  -174835  -174771  -174712  -174667  -174631 
 -174652  -174758  -174910  -175047  -175138  -175171  -175170  -175139 
 -175038  -174843  -174590  -174343  -174171  -174075  -174006  -173955 
 -173939  -173966  -174016  -174070  -174135  -174205  -174255  -174313 
 -174391  -174449  -174488  -174567  -174685  -174803  -174868  -174830 
 -174694  -174550  -174478  -174459  -174447  -174445  -174461  -174468 
 -174472  -174471  -174445  -174429  -174480  -174572  -174649  -174708 
 -174776  -174835  -174853  -174819  -174761  -174706  -174654  -174610 
 -174586  -174561  -174513  -174459  -174440  -174457  -174460  -174403 
 -174266  -174078  -173919  -173811  -173730  -173711  -173776  -173859 
 -173905  -173932  -173989  -174110  -174282  -174437  -174553  -174650 
 -174737  -174784  -174789  -174798  -174852  -174927  -174954  -174880 
 -174721  -174528  -174339  -174201  -174131  -174093  -174074  -174098 
 -174155  -174204  -174236  -174276  -174336  -174418  -174544  -174731 
 -174965  -175174  -175317  -175420  -175495  -175528  -175540  -175568 
 -175599  -175574  -175466  -175317  -175170  -175016  -174833  -174629 
 -174430  -174297  -174260  -174286  -174324  -174352  -174359  -174347 
 -174347  -174374  -174405  -174449  -174513  -174571  -174599  -174599 
 -174582  -174550  -174482  -174367  -174232  -174112  -174062  -174104 
 -174195  -174306  -174411  -174448  -174390  -174313  -174287  -174276 
 -174216  -174125  -174042  -173943  -173859  -173865  -173944  -174033 
 -174113  -174209  -174333  -174457  -174545  -174584  -174577  -174529 
 -174447  -174390  -174384  -174415  -174486  -174603  -174760  -174922 
 -175036  -175080  -175066  -175023  -174962  -174893  -174831  -174754 
 -174665  -174595  -174511  -174388  -174316  -174325  -174351  -174375 
 -174414  -174436  -174409  -174334  -174226  -174098  -173993  -173939 
 -173928  -173924  -173905  -173889  -173920  -174020  -174158  -174299 
 -174455  -174622  -174764  -174830  -174830  -174812  -174791  -174753 
 -174708  -174649  -174555  -174469  -174478  -174598  -174772  -174943 
 -175080  -175166  -175212  -175238  -175238  -175211  -175188  -175157 
 -175066  -174915  -174715  -174468  -174210  -174016  -173905  -173882 
 -173961  -174094  -174218  -174310  -174349  -174337  -174305  -174262 
 -174182  -174075  -174005  -174016  -174087  -174182  -174280  -174386 
 -174467  -174483  -174422  -174286  -174101  -173952  -173905  -173931 
 -173992  -174081  -174198  -174321  -174406  -174437  -174420  -174388 
 -174371  -174359  -174372  -174449  -174571  -174707  -174874  -175062 
 -175230  -175375  -175490  -175525  -175477  -175382  -175269  -175180 
 -175139  -175112  -175055  -174930  -174741  -174549  -174418  -174370 
 -174384  -174422  -174459  -174514  -174607  -174719  -174812  -174857 
 -174835  -174777  -174712  -174634  -174536  -174418  -174307  -174233 
 -174193  -174164  -174155  -174148  -174113  -174055  -173988  -173909 
 -173850  -173835  -173824  -173796  -173780  -173793  -173858  -173981 
 -174091  -174139  -174162  -174191  -174206  -174198  -174177  -174183 
 -174258  -174383  -174530  -174657  -174685  -174611  -174480  -174297 
 -174074  -173881  -173762  -173691  -173642  -173650  -173720  -173809 
 -173925  -174096  -174272  -174399  -174503  -174622  -174735  -174814 
 -174876  -174953  -175041  -175090  -175069  -174984  -174883  -174811 
 -174766  -174744  -174739  -174710  -174621  -174517  -174461  -174465 
 -174487  -174480  -174424  -174317  -174191  -174100  -174074  -174105 
 -174190  -174320  -174474  -174657  -174869  -175069  -175223  -175306 
 -175289  -175189  -175053  -174904  -174781  -174725  -174741  -174811 
 -174870  -174864  -174799  -174710  -174642  -174631  -174664  -174703 
 -174721  -174704  -174675  -174665  -174667  -174671  -174677  -174669 
 -174617  -174530  -174424  -174314  -174249  -174258  -174324  -174424 
 -174505  -174525  -174519  -174549  -174615  -174706  -174800  -174876 
 -174915  -174926  -174916  -174899  -174892  -174885  -174846  -174783 
 -174690  -174526  -174302  -174087  -173951  -173885  -173831  -173770 
 -173724  -173692  -173653  -173635  -173692  -173805  -173919  -174036 
 -174191  -174366  -174519  -174665  -174783  -174835  -174843  -174862 
 -174904  -174937  -174943  -174949  -174931  -174822  -174627  -174432 
 -174279  -174159  -174094  -174102  -174154  -174229  -174321  -174405 
 -174476  -174553  -174627  -174714  -174823  -174923  -174987  -175019 
 -175008  -174991  -174978  -174916  -174800  -174676  -174563  -174478 
 -174456  -174507  -174569  -174602  -174629  -174645  -174602  -174501 
 -174407  -174347  -174293  -174235  -174189  -174175  -174226  -174340 
 -174468  -174563  -174621  -174668  -174687  -174652  -174590  -174542 
 -174523  -174513  -174465  -174414  -174410  -174424  -174418  -174405 
 -174390  -174372  -174380  -174425  -174465  -174459  -174401  -174310 
 -174212  -174132  -174090  -174081  -174071  -174066  -174082  -174112 
 -174170  -174259  -174321  -174339  -174326  -174278  -174216  -174168 
 -174140  -174129  -174133  -174133  -174145  -174174  -174175  -174145 
 -174133  -174162  -174216  -174280  -174352  -174429  -174491  -174501 
 -174447  -174378  -174317  -174274  -174299  -174399  -174509  -174591 
 -174683  -174806  -174935  -175026  -175068  -175095  -175113  -175103 
 -175072  -175047  -175031  -175023  -175027  -175018  -174953  -174861 
 -174815  -174808  -174793  -174773  -174773  -174776  -174741  -174661 
 -174572  -174496  -174438  -174407  -174417  -174459  -174510  -174556 
 -174600  -174646  -174665  -174653  -174631  -174615  -174610  -174618 
 -174609  -174546  -174445  -174341  -174237  -174137  -174063  -174017 
 -173985  -173962  -173963  -174001  -174060  -174106  -174127  -174168 
 -174249  -174329  -174378  -174413  -174447  -174455  -174409  -174333 
 -174279  -174263  -174268  -174297  -174330  -174363  -174418  -174505 
 -174599  -174694  -174798  -174897  -174966  -175000  -175012  -175009 
 -174996  -174970  -174924  -174862  -174810  -174789  -174795  -174803 
 -174811  -174834  -174854  -174818  -174717  -174606  -174529  -174495 
 -174503  -174532  -174579  -174656  -174726  -174741  -174698  -174625 
 -174546  -174472  -174399  -174306  -174214  -174168  -174159  -174139 
 -174114  -174086  -174039  -173979  -173925  -173886  -173862  -173858 
 -173896  -173985  -174101  -174224  -174337  -174386  -174345  -174270 
 -174220  -174221  -174262  -174302  -174355  -174447  -174544  -174633 
 -174738  -174842  -174889  -174869  -174823  -174804  -174825  -174870 
 -174933  -175004  -175081  -175132  -175135  -175107  -175042  -174931 
 -174798  -174683  -174609  -174560  -174503  -174452  -174448  -174464 
 -174460  -174463  -174484  -174496  -174486  -174460  -174425  -174394 
 -174361  -174309  -174239  -174156  -174055  -173948  -173861  -173793 
 -173739  -173699  -173680  -173689  -173708  -173726  -173757  -173794 
