Origin Time       2025/06/03 22:18:00
Lat.              41.7
Long.             143.6
Depth. (km)       30
Mag.              5.2
Station Code      TKCH02
Station Lat.      43.3822
Station Long.     143.8983
Station Height(m) 225
Record Time       2025/06/03 22:19:21
Sampling Freq(Hz) 100Hz
Duration Time(s)  120
Dir.              3
Scale Factor      2942(gal)/8224139
Max. Acc. (gal)   0.260
Last Correction   2025/06/03 22:19:21
Memo.             
[...]
  -23352   -23367   -23372   -23356   -23325   -23307   -23319   -23337 
  -23342   -23337   -23329   -23321   -23311   -23305   -23305   -23314 
  -23329   -23342   -23352   -23371   -23399   -23423   -23433   -23427 
  -23415   -23413   -23433   -23473   -23510   -23535   -23556   -23575 
  -23589   -23595   -23603   -23630   -23657   -23669   -23676   -23674 
  -23662   -23649   -23634   -23615   -23598   -23591   -23585   -23554 
  -23512   -23498   -23504   -23506   -23507   -23511   -23495   -23471 
  -23463   -23457   -23441   -23427   -23410   -23369   -23306   -23255 
  -23248   -23269   -23276   -23291   -23326   -23345   -23346   -23348 
  -23346   -23348   -23353   -23344   -23334   -23353   -23379   -23384 
  -23396   -23429   -23454   -23454   -23423   -23373   -23332   -23296 
  -23263   -23241   -23230   -23224   -23233   -23265   -23303   -23326 
  -23340   -23332   -23299   -23275   -23290   -23328   -23373   -23438 
  -23494   -23511   -23517   -23527   -23550   -23576   -23581   -23577 
  -23589   -23612   -23629   -23642   -23662   -23684   -23691   -23662 
  -23606   -23557   -23542   -23537   -23511   -23480   -23465   -23460 
  -23441   -23390   -23311   -23244   -23210   -23190   -23160   -23129 
  -23116   -23137   -23180   -23201   -23188   -23175   -23178   -23179 
  -23176   -23191   -23226   -23264   -23303   -23336   -23336   -23302 
  -23253   -23221   -23230   -23255   -23269   -23280   -23295   -23323 
  -23365   -23398   -23423   -23454   -23479   -23487   -23473   -23430 
  -23392   -23395   -23427   -23469   -23510   -23541   -23550   -23535 
  -23527   -23534   -23544   -23562   -23580   -23585   -23592   -23591 
  -23565   -23542   -23538   -23539   -23537   -23529   -23526   -23539 
  -23549   -23538   -23517   -23487   -23464   -23467   -23475   -23473 
  -23476   -23480   -23467   -23437   -23426   -23434   -23425   -23407 
  -23417   -23444   -23464   -23472   -23458   -23437   -23425   -23411 
  -23386   -23349   -23305   -23260   -23236   -23228   -23215   -23210 
  -23225   -23237   -23225   -23205   -23182   -23149   -23117   -23110 
  -23124   -23144   -23184   -23236   -23263   -23269   -23291   -23317 
  -23325   -23334   -23355   -23371   -23376   -23369   -23375   -23402 
  -23421   -23426   -23429   -23423   -23422   -23431   -23440   -23446 
  -23456   -23471   -23487   -23510   -23552   -23588   -23604   -23616 
  -23627   -23630   -23611   -23584   -23572   -23571   -23564   -23552 
  -23539   -23537   -23545   -23544   -23515   -23475   -23445   -23449 
  -23472   -23495   -23517   -23534   -23537   -23530   -23508   -23480 
  -23463   -23458   -23461   -23468   -23475   -23472   -23454   -23431 
  -23425   -23434   -23449   -23461   -23464   -23449   -23445   -23468 
  -23494   -23496   -23475   -23426   -23359   -23301   -23272   -23267 
  -23271   -23286   -23307   -23305   -23267   -23225   -23209   -23210 
  -23210   -23220   -23247   -23268   -23274   -23274   -23287   -23307 
  -23309   -23286   -23265   -23248   -23214   -23188   -23198   -23221 
  -23245   -23267   -23282   -23309   -23353   -23396   -23430   -23448 
  -23452   -23449   -23444   -23445   -23465   -23495   -23534   -23572 
  -23593   -23602   -23608   -23610   -23602   -23588   -23566   -23531 
  -23490   -23454   -23429   -23413   -23421   -23453   -23495   -23531 
  -23556   -23569   -23569   -23535   -23469   -23398   -23345   -23337 
  -23375   -23430   -23460   -23469   -23495   -23530   -23539   -23523 
  -23502   -23483   -23472   -23464   -23452   -23456   -23484   -23502 
  -23487   -23446   -23411   -23403   -23415   -23438   -23458   -23448 
  -23411   -23371   -23336   -23295   -23260   -23242   -23240   -23251 
  -23279   -23299   -23299   -23299   -23301   -23283   -23238   -23193 
  -23178   -23186   -23202   -23245   -23317   -23379   -23409   -23407 
  -23368   -23301   -23245   -23232   -23261   -23311   -23364   -23400 
  -23419   -23444   -23463   -23442   -23404   -23386   -23382   -23364 
  -23340   -23338   -23359   -23382   -23390   -23377   -23360   -23344 
  -23328   -23318   -23332   -23356   -23377   -23404   -23433   -23438 
  -23437   -23440   -23425   -23414   -23433   -23448   -23448   -23446 
  -23446   -23457   -23475   -23484   -23498   -23519   -23527   -23512 
  -23483   -23472   -23498   -23529   -23548   -23550   -23549   -23557 
  -23565   -23565   -23569   -23583   -23598   -23610   -23607   -23589 
  -23565   -23538   -23506   -23479   -23468   -23457   -23426   -23392 
  -23363   -23334   -23313   -23305   -23307   -23325   -23357   -23387 
  -23403   -23409   -23411   -23417   -23422   -23421   -23419   -23437 
  -23457   -23453   -23430   -23417   -23425   -23441   -23441   -23425 
  -23406   -23390   -23380   -23380   -23387   -23391   -23377   -23348 
  -23336   -23349   -23346   -23322   -23307   -23310   -23313   -23298 
  -23283   -23306   -23352   -23380   -23392   -23400   -23415   -23440 
  -23456   -23467   -23483   -23494   -23506   -23537   -23581   -23620 
  -23633   -23615   -23591   -23569   -23557   -23557   -23560   -23561 
  -23562   -23542   -23494   -23454   -23450   -23472   -23498   -23508 
  -23495   -23471   -23441   -23407   -23384   -23380   -23394   -23413 
  -23414   -23379   -23336   -23314   -23303   -23295   -23290   -23298 
  -23313   -23313   -23294   -23282   -23276   -23249   -23210   -23182 
  -23166   -23167   -23183   -23207   -23233   -23240   -23234   -23240 
  -23256   -23268   -23276   -23282   -23278   -23263   -23253   -23253 
  -23256   -23260   -23269   -23296   -23326   -23349   -23373   -23398 
  -23406   -23407   -23407   -23402   -23403   -23423   -23446   -23456 
  -23453   -23453   -23454   -23446   -23426   -23415   -23426   -23436 
  -23431   -23433   -23464   -23496   -23499   -23492   -23503   -23522 
  -23534   -23541   -23538   -23523   -23512   -23519   -23535   -23556 
  -23579   -23598   -23611   -23619   -23615   -23598   -23583   -23577 
  -23580   -23583   -23564   -23519   -23485   -23479   -23472   -23454 
  -23440   -23433   -23436   -23437   -23438   -23454   -23473   -23476 
  -23453   -23413   -23376   -23340   -23301   -23279   -23278   -23290 
  -23310   -23318   -23306   -23298   -23301   -23301   -23296   -23296 
  -23299   -23295   -23290   -23287   -23283   -23287   -23301   -23314 
  -23319   -23317   -23313   -23306   -23299   -23298   -23294   -23286 
  -23282   -23286   -23291   -23302   -23322   -23336   -23337   -23322 
  -23288   -23256   -23261   -23306   -23372   -23437   -23492   -23529 
  -23526   -23491   -23453   -23430   -23426   -23426   -23430   -23463 
  -23521   -23581   -23633   -23661   -23654   -23627   -23600   -23583 
  -23577   -23589   -23619   -23650   -23664   -23660   -23641   -23610 
  -23572   -23530   -23498   -23477   -23454   -23426   -23410   -23406 
  -23399   -23375   -23349   -23350   -23376   -23396   -23386   -23364 
  -23352   -23341   -23332   -23328   -23328   -23340   -23357   -23364 
  -23367   -23369   -23365   -23356   -23338   -23325   -23317   -23307 
  -23301   -23301   -23299   -23295   -23291   -23292   -23302   -23323 
  -23359   -23402   -23436   -23460   -23487   -23508   -23514   -23508 
  -23502   -23490   -23452   -23400   -23364   -23348   -23357   -23391 
  -23422   -23434   -23438   -23437   -23425   -23406   -23387   -23367 
  -23353   -23345   -23340   -23330   -23321   -23319   -23323   -23325 
  -23329   -23330   -23325   -23314   -23309   -23314   -23314   -23311 
  -23318   -23341   -23392   -23461   -23523   -23562   -23581   -23592 
  -23600   -23612   -23637   -23662   -23681   -23688   -23688   -23684 
  -23683   -23669   -23635   -23598   -23561   -23521   -23492   -23491 
  -23495   -23476   -23434   -23380   -23319   -23259   -23210   -23178 
  -23170   -23179   -23194   -23214   -23248   -23287   -23314   -23328 
  -23340   -23352   -23356   -23361   -23375   -23402   -23434   -23453 
  -23460   -23467   -23469   -23472   -23472   -23448   -23417   -23402 
  -23410   -23441   -23472   -23492   -23514   -23533   -23530   -23503 
  -23469   -23450   -23440   -23422   -23399   -23368   -23332   -23290 
  -23236   -23172   -23125   -23099   -23078   -23053   -23040   -23028 
  -23012   -23008   -23016   -23018   -23035   -23070   -23109   -23145 
  -23184   -23237   -23313   -23395   -23475   -23548   -23612   -23669 
  -23710   -23739   -23768   -23788   -23793   -23804   -23826   -23832 
  -23818   -23785   -23751   -23719   -23683   -23645   -23622   -23602 
  -23566   -23529   -23498   -23476   -23463   -23452   -23434   -23407 
  -23377   -23350   -23321   -23292   -23263   -23244   -23240   -23238 
  -23229   -23220   -23220   -23220   -23221   -23225   -23221   -23210 
  -23210   -23234   -23269   -23302   -23322   -23332   -23336   -23342 
  -23357   -23390   -23431   -23453   -23461   -23484   -23518   -23542 
  -23560   -23580   -23595   -23598   -23584   -23557   -23531   -23522 
  -23523   -23514   -23488   -23458   -23426   -23390   -23352   -23315 
  -23276   -23248   -23238   -23248   -23272   -23295   -23317   -23338 
  -23345   -23326   -23296   -23272   -23272   -23296   -23318   -23342 
  -23390   -23450   -23507   -23552   -23568   -23560   -23550   -23544 
  -23534   -23517   -23490   -23468   -23452   -23434   -23426   -23436 
  -23446   -23458   -23468   -23472   -23483   -23494   -23492   -23491 
  -23484   -23460   -23450   -23456   -23461   -23469   -23471   -23445 
  -23415   -23384   -23348   -23321   -23306   -23298   -23294   -23291 
  -23298   -23322   -23349   -23371   -23396   -23442   -23488   -23518 
  -23539   -23564   -23580   -23591   -23595   -23587   -23569   -23554 
  -23548   -23550   -23565   -23587   -23619   -23661   -23691   -23701 
  -23708   -23708   -23697   -23683   -23652   -23608   -23556   -23490 
  -23430   -23391   -23356   -23319   -23279   -23225   -23157   -23083 
  -23016   -22970   -22943   -22932   -22929   -22931   -22936   -22954 
  -22979   -23002   -23014   -23020   -23025   -23044   -23090   -23148 
  -23203   -23261   -23317   -23364   -23410   -23450   -23477   -23508 
  -23546   -23579   -23607   -23631   -23637   -23622   -23604   -23593 
  -23588   -23587   -23581   -23576   -23579   -23591   -23603   -23610 
  -23615   -23612   -23595   -23568   -23548   -23535   -23529   -23527 
  -23523   -23512   -23498   -23475   -23438   -23396   -23346   -23287 
  -23237   -23201   -23176   -23172   -23182   -23193   -23201   -23218 
  -23256   -23310   -23360   -23403   -23449   -23499   -23539   -23568 
  -23589   -23604   -23604   -23589   -23565   -23533   -23496   -23453 
  -23404   -23359   -23326   -23311   -23310   -23317   -23330   -23340 
  -23342   -23346   -23348   -23344   -23337   -23326   -23309   -23299 
  -23303   -23307   -23310   -23328   -23355   -23375   -23387   -23404 
  -23430   -23465   -23498   -23525   -23554   -23585   -23603   -23608 
  -23619   -23634   -23652   -23670   -23687   -23693   -23688   -23673 
  -23649   -23623   -23606   -23585   -23565   -23541   -23506   -23471 
  -23442   -23398   -23333   -23265   -23206   -23151   -23098   -23056 
  -23024   -22998   -22991   -22993   -22994   -23008   -23031   -23047 
  -23066   -23090   -23120   -23156   -23194   -23228   -23257   -23291 
  -23330   -23372   -23422   -23475   -23518   -23550   -23568   -23575 
  -23589   -23602   -23592   -23571   -23558   -23552   -23544   -23541 
  -23541   -23541   -23541   -23531   -23511   -23487   -23463   -23444 
  -23427   -23411   -23395   -23387   -23387   -23394   -23403   -23409 
  -23409   -23413   -23423   -23430   -23433   -23437   -23441   -23438 
  -23436   -23440   -23437   -23419   -23396   -23380   -23373   -23361 
  -23342   -23332   -23325   -23307   -23294   -23290   -23291   -23303 
  -23328   -23359   -23386   -23407   -23425   -23431   -23415   -23384 
  -23352   -23322   -23290   -23260   -23240   -23226   -23225   -23240 
  -23265   -23294   -23318   -23342   -23367   -23380   -23384   -23375 
  -23357   -23342   -23334   -23336   -23356   -23390   -23426   -23471 
  -23518   -23554   -23580   -23600   -23618   -23638   -23654   -23666 
  -23683   -23704   -23723   -23739   -23754   -23754   -23747   -23742 
  -23733   -23710   -23677   -23642   -23607   -23568   -23518   -23481 
  -23464   -23434   -23402   -23386   -23371   -23350   -23336   -23321 
  -23307   -23306   -23315   -23336   -23368   -23402   -23429   -23444 
  -23445   -23436   -23419   -23410   -23426   -23460   -23500   -23539 
  -23556   -23553   -23544   -23526   -23498   -23464   -23441   -23441 
  -23450   -23456   -23468   -23494   -23515   -23527   -23529   -23521 
  -23508   -23495   -23483   -23480   -23483   -23481   -23484   -23488 
  -23476   -23452   -23426   -23399   -23367   -23330   -23288   -23237 
  -23182   -23136   -23094   -23063   -23047   -23035   -23021   -23014 
  -23013   -23017   -23025   -23029   -23028   -23036   -23056   -23075 
  -23099   -23132   -23159   -23193   -23236   -23272   -23302   -23334 
  -23369   -23406   -23437   -23468   -23503   -23539   -23568   -23600 
  -23635   -23654   -23661   -23674   -23688   -23695   -23697   -23708 
  -23726   -23735   -23733   -23719   -23693   -23658   -23619   -23587 
  -23569   -23569   -23573   -23575   -23573   -23577   -23589   -23611 
  -23643   -23685   -23719   -23734   -23738   -23723   -23693   -23670 
  -23650   -23627   -23604   -23573   -23533   -23496   -23458   -23410 
  -23352   -23294   -23242   -23191   -23134   -23070   -23004   -22944 
  -22891   -22843   -22801   -22762   -22729   -22707   -22688   -22682 
  -22693   -22709   -22731   -22762   -22800   -22839   -22878   -22916 
  -22955   -22990   -23020   -23048   -23079   -23121   -23176   -23234 
  -23283   -23330   -23380   -23437   -23498   -23558   -23618   -23672 
  -23722   -23772   -23814   -23851   -23895   -23939   -23978   -24012 
  -24038   -24061   -24086   -24100   -24086   -24054   -24017   -23973 
  -23922   -23881   -23847   -23815   -23782   -23747   -23703   -23652 
  -23593   -23531   -23471   -23417   -23375   -23334   -23294   -23264 
  -23240   -23214   -23197   -23179   -23166   -23167   -23178   -23199 
  -23234   -23263   -23283   -23305   -23332   -23364   -23403   -23440 
  -23461   -23469   -23476   -23477   -23475   -23475   -23473   -23475 
  -23485   -23502   -23518   -23525   -23523   -23515   -23503   -23496 
  -23487   -23473   -23471   -23468   -23457   -23441   -23418   -23392 
  -23364   -23346   -23344   -23342   -23344   -23355   -23364   -23365 
  -23363   -23348   -23323   -23302   -23283   -23265   -23249   -23238 
  -23224   -23213   -23211   -23211   -23205   -23197   -23193   -23197 
  -23205   -23218   -23249   -23292   -23330   -23367   -23402   -23431 
  -23458   -23483   -23504   -23521   -23531   -23538   -23541   -23538 
  -23530   -23512   -23491   -23465   -23434   -23404   -23376   -23353 
  -23341   -23338   -23337   -23333   -23325   -23313   -23301   -23290 
  -23276   -23263   -23255   -23252   -23248   -23245   -23256   -23272 
  -23278   -23283   -23301   -23318   -23328   -23330   -23334   -23338 
  -23337   -23328   -23321   -23314   -23303   -23288   -23268   -23247 
  -23229   -23220   -23214   -23211   -23220   -23241   -23264   -23282 
  -23299   -23314   -23332   -23356   -23379   -23399   -23423   -23452 
  -23476   -23494   -23511   -23533   -23550   -23562   -23573   -23579 
  -23577   -23573   -23576   -23583   -23589   -23602   -23619   -23634 
  -23647   -23660   -23668   -23673   -23677   -23673   -23665   -23647 
  -23623   -23602   -23581   -23556   -23535   -23527   -23525   -23519 
  -23512   -23507   -23498   -23476   -23449   -23426   -23399   -23379 
  -23376   -23380   -23379   -23382   -23394   -23417   -23434   -23445 
  -23453   -23464   -23476   -23487   -23490   -23487   -23488   -23491 
  -23498   -23510   -23519   -23525   -23527   -23519   -23504   -23498 
  -23491   -23483   -23472   -23456   -23434   -23417   -23399   -23384 
  -23376   -23377   -23377   -23379   -23383   -23376   -23360   -23344 
  -23334   -23332   -23333   -23333   -23340   -23357   -23373   -23387 
  -23400   -23404   -23402   -23398   -23398   -23396   -23390   -23376 
  -23357   -23333   -23309   -23286   -23275   -23280   -23290   -23302 
  -23314   -23317   -23314   -23321   -23333   -23344   -23355   -23369 
  -23382   -23386   -23390   -23402   -23417   -23438   -23457   -23461 
  -23460   -23457   -23448   -23431   -23417   -23407   -23403   -23410 
  -23419   -23429   -23437   -23444   -23449   -23448   -23440   -23436 
  -23436   -23436   -23433   -23427   -23418   -23410   -23403   -23400 
  -23409   -23423   -23448   -23475   -23492   -23496   -23495   -23491 
  -23491   -23494   -23495   -23500   -23506   -23507   -23503   -23500 
  -23500   -23504   -23514   -23519   -23519   -23514   -23507   -23506 
  -23506   -23502   -23494   -23481   -23472   -23468   -23456   -23444 
  -23433   -23417   -23399   -23382   -23363   -23346   -23329   -23303 
  -23282   -23261   -23238   -23226   -23220   -23211   -23209   -23206 
  -23205   -23206   -23213   -23228   -23242   -23253   -23264   -23272 
  -23278   -23278   -23276   -23282   -23288   -23287   -23282   -23278 
  -23282   -23290   -23290   -23284   -23282   -23269   -23253   -23247 
  -23244   -23247   -23257   -23260   -23249   -23237   -23226   -23215 
  -23209   -23207   -23211   -23217   -23226   -23240   -23253   -23267 
  -23287   -23311   -23338   -23368   -23406   -23456   -23510   -23557 
  -23595   -23627   -23654   -23677   -23703   -23731   -23758   -23777 
  -23787   -23791   -23792   -23792   -23795   -23800   -23800   -23795 
  -23788   -23784   -23784   -23782   -23772   -23757   -23734   -23703 
  -23670   -23639   -23610   -23585   -23561   -23527   -23490   -23456 
  -23421   -23384   -23349   -23314   -23279   -23244   -23211   -23187 
  -23171   -23152   -23130   -23114   -23109   -23117   -23130   -23134 
  -23133   -23132   -23136   -23145   -23155   -23163   -23182   -23207 
  -23229   -23242   -23259   -23280   -23303   -23322   -23337   -23352 
  -23363   -23368   -23375   -23382   -23390   -23402   -23414   -23430 
  -23446   -23458   -23461   -23464   -23463   -23448   -23429   -23413 
  -23406   -23417   -23426   -23430   -23437   -23437   -23427   -23423 
  -23417   -23400   -23384   -23364   -23348   -23345   -23346   -23350 
  -23359   -23364   -23367   -23372   -23377   -23386   -23399   -23409 
  -23413   -23423   -23430   -23429   -23431   -23430   -23418   -23407 
  -23403   -23404   -23409   -23409   -23406   -23404   -23403   -23407 
  -23418   -23437   -23457   -23480   -23500   -23515   -23531   -23550 
  -23560   -23561   -23566   -23572   -23577   -23589   -23604   -23616 
  -23630   -23639   -23646   -23662   -23677   -23688   -23689   -23681 
  -23674   -23668   -23652   -23631   -23612   -23600   -23596   -23589 
  -23573   -23544   -23507   -23467   -23418   -23365   -23317   -23268 
  -23224   -23186   -23152   -23121   -23097   -23080   -23075   -23076 
  -23083   -23097   -23112   -23128   -23152   -23187   -23230   -23265 
  -23301   -23334   -23359   -23384   -23415   -23440   -23458   -23481 
  -23494   -23498   -23510   -23522   -23531   -23541   -23545   -23549 
  -23561   -23571   -23577   -23585   -23592   -23598   -23604   -23614 
  -23618   -23620   -23622   -23620   -23608   -23587   -23558   -23529 
