Origin Time       2025/06/03 22:18:00
Lat.              41.7
Long.             143.6
Depth. (km)       30
Mag.              5.2
Station Code      TKCH10
Station Lat.      43.3337
Station Long.     142.9448
Station Height(m) 265
Record Time       2025/06/03 22:19:19
Sampling Freq(Hz) 100Hz
Duration Time(s)  120
Dir.              3
Scale Factor      2942(gal)/8224139
Max. Acc. (gal)   0.132
Last Correction   2025/06/03 22:19:20
Memo.             
[...]
  -68926   -68932   -68948   -68966   -68968   -68956   -68945   -68945 
  -68963   -68987   -69010   -69030   -69041   -69040   -69036   -69037 
  -69043   -69060   -69087   -69115   -69132   -69133   -69124   -69124 
  -69145   -69174   -69196   -69209   -69211   -69199   -69171   -69133 
  -69094   -69063   -69041   -69020   -68998   -68979   -68959   -68940 
  -68933   -68939   -68952   -68971   -68997   -69018   -69029   -69036 
  -69041   -69039   -69033   -69029   -69025   -69018   -69018   -69025 
  -69026   -69022   -69020   -69009   -68993   -68976   -68964   -68960 
  -68959   -68960   -68971   -68995   -69022   -69047   -69079   -69115 
  -69141   -69157   -69163   -69159   -69159   -69168   -69167   -69142 
  -69106   -69067   -69028   -69003   -69001   -68995   -68976   -68955 
  -68925   -68883   -68844   -68820   -68813   -68828   -68856   -68883 
  -68905   -68922   -68933   -68945   -68966   -68999   -69043   -69084 
  -69107   -69122   -69138   -69151   -69160   -69164   -69164   -69171 
  -69172   -69157   -69134   -69118   -69103   -69094   -69093   -69095 
  -69101   -69105   -69105   -69101   -69097   -69107   -69130   -69147 
  -69140   -69111   -69074   -69033   -68980   -68917   -68867   -68832 
  -68806   -68790   -68793   -68824   -68875   -68924   -68963   -68997 
  -69025   -69045   -69055   -69057   -69061   -69064   -69061   -69052 
  -69037   -69022   -69006   -68990   -68972   -68952   -68933   -68913 
  -68885   -68855   -68836   -68827   -68823   -68837   -68877   -68918 
  -68945   -68972   -68999   -69018   -69033   -69052   -69071   -69083 
  -69097   -69106   -69095   -69075   -69072   -69097   -69132   -69171 
  -69214   -69249   -69268   -69271   -69255   -69225   -69210   -69215 
  -69226   -69238   -69250   -69252   -69226   -69172   -69106   -69044 
  -68993   -68953   -68926   -68906   -68886   -68868   -68854   -68844 
  -68844   -68855   -68867   -68875   -68891   -68918   -68941   -68956 
  -68968   -68978   -68998   -69039   -69080   -69122   -69171   -69219 
  -69259   -69286   -69296   -69292   -69280   -69256   -69223   -69188 
  -69155   -69118   -69078   -69048   -69030   -69017   -69005   -68995 
  -68994   -68999   -69001   -69002   -69012   -69026   -69044   -69070 
  -69093   -69098   -69087   -69070   -69049   -69029   -69002   -68972 
  -68949   -68936   -68933   -68925   -68920   -68924   -68925   -68931 
  -68947   -68955   -68958   -68963   -68962   -68960   -68966   -68974 
  -68986   -68998   -69002   -69005   -69006   -68990   -68970   -68964 
  -68971   -68979   -68990   -69005   -69012   -69005   -68989   -68971 
  -68959   -68962   -68972   -68983   -68990   -68987   -68972   -68944 
  -68912   -68881   -68856   -68840   -68836   -68840   -68856   -68889 
  -68933   -68979   -69022   -69067   -69101   -69118   -69141   -69160 
  -69157   -69161   -69183   -69196   -69198   -69201   -69199   -69190 
  -69182   -69175   -69174   -69178   -69187   -69201   -69206   -69202 
  -69198   -69194   -69186   -69179   -69167   -69151   -69141   -69126 
  -69101   -69070   -69045   -69024   -68999   -68983   -68978   -68967 
  -68944   -68918   -68893   -68871   -68862   -68870   -68891   -68917 
  -68940   -68953   -68955   -68951   -68948   -68951   -68966   -68994 
  -69024   -69051   -69066   -69063   -69045   -69029   -69021   -69020 
  -69028   -69051   -69083   -69105   -69106   -69093   -69071   -69045 
  -69026   -69022   -69024   -69029   -69034   -69037   -69037   -69036 
  -69039   -69055   -69079   -69101   -69117   -69129   -69137   -69133 
  -69117   -69097   -69083   -69070   -69049   -69030   -69009   -68983 
  -68956   -68943   -68944   -68947   -68947   -68948   -68945   -68944 
  -68951   -68956   -68959   -68974   -68995   -69012   -69022   -69028 
  -69026   -69029   -69040   -69052   -69061   -69070   -69078   -69086 
  -69094   -69099   -69101   -69090   -69071   -69061   -69063   -69056 
  -69049   -69051   -69047   -69041   -69047   -69055   -69053   -69055 
  -69064   -69066   -69057   -69053   -69043   -69025   -69013   -69002 
  -68979   -68956   -68940   -68929   -68920   -68905   -68887   -68866 
  -68844   -68832   -68832   -68836   -68848   -68871   -68897   -68918 
  -68941   -68963   -68985   -69002   -69024   -69064   -69117   -69167 
  -69207   -69250   -69296   -69333   -69349   -69353   -69348   -69329 
  -69304   -69284   -69264   -69236   -69202   -69172   -69148   -69118 
  -69078   -69037   -69007   -68982   -68963   -68953   -68945   -68933 
  -68912   -68882   -68855   -68843   -68852   -68874   -68898   -68913 
  -68922   -68931   -68936   -68947   -68960   -68968   -68980   -69005 
  -69029   -69047   -69055   -69051   -69043   -69036   -69021   -69007 
  -68993   -68972   -68956   -68958   -68968   -68971   -68962   -68951 
  -68948   -68960   -68985   -69006   -69017   -69026   -69040   -69053 
  -69063   -69076   -69091   -69109   -69130   -69151   -69159   -69161 
  -69156   -69134   -69109   -69083   -69057   -69032   -69006   -68975 
  -68940   -68906   -68867   -68828   -68790   -68760   -68735   -68713 
  -68709   -68721   -68736   -68759   -68789   -68812   -68833   -68856 
  -68882   -68909   -68928   -68937   -68949   -68963   -68966   -68962 
  -68959   -68956   -68952   -68944   -68936   -68939   -68949   -68963 
  -68990   -69024   -69041   -69049   -69064   -69079   -69082   -69086 
  -69101   -69122   -69141   -69155   -69160   -69163   -69161   -69159 
  -69163   -69180   -69205   -69226   -69244   -69256   -69268   -69286 
  -69298   -69295   -69284   -69268   -69238   -69206   -69186   -69175 
  -69161   -69145   -69144   -69153   -69157   -69153   -69142   -69140 
  -69151   -69159   -69161   -69160   -69147   -69126   -69107   -69083 
  -69063   -69061   -69074   -69093   -69122   -69147   -69155   -69151 
  -69133   -69107   -69082   -69053   -69025   -68999   -68968   -68928 
  -68882   -68841   -68813   -68797   -68786   -68785   -68794   -68813 
  -68837   -68859   -68870   -68883   -68917   -68955   -68987   -69022 
  -69060   -69093   -69124   -69156   -69184   -69205   -69214   -69221 
  -69230   -69241   -69246   -69241   -69230   -69213   -69182   -69144 
  -69107   -69078   -69056   -69037   -69013   -68983   -68948   -68914 
  -68887   -68871   -68864   -68875   -68891   -68905   -68918   -68920 
  -68917   -68928   -68945   -68960   -68982   -69009   -69034   -69055 
  -69068   -69074   -69076   -69076   -69072   -69074   -69075   -69064 
  -69044   -69024   -69005   -68990   -68978   -68963   -68948   -68940 
  -68935   -68939   -68956   -68971   -68979   -68991   -69003   -69012 
  -69016   -69021   -69033   -69048   -69066   -69082   -69094   -69098 
  -69098   -69103   -69115   -69124   -69128   -69126   -69122   -69122 
  -69124   -69115   -69101   -69082   -69059   -69034   -69006   -68976 
  -68959   -68949   -68941   -68939   -68941   -68952   -68971   -68993 
  -69012   -69024   -69036   -69048   -69053   -69053   -69049   -69041 
  -69032   -69024   -69017   -69001   -68980   -68962   -68943   -68918 
  -68894   -68878   -68863   -68848   -68839   -68833   -68835   -68845 
  -68858   -68870   -68877   -68881   -68886   -68889   -68887   -68885 
  -68886   -68890   -68891   -68893   -68891   -68893   -68902   -68910 
  -68920   -68937   -68958   -68979   -69006   -69044   -69083   -69114 
  -69144   -69180   -69217   -69248   -69268   -69280   -69290   -69294 
  -69296   -69295   -69292   -69296   -69296   -69292   -69296   -69298 
  -69284   -69259   -69225   -69180   -69130   -69083   -69043   -69001 
  -68956   -68914   -68883   -68866   -68855   -68854   -68871   -68902 
  -68940   -68979   -69013   -69037   -69056   -69075   -69098   -69118 
  -69133   -69147   -69157   -69161   -69163   -69161   -69153   -69141 
  -69128   -69115   -69105   -69091   -69070   -69047   -69022   -68999 
  -68980   -68971   -68972   -68976   -68972   -68968   -68970   -68963 
  -68940   -68918   -68910   -68913   -68921   -68928   -68931   -68935 
  -68941   -68951   -68966   -68979   -68997   -69020   -69034   -69040 
  -69043   -69043   -69037   -69028   -69020   -69017   -69017   -69018 
  -69022   -69025   -69028   -69032   -69039   -69051   -69061   -69074 
  -69080   -69078   -69070   -69067   -69067   -69071   -69078   -69087 
  -69105   -69129   -69147   -69161   -69184   -69209   -69232   -69253 
  -69261   -69257   -69249   -69233   -69205   -69172   -69137   -69105 
  -69076   -69047   -69014   -68986   -68968   -68960   -68951   -68940 
  -68928   -68914   -68895   -68875   -68863   -68854   -68844   -68831 
  -68813   -68793   -68771   -68752   -68748   -68760   -68779   -68808 
  -68840   -68871   -68895   -68913   -68932   -68955   -68976   -68997 
  -69017   -69039   -69060   -69080   -69105   -69128   -69148   -69169 
  -69194   -69218   -69240   -69253   -69263   -69273   -69280   -69282 
  -69280   -69269   -69242   -69211   -69183   -69149   -69109   -69079 
  -69057   -69039   -69022   -69012   -68998   -68987   -68982   -68982 
  -68982   -68976   -68971   -68970   -68972   -68974   -68976   -68978 
  -68970   -68956   -68947   -68935   -68920   -68917   -68918   -68918 
  -68914   -68905   -68887   -68868   -68852   -68839   -68828   -68821 
  -68821   -68832   -68843   -68848   -68851   -68848   -68851   -68864 
  -68883   -68905   -68937   -68974   -69012   -69044   -69072   -69097 
  -69121   -69153   -69186   -69210   -69233   -69253   -69260   -69257 
  -69246   -69230   -69210   -69195   -69182   -69160   -69130   -69101 
  -69070   -69040   -69012   -68980   -68952   -68925   -68904   -68891 
  -68891   -68893   -68895   -68906   -68920   -68935   -68960   -68995 
  -69024   -69051   -69084   -69121   -69152   -69179   -69202   -69218 
  -69226   -69229   -69226   -69217   -69202   -69184   -69164   -69151 
  -69147   -69141   -69129   -69115   -69102   -69090   -69078   -69060 
  -69041   -69026   -69014   -68997   -68974   -68958   -68948   -68943 
  -68945   -68953   -68964   -68976   -68989   -69005   -69021   -69037 
  -69055   -69061   -69060   -69064   -69070   -69071   -69068   -69066 
  -69060   -69052   -69045   -69039   -69033   -69029   -69028   -69026 
  -69018   -69002   -68985   -68966   -68945   -68925   -68902   -68882 
  -68874   -68875   -68881   -68890   -68904   -68925   -68952   -68982 
  -69016   -69051   -69080   -69113   -69141   -69155   -69156   -69153 
  -69147   -69141   -69137   -69129   -69122   -69115   -69103   -69091 
  -69084   -69083   -69087   -69093   -69099   -69103   -69113   -69126 
  -69137   -69144   -69160   -69175   -69187   -69195   -69194   -69187 
  -69182   -69168   -69151   -69132   -69105   -69074   -69040   -69002 
  -68966   -68926   -68893   -68872   -68855   -68833   -68810   -68786 
  -68767   -68751   -68729   -68713   -68713   -68727   -68743   -68756 
  -68774   -68783   -68785   -68789   -68793   -68800   -68816   -68833 
  -68844   -68854   -68860   -68860   -68855   -68843   -68836   -68840 
  -68841   -68843   -68850   -68852   -68854   -68864   -68881   -68901 
  -68928   -68959   -68994   -69030   -69064   -69097   -69125   -69148 
  -69175   -69214   -69252   -69280   -69303   -69319   -69329   -69336 
  -69342   -69348   -69356   -69367   -69369   -69357   -69337   -69319 
  -69296   -69265   -69238   -69218   -69195   -69172   -69151   -69122 
  -69094   -69074   -69056   -69040   -69029   -69021   -69017   -69018 
  -69020   -69017   -69012   -69009   -69013   -69022   -69036   -69052 
  -69072   -69087   -69095   -69105   -69118   -69124   -69121   -69113 
  -69106   -69097   -69083   -69070   -69059   -69048   -69036   -69021 
  -69005   -68994   -68987   -68975   -68963   -68959   -68949   -68943 
  -68955   -68974   -68989   -69007   -69028   -69040   -69051   -69063 
  -69074   -69078   -69075   -69074   -69071   -69066   -69063   -69060 
  -69055   -69048   -69044   -69033   -69016   -69003   -68997   -68987 
  -68976   -68962   -68939   -68912   -68887   -68868   -68858   -68847 
  -68832   -68821   -68813   -68802   -68797   -68802   -68814   -68832 
  -68856   -68885   -68914   -68944   -68983   -69032   -69080   -69124 
  -69168   -69213   -69242   -69259   -69271   -69276   -69280   -69279 
  -69272   -69263   -69250   -69233   -69214   -69188   -69159   -69133 
  -69117   -69101   -69082   -69057   -69037   -69022   -69006   -68986 
  -68967   -68949   -68933   -68918   -68899   -68883   -68874   -68870 
  -68871   -68877   -68886   -68895   -68909   -68921   -68936   -68956 
  -68980   -69002   -69020   -69029   -69041   -69056   -69064   -69071 
  -69083   -69095   -69106   -69114   -69113   -69102   -69094   -69083 
  -69070   -69055   -69037   -69024   -69013   -69001   -68990   -68982 
  -68972   -68964   -68959   -68959   -68964   -68972   -68987   -69005 
  -69024   -69043   -69060   -69078   -69098   -69120   -69142   -69167 
  -69186   -69198   -69209   -69217   -69223   -69228   -69230   -69232 
  -69225   -69211   -69202   -69195   -69190   -69180   -69168   -69160 
  -69147   -69124   -69102   -69079   -69048   -69020   -68997   -68972 
  -68943   -68917   -68894   -68875   -68860   -68844   -68829   -68820 
  -68809   -68800   -68796   -68791   -68789   -68794   -68798   -68802 
  -68806   -68814   -68824   -68833   -68844   -68859   -68875   -68893 
  -68910   -68928   -68951   -68971   -68986   -69002   -69021   -69044 
  -69066   -69088   -69109   -69129   -69148   -69167   -69186   -69207 
  -69230   -69253   -69275   -69294   -69313   -69334   -69352   -69365 
  -69377   -69390   -69399   -69399   -69392   -69381   -69369   -69356 
  -69337   -69314   -69286   -69255   -69226   -69195   -69160   -69126 
  -69093   -69061   -69028   -68994   -68964   -68933   -68904   -68878 
  -68856   -68839   -68823   -68804   -68789   -68781   -68769   -68758 
  -68752   -68750   -68752   -68759   -68769   -68783   -68801   -68816 
  -68833   -68852   -68872   -68894   -68914   -68932   -68947   -68952 
  -68953   -68958   -68959   -68956   -68953   -68953   -68951   -68948 
  -68948   -68956   -68971   -68980   -68985   -68991   -68999   -69006 
  -69010   -69013   -69010   -69009   -69014   -69017   -69013   -69003 
  -68995   -68989   -68989   -68993   -69001   -69009   -69017   -69030 
  -69044   -69055   -69067   -69076   -69082   -69084   -69083   -69075 
  -69064   -69055   -69047   -69037   -69025   -69007   -68994   -68989 
  -68986   -68975   -68962   -68956   -68955   -68956   -68964   -68974 
  -68982   -68997   -69016   -69030   -69052   -69078   -69101   -69126 
  -69153   -69178   -69198   -69213   -69225   -69242   -69259   -69261 
  -69260   -69249   -69233   -69213   -69183   -69156   -69132   -69101 
  -69070   -69041   -69005   -68967   -68933   -68902   -68877   -68860 
  -68854   -68851   -68848   -68848   -68855   -68859   -68860   -68868 
  -68879   -68891   -68909   -68922   -68933   -68948   -68968   -68993 
  -69021   -69051   -69082   -69115   -69145   -69169   -69188   -69201 
  -69218   -69232   -69240   -69249   -69257   -69259   -69257   -69256 
  -69249   -69238   -69230   -69225   -69219   -69214   -69209   -69198 
  -69180   -69165   -69148   -69128   -69115   -69107   -69093   -69074 
  -69056   -69039   -69022   -69009   -68998   -68986   -68974   -68966 
  -68966   -68966   -68962   -68956   -68953   -68953   -68956   -68962 
  -68970   -68976   -68982   -68990   -68993   -68987   -68983   -68978 
  -68963   -68948   -68943   -68937   -68935   -68936   -68933   -68931 
  -68935   -68939   -68940   -68941   -68947   -68953   -68962   -68972 
  -68983   -68989   -68994   -68998   -68999   -69003   -69012   -69016 
  -69018   -69028   -69040   -69048   -69053   -69057   -69059   -69060 
  -69064   -69061   -69059   -69061   -69063   -69057   -69049   -69040 
  -69025   -69009   -68998   -68986   -68975   -68966   -68955   -68939 
  -68925   -68912   -68898   -68890   -68891   -68891   -68894   -68895 
  -68893   -68887   -68887   -68893   -68899   -68912   -68932   -68952 
  -68970   -68987   -69005   -69017   -69025   -69030   -69036   -69045 
  -69053   -69056   -69055   -69060   -69060   -69055   -69055   -69052 
  -69048   -69051   -69053   -69056   -69061   -69070   -69072   -69075 
  -69075   -69075   -69082   -69088   -69093   -69098   -69105   -69111 
  -69111   -69111   -69114   -69113   -69110   -69111   -69120   -69126 
  -69126   -69124   -69122   -69121   -69111   -69102   -69101   -69094 
  -69088   -69083   -69068   -69053   -69043   -69028   -69007   -68989 
  -68972   -68958   -68943   -68924   -68906   -68894   -68891   -68890 
  -68895   -68909   -68926   -68941   -68958   -68975   -68990   -69003 
  -69014   -69021   -69034   -69052   -69067   -69079   -69090   -69091 
  -69088   -69086   -69082   -69078   -69071   -69059   -69053   -69055 
  -69056   -69055   -69055   -69056   -69063   -69072   -69080   -69086 
  -69091   -69098   -69106   -69111   -69115   -69114   -69107   -69099 
  -69093   -69087   -69083   -69079   -69072   -69066   -69060   -69052 
  -69043   -69034   -69026   -69018   -69014   -69009   -69003   -69001 
  -68998   -68995   -68991   -68983   -68974   -68968   -68967   -68959 
  -68952   -68952   -68951   -68944   -68941   -68940   -68937   -68936 
  -68945   -68958   -68968   -68979   -68997   -69016   -69037   -69061 
  -69087   -69111   -69132   -69153   -69171   -69182   -69187   -69188 
  -69187   -69183   -69179   -69171   -69160   -69149   -69138   -69125 
  -69110   -69098   -69086   -69079   -69076   -69076   -69076   -69079 
  -69082   -69083   -69084   -69088   -69094   -69097   -69102   -69106 
  -69110   -69113   -69114   -69115   -69115   -69115   -69114   -69109 
  -69098   -69088   -69080   -69068   -69049   -69029   -69010   -68991 
  -68968   -68944   -68926   -68912   -68897   -68885   -68872   -68863 
  -68864   -68864   -68862   -68866   -68875   -68882   -68889   -68898 
  -68904   -68908   -68913   -68921   -68925   -68926   -68925   -68925 
  -68924   -68924   -68925   -68929   -68935   -68944   -68953   -68960 
  -68968   -68979   -68991   -69003   -69021   -69041   -69060   -69080 
  -69101   -69114   -69121   -69133   -69144   -69149   -69155   -69156 
  -69156   -69157   -69156   -69152   -69151   -69153   -69156   -69157 
  -69157   -69161   -69164   -69161   -69156   -69148   -69137   -69122 
  -69107   -69095   -69087   -69078   -69066   -69057   -69051   -69047 
  -69045   -69045   -69045   -69045   -69048   -69045   -69037   -69026 
  -69014   -69005   -68995   -68987   -68985   -68980   -68975   -68972 
  -68968   -68962   -68956   -68955   -68955   -68952   -68959   -68971 
  -68980   -68990   -69001   -69010   -69021   -69032   -69041   -69044 
  -69047   -69055   -69059   -69055   -69049   -69043   -69034   -69026 
  -69020   -69014   -69007   -69006   -69007   -69003   -68999   -69001 
  -68999   -68998   -68999   -68995   -68994   -68993   -68987   -68980 
  -68972   -68967   -68967   -68959   -68948   -68945   -68943   -68937 
  -68937   -68937   -68937   -68937   -68937   -68936   -68940   -68949 
  -68959   -68970   -68982   -68997   -69014   -69029   -69043   -69056 
  -69071   -69086   -69103   -69120   -69132   -69140   -69148   -69156 
  -69161   -69163   -69159   -69156   -69156   -69151   -69137   -69125 
  -69113   -69095   -69076   -69064   -69049   -69034   -69021   -69006 
  -68993   -68985   -68972   -68958   -68945   -68936   -68926   -68918 
