Origin Time       2025/06/03 22:18:00
Lat.              41.7
Long.             143.6
Depth. (km)       30
Mag.              5.2
Station Code      TKCH04
Station Lat.      43.1739
Station Long.     142.9176
Station Height(m) 220
Record Time       2025/06/03 22:18:53
Sampling Freq(Hz) 100Hz
Duration Time(s)  120
Dir.              6
Scale Factor      7845(gal)/8223790
Max. Acc. (gal)   0.451
Last Correction   2025/06/03 22:18:54
Memo.             
[...]
    4874     4938     4957     4949     4947     4962     4997     5057 
    5100     5076     5000     4926     4872     4853     4882     4959 
    5078     5192     5231     5196     5155     5146     5152     5135 
    5077     5046     5092     5135     5115     5057     4990     4954 
    4941     4919     4920     4970     5055     5152     5193     5177 
    5177     5161     5104     5076     5050     4977     4918     4926 
    4969     5009     5050     5093     5130     5151     5155     5125 
    5039     4916     4865     4958     5093     5142     5104     5035 
    4996     5009     5042     5065     5063     5022     4963     4943 
    4966     4978     4963     4955     4968     4997     5028     5058 
    5103     5123     5103     5104     5140     5167     5148     5092 
    5044     5040     5108     5208     5269     5287     5271     5208 
    5123     5054     5039     5073     5115     5170     5212     5174 
    5093     5032     5004     5026     5089     5135     5088     4961 
    4869     4847     4850     4889     4958     5001     4992     4939 
    4878     4855     4907     5007     5058     5036     5009     5004 
    5019     5051     5093     5139     5171     5159     5112     5077 
    5097     5111     5036     4965     4974     5008     5054     5119 
    5125     5078     5061     5078     5084     5076     5050     4992 
    4943     4958     5013     5050     5077     5111     5132     5152 
    5167     5134     5067     5032     5031     5027     5034     5077 
    5132     5161     5150     5113     5080     5051     5024     5009 
    4989     4949     4916     4912     4934     4957     4982     5022 
    5054     5053     5031     5007     5003     5034     5063     5067 
    5082     5097     5074     5032     4999     4999     5050     5104 
    5112     5076     5026     4995     4973     4968     5003     5043 
    5054     5054     5051     5049     5050     5066     5112     5161 
    5169     5132     5078     5030     5019     5047     5081     5113 
    5155     5173     5134     5085     5077     5082     5085     5111 
    5128     5113     5090     5078     5061     5009     4935     4897 
    4922     4999     5084     5115     5077     5040     5061     5134 
    5202     5185     5097     5034     5017     5011     5003     5011 
    5040     5069     5094     5135     5165     5125     5020     4936 
    4924     4953     4996     5042     5067     5063     5036     5009 
    5011     5020     4997     4953     4927     4930     4962     5008 
    5022     4978     4919     4923     4990     5049     5061     5055 
    5042     4996     4955     4961     4973     5015     5111     5169 
    5179     5212     5251     5267     5270     5244     5188     5142 
    5143     5167     5138     5094     5138     5244     5341     5375 
    5300     5157     5028     4969     4985     5036     5088     5105 
    5046     4931     4831     4779     4784     4835     4899     4934 
    4889     4789     4727     4750     4804     4826     4841     4888 
    4946     4995     5036     5080     5138     5189     5228     5259 
    5228     5135     5059     5038     5090     5220     5340     5381 
    5350     5270     5167     5071     5026     5042     5076     5105 
    5140     5185     5217     5202     5159     5127     5101     5085 
    5073     5050     5017     4970     4934     4954     5020     5085 
    5076     4995     4914     4830     4746     4718     4743     4788 
    4812     4811     4824     4870     4946     5004     4989     4943 
    4909     4884     4877     4872     4861     4892     4977     5097 
    5212     5279     5293     5281     5260     5255     5267     5282 
    5296     5309     5327     5341     5327     5285     5240     5232 
    5267     5281     5235     5158     5081     5046     5058     5086 
    5131     5159     5138     5088     5030     4966     4920     4893 
    4872     4857     4837     4822     4843     4881     4901     4915 
    4920     4901     4888     4911     4934     4939     4943     4943 
    4955     5000     5032     5009     4949     4918     4939     4957 
    4966     5001     5038     5073     5117     5135     5121     5124 
    5155     5190     5223     5243     5231     5186     5157     5155 
    5127     5066     5040     5065     5109     5166     5227     5270 
    5260     5181     5073     5000     4968     4953     4947     4954 
    4981     5031     5089     5120     5107     5061     5009     4949 
    4876     4833     4838     4853     4889     4955     4982     4981 
    5013     5039     5017     4972     4919     4900     4943     5019 
    5074     5113     5190     5286     5337     5347     5331     5293 
    5244     5169     5092     5067     5108     5179     5227     5220 
    5184     5131     5098     5096     5061     4996     4965     4966 
    4973     4984     4996     5009     4995     4932     4866     4839 
    4841     4850     4861     4870     4895     4938     4982     5026 
    5050     5035     5020     5008     5000     5059     5150     5177 
    5151     5105     5074     5105     5165     5192     5182     5166 
    5181     5220     5255     5275     5260     5213     5169     5138 
    5130     5136     5123     5074     4990     4905     4896     4954 
    4993     4980     4924     4874     4889     4935     4958     4961 
    4949     4934     4939     4961     4976     4966     4935     4928 
    4941     4950     4966     4976     4950     4892     4847     4868 
    4966     5081     5119     5080     5049     5038     5004     4993 
    5034     5076     5096     5109     5113     5124     5146     5170 
    5192     5192     5192     5238     5300     5314     5282     5246 
    5239     5254     5283     5301     5256     5209     5239     5290 
    5282     5229     5151     5031     4914     4857     4858     4878 
    4877     4862     4880     4918     4930     4897     4827     4764 
    4756     4799     4847     4864     4849     4819     4799     4846 
    4949     5028     5063     5049     4985     4945     4973     5028 
    5063     5089     5130     5166     5175     5178     5198     5215 
    5206     5190     5173     5171     5217     5242     5198     5152 
    5134     5130     5150     5198     5251     5239     5175     5124 
    5077     5050     5086     5138     5161     5169     5147     5104 
    5073     5046     4984     4920     4907     4919     4904     4873 
    4874     4891     4888     4892     4930     4988     5047     5059 
    4982     4857     4774     4784     4874     4990     5042     5011 
    4980     4943     4869     4858     4966     5093     5139     5115 
    5088     5094     5146     5227     5247     5198     5197     5248 
    5296     5364     5413     5360     5269     5235     5242     5228 
    5198     5178     5146     5116     5130     5138     5084     5017 
    4978     4923     4846     4834     4881     4934     4997     5036 
    5015     4992     4990     4954     4865     4801     4820     4847 
    4855     4888     4914     4914     4918     4945     4996     5034 
    5036     5016     4996     5026     5100     5154     5189     5244 
    5283     5271     5220     5175     5158     5125     5066     5042 
    5067     5107     5144     5163     5140     5113     5125     5148 
    5158     5165     5143     5081     5059     5103     5117     5086 
    5058     5038     5024     5003     4919     4824     4818     4869 
    4909     4941     4982     5012     4996     4959     4949     4963 
    4989     5015     5003     4953     4905     4881     4889     4935 
    4990     5008     4982     4958     4955     4958     4959     4968 
    5015     5108     5198     5246     5256     5247     5232     5212 
    5197     5204     5211     5189     5163     5157     5178     5216 
    5243     5240     5227     5221     5215     5186     5125     5067 
    5071     5105     5105     5097     5101     5081     5036     4982 
    4939     4922     4901     4857     4808     4765     4747     4789 
    4874     4945     4978     4977     4949     4931     4954     4968 
    4931     4889     4878     4907     4972     4999     4962     4923 
    4932     5000     5090     5142     5167     5194     5202     5192 
    5177     5193     5244     5252     5188     5120     5120     5157 
    5157     5134     5132     5142     5185     5269     5283     5202 
    5119     5073     5040     5022     5036     5094     5147     5125 
    5043     4977     4953     4953     4954     4936     4916     4927 
    4957     4988     5031     5065     5054     5023     4996     4950 
    4896     4882     4923     4982     5042     5108     5165     5170 
    5120     5046     4977     4955     5005     5080     5128     5155 
    5152     5112     5065     5032     5047     5090     5111     5132 
    5144     5124     5105     5113     5127     5098     5024     4999 
    5040     5092     5128     5134     5112     5084     5049     5024 
    5004     4970     4942     4919     4930     4997     5050     5089 
    5131     5089     4981     4900     4860     4873     4945     5017 
    5054     5084     5143     5185     5159     5085     5000     4969 
    5013     5061     5057     5022     4989     4982     4977     4963 
    5011     5121     5212     5232     5200     5140     5088     5082 
    5117     5154     5174     5174     5136     5085     5065     5067 
    5057     5043     5027     4976     4931     4957     5007     5015 
    5004     4992     4935     4860     4869     4954     5028     5065 
    5044     4999     4989     5005     5005     4981     4962     4978 
    5007     5043     5084     5082     5042     5019     5020     5023 
    5023     5061     5143     5208     5228     5227     5221     5212 
    5189     5152     5139     5174     5225     5260     5281     5278 
    5227     5143     5076     5027     4985     4976     5001     5040 
    5073     5058     5012     4984     4968     4961     4989     5023 
    5026     5016     5024     5024     4992     4955     4957     4982 
    4986     4986     5013     5017     4976     4954     4997     5057 
    5069     5059     5070     5070     5043     5026     5012     4982 
    4963     4954     4941     4962     5016     5051     5066     5089 
    5094     5063     5023     5001     4992     4989     5017     5058 
    5069     5061     5047     5015     4980     4989     5049     5100 
    5078     5017     4993     5004     5012     5030     5078     5135 
    5163     5178     5197     5175     5096     5036     5042     5074 
    5108     5134     5143     5161     5184     5175     5131     5057 
    4980     4932     4922     4972     5059     5104     5105     5111 
    5115     5093     5062     5050     5058     5061     5044     5022 
    5013     5043     5081     5078     5040     5024     5026     5020 
    5034     5063     5063     5034     5015     5011     5012     5019 
    5020     5038     5080     5125     5144     5142     5135     5115 
    5074     5040     5022     5003     4995     5030     5100     5146 
    5143     5130     5111     5050     4976     4973     5008     5005 
    5015     5057     5080     5094     5090     5044     5017     5020 
    5005     4981     4972     4962     4945     4931     4926     4954 
    5017     5054     5049     5047     5040     5003     4972     4978 
    5005     5012     5004     5008     5032     5067     5105     5136 
    5161     5152     5103     5078     5104     5130     5132     5135 
    5128     5081     5026     5030     5078     5105     5117     5138 
    5144     5123     5082     5044     5027     5022     5034     5071 
    5088     5057     5027     5026     5004     4950     4896     4850 
    4846     4899     4946     4972     5016     5061     5066     5030 
    4982     4977     5012     5034     5032     5028     5024     5027 
    5032     5042     5057     5058     5050     5058     5090     5157 
    5228     5246     5208     5159     5132     5131     5134     5139 
    5161     5212     5289     5312     5238     5139     5067     4995 
    4912     4850     4822     4812     4843     4926     4978     4981 
    4986     5001     5015     5013     4986     4982     5017     5063 
    5117     5125     5047     4958     4912     4893     4896     4938 
    5026     5107     5123     5084     5012     4932     4893     4901 
    4941     5000     5059     5086     5082     5076     5061     5024 
    5017     5078     5182     5287     5331     5308     5269     5239 
    5240     5239     5209     5188     5162     5098     5061     5085 
    5134     5184     5205     5170     5076     4986     4976     4993 
    4992     5012     5036     5039     5047     5038     4993     4915 
    4812     4750     4741     4760     4828     4935     5039     5157 
    5286     5379     5404     5360     5277     5181     5113     5078 
    5049     5046     5093     5144     5178     5220     5250     5229 
    5151     5057     5005     5003     5005     5004     5007     5004 
    4968     4905     4903     4974     5015     5013     5030     5069 
    5131     5186     5198     5193     5192     5194     5211     5229 
    5242     5244     5192     5078     4992     4989     5009     4992 
    4939     4881     4835     4796     4772     4765     4727     4680 
    4715     4823     4935     5022     5042     5034     5086     5162 
    5158     5094     5043     5034     5051     5080     5107     5128 
    5174     5287     5417     5485     5516     5525     5471     5332 
    5125     4920     4801     4789     4869     5005     5148     5259 
    5306     5294     5265     5221     5142     5047     4966     4876 
    4753     4642     4598     4631     4727     4850     4941     4958 
    4916     4846     4793     4792     4796     4781     4799     4839 
    4876     4924     4973     5020     5097     5190     5246     5231 
    5161     5113     5155     5255     5355     5424     5422     5333 
    5206     5096     5026     5003     5038     5131     5233     5293 
    5270     5162     5022     4901     4831     4804     4779     4769 
    4791     4835     4928     5027     5080     5131     5167     5140 
    5063     4962     4893     4926     5053     5190     5236     5182 
    5104     5003     4885     4814     4806     4854     4954     5069 
    5140     5147     5116     5069     5024     5009     4993     4950 
    4911     4895     4907     4984     5117     5233     5298     5332 
    5325     5266     5184     5123     5093     5074     5051     5015 
    4963     4926     4932     4955     4959     4968     4969     4920 
    4885     4927     4982     5020     5080     5140     5159     5123 
    5038     4945     4920     4985     5077     5162     5278     5410 
    5479     5445     5302     5059     4820     4684     4654     4729 
    4882     5054     5197     5254     5193     5078     4970     4881 
    4827     4818     4851     4953     5134     5329     5449     5470 
    5427     5355     5279     5205     5138     5092     5085     5120 
    5139     5101     5081     5098     5067     5023     5008     4965 
    4932     4953     4961     4951     4970     5008     5027     5023 
    5053     5142     5213     5205     5120     4976     4830     4754 
    4773     4838     4911     4989     5035     5019     4988     4978 
    4969     4953     4966     5017     5059     5089     5119     5131 
    5161     5223     5260     5270     5271     5258     5220     5143 
    5059     5026     5019     5019     5031     5024     4984     4947 
    4941     4969     4992     4981     4947     4901     4869     4888 
    4931     4953     4965     4985     4993     4990     5013     5070 
    5130     5144     5123     5120     5140     5188     5265     5312 
    5324     5327     5289     5211     5097     4935     4789     4738 
    4781     4885     4990     5011     4950     4919     4941     4924 
    4851     4816     4876     4962     5004     5009     4992     4935 
    4866     4826     4834     4915     5054     5178     5213     5185 
    5128     5030     4946     4955     5030     5097     5155     5213 
    5238     5224     5208     5181     5127     5066     5013     4972 
    4965     5027     5143     5262     5356     5393     5347     5277 
    5235     5235     5281     5344     5354     5275     5159     5062 
    4996     4965     4968     4992     5040     5080     5062     5013 
    4972     4914     4847     4819     4866     4981     5089     5138 
    5136     5105     5078     5086     5116     5140     5130     5050 
    4932     4869     4887     4893     4839     4791     4801     4850 
    4942     5067     5125     5097     5061     4996     4882     4810 
    4818     4854     4891     4950     5039     5139     5223     5277 
    5321     5362     5382     5390     5385     5337     5220     5067 
    4970     4951     4955     4968     5009     5105     5251     5362 
    5337     5205     5071     4986     4954     4946     4927     4887 
    4873     4916     4969     5003     5034     5028     4961     4872 
    4804     4780     4827     4966     5119     5188     5194     5188 
    5130     5039     4995     4978     4974     5026     5119     5188 
    5205     5163     5063     4957     4915     4938     4986     5063 
    5159     5205     5204     5208     5181     5088     4990     4926 
    4877     4872     4930     5036     5144     5193     5169     5080 
    4939     4788     4675     4618     4635     4719     4822     4926 
    5024     5088     5116     5147     5197     5228     5205     5163 
    5150     5166     5211     5271     5329     5374     5404     5416 
    5389     5309     5232     5204     5173     5092     5007     4963 
    4943     4932     4938     4959     4982     5008     5057     5111 
    5116     5096     5082     5047     4980     4885     4791     4776 
    4854     4969     5074     5134     5144     5098     4984     4851 
    4741     4684     4735     4850     4957     5020     5004     4938 
    4873     4814     4812     4924     5107     5262     5310     5277 
    5229     5170     5108     5093     5113     5116     5086     5071 
    5117     5192     5238     5256     5263     5236     5196     5227 
    5327     5374     5323     5265     5246     5215     5147     5096 
    5066     5007     4920     4851     4838     4900     4989     5032 
    5035     5023     5005     5008     5027     5038     5042     5027 
    5005     5013     5022     4985     4912     4854     4850     4900 
    4973     5007     4990     4993     5039     5088     5115     5124 
    5123     5103     5063     5016     4981     4972     4995     5028 
    5046     5030     4980     4938     4966     5058     5146     5193 
    5206     5215     5256     5305     5335     5366     5412     5444 
    5440     5413     5375     5336     5306     5271     5208     5121 
    5044     5012     5017     5023     5004     4953     4897     4853 
    4815     4780     4738     4687     4654     4650     4652     4633 
    4619     4660     4756     4861     4945     5019     5117     5228 
    5317     5362     5352     5317     5281     5246     5189     5111 
    5047     5035     5058     5092     5130     5166     5178     5162 
    5120     5070     5042     5051     5089     5112     5074     4993 
