Origin Time       2025/06/03 22:18:00
Lat.              41.7
Long.             143.6
Depth. (km)       30
Mag.              5.2
Station Code      TKCH10
Station Lat.      43.3337
Station Long.     142.9448
Station Height(m) 265
Record Time       2025/06/03 22:19:19
Sampling Freq(Hz) 100Hz
Duration Time(s)  120
Dir.              2
Scale Factor      2942(gal)/8224139
Max. Acc. (gal)   0.138
Last Correction   2025/06/03 22:19:20
Memo.             
[...]
  269181   269190   269199   269206   269218   269242   269268   269279 
  269279   269275   269265   269254   269246   269245   269254   269264 
  269264   269254   269238   269215   269192   269181   269183   269187 
  269188   269188   269188   269184   269172   269160   269149   269141 
  269144   269156   269169   269183   269195   269204   269210   269210 
  269207   269202   269195   269198   269203   269204   269208   269210 
  269199   269183   269173   269171   269171   269175   269180   269177 
  269171   269167   269168   269176   269179   269168   269149   269133 
  269131   269141   269150   269157   269161   269157   269156   269163 
  269173   269184   269188   269183   269175   269175   269176   269177 
  269187   269199   269208   269215   269215   269202   269183   269169 
  269163   269169   269180   269184   269180   269176   269169   269165 
  269172   269184   269192   269207   269225   269227   269218   269207 
  269199   269195   269194   269192   269191   269185   269177   269169 
  269165   269172   269188   269206   269223   269229   269221   269204 
  269187   269172   269161   269154   269154   269165   269184   269200 
  269206   269200   269179   269157   269149   269149   269145   269146 
  269150   269150   269154   269160   269165   269179   269192   269207 
  269217   269212   269202   269195   269196   269210   269226   269237 
  269239   269229   269214   269207   269206   269207   269219   269233 
  269242   269246   269245   269235   269225   269215   269211   269215 
  269214   269206   269199   269195   269188   269184   269188   269196 
  269198   269198   269200   269199   269192   269176   269152   269134 
  269133   269138   269140   269144   269153   269163   269175   269194 
  269204   269196   269185   269184   269185   269187   269185   269184 
  269191   269200   269200   269188   269176   269175   269180   269180 
  269180   269180   269179   269180   269194   269208   269211   269198 
  269175   269153   269142   269141   269150   269164   269172   269175 
  269167   269150   269140   269136   269129   269122   269129   269142 
  269160   269184   269207   269223   269231   269231   269225   269211 
  269190   269169   269167   269177   269192   269214   269239   269257 
  269261   269256   269238   269222   269219   269229   269242   269260 
  269280   269292   269291   269283   269271   269250   269235   269223 
  269206   269194   269194   269204   269217   269222   269217   269199 
  269177   269160   269149   269142   269138   269138   269141   269148 
  269152   269146   269134   269129   269129   269121   269104   269094 
  269096   269106   269119   269131   269133   269122   269111   269104 
  269102   269104   269117   269131   269144   269154   269167   269176 
  269180   269183   269192   269204   269218   269237   269242   269230 
  269217   269208   269200   269203   269217   269230   269239   269244 
  269239   269235   269242   269256   269265   269266   269257   269238 
  269218   269204   269199   269198   269192   269187   269181   269185 
  269203   269212   269207   269195   269179   269173   269184   269210 
  269237   269260   269276   269281   269279   269269   269246   269217 
  269202   269202   269206   269207   269200   269191   269180   269168 
  269158   269152   269142   269138   269145   269154   269154   269140 
  269127   269129   269138   269149   269158   269167   269172   269173 
  269173   269167   269156   269153   269156   269160   269171   269181 
  269188   269200   269215   269226   269231   269227   269217   269210 
  269208   269210   269206   269198   269198   269198   269195   269199 
  269204   269196   269184   269177   269177   269188   269208   269225 
  269229   269221   269206   269195   269187   269181   269187   269202 
  269223   269242   269252   269244   269222   269195   269172   269163 
  269164   269163   269152   269140   269130   269127   269126   269117 
  269103   269092   269094   269109   269123   269131   269134   269134 
  269138   269145   269153   269164   269175   269185   269200   269215 
  269225   269231   269233   269227   269223   269221   269218   269212 
  269210   269200   269187   269183   269195   269210   269223   269231 
  269231   269225   269212   269195   269177   269172   269169   269164 
  269168   269181   269191   269198   269204   269200   269195   269196 
  269199   269196   269192   269194   269200   269208   269218   269225 
  269221   269210   269199   269187   269180   269181   269185   269191 
  269200   269214   269223   269225   269215   269203   269195   269187 
  269185   269191   269196   269203   269211   269214   269211   269207 
  269196   269176   269160   269149   269146   269149   269152   269149 
  269145   269140   269126   269114   269107   269102   269098   269110 
  269122   269118   269107   269098   269095   269104   269123   269150 
  269184   269217   269242   269260   269271   269268   269257   269248 
  269238   269229   269227   269239   269266   269296   269323   269341 
  269337   269314   269283   269253   269225   269199   269187   269187 
  269190   269195   269195   269188   269180   269167   269150   269133 
  269118   269114   269123   269134   269145   269152   269153   269146 
  269134   269114   269096   269088   269076   269064   269067   269083 
  269098   269118   269140   269156   269168   269172   269167   269163 
  269160   269161   269168   269177   269192   269211   269222   269230 
  269235   269237   269234   269218   269198   269180   269167   269169 
  269192   269222   269246   269265   269266   269244   269212   269190 
  269183   269184   269184   269188   269198   269215   269235   269250 
  269253   269253   269256   269262   269266   269260   269246   269237 
  269229   269225   269235   269254   269272   269285   269296   269295 
  269284   269269   269257   269250   269257   269273   269298   269325 
  269341   269331   269302   269258   269211   269168   269136   269125 
  269131   269149   269172   269192   269200   269196   269179   269148 
  269113   269086   269077   269087   269106   269131   269158   269177 
  269191   269199   269194   269180   269171   269163   269148   269129 
  269114   269114   269126   269134   269133   269123   269103   269079 
  269061   269048   269040   269030   269026   269038   269065   269100 
  269136   269158   269169   269177   269180   269168   269154   269145 
  269141   269156   269187   269214   269234   269252   269260   269253 
  269241   269225   269203   269188   269191   269199   269210   269233 
  269257   269273   269281   269272   269253   269234   269223   269217 
  269198   269168   269140   269125   269126   269146   269179   269207 
  269222   269222   269199   269154   269103   269061   269038   269040 
  269060   269095   269141   269194   269249   269298   269329   269331 
  269307   269265   269219   269173   269138   269126   269137   269164 
  269200   269238   269276   269304   269311   269295   269257   269218 
  269195   269188   269207   269249   269303   269356   269391   269399 
  269380   269338   269284   269237   269206   269183   269164   269145 
  269118   269084   269064   269060   269067   269079   269087   269080 
  269064   269041   269007   268974   268957   268965   268992   269036 
  269092   269146   269183   269204   269222   269241   269264   269288 
  269308   269323   269331   269330   269310   269266   269217   269180 
  269160   269156   269163   269176   269191   269204   269221   269231 
  269226   269208   269185   269164   269161   269173   269192   269230 
  269280   269322   269352   269365   269353   269314   269265   269217 
  269181   269173   269184   269206   269227   269244   269257   269276 
  269296   269307   269311   269306   269288   269266   269246   269222 
  269206   269199   269195   269192   269184   269172   269160   269148 
  269134   269119   269104   269088   269079   269088   269117   269161 
  269212   269256   269269   269250   269203   269138   269077   269032 
  269002   268991   268986   268975   268957   268936   268924   268922 
  268934   268963   269010   269061   269107   269146   269175   269192 
  269199   269207   269217   269227   269248   269291   269334   269370 
  269406   269430   269431   269420   269412   269400   269385   269369 
  269352   269327   269292   269253   269208   269161   269115   269082 
  269061   269053   269048   269037   269017   268992   268972   268968 
  268986   269021   269067   269117   269168   269226   269284   269320 
  269331   269318   269281   269241   269218   269212   269219   269233 
  269242   269238   269227   269211   269177   269133   269091   269053 
  269013   268978   268963   268975   269006   269056   269113   269154 
  269179   269191   269198   269202   269208   269217   269235   269265 
  269293   269323   269353   269374   269387   269385   269370   269349 
  269330   269323   269329   269337   269338   269334   269308   269258 
  269195   269133   269087   269059   269034   269017   269014   269028 
  269046   269068   269092   269125   269167   269204   269226   269233 
  269227   269214   269200   269191   269190   269200   269219   269237 
  269245   269242   269229   269202   269164   269117   269064   269019 
  268995   268995   269019   269050   269075   269094   269103   269099 
  269092   269090   269095   269107   269134   269176   269222   269256 
  269275   269280   269272   269256   269237   269208   269168   269130 
  269109   269099   269107   269140   269192   269249   269295   269320 
  269333   269334   269325   269311   269303   269295   269291   269289 
  269293   269308   269323   269330   269335   269341   269345   269342 
  269335   269326   269311   269287   269264   269248   269233   269217 
  269206   269202   269206   269212   269217   269214   269199   269165 
  269117   269061   269010   268972   268957   268953   268949   268949 
  268945   268929   268909   268895   268891   268899   268920   268938 
  268957   268978   269010   269060   269130   269210   269289   269361 
  269410   269420   269396   269353   269304   269266   269249   269249 
  269249   269237   269208   269168   269114   269053   268990   268937 
  268915   268928   268964   269017   269079   269140   269180   269196 
  269200   269204   269215   269226   269244   269268   269291   269312 
  269335   269353   269361   269366   269374   269374   269366   269358 
  269343   269326   269314   269298   269266   269235   269203   269164 
  269137   269129   269129   269140   269161   269179   269195   269214 
  269233   269248   269252   269253   269264   269281   269295   269302 
  269302   269292   269284   269276   269264   269250   269237   269227 
  269222   269219   269211   269194   269179   269172   269169   269173 
  269181   269180   269169   269152   269133   269114   269096   269087 
  269086   269088   269095   269087   269060   269030   269009   269002 
  269011   269028   269044   269064   269090   269117   269141   269164 
  269184   269198   269202   269202   269203   269206   269206   269204 
  269207   269210   269215   269229   269246   269261   269275   269279 
  269272   269252   269211   269168   269140   269123   269123   269131 
  269136   269140   269149   269161   269169   269165   269150   269127 
  269111   269107   269111   269125   269156   269190   269214   269234 
  269250   269254   269249   269242   269237   269234   269239   269256 
  269280   269304   269326   269333   269325   269308   269287   269265 
  269244   269226   269225   269237   269250   269260   269261   269252 
  269234   269210   269183   269154   269115   269071   269032   268999 
  268987   269003   269038   269084   269136   269177   269206   269218 
  269217   269210   269202   269192   269198   269221   269260   269311 
  269361   269393   269407   269407   269389   269357   269318   269276 
  269235   269200   269175   269158   269152   269150   269153   269149 
  269133   269109   269086   269067   269068   269091   269126   269161 
  269191   269217   269235   269241   269230   269203   269167   269126 
  269100   269099   269117   269148   269183   269207   269212   269194 
  269154   269111   269073   269050   269037   269033   269046   269069 
  269094   269111   269110   269091   269068   269053   269050   269061 
  269080   269107   269140   269177   269212   269237   269249   269250 
  269241   269218   269188   269169   269160   269160   269169   269169 
  269161   269156   269145   269126   269102   269080   269065   269061 
  269068   269079   269087   269096   269113   269134   269156   269177 
  269190   269188   269183   269180   269184   269210   269250   269292 
  269331   269366   269392   269408   269415   269419   269428   269439 
  269451   269455   269450   269439   269434   269428   269415   269392 
  269370   269350   269331   269319   269314   269304   269284   269254 
  269222   269183   269142   269110   269087   269067   269050   269036 
  269018   268992   268963   268938   268924   268918   268921   268933 
  268947   268963   268982   269005   269034   269057   269065   269068 
  269069   269076   269087   269100   269109   269111   269114   269123 
  269133   269131   269122   269103   269086   269077   269084   269110 
  269145   269176   269200   269212   269217   269208   269184   269154 
  269123   269099   269087   269083   269082   269087   269099   269109 
  269117   269121   269119   269119   269122   269133   269156   269179 
  269207   269252   269304   269358   269415   269465   269499   269516 
  269519   269512   269508   269511   269522   269539   269558   269573 
  269573   269557   269536   269508   269465   269406   269341   269280 
  269231   269194   269163   269138   269122   269107   269088   269067 
  269040   269013   268998   268999   269023   269055   269080   269106 
  269131   269154   269180   269207   269233   269262   269295   269316 
  269327   269333   269334   269330   269320   269302   269276   269248 
  269217   269190   269167   269148   269141   269140   269141   269136 
  269118   269092   269064   269037   269006   268969   268948   268944 
  268951   268969   268991   269013   269034   269049   269057   269068 
  269082   269092   269104   269119   269131   269141   269148   269156 
  269172   269190   269203   269212   269215   269219   269229   269238 
  269250   269268   269279   269276   269262   269241   269210   269176 
  269149   269133   269131   269144   269161   269180   269199   269215 
  269222   269217   269203   269187   269164   269144   269127   269119 
  269123   269137   269150   269167   269183   269194   269191   269180 
  269165   269154   269154   269163   269171   269179   269181   269183 
  269185   269181   269168   269153   269150   269169   269207   269250 
  269284   269302   269306   269304   269302   269292   269281   269275 
  269271   269271   269285   269312   269339   269360   269366   269350 
  269315   269275   269235   269202   269184   269183   269191   269210 
  269238   269258   269266   269257   269229   269185   269136   269090 
  269060   269049   269049   269059   269075   269100   269126   269153 
  269177   269191   269195   269192   269187   269179   269171   269168 
  269173   269187   269200   269204   269203   269200   269190   269176 
  269163   269140   269111   269088   269079   269088   269106   269130 
  269160   269183   269206   269229   269244   269250   269249   269235 
  269218   269203   269196   269199   269203   269203   269198   269196 
  269207   269219   269233   269250   269261   269264   269262   269248 
  269218   269183   269153   269131   269121   269121   269140   269179 
  269223   269260   269284   269289   269272   269238   269195   269152 
  269123   269114   269117   269122   269126   269123   269110   269086 
  269057   269025   269002   268992   268995   269011   269036   269055 
  269065   269067   269060   269050   269042   269037   269040   269048 
  269056   269067   269086   269110   269129   269141   269142   269127 
  269107   269087   269065   269048   269033   269018   269010   269013 
  269023   269034   269041   269044   269045   269056   269082   269118 
  269168   269229   269288   269343   269391   269423   269451   269476 
  269487   269489   269492   269499   269508   269519   269520   269518 
  269518   269523   269522   269509   269491   269466   269433   269401 
  269379   269360   269345   269331   269315   269307   269307   269311 
  269311   269306   269293   269272   269252   269242   269239   269242 
  269250   269250   269239   269218   269183   269142   269104   269072 
  269048   269034   269036   269045   269056   269064   269068   269073 
  269087   269099   269110   269115   269119   269129   269144   269156 
  269168   269179   269187   269191   269188   269179   269168   269156 
  269150   269148   269144   269134   269115   269094   269061   269019 
  268983   268953   268929   268918   268913   268910   268913   268920 
  268930   268948   268969   268990   269017   269059   269117   269180 
  269235   269280   269319   269358   269393   269422   269441   269445 
  269431   269407   269381   269353   269326   269308   269298   269295 
  269299   269300   269303   269312   269320   269323   269322   269315 
  269300   269283   269264   269242   269219   269195   269179   269171 
  269161   269146   269131   269125   269123   269118   269103   269076 
  269041   269001   268967   268949   268947   268955   268975   269002 
  269026   269042   269056   269064   269063   269055   269053   269059 
  269072   269100   269142   269185   269215   269231   269234   269226 
  269222   269225   269229   269234   269245   269257   269269   269275 
  269276   269280   269287   269296   269310   269316   269314   269304 
  269288   269273   269265   269256   269241   269233   269222   269203 
  269176   269148   269117   269087   269064   269049   269042   269050 
  269065   269076   269087   269094   269092   269091   269092   269090 
  269082   269072   269061   269053   269049   269046   269042   269044 
  269052   269061   269071   269086   269102   269118   269138   269161 
  269181   269198   269217   269234   269250   269262   269280   269306 
  269331   269350   269361   269364   269358   269349   269343   269335 
  269322   269312   269307   269307   269311   269310   269306   269296 
  269281   269266   269264   269271   269287   269311   269334   269353 
  269370   269383   269380   269362   269338   269315   269298   269285 
  269277   269275   269269   269262   269254   269241   269223   269206 
  269183   269163   269153   269148   269142   269138   269131   269122 
  269114   269104   269091   269080   269076   269082   269096   269119 
  269144   269160   269169   269172   269167   269160   269156   269149 
  269138   269133   269130   269133   269138   269140   269134   269127 
  269125   269122   269118   269118   269122   269127   269136   269144 
  269148   269154   269168   269181   269195   269204   269208   269208 
  269204   269198   269187   269172   269164   269161   269154   269145 
  269140   269130   269121   269117   269114   269102   269092   269092 
  269103   269115   269129   269136   269136   269138   269145   269156 
  269168   269177   269187   269203   269218   269229   269244   269261 
  269273   269287   269310   269334   269353   269364   269365   269364 
  269364   269360   269356   269354   269352   269349   269347   269347 
