Origin Time       2025/06/03 22:18:00
Lat.              41.7
Long.             143.6
Depth. (km)       30
Mag.              5.2
Station Code      TKCH02
Station Lat.      43.3822
Station Long.     143.8983
Station Height(m) 328
Record Time       2025/06/03 22:19:21
Sampling Freq(Hz) 100Hz
Duration Time(s)  120
Dir.              5
Scale Factor      7845(gal)/8223790
Max. Acc. (gal)   0.343
Last Correction   2025/06/03 22:19:21
Memo.             
[...]
   34601    34599    34604    34612    34622    34641    34659    34663 
   34659    34657    34654    34645    34620    34580    34539    34510 
   34495    34500    34524    34550    34565    34566    34551    34531 
   34526    34531    34523    34508    34503    34520    34562    34604 
   34626    34623    34612    34614    34627    34634    34634    34632 
   34635    34647    34658    34665    34673    34690    34708    34705 
   34672    34623    34584    34568    34572    34570    34554    34530 
   34515    34512    34515    34522    34535    34547    34554    34550 
   34531    34512    34511    34515    34519    34524    34527    34520 
   34511    34499    34480    34464    34454    34454    34470    34508 
   34558    34593    34601    34588    34570    34566    34576    34584 
   34584    34580    34572    34565    34561    34554    34543    34542 
   34557    34577    34599    34618    34618    34596    34570    34546 
   34528    34519    34516    34523    34534    34535    34522    34510 
   34506    34512    34526    34537    34534    34524    34527    34550 
   34577    34596    34596    34578    34562    34564    34577    34597 
   34616    34622    34619    34619    34620    34624    34631    34627 
   34611    34600    34607    34626    34642    34636    34614    34591 
   34580    34580    34585    34580    34562    34542    34523    34510 
   34501    34500    34503    34510    34520    34533    34543    34557 
   34568    34569    34557    34535    34518    34511    34526    34557 
   34581    34585    34580    34572    34577    34600    34619    34619 
   34608    34596    34585    34577    34569    34554    34542    34541 
   34547    34561    34581    34611    34645    34670    34677    34670 
   34665    34666    34665    34654    34634    34603    34581    34573 
   34560    34534    34507    34499    34518    34551    34578    34593 
   34601    34611    34620    34626    34618    34595    34560    34515 
   34476    34466    34485    34504    34503    34489    34480    34492 
   34520    34542    34545    34534    34527    34531    34538    34537 
   34526    34514    34511    34522    34535    34546    34566    34593 
   34615    34622    34608    34580    34555    34542    34533    34527 
   34531    34549    34569    34589    34614    34635    34647    34638 
   34601    34555    34526    34527    34561    34607    34643    34662 
   34669    34672    34659    34624    34574    34522    34477    34462 
   34485    34526    34566    34605    34632    34639    34631    34612 
   34596    34595    34611    34635    34655    34668    34674    34680 
   34678    34672    34662    34661    34661    34654    34647    34641 
   34624    34593    34542    34488    34452    34437    34438    34453 
   34477    34510    34539    34555    34553    34538    34508    34470 
   34433    34408    34411    34445    34488    34512    34512    34503 
   34510    34531    34547    34545    34514    34468    34446    34461 
   34493    34523    34534    34519    34491    34458    34422    34395 
   34400    34442    34508    34578    34638    34682    34711    34726 
   34726    34699    34659    34628    34623    34646    34684    34717 
   34746    34767    34788    34812    34827    34825    34824    34830 
   34817    34765    34681    34592    34522    34492    34508    34547 
   34580    34587    34570    34555    34553    34561    34564    34543 
   34499    34446    34402    34377    34371    34375    34393    34431 
   34477    34518    34541    34542    34538    34538    34542    34547 
   34562    34591    34628    34662    34673    34658    34635    34611 
   34577    34538    34516    34518    34539    34573    34604    34623 
   34620    34585    34512    34414    34317    34258    34254    34299 
   34372    34450    34524    34578    34592    34578    34550    34524 
   34527    34554    34593    34641    34682    34701    34677    34605 
   34510    34423    34375    34373    34411    34488    34588    34678 
   34746    34789    34803    34785    34739    34677    34632    34619 
   34631    34650    34655    34647    34639    34632    34623    34616 
   34615    34626    34646    34659    34657    34630    34584    34533 
   34491    34464    34454    34465    34484    34504    34522    34530 
   34524    34510    34489    34472    34466    34472    34488    34527 
   34585    34634    34653    34636    34597    34560    34546    34545 
   34542    34541    34538    34545    34572    34599    34600    34576 
   34541    34512    34488    34469    34454    34447    34449    34453 
   34447    34435    34434    34458    34507    34553    34562    34538 
   34507    34489    34481    34484    34503    34541    34597    34661 
   34703    34715    34703    34665    34609    34562    34541    34551 
   34588    34623    34645    34662    34678    34693    34708    34711 
   34700    34699    34704    34690    34649    34597    34569    34578 
   34605    34620    34618    34615    34639    34686    34728    34742 
   34736    34723    34701    34662    34607    34551    34528    34543 
   34573    34599    34609    34611    34601    34574    34533    34477 
   34416    34373    34350    34348    34376    34435    34519    34611 
   34689    34734    34743    34722    34676    34611    34535    34464 
   34406    34376    34373    34392    34427    34469    34493    34493 
   34477    34453    34442    34452    34472    34493    34518    34542 
   34565    34572    34553    34518    34477    34439    34412    34400 
   34406    34434    34489    34557    34622    34661    34665    34643 
   34608    34569    34550    34565    34614    34684    34751    34788 
   34786    34767    34744    34717    34693    34676    34655    34632 
   34615    34608    34611    34615    34600    34564    34527    34497 
   34473    34450    34429    34422    34441    34487    34546    34593 
   34611    34601    34572    34533    34504    34501    34519    34546 
   34573    34591    34604    34628    34654    34662    34645    34605 
   34560    34531    34530    34546    34562    34578    34592    34600 
   34604    34607    34599    34585    34566    34550    34542    34543 
   34543    34543    34549    34562    34568    34550    34510    34466 
   34450    34480    34545    34614    34666    34690    34690    34677 
   34655    34628    34601    34584    34582    34595    34601    34591 
   34581    34591    34618    34641    34638    34609    34581    34566 
   34560    34553    34555    34587    34636    34673    34680    34661 
   34631    34603    34572    34527    34468    34412    34380    34373 
   34396    34446    34507    34562    34600    34611    34597    34554 
   34491    34434    34410    34427    34483    34555    34612    34636 
   34638    34619    34585    34550    34526    34519    34520    34526 
   34539    34561    34591    34627    34669    34707    34732    34736 
   34722    34697    34668    34634    34599    34572    34570    34592 
   34623    34639    34628    34601    34592    34612    34646    34672 
   34672    34636    34582    34527    34470    34407    34362    34356 
   34387    34446    34515    34570    34603    34619    34627    34628 
   34634    34636    34623    34601    34580    34554    34526    34496 
   34465    34435    34410    34398    34411    34446    34501    34560 
   34588    34568    34511    34439    34377    34352    34366    34414 
   34474    34531    34574    34607    34627    34636    34639    34635 
   34623    34603    34585    34574    34569    34558    34533    34496 
   34473    34481    34510    34534    34539    34524    34500    34473 
   34457    34470    34531    34630    34732    34796    34797    34753 
   34699    34657    34639    34646    34661    34663    34639    34582 
   34507    34443    34408    34403    34426    34476    34541    34596 
   34620    34603    34549    34485    34437    34425    34456    34524 
   34604    34657    34662    34632    34595    34564    34549    34555 
   34585    34642    34712    34766    34780    34744    34680    34612 
   34568    34561    34592    34639    34670    34657    34604    34547 
   34520    34528    34555    34589    34622    34655    34693    34739 
   34790    34838    34870    34866    34812    34709    34580    34453 
   34361    34326    34356    34431    34516    34574    34584    34561 
   34541    34539    34541    34533    34514    34480    34439    34420 
   34433    34461    34495    34516    34524    34539    34566    34588 
   34587    34558    34512    34470    34446    34446    34468    34497 
   34528    34558    34587    34608    34611    34581    34526    34470 
   34443    34452    34483    34515    34534    34547    34557    34554 
   34538    34522    34518    34534    34566    34605    34646    34697 
   34765    34831    34879    34898    34878    34830    34776    34727 
   34674    34611    34547    34492    34458    34450    34456    34461 
   34468    34473    34473    34466    34456    34457    34487    34547 
   34628    34708    34762    34776    34749    34700    34643    34592 
   34541    34483    34427    34393    34396    34430    34458    34446 
   34395    34345    34329    34350    34388    34422    34453    34489 
   34524    34553    34577    34601    34623    34641    34646    34631 
   34616    34618    34630    34653    34684    34705    34711    34696 
   34654    34601    34566    34561    34580    34615    34655    34700 
   34746    34785    34804    34798    34761    34699    34628    34568 
   34516    34484    34466    34446    34416    34388    34377    34388 
   34418    34460    34500    34533    34554    34568    34568    34557 
   34535    34514    34508    34530    34574    34635    34689    34717 
   34705    34659    34603    34561    34549    34555    34573    34607 
   34649    34686    34719    34739    34740    34727    34696    34645 
   34589    34550    34537    34534    34531    34526    34519    34514 
   34511    34508    34514    34530    34545    34535    34501    34472 
   34456    34441    34420    34399    34376    34362    34372    34404 
   34454    34511    34564    34605    34632    34645    34646    34635 
   34608    34577    34561    34561    34565    34568    34566    34561 
   34557    34550    34534    34507    34480    34469    34474    34495 
   34535    34588    34641    34684    34701    34688    34658    34623 
   34587    34553    34526    34510    34518    34547    34589    34628 
   34647    34634    34585    34524    34479    34469    34481    34485 
   34472    34437    34387    34350    34349    34383    34445    34522 
   34592    34649    34696    34730    34755    34773    34777    34773 
   34774    34777    34777    34769    34742    34680    34597    34516 
   34457    34437    34443    34462    34483    34500    34504    34499 
   34489    34487    34501    34542    34600    34649    34673    34668 
   34642    34608    34573    34539    34523    34531    34553    34569 
   34560    34519    34469    34441    34439    34461    34499    34542 
   34592    34653    34708    34742    34747    34734    34703    34662 
   34630    34612    34604    34599    34592    34584    34570    34551 
   34541    34546    34569    34608    34653    34678    34685    34688 
   34692    34696    34701    34701    34695    34678    34651    34620 
   34588    34553    34519    34496    34493    34519    34568    34630 
   34693    34735    34739    34708    34657    34603    34566    34547 
   34528    34500    34469    34454    34470    34511    34538    34523 
   34470    34406    34357    34337    34345    34366    34387    34398 
   34395    34384    34376    34384    34414    34456    34489    34507 
   34515    34514    34504    34491    34474    34468    34470    34479 
   34485    34492    34501    34516    34531    34542    34553    34558 
   34572    34592    34611    34631    34654    34670    34682    34690 
   34688    34684    34689    34690    34674    34646    34611    34577 
   34557    34549    34553    34566    34581    34600    34627    34651 
   34666    34672    34661    34638    34609    34576    34543    34526 
   34533    34565    34607    34626    34618    34597    34578    34570 
   34572    34574    34584    34607    34635    34646    34638    34620 
   34603    34592    34573    34534    34476    34415    34362    34330 
   34329    34357    34410    34470    34524    34570    34618    34663 
   34699    34708    34695    34672    34662    34674    34690    34695 
   34678    34643    34603    34561    34520    34496    34488    34483 
   34468    34453    34454    34489    34555    34623    34669    34688 
   34685    34678    34680    34688    34701    34716    34727    34730 
   34732    34742    34754    34753    34717    34662    34608    34568 
   34550    34547    34546    34537    34523    34503    34479    34461 
   34456    34469    34492    34519    34550    34578    34580    34553 
   34501    34437    34377    34335    34311    34302    34302    34314 
   34342    34379    34419    34460    34495    34530    34568    34612 
   34666    34719    34763    34809    34854    34878    34870    34828 
   34758    34681    34626    34600    34580    34555    34524    34492 
   34465    34443    34430    34416    34398    34383    34376    34373 
   34371    34364    34348    34325    34310    34325    34376    34443 
   34511    34558    34580    34577    34555    34531    34522    34530 
   34547    34577    34615    34659    34704    34740    34770    34790 
   34804    34828    34865    34901    34927    34927    34892    34825 
   34739    34653    34589    34553    34535    34523    34503    34472 
   34441    34423    34419    34425    34431    34430    34422    34420 
   34433    34449    34457    34454    34454    34466    34489    34515 
   34530    34537    34547    34577    34623    34673    34711    34728 
   34717    34684    34636    34589    34550    34522    34501    34495 
   34491    34491    34503    34533    34565    34591    34607    34620 
   34639    34654    34650    34622    34572    34514    34470    34441 
   34420    34406    34396    34393    34396    34396    34385    34379 
   34379    34387    34399    34404    34402    34404    34411    34422 
   34439    34468    34506    34547    34584    34607    34615    34611 
   34596    34573    34555    34550    34568    34616    34680    34739 
   34782    34804    34816    34831    34843    34847    34840    34823 
   34800    34778    34766    34766    34780    34796    34808    34817 
   34816    34804    34781    34746    34708    34681    34666    34662 
   34654    34630    34589    34546    34511    34487    34473    34461 
   34443    34434    34443    34462    34483    34497    34508    34520 
   34531    34534    34531    34528    34535    34558    34600    34641 
   34669    34684    34682    34662    34627    34585    34545    34515 
   34492    34477    34470    34464    34449    34423    34387    34348 
   34317    34294    34285    34300    34334    34375    34411    34438 
   34454    34468    34479    34487    34491    34497    34512    34531 
   34551    34580    34615    34646    34666    34678    34688    34707 
   34736    34774    34808    34828    34832    34828    34815    34798 
   34784    34763    34739    34709    34674    34641    34615    34595 
   34580    34572    34568    34569    34576    34584    34588    34578 
   34551    34512    34477    34461    34458    34464    34472    34474 
   34480    34487    34487    34480    34458    34422    34391    34383 
   34400    34446    34512    34580    34626    34647    34651    34643 
   34624    34601    34580    34566    34561    34557    34551    34546 
   34542    34538    34535    34531    34519    34501    34481    34457 
   34433    34412    34396    34384    34377    34383    34396    34411 
   34433    34453    34477    34514    34551    34580    34608    34635 
   34649    34647    34636    34619    34599    34584    34580    34585 
   34603    34627    34650    34666    34666    34645    34608    34564 
   34519    34492    34491    34510    34535    34554    34555    34539 
   34511    34476    34443    34425    34412    34404    34411    34438 
   34477    34523    34576    34628    34674    34711    34735    34740 
   34728    34709    34689    34669    34647    34627    34619    34630 
   34653    34682    34712    34736    34759    34776    34789    34809 
   34828    34842    34851    34847    34827    34807    34789    34769 
   34747    34728    34713    34704    34700    34695    34678    34654 
   34623    34585    34546    34511    34480    34461    34449    34438 
   34431    34430    34426    34419    34403    34381    34362    34354 
   34362    34375    34384    34398    34420    34452    34481    34499 
   34506    34508    34518    34539    34570    34604    34634    34659 
   34673    34666    34647    34622    34595    34585    34595    34614 
   34641    34673    34693    34697    34684    34661    34639    34626 
   34620    34614    34600    34585    34576    34572    34572    34572 
   34576    34580    34584    34591    34592    34591    34597    34608 
   34614    34618    34615    34608    34601    34587    34557    34520 
   34483    34453    34442    34445    34447    34442    34427    34410 
   34406    34414    34423    34426    34422    34407    34388    34373 
   34362    34354    34353    34354    34357    34365    34375    34385 
   34395    34391    34375    34354    34335    34323    34319    34321 
   34337    34365    34400    34430    34446    34449    34447    34445 
   34449    34468    34501    34541    34581    34618    34647    34668 
   34681    34689    34695    34703    34716    34730    34739    34742 
   34738    34730    34719    34711    34707    34708    34722    34739 
   34751    34754    34754    34763    34781    34790    34785    34771 
   34755    34743    34734    34715    34681    34635    34585    34538 
   34506    34492    34500    34527    34558    34587    34611    34630 
   34642    34651    34646    34624    34596    34572    34550    34534 
   34526    34523    34523    34528    34534    34537    34543    34557 
   34573    34596    34624    34646    34647    34623    34577    34518 
   34465    34435    34431    34439    34449    34454    34456    34461 
   34479    34500    34520    34526    34515    34499    34487    34480 
   34476    34473    34470    34468    34465    34466    34474    34489 
   34507    34523    34535    34542    34547    34554    34568    34585 
   34603    34618    34632    34638    34641    34643    34641    34628 
   34609    34587    34561    34541    34531    34527    34528    34533 
   34530    34523    34523    34522    34518    34514    34507    34511 
   34528    34550    34580    34614    34641    34661    34674    34676 
   34677    34692    34717    34744    34761    34755    34731    34704 
   34685    34677    34681    34693    34709    34717    34713    34700 
   34685    34669    34654    34645    34641    34646    34662    34677 
   34688    34689    34684    34672    34657    34645    34641    34645 
   34653    34663    34673    34681    34684    34678    34666    34654 
   34653    34666    34688    34711    34726    34731    34732    34734 
   34731    34726    34717    34704    34690    34669    34641    34608 
   34576    34543    34519    34500    34487    34479    34469    34446 
