Origin Time       2025/06/03 22:18:00
Lat.              41.7
Long.             143.6
Depth. (km)       30
Mag.              5.2
Station Code      TKCH02
Station Lat.      43.3822
Station Long.     143.8983
Station Height(m) 328
Record Time       2025/06/03 22:19:21
Sampling Freq(Hz) 100Hz
Duration Time(s)  120
Dir.              6
Scale Factor      7845(gal)/8223790
Max. Acc. (gal)   0.270
Last Correction   2025/06/03 22:19:21
Memo.             
[...]
    7290     7252     7200     7160     7140     7118     7082     7056 
    7056     7078     7102     7109     7091     7072     7063     7072 
    7094     7119     7150     7177     7196     7218     7249     7273 
    7272     7248     7218     7202     7204     7210     7213     7213 
    7207     7209     7229     7246     7240     7217     7196     7183 
    7182     7184     7177     7165     7157     7157     7155     7145 
    7136     7145     7182     7219     7230     7223     7222     7225 
    7231     7237     7227     7214     7211     7211     7214     7230 
    7252     7263     7269     7279     7281     7281     7280     7273 
    7265     7256     7244     7229     7213     7213     7222     7225 
    7230     7244     7252     7250     7248     7236     7213     7188 
    7168     7159     7160     7164     7164     7160     7155     7157 
    7171     7179     7184     7198     7202     7182     7164     7168 
    7180     7192     7200     7204     7210     7213     7209     7200 
    7199     7207     7210     7210     7230     7267     7294     7296 
    7273     7242     7230     7236     7231     7222     7225     7234 
    7245     7268     7288     7281     7258     7253     7257     7254 
    7249     7237     7221     7210     7203     7203     7213     7221 
    7215     7196     7180     7172     7164     7157     7156     7150 
    7134     7114     7109     7121     7134     7150     7182     7210 
    7217     7209     7202     7211     7225     7236     7240     7238 
    7238     7246     7258     7273     7285     7279     7254     7244 
    7257     7271     7276     7271     7256     7240     7221     7192 
    7175     7177     7184     7191     7192     7188     7190     7190 
    7183     7176     7157     7141     7141     7148     7150     7149 
    7153     7163     7168     7163     7163     7176     7190     7179 
    7148     7128     7133     7138     7126     7126     7157     7194 
    7215     7223     7214     7196     7191     7196     7209     7226 
    7236     7234     7248     7280     7303     7314     7322     7322 
    7326     7329     7303     7264     7237     7223     7219     7226 
    7233     7231     7240     7248     7242     7226     7213     7198 
    7180     7161     7146     7149     7161     7160     7145     7138 
    7157     7184     7188     7169     7148     7141     7152     7167 
    7169     7165     7169     7183     7200     7207     7196     7187 
    7192     7206     7213     7204     7180     7161     7163     7171 
    7168     7167     7179     7195     7198     7186     7173     7173 
    7182     7191     7202     7217     7231     7245     7253     7265 
    7294     7319     7323     7315     7314     7322     7326     7311 
    7281     7272     7285     7281     7256     7230     7209     7198 
    7207     7225     7238     7238     7225     7218     7229     7250 
    7268     7277     7287     7306     7327     7339     7327     7291 
    7250     7226     7213     7204     7196     7182     7160     7148 
    7146     7152     7144     7118     7101     7110     7126     7128 
    7137     7163     7180     7172     7150     7126     7110     7109 
    7113     7117     7119     7126     7145     7172     7203     7233 
    7244     7221     7179     7146     7138     7156     7176     7182 
    7179     7188     7213     7244     7273     7285     7275     7256 
    7249     7263     7288     7304     7290     7258     7246     7250 
    7249     7236     7209     7186     7186     7190     7187     7202 
    7231     7254     7260     7254     7248     7249     7261     7268 
    7275     7277     7256     7223     7214     7225     7236     7242 
    7248     7246     7245     7250     7261     7264     7254     7236 
    7213     7195     7190     7188     7184     7176     7159     7129 
    7107     7107     7114     7117     7113     7110     7111     7115 
    7115     7111     7099     7091     7096     7114     7134     7153 
    7167     7172     7173     7186     7207     7218     7206     7191 
    7187     7194     7214     7238     7242     7227     7218     7217 
    7219     7238     7268     7288     7290     7281     7276     7269 
    7246     7214     7186     7169     7172     7180     7180     7194 
    7225     7241     7237     7237     7237     7225     7207     7192 
    7194     7218     7248     7267     7283     7298     7308     7314 
    7310     7287     7253     7221     7198     7192     7199     7202 
    7184     7159     7146     7145     7144     7148     7156     7150 
    7132     7114     7109     7122     7136     7129     7110     7101 
    7109     7117     7110     7106     7128     7168     7202     7219 
    7244     7283     7314     7321     7308     7298     7308     7330 
    7329     7306     7288     7287     7296     7294     7269     7244 
    7242     7263     7283     7296     7308     7314     7303     7280 
    7256     7234     7218     7207     7207     7218     7217     7202 
    7200     7217     7230     7227     7204     7172     7150     7146 
    7157     7168     7177     7192     7207     7203     7184     7164 
    7149     7142     7145     7163     7184     7198     7188     7168 
    7157     7163     7167     7163     7161     7171     7186     7206 
    7229     7241     7231     7207     7180     7168     7172     7175 
    7172     7167     7168     7182     7198     7207     7210     7211 
    7196     7164     7144     7150     7164     7175     7187     7202 
    7225     7261     7285     7284     7275     7264     7256     7261 
    7273     7279     7294     7317     7323     7312     7296     7276 
    7264     7269     7285     7294     7292     7291     7285     7271 
    7260     7250     7226     7194     7175     7169     7167     7175 
    7198     7230     7256     7264     7257     7242     7231     7214 
    7180     7144     7117     7102     7102     7115     7133     7144 
    7138     7130     7133     7149     7169     7176     7167     7165 
    7179     7190     7187     7186     7186     7168     7137     7119 
    7133     7165     7191     7195     7188     7195     7206     7207 
    7196     7183     7184     7207     7227     7223     7203     7184 
    7175     7171     7164     7155     7142     7129     7123     7145 
    7188     7236     7257     7249     7230     7215     7209     7217 
    7238     7263     7283     7302     7314     7306     7279     7254 
    7252     7260     7261     7250     7244     7257     7279     7294 
    7302     7306     7302     7287     7276     7276     7271     7252 
    7237     7233     7231     7225     7211     7198     7198     7199 
    7188     7164     7137     7122     7128     7140     7146     7150 
    7150     7152     7167     7192     7210     7214     7204     7196 
    7200     7209     7204     7190     7167     7152     7168     7207 
    7248     7271     7263     7237     7210     7177     7138     7109 
    7094     7102     7137     7175     7194     7196     7200     7217 
    7233     7225     7198     7180     7182     7194     7196     7182 
    7175     7173     7153     7133     7142     7167     7186     7194 
    7198     7199     7204     7225     7254     7279     7290     7292 
    7303     7322     7338     7338     7321     7298     7279     7258 
    7229     7202     7209     7249     7292     7319     7329     7315 
    7279     7222     7168     7142     7140     7153     7173     7195 
    7218     7238     7258     7276     7279     7257     7226     7211 
    7217     7222     7215     7214     7233     7254     7264     7254 
    7233     7210     7194     7190     7196     7206     7214     7219 
    7222     7227     7231     7229     7219     7206     7196     7186 
    7167     7155     7157     7169     7188     7196     7182     7165 
    7168     7172     7171     7169     7172     7167     7145     7118 
    7107     7119     7144     7157     7163     7173     7186     7188 
    7183     7176     7172     7177     7194     7210     7225     7237 
    7237     7230     7236     7242     7237     7221     7196     7175 
    7180     7199     7207     7206     7207     7211     7209     7198 
    7187     7183     7187     7194     7202     7219     7238     7244 
    7223     7180     7150     7149     7160     7172     7187     7207 
    7234     7261     7284     7306     7310     7281     7248     7241 
    7246     7245     7238     7236     7240     7231     7199     7159 
    7136     7132     7126     7109     7098     7113     7138     7159 
    7175     7173     7149     7118     7102     7106     7126     7150 
    7165     7172     7186     7200     7204     7200     7202     7203 
    7200     7190     7175     7169     7190     7225     7257     7284 
    7306     7308     7290     7261     7233     7219     7223     7231 
    7240     7258     7284     7310     7327     7335     7341     7338 
    7319     7299     7294     7294     7287     7269     7254     7253 
    7267     7290     7308     7304     7280     7248     7229     7223 
    7222     7221     7221     7219     7215     7210     7196     7176 
    7164     7163     7163     7168     7177     7188     7198     7210 
    7214     7206     7206     7217     7222     7218     7204     7183 
    7165     7161     7164     7172     7190     7206     7209     7198 
    7186     7182     7173     7152     7128     7119     7126     7136 
    7145     7149     7149     7153     7157     7157     7163     7173 
    7173     7172     7180     7191     7192     7188     7188     7198 
    7202     7192     7183     7188     7202     7209     7207     7215 
    7234     7246     7244     7233     7230     7237     7242     7250 
    7258     7260     7254     7246     7233     7227     7236     7238 
    7227     7219     7222     7222     7217     7215     7219     7230 
    7246     7264     7275     7281     7285     7284     7277     7268 
    7257     7250     7252     7258     7267     7269     7268     7254 
    7226     7195     7180     7182     7198     7234     7268     7271 
    7254     7245     7236     7214     7184     7157     7133     7109 
    7095     7102     7128     7150     7155     7141     7115     7095 
    7092     7101     7107     7107     7114     7132     7152     7177 
    7196     7207     7206     7186     7163     7156     7155     7153 
    7157     7176     7207     7229     7237     7248     7264     7267 
    7245     7218     7210     7215     7215     7210     7218     7237 
    7254     7256     7245     7238     7248     7265     7281     7296 
    7307     7300     7283     7269     7258     7256     7256     7248 
    7231     7213     7194     7182     7182     7195     7214     7227 
    7236     7236     7219     7192     7171     7157     7145     7144 
    7160     7180     7191     7199     7209     7221     7241     7260 
    7256     7238     7218     7206     7214     7238     7260     7276 
    7281     7273     7257     7240     7225     7215     7213     7221 
    7226     7222     7211     7199     7190     7177     7153     7123 
    7103     7102     7119     7141     7152     7152     7145     7133 
    7125     7118     7106     7091     7082     7084     7101     7123 
    7141     7164     7199     7229     7249     7269     7294     7311 
    7317     7319     7325     7329     7323     7308     7290     7277 
    7267     7250     7231     7218     7214     7207     7199     7200 
    7211     7219     7226     7234     7229     7204     7180     7167 
    7152     7142     7142     7144     7137     7128     7130     7152 
    7179     7187     7182     7183     7190     7195     7198     7204 
    7222     7248     7279     7318     7364     7415     7453     7462 
    7452     7439     7420     7396     7369     7344     7321     7308 
    7307     7294     7269     7241     7203     7160     7111     7061 
    7021     7001     6994     6998     7011     7024     7036     7056 
    7083     7109     7129     7146     7161     7175     7183     7175 
    7161     7153     7150     7152     7159     7173     7196     7222 
    7240     7250     7264     7277     7284     7292     7306     7319 
    7331     7335     7317     7288     7268     7254     7240     7233 
    7240     7248     7250     7256     7261     7260     7253     7244 
    7231     7219     7203     7180     7155     7133     7118     7114 
    7123     7136     7136     7118     7096     7092     7099     7105 
    7107     7107     7110     7122     7140     7163     7191     7214 
    7231     7246     7265     7295     7329     7357     7379     7384 
    7368     7339     7310     7283     7261     7245     7231     7221 
    7213     7206     7203     7200     7194     7183     7171     7160 
    7168     7188     7200     7203     7210     7222     7231     7236 
    7229     7219     7206     7187     7167     7150     7145     7148 
    7150     7150     7160     7182     7200     7215     7233     7240 
    7241     7237     7227     7223     7229     7234     7237     7230 
    7213     7188     7172     7171     7173     7175     7179     7187 
    7192     7192     7184     7175     7164     7144     7114     7084 
    7071     7074     7084     7099     7111     7122     7126     7126 
    7125     7118     7114     7117     7125     7136     7150     7168 
    7191     7217     7241     7271     7303     7327     7338     7335 
    7329     7330     7342     7361     7385     7412     7443     7472 
    7492     7492     7469     7422     7362     7306     7258     7222 
    7204     7199     7196     7195     7202     7203     7191     7169 
    7142     7123     7117     7113     7117     7129     7136     7138 
    7144     7146     7149     7153     7153     7153     7157     7165 
    7173     7176     7171     7161     7150     7140     7130     7137 
    7157     7179     7199     7225     7253     7271     7280     7288 
    7294     7299     7304     7306     7298     7277     7250     7219 
    7190     7168     7156     7148     7138     7126     7111     7105 
    7103     7102     7105     7110     7118     7138     7164     7186 
    7206     7229     7246     7260     7269     7267     7258     7253 
    7246     7242     7242     7237     7229     7227     7240     7256 
    7269     7283     7294     7294     7292     7291     7280     7253 
    7226     7200     7179     7169     7167     7160     7157     7157 
    7150     7141     7136     7128     7121     7119     7125     7134 
    7140     7140     7134     7130     7133     7141     7155     7169 
    7184     7202     7225     7246     7269     7296     7319     7333 
    7338     7342     7354     7373     7391     7402     7399     7381 
    7364     7352     7344     7326     7298     7269     7244     7226 
    7215     7209     7204     7196     7183     7171     7161     7149 
    7137     7128     7121     7110     7101     7095     7096     7109 
    7128     7142     7152     7165     7187     7204     7218     7227 
    7226     7215     7214     7222     7231     7236     7231     7223 
    7214     7207     7199     7190     7176     7168     7177     7200 
    7225     7240     7242     7236     7225     7217     7217     7222 
    7234     7242     7238     7233     7236     7238     7234     7230 
    7225     7217     7210     7207     7203     7199     7202     7209 
    7211     7206     7200     7198     7192     7184     7183     7192 
    7213     7237     7257     7268     7273     7276     7283     7294 
    7296     7290     7275     7264     7260     7256     7252     7249 
    7238     7221     7207     7196     7186     7172     7157     7140 
    7119     7101     7087     7082     7076     7063     7048     7036 
    7021     7011     7013     7022     7034     7063     7110     7164 
    7211     7245     7273     7291     7292     7285     7280     7268 
    7258     7254     7249     7248     7252     7252     7250     7245 
    7223     7188     7155     7129     7113     7107     7114     7128 
    7145     7165     7182     7191     7194     7195     7192     7187 
    7191     7206     7217     7215     7204     7194     7186     7177 
    7167     7157     7152     7152     7153     7157     7171     7188 
    7202     7217     7231     7248     7263     7275     7283     7288 
    7295     7299     7308     7329     7348     7356     7358     7358 
    7349     7338     7327     7318     7307     7298     7294     7290 
    7285     7283     7279     7276     7267     7254     7246     7244 
    7238     7226     7217     7207     7194     7180     7171     7157 
    7138     7119     7103     7094     7088     7084     7083     7086 
    7087     7092     7107     7119     7125     7130     7133     7134 
    7142     7155     7167     7179     7183     7176     7167     7160 
    7157     7157     7157     7152     7142     7130     7119     7110 
    7102     7098     7096     7103     7118     7141     7165     7191 
    7217     7241     7258     7271     7291     7318     7339     7350 
    7360     7381     7418     7449     7460     7457     7453     7456 
    7461     7464     7461     7458     7453     7441     7429     7420 
    7407     7391     7373     7362     7353     7345     7335     7330 
    7319     7300     7272     7241     7214     7192     7172     7146 
    7114     7080     7048     7028     7013     6991     6970     6955 
    6943     6936     6940     6951     6963     6974     6974     6967 
    6968     6980     6995     7010     7028     7052     7079     7103 
    7125     7146     7167     7182     7190     7204     7225     7252 
    7281     7308     7325     7329     7326     7323     7322     7321 
    7318     7303     7281     7264     7246     7227     7215     7206 
    7192     7180     7173     7173     7173     7171     7167     7163 
    7157     7149     7142     7137     7134     7132     7132     7137 
    7144     7157     7177     7198     7218     7241     7254     7256 
    7256     7254     7252     7250     7248     7244     7245     7249 
    7249     7249     7256     7267     7276     7284     7294     7307 
    7318     7319     7317     7308     7296     7290     7280     7267 
    7256     7242     7229     7217     7209     7202     7191     7180 
    7169     7160     7157     7159     7160     7164     7173     7186 
    7196     7203     7206     7209     7210     7210     7210     7219 
    7236     7252     7268     7279     7287     7294     7295     7294 
    7295     7288     7269     7249     7237     7230     7223     7213 
    7206     7210     7213     7210     7218     7230     7238     7242 
    7242     7236     7231     7229     7226     7234     7248     7257 
    7260     7263     7261     7258     7250     7240     7237     7242 
    7248     7248     7244     7237     7230     7225     7219     7210 
    7204     7200     7195     7194     7196     7200     7203     7204 
    7198     7186     7168     7149     7138     7130     7122     7113 
    7107     7109     7115     7122     7123     7123     7121     7115 
    7114     7119     7118     7115     7119     7129     7145     7164 
    7177     7188     7198     7203     7204     7202     7202     7204 
    7203     7196     7194     7195     7192     7190     7184     7177 
    7172     7167     7155     7148     7148     7146     7144     7146 
