Origin Time       2025/06/03 22:18:00
Lat.              41.7
Long.             143.6
Depth. (km)       30
Mag.              5.2
Station Code      TKCH10
Station Lat.      43.3337
Station Long.     142.9448
Station Height(m) 365
Record Time       2025/06/03 22:19:19
Sampling Freq(Hz) 100Hz
Duration Time(s)  120
Dir.              4
Scale Factor      7845(gal)/8223790
Max. Acc. (gal)   0.310
Last Correction   2025/06/03 22:19:20
Memo.             
     749      824      849      792      703      653      679      758 
     831      843      797      741      726      761      812      838 
     826      793      774      793      847      892      885      831 
     785      787      830      876      886      859      816      784 
     778      803      831      830      804      778      776      807 
     851      877      877      847      797      764      766      799 
     832      846      851      859      858      847      839      846 
     864      868      851      827      815      816      819      811 
     801      799      799      804      811      803      788      776 
     769      772      780      784      774      747      716      703 
     712      750      803      828      812      778      746      731 
     737      757      793      827      834      830      822      795 
     762      745      746      766      800      831      847      847 
     832      815      812      823      843      864      859      822 
     784      777      799      830      855      857      814      751 
     712      708      729      757      770      758      746      749 
     766      783      796      811      831      853      866      859 
     822      760      716      723      768      826      878      903 
     886      851      827      824      839      862      872      866 
     859      847      824      797      773      757      766      805 
     842      847      824      793      784      812      868      918 
     926      884      824      783      778      807      835      841 
     818      772      724      703      714      754      800      827 
     819      774      718      683      687      731      795      841 
     842      800      746      715      726      760      801      845 
     861      838      799      776      777      795      818      834 
     835      824      808      793      789      799      810      815 
     815      810      805      819      846      855      830      785 
     750      730      726      753      803      843      855      841 
     810      784      773      789      834      878      897      897 
     876      832      797      792      807      831      872      905 
     905      881      845      807      780      776      792      810 
     823      830      812      778      747      719      699      689 
     696      727      770      796      795      783      773      769 
     777      807      834      834      824      816      807      799 
     789      785      791      803      823      849      870      870 
     835      788      757      749      764      797      824      824 
     792      754      751      787      828      854      857      834 
     787      742      731      749      781      803      801      783 
     768      768      784      810      828      827      807      789 
     780      776      777      774      769      778      810      839 
     847      837      811      792      811      858      901      918 
     903      865      832      838      876      903      895      854 
     787      718      697      743      811      834      801      750 
     718      722      766      830      864      843      795      776 
     799      837      855      845      807      760      737      758 
     800      831      832      795      735      697      708      742 
     761      769      773      762      742      733      735      742 
     758      791      828      851      850      827      814      823 
     839      858      882      895      877      842      814      801 
     800      811      835      861      864      838      804      787 
     781      781      795      804      783      742      719      729 
     769      814      824      796      756      729      726      762 
     818      853      854      834      810      801      816      835 
     845      850      872      895      896      876      851      827 
     804      793      808      838      851      846      835      823 
     801      769      742      739      764      796      819      827 
     814      769      722      722      761      795      820      850 
     855      815      758      718      706      716      754      812 
     859      850      793      750      753      777      807      843 
     854      815      760      738      757      789      824      853 
     851      820      796      785      780      785      796      801 
     796      769      737      715      712      743      791      819 
     818      791      762      756      776      805      827      838 
     831      807      795      808      835      873      913      928 
     905      872      847      828      819      828      850      858 
     849      835      822      801      783      781      801      837 
     861      859      837      804      774      762      761      765 
     778      783      762      743      760      796      815      811 
     801      792      793      814      837      835      816      807 
     818      845      882      911      900      847      783      743 
     741      764      800      831      826      787      762      774 
     800      816      822      812      787      764      770      815 
     870      893      869      822      784      768      776      811 
     843      847      824      784      741      722      739      776 
     807      823      808      757      707      707      762      831 
     878      877      822      741      692      715      777      832 
     859      853      812      772      776      819      854      862 
     857      846      835      832      847      861      846      812 
     787      773      762      756      758      758      758      766 
     773      769      769      776      780      777      769      758 
     742      739      764      800      822      822      815      814 
     819      830      838      845      846      843      837      834 
     846      862      873      882      893      893      866      820 
     781      772      793      824      832      805      766      741 
     731      750      789      820      818      784      750      747 
     762      776      789      788      773      774      796      811 
     808      792      769      751      757      783      812      837 
     849      839      820      805      797      797      797      799 
     814      841      862      868      850      819      791      774 
     764      765      783      796      787      773      780      810 
     846      861      841      801      766      760      803      868 
     901      882      828      764      720      733      799      878 
     932      938      901      842      787      751      741      751 
     772      791      800      800      789      772      754      745 
     743      753      773      800      815      799      761      741 
     766      824      876      884      850      808      784      781 
     811      850      858      826      772      741      761      820 
     876      889      855      799      739      699      706      750 
     784      788      773      742      704      679      688      738 
     800      838      827      769      697      666      689      746 
     810      855      868      861      858      873      901      930 
     943      935      919      896      862      837      831      834 
     839      866      908      918      882      837      814      819 
     851      885      874      800      697      633      645      729 
     828      873      842      764      691      687      762      858 
     904      870      774      681      649      683      751      823 
     870      874      850      820      789      764      760      769 
     778      789      787      761      735      727      731      746 
     776      804      818      820      820      822      826      828 
     828      841      868      881      870      853      845      853 
     864      854      830      803      780      776      800      823 
     811      773      739      723      730      756      774      774 
     757      738      742      778      816      826      804      772 
     749      747      772      801      819      812      785      756 
     741      738      731      719      710      711      727      765 
     824      880      896      866      822      785      776      799 
     841      869      873      851      811      778      783      823 
     876      909      909      878      830      781      754      762 
     808      864      891      876      826      766      730      738 
     778      820      839      830      797      772      787      835 
     881      897      892      882      869      853      846      841 
     831      837      853      866      870      851      812      778 
     766      772      780      778      768      754      745      753 
     769      778      781      777      774      780      787      787 
     770      737      711      720      761      807      834      827 
     795      765      765      796      834      846      828      807 
     799      811      849      891      891      841      773      723 
     722      781      855      885      845      766      714      715 
     764      827      861      837      769      712      711      753 
     797      828      830      789      737      710      724      764 
     816      873      905      885      827      769      735      741 
     791      865      911      899      854      807      785      811 
     878      936      940      895      834      787      770      796 
     849      884      861      797      745      733      747      787 
     831      834      783      726      706      729      789      855 
     891      882      831      770      750      781      828      862 
     876      874      858      827      801      789      788      797 
     808      808      804      796      792      808      851      901 
     919      904      874      841      811      795      784      764 
     738      729      749      789      824      820      776      724 
     699      712      761      815      827      788      743      734 
     774      846      908      913      839      719      631      614 
     652      715      774      804      795      762      747      765 
     791      807      805      780      734      692      695      750 
     808      838      851      846      812      772      764      800 
     857      913      954      957      908      830      753      710 
     724      787      870      935      934      869      795      747 
     747      810      891      926      904      842      764      718 
     738      799      842      846      832      824      823      830 
     847      857      834      777      734      742      795      859 
     899      882      822      761      726      723      761      819 
     853      850      822      772      710      668      676      714 
     749      773      785      776      758      753      764      784 
     804      828      864      900      923      936      938      911 
     874      859      868      878      891      912      927      927 
     918      899      859      810      765      733      719      714 
     699      684      693      726      770      824      865      858 
     814      776      772      799      839      866      868      847 
     815      804      838      884      895      858      784      702 
     649      648      684      712      697      657      622      606 
     627      688      745      746      704      664      648      666 
     730      818      899      959      989      972      911      843 
     810      831      897      963      981      927      810      687 
     629      648      720      822      919      977      977      938 
     884      832      795      768      746      737      742      757 
     772      781      778      758      738      743      783      834 
     884      913      901      843      781      766      803      853 
     896      926      922      889      880      913      946      943 
     912      877      849      830      824      820      792      757 
     756      787      814      804      758      696      650      645 
     673      711      730      710      673      669      715      795 
     869      886      818      695      604      589      641      734 
     827      870      882      926     1008     1086     1129     1125 
    1055      930      801      719      695      693      688      684 
     704      772      876      976     1023      976      864      760 
     727      778      881      957      943      847      737      680 
     710      803      885      888      803      687      607      591 
     625      689      751      789      816      855      889      877 
     805      707      635      622      666      735      778      783 
     774      792      854      946     1015      985      845      665 
     542      540      668      855      985      982      874      754 
     704      750      857      951      955      849      710      648 
     719      889     1057     1105      994      792      625      584 
     688      865     1004     1030      946      814      703      679 
     746      831      865      834      761      689      653      653 
     683      722      750      757      731      670      606      591 
     664      812      963     1031      981      839      684      608 
     652      783      919      989      972      897      819      785 
     797      823      835      819      780      751      760      777 
     769      746      743      766      799      827      841      832 
     805      783      783      796      808      820      830      835 
     841      838      816      789      773      774      789      808 
     811      800      812      873      955     1016     1015      927 
     784      666      642      718      845      957     1003      966 
     893      865      908      981     1031     1013      930      827 
     754      734      761      803      820      793      722      629 
     562      565      627      696      743      770      774      761 
     749      742      734      707      657      603      568      567 
     610      677      738      789      830      858      882      916 
     955      962      907      797      668      567      531      573 
     676      803      896      915      876      816      764      747 
     774      815      845      862      869      864      849      845 
     859      886      915      935      938      909      843      765 
     720      727      774      851      949     1035     1075     1067 
    1024      958      889      841      815      810      826      861 
     889      878      816      723      637      598      637      745 
     870      935      905      810      708      653      670      746 
     818      837      807      762      741      756      784      805 
     811      805      807      831      872      897      895      869 
     826      772      726      696      680      685      729      801 
     866      886      873      850      843      872      927      969 
     954      873      749      623      544      534      591      662 
     700      704      693      691      718      772      828      850 
     818      770      747      747      766      807      851      876 
     880      885      904      934      942      904      827      743 
     679      668      727      812      859      830      735      619 
     546      558      641      739      804      810      778      754 
     768      816      866      878      842      781      747      770 
     853      963     1048     1073     1042      972      889      838 
     828      838      857      877      876      850      827      824 
     826      803      746      669      606      591      638      739 
     864      954      972      940      911      900      911      936 
     961      966      959      953      950      931      884      823 
     773      761      785      827      868      882      859      824 
     805      799      778      743      706      668      637      629 
     639      646      656      688      758      858      954      996 
     950      846      741      687      700      756      807      820 
     799      776      776      795      811      805      780      764 
     777      819      872      901      880      805      715      673 
     703      776      839      859      820      737      653      608 
     625      677      727      756      768      768      777      808 
     841      854      843      828      830      853      888      923 
     946      947      938      918      885      838      778      735 
     731      762      815      866      885      859      803      742 
     710      718      745      766      762      734      700      692 
     734      819      915      976      976      920      843      784 
     764      783      814      831      822      789      762      777 
     824      869      885      864      804      735      689      681 
     707      754      793      799      766      711      652      621 
     629      658      687      707      726      746      751      747 
     751      770      800      842      889      920      930      922 
     899      868      841      837      859      901      949      993 
    1036     1058     1038      984      912      843      795      761 
     726      689      677      712      784      854      884      849 
     770      697      673      706      772      837      862      837 
     793      766      770      818      880      919      915      872 
     811      784      818      903     1001     1050     1017      939 
     873      862      916     1000     1030      949      792      643 
     575      610      715      807      823      772      702      668 
     693      746      778      774      742      714      712      731 
     747      741      724      733      764      791      788      750 
     703      687      722      795      858      872      845      819 
     832      882      932      934      854      712      573      502 
     534      661      812      903      895      818      730      681 
     696      761      814      804      739      665      634      676 
     778      892      959      950      870      773      726      753 
     823      885      904      866      784      697      645      648 
     706      791      858      874      837      787      772      804 
     862      901      886      823      760      750      797      869 
     927      942      899      819      773      787      826      876 
     927      966      990     1003      997      963      924      915 
     943      980      986      942      855      751      670      648 
     669      692      702      707      716      733      747      739 
     692      633      599      619      695      789      858      873 
     823      746      703      707      741      787      827      846 
     839      818      791      768      765      780      787      778 
