Origin Time       2025/06/03 22:18:00
Lat.              41.7
Long.             143.6
Depth. (km)       30
Mag.              5.2
Station Code      TKCH05
Station Lat.      43.1211
Station Long.     143.6181
Station Height(m) 65
Record Time       2025/06/03 22:18:56
Sampling Freq(Hz) 100Hz
Duration Time(s)  120
Dir.              6
Scale Factor      7845(gal)/8223790
Max. Acc. (gal)   0.612
Last Correction   2025/06/03 22:18:57
Memo.             
[...]
    9915     9841     9829     9894     9967    10002     9984     9904 
    9814     9805     9879     9963    10033    10095    10115    10093 
   10085    10126    10158    10138    10100    10060     9976     9880 
    9842     9875     9941     9995    10007     9995     9973     9911 
    9823     9806     9882     9926     9879     9822     9775     9688 
    9626     9621     9593     9567     9628     9711     9733     9715 
    9714     9751     9830     9909     9930     9926     9963    10021 
   10048    10065    10115    10156    10127    10061    10027    10019 
   10021    10042    10066    10075    10073    10060    10029    10017 
   10046    10091    10118    10098    10026     9942     9864     9783 
    9702     9661     9710     9815     9876     9869     9868     9896 
    9884     9815     9764     9760     9764     9771     9817     9906 
    9987    10000     9952     9898     9875     9869     9856     9836 
    9841     9882     9919     9931     9919     9890     9872     9877 
    9882     9868     9882     9945     9996     9979     9929     9914 
    9985    10114    10199    10187    10115    10071    10065    10022 
    9923     9834     9801     9845     9938    10015    10045    10031 
    9972     9892     9845     9846     9869     9892     9899     9886 
    9886     9915     9941     9941     9945     9977     9988     9930 
    9872     9880     9904     9917     9956    10003    10006     9983 
    9981    10004    10042    10091    10116    10095    10042     9961 
    9872     9842     9871     9890     9890     9913     9929     9886 
    9823     9810     9842     9880     9917     9961     9984     9957 
    9925     9907     9890     9887     9906     9921     9940     9973 
   10014    10058    10081    10054     9973     9876     9825     9850 
    9919     9960     9958     9969    10014    10037    10008     9987 
   10000     9996     9949     9917     9929     9950     9968     9980 
    9950     9867     9790     9775     9815     9861     9899     9950 
    9992     9983     9946     9922     9911     9919     9936     9940 
    9925     9907     9883     9856     9818     9775     9788     9869 
    9909     9848     9774     9732     9694     9684     9738     9805 
    9821     9775     9717     9714     9774     9841     9886     9896 
    9907     9948     9949     9863     9792     9819     9887     9918 
    9883     9822     9823     9900     9977    10035    10096    10153 
   10210    10258    10222    10099    10025    10068    10145    10150 
   10072     9988     9979    10006     9991     9968    10002    10050 
   10022     9918     9845     9869     9937     9984    10010     9981 
    9879     9769     9718     9707     9722     9771     9833     9857 
    9840     9807     9763     9717     9718     9778     9848     9867 
    9834     9811     9845     9895     9909     9911     9945     9964 
    9923     9855     9795     9763     9776     9826     9900    10000 
   10092    10149    10200    10260    10305    10318    10280    10200 
   10126    10099    10095    10048     9977     9990    10091    10174 
   10170    10100    10021     9938     9848     9806     9838     9877 
    9871     9867     9896     9902     9876     9896     9923     9872 
    9794     9755     9745     9775     9830     9882     9957    10042 
   10031     9926     9850     9840     9855     9876     9904     9944 
    9972     9953     9898     9836     9784     9779     9834     9906 
    9961     9985     9931     9794     9710     9795     9952    10023 
   10021    10008     9980     9926     9877     9859     9883     9931 
    9983    10029    10035     9987     9953     9968     9994    10015 
   10018     9977     9917     9868     9852     9887     9930     9914 
    9863     9836     9833     9840     9871     9946    10039    10091 
   10077    10008     9891     9768     9703     9710     9755     9822 
    9891     9934     9948     9936     9911     9922     9933     9877 
    9841     9909     9975     9950     9906     9888     9865     9840 
    9860     9938    10029    10081    10102    10092    10019     9883 
    9763     9724     9751     9799     9869     9995    10119    10146 
   10123    10122    10076     9967     9895     9903     9926     9909 
    9849     9794     9780     9788     9774     9752     9775     9817 
    9828     9818     9815     9805     9782     9767     9791     9855 
    9917     9925     9871     9795     9765     9818     9927    10058 
   10183    10249    10214    10133    10072    10025     9983     9987 
   10056    10162    10251    10237    10100     9952     9919     9967 
    9975     9946     9964     9980     9894     9759     9721     9807 
    9938    10031    10038     9965     9863     9763     9688     9679 
    9749     9850     9948    10027    10073    10085    10076    10045 
   10022    10017     9958     9846     9784     9829     9925     9988 
   10000    10002    10002     9979     9937     9892     9869     9902 
    9942     9931     9894     9825     9710     9647     9683     9748 
    9794     9810     9813     9865     9948     9975     9960     9981 
   10025    10008     9934     9869     9849     9871     9934    10007 
   10033    10004     9987     9995     9975     9944     9956     9984 
    9972     9941     9944     9987    10048    10069    10023     9965 
    9963     9999    10038    10084    10127    10119    10031     9900 
    9803     9791     9837     9890     9925     9926     9891     9844 
    9828     9855     9906     9956     9983     9973     9927     9895 
    9918     9967     9976     9898     9760     9683     9726     9805 
    9853     9907     9965     9964     9899     9805     9710     9691 
    9790     9915     9944     9855     9752     9732     9795     9910 
   10038    10116    10120    10066     9985     9903     9838     9802 
    9806     9856     9948    10048    10111    10127    10092     9998 
    9900     9884     9945    10012    10052    10065    10071    10114 
   10193    10184    10044     9907     9861     9860     9856     9848 
    9872     9937     9995    10026    10015     9930     9830     9796 
    9790     9776     9809     9867     9860     9807     9814     9894 
    9976    10011     9999     9969     9944     9917     9892     9913 
   10017    10166    10260    10199    10017     9865     9829     9875 
    9941     9972     9929     9834     9741     9702     9715     9760 
    9822     9911    10025    10085    10003     9826     9721     9741 
    9794     9834     9873     9873     9822     9798     9829     9871 
    9900     9898     9845     9776     9757     9834     9973    10079 
   10120    10142    10157    10125    10026     9915     9848     9836 
    9867     9926     9983    10015    10045    10123    10211    10207 
   10099     9968     9868     9828     9849     9882     9918     9998 
   10073    10038     9877     9720     9675     9733     9838     9948 
   10011    10006     9958     9892     9813     9753     9756     9815 
    9890     9954    10003     9979     9860     9747     9729     9757 
    9774     9815     9918    10011    10046    10073    10110    10092 
   10012     9931     9900     9933    10018    10093    10098    10066 
   10062    10066    10052    10022    10012    10056    10096    10076 
   10008     9923     9829     9745     9684     9660     9702     9819 
    9983    10129    10165    10064     9896     9757     9686     9690 
    9767     9896    10011    10037    10008    10031    10076    10044 
    9958     9902     9879     9857     9844     9879     9950     9995 
   10015    10046    10027     9911     9778     9720     9713     9714 
    9767     9903    10054    10127    10127    10122    10145    10160 
   10095     9956     9853     9840     9883     9944     9983     9975 
    9952     9967     9965     9880     9782     9756     9779     9822 
    9922    10050    10114    10053     9876     9667     9563     9599 
    9679     9740     9801     9845     9842     9829     9853     9896 
    9906     9890     9910     9973    10004     9952     9886     9879 
    9876     9821     9795     9876     9990     9994     9892     9790 
    9717     9670     9686     9742     9796     9882    10022    10187 
   10301    10287    10158     9987     9809     9697     9703     9779 
    9863     9940    10010    10095    10166    10157    10084    10014 
    9976     9968     9968     9950     9936     9965    10031    10084 
   10077    10003     9894     9759     9649     9688     9886    10092 
   10220    10284    10284    10231    10146    10019     9882     9782 
    9718     9707     9798     9931    10022    10083    10125    10116 
   10054     9971     9902     9844     9794     9792     9818     9798 
    9769     9828     9944    10026    10042    10012     9946     9859 
    9769     9686     9625     9647     9741     9815     9840     9879 
    9931     9936     9936    10022    10135    10145    10064     9992 
    9938     9859     9806     9842     9902     9940     9976     9967 
    9883     9833     9892    10026    10176    10301    10365    10349 
   10280    10214    10183    10169    10116    10022     9934     9917 
   10008    10143    10208    10174    10061     9915     9806     9728 
    9659     9661     9733     9764     9694     9568     9452     9394 
    9439     9587     9769     9900     9965     9987     9957     9895 
    9867     9846     9759     9664     9653     9690     9733     9761 
    9730     9676     9652     9612     9563     9603     9698     9757 
    9822     9907     9941     9934     9958    10014    10072    10150 
   10249    10311    10296    10231    10161    10102    10012     9883 
    9769     9718     9718     9763     9849     9936     9984    10019 
   10050    10038     9988    10014    10134    10226    10260    10320 
   10432    10515    10496    10384    10250    10088     9855     9624 
    9504     9489     9524     9597     9713     9848     9927     9917 
    9876     9863     9838     9768     9726     9772     9861     9952 
   10039    10119    10172    10147    10007     9807     9667     9647 
    9713     9805     9906     9996    10010     9942     9845     9782 
    9786     9783     9695     9595     9602     9695     9819     9985 
   10158    10266    10322    10339    10309    10268    10219    10135 
   10069    10053    10008     9915     9830     9788     9853    10042 
   10224    10304    10308    10243    10139    10056     9994     9949 
    9945     9953     9913     9844     9801     9765     9738     9787 
    9894     9965     9990    10008    10035    10030     9963     9853 
    9734     9645     9621     9649     9711     9794     9856     9896 
    9949     9965     9876     9760     9730     9795     9919    10046 
   10104    10092    10061    10049    10108    10241    10341    10299 
   10112     9882     9676     9482     9335     9328     9458     9640 
    9861    10103    10281    10335    10265    10135    10041     9980 
    9892     9840     9906    10033    10125    10169    10173    10103 
    9946     9782     9707     9752     9903    10085    10164    10079 
    9934     9833     9787     9811     9879     9902     9884     9868 
    9821     9749     9709     9682     9634     9587     9582     9664 
    9814     9942    10007    10006     9917     9763     9639     9617 
    9679     9744     9767     9779     9805     9807     9801     9864 
    9976    10026    10023    10045    10045     9927     9733     9605 
    9613     9697     9776     9798     9720     9634     9688     9857 
   10038    10204    10346    10397    10334    10208    10110    10115 
   10214    10301    10291    10203    10118    10069    10041    10004 
    9971     9956     9942     9875     9742     9636     9633     9697 
    9755     9810     9902     9998    10023     9973     9934     9977 
   10069    10119    10107    10042     9934     9855     9857     9894 
    9918     9931     9940     9926     9877     9805     9729     9666 
    9636     9667     9790     9996    10193    10281    10230    10073 
    9902     9787     9748     9791     9883     9972    10041    10060 
   10023     9992     9995    10008    10038    10091    10125    10106 
   10039     9973     9949     9983    10050    10076    10003     9899 
    9892     9992    10079    10120    10170    10188    10111    10000 
    9926     9877     9826     9798     9779     9728     9694     9741 
    9867    10042    10179    10179    10069     9931     9784     9643 
    9543     9524     9591     9671     9705     9706     9679     9634 
    9664     9813     9996    10145    10239    10265    10219    10137 
   10071    10041    10068    10153    10222    10184    10038     9891 
    9875     9991    10102    10118    10080    10031     9968     9911 
    9898     9926     9961     9965     9930     9900     9946    10046 
   10089    10027     9940     9914     9946     9980     9985     9983 
    9991     9977     9904     9787     9674     9586     9522     9493 
    9518     9610     9713     9724     9645     9587     9570     9541 
    9517     9558     9657     9753     9826     9884     9921     9933 
    9948     9981    10004     9969     9915     9903     9913     9900 
    9877     9850     9817     9811     9873     9968    10031    10046 
    9996     9848     9651     9539     9579     9706     9823     9918 
   10023    10139    10223    10237    10197    10153    10138    10160 
   10203    10277    10403    10531    10567    10498    10378    10257 
   10170    10127    10084    10034    10014    10004     9973     9950 
    9957     9965     9950     9919     9883     9830     9786     9838 
   10000    10158    10243    10288    10307    10292    10227    10088 
    9927     9828     9738     9587     9431     9347     9329     9364 
    9459     9564     9624     9663     9714     9759     9776     9803 
    9890     9992    10014     9922     9772     9693     9742     9842 
    9936    10046    10164    10272    10365    10374    10258    10114 
   10019     9937     9826     9738     9753     9873    10035    10176 
   10219    10154    10056     9983     9921     9872     9844     9817 
    9792     9810     9895    10017    10095    10071     9964     9849 
    9768     9706     9667     9678     9741     9803     9814     9772 
    9717     9687     9684     9705     9767     9882     9996    10044 
   10026     9998     9990     9987     9944     9850     9724     9593 
    9508     9514     9636     9868    10141    10336    10407    10374 
   10285    10184    10095    10015     9963     9975    10017    10014 
   10010    10098    10242    10312    10250    10083     9864     9637 
    9432     9312     9342     9485     9621     9671     9637     9566 
    9520     9548     9637     9765     9918    10066    10161    10152 
   10049     9945     9894     9880     9904     9949     9987    10008 
   10012     9998     9968     9914     9863     9869     9931     9980 
    9956     9859     9720     9575     9499     9564     9714     9833 
    9914    10002    10076    10134    10192    10227    10242    10266 
   10280    10250    10215    10238    10312    10363    10373    10377 
   10368    10324    10258    10166    10038     9913     9842     9825 
    9815     9796     9776     9761     9765     9791     9802     9796 
    9795     9783     9767     9755     9737     9738     9767     9784 
    9810     9859     9879     9876     9907     9965    10022    10058 
   10057    10053    10092    10158    10216    10230    10179    10118 
   10107    10096    10037     9968     9925     9871     9782     9705 
    9709     9780     9848     9892     9909     9859     9765     9714 
    9725     9759     9788     9811     9840     9891     9960    10021 
   10048    10041    10029    10023     9999     9969    10000    10076 
   10096    10038     9967     9919     9903     9914     9946     9985 
   10017    10011     9957     9871     9788     9742     9759     9830 
    9936    10041    10110    10147    10160    10135    10104    10111 
   10142    10164    10180    10206    10230    10238    10224    10179 
   10102    10021     9944     9830     9652     9475     9370     9324 
    9310     9329     9378     9451     9529     9560     9516     9462 
    9487     9574     9622     9601     9570     9582     9652     9779 
    9906     9958     9965    10002    10045    10018     9925     9832 
    9790     9802     9828     9811     9742     9668     9655     9742 
    9903    10038    10104    10139    10156    10153    10172    10243 
   10341    10404    10423    10440    10471    10505    10519    10498 
   10443    10374    10307    10247    10206    10196    10227    10266 
   10260    10219    10197    10152    10023     9868     9749     9680 
    9675     9690     9670     9636     9617     9572     9479     9408 
    9405     9441     9491     9525     9513     9506     9563     9641 
    9713     9806     9880     9857     9760     9686     9671     9687 
    9738     9855     9983    10058    10092    10092    10050    10025 
   10075    10149    10158    10111    10065    10052    10048    10018 
    9981     9972     9979     9987     9985     9965     9957    10037 
   10187    10288    10276    10197    10108    10038    10000     9975 
    9918     9825     9732     9675     9679     9761     9882     9956 
    9954     9929     9940     9981     9996     9967     9926     9887 
    9828     9771     9768     9840     9929     9968     9969     9990 
   10034    10065    10080    10115    10179    10228    10234    10214 
   10201    10195    10169    10116    10030     9933     9886     9910 
    9950     9940     9876     9823     9810     9786     9714     9629 
    9562     9506     9485     9526     9594     9655     9715     9736 
    9694     9675     9709     9741     9772     9817     9840     9865 
    9929     9991    10014    10023    10039    10031     9984     9942 
    9946     9968     9968     9969     9994    10002     9958     9888 
    9841     9828     9813     9795     9802     9841     9904     9967 
    9981     9963     9945     9926     9910     9938    10002    10048 
   10062    10079    10098    10108    10131    10166    10166    10138 
   10108    10054     9995     9983    10012    10060    10129    10191 
   10199    10161    10127    10114    10115    10129    10127    10083 
   10008     9931     9876     9857     9875     9902     9895     9852 
    9809     9779     9751     9736     9760     9790     9776     9744 
    9721     9687     9655     9655     9672     9676     9666     9667 
    9691     9711     9720     9738     9769     9784     9798     9833 
    9861     9868     9882     9904     9925     9950     9981    10002 
   10004     9994     9976     9972     9996    10035    10076    10098 
   10085    10083    10141    10218    10228    10169    10092    10012 
    9952     9936     9945     9946     9934     9911     9888     9884 
    9910     9944     9957     9948     9934     9921     9922     9961 
   10015    10044    10050    10038     9999     9971     9983     9992 
    9957     9915     9938    10031    10129    10169    10169    10184 
   10185    10111     9994     9922     9911     9898     9838     9745 
    9659     9628     9666     9736     9780     9788     9776     9759 
