Origin Time       2025/06/03 22:18:00
Lat.              41.7
Long.             143.6
Depth. (km)       30
Mag.              5.2
Station Code      TKCH02
Station Lat.      43.3822
Station Long.     143.8983
Station Height(m) 225
Record Time       2025/06/03 22:19:21
Sampling Freq(Hz) 100Hz
Duration Time(s)  120
Dir.              2
Scale Factor      2942(gal)/8224139
Max. Acc. (gal)   0.204
Last Correction   2025/06/03 22:19:21
Memo.             
[...]
  254299   254311   254352   254421   254508   254589   254641   254664 
  254654   254607   254550   254512   254489   254476   254480   254502 
  254533   254574   254610   254619   254603   254572   254535   254511 
  254516   254551   254600   254634   254635   254616   254595   254577 
  254562   254551   254539   254523   254503   254465   254421   254392 
  254381   254381   254389   254395   254388   254383   254392   254411 
  254427   254431   254427   254430   254427   254396   254353   254330 
  254335   254365   254400   254412   254394   254357   254321   254299 
  254296   254294   254277   254263   254263   254267   254272   254291 
  254315   254323   254314   254286   254242   254206   254206   254246 
  254298   254350   254406   254453   254487   254503   254506   254492 
  254469   254450   254449   254476   254514   254541   254556   254565 
  254573   254583   254581   254566   254550   254534   254512   254496 
  254495   254502   254515   254537   254558   254570   254570   254573 
  254596   254639   254682   254708   254711   254705   254700   254678 
  254641   254612   254615   254637   254653   254661   254664   254647 
  254607   254550   254496   254457   254430   254404   254371   254342 
  254338   254379   254452   254531   254596   254622   254607   254568 
  254510   254452   254414   254389   254388   254402   254400   254381 
  254365   254353   254333   254315   254308   254318   254340   254357 
  254360   254346   254318   254292   254281   254283   254291   254291 
  254254   254196   254159   254146   254156   254184   254223   254265 
  254302   254326   254330   254317   254306   254300   254281   254263 
  254269   254314   254385   254443   254479   254500   254511   254529 
  254546   254545   254547   254573   254601   254627   254655   254677 
  254685   254674   254637   254584   254535   254493   254457   254442 
  254457   254488   254519   254534   254519   254488   254448   254404 
  254389   254404   254437   254470   254485   254480   254472   254480 
  254503   254529   254545   254551   254543   254524   254503   254479 
  254450   254426   254418   254419   254430   254449   254453   254427 
  254389   254361   254353   254368   254400   254433   254454   254470 
  254481   254472   254448   254434   254433   254450   254487   254523 
  254545   254553   254546   254522   254489   254462   254445   254439 
  254446   254450   254445   254437   254435   254448   254466   254483 
  254491   254487   254492   254511   254533   254560   254593   254615 
  254615   254600   254577   254556   254546   254557   254570   254566 
  254526   254448   254371   254326   254310   254317   254346   254400 
  254449   254464   254450   254416   254360   254302   254272   254271 
  254286   254308   254327   254346   254367   254375   254365   254346 
  254322   254298   254275   254254   254242   254254   254313   254414 
  254530   254614   254649   254661   254658   254638   254610   254576 
  254550   254545   254558   254576   254585   254580   254560   254538 
  254535   254549   254565   254570   254560   254538   254515   254493 
  254464   254426   254392   254376   254389   254408   254406   254387 
  254373   254377   254406   254441   254466   254477   254484   254489 
  254487   254465   254419   254354   254304   254295   254313   254323 
  254321   254315   254319   254335   254346   254346   254338   254313 
  254281   254264   254261   254267   254290   254335   254394   254458 
  254508   254523   254510   254480   254439   254404   254385   254377 
  254369   254365   254368   254368   254373   254384   254381   254367 
  254352   254340   254323   254304   254296   254302   254338   254416 
  254516   254592   254618   254600   254560   254529   254516   254524 
  254551   254573   254565   254530   254481   254437   254402   254377 
  254361   254356   254367   254400   254430   254434   254426   254418 
  254411   254418   254441   254461   254460   254441   254408   254381 
  254375   254385   254399   254411   254419   254431   254439   254434 
  254422   254411   254410   254422   254429   254441   254462   254484 
  254507   254520   254523   254530   254542   254553   254572   254596 
  254607   254614   254642   254678   254709   254738   254759   254769 
  254765   254740   254686   254620   254564   254523   254499   254496 
  254515   254538   254543   254539   254542   254549   254550   254539 
  254503   254439   254371   254323   254308   254327   254358   254369 
  254368   254372   254373   254372   254377   254388   254404   254421 
  254431   254437   254439   254442   254446   254449   254456   254462 
  254457   254426   254373   254314   254272   254252   254237   254222 
  254210   254192   254175   254159   254156   254178   254222   254281 
  254341   254388   254433   254476   254530   254605   254692   254766 
  254807   254788   254718   254631   254556   254489   254438   254414 
  254426   254443   254437   254412   254387   254361   254325   254288 
  254284   254319   254385   254483   254601   254718   254799   254827 
  254812   254770   254712   254649   254595   254550   254508   254464 
  254431   254414   254398   254381   254358   254323   254288   254257 
  254218   254165   254119   254103   254125   254171   254225   254275 
  254306   254319   254331   254344   254340   254318   254299   254307 
  254354   254433   254516   254577   254596   254589   254589   254612 
  254651   254686   254695   254672   254645   254631   254628   254626 
  254614   254587   254545   254506   254477   254453   254441   254442 
  254437   254416   254396   254395   254412   254442   254485   254530 
  254561   254577   254583   254577   254561   254533   254507   254489 
  254476   254464   254443   254410   254381   254371   254369   254371 
  254388   254430   254475   254512   254550   254592   254627   254632 
  254603   254560   254520   254488   254466   254457   254454   254453 
  254441   254422   254411   254411   254410   254399   254379   254358 
  254354   254364   254365   254344   254313   254294   254304   254335 
  254372   254408   254434   254445   254449   254452   254458   254476 
  254492   254489   254461   254415   254362   254319   254303   254306 
  254304   254295   254281   254276   254296   254335   254375   254396 
  254396   254385   254376   254376   254380   254391   254416   254457 
  254491   254512   254518   254508   254499   254502   254512   254531 
  254539   254519   254488   254469   254454   254421   254371   254319 
  254284   254268   254256   254249   254248   254245   254244   254252 
  254271   254299   254340   254383   254422   254449   254466   254499 
  254539   254568   254581   254593   254605   254615   254608   254574 
  254523   254468   254412   254379   254365   254364   254381   254418 
  254445   254453   254465   254484   254489   254491   254493   254506 
  254533   254565   254581   254578   254570   254564   254558   254545 
  254529   254524   254538   254557   254551   254519   254483   254450 
  254418   254394   254380   254379   254407   254466   254537   254595 
  254622   254623   254605   254573   254541   254508   254470   254439 
  254427   254437   254462   254491   254514   254531   254543   254538 
  254520   254499   254479   254466   254468   254483   254516   254556 
  254574   254576   254569   254554   254531   254507   254493   254496 
  254519   254549   254572   254593   254619   254642   254649   254632 
  254600   254565   254533   254508   254493   254487   254495   254508 
  254504   254466   254418   254376   254338   254294   254259   254253 
  254272   254299   254325   254334   254325   254307   254283   254256 
  254236   254221   254200   254187   254187   254195   254205   254223 
  254245   254254   254256   254245   254223   254202   254184   254178 
  254199   254244   254288   254329   254362   254385   254394   254391 
  254392   254408   254430   254450   254475   254500   254520   254535 
  254538   254534   254538   254546   254558   254573   254583   254592 
  254614   254638   254643   254620   254583   254535   254487   254456 
  254442   254427   254412   254418   254448   254480   254496   254491 
  254470   254449   254435   254427   254416   254404   254404   254421 
  254446   254464   254461   254445   254439   254450   254460   254448 
  254402   254337   254276   254246   254245   254256   254275   254304 
  254334   254358   254385   254418   254460   254504   254537   254561 
  254584   254599   254604   254607   254605   254599   254577   254535 
  254491   254464   254456   254450   254438   254425   254418   254433 
  254466   254510   254551   254580   254587   254583   254574   254564 
  254556   254557   254574   254600   254619   254630   254643   254651 
  254639   254603   254554   254524   254530   254551   254569   254581 
  254588   254593   254604   254619   254626   254622   254604   254584 
  254564   254545   254533   254520   254492   254454   254410   254348 
  254272   254190   254117   254065   254032   254007   254006   254028 
  254059   254087   254114   254146   254183   254227   254296   254388 
  254483   254554   254596   254604   254589   254573   254573   254581 
  254584   254569   254539   254510   254495   254507   254535   254557 
  254554   254529   254487   254445   254410   254362   254284   254198 
  254140   254130   254160   254190   254198   254209   254227   254246 
  254265   254279   254287   254296   254308   254319   254335   254360 
  254406   254468   254533   254601   254669   254728   254781   254824 
  254854   254867   254857   254816   254762   254703   254647   254600 
  254547   254491   254433   254384   254356   254348   254350   254353 
  254354   254352   254342   254327   254315   254315   254326   254345 
  254361   254368   254362   254350   254353   254376   254403   254422 
  254441   254457   254470   254473   254457   254431   254400   254371 
  254341   254303   254267   254249   254249   254268   254298   254317 
  254322   254340   254392   254468   254533   254568   254578   254580 
  254584   254597   254604   254600   254592   254580   254562   254543 
  254524   254503   254476   254446   254411   254376   254350   254330 
  254310   254288   254260   254222   254187   254160   254142   254126 
  254110   254094   254090   254114   254156   254192   254219   254250 
  254294   254348   254396   254418   254415   254416   254425   254437 
  254452   254456   254454   254462   254476   254511   254576   254649 
  254712   254761   254790   254804   254808   254807   254803   254809 
  254826   254846   254865   254885   254897   254898   254902   254902 
  254886   254862   254835   254796   254753   254716   254682   254655 
  254646   254650   254649   254631   254608   254578   254545   254520 
  254514   254519   254524   254523   254514   254503   254488   254461 
  254422   254381   254349   254321   254298   254275   254237   254202 
  254175   254149   254129   254113   254090   254074   254074   254087 
  254106   254129   254160   254191   254215   254234   254248   254256 
  254263   254281   254306   254319   254327   254341   254362   254385 
  254408   254429   254449   254460   254462   254470   254485   254507 
  254549   254604   254653   254685   254705   254716   254707   254678 
  254647   254622   254607   254610   254624   254643   254668   254688 
  254701   254716   254724   254712   254682   254646   254614   254581 
  254549   254516   254485   254457   254437   254421   254407   254391 
  254372   254349   254327   254308   254290   254275   254260   254253 
  254260   254267   254261   254256   254265   254287   254310   254330 
  254349   254369   254389   254412   254435   254452   254457   254449 
  254421   254384   254357   254341   254334   254337   254342   254345 
  254344   254345   254352   254346   254333   254329   254330   254329 
  254330   254341   254348   254345   254341   254340   254334   254321 
  254290   254254   254233   254229   254236   254245   254259   254288 
  254325   254356   254376   254380   254375   254384   254411   254441 
  254458   254460   254448   254433   254418   254411   254411   254406 
  254387   254365   254350   254344   254346   254350   254352   254360 
  254377   254395   254411   254425   254434   254441   254438   254426 
  254408   254398   254399   254415   254441   254479   254524   254570 
  254620   254674   254724   254767   254807   254840   254878   254913 
  254938   254947   254946   254948   254956   254963   254967   254978 
  254983   254973   254951   254921   254885   254844   254812   254785 
  254757   254719   254673   254626   254591   254562   254538   254518 
  254493   254456   254410   254368   254335   254306   254284   254276 
  254272   254267   254264   254256   254233   254211   254211   254232 
  254252   254265   254281   254306   254333   254348   254346   254330 
  254306   254288   254291   254311   254342   254381   254419   254448 
  254468   254488   254499   254502   254503   254507   254503   254503 
  254512   254519   254529   254551   254581   254604   254614   254605 
  254593   254589   254593   254601   254610   254618   254626   254627 
  254616   254597   254570   254535   254500   254468   254438   254411 
  254391   254377   254369   254371   254375   254373   254361   254331 
  254291   254254   254222   254195   254167   254136   254111   254090 
  254067   254043   254016   253993   253982   253972   253960   253944 
  253925   253908   253897   253885   253878   253883   253885   253883 
  253886   253895   253913   253939   253970   254002   254036   254071 
  254109   254151   254196   254238   254273   254298   254311   254319 
  254334   254358   254385   254412   254445   254477   254507   254530 
  254547   254562   254580   254599   254623   254655   254689   254730 
  254776   254815   254846   254882   254915   254936   254946   254936 
  254915   254890   254865   254840   254824   254808   254790   254784 
  254781   254776   254770   254766   254755   254736   254709   254678 
  254650   254622   254592   254568   254545   254529   254520   254519 
  254527   254542   254553   254564   254583   254599   254605   254608 
  254597   254569   254534   254497   254458   254425   254398   254375 
  254358   254341   254321   254310   254308   254307   254299   254276 
  254245   254218   254198   254195   254211   254237   254260   254272 
  254265   254261   254267   254272   254277   254283   254281   254273 
  254256   254234   254223   254226   254245   254272   254292   254308 
  254330   254354   254376   254392   254395   254389   254385   254384 
  254389   254404   254414   254415   254419   254421   254423   254427 
  254427   254427   254429   254434   254450   254473   254489   254496 
  254493   254493   254495   254495   254499   254511   254527   254542 
  254553   254554   254546   254538   254535   254539   254546   254551 
  254551   254554   254558   254561   254573   254587   254597   254615 
  254643   254669   254688   254701   254711   254720   254732   254742 
  254755   254767   254777   254793   254811   254827   254846   254861 
  254871   254870   254853   254821   254792   254776   254759   254749 
  254751   254755   254759   254769   254786   254804   254807   254790 
  254765   254742   254726   254715   254697   254673   254649   254624 
  254599   254570   254543   254514   254480   254449   254427   254404 
  254372   254333   254286   254227   254175   254140   254122   254111 
  254101   254092   254087   254079   254067   254056   254052   254051 
  254053   254071   254095   254114   254129   254138   254141   254141 
  254140   254137   254137   254136   254140   254156   254182   254210 
  254227   254225   254214   254218   254223   254223   254223   254225 
  254232   254254   254286   254318   254346   254364   254372   254373 
  254371   254375   254387   254400   254418   254429   254422   254411 
  254403   254396   254392   254389   254384   254376   254369   254376 
  254398   254415   254430   254452   254470   254489   254510   254523 
  254537   254556   254574   254601   254627   254642   254651   254655 
  254649   254642   254631   254605   254577   254554   254533   254516 
  254497   254466   254441   254423   254410   254402   254388   254380 
  254381   254381   254380   254387   254399   254407   254415   254430 
  254446   254460   254464   254454   254434   254402   254368   254335 
  254299   254265   254230   254195   254173   254161   254149   254146 
  254152   254167   254191   254222   254256   254292   254331   254379 
  254427   254466   254496   254516   254520   254514   254507   254500 
  254488   254476   254466   254453   254441   254433   254421   254404 
  254384   254360   254345   254333   254321   254313   254303   254288 
  254280   254286   254299   254321   254354   254389   254419   254448 
  254469   254487   254508   254535   254561   254585   254608   254634 
  254661   254688   254708   254728   254750   254766   254780   254793 
  254807   254824   254850   254867   254874   254888   254905   254911 
  254908   254902   254885   254863   254840   254820   254796   254763 
  254736   254715   254697   254685   254672   254658   254653   254655 
  254658   254662   254670   254673   254659   254635   254619   254614 
  254608   254596   254578   254562   254547   254530   254511   254496 
  254484   254464   254439   254423   254411   254399   254392   254377 
  254357   254341   254329   254313   254299   254281   254257   254237 
  254226   254215   254206   254192   254172   254153   254133   254110 
  254087   254072   254067   254060   254056   254064   254088   254124 
  254146   254157   254171   254186   254198   254214   254230   254240 
  254245   254252   254257   254257   254252   254250   254259   254275 
  254295   254315   254329   254331   254333   254341   254354   254373 
  254392   254412   254431   254441   254439   254429   254415   254406 
  254391   254375   254365   254360   254357   254356   254354   254346 
  254337   254325   254310   254299   254298   254299   254300   254303 
  254298   254287   254279   254271   254265   254268   254279   254296 
  254318   254338   254356   254376   254402   254427   254452   254470 
  254487   254499   254512   254526   254534   254539   254545   254543 
  254542   254542   254539   254533   254526   254529   254541   254547 
  254549   254543   254534   254520   254504   254489   254484   254484 
  254483   254479   254466   254461   254460   254457   254461   254476 
  254495   254518   254543   254569   254599   254639   254684   254720 
  254749   254778   254815   254847   254870   254884   254889   254893 
  254901   254901   254898   254900   254905   254907   254902   254894 
  254881   254865   254850   254836   254820   254797   254766   254736 
  254709   254674   254634   254592   254550   254511   254469   254427 
  254389   254356   254326   254296   254261   254226   254195   254165 
  254138   254122   254118   254124   254132   254144   254156   254167 
  254179   254190   254190   254187   254187   254190   254191   254191 
  254192   254191   254190   254200   254203   254191   254180   254172 
  254163   254155   254151   254148   254148   254156   254176   254191 
  254200   254213   254223   254234   254248   254268   254296   254326 
