Origin Time       2025/03/31 16:51:00
Lat.              27.443
Long.             128.673
Depth. (km)       42
Mag.              3.7
Station Code      KGS033
Station Lat.      27.6883
Station Long.     128.9421
Station Height(m) 136
Record Time       2025/03/31 16:51:45
Sampling Freq(Hz) 100Hz
Duration Time(s)  60
Dir.              E-W
Scale Factor      7845(gal)/8223790
Max. Acc. (gal)   4.330
Last Correction   2025/03/31 16:51:46
Memo.             
[...]
   -2231    -2234    -2234    -2230    -2230    -2232    -2232    -2231 
   -2232    -2230    -2228    -2232    -2234    -2234    -2235    -2236 
   -2234    -2232    -2230    -2227    -2230    -2235    -2238    -2236 
   -2234    -2231    -2232    -2232    -2231    -2228    -2228    -2228 
   -2227    -2230    -2231    -2231    -2232    -2234    -2232    -2232 
   -2232    -2232    -2232    -2232    -2231    -2231    -2228    -2226 
   -2228    -2232    -2232    -2232    -2235    -2234    -2232    -2232 
   -2231    -2230    -2231    -2234    -2235    -2235    -2232    -2231 
   -2231    -2231    -2230    -2231    -2235    -2235    -2232    -2232 
   -2228    -2226    -2230    -2232    -2232    -2235    -2235    -2234 
   -2231    -2230    -2228    -2227    -2232    -2235    -2232    -2235 
   -2236    -2232    -2230    -2231    -2230    -2230    -2231    -2230 
   -2230    -2232    -2234    -2234    -2232    -2231    -2232    -2232 
   -2228    -2228    -2230    -2231    -2232    -2231    -2230    -2230 
   -2230    -2231    -2234    -2232    -2230    -2232    -2234    -2234 
   -2231    -2227    -2230    -2232    -2234    -2232    -2231    -2231 
   -2231    -2228    -2227    -2232    -2232    -2228    -2231    -2238 
   -2234    -2231    -2232    -2231    -2228    -2230    -2232    -2232 
   -2231    -2231    -2232    -2232    -2230    -2228    -2230    -2232 
   -2232    -2234    -2234    -2231    -2228    -2231    -2231    -2231 
   -2232    -2231    -2232    -2234    -2232    -2230    -2231    -2231 
   -2228    -2230    -2232    -2231    -2231    -2232    -2232    -2232 
   -2232    -2232    -2232    -2232    -2234    -2234    -2232    -2232 
   -2232    -2230    -2231    -2231    -2228    -2228    -2230    -2230 
   -2231    -2234    -2234    -2232    -2232    -2232    -2234    -2231 
   -2226    -2227    -2232    -2234    -2232    -2232    -2231    -2231 
   -2231    -2232    -2234    -2232    -2232    -2234    -2234    -2234 
   -2232    -2231    -2234    -2232    -2227    -2224    -2230    -2234 
   -2235    -2235    -2234    -2234    -2234    -2232    -2230    -2231 
   -2231    -2230    -2230    -2231    -2231    -2231    -2234    -2235 
   -2232    -2231    -2232    -2232    -2234    -2234    -2234    -2235 
   -2234    -2230    -2228    -2228    -2230    -2231    -2235    -2235 
   -2235    -2238    -2235    -2228    -2228    -2232    -2232    -2230 
   -2230    -2232    -2232    -2234    -2234    -2230    -2231    -2234 
   -2234    -2236    -2238    -2234    -2234    -2234    -2228    -2228 
   -2230    -2231    -2235    -2234    -2231    -2231    -2230    -2231 
   -2234    -2232    -2231    -2232    -2234    -2232    -2231    -2232 
   -2234    -2232    -2232    -2232    -2231    -2230    -2231    -2231 
   -2232    -2234    -2232    -2231    -2234    -2235    -2235    -2234 
   -2231    -2230    -2231    -2234    -2230    -2227    -2232    -2235 
   -2234    -2235    -2234    -2232    -2234    -2235    -2232    -2230 
   -2228    -2232    -2236    -2235    -2234    -2232    -2231    -2232 
   -2236    -2236    -2234    -2231    -2230    -2232    -2236    -2235 
   -2235    -2234    -2231    -2231    -2234    -2234    -2234    -2234 
   -2232    -2232    -2232    -2231    -2231    -2232    -2231    -2230 
   -2232    -2235    -2232    -2232    -2235    -2235    -2235    -2234 
   -2234    -2232    -2230    -2230    -2228    -2228    -2232    -2234 
   -2230    -2231    -2235    -2236    -2236    -2232    -2231    -2234 
   -2234    -2232    -2231    -2232    -2230    -2230    -2234    -2232 
   -2232    -2232    -2232    -2234    -2232    -2231    -2235    -2236 
   -2234    -2232    -2232    -2231    -2228    -2228    -2234    -2234 
   -2228    -2228    -2232    -2232    -2232    -2234    -2234    -2232 
   -2232    -2231    -2232    -2234    -2231    -2232    -2234    -2231 
   -2228    -2230    -2231    -2235    -2234    -2232    -2234    -2234 
   -2232    -2230    -2227    -2228    -2231    -2231    -2232    -2234 
   -2234    -2232    -2230    -2228    -2228    -2228    -2231    -2234 
   -2235    -2234    -2231    -2231    -2230    -2228    -2232    -2234 
   -2232    -2232    -2234    -2234    -2232    -2228    -2226    -2227 
   -2230    -2231    -2234    -2235    -2236    -2236    -2235    -2234 
   -2228    -2227    -2231    -2235    -2235    -2234    -2231    -2230 
   -2230    -2231    -2230    -2230    -2234    -2234    -2234    -2234 
   -2232    -2231    -2235    -2234    -2228    -2227    -2228    -2234 
   -2236    -2235    -2234    -2230    -2230    -2232    -2232    -2232 
   -2231    -2230    -2234    -2236    -2235    -2234    -2230    -2227 
   -2230    -2230    -2228    -2232    -2232    -2232    -2235    -2235 
   -2231    -2230    -2231    -2231    -2231    -2234    -2232    -2232 
   -2232    -2231    -2231    -2231    -2230    -2230    -2234    -2234 
   -2232    -2234    -2236    -2235    -2231    -2227    -2226    -2228 
   -2230    -2234    -2235    -2234    -2231    -2230    -2231    -2231 
   -2228    -2231    -2236    -2238    -2234    -2231    -2231    -2230 
   -2230    -2230    -2231    -2231    -2232    -2234    -2234    -2231 
   -2228    -2227    -2228    -2231    -2232    -2231    -2232    -2234 
   -2234    -2234    -2234    -2232    -2230    -2230    -2232    -2232 
   -2234    -2235    -2236    -2234    -2230    -2232    -2231    -2226 
   -2231    -2236    -2236    -2235    -2236    -2238    -2236    -2232 
   -2230    -2230    -2230    -2228    -2234    -2236    -2231    -2227 
   -2231    -2232    -2231    -2232    -2235    -2234    -2232    -2232 
   -2231    -2230    -2228    -2227    -2230    -2232    -2231    -2231 
   -2234    -2236    -2234    -2230    -2228    -2230    -2231    -2234 
   -2235    -2230    -2231    -2235    -2234    -2232    -2231    -2228 
   -2230    -2231    -2231    -2231    -2231    -2231    -2234    -2232 
   -2231    -2231    -2228    -2230    -2234    -2230    -2228    -2231 
   -2231    -2231    -2230    -2228    -2230    -2232    -2232    -2234 
   -2235    -2234    -2232    -2234    -2234    -2231    -2228    -2227 
   -2230    -2231    -2230    -2234    -2236    -2234    -2232    -2232 
   -2231    -2231    -2232    -2232    -2235    -2235    -2230    -2228 
   -2230    -2231    -2231    -2231    -2231    -2231    -2236    -2238 
   -2235    -2234    -2234    -2232    -2228    -2228    -2234    -2235 
   -2232    -2230    -2232    -2232    -2228    -2228    -2234    -2235 
   -2232    -2234    -2236    -2232    -2228    -2227    -2227    -2231 
   -2234    -2232    -2234    -2234    -2232    -2232    -2234    -2234 
   -2232    -2231    -2230    -2232    -2234    -2231    -2230    -2232 
   -2232    -2232    -2235    -2234    -2232    -2232    -2234    -2232 
   -2230    -2230    -2230    -2232    -2231    -2231    -2235    -2236 
   -2232    -2231    -2232    -2230    -2230    -2234    -2236    -2236 
   -2235    -2231    -2231    -2231    -2227    -2227    -2230    -2230 
   -2230    -2232    -2235    -2238    -2235    -2234    -2235    -2234 
   -2232    -2234    -2231    -2231    -2231    -2232    -2231    -2227 
   -2227    -2231    -2235    -2234    -2234    -2236    -2235    -2232 
   -2234    -2234    -2232    -2232    -2230    -2232    -2236    -2232 
   -2227    -2231    -2232    -2231    -2231    -2232    -2234    -2234 
   -2232    -2231    -2234    -2234    -2235    -2236    -2231    -2228 
   -2231    -2231    -2230    -2232    -2234    -2232    -2234    -2232 
   -2234    -2234    -2235    -2234    -2234    -2236    -2232    -2220 
   -2197    -2165    -2122    -2070    -2039    -2038    -2012    -1988 
   -2111    -2369    -2560    -2739    -3110    -3361    -3003    -2443 
   -2308    -2181    -1656    -1355    -1547    -1516    -1210    -1439 
   -2042    -2222    -2106    -2299    -2889    -3217    -3024    -3146 
   -3171    -2266    -1769    -1956    -1563    -1278    -1945    -2466 
   -2317    -2494    -2671    -2184    -2122    -2343    -2074    -2034 
   -2080    -1981    -2072    -1826    -1602    -2087    -2841    -3319 
   -2882    -1917    -1810    -2458    -3110    -3348    -2596    -1530 
   -1320    -1792    -2203    -1985    -1414    -1381    -1895    -2563 
   -3051    -2852    -2266    -2085    -2312    -2404    -2296    -2340 
   -2558    -2729    -2644    -2170    -1707    -1784    -2099    -1961 
   -1526    -1582    -2147    -2575    -2623    -2343    -2137    -2656 
   -3249    -2735    -1919    -2081    -2493    -2400    -2330    -2150 
   -1559    -1309    -1510    -1644    -1957    -2470    -2731    -2910 
   -3090    -2874    -2631    -2635    -2201    -1617    -1579    -1547 
   -1571    -2174    -2509    -2263    -2461    -2851    -2448    -1892 
   -2042    -2299    -2258    -2447    -2714    -2505    -2147    -2045 
   -1977    -1853    -1845    -1849    -1857    -2122    -2569    -2840 
   -2639    -2277    -2292    -2444    -2452    -2407    -2273    -1980 
   -1640    -1726    -2182    -2262    -2061    -2158    -2466    -2671 
   -2602    -2459    -2589    -2562    -2100    -1896    -1987    -1892 
   -1908    -2060    -1875    -1636    -1853    -2353    -2782    -2934 
   -2705    -2482    -2654    -2763    -2416    -2016    -2023    -2158 
   -1937    -1788    -2053    -2135    -1804    -1586    -1868    -2238 
   -2257    -2400    -2803    -2809    -2497    -2623    -2975    -2664 
   -2008    -1818    -1741    -1656    -1933    -2061    -1840    -1952 
   -2319    -2280    -2116    -2425    -2799    -2677    -2353    -2226 
   -2169    -2212    -2508    -2597    -2262    -2000    -1991    -2070 
   -2309    -2741    -2921    -2366    -1468    -1170    -1540    -1853 
   -1927    -2045    -2185    -2312    -2637    -3099    -3279    -2948 
   -2312    -1899    -1985    -2297    -2513    -2353    -2006    -2034 
   -1971    -1570    -1787    -2274    -1977    -1706    -2397    -3034 
   -2619    -2026    -2101    -2211    -2106    -2330    -2731    -2727 
   -2384    -2316    -2455    -2188    -1849    -1857    -1799    -1618 
   -1807    -2474    -2886    -2624    -2430    -2554    -2309    -1738 
   -1553    -1912    -2423    -2710    -2706    -2637    -2505    -2118 
   -1661    -1521    -1804    -2172    -2330    -2428    -2494    -2443 
   -2428    -2524    -2524    -2239    -1890    -1764    -2047    -2737 
   -2974    -2401    -1898    -1601    -1362    -1574    -2089    -2444 
   -2560    -2619    -2640    -2523    -2494    -2579    -2282    -1802 
   -1890    -2349    -2552    -2581    -2605    -2367    -1946    -1674 
   -1389    -1161    -1475    -2130    -2612    -3005    -3311    -3018 
   -2390    -2247    -2324    -2403    -2721    -2666    -2120    -1638 
   -1335    -1489    -1787    -1655    -1563    -1854    -2354    -2825 
   -2979    -2795    -2515    -2525    -2610    -2297    -2250    -2767 
   -2960    -2562    -1894    -1304    -1385    -1875    -1759    -1521 
   -2211    -2776    -2207    -1952    -2689    -2852    -2263    -2300 
   -2644    -2338    -2133    -2455    -2308    -1799    -1810    -1985 
   -1899    -2010    -2501    -2951    -3061    -2799    -2311    -1972 
   -1810    -1668    -1733    -1652    -1215    -1564    -2874    -3591 
   -3306    -2867    -2452    -1904    -1485    -1443    -1749    -2131 
   -2371    -2637    -2913    -2689    -2035    -1842    -2214    -2327 
   -2216    -2327    -2316    -2062    -1985    -2020    -1957    -2061 
   -2386    -2609    -2767    -2875    -2493    -1806    -1663    -2026 
   -2203    -2205    -2220    -1956    -1518    -1557    -2241    -3098 
   -3435    -2929    -2192    -1942    -1964    -1918    -2104    -2467 
   -2415    -2026    -1786    -1864    -2211    -2462    -2531    -2677 
   -2542    -1965    -1777    -2273    -2605    -2380    -2025    -1713 
   -1543    -1850    -2320    -2408    -2465    -2798    -2944    -2628 
   -2239    -2199    -2307    -2168    -1945    -1860    -1841    -1954 
   -2158    -2289    -2320    -2150    -1952    -2097    -2351    -2378 
   -2535    -2947    -2911    -2299    -1944    -2018    -2002    -1977 
   -2197    -2386    -2374    -2263    -2029    -1795    -1784    -1880 
   -2099    -2535    -2697    -2403    -2320    -2583    -2600    -2311 
   -2056    -1923    -2023    -2224    -2101    -1829    -1877    -2115 
   -2323    -2656    -2960    -2822    -2334    -1946    -1929    -2123 
   -2204    -2181    -2154    -2047    -1869    -1713    -1714    -2099 
   -2721    -2859    -2540    -2670    -2974    -2681    -2346    -2230 
   -1683    -1188    -1633    -2259    -2277    -2411    -2787    -2533 
   -2000    -1933    -1896    -1827    -2230    -2538    -2249    -2108 
   -2358    -2415    -2370    -2500    -2614    -2604    -2512    -2478 
   -2447    -2106    -1656    -1617    -1834    -1811    -1657    -1833 
   -2238    -2384    -2322    -2469    -2691    -2578    -2452    -2712 
   -2709    -2220    -2070    -2150    -1879    -1757    -2011    -1976 
   -1737    -1853    -2106    -2207    -2328    -2457    -2451    -2544 
   -2781    -2766    -2605    -2685    -2821    -2785    -2749    -2790 
   -2484    -1927    -1992    -2494    -2478    -1863    -1028     -264 
     190      124     -693    -1983    -2764    -2405    -1696    -1877 
   -2683    -3260    -3809    -4487    -4753    -4587    -4368    -3888 
   -3013    -2227    -1672    -1318    -1343    -1116      -63      919 
     936      282     -666    -1965    -3275    -4091    -4680    -5146 
   -4974    -4603    -4692    -4183    -2297     -689     -704     -858 
     502     2219     2307     1024     -533    -2481    -4753    -6149 
   -5973    -5211    -4777    -4075    -3010    -2317    -1418       81 
     851      472      -45     -611    -1798    -3361    -4480    -4787 
   -4432    -3234    -1439     -473     -783    -1196    -1146    -1085 
   -1707    -3281    -4704    -4596    -3572    -3269    -3402    -2920 
   -2578    -2697    -2029     -832     -379     -170      472      533 
    -472    -1352    -1701    -2646    -4491    -5899    -5697    -4272 
   -2837    -1846    -1216    -1433    -2655    -3619    -3084    -1692 
    -930     -959     -985     -518      295      527     -253    -1289 
   -2484    -4309    -5945    -6192    -5163    -3655    -2220    -1630 
   -2000    -2103    -1718    -1563    -1131     -356     -454    -1233 
   -1443    -1495    -2361    -3311    -3589    -3742    -3859    -3373 
   -2409    -1404     -818    -1181    -2039    -2628    -3130    -3508 
   -3333    -2817    -1989     -761       28     -166     -738    -1143 
   -1657    -2682    -3711    -4048    -3982    -3928    -3959    -4058 
   -3701    -2790    -1930     -899      394      909      407     -359 
   -1142    -1858    -2389    -2959    -3491    -3792    -4045    -4221 
   -4225    -4152    -4020    -3759    -2864    -1142      321      787 
     935     1038      498     -417    -1158    -2299    -3858    -4807 
   -5119    -5038    -4203    -3258    -3032    -3133    -3145    -2893 
   -1972     -589      143     -205     -735    -1051    -1636    -2444 
   -3092    -3287    -2737    -1849    -1340    -1416    -2023    -2710 
   -2871    -2613    -2485    -2659    -3015    -3597    -3981    -3208 
   -1625     -696     -824    -1449    -2084    -2396    -2319    -1857 
   -1205    -1012    -1489    -2277    -2930    -3041    -2961    -3343 
   -3753    -3665    -3373    -2682    -1316     -291     -324     -626 
    -729    -1312    -2357    -2903    -2930    -2959    -2961    -3033 
   -3136    -2926    -2538    -2226    -1996    -1830    -1825    -2049 
   -2209    -2003    -1632    -1520    -1873    -2586    -3273    -3411 
   -2795    -1879    -1463    -1679    -1776    -1605    -1892    -2620 
   -2957    -2797    -2795    -2963    -2608    -1630     -795     -784 
   -1435    -2107    -2637    -3096    -3203    -2982    -2798    -2648 
   -2508    -2509    -2535    -2420    -2089    -1586    -1205    -1097 
   -1177    -1532    -2120    -2457    -2405    -2525    -2897    -2983 
   -2785    -2500    -2070    -1791    -2019    -2501    -2860    -2994 
   -2794    -2301    -1856    -1732    -1833    -1772    -1512    -1480 
   -1630    -1633    -1875    -2693    -3303    -3048    -2658    -2813 
   -3075    -2937    -2415    -1836    -1574    -1733    -2114    -2259 
   -2019    -1934    -2061    -1798    -1336    -1285    -1584    -2079 
   -2795    -3458    -3642    -3249    -2654    -2309    -2232    -2191 
   -2178    -2295    -2397    -2263    -1876    -1495    -1336    -1058 
    -641     -940    -1863    -2446    -2843    -3441    -3821    -3881 
   -3873    -3669    -3064    -2241    -1771    -1786    -1436     -483 
     -72     -608    -1229    -1706    -2398    -3091    -3366    -3295 
   -3119    -2937    -2906    -2959    -2820    -2612    -2285    -1587 
    -993     -935    -1115    -1362    -1786    -2293    -2652    -2677 
   -2405    -2085    -1923    -1929    -2092    -2619    -3472    -4124 
   -4247    -3840    -2845    -1545     -654     -473     -730    -1237 
   -1846    -2203    -2181    -1976    -1900    -2215    -2490    -2193 
   -1965    -2473    -3125    -3433    -3680    -3720    -3094    -2126 
   -1428    -1085     -946     -884    -1031    -1620    -2234    -2444 
   -2620    -2979    -3204    -3111    -2747    -2293    -2065    -2200 
   -2388    -2242    -1827    -1526    -1595    -1845    -1888    -1896 
   -2326    -2957    -3233    -3057    -2602    -2124    -1814    -1613 
   -1602    -1873    -2141    -2208    -2212    -2290    -2451    -2633 
   -2714    -2558    -2286    -2191    -2208    -2119    -1987    -1911 
   -1844    -1911    -2289    -2727    -2901    -2812    -2523    -2222 
   -2002    -1679    -1460    -1746    -2284    -2500    -2355    -2235 
   -2192    -2019    -1850    -1960    -2338    -2620    -2471    -2241 
   -2523    -3030    -2994    -2455    -2091    -1961    -1510     -896 
    -982    -1792    -2457    -2633    -2806    -3225    -3453    -3225 
   -2817    -2420    -2060    -1760    -1537    -1489    -1574    -1584 
   -1483    -1439    -1667    -2150    -2569    -2770    -3010    -3418 
   -3588    -3213    -2650    -2231    -1848    -1579    -1679    -1933 
   -1914    -1634    -1431    -1462    -1669    -1996    -2455    -2934 
   -3057    -2762    -2521    -2551    -2695    -2909    -3003    -2632 
   -1885    -1275    -1134    -1345    -1590    -1733    -1877    -1942 
   -1840    -1979    -2558    -3057    -3250    -3433    -3609    -3531 
   -3102    -2393    -1645    -1139     -884     -900    -1278    -1690 
   -1852    -2054    -2443    -2683    -2604    -2401    -2293    -2386 
   -2683    -2922    -2843    -2685    -2590    -2234    -1825    -1803 
   -1877    -1883    -2056    -2278    -2376    -2334    -2123    -1894 
   -1813    -1891    -2154    -2413    -2398    -2292    -2354    -2432 
   -2365    -2304    -2393    -2459    -2377    -2339    -2471    -2614 
   -2524    -2187    -1900    -1792    -1625    -1487    -1776    -2327 
   -2593    -2513    -2381    -2308    -2261    -2228    -2162    -2106 
   -2138    -2188    -2204    -2193    -2242    -2443    -2569    -2540 
   -2558    -2439    -2155    -2099    -2189    -2137    -2037    -1922 
   -1746    -1676    -1823    -2110    -2448    -2745    -2893    -2844 
   -2767    -2889    -2990    -2687    -2170    -1861    -1675    -1302 
    -953    -1011    -1336    -1661    -2041    -2485    -2808    -2988 
