Origin Time       2025/03/31 16:51:00
Lat.              27.443
Long.             128.673
Depth. (km)       42
Mag.              3.7
Station Code      KGS034
Station Lat.      27.3340
Station Long.     128.5743
Station Height(m) 24
Record Time       2025/03/31 16:51:38
Sampling Freq(Hz) 100Hz
Duration Time(s)  60
Dir.              E-W
Scale Factor      3920(gal)/6182761
Max. Acc. (gal)   6.012
Last Correction   2025/03/31 16:51:38
Memo.             
[...]
  -10141   -10058   -10108   -10154   -10075   -10111   -10159   -10067 
  -10084   -10154   -10104   -10109   -10140   -10085   -10096   -10124 
  -10087   -10118   -10141   -10089   -10107   -10126   -10083   -10111 
  -10139   -10100   -10113   -10117   -10080   -10111   -10132   -10100 
  -10119   -10124   -10091   -10112   -10118   -10096   -10118   -10116 
  -10106   -10128   -10097   -10093   -10145   -10113   -10090   -10135 
  -10107   -10087   -10126   -10111   -10110   -10129   -10089   -10098 
  -10140   -10107   -10102   -10133   -10106   -10092   -10113   -10111 
  -10118   -10115   -10096   -10123   -10125   -10086   -10117   -10130 
  -10084   -10102   -10126   -10107   -10119   -10108   -10087   -10122 
  -10128   -10106   -10114   -10109   -10101   -10105   -10105   -10121 
  -10120   -10106   -10108   -10095   -10107   -10144   -10119   -10085 
  -10105   -10113   -10108   -10118   -10111   -10097   -10115   -10129 
  -10109   -10104   -10119   -10102   -10084   -10124   -10141   -10087 
  -10088   -10142   -10124   -10091   -10113   -10114   -10098   -10113 
  -10116   -10105   -10113   -10111   -10101   -10106   -10120   -10138 
  -10113   -10074   -10086   -10124   -10160   -10125   -10039   -10090 
  -10184   -10120   -10070   -10116   -10116   -10100   -10107   -10112 
  -10135   -10126   -10080   -10091   -10131   -10119   -10095   -10115 
  -10132   -10102   -10085   -10117   -10127   -10108   -10106   -10114 
  -10113   -10105   -10103   -10118   -10119   -10116   -10122   -10078 
  -10068   -10150   -10157   -10096   -10096   -10102   -10103   -10120 
  -10116   -10120   -10127   -10098   -10090   -10111   -10113   -10105 
  -10116   -10129   -10115   -10106   -10111   -10100   -10095   -10105 
  -10121   -10140   -10115   -10087   -10100   -10106   -10127   -10142 
  -10097   -10087   -10117   -10105   -10101   -10123   -10125   -10110 
  -10101   -10107   -10112   -10114   -10115   -10099   -10102   -10120 
  -10112   -10108   -10117   -10114   -10114   -10105   -10086   -10102 
  -10141   -10131   -10086   -10080   -10117   -10139   -10112   -10085 
  -10121   -10138   -10085   -10085   -10134   -10114   -10093   -10118 
  -10116   -10106   -10119   -10111   -10095   -10117   -10126   -10101 
  -10104   -10105   -10103   -10132   -10115   -10089   -10123   -10118 
  -10089   -10117   -10139   -10106   -10085   -10105   -10121   -10114 
  -10112   -10107   -10107   -10130   -10119   -10085   -10101   -10113 
  -10106   -10139   -10125   -10065   -10105   -10152   -10099   -10080 
  -10127   -10146   -10102   -10054   -10113   -10183   -10106   -10027 
  -10116   -10191   -10105   -10061   -10117   -10118   -10101   -10134 
  -10115   -10064   -10109   -10140   -10102   -10123   -10130   -10083 
  -10104   -10137   -10091   -10090   -10149   -10107   -10067   -10139 
  -10139   -10080   -10108   -10146   -10112   -10090   -10109   -10082 
  -10083   -10178   -10171   -10036   -10053   -10194   -10145   -10017 
  -10099   -10177   -10100   -10105   -10135   -10067   -10100   -10153 
  -10088   -10086   -10143   -10134   -10091   -10086   -10127   -10134 
  -10089   -10075   -10109   -10148   -10154   -10099   -10070   -10119 
  -10115   -10069   -10114   -10160   -10117   -10092   -10102   -10094 
  -10108   -10134   -10119   -10090   -10108   -10133   -10101   -10086 
  -10127   -10128   -10079   -10094   -10151   -10136   -10094   -10087 
  -10092   -10119   -10143   -10111   -10084   -10102   -10116   -10139 
  -10143   -10080   -10056   -10120   -10155   -10126   -10111   -10089 
  -10059   -10115   -10174   -10131   -10090   -10101   -10084   -10081 
  -10134   -10153   -10120   -10091   -10071   -10095   -10154   -10154 
  -10099   -10066   -10093   -10148   -10130   -10080   -10105   -10119 
  -10103   -10132   -10124   -10085   -10109   -10123   -10107   -10113 
  -10108   -10098   -10116   -10128   -10112   -10102   -10104   -10107 
  -10115   -10119   -10120   -10118   -10093   -10082   -10118   -10138 
  -10117   -10102   -10105   -10107   -10116   -10124   -10113   -10103 
  -10098   -10105   -10130   -10118   -10091   -10115   -10126   -10104 
  -10113   -10123   -10096   -10083   -10112   -10134   -10122   -10113 
  -10111   -10100   -10105   -10119   -10110   -10101   -10111   -10122 
  -10121   -10107   -10103   -10110   -10109   -10112   -10118   -10118 
  -10119   -10103   -10086   -10107   -10116   -10125   -10152   -10109 
  -10049   -10080   -10132   -10162   -10165   -10103   -10027   -10042 
  -10144   -10188   -10143   -10107   -10062   -10062   -10143   -10141 
  -10092   -10126   -10122   -10059   -10117   -10186   -10096   -10067 
  -10128   -10068   -10075   -10208   -10171   -10068   -10080   -10071 
  -10075   -10144   -10161   -10143   -10127   -10074   -10049   -10109 
  -10152   -10125   -10104   -10111   -10106   -10113   -10121   -10082 
  -10091   -10138   -10110   -10125   -10163   -10067   -10020   -10137 
  -10181   -10120   -10116   -10084   -10039   -10138   -10186   -10100 
  -10078   -10103   -10101   -10108   -10147   -10157   -10078   -10035 
  -10109   -10159   -10144   -10130   -10081   -10049   -10121   -10160 
  -10123   -10110   -10053   -10034   -10203   -10282   -10081    -9931 
  -10019   -10158   -10223   -10192   -10099   -10057   -10074   -10056 
  -10068   -10194   -10236   -10081   -10007   -10115   -10144   -10074 
  -10109   -10175   -10118   -10065   -10113   -10132   -10091   -10085 
  -10106   -10147   -10175   -10094   -10027   -10083   -10124   -10142 
  -10182   -10133   -10047   -10044   -10095   -10164   -10161   -10081 
  -10073   -10121   -10142   -10141   -10098   -10056   -10070   -10111 
  -10163   -10167   -10088   -10061   -10119   -10142   -10135   -10113 
  -10050   -10039   -10129   -10191   -10156   -10113   -10087   -10048 
  -10054   -10130   -10182   -10142   -10111   -10098   -10038   -10075 
  -10168   -10142   -10119   -10112   -10055   -10090   -10150   -10117 
  -10126   -10146   -10073   -10034   -10098   -10187   -10189   -10055 
  -10003   -10133   -10176   -10142   -10191   -10094    -9891    -9970 
  -10264   -10377   -10197    -9939    -9873   -10076   -10271   -10257 
  -10137    -9980    -9924   -10113   -10308   -10260   -10077    -9939 
   -9961   -10156   -10304   -10212    -9990    -9945   -10130   -10211 
  -10164   -10169   -10054    -9926   -10109   -10297   -10176   -10041 
  -10011   -10040   -10209   -10235   -10089   -10062   -10012   -10020 
  -10241   -10280   -10092   -10015   -10022   -10051   -10168   -10234 
  -10135   -10047   -10086   -10122   -10102   -10094   -10112   -10119 
  -10117   -10127   -10112   -10085   -10102   -10129   -10138   -10123 
  -10077   -10057   -10096   -10154   -10171   -10126   -10080   -10057 
  -10073   -10158   -10189   -10103   -10052   -10081   -10123   -10151 
  -10133   -10093   -10074   -10089   -10137   -10156   -10119   -10089 
  -10083   -10094   -10142   -10148   -10073   -10059   -10124   -10156 
  -10149   -10117   -10062   -10057   -10121   -10162   -10137   -10091 
  -10059   -10083   -10157   -10179   -10125   -10064   -10048   -10088 
  -10125   -10150   -10167   -10128   -10080   -10074   -10071   -10094 
  -10137   -10138   -10163   -10158   -10025   -10026   -10153   -10139 
  -10139   -10159   -10052   -10047   -10147   -10121   -10107   -10180 
  -10116   -10016   -10080   -10122   -10096   -10171   -10185   -10059 
  -10088   -10150   -10041   -10069   -10176   -10092   -10119   -10241 
  -10080    -9959   -10106   -10125   -10110   -10252   -10181    -9967 
  -10005   -10139   -10130   -10130   -10199   -10147   -10040   -10039 
  -10078   -10140   -10198   -10141   -10072   -10087   -10072   -10062 
  -10160   -10197   -10123   -10087   -10063   -10060   -10112   -10152 
  -10165   -10124   -10060   -10066   -10100   -10142   -10180   -10094 
  -10042   -10147   -10137   -10055   -10113   -10153   -10116   -10097 
  -10099   -10119   -10129   -10122   -10108   -10089   -10104   -10112 
  -10095   -10126   -10155   -10099   -10075   -10122   -10110   -10102 
  -10129   -10098   -10111   -10134   -10090   -10110   -10127   -10087 
  -10111   -10131   -10114   -10120   -10095   -10079   -10133   -10157 
  -10095   -10064   -10106   -10132   -10120   -10103   -10118   -10147 
  -10096   -10043   -10106   -10149   -10113   -10128   -10131   -10080 
  -10095   -10103   -10099   -10164   -10125   -10049   -10126   -10136 
  -10071   -10121   -10138   -10105   -10123   -10097   -10084   -10131 
  -10119   -10107   -10124   -10104   -10092   -10099   -10118   -10134 
  -10122   -10123   -10103   -10077   -10108   -10114   -10093   -10145 
  -10176   -10124   -10172   -10313   -10358   -10320   -10217   -10025 
   -9969   -10192   -10189    -9626    -9088    -9135    -9965   -11114 
  -11442   -10730    -9473    -8945   -10183   -11329   -10865    -9419 
   -8267    -9002   -10920   -11826   -10901    -9540    -9451    -9993 
  -10689   -11050   -10122    -9103    -8825    -9391   -10577   -10885 
  -10162    -9800   -10674   -11451   -10883    -9690    -8728    -9224 
  -10655   -11388   -11000    -9254    -8147    -9396   -11205   -11712 
  -10350    -8629    -8830   -10006   -10437   -10520   -10400   -10160 
  -10676   -11077   -10175    -9455    -9802    -9985    -9886   -10267 
  -10426    -9536    -9382   -10952   -11512   -10225    -9188    -8928 
   -9377   -10824   -11680   -10293    -8813    -9692   -10817   -10417 
  -10408   -10758    -9753    -9092   -10050   -10203    -9522   -10031 
  -10458   -10414   -11186   -10998    -8910    -8083   -10108   -11865 
  -11047    -9535    -9022    -9377   -10661   -11452   -10327    -9286 
   -9676   -10167   -10329   -10380    -9937    -9688   -10304   -10608 
  -10118    -9621    -9554   -10173   -11032   -10859    -9407    -8713 
   -9771   -10751   -11078   -11045   -10037    -9287    -9809   -10238 
  -10179    -9927    -9766   -10268   -10506   -10093    -9964   -10159 
  -10340   -10299    -9818    -9130    -9576   -11328   -11696   -10009 
   -8876    -9209   -10084   -11013   -11123    -9793    -8696    -9459 
  -10694   -10923   -10725   -10171    -9282    -9259   -10272   -11096 
  -10912   -10053    -9206    -9214   -10314   -11014   -10525    -9662 
   -9058    -9596   -11107   -11391   -10094    -9045    -9160   -10028 
  -10911   -11388   -10682    -9192    -8956    -9817   -10595   -11404 
  -11120    -9027    -7763    -9235   -11435   -11919   -10655    -8816 
   -8156   -10329   -13272   -12848    -9218    -6225    -6933   -10643 
  -13341   -12359    -9001    -7119    -8908   -12261   -13473   -11283 
   -8093    -7167    -8918   -11209   -11916   -10354    -8503    -9155 
  -11638   -12646   -11015    -8961    -8400    -9163   -10183   -10438 
  -10132    -9888   -10128   -10361    -9647    -9681   -11124   -11485 
  -10369    -9224    -8774    -9414   -10728   -11003    -9895    -9801 
  -10757   -10852   -10962   -10651    -8682    -7687    -9222   -11152 
  -11637   -10943    -9826    -9128   -10502   -12267   -10738    -7888 
   -7680    -9511   -11092   -11637   -10907    -9375    -9156   -10760 
  -11525   -10535    -9479    -8759    -8609   -10032   -11604   -11068 
   -9556    -9278   -10226   -11288   -11542   -10744    -9139    -7873 
   -8693   -10769   -11587   -10607    -9419    -9597   -10657   -11384 
  -11333   -10168    -8580    -8313    -9580   -10711   -10994   -10809 
   -9789    -8793    -9859   -11659   -11280    -9525    -8718    -9098 
  -10259   -11496   -10991    -8885    -8299   -10281   -11778   -11015 
  -10089    -9918    -9329    -9260   -10450   -10812   -10069   -10131 
  -10485   -10248   -10440   -10636    -9662    -8735    -9157   -10093 
  -10676   -11073   -11119   -10231    -9204    -9690   -10875   -10675 
   -9502    -9019    -9749   -11025   -11300    -9863    -8513    -9009 
  -10502   -11527   -11501   -10299    -9084    -9418   -10511   -10580 
   -9831    -9261    -9248   -10173   -11498   -11602   -10075    -8755 
   -9155    -9997   -10000    -9794   -10012   -10747   -11274   -10890 
  -10142    -9757    -9416    -8948    -9718   -11176   -10991   -10071 
   -9865    -9542    -9326   -10255   -11225   -10598    -9695   -10053 
  -10327   -10150   -10464   -10408    -9655    -9428    -9702    -9522 
   -9710   -11069   -11432   -10028    -9263    -9671   -10048   -10281 
  -10492   -10029    -9342   -10014   -11162   -10928    -9847    -9028 
   -9141   -10366   -11504   -11294    -9778    -8511    -9102   -10689 
  -11385   -10829    -9571    -8695    -9551   -11315   -11561   -10269 
   -8908    -8342    -9490   -11462   -11660   -10008    -9245   -10122 
  -10658   -10509   -10345    -9878    -9561    -9605    -9553    -9973 
  -10964   -11089   -10288   -10110   -10212    -9653    -9203    -9527 
  -10126   -10306   -10583   -11320   -11277    -9899    -8317    -8118 
   -9819   -11971   -12416   -10419    -7938    -7759    -9955   -11982 
  -11791    -9897    -8538    -8967   -10188   -10381    -9405    -8780 
   -9437   -10537    -9809    -6943    -5147    -6444    -9614   -12411 
  -13301   -12618   -11865   -12075   -13448   -15730   -17418   -15986 
  -11000    -5035    -1753    -3310    -7834   -10539    -9008    -7471 
  -11667   -18697   -19383   -11411    -3547    -4343   -11255   -15353 
  -13068    -7842    -3911    -4529   -10297   -16130   -15672    -8544 
   -2360    -4432   -11569   -14731   -10635    -5578    -7152   -13284 
  -16588   -14508    -9803    -7161    -9511   -13770   -12831    -5814 
    -629    -3307   -10891   -15799   -14894   -11820   -10550   -11449 
  -12823   -12212    -8396    -3795    -3496    -9562   -16000   -16161 
  -11772    -8068    -7560    -9383   -10257    -8683    -7206    -7450 
   -8206   -10037   -13127   -14361   -12832   -11015   -10489   -10548 
  -10168    -9582    -8254    -6464    -6970    -9573   -11504   -12136 
  -12210   -12107   -11606   -10854    -9762    -7892    -7007    -8915 
  -11685   -12127   -10453    -9324    -9929   -11450   -12245   -11433 
   -9179    -6475    -5775    -8190   -11802   -14080   -12991    -9418 
   -7881    -9960   -11802   -10282    -7323    -7404   -11276   -14541 
  -12974    -8070    -6088    -9158   -12682   -13015   -11123    -8942 
   -7356    -7772   -10041   -11506   -11583   -11674   -11996   -11730 
  -10411    -8703    -7442    -7080    -7954    -9541   -11259   -12672 
  -11902    -8965    -7719    -9384   -10677   -10315   -10290   -10911 
  -10832   -10498   -10797   -10990   -10544   -10141   -10160   -10306 
   -9946    -8767    -7841    -8280    -9569   -10424   -10519   -10592 
  -11148   -12105   -12620   -11577    -9460    -7890    -7818    -8985 
  -10267   -10777   -10487   -10022    -9727    -9585    -9781   -10026 
  -10107   -10487   -11075   -11261   -10959   -10295    -9638   -10038 
  -11156   -11002    -9777    -9416    -9662    -9575    -9936   -10625 
  -10028    -9016    -9947   -11406   -10858    -9469    -8859    -9048 
  -10127   -11264   -11172   -10328   -10023   -10266   -10217    -9838 
   -9378    -8923    -9214   -10248   -10595   -10221   -10580   -11364 
  -11161   -10186    -9539    -9383    -9144    -8882    -9362   -10308 
  -10922   -11464   -11754   -10891    -9421    -8708    -8792    -9185 
   -9848   -10227    -9938    -9836   -10714   -11869   -11904   -10865 
   -9909    -9415    -9370    -9797   -10233   -10080    -9345    -9121 
  -10057   -11019   -11002   -10451   -10164   -10013    -9785    -9946 
  -10126    -9739    -9330    -9323    -9611   -10241   -11113   -11451 
  -10937   -10539   -10263    -9030    -7796    -8259    -9769   -11137 
  -12280   -12677   -11446    -9331    -8370    -9176   -10298   -10561 
  -10311   -10189   -10136    -9848    -9427    -9563   -10635   -11541 
  -11166   -10059    -9155    -8462    -7760    -7978   -10127   -12772 
  -13434   -11905    -9980    -8998    -9087    -9590    -9639    -9411 
   -9566   -10138   -11073   -11591   -10540    -8573    -7667    -8808 
  -11010   -12160   -11454   -10352   -10163   -10595   -10674    -9968 
   -9232    -9270    -9946   -10763   -11180   -10333    -8364    -7588 
   -9328   -11813   -12892   -11905    -9679    -8174    -8804   -10389 
  -10641    -9736    -9273    -9522   -10227   -11034   -11089   -10443 
  -10259   -10784   -11005   -10362    -9361    -9086   -10032   -10878 
  -10371    -9397    -9220    -9759   -10330   -10727   -11031   -10927 
  -10099    -8941    -8368    -8589    -8889    -9345   -10403   -11451 
  -12062   -12160   -11362   -10070    -9442    -9837   -10181    -9640 
   -8828    -8618    -9550   -11283   -12157   -11001    -8771    -7784 
   -9209   -11356   -11671   -10094    -8839    -9489   -11160   -11722 
  -10697    -9374    -8910    -9711   -11037   -11235    -9798    -8476 
   -8869   -10116   -10694   -10456   -10073   -10376   -11575   -12591 
  -12082    -9858    -7484    -7122    -8856   -10561   -10863   -10382 
  -10110   -10082   -10009   -10195   -10593   -10442    -9959    -9825 
   -9812    -9891   -10232   -10374   -10029    -9704   -10137   -10877 
  -10882   -10387    -9806    -9414    -9977   -10780   -10294    -9104 
   -8779    -9447   -10403   -11454   -11946   -10743    -8799    -8374 
   -9363   -10045   -10306   -10719   -10949   -11099   -11430   -10989 
   -9343    -8155    -8638    -9884   -10820   -10998   -10507    -9926 
   -9752   -10219   -10553    -9880    -9117    -9518   -10593   -11089 
  -10913   -10447    -9658    -9023    -9042    -9524   -10096   -10477 
  -10563   -10120    -9502    -9746   -10473   -10604   -10538   -10851 
  -11018   -10597    -9977    -9404    -8873    -9047   -10119   -10984 
  -10891   -10256    -9861   -10006   -10392   -10548   -10073    -9328 
   -9479   -10688   -11700   -11562   -10377    -9038    -8660    -9315 
   -9898    -9914    -9822    -9926   -10287   -10691   -10802   -10767 
  -10710   -10346    -9943   -10096   -10359   -10067    -9667    -9623 
   -9691   -10046   -10922   -11305   -10465    -9301    -8763    -9019 
   -9819   -10374   -10086    -9627    -9999   -11007   -11714   -11428 
  -10213    -9175    -9122    -9436    -9451    -9450    -9840   -10513 
  -10899   -10700   -10255    -9728    -9309    -9596   -10446   -10868 
  -10413    -9725    -9652   -10243   -10899   -11020   -10455    -9857 
   -9919   -10161    -9845    -9294    -9111    -9450   -10228   -11014 
  -11285   -10897   -10164    -9758    -9966   -10106    -9596    -9085 
   -9417   -10383   -11157   -11071   -10205    -9511    -9737   -10442 
  -10605   -10076    -9491    -9357    -9883   -10489   -10453   -10081 
   -9797    -9850   -10449   -10872   -10457    -9795    -9522    -9558 
   -9884   -10388   -10540   -10439   -10465   -10299    -9934    -9790 
   -9721    -9661    -9791    -9855    -9956   -10617   -11345   -11123 
  -10164    -9505    -9466    -9590    -9569    -9654   -10111   -10659 
  -10904   -10937   -10720    -9975    -9350    -9735   -10564   -10755 
  -10332    -9783    -9341    -9369    -9916   -10419   -10587   -10557 
  -10297    -9869    -9660    -9704    -9752    -9735    -9838   -10415 
  -11144   -11195   -10580    -9990    -9664    -9371    -9174    -9371 
  -10001   -10669   -10965   -11002   -10831   -10306    -9752    -9551 
   -9651    -9848   -10044   -10152   -10228   -10519   -10797   -10550 
   -9932    -9509    -9480    -9635    -9720    -9684    -9746   -10133 
