Origin Time       2025/03/31 16:51:00
Lat.              27.443
Long.             128.673
Depth. (km)       42
Mag.              3.7
Station Code      KGS034
Station Lat.      27.3340
Station Long.     128.5743
Station Height(m) 24
Record Time       2025/03/31 16:51:38
Sampling Freq(Hz) 100Hz
Duration Time(s)  60
Dir.              N-S
Scale Factor      3920(gal)/6182761
Max. Acc. (gal)   7.371
Last Correction   2025/03/31 16:51:38
Memo.             
[...]
    -490     -506     -503     -497     -491     -457     -470     -524 
    -510     -481     -489     -476     -483     -523     -503     -466 
    -481     -487     -494     -522     -500     -467     -485     -489 
    -484     -508     -503     -481     -491     -490     -481     -491 
    -499     -503     -494     -475     -486     -501     -486     -483 
    -492     -488     -496     -499     -488     -492     -483     -476 
    -510     -507     -475     -490     -491     -475     -495     -495 
    -491     -509     -478     -463     -506     -498     -483     -507 
    -480     -467     -506     -493     -492     -513     -467     -462 
    -509     -495     -492     -509     -470     -467     -497     -490 
    -510     -511     -462     -476     -499     -476     -506     -520 
    -465     -466     -497     -498     -507     -487     -464     -488 
    -494     -499     -508     -470     -475     -510     -476     -484 
    -529     -498     -470     -460     -460     -536     -548     -456 
    -442     -486     -517     -540     -488     -429     -471     -529 
    -529     -486     -452     -470     -499     -519     -523     -467 
    -438     -507     -547     -492     -448     -472     -505     -506 
    -506     -497     -469     -483     -505     -475     -471     -526 
    -532     -455     -419     -502     -583     -521     -403     -411 
    -534     -593     -508     -416     -443     -511     -529     -515 
    -474     -456     -503     -518     -482     -478     -482     -485 
    -516     -508     -471     -475     -490     -501     -506     -483 
    -472     -493     -509     -502     -486     -486     -487     -461 
    -462     -530     -569     -491     -415     -456     -510     -518 
    -519     -492     -450     -469     -518     -514     -482     -479 
    -488     -489     -493     -497     -494     -480     -481     -502 
    -496     -485     -504     -500     -475     -477     -488     -495 
    -500     -500     -499     -476     -461     -496     -530     -510 
    -464     -458     -493     -507     -504     -493     -474     -482 
    -502     -508     -491     -471     -483     -498     -489     -483 
    -501     -519     -483     -456     -487     -502     -508     -491 
    -464     -498     -509     -485     -485     -488     -503     -482 
    -463     -508     -514     -490     -485     -480     -493     -487 
    -478     -499     -502     -491     -493     -488     -476     -493 
    -515     -475     -472     -526     -491     -442     -489     -530 
    -511     -486     -468     -456     -504     -529     -464     -468 
    -524     -504     -484     -480     -470     -493     -510     -493 
    -484     -495     -503     -477     -453     -489     -541     -525 
    -452     -447     -517     -509     -460     -486     -523     -506 
    -479     -460     -461     -524     -540     -456     -463     -524 
    -478     -471     -514     -485     -481     -497     -482     -496 
    -512     -495     -463     -466     -508     -499     -489     -531 
    -487     -414     -497     -576     -477     -436     -534     -497 
    -413     -490     -551     -532     -487     -419     -450     -544 
    -560     -487     -387     -425     -581     -600     -486     -435 
    -455     -453     -476     -528     -548     -532     -464     -430 
    -471     -497     -497     -509     -525     -487     -441     -483 
    -533     -528     -462     -385     -467     -615     -594     -451 
    -370     -450     -526     -504     -552     -551     -429     -410 
    -470     -520     -556     -521     -460     -438     -471     -541 
    -533     -453     -443     -500     -533     -513     -469     -460 
    -486     -499     -506     -514     -479     -451     -487     -509 
    -494     -491     -496     -499     -497     -471     -449     -498 
    -547     -483     -444     -521     -539     -460     -422     -475 
    -554     -552     -471     -419     -462     -546     -536     -454 
    -450     -506     -525     -501     -469     -465     -487     -503 
    -502     -494     -496     -495     -478     -467     -480     -508 
    -518     -483     -457     -495     -536     -505     -439     -446 
    -525     -547     -491     -461     -469     -489     -508     -500 
    -491     -510     -495     -443     -455     -527     -541     -495 
    -461     -465     -507     -524     -469     -441     -486     -525 
    -537     -518     -451     -415     -472     -551     -538     -460 
    -474     -536     -467     -411     -508     -565     -529     -461 
    -426     -489     -504     -489     -553     -535     -418     -391 
    -515     -610     -529     -410     -407     -512     -590     -520 
    -423     -464     -502     -445     -490     -570     -550     -525 
    -429     -308     -419     -653     -675     -512     -372     -359 
    -472     -537     -534     -561     -528     -414     -386     -535 
    -614     -456     -357     -497     -629     -547     -392     -412 
    -555     -541     -384     -422     -651     -656     -351     -282 
    -579     -641     -460     -395     -453     -592     -587     -398 
    -369     -531     -577     -477     -472     -534     -480     -410 
    -481     -544     -505     -488     -494     -504     -509     -453 
    -428     -515     -562     -468     -426     -538     -595     -477 
    -336     -378     -584     -680     -544     -416     -425     -413 
    -415     -564     -616     -472     -462     -532     -461     -445 
    -487     -454     -491     -580     -539     -416     -405     -523 
    -575     -515     -472     -455     -445     -483     -504     -492 
    -536     -539     -462     -465     -485     -463     -492     -495 
    -481     -515     -514     -501     -508     -465     -425     -452 
    -511     -564     -531     -443     -460     -524     -525     -502 
    -412     -358     -509     -659     -598     -433     -383     -453 
    -469     -506     -602     -527     -396     -449     -499     -492 
    -552     -509     -414     -496     -553     -458     -425     -496 
    -548     -529     -479     -486     -507     -433     -417     -514 
    -531     -528     -537     -467     -465     -505     -419     -395 
    -568     -648     -513     -407     -414     -442     -499     -594 
    -590     -450     -352     -382     -536     -679     -584     -399 
    -381     -457     -500     -549     -543     -440     -437     -501 
    -529     -591     -506     -342     -427     -559     -567     -511 
    -383     -424     -569     -560     -563     -507     -343     -361 
    -505     -643     -647     -407     -311     -452     -525     -612 
    -615     -437     -394     -432     -435     -529     -585     -516 
    -461     -480     -494     -464     -479     -526     -511     -462 
    -438     -483     -540     -514     -479     -508     -528     -456 
    -396     -488     -565     -509     -474     -484     -503     -508 
    -463     -466     -505     -497     -485     -489     -506     -513 
    -481     -473     -500     -486     -446     -459     -535     -571 
    -493     -439     -477     -465     -468     -556     -531     -447 
    -466     -469     -484     -568     -538     -436     -427     -437 
    -465     -563     -604     -554     -458     -354     -397     -520 
    -515     -532     -614     -519     -366     -392     -510     -562 
    -538     -499     -436     -428     -515     -516     -510     -573 
    -496     -385     -402     -462     -558     -589     -483     -501 
    -583     -403     -295     -514     -585     -487     -604     -653 
    -352     -214     -481     -610     -542     -643     -579     -275 
    -327     -535     -491     -549     -687     -555     -347     -293 
    -420     -626     -638     -500     -467     -460     -402     -450 
    -564     -547     -471     -506     -520     -411     -413     -544 
    -548     -496     -515     -463     -414     -516     -559     -452 
    -450     -548     -524     -428     -447     -536     -523     -479 
    -513     -484     -450     -514     -486     -446     -528     -527 
    -466     -492     -508     -472     -461     -491     -510     -491 
    -488     -506     -505     -476     -464     -497     -508     -496 
    -497     -478     -472     -495     -506     -488     -481     -519 
    -508     -437     -458     -537     -514     -471     -502     -506 
    -479     -471     -457     -482     -549     -534     -459     -457 
    -475     -472     -530     -541     -460     -458     -493     -476 
    -497     -532     -493     -457     -490     -512     -491     -467 
    -479     -505     -494     -495     -496     -470     -487     -513 
    -504     -497     -480     -448     -470     -524     -526     -514 
    -522     -577     -744     -824     -593     -345     -408     -575 
    -501     -128      334      642      448     -664    -2121    -2618 
   -1327      974     1397     -307    -1678    -2294     -853     1735 
    2044      628    -2575    -4946    -2121     1758     2660     1115 
   -1563    -2829    -2017      -86     1551     1676     -106    -2501 
   -2539     -916      183      792      698     -224    -1658    -2196 
    -976       31      132      784     1014     -662    -2434    -2392 
    -533     1431     1077     -719    -1521    -1624    -1475       -4 
    1450      511     -967    -1055    -1130    -1551    -1460     -370 
    1239     1280     -301    -1359    -1655    -1168      317      853 
    -288    -1370    -1954    -1731       39     1214      644      230 
    -509    -2030    -2077     -826      -77      231      268     -431 
   -1404    -1053      205      261     -150      -65     -707    -1748 
   -1740     -504      917      997     -368    -1392     -766       10 
    -729    -1248     -849    -1011     -732      401      678      226 
    -452    -1438    -1766    -1252     -485      511     1059      430 
    -778    -1601    -1640     -609      637      371     -924    -1567 
   -1323    -1068     -492      943     1151     -321    -1665    -2205 
    -946      916      953     -113    -1395    -2492    -1926      568 
    2592     1325    -1969    -3242    -1569     1033     1755     -436 
   -2235    -1699     -421     1053     1933      549    -2578    -4297 
   -2371     1156     2875     1553    -1533    -3204    -2056      383 
    2042     1170    -1688    -3440    -2287      466     2361     1760 
    -863    -2864    -2407     -343      985      254    -1165    -1521 
    -599     1027     1620     -241    -2668    -2686     -370     1591 
     840    -1998    -3737    -2130     1702     4049     2621    -1670 
   -5101    -3503     1282     3242      440    -3597    -4077     -747 
    2593     3519     1475    -1940    -3779    -3104      -61     2577 
    1022    -2215    -3154    -1747      735     2062     1321     -416 
   -1935    -2203    -1484      -75     1455      988    -1471    -3025 
   -2032      106      898     -130    -1256     -911      766     1229 
    -742    -1859     -821       46      450      127    -1293    -2003 
   -1490      -69     1456      733    -1455    -2025     -759      618 
     520    -1048    -2039    -1267      183      923      448     -785 
   -1326     -671      -96     -209     -743    -1571    -1935     -999 
    1077     2435      774    -2303    -3031    -1428      391     1549 
    1189    -1062    -3042    -2420      192     2094     1031    -1662 
   -2751    -1911     -236     1487     1549     -379    -1844    -1341 
       4      610     -243    -1643    -1870     -976      -28      536 
      83    -1221    -1269      626     1755      498    -1696    -3223 
   -2890     -941      822     1480      901     -288     -964     -994 
    -496      141     -478    -1954    -1845      -96     1073      584 
    -788    -1517    -1446    -1168     -230      595      215      -23 
      74     -665    -1453    -1664    -1502     -138     1888     1722 
    -848    -2834    -2607     -666      717      176     -504     -579 
    -494      148      690      129    -1644    -3102    -2192       88 
    1448     1325      351     -823    -1722    -1711    -1134     -362 
     850     1453      553    -1296    -2549    -1901     -449      330 
     284     -412    -1028    -1165     -728      438     1056      -76 
   -2003    -2831    -1686      519     2130     1864     -147    -2101 
   -2702    -1923     -368     1121     1319     -516    -2058    -1207 
     337      662     -440    -1972    -2341    -1132      787     1912 
    1152     -748    -1946    -1401       79      758     -303    -2592 
   -3635    -1540     1662     3038     1725    -1316    -3085    -2123 
    -135     1623     1413    -1752    -3861    -1700     1837     2424 
    -275    -2460    -2022     -986     -408      485      926     -346 
   -1851     -992     1004      674    -1473    -2214    -1051      456 
    1251      679    -1155    -2720    -2254       90     2250     1738 
   -1987    -4975    -3185     1410     3892     2115    -1898    -4086 
   -2046     2360     4070      778    -4255    -6694    -4458      597 
    3640     3595     2855     1420     -871    -2589    -3102    -2823 
   -2458    -1345     1064     2372      360    -3599    -6392    -5662 
    -717     5838     8633     4229    -4270    -8682    -4385     4106 
    7404     1971    -3808    -1117     5656     6540      586    -5349 
   -6901    -5383    -3525    -2422    -2782    -4153    -2320     4910 
   11135     8086    -2940   -11326    -9362     -423     5884     4446 
   -1079    -4194    -1903     3191     5310     2170    -3002    -5556 
   -4096    -1595      -67     1763     3159     1360    -2993    -6106 
   -5086     -808     3053     4275     2760     -946    -4166    -3352 
     240     2399     2401      844    -1569    -2208     -861      -76 
    -752    -1997    -2533    -1331     1507     3675     2605    -1383 
   -5287    -5396    -1297     2910     4105     2932      635    -2238 
   -3840    -2908    -1432    -1142    -1537    -1250      377     1383 
     430     -328      724     1538     -288    -3165    -4078    -2551 
     127     1721      628    -1639    -2214     -335     2601     4714 
    3918     -906    -6339    -6669    -1958     2194     2110     -483 
   -1227      677     1428     -482    -1697     -919     -853    -1664 
   -1552    -1231    -1380     -787     1182     3125     2672     -587 
   -3414    -2997    -1132     -669    -1304    -1291     -631     -257 
     650     2280     2391      386    -1874    -3149    -3329    -2805 
   -1666      333     2411     3344     2816     1077    -1421    -3542 
   -3972    -3061    -2040    -1035      -67      820     1904     2286 
    1289     -121    -1510    -2845    -3308    -2575    -1045      119 
     451     1612     2857     1691     -368    -1085     -993    -1203 
   -2065    -2683    -2632    -2279     -588     2255     3285     1687 
    -258    -1195    -1339    -1429    -1824    -2032    -2332    -2742 
   -1403     1606     3059     1689     -271     -782     -182       84 
    -196     -181      -32     -382     -668     -565    -1223    -2856 
   -3287    -1295      936     1664     1829     1357     -842    -3174 
   -2935     -608      858      295     -813    -1110     -972     -822 
      -2      879      621      -90     -716    -1338    -1524    -1299 
    -968     -800     -660     -136      327      570      698       14 
   -1361    -2345    -2048     -378     1211     1117     -448    -1744 
   -1696     -881      257     1074       49    -2185    -2772     -841 
    1645     2857     2291      164    -2338    -3758    -3614    -2059 
     -44      877      509      -54     -146      146      372      147 
    -642    -1663    -2016    -1285     -370     -317     -903    -1153 
    -497      828     1471      611     -553    -1192    -1635    -1843 
   -1483     -540       65     -174      -25      914     1247      555 
    -109     -538    -1449    -2408    -2251     -984      343      724 
     -12    -1004    -1426    -1042      113     1266     1292     -278 
   -2719    -4044    -3082     -853      970     1707     1723     1399 
     605     -716    -1882    -2304    -1947     -660     1008     1790 
    1168     -482    -2120    -2415    -1372     -619     -884    -1039 
    -102     1381     1794      472    -1410    -2676    -2805    -1631 
     -29      767      310     -551     -436      188      -86     -635 
    -335      114      -95     -635    -1200    -1738    -1966    -1687 
    -950      418     2069     2620     1380     -907    -2938    -3437 
   -2381    -1307     -861     -294      327      574      957     1662 
    1463     -459    -2666    -3275    -2138     -238     1674     2666 
    1232    -1921    -3348    -1815      -37        3     -605     -663 
    -379       19      501      327     -955    -2190    -2166    -1217 
    -446      -98      342      506       79      -16      186     -447 
   -1435    -1217       -5      482     -227    -1100    -1339    -1040 
    -940    -1084     -634      243      609      282      -76       24 
    -115     -841    -1323    -1490    -1486     -981     -247      464 
     930      767      268     -601    -2215    -3488    -2880     -777 
    1034     1477      719     -376     -831     -362      377      437 
    -364    -1110    -1401    -1771    -1757     -720      545     1193 
     938      -23     -964    -1497    -1519    -1018     -435     -371 
    -610     -330      399     1028      936     -492    -2403    -3477 
   -3144    -1050     1831     3467     2795      197    -2672    -4129 
   -3666    -1705      200      613      363      799     1336      963 
     -16    -1019    -1866    -2110    -1398     -368     -190     -872 
    -900      267     1136      836     -168    -1412    -2107    -1807 
   -1120     -616     -541     -537      231     1399     1713      863 
    -482    -1589    -2253    -2505    -1987     -481     1195     1467 
     108     -977     -770     -512     -874    -1008     -974    -1376 
   -1250       12     1090     1002      210     -554    -1013    -1225 
   -1175     -734     -287     -410     -823    -1169    -1466    -1120 
     141     1125      727     -408     -871     -757    -1073    -1217 
    -350      434      309      -16      -69     -322    -1095    -1617 
   -1211     -747    -1120    -1371     -481      571      740      230 
    -732    -1603    -1334       71     1169      857     -396    -1537 
   -1942    -1563     -779      -87      -13     -414     -356       74 
    -162     -843    -1040     -764     -327      118       85     -546 
    -951     -642     -187     -215     -695     -964     -373      535 
     595     -229    -1380    -2262    -1882     -435      576      457 
    -395    -1245    -1459     -922      -99      312       19     -665 
   -1088     -883     -372      144      499      209     -712    -1352 
   -1119     -548     -384     -515     -495     -258     -105     -277 
    -365      -96      -34     -373     -781    -1325    -1867    -1705 
    -624      634     1191      867      116     -485     -835    -1179 
   -1261     -822     -585     -990    -1169     -601      126      380 
      10     -587    -1027    -1352    -1435    -1004     -132      743 
     999      335     -798    -1548    -1536    -1112     -731     -447 
