Origin Time       2025/03/31 16:51:00
Lat.              27.443
Long.             128.673
Depth. (km)       42
Mag.              3.7
Station Code      KGS033
Station Lat.      27.6883
Station Long.     128.9421
Station Height(m) 136
Record Time       2025/03/31 16:51:45
Sampling Freq(Hz) 100Hz
Duration Time(s)  60
Dir.              U-D
Scale Factor      7845(gal)/8223790
Max. Acc. (gal)   1.954
Last Correction   2025/03/31 16:51:46
Memo.             
[...]
   12572    12569    12567    12567    12565    12567    12569    12571 
   12571    12567    12567    12571    12572    12571    12569    12571 
   12571    12568    12569    12571    12569    12568    12568    12568 
   12568    12567    12565    12569    12569    12565    12567    12568 
   12565    12567    12571    12571    12569    12567    12568    12569 
   12568    12565    12565    12567    12569    12571    12572    12572 
   12569    12571    12569    12567    12565    12568    12572    12575 
   12571    12568    12571    12572    12568    12567    12567    12567 
   12568    12571    12572    12571    12568    12568    12569    12572 
   12571    12568    12569    12571    12569    12569    12569    12569 
   12568    12569    12571    12571    12569    12569    12569    12571 
   12568    12568    12568    12569    12572    12573    12569    12569 
   12571    12569    12568    12569    12568    12569    12571    12569 
   12569    12568    12565    12568    12572    12572    12568    12565 
   12567    12572    12571    12568    12569    12572    12571    12569 
   12571    12572    12569    12568    12568    12568    12568    12568 
   12568    12569    12569    12569    12571    12569    12567    12568 
   12568    12568    12568    12569    12572    12573    12568    12565 
   12568    12569    12567    12568    12568    12569    12575    12573 
   12568    12569    12568    12567    12569    12571    12568    12569 
   12572    12572    12572    12572    12569    12567    12567    12569 
   12569    12569    12571    12571    12569    12569    12568    12568 
   12569    12569    12569    12569    12568    12565    12567    12569 
   12567    12567    12571    12572    12571    12569    12569    12569 
   12569    12571    12571    12568    12567    12567    12569    12576 
   12575    12569    12569    12571    12569    12567    12569    12571 
   12569    12568    12569    12572    12571    12568    12569    12569 
   12568    12569    12569    12569    12569    12569    12572    12572 
   12568    12568    12572    12571    12565    12568    12572    12571 
   12569    12571    12571    12568    12567    12569    12568    12567 
   12569    12572    12576    12575    12568    12569    12571    12568 
   12569    12571    12568    12568    12568    12571    12573    12571 
   12567    12569    12571    12568    12567    12568    12569    12568 
   12567    12569    12569    12568    12569    12573    12572    12568 
   12569    12573    12573    12568    12568    12569    12571    12571 
   12572    12571    12569    12567    12567    12569    12568    12565 
   12568    12572    12571    12568    12568    12569    12568    12567 
   12569    12571    12567    12567    12569    12571    12567    12564 
   12565    12569    12568    12568    12569    12568    12565    12568 
   12572    12571    12567    12565    12571    12572    12568    12565 
   12569    12571    12569    12571    12571    12568    12568    12571 
   12572    12569    12565    12569    12572    12569    12568    12571 
   12572    12569    12568    12568    12568    12568    12568    12571 
   12572    12569    12568    12571    12572    12571    12568    12567 
   12569    12568    12565    12571    12573    12567    12565    12572 
   12573    12569    12565    12567    12571    12571    12569    12568 
   12569    12568    12567    12568    12569    12568    12569    12573 
   12571    12568    12567    12571    12572    12569    12568    12568 
   12569    12569    12572    12575    12571    12568    12571    12572 
   12571    12571    12571    12571    12569    12569    12571    12571 
   12569    12567    12569    12573    12572    12569    12572    12573 
   12568    12565    12568    12569    12568    12569    12573    12572 
   12568    12568    12571    12569    12568    12567    12568    12571 
   12571    12569    12569    12569    12568    12572    12572    12569 
   12567    12565    12569    12573    12571    12568    12568    12569 
   12569    12567    12568    12571    12571    12572    12572    12569 
   12567    12567    12569    12571    12571    12572    12573    12572 
   12569    12571    12571    12565    12568    12572    12571    12568 
   12568    12569    12571    12571    12568    12569    12569    12569 
   12569    12569    12569    12568    12569    12572    12573    12571 
   12571    12572    12571    12567    12569    12572    12569    12569 
   12571    12572    12571    12567    12565    12571    12572    12568 
   12569    12573    12575    12571    12569    12569    12567    12567 
   12569    12571    12571    12568    12567    12571    12571    12568 
   12568    12569    12569    12569    12572    12572    12569    12571 
   12571    12569    12567    12565    12569    12569    12568    12568 
   12569    12569    12568    12568    12567    12567    12568    12572 
   12573    12571    12568    12567    12567    12568    12571    12571 
   12571    12568    12569    12571    12571    12569    12569    12569 
   12569    12569    12569    12568    12568    12572    12572    12569 
   12569    12569    12569    12572    12569    12567    12567    12568 
   12571    12573    12571    12569    12568    12567    12568    12569 
   12569    12569    12571    12571    12569    12569    12568    12565 
   12568    12571    12571    12571    12571    12571    12571    12569 
   12571    12569    12568    12568    12568    12569    12571    12569 
   12568    12569    12571    12571    12568    12567    12568    12569 
   12569    12572    12571    12569    12569    12565    12564    12568 
   12572    12571    12571    12569    12568    12568    12568    12567 
   12569    12572    12571    12571    12569    12568    12569    12569 
   12569    12571    12569    12565    12569    12573    12572    12572 
   12572    12569    12568    12568    12567    12565    12568    12571 
   12571    12568    12567    12568    12569    12568    12568    12568 
   12569    12567    12565    12568    12572    12573    12569    12568 
   12572    12571    12567    12567    12568    12571    12572    12572 
   12572    12572    12571    12568    12569    12567    12565    12565 
   12568    12571    12569    12569    12572    12568    12564    12569 
   12569    12567    12569    12571    12571    12571    12567    12567 
   12572    12571    12567    12568    12569    12569    12569    12568 
   12569    12571    12568    12569    12571    12565    12565    12571 
   12573    12569    12568    12569    12569    12568    12567    12569 
   12571    12568    12567    12569    12572    12571    12565    12565 
   12569    12569    12567    12569    12571    12569    12569    12571 
   12569    12567    12567    12567    12567    12565    12568    12571 
   12572    12573    12572    12568    12567    12567    12568    12569 
   12571    12571    12572    12580    12598    12631    12691    12761 
   12811    12834    12841    12808    12756    12717    12502    11902 
   11348    11431    11853    12015    12074    12486    13216    13759 
   13756    13502    13200    12538    12073    12548    12760    11942 
   11578    12195    12992    13536    13238    12441    12291    12537 
   12393    11789    11360    11907    12945    13398    13293    13153 
   13119    13220    13059    12028    11091    11476    12371    12874 
   12822    12307    12411    13382    13994    13702    12654    11511 
   11317    11815    12125    12316    12433    12564    13205    13736 
   13362    12800    12564    12205    11851    11977    12330    12445 
   12405    12572    12845    12897    12977    13184    13055    12665 
   12349    12052    11889    11954    12121    12391    12788    13163 
   13301    13230    13054    12692    12278    11979    11789    11888 
   12128    12321    12822    13301    13234    13113    13080    12800 
   12475    12141    11731    11615    12024    12669    13113    13236 
   13138    12943    12849    12727    12340    12097    12228    12339 
   12397    12464    12388    12382    12640    13005    13212    13026 
   12622    12313    12059    11897    11990    12364    12930    13354 
   13354    12991    12498    12249    12320    12380    12349    12303 
   12239    12334    12700    12953    12870    12795    12815    12719 
   12460    12152    12162    12532    12708    12656    12800    12953 
   12729    12334    12167    12322    12657    12803    12636    12546 
   12604    12529    12502    12690    12811    12633    12243    12096 
   12293    12390    12461    12699    12864    12911    12849    12756 
   12793    12699    12395    12197    12193    12321    12553    12789 
   12874    12858    12803    12586    12442    12510    12499    12461 
   12502    12398    12189    12329    12877    13080    12626    12324 
   12586    12831    12750    12646    12586    12444    12348    12418 
   12657    12752    12399    12132    12205    12187    12374    12965 
   13248    13011    12750    12694    12733    12760    12699    12437 
   12043    11854    12033    12422    12807    12951    12706    12498 
   12856    13192    12927    12638    12533    12289    11982    11824 
   12079    12604    12901    12997    13047    13028    12823    12341 
   12046    12235    12518    12622    12692    12808    12683    12413 
   12525    12835    12914    12698    12213    11892    12094    12433 
   12549    12692    13000    13105    12916    12695    12528    12410 
   12298    12258    12430    12567    12441    12376    12536    12717 
   12937    13138    13100    12773    12178    11711    11830    12289 
   12700    12937    12972    12966    12888    12671    12606    12663 
   12415    11975    11924    12286    12572    12746    12991    13107 
   12935    12696    12550    12371    12186    12231    12402    12536 
   12750    12908    12796    12583    12455    12532    12652    12456 
   12195    12299    12665    12943    12977    12788    12355    12048 
   12179    12337    12459    12795    12970    12711    12492    12745 
   12970    12745    12538    12498    12486    12559    12510    12436 
   12525    12495    12255    12089    12316    12791    12996    12850 
   12646    12603    12590    12405    12496    13055    13261    12691 
   11934    11619    11828    12274    12756    13176    13474    13508 
   13049    12430    12097    11867    11778    12075    12397    12483 
   12658    13036    13300    13157    12656    12332    12391    12437 
   12384    12262    12163    12521    13061    13197    13076    12781 
   12252    11843    11875    12248    12609    12865    13136    13232 
   12969    12502    12156    12244    12583    12637    12426    12353 
   12460    12526    12449    12437    12654    12766    12488    12255 
   12582    13007    12800    12415    12577    12802    12542    12420 
   12814    12937    12484    12229    12374    12428    12438    12613 
   12702    12681    12730    12591    12326    12464    12707    12580 
   12479    12602    12663    12561    12406    12490    12749    12729 
   12592    12744    12870    12619    12218    12002    12114    12438 
   12746    12961    13062    12997    12698    12320    12317    12627 
   12637    12325    12231    12353    12326    12324    12699    13194 
   13244    12815    12505    12476    12276    12054    12205    12526 
   12784    12826    12622    12573    12652    12521    12563    12914 
   12957    12618    12183    11820    11902    12375    12852    13224 
   13270    12960    12707    12530    12236    12094    12299    12525 
   12507    12511    12775    12915    12627    12383    12492    12636 
   12694    12650    12403    12218    12272    12449    12822    13221 
   13296    13097    12606    11950    11792    12104    12286    12418 
   12644    12646    12615    12978    13216    12829    12476    12560 
   12538    12229    12070    12221    12461    12675    12858    12904 
   12718    12559    12603    12549    12472    12690    12822    12631 
   12496    12457    12305    12237    12449    12680    12598    12326 
   12307    12591    12776    12727    12789    13073    13124    12765 
   12324    11973    11857    12151    12600    12907    12991    12842 
   12653    12590    12588    12557    12533    12623    12595    12233 
   12100    12586    13061    13058    12864    12656    12370    12210 
   12401    12681    12738    12660    12579    12691    12946    12792 
   12247    11954    12190    12649    12738    12384    12015    11766 
   11720    12151    12900    13266    13004    12560    12109    11834 
   12248    13138    13733    13794    13494    13015    12530    12309 
   12495    12699    12663    12660    12569    12021    11292    10933 
   11271    12286    13420    13983    13926    13633    13211    12766 
   12480    12213    12004    12062    12201    12187    12094    12147 
   12305    12399    12854    13771    14223    13806    12865    11692 
   10903    10881    11290    11766    12137    12664    13559    14226 
   14207    13668    12901    12376    12154    11753    11292    11242 
   11654    12472    13389    13751    13502    13281    13319    13174 
   12741    12302    11689    11024    11037    11691    12523    13485 
   14089    13814    13174    12704    12290    12069    12239    12352 
   12114    11962    12106    12222    12375    12884    13344    13267 
   13132    13313    13201    12584    12073    11788    11489    11334 
   11566    12158    12822    13420    13944    14065    13757    13374 
   12745    11718    10777    10520    11072    11975    12804    13495 
   13991    14049    13609    12970    12376    12036    12015    11892 
   11715    12013    12615    13108    13236    12850    12437    12550 
   13073    13531    13485    12896    12136    11551    11207    11021 
   11205    11986    13008    13896    14561    14617    13819    12634 
   11607    11059    11218    11823    12420    12903    13142    12976 
   12568    12212    12081    12263    12791    13478    13806    13359 
   12417    11685    11314    11211    11753    12789    13502    13683 
   13533    12973    12158    11734    11912    12236    12546    12833 
   12860    12762    12671    12511    12479    12546    12483    12293 
   12141    12421    13140    13767    13890    13292    12270    11531 
   11350    11701    12313    12675    12746    12806    12892    12869 
   12599    12309    12351    12607    12874    13084    12997    12584 
   12137    11905    11986    12312    12619    12727    12807    13082 
   13313    13120    12664    12344    12136    11892    11813    12097 
   12515    12842    13139    13271    12923    12360    12208    12336 
   12231    12116    12364    12700    12838    12943    13107    13173 
   13077    12803    12428    12170    12073    12031    12035    12214 
   12602    12856    12807    12798    13036    13197    12889    12274 
   11838    11749    11898    12191    12483    12753    13090    13281 
   13180    12991    12812    12698    12637    12464    12255    12190 
   12259    12217    11925    11867    12387    13074    13545    13644 
   13324    12787    12160    11668    11610    11827    12201    12868 
   13456    13464    13020    12499    12093    11974    12236    12618 
   12830    12846    12721    12609    12622    12631    12545    12430 
   12401    12471    12444    12279    12241    12401    12525    12638 
   13005    13412    13410    13097    12715    12225    11776    11746 
   12081    12363    12517    12726    12931    12930    12754    12615 
   12480    12270    12213    12383    12587    12785    13032    13211 
   13039    12545    12201    12127    12118    12240    12418    12534 
   12663    12618    12397    12461    12837    13099    13209    13216 
   12889    12332    11900    11684    11785    12270    12862    13225 
   13211    12950    12685    12452    12243    12100    12087    12241 
   12482    12725    12881    12915    13015    13232    13320    13011 
   12370    11890    11882    12136    12243    12090    12073    12366 
   12676    12911    13049    13080    13130    13034    12646    12229 
   12016    11996    12136    12372    12517    12565    12739    12987 
   13085    13049    12946    12804    12702    12586    12330    12015 
   11774    11700    11938    12402    12865    13317    13544    13317 
   12893    12490    12190    12124    12190    12337    12582    12708 
   12667    12630    12606    12499    12328    12248    12366    12627 
   12945    13139    13069    12815    12483    12164    12040    12201 
   12519    12723    12749    12761    12669    12403    12243    12318 
   12507    12772    13068    13184    12943    12478    12113    12017 
   12116    12290    12478    12622    12742    12910    13059    13111 
   13126    13015    12669    12286    11965    11647    11592    11996 
   12623    13117    13302    13251    13031    12645    12275    12091 
   12123    12309    12523    12680    12703    12677    12758    12804 
   12761    12721    12584    12382    12206    12070    12097    12276 
   12552    12970    13267    13182    12916    12638    12345    12097 
   12021    12262    12694    12931    12858    12702    12590    12449 
   12271    12178    12295    12583    12853    13038    13115    12960 
   12707    12610    12571    12449    12278    12069    11924    11997 
   12236    12553    12961    13333    13402    13113    12660    12179 
   11826    11824    12141    12528    12849    13047    13063    13007 
   12965    12731    12313    12136    12264    12333    12301    12409 
   12614    12715    12746    12779    12775    12703    12595    12557 
   12513    12324    12220    12356    12521    12611    12679    12707 
   12711    12739    12733    12658    12640    12633    12506    12428 
   12461    12429    12402    12487    12573    12609    12556    12463 
   12550    12683    12541    12384    12529    12756    12891    12895 
   12690    12494    12430    12283    12187    12333    12451    12519 
   12800    13155    13236    12955    12501    12144    12029    12139 
   12380    12626    12754    12737    12619    12509    12528    12704 
   12911    12962    12846    12658    12361    12025    11907    12031 
   12235    12496    12868    13215    13266    13030    12788    12582 
   12321    12181    12255    12271    12131    12164    12444    12718 
   12937    13022    12850    12699    12731    12712    12629    12606 
   12544    12405    12274    12206    12270    12422    12561    12729 
   12896    12897    12756    12650    12588    12484    12379    12357 
   12440    12592    12685    12641    12559    12529    12587    12698 
   12757    12773    12723    12561    12379    12195    12050    12098 
   12351    12681    12966    13046    12901    12753    12708    12622 
   12515    12517    12549    12518    12409    12324    12425    12557 
   12565    12569    12548    12506    12577    12646    12637    12690 
   12784    12745    12548    12348    12229    12232    12425    12695 
   12834    12807    12726    12673    12607    12511    12510    12610 
   12668    12617    12495    12430    12510    12550    12413    12325 
   12420    12545    12606    12650    12798    12984    12966    12804 
   12690    12518    12258    12100    12109    12224    12384    12607 
   12879    13019    12931    12731    12598    12607    12626    12557 
