Origin Time       2025/03/31 16:51:00
Lat.              27.443
Long.             128.673
Depth. (km)       42
Mag.              3.7
Station Code      KGS033
Station Lat.      27.6883
Station Long.     128.9421
Station Height(m) 136
Record Time       2025/03/31 16:51:45
Sampling Freq(Hz) 100Hz
Duration Time(s)  60
Dir.              N-S
Scale Factor      7845(gal)/8223790
Max. Acc. (gal)   3.317
Last Correction   2025/03/31 16:51:46
Memo.             
[...]
   -5170    -5170    -5173    -5174    -5170    -5170    -5174    -5175 
   -5173    -5173    -5174    -5174    -5174    -5174    -5174    -5174 
   -5171    -5171    -5175    -5174    -5170    -5170    -5171    -5174 
   -5174    -5173    -5174    -5174    -5171    -5170    -5170    -5173 
   -5175    -5175    -5174    -5174    -5174    -5171    -5171    -5175 
   -5175    -5171    -5170    -5174    -5175    -5174    -5175    -5171 
   -5167    -5170    -5175    -5177    -5175    -5174    -5175    -5179 
   -5174    -5165    -5163    -5171    -5177    -5177    -5179    -5179 
   -5174    -5169    -5173    -5174    -5171    -5171    -5174    -5174 
   -5175    -5175    -5177    -5175    -5173    -5171    -5171    -5170 
   -5170    -5174    -5181    -5179    -5174    -5173    -5173    -5171 
   -5170    -5170    -5170    -5173    -5173    -5174    -5178    -5177 
   -5173    -5175    -5177    -5174    -5171    -5171    -5173    -5175 
   -5177    -5174    -5171    -5169    -5169    -5171    -5174    -5174 
   -5173    -5174    -5174    -5173    -5171    -5171    -5171    -5173 
   -5174    -5175    -5174    -5171    -5171    -5174    -5173    -5171 
   -5174    -5177    -5174    -5170    -5173    -5174    -5171    -5171 
   -5174    -5175    -5174    -5170    -5171    -5178    -5175    -5170 
   -5170    -5175    -5175    -5174    -5174    -5171    -5170    -5171 
   -5174    -5175    -5174    -5173    -5173    -5175    -5174    -5171 
   -5170    -5173    -5174    -5173    -5174    -5175    -5173    -5170 
   -5174    -5174    -5171    -5174    -5178    -5179    -5175    -5173 
   -5173    -5173    -5173    -5174    -5173    -5171    -5171    -5173 
   -5175    -5174    -5170    -5170    -5174    -5177    -5171    -5171 
   -5174    -5174    -5173    -5177    -5177    -5171    -5170    -5173 
   -5175    -5173    -5171    -5175    -5177    -5171    -5169    -5173 
   -5174    -5171    -5170    -5174    -5175    -5171    -5170    -5174 
   -5178    -5173    -5166    -5171    -5179    -5177    -5175    -5175 
   -5169    -5167    -5171    -5173    -5173    -5173    -5170    -5174 
   -5177    -5173    -5170    -5173    -5174    -5174    -5174    -5174 
   -5171    -5170    -5173    -5175    -5174    -5170    -5170    -5174 
   -5174    -5171    -5171    -5174    -5175    -5174    -5171    -5174 
   -5174    -5169    -5170    -5175    -5173    -5167    -5169    -5175 
   -5174    -5170    -5174    -5175    -5171    -5170    -5171    -5170 
   -5170    -5171    -5174    -5175    -5175    -5173    -5173    -5174 
   -5173    -5171    -5173    -5173    -5170    -5173    -5179    -5175 
   -5167    -5169    -5175    -5174    -5171    -5171    -5174    -5174 
   -5173    -5171    -5174    -5171    -5169    -5175    -5181    -5175 
   -5170    -5171    -5175    -5174    -5170    -5170    -5173    -5171 
   -5171    -5177    -5177    -5171    -5173    -5177    -5174    -5173 
   -5170    -5170    -5177    -5177    -5169    -5173    -5175    -5171 
   -5173    -5174    -5173    -5171    -5170    -5174    -5175    -5170 
   -5170    -5175    -5175    -5174    -5174    -5171    -5171    -5173 
   -5175    -5177    -5171    -5167    -5169    -5174    -5178    -5175 
   -5171    -5173    -5175    -5173    -5171    -5173    -5173    -5171 
   -5173    -5177    -5174    -5171    -5174    -5177    -5175    -5174 
   -5173    -5173    -5173    -5170    -5171    -5174    -5174    -5173 
   -5174    -5175    -5175    -5170    -5167    -5174    -5177    -5174 
   -5173    -5175    -5175    -5171    -5174    -5174    -5167    -5169 
   -5175    -5174    -5173    -5173    -5175    -5177    -5175    -5173 
   -5170    -5166    -5170    -5173    -5173    -5173    -5173    -5173 
   -5177    -5175    -5171    -5170    -5171    -5174    -5177    -5174 
   -5171    -5173    -5173    -5171    -5171    -5170    -5170    -5171 
   -5174    -5178    -5174    -5169    -5173    -5174    -5170    -5171 
   -5173    -5170    -5173    -5175    -5174    -5171    -5170    -5171 
   -5174    -5175    -5174    -5174    -5174    -5173    -5170    -5169 
   -5167    -5171    -5177    -5179    -5179    -5177    -5174    -5173 
   -5171    -5173    -5174    -5173    -5174    -5177    -5177    -5175 
   -5171    -5169    -5174    -5175    -5174    -5178    -5178    -5173 
   -5173    -5174    -5173    -5171    -5169    -5171    -5178    -5177 
   -5171    -5174    -5174    -5170    -5169    -5171    -5174    -5173 
   -5171    -5174    -5177    -5173    -5171    -5175    -5177    -5174 
   -5171    -5169    -5171    -5174    -5173    -5175    -5178    -5174 
   -5173    -5177    -5174    -5169    -5170    -5174    -5175    -5177 
   -5175    -5174    -5174    -5171    -5171    -5174    -5171    -5169 
   -5174    -5177    -5173    -5171    -5173    -5173    -5173    -5171 
   -5170    -5171    -5174    -5175    -5174    -5173    -5171    -5170 
   -5169    -5170    -5171    -5174    -5177    -5175    -5175    -5178 
   -5173    -5169    -5170    -5171    -5174    -5175    -5174    -5174 
   -5175    -5173    -5173    -5173    -5169    -5171    -5177    -5177 
   -5174    -5171    -5170    -5171    -5174    -5174    -5170    -5170 
   -5174    -5174    -5174    -5174    -5173    -5174    -5177    -5174 
   -5170    -5171    -5174    -5173    -5174    -5175    -5174    -5173 
   -5170    -5170    -5174    -5173    -5171    -5171    -5175    -5177 
   -5174    -5170    -5171    -5174    -5174    -5173    -5174    -5173 
   -5171    -5174    -5177    -5174    -5169    -5170    -5174    -5175 
   -5173    -5170    -5170    -5173    -5173    -5173    -5175    -5174 
   -5170    -5171    -5177    -5174    -5170    -5173    -5174    -5173 
   -5170    -5170    -5174    -5177    -5171    -5171    -5175    -5175 
   -5173    -5174    -5175    -5174    -5170    -5170    -5177    -5178 
   -5171    -5169    -5171    -5171    -5171    -5174    -5174    -5174 
   -5173    -5173    -5175    -5171    -5169    -5173    -5175    -5173 
   -5171    -5174    -5177    -5174    -5173    -5173    -5171    -5170 
   -5173    -5175    -5175    -5171    -5170    -5174    -5177    -5173 
   -5171    -5174    -5173    -5170    -5173    -5177    -5174    -5169 
   -5171    -5175    -5173    -5171    -5173    -5175    -5174    -5171 
   -5170    -5174    -5174    -5170    -5173    -5175    -5173    -5170 
   -5175    -5178    -5177    -5171    -5167    -5170    -5174    -5171 
   -5173    -5177    -5175    -5174    -5175    -5173    -5169    -5166 
   -5169    -5175    -5177    -5173    -5174    -5178    -5177    -5173 
   -5171    -5173    -5170    -5170    -5177    -5178    -5174    -5171 
   -5171    -5173    -5173    -5170    -5174    -5177    -5175    -5174 
   -5179    -5178    -5170    -5169    -5174    -5173    -5169    -5171 
   -5175    -5175    -5174    -5173    -5173    -5170    -5170    -5175 
   -5177    -5174    -5173    -5174    -5177    -5173    -5167    -5167 
   -5175    -5178    -5174    -5173    -5173    -5170    -5171    -5175 
   -5175    -5171    -5170    -5174    -5175    -5171    -5170    -5174 
   -5174    -5174    -5174    -5174    -5171    -5170    -5171    -5175 
   -5175    -5171    -5170    -5174    -5177    -5174    -5171    -5171 
   -5173    -5171    -5174    -5177    -5173    -5171    -5175    -5175 
   -5173    -5170    -5170    -5173    -5174    -5174    -5174    -5175 
   -5174    -5170    -5170    -5174    -5171    -5169    -5174    -5179 
   -5174    -5170    -5169    -5171    -5173    -5174    -5174    -5174 
   -5171    -5171    -5175    -5175    -5171    -5173    -5175    -5173 
   -5169    -5163    -5147    -5117    -5073    -5023    -4982    -4949 
   -4928    -4949    -5015    -5152    -5418    -5736    -5971    -6157 
   -6300    -6173    -5675    -5027    -4413    -3942    -3721    -3659 
   -3877    -4602    -5391    -5844    -6142    -6201    -5688    -4968 
   -4882    -5112    -4828    -4666    -5182    -6011    -6736    -6577 
   -5779    -5170    -4488    -4267    -4712    -4518    -3946    -4149 
   -4846    -5233    -5104    -4830    -4812    -5296    -6112    -6539 
   -6066    -5400    -5678    -6007    -5325    -4814    -4668    -4299 
   -4534    -5119    -5186    -5148    -5263    -5483    -5667    -5390 
   -4864    -4557    -4548    -4876    -5294    -5359    -5170    -5185 
   -5381    -5297    -5003    -4901    -4895    -5084    -5764    -6316 
   -6158    -5722    -5259    -4699    -4492    -4631    -4488    -4197 
   -4263    -4619    -5148    -5756    -6022    -6023    -6268    -6372 
   -5806    -5063    -4521    -4104    -4152    -4542    -4621    -4749 
   -5287    -5540    -5545    -5805    -5861    -5726    -5719    -5285 
   -4648    -4708    -5121    -5177    -5007    -4962    -4932    -4845 
   -4961    -4999    -4868    -5169    -5485    -5378    -5471    -5537 
   -5332    -5443    -5455    -5098    -5121    -5309    -5093    -4828 
   -4833    -4970    -5119    -5217    -5128    -4882    -4822    -5007 
   -5193    -5425    -5761    -5871    -5568    -5215    -5146    -5138 
   -4885    -4731    -5036    -5290    -5148    -5097    -5184    -5023 
   -4822    -4853    -5017    -5196    -5227    -5177    -5402    -5755 
   -5737    -5449    -5350    -5352    -5121    -4951    -5082    -5073 
   -4864    -4812    -4909    -5049    -5123    -5136    -5269    -5383 
   -5255    -5003    -4996    -5239    -5162    -4877    -4963    -5242 
   -5526    -5841    -5915    -5719    -5466    -5117    -4715    -4608 
   -4633    -4402    -4428    -4862    -5053    -5201    -5574    -5652 
   -5535    -5568    -5521    -5526    -5827    -5857    -5358    -5024 
   -5053    -4847    -4449    -4390    -4384    -4187    -4504    -5296 
   -5616    -5464    -5377    -5405    -5520    -5805    -6261    -6455 
   -5973    -5239    -4835    -4648    -4317    -3840    -3719    -4255 
   -4892    -5227    -5653    -6170    -6145    -5721    -5557    -5462 
   -5127    -4880    -4833    -4928    -5092    -5058    -5013    -5246 
   -5395    -5165    -4986    -5296    -5514    -5062    -4703    -5055 
   -5363    -5120    -4903    -4969    -5035    -5229    -5601    -5832 
   -5842    -5674    -5363    -4934    -4477    -4405    -4814    -5224 
   -5382    -5455    -5340    -4828    -4398    -4507    -4842    -5158 
   -5479    -5687    -5957    -6408    -6343    -5544    -4841    -4468 
   -4199    -4174    -4392    -4830    -5328    -5609    -5829    -5859 
   -5410    -4926    -4703    -4583    -4756    -5262    -5548    -5518 
   -5584    -5672    -5553    -5328    -5096    -4958    -5020    -5123 
   -5090    -5019    -4962    -4752    -4455    -4533    -4988    -5227 
   -5402    -5910    -6093    -5718    -5509    -5472    -5167    -4784 
   -4711    -4934    -5150    -5174    -5119    -5030    -4745    -4583 
   -4977    -5354    -5304    -5390    -5752    -5836    -5381    -4922 
   -4897    -4969    -5046    -5282    -5493    -5595    -5414    -4881 
   -4426    -4263    -4405    -5027    -5937    -6373    -5980    -5485 
   -5401    -5198    -4534    -3913    -3960    -4529    -4930    -5258 
   -6041    -6771    -6682    -6191    -5922    -5405    -4286    -3465 
   -3595    -4105    -4639    -5348    -5752    -5664    -5733    -5784 
   -5397    -5131    -5262    -5408    -5243    -4816    -4627    -4722 
   -4889    -5317    -5595    -5277    -4981    -5260    -5783    -5929 
   -5575    -5143    -4818    -4499    -4313    -4459    -4835    -5121 
   -5398    -5859    -5984    -5544    -5179    -5089    -5086    -5302 
   -5521    -5336    -4916    -4675    -4776    -5015    -5132    -5275 
   -5348    -4893    -4434    -4835    -5501    -5652    -5738    -6025 
   -6068    -5611    -4806    -4288    -4469    -4819    -4932    -4993 
   -5038    -4984    -5000    -5227    -5574    -5817    -5686    -5285 
   -5058    -5063    -5050    -5004    -5055    -5121    -5044    -4978 
   -5148    -5406    -5431    -5283    -5251    -5235    -5053    -4862 
   -4774    -4895    -5329    -5560    -5294    -5240    -5463    -5236 
   -4899    -4984    -5140    -5224    -5265    -5177    -5197    -5327 
   -5350    -5310    -5310    -5382    -5304    -4978    -4827    -4885 
   -4919    -5175    -5427    -5198    -4969    -5035    -5065    -5020 
   -4885    -4882    -5294    -5568    -5443    -5366    -5413    -5497 
   -5532    -5292    -4923    -4791    -4845    -4891    -4969    -5082 
   -5157    -5224    -5186    -4992    -4939    -5113    -5266    -5479 
   -5841    -6026    -5850    -5513    -5217    -4891    -4549    -4414 
   -4417    -4461    -4722    -5143    -5471    -5607    -5567    -5526 
   -5683    -5726    -5337    -5040    -5070    -4816    -4434    -4621 
   -5039    -5219    -5501    -5865    -5807    -5499    -5335    -5058 
   -4557    -4411    -4793    -5089    -5182    -5359    -5285    -4938 
   -4973    -5293    -5358    -5391    -5651    -5701    -5381    -5155 
   -5070    -4828    -4688    -4710    -4498    -4459    -4924    -5289 
   -5593    -6116    -6380    -6365    -6405    -6380    -6201    -5877 
   -5420    -4965    -4727    -4615    -4145    -3655    -3956    -4491 
   -4581    -4685    -4706    -4203    -3700    -3690    -4174    -5036 
   -5802    -6127    -6273    -6467    -6606    -6713    -6825    -6500 
   -5728    -5201    -4739    -3790    -2883    -2439    -2326    -3080 
   -4954    -6972    -8213    -8241    -7273    -6566    -6677    -6462 
   -5231    -3885    -3102    -2398    -1954    -2816    -4387    -4899 
   -4707    -5622    -7319    -8047    -7596    -6863    -6261    -5930 
   -6212    -6628    -5788    -3709    -2003    -1696    -2708    -3983 
   -4368    -4419    -5188    -5988    -6041    -6062    -6544    -6623 
   -5757    -5054    -5611    -6602    -6569    -5725    -5312    -5225 
   -4440    -3202    -2451    -2301    -2702    -3966    -5867    -7396 
   -7727    -7055    -6102    -5301    -5185    -6100    -6932    -6323 
   -4878    -4018    -3906    -4086    -4337    -4299    -4125    -4453 
   -5112    -5714    -6156    -5849    -4834    -4314    -4700    -5278 
   -5738    -6227    -6450    -6222    -6153    -6444    -6376    -5634 
   -4657    -3973    -3805    -3817    -3535    -3141    -3088    -3246 
   -3534    -4375    -5431    -5903    -6266    -7105    -7801    -8081 
   -8255    -8068    -7173    -5687    -4074    -2992    -2670    -2704 
   -2732    -2698    -2821    -3673    -5355    -6943    -7735    -7959 
   -7677    -6716    -5660    -5259    -5215    -4846    -4275    -3960 
   -3979    -4209    -4348    -4133    -3861    -3862    -3966    -4341 
   -5409    -6596    -7219    -7560    -7668    -7257    -6588    -5892 
   -5213    -4764    -4465    -4199    -4213    -4482    -4430    -3879 
   -3532    -3762    -4010    -3919    -3797    -4106    -5094    -6493 
   -7565    -7859    -7614    -7204    -6713    -6033    -5308    -4896 
   -4656    -4303    -4163    -4287    -4201    -3916    -3670    -3415 
   -3400    -3981    -4734    -5116    -5540    -6474    -7603    -8390 
   -8252    -7128    -5948    -5225    -4839    -4946    -5135    -4656 
   -3883    -3291    -2500    -1819    -2430    -4222    -5713    -6328 
   -6647    -6961    -6995    -6582    -6284    -6462    -6301    -5429 
   -4673    -4368    -4122    -3954    -4172    -4531    -4591    -4486 
   -4409    -4284    -4423    -5247    -6367    -6978    -6832    -6355 
   -6030    -5934    -5940    -5778    -5044    -4028    -3673    -4099 
   -4577    -4857    -5035    -4920    -4494    -4164    -4310    -4803 
   -5115    -5198    -5528    -6066    -6367    -6493    -6654    -6535 
   -6052    -5729    -5647    -5225    -4349    -3604    -3368    -3493 
   -3786    -4055    -4141    -4297    -4807    -5586    -6509    -7385 
   -7813    -7539    -6810    -6112    -5512    -4757    -3892    -3249 
   -3086    -3407    -3974    -4598    -5000    -4895    -4818    -5394 
   -6259    -6939    -7138    -6610    -5728    -4954    -4438    -4411 
   -4669    -4800    -4831    -4602    -4186    -4386    -5184    -5655 
   -5597    -5572    -5810    -5940    -5674    -5366    -5375    -5394 
   -5123    -4785    -4494    -4220    -4156    -4398    -4735    -4996 
   -5274    -5611    -5734    -5656    -5799    -6115    -6168    -6049 
   -6081    -5903    -5058    -4072    -3777    -4021    -4159    -4336 
   -4882    -5243    -5070    -4900    -5085    -5503    -5957    -6382 
   -6751    -6716    -6088    -5293    -4719    -4355    -4035    -3789 
   -3784    -3971    -4351    -4780    -4893    -5046    -5676    -6280 
   -6455    -6374    -6168    -5910    -5645    -5440    -5391    -5292 
   -4900    -4450    -4203    -4063    -4095    -4475    -4958    -5324 
   -5562    -5562    -5374    -5216    -5181    -5228    -5347    -5674 
   -6106    -6235    -5906    -5343    -4868    -4515    -4141    -3885 
   -3987    -4500    -5263    -5908    -6145    -5930    -5478    -5082 
   -4792    -4671    -4868    -5112    -5158    -5398    -5971    -6188 
   -5699    -5044    -4698    -4671    -4888    -5161    -5243    -5140 
   -5013    -4939    -4865    -4780    -4819    -4992    -5159    -5359 
   -5672    -5896    -5908    -5954    -6011    -5711    -5082    -4465 
   -4083    -3970    -3954    -4094    -4642    -5332    -5738    -5919 
   -6007    -5991    -5871    -5629    -5391    -5251    -4978    -4626 
   -4625    -4818    -4741    -4610    -4853    -5301    -5528    -5474 
   -5470    -5649    -5725    -5574    -5414    -5286    -4972    -4533 
   -4306    -4337    -4450    -4672    -5158    -5871    -6434    -6507 
   -6219    -5805    -5244    -4561    -3940    -3703    -4071    -4639 
   -5028    -5466    -5867    -5941    -5863    -5622    -5128    -4799 
   -4881    -5108    -5277    -5478    -5709    -5698    -5406    -5111 
   -4942    -4841    -4773    -4789    -4854    -4827    -4654    -4506 
   -4707    -5185    -5460    -5556    -5759    -5813    -5599    -5486 
   -5574    -5709    -5760    -5549    -5200    -5019    -4851    -4444 
   -4059    -4068    -4360    -4526    -4557    -4904    -5641    -6286 
   -6628    -6745    -6512    -5941    -5250    -4523    -4025    -3990 
   -4164    -4372    -4702    -5089    -5435    -5656    -5686    -5634 
   -5605    -5514    -5310    -5113    -5081    -5246    -5458    -5458 
   -5162    -4779    -4564    -4521    -4591    -4899    -5308    -5441 
   -5387    -5435    -5499    -5510    -5563    -5568    -5405    -5107 
   -4700    -4369    -4430    -4788    -5127    -5364    -5490    -5548 
   -5566    -5432    -5273    -5300    -5327    -5219    -5225    -5346 
   -5198    -4839    -4734    -4915    -5077    -5136    -5181    -5273 
   -5294    -5071    -4843    -4995    -5367    -5593    -5687    -5714 
   -5491    -5104    -4877    -4814    -4826    -4953    -5111    -5240 
   -5317    -5201    -4911    -4619    -4437    -4468    -4795    -5250 
   -5559    -5714    -5864    -6025    -6080    -5915    -5567    -5246 
   -5051    -4862    -4666    -4602    -4621    -4638    -4766    -4992 
   -5159    -5213    -5128    -5005    -4982    -5019    -5179    -5524 
   -5845    -6021    -6034    -5888    -5660    -5269    -4749    -4484 
   -4538    -4540    -4422    -4449    -4661    -4974    -5260    -5327 
   -5393    -5710    -5859    -5593    -5368    -5378    -5344    -5229 
   -5251    -5478    -5697    -5580    -5148    -4706    -4298    -3954 
   -3958    -4283    -4662    -5134    -5703    -6126    -6336    -6378 
