Origin Time       2025/03/31 16:51:00
Lat.              27.443
Long.             128.673
Depth. (km)       42
Mag.              3.7
Station Code      KGS034
Station Lat.      27.3340
Station Long.     128.5743
Station Height(m) 24
Record Time       2025/03/31 16:51:38
Sampling Freq(Hz) 100Hz
Duration Time(s)  60
Dir.              U-D
Scale Factor      3920(gal)/6182761
Max. Acc. (gal)   2.305
Last Correction   2025/03/31 16:51:38
Memo.             
[...]
   22219    22219    22208    22219    22233    22212    22211    22230 
   22219    22213    22223    22219    22215    22223    22218    22209 
   22222    22227    22215    22219    22217    22212    22234    22227 
   22196    22213    22233    22217    22217    22226    22215    22216 
   22222    22213    22220    22229    22215    22214    22219    22214 
   22220    22228    22214    22210    22222    22220    22220    22224 
   22210    22209    22226    22226    22216    22214    22220    22226 
   22221    22211    22215    22227    22224    22215    22216    22218 
   22220    22225    22218    22214    22220    22216    22215    22221 
   22217    22218    22220    22213    22220    22225    22215    22217 
   22222    22220    22221    22216    22213    22222    22221    22215 
   22222    22223    22216    22217    22220    22218    22222    22221 
   22213    22219    22222    22215    22220    22223    22216    22218 
   22218    22217    22221    22217    22217    22216    22214    22222 
   22221    22213    22218    22220    22217    22218    22218    22224 
   22222    22213    22216    22222    22220    22220    22216    22215 
   22224    22226    22215    22211    22221    22223    22217    22219 
   22219    22223    22225    22207    22206    22227    22228    22220 
   22213    22206    22220    22237    22227    22201    22202    22233 
   22237    22215    22205    22209    22226    22235    22219    22206 
   22209    22226    22235    22217    22208    22214    22214    22226 
   22232    22209    22202    22223    22235    22216    22197    22219 
   22244    22220    22197    22211    22232    22243    22215    22183 
   22216    22252    22233    22203    22194    22219    22247    22231 
   22197    22200    22229    22238    22219    22203    22205    22224 
   22236    22222    22213    22210    22213    22227    22230    22217 
   22208    22212    22229    22228    22213    22216    22225    22216 
   22209    22219    22232    22228    22209    22206    22215    22232 
   22235    22208    22203    22226    22228    22221    22218    22211 
   22219    22227    22221    22218    22213    22216    22227    22223 
   22214    22217    22218    22219    22225    22225    22214    22209 
   22220    22228    22223    22212    22209    22219    22226    22223 
   22217    22210    22212    22221    22228    22222    22207    22210 
   22230    22225    22208    22212    22225    22227    22212    22205 
   22220    22235    22225    22196    22209    22242    22223    22207 
   22213    22216    22230    22220    22208    22225    22221    22210 
   22221    22220    22214    22221    22222    22214    22216    22222 
   22219    22212    22217    22229    22220    22204    22220    22229 
   22214    22216    22219    22217    22228    22218    22205    22222 
   22234    22220    22207    22216    22222    22225    22232    22209 
   22204    22236    22229    22203    22202    22223    22246    22214 
   22187    22234    22245    22193    22202    22247    22226    22198 
   22221    22232    22213    22204    22216    22231    22221    22210 
   22220    22221    22218    22215    22216    22233    22218    22201 
   22233    22230    22204    22218    22221    22219    22222    22215 
   22225    22220    22203    22217    22223    22221    22230    22210 
   22195    22239    22247    22183    22197    22264    22233    22192 
   22203    22217    22247    22234    22193    22210    22224    22224 
   22238    22212    22191    22219    22236    22221    22217    22224 
   22209    22199    22219    22237    22226    22200    22212    22239 
   22219    22195    22208    22233    22239    22215    22195    22211 
   22241    22229    22195    22202    22223    22236    22243    22209 
   22196    22215    22216    22231    22230    22207    22221    22221 
   22205    22219    22230    22224    22212    22209    22221    22226 
   22222    22212    22209    22224    22231    22220    22209    22210 
   22218    22229    22228    22209    22201    22221    22234    22219 
   22206    22215    22224    22225    22220    22210    22213    22225 
   22218    22209    22220    22233    22225    22200    22205    22231 
   22229    22221    22216    22203    22217    22234    22220    22211 
   22216    22222    22222    22217    22217    22214    22213    22225 
   22224    22215    22214    22215    22221    22221    22212    22218 
   22226    22219    22214    22219    22226    22221    22212    22219 
   22222    22213    22221    22231    22213    22203    22220    22228 
   22221    22220    22218    22210    22210    22224    22229    22218 
   22212    22217    22221    22219    22218    22220    22220    22213 
   22221    22234    22219    22200    22214    22232    22217    22209 
   22230    22226    22202    22204    22218    22238    22228    22196 
   22221    22237    22201    22205    22236    22236    22213    22204 
   22216    22226    22226    22211    22222    22241    22201    22176 
   22233    22280    22228    22148    22164    22265    22308    22218 
   22134    22176    22255    22274    22216    22178    22228    22256 
   22202    22158    22219    22299    22240    22159    22187    22244 
   22252    22202    22183    22247    22261    22184    22167    22259 
   22296    22193    22113    22206    22344    22275    22102    22155 
   22295    22262    22185    22179    22236    22269    22194    22161 
   22245    22278    22204    22152    22209    22301    22268    22143 
   22142    22248    22292    22251    22170    22155    22242    22268 
   22210    22204    22216    22195    22213    22260    22241    22180 
   22181    22234    22240    22207    22218    22244    22225    22192 
   22179    22215    22275    22256    22182    22181    22223    22236 
   22235    22217    22190    22207    22242    22232    22205    22217 
   22231    22208    22200    22232    22246    22219    22187    22197 
   22243    22253    22219    22189    22192    22228    22243    22230 
   22207    22188    22218    22247    22232    22214    22199    22198 
   22222    22246    22238    22204    22195    22225    22241    22218 
   22190    22201    22254    22241    22179    22217    22251    22202 
   22189    22220    22243    22231    22205    22205    22209    22238 
   22249    22194    22181    22239    22256    22201    22187    22234 
   22231    22209    22233    22237    22198    22166    22208    22289 
   22267    22171    22149    22211    22273    22273    22202    22148 
   22198    22258    22245    22236    22222    22158    22172    22266 
   22272    22223    22189    22160    22216    22279    22241    22218 
   22215    22170    22159    22246    22335    22245    22109    22166 
   22265    22268    22228    22177    22201    22246    22215    22222 
   22240    22206    22198    22210    22240    22257    22219    22174 
   22171    22245    22297    22228    22171    22174    22198    22263 
   22260    22201    22219    22221    22175    22207    22264    22245 
   22205    22200    22208    22221    22239    22229    22195    22200 
   22247    22248    22198    22186    22219    22242    22245    22221 
   22187    22194    22225    22244    22243    22213    22188    22209 
   22241    22236    22211    22210    22219    22216    22220    22223 
   22220    22219    22214    22215    22219    22220    22222    22223 
   22222    22220    22216    22205    22211    22244    22237    22203 
   22209    22211    22210    22242    22239    22204    22205    22212 
   22211    22225    22231    22235    22235    22193    22182    22223 
   22224    22239    22261    22193    22166    22227    22254    22228 
   22193    22208    22237    22228    22217    22195    22199    22248 
   22255    22204    22175    22213    22243    22224    22210    22223 
   22231    22212    22200    22214    22203    22201    22269    22288 
   22175    22132    22233    22255    22200    22234    22265    22205 
   22184    22205    22188    22220    22294    22274    22167    22128 
   22213    22276    22249    22214    22199    22207    22223    22215 
   22209    22214    22226    22243    22222    22187    22203    22235 
   22225    22211    22224    22223    22200    22205    22238    22220 
   22190    22241    22251    22185    22194    22235    22229    22229 
   22224    22200    22201    22226    22235    22215    22205    22224 
   22229    22210    22210    22225    22222    22218    22224    22211 
   22214    22230    22218    22209    22210    22218    22233    22222 
   22211    22214    22209    22221    22231    22212    22213    22227 
   22216    22207    22222    22236    22213    22191    22223    22244 
   22225    22215    22197    22204    22243    22233    22211    22212 
   22204    22224    22234    22209    22218    22222    22210    22219 
   22218    22219    22224    22210    22218    22224    22208    22220 
   22229    22211    22211    22230    22225    22210    22216    22214 
   22218    22230    22211    22212    22231    22242    22351    22557 
   22749    22862    22742    22460    22524    22991    22902    21547 
   20045    20119    21292    22089    22468    22584    22354    21470 
   21039    22905    23564    21920    21704    21586    22329    23488 
   22124    22733    23726    22098    22046    22237    21907    22172 
   22159    22770    22701    21644    21421    22045    22583    22375 
   22459    22414    21398    20860    21819    23528    23808    22694 
   21862    21426    21493    22048    22524    22327    21837    22305 
   22936    22383    21460    21251    22240    23642    23129    21349 
   21354    22309    22223    22252    23019    23184    22033    21255 
   22269    22621    21881    22613    22982    21663    21440    21981 
   21563    22047    23386    22802    21745    22121    22058    21593 
   21984    22670    22999    22540    22031    21906    21967    22590 
   22370    21607    22233    22722    22231    21822    21959    22728 
   22747    22291    22447    21839    21368    21890    22245    22840 
   22588    21832    22574    22616    21401    21360    22110    22700 
   23051    22717    22157    21898    21910    22055    21977    22110 
   22645    22751    22192    21628    21663    22310    22584    22103 
   22319    22179    21290    22422    23335    22562    22362    21540 
   21120    22528    22946    22215    22058    22660    22988    22208 
   22111    22599    21666    20905    21560    22900    23721    22571 
   21196    21109    21331    22137    23290    23487    22506    21465 
   21633    22234    22452    22641    22334    21916    22175    22592 
   22558    21983    21793    22084    22151    22601    23051    22231 
   21198    21582    22631    23358    23492    21999    20152    20723 
   22370    22877    22552    21560    21139    22428    24146    24818 
   23039    20257    20057    22050    23481    22859    21627    21516 
   21555    21955    23099    23701    23194    21697    21040    21809 
   21937    22027    22234    21890    22548    22787    22136    22358 
   22359    22275    22246    22209    22684    22076    21558    22058 
   21701    21729    22612    22523    21745    21485    22044    22693 
   23143    23307    22217    21277    22034    22517    22696    23273 
   21936    20421    21685    22882    22737    22508    22335    22815 
   22608    21961    22601    22125    20983    21711    22476    22560 
   22690    22293    21733    21613    21897    22394    22534    22103 
   21716    21934    22516    22865    22761    22235    21601    21552 
   22406    23226    22981    22019    21197    21458    22405    22495 
   22252    22399    22565    22761    22848    22501    21112    20200 
   22092    23933    22957    21933    22163    21850    21574    22674 
   23327    22162    21415    21883    21954    22042    22515    22223 
   21668    21942    22650    22847    22250    22326    23015    22026 
   21172    22415    22898    22031    21702    22071    22998    23235 
   21919    21036    21321    21846    22503    22645    22300    22386 
   22352    22332    23087    23269    22151    20935    20770    22155 
   23371    22539    21477    22013    22229    21371    21889    23145 
   22887    22162    22006    22515    22942    22250    21963    22346 
   22072    21810    22009    22671    23101    22661    22490    22225 
   21096    20597    21975    23441    22759    21786    21996    21837 
   21443    22097    23104    22693    21766    22030    22081    21813 
   22560    22953    22322    21865    21873    22046    22405    23011 
   23023    22024    21299    21642    22448    23024    23154    22097 
   20714    21668    23106    22658    22150    21713    21380    22178 
   23114    23579    23068    21611    21037    21720    22554    22790 
   22244    21522    21245    21700    22374    22715    23147    22803 
   21455    21510    22803    23110    22427    21484    21594    22874 
   22568    21351    21786    22317    22060    22220    22852    23079 
   22303    21929    22413    22295    21905    21886    22086    22011 
   21606    22259    23516    23349    21906    20696    20845    22296 
   23175    22479    21740    21921    22594    23181    23329    22835 
   21396    20450    21535    23192    23509    22402    21756    22362 
   22005    21139    22100    23666    24078    23047    21707    21436 
   21019    20758    21890    22529    22500    22856    22933    22334 
   20440    18583    20061    23758    25160    23468    21626    21322 
   21761    22072    22485    22548    21989    22416    23716    23975 
   22741    20989    21180    23794    24910    22857    20686    20203 
   20974    22036    22155    22505    23639    23259    22027    21614 
   20851    19642    20392    23474    24993    23436    21668    21231 
   21862    22509    22587    22210    21431    21720    23148    23717 
   23297    22402    21311    21151    21734    22092    22564    23047 
   22945    22473    22071    21669    21396    21625    21928    22945 
   24222    23079    21176    21052    21007    21061    22855    24251 
   22793    21123    21663    22366    22157    22029    22573    23092 
   22240    21775    22851    22725    21289    20958    21887    22525 
   22271    21946    21660    21580    22400    23209    22590    21442 
   21721    22784    23442    23760    22950    21378    20722    21337 
   22391    22728    22622    22631    22190    21989    22112    21617 
   21903    22779    22085    21253    22148    23243    22830    21778 
   21538    22004    22546    22589    22419    22760    23110    22644 
   21639    21540    22144    21911    21623    22012    22406    22644 
   22559    22310    22120    21946    22062    21990    21701    22244 
   23176    23210    22291    21706    22263    22868    22741    22327 
   21905    21682    21986    22457    22296    21876    21729    21552 
   21649    22113    22408    22423    21984    21820    22738    22901 
   21750    21589    22188    22515    23034    22972    22542    22157 
   21165    21381    22855    22815    21800    21455    21623    21868 
   22059    22880    23596    22512    21496    22271    22767    22274 
   22158    22319    22380    22507    22259    21909    22347    22817 
   22278    21893    22573    22585    21522    21579    22468    22059 
   21028    21176    22145    22571    22405    22599    23094    22884 
   22280    22196    21952    21427    21628    22111    22408    22872 
   23013    22547    22047    21773    21654    21915    22490    22523 
   22009    21787    22111    22590    22454    22106    22179    21966 
   21848    22412    22818    22777    22436    22169    22354    22562 
   22540    22207    21973    22146    22149    22342    22561    22195 
   22166    22145    21534    21512    22063    22038    21718    22053 
   22550    22436    22408    22660    22375    21815    21779    22241 
   22402    21961    22011    22571    22437    22255    22606    22315 
   21607    21773    22324    22363    22167    22099    22284    22457 
   22159    21974    22260    22386    22412    22649    22796    22467 
   21859    21687    22038    22445    22571    22400    22224    22070 
   21921    22065    22433    22460    22067    21863    22141    22497 
   22437    22115    21974    22177    22453    22202    21774    21771 
   21811    22071    22837    23140    22701    22307    21839    21600 
   22452    23291    23033    22322    21926    22039    22135    21926 
   21793    21860    21980    22099    22268    22273    22029    21768 
   21613    22036    22770    22740    22427    22430    22194    21896 
   22009    22320    22349    22096    22099    22176    22125    22290 
   22387    22061    21678    21813    22317    22480    22560    23003 
   23002    22137    21364    21486    22179    22610    22483    22255 
   22298    22252    22089    22443    22924    22434    21496    21760 
   22635    22389    22061    22897    23487    22731    21569    21190 
   21497    21828    22277    22841    22587    21520    21076    21598 
   22088    22257    22545    22753    22464    22226    22368    22330 
   22115    22151    22447    22723    22640    22293    22059    21952 
   21989    22305    22505    22237    21977    21911    21893    22255 
   22646    22446    22032    22028    22433    22223    21534    21963 
   22531    22020    22007    22726    22893    22387    21844    21809 
   21929    21997    22265    22302    22286    22671    22729    22097 
   21656    21913    22102    22090    22629    22907    22190    21755 
   22025    22295    22616    22734    22408    22047    21882    22105 
   22301    22182    22267    22440    22244    21854    22060    22504 
   22096    21757    22103    22233    22008    21866    22362    22867 
   22451    22121    22161    21826    21628    22045    22633    22729 
   22504    22416    22071    21725    21945    22304    22486    22406 
   22174    22163    22333    22462    22369    22206    22234    22163 
   22146    22442    22380    21949    21890    22245    22592    22492 
   22126    22152    22409    22365    22063    21905    22188    22342 
   22015    22201    22739    22522    22066    21984    22087    22301 
   22339    22192    22159    21976    21693    22018    22784    22841 
   22001    21535    21877    22062    22007    22319    22674    22545 
   22145    22104    22298    22031    21850    22301    22524    22389 
   22396    22251    21907    21813    22220    22718    22453    21897 
   21972    22157    22141    22197    22185    22233    22421    22575 
   22731    22596    21934    21466    21909    22634    22624    22124 
   21900    21940    22079    22423    22562    22237    22078    22217 
   22304    22442    22495    22284    22128    22156    22315    22457 
   22128    21579    21743    22417    22679    22526    22300    21912 
   21609    21876    22364    22553    22527    22184    21841    22028 
   22170    22225    22489    22301    21905    21907    22052    22303 
   22598    22659    22473    22201    22028    21959    22083    22356 
   22467    22498    22530    22362    22078    21916    22025    22259 
   22275    22067    21967    22118    22222    22272    22577    22656 
   22202    22035    22297    22235    21951    22137    22594    22454 
