Origin Time       2025/03/30 10:46:00
Lat.              32.923
Long.             130.372
Depth. (km)       11
Mag.              3.4
Station Code      FKO015
Station Lat.      33.1629
Station Long.     130.4052
Station Height(m) 3
Record Time       2025/03/30 10:46:30
Sampling Freq(Hz) 100Hz
Duration Time(s)  60
Dir.              N-S
Scale Factor      7845(gal)/8223790
Max. Acc. (gal)   4.464
Last Correction   2025/03/30 10:46:30
Memo.             
[...]
  -10422   -10431   -10412   -10396   -10390   -10382   -10397   -10422 
  -10419   -10404   -10405   -10415   -10422   -10422   -10417   -10407 
  -10393   -10396   -10404   -10392   -10384   -10390   -10395   -10401 
  -10404   -10384   -10368   -10377   -10399   -10431   -10436   -10411 
  -10401   -10413   -10426   -10431   -10415   -10389   -10392   -10401 
  -10393   -10392   -10400   -10407   -10423   -10426   -10405   -10388 
  -10378   -10393   -10413   -10409   -10412   -10413   -10395   -10384 
  -10386   -10396   -10405   -10401   -10403   -10403   -10397   -10404 
  -10404   -10401   -10412   -10409   -10392   -10393   -10399   -10400 
  -10403   -10407   -10422   -10430   -10431   -10427   -10409   -10393 
  -10396   -10400   -10392   -10385   -10382   -10389   -10401   -10407 
  -10407   -10407   -10415   -10415   -10396   -10386   -10404   -10415 
  -10405   -10397   -10393   -10390   -10392   -10397   -10397   -10401 
  -10420   -10426   -10411   -10404   -10413   -10405   -10384   -10376 
  -10370   -10378   -10403   -10423   -10428   -10424   -10417   -10416 
  -10415   -10411   -10405   -10403   -10405   -10404   -10399   -10393 
  -10382   -10376   -10386   -10408   -10417   -10409   -10395   -10401 
  -10411   -10407   -10411   -10407   -10389   -10380   -10384   -10396 
  -10404   -10401   -10405   -10409   -10395   -10381   -10390   -10415 
  -10435   -10427   -10396   -10376   -10392   -10412   -10408   -10404 
  -10401   -10381   -10369   -10381   -10397   -10413   -10422   -10412 
  -10396   -10396   -10405   -10408   -10408   -10412   -10420   -10419 
  -10400   -10393   -10400   -10397   -10397   -10408   -10417   -10426 
  -10427   -10415   -10405   -10405   -10404   -10393   -10392   -10400 
  -10396   -10396   -10403   -10396   -10392   -10397   -10401   -10403 
  -10409   -10422   -10424   -10413   -10407   -10408   -10396   -10380 
  -10378   -10389   -10399   -10397   -10395   -10396   -10403   -10413 
  -10416   -10401   -10396   -10401   -10395   -10390   -10399   -10405 
  -10412   -10419   -10428   -10427   -10411   -10403   -10404   -10411 
  -10427   -10434   -10422   -10401   -10388   -10389   -10388   -10386 
  -10400   -10400   -10381   -10390   -10412   -10409   -10403   -10396 
  -10385   -10390   -10419   -10439   -10435   -10409   -10381   -10376 
  -10386   -10396   -10400   -10389   -10381   -10407   -10424   -10417 
  -10412   -10403   -10392   -10405   -10420   -10408   -10393   -10397 
  -10413   -10423   -10420   -10407   -10392   -10400   -10426   -10428 
  -10412   -10400   -10393   -10397   -10400   -10397   -10400   -10397 
  -10399   -10413   -10424   -10424   -10423   -10413   -10409   -10413 
  -10405   -10396   -10400   -10409   -10422   -10412   -10388   -10384 
  -10384   -10373   -10380   -10385   -10386   -10408   -10419   -10408 
  -10399   -10389   -10386   -10397   -10412   -10434   -10436   -10405 
  -10386   -10397   -10405   -10422   -10446   -10435   -10416   -10416 
  -10412   -10396   -10386   -10389   -10392   -10392   -10393   -10390 
  -10384   -10389   -10403   -10405   -10407   -10408   -10404   -10408 
  -10413   -10401   -10396   -10411   -10423   -10419   -10405   -10393 
  -10385   -10373   -10372   -10382   -10377   -10372   -10395   -10415 
  -10408   -10401   -10416   -10434   -10431   -10422   -10417   -10407 
  -10396   -10397   -10393   -10395   -10415   -10434   -10435   -10415 
  -10385   -10372   -10374   -10388   -10400   -10393   -10399   -10420 
  -10415   -10397   -10393   -10382   -10376   -10395   -10413   -10426 
  -10439   -10431   -10416   -10409   -10388   -10373   -10389   -10395 
  -10390   -10409   -10417   -10405   -10403   -10389   -10376   -10395 
  -10403   -10395   -10412   -10409   -10389   -10397   -10399   -10389 
  -10392   -10404   -10428   -10431   -10393   -10370   -10382   -10393 
  -10411   -10426   -10417   -10408   -10412   -10422   -10416   -10403 
  -10415   -10435   -10435   -10427   -10405   -10373   -10354   -10346 
  -10339   -10347   -10370   -10390   -10405   -10423   -10443   -10447 
  -10428   -10417   -10413   -10397   -10388   -10405   -10422   -10422 
  -10417   -10405   -10395   -10399   -10385   -10357   -10368   -10404 
  -10417   -10427   -10442   -10431   -10411   -10404   -10397   -10392 
  -10396   -10405   -10413   -10408   -10382   -10369   -10380   -10380 
  -10388   -10432   -10450   -10422   -10393   -10381   -10385   -10396 
  -10405   -10408   -10403   -10397   -10390   -10400   -10412   -10404 
  -10405   -10412   -10400   -10382   -10373   -10378   -10400   -10397 
  -10378   -10382   -10409   -10430   -10439   -10447   -10450   -10424 
  -10369   -10334   -10365   -10420   -10427   -10409   -10428   -10446 
  -10420   -10403   -10404   -10392   -10378   -10374   -10389   -10432 
  -10447   -10422   -10396   -10373   -10354   -10376   -10412   -10415 
  -10416   -10423   -10380   -10339   -10370   -10405   -10395   -10376 
  -10366   -10368   -10401   -10451   -10478   -10478   -10459   -10415 
  -10378   -10368   -10378   -10409   -10432   -10419   -10376   -10341 
  -10363   -10423   -10454   -10449   -10439   -10413   -10369   -10359 
  -10399   -10426   -10422   -10423   -10417   -10386   -10389   -10416 
  -10401   -10389   -10384   -10374   -10397   -10405   -10389   -10401 
  -10408   -10413   -10427   -10432   -10454   -10439   -10385   -10369 
  -10366   -10366   -10396   -10404   -10385   -10372   -10359   -10366 
  -10390   -10407   -10447   -10515   -10527   -10465   -10404   -10370 
  -10330   -10322   -10377   -10426   -10430   -10422   -10440   -10440 
  -10409   -10409   -10404   -10368   -10362   -10390   -10431   -10447 
  -10419   -10380   -10358   -10369   -10386   -10384   -10380   -10396 
  -10411   -10382   -10358   -10403   -10461   -10484   -10481   -10424 
  -10335   -10292   -10326   -10385   -10426   -10458   -10484   -10485 
  -10469   -10436   -10400   -10358   -10282   -10237   -10289   -10377 
  -10476   -10567   -10547   -10447   -10377   -10331   -10330   -10393 
  -10439   -10416   -10357   -10345   -10396   -10447   -10469   -10457 
  -10422   -10407   -10407   -10405   -10407   -10392   -10359   -10347 
  -10388   -10455   -10508   -10494   -10400   -10293   -10251   -10300 
  -10423   -10524   -10543   -10485   -10372   -10287   -10296   -10362 
  -10439   -10484   -10458   -10376   -10291   -10289   -10396   -10525 
  -10578   -10525   -10401   -10284   -10235   -10269   -10369   -10470 
  -10508   -10497   -10455   -10393   -10365   -10370   -10372   -10362 
  -10366   -10403   -10447   -10477   -10478   -10417   -10324   -10287 
  -10309   -10370   -10466   -10538   -10521   -10457   -10388   -10331 
  -10309   -10338   -10403   -10455   -10457   -10416   -10365   -10350 
  -10381   -10411   -10419   -10420   -10411   -10400   -10385   -10359 
  -10359   -10390   -10413   -10422   -10426   -10419   -10416   -10440 
  -10462   -10442   -10390   -10339   -10308   -10328   -10401   -10463 
  -10481   -10469   -10435   -10396   -10376   -10381   -10384   -10381 
  -10392   -10404   -10399   -10386   -10386   -10393   -10381   -10377 
  -10403   -10428   -10436   -10443   -10447   -10434   -10417   -10408 
  -10396   -10378   -10361   -10339   -10341   -10393   -10449   -10455 
  -10436   -10416   -10390   -10376   -10386   -10397   -10403   -10415 
  -10420   -10420   -10420   -10423   -10438   -10430   -10390   -10369 
  -10374   -10374   -10373   -10381   -10397   -10413   -10420   -10411 
  -10401   -10395   -10381   -10378   -10399   -10426   -10439   -10440 
  -10436   -10417   -10397   -10389   -10376   -10374   -10401   -10416 
  -10417   -10423   -10412   -10392   -10386   -10393   -10408   -10408 
  -10395   -10392   -10381   -10377   -10397   -10412   -10413   -10400 
  -10382   -10385   -10392   -10403   -10430   -10431   -10405   -10395 
  -10405   -10419   -10428   -10420   -10401   -10388   -10393   -10409 
  -10412   -10411   -10428   -10434   -10403   -10374   -10370   -10382 
  -10412   -10427   -10404   -10389   -10396   -10408   -10422   -10408 
  -10381   -10376   -10378   -10386   -10408   -10416   -10405   -10408 
  -10422   -10413   -10395   -10403   -10407   -10393   -10393   -10400 
  -10405   -10422   -10427   -10412   -10403   -10400   -10385   -10378 
  -10407   -10439   -10428   -10405   -10405   -10397   -10378   -10382 
  -10396   -10404   -10413   -10409   -10390   -10374   -10373   -10390 
  -10413   -10427   -10423   -10407   -10404   -10416   -10417   -10400 
  -10385   -10384   -10390   -10407   -10415   -10404   -10396   -10407 
  -10427   -10431   -10409   -10399   -10401   -10401   -10405   -10401 
  -10403   -10415   -10419   -10412   -10382   -10351   -10376   -10417 
  -10435   -10451   -10450   -10412   -10378   -10372   -10370   -10377 
  -10397   -10409   -10419   -10438   -10447   -10430   -10395   -10358 
  -10343   -10377   -10424   -10435   -10432   -10426   -10411   -10393 
  -10373   -10373   -10393   -10396   -10396   -10411   -10403   -10384 
  -10382   -10386   -10384   -10382   -10396   -10411   -10419   -10440 
  -10453   -10432   -10411   -10404   -10395   -10388   -10390   -10405 
  -10419   -10423   -10413   -10392   -10390   -10412   -10411   -10397 
  -10395   -10388   -10392   -10405   -10411   -10401   -10388   -10392 
  -10399   -10377   -10363   -10411   -10451   -10335   -10241   -10484 
  -10660   -10358   -10230   -10492   -10454   -10308   -10397   -10393 
  -10455   -10535   -10389   -10374   -10346   -10343   -10615   -10388 
  -10060   -10574   -10667   -10073   -10376   -10806   -10255   -10095 
  -10554   -10438   -10223   -10484   -10589   -10384   -10305   -10536 
  -10565   -10116   -10125   -10656   -10632   -10297   -10354   -10422 
  -10234   -10258   -10588   -10612   -10301   -10235   -10385   -10531 
  -10606   -10388   -10188   -10405   -10611   -10463   -10215   -10281 
  -10561   -10488   -10314   -10442   -10454   -10230   -10196   -10551 
  -10737   -10393   -10237   -10403   -10390   -10395   -10439   -10332 
  -10316   -10530   -10650   -10346   -10130   -10416   -10524   -10281 
  -10315   -10570   -10480   -10169   -10347   -10693   -10501   -10292 
  -10322   -10269   -10392   -10579   -10512   -10434   -10374   -10208 
  -10191   -10442   -10652   -10538   -10261   -10331   -10638   -10540 
  -10234   -10264   -10428   -10354   -10200   -10318   -10551   -10515 
  -10404   -10517   -10596   -10474   -10345   -10323   -10377   -10401 
  -10388   -10350   -10338   -10455   -10478   -10297   -10265   -10473 
  -10600   -10469   -10361   -10458   -10440   -10322   -10393   -10450 
  -10385   -10384   -10424   -10436   -10349   -10260   -10350   -10440 
  -10469   -10555   -10497   -10289   -10273   -10420   -10451   -10430 
  -10503   -10470   -10233   -10146   -10403   -10584   -10484   -10378 
  -10299   -10264   -10374   -10486   -10497   -10438   -10427   -10511 
  -10503   -10372   -10277   -10260   -10349   -10493   -10505   -10446 
  -10462   -10466   -10407   -10395   -10442   -10390   -10331   -10444 
  -10447   -10273   -10307   -10430   -10363   -10273   -10269   -10330 
  -10416   -10451   -10488   -10493   -10447   -10474   -10442   -10374 
  -10516   -10592   -10390   -10301   -10396   -10335   -10243   -10428 
  -10619   -10477   -10293   -10304   -10328   -10388   -10562   -10642 
  -10511   -10293   -10181   -10212   -10299   -10442   -10536   -10469 
  -10388   -10388   -10376   -10373   -10404   -10328   -10315   -10606 
  -10806   -10573   -10242   -10185   -10282   -10312   -10327   -10361 
  -10345   -10308   -10381   -10573   -10598   -10392   -10316   -10412 
  -10392   -10307   -10323   -10405   -10459   -10435   -10392   -10409 
  -10508   -10566   -10380   -10200   -10343   -10508   -10434   -10323 
  -10401   -10515   -10426   -10365   -10453   -10434   -10416   -10478 
  -10435   -10309   -10199   -10181   -10231   -10276   -10480   -10766 
  -10735   -10498   -10424   -10373   -10277   -10403   -10498   -10314 
  -10331   -10432   -10162   -10110   -10388   -10444   -10457   -10482 
  -10459   -10540   -10482   -10301   -10291   -10261   -10179   -10400 
  -10628   -10434   -10392   -10551   -10260   -10091   -10481   -10652 
  -10409   -10289   -10486   -10652   -10521   -10408   -10546   -10627 
  -10401   -10206   -10303   -10373   -10376   -10395   -10281   -10303 
  -10471   -10373   -10228   -10403   -10558   -10417   -10411   -10647 
  -10609   -10219    -9973   -10273   -10575   -10141    -9880   -10566 
  -11041   -10651   -10242   -10368   -10542   -10300   -10053   -10292 
  -10763   -10810   -10400   -10288   -10561   -10581   -10386   -10262 
  -10152   -10154   -10258   -10380   -10636   -10728   -10345   -10056 
  -10223   -10354   -10366   -10395   -10297   -10300   -10455   -10530 
  -10573   -10563   -10450   -10342   -10385   -10528   -10547   -10516 
  -10480   -10208   -10034   -10351   -10585   -10435   -10411   -10527 
  -10436   -10261   -10308   -10550   -10708   -10524   -10154   -10141 
  -10442   -10534   -10465   -10531   -10539   -10315   -10270   -10552 
  -10639   -10346   -10169   -10378   -10574   -10548   -10511   -10444 
  -10242   -10030   -10142   -10469   -10439   -10210   -10210   -10361 
  -10503   -10438   -10250   -10138    -9938    -9710    -9840   -10400 
  -10952   -11171   -11194   -11229   -11489   -11815   -11572   -10852 
  -10212    -9659    -9084    -8347    -7580    -7271    -7379    -7780 
   -8507    -9486   -10824   -12235   -13132   -13678   -14357   -14998 
  -15083   -14413   -13163   -11762   -10486    -9333    -8518    -8029 
   -7528    -7352    -7900    -8741    -9535   -10498   -11507   -11850 
  -11368   -10665    -9952    -9127    -8324    -7701    -7647    -8483 
   -9780   -10978   -11827   -12228   -12542   -12881   -12609   -11695 
  -10840   -10459   -10388   -10035    -9428    -9224    -9382    -9396 
   -9343    -9829   -10781   -11322   -11337   -11456   -11643   -11160 
  -10116    -9607    -9570    -9223    -8970    -9297    -9841   -10147 
  -10065   -10137   -10746   -11149   -11284   -11727   -11954   -11693 
  -11570   -11708   -11603   -10949   -10089    -9575    -9672   -10037 
   -9994    -9659    -9552    -9695   -10019   -10338   -10308    -9913 
   -9316    -8892    -9178    -9929   -10349   -10388   -10408   -10440 
  -10588   -10947   -11207   -11099   -10851   -10899   -11313   -11495 
  -11041   -10509   -10295   -10181   -10288   -10648   -10766   -10555 
  -10305   -10093   -10030   -10079   -10130   -10417   -10797   -10909 
  -11052   -11302   -11182   -10733   -10264    -9821    -9593    -9626 
   -9545    -9229    -9107    -9396    -9945   -10557   -10763   -10417 
  -10088    -9991    -9917    -9768    -9629    -9786   -10343   -11092 
  -11715   -11989   -11917   -11564   -11233   -11326   -11584   -11496 
  -11137   -10739   -10305    -9846    -9548    -9574    -9683    -9720 
  -10060   -10682   -10929   -10655   -10224    -9740    -9333    -9252 
   -9433    -9672    -9780    -9772    -9972   -10400   -10720   -10814 
  -10787   -10762   -10926   -11280   -11458   -11260   -10841   -10345 
   -9992   -10010   -10284   -10492   -10494   -10530   -10643   -10579 
  -10542   -10714   -10777   -10832   -11165   -11338   -10979   -10459 
  -10072    -9549    -8853    -8403    -8356    -8648    -9157    -9699 
  -10250   -10606   -10756   -11161   -11649   -11731   -11549   -11345 
  -11163   -10947   -10764   -10686   -10544   -10444   -10582   -10824 
  -10976   -10808   -10301    -9822    -9671    -9863   -10081    -9971 
   -9728    -9641    -9676    -9836    -9952    -9792    -9566    -9625 
  -10066   -10667   -10974   -10760   -10381   -10226   -10301   -10577 
  -10987   -11288   -11375   -11391   -11414   -11418   -11419   -11225 
  -10717   -10293   -10176   -10230   -10349   -10230    -9783    -9394 
   -9332    -9387    -9347    -9539   -10031   -10434   -10863   -11456 
  -11742   -11533   -11237   -11099   -10990   -10812   -10706   -10701 
  -10465    -9976    -9711    -9752    -9698    -9558    -9679    -9988 
  -10114   -10022   -10000   -10125   -10261   -10453   -10744   -10913 
  -10832   -10728   -10744   -10793   -10696   -10191    -9553    -9398 
   -9532    -9479    -9405    -9602    -9995   -10357   -10632   -10824 
  -10840   -10876   -11236   -11715   -11842   -11496   -11099   -11025 
  -11005   -10693   -10307   -10177   -10226   -10334   -10507   -10538 
  -10287   -10026    -9888    -9663    -9342    -9174    -9231    -9400 
   -9578    -9775   -10095   -10471   -10800   -11092   -11310   -11485 
  -11699   -11826   -11727   -11380   -10891   -10451   -10150    -9931 
   -9682    -9452    -9427    -9562    -9709    -9842    -9911    -9895 
   -9945   -10241   -10701   -11003   -11074   -11057   -11030   -11059 
  -11056   -10809   -10353   -10065   -10237   -10655   -10948   -11016 
  -10881   -10629   -10436   -10354   -10330   -10289   -10053    -9698 
   -9448    -9255    -9211    -9409    -9709   -10164   -10723   -11206 
  -11611   -11728   -11433   -11009   -10679   -10449   -10254   -10049 
   -9817    -9612    -9645    -9883   -10018    -9977    -9923   -10079 
  -10453   -10829   -11207   -11479   -11433   -11402   -11546   -11421 
  -10964   -10525   -10210   -10025    -9965    -9890    -9813    -9784 
   -9702    -9706   -10015   -10401   -10519   -10372   -10069    -9740 
   -9659    -9818    -9994   -10264   -10565   -10702   -10910   -11213 
  -11257   -11091   -10978   -10912   -10806   -10706   -10613   -10419 
  -10188   -10066    -9975    -9876    -9942   -10152   -10223   -10143 
  -10135   -10206   -10285   -10397   -10521   -10566   -10482   -10378 
  -10328   -10273   -10270   -10346   -10357   -10335   -10381   -10396 
  -10363   -10435   -10562   -10507   -10347   -10372   -10562   -10692 
  -10689   -10700   -10743   -10692   -10671   -10752   -10658   -10331 
  -10029    -9926    -9963    -9931    -9864    -9913   -10049   -10315 
  -10690   -10940   -11030   -11080   -11005   -10805   -10702   -10729 
  -10701   -10569   -10436   -10351   -10238   -10130   -10173   -10276 
  -10314   -10378   -10393   -10296   -10206   -10079    -9886    -9769 
   -9720    -9593    -9470    -9601    -9949   -10199   -10323   -10551 
  -10827   -11007   -11171   -11337   -11421   -11310   -10978   -10681 
  -10651   -10677   -10535   -10382   -10320   -10323   -10434   -10579 
  -10590   -10501   -10399   -10233   -10111   -10139   -10129   -10053 
  -10068   -10060    -9949    -9796    -9675    -9749    -9903    -9903 
   -9988   -10322   -10673   -10889   -10987   -11044   -11092   -11111 
  -11152   -11144   -10890   -10467   -10192   -10156   -10183   -10242 
  -10388   -10508   -10584   -10709   -10775   -10629   -10328   -10015 
   -9751    -9578    -9609    -9805    -9981   -10127   -10354   -10642 
  -10789   -10814   -10901   -10906   -10833   -10943   -11088   -11037 
  -10902   -10741   -10492   -10206    -9934    -9687    -9559    -9630 
   -9833    -9972    -9965    -9954    -9984    -9992   -10072   -10243 
  -10342   -10345   -10395   -10492   -10485   -10370   -10297   -10359 
  -10519   -10702   -10878   -11032   -11156   -11210   -11152   -11043 
  -10943   -10831   -10698   -10566   -10446   -10345   -10179    -9996 
   -9998   -10069   -10027    -9954    -9910    -9896    -9956   -10058 
  -10165   -10249   -10262   -10285   -10440   -10678   -10841   -10868 
