Origin Time       2025/03/30 10:46:00
Lat.              32.923
Long.             130.372
Depth. (km)       11
Mag.              3.4
Station Code      FKO015
Station Lat.      33.1629
Station Long.     130.4052
Station Height(m) 3
Record Time       2025/03/30 10:46:30
Sampling Freq(Hz) 100Hz
Duration Time(s)  60
Dir.              U-D
Scale Factor      7845(gal)/8223790
Max. Acc. (gal)   1.614
Last Correction   2025/03/30 10:46:30
Memo.             
[...]
    8380     8382     8390     8388     8380     8387     8380     8361 
    8355     8359     8372     8388     8374     8356     8370     8384 
    8392     8388     8376     8379     8388     8398     8399     8371 
    8353     8360     8356     8359     8371     8365     8359     8371 
    8388     8401     8397     8390     8401     8405     8392     8376 
    8357     8363     8384     8383     8367     8372     8384     8384 
    8392     8397     8378     8372     8375     8355     8357     8378 
    8364     8353     8359     8359     8382     8406     8402     8418 
    8441     8419     8383     8355     8325     8326     8359     8360 
    8352     8371     8379     8365     8368     8386     8394     8403 
    8410     8394     8379     8371     8364     8368     8374     8376 
    8391     8392     8376     8386     8407     8405     8386     8374 
    8371     8370     8371     8372     8368     8370     8372     8367 
    8360     8364     8379     8386     8380     8386     8395     8391 
    8391     8403     8401     8370     8345     8337     8334     8348 
    8367     8379     8390     8392     8392     8388     8374     8371 
    8384     8392     8384     8379     8395     8392     8367     8365 
    8365     8338     8328     8349     8376     8387     8390     8401 
    8411     8406     8386     8368     8370     8363     8343     8356 
    8382     8384     8386     8386     8382     8379     8368     8370 
    8386     8390     8388     8395     8392     8382     8375     8367 
    8365     8375     8379     8386     8397     8388     8379     8390 
    8386     8359     8351     8364     8379     8403     8419     8418 
    8407     8376     8348     8352     8367     8378     8380     8379 
    8394     8398     8387     8390     8376     8351     8353     8365 
    8371     8375     8371     8376     8399     8410     8392     8367 
    8357     8357     8356     8361     8367     8376     8390     8388 
    8371     8343     8340     8379     8394     8376     8388     8413 
    8401     8375     8364     8364     8370     8370     8371     8380 
    8386     8372     8349     8341     8345     8363     8382     8394 
    8429     8446     8415     8407     8409     8372     8351     8352 
    8348     8347     8355     8374     8386     8380     8380     8380 
    8387     8401     8384     8356     8360     8380     8388     8392 
    8395     8395     8388     8376     8375     8379     8371     8375 
    8395     8386     8356     8340     8337     8348     8364     8364 
    8364     8391     8422     8410     8387     8391     8390     8383 
    8376     8363     8357     8367     8363     8349     8349     8352 
    8353     8372     8390     8403     8417     8403     8387     8391 
    8384     8375     8382     8382     8388     8399     8379     8351 
    8337     8332     8340     8353     8371     8387     8386     8392 
    8419     8418     8401     8407     8406     8384     8361     8343 
    8347     8363     8371     8386     8390     8363     8355     8357 
    8347     8367     8403     8418     8440     8456     8422     8371 
    8333     8316     8324     8352     8375     8380     8387     8401 
    8397     8375     8352     8338     8340     8355     8380     8390 
    8388     8394     8388     8372     8374     8390     8415     8429 
    8414     8397     8384     8343     8301     8311     8341     8345 
    8352     8361     8376     8410     8429     8429     8422     8409 
    8399     8395     8382     8359     8343     8343     8353     8372 
    8382     8392     8418     8413     8370     8341     8337     8347 
    8378     8401     8402     8401     8386     8363     8372     8384 
    8374     8370     8374     8376     8376     8372     8388     8401 
    8374     8343     8338     8347     8356     8386     8421     8411 
    8405     8422     8401     8370     8371     8372     8376     8386 
    8383     8372     8364     8355     8348     8348     8351     8355 
    8363     8376     8390     8403     8410     8403     8386     8371 
    8371     8372     8365     8365     8375     8380     8397     8402 
    8388     8382     8364     8332     8324     8337     8365     8406 
    8424     8409     8388     8387     8409     8413     8388     8387 
    8391     8364     8333     8329     8348     8364     8370     8382 
    8395     8386     8363     8357     8379     8403     8411     8414 
    8432     8440     8409     8368     8345     8325     8332     8359 
    8352     8343     8360     8357     8353     8379     8401     8406 
    8403     8387     8384     8394     8388     8379     8378     8375 
    8371     8368     8357     8345     8349     8376     8399     8405 
    8395     8370     8360     8375     8398     8407     8388     8361 
    8353     8372     8419     8453     8437     8390     8341     8311 
    8321     8351     8363     8357     8356     8374     8390     8397 
    8403     8387     8376     8401     8414     8410     8405     8372 
    8316     8286     8297     8352     8422     8452     8436     8409 
    8388     8368     8344     8324     8332     8371     8395     8410 
    8430     8414     8374     8361     8368     8383     8398     8382 
    8356     8356     8365     8365     8375     8406     8414     8376 
    8341     8336     8349     8382     8405     8401     8386     8371 
    8368     8361     8348     8374     8414     8425     8425     8421 
    8417     8409     8371     8328     8303     8301     8349     8405 
    8392     8378     8388     8361     8343     8372     8384     8390 
    8413     8410     8395     8397     8391     8372     8356     8347 
    8379     8440     8456     8419     8356     8293     8279     8313 
    8365     8414     8430     8410     8376     8360     8379     8418 
    8440     8407     8334     8280     8290     8359     8438     8483 
    8486     8433     8330     8256     8263     8320     8394     8446 
    8445     8432     8418     8372     8325     8303     8305     8348 
    8415     8457     8473     8448     8375     8325     8314     8322 
    8357     8384     8382     8394     8415     8402     8351     8297 
    8276     8317     8402     8484     8541     8536     8451     8333 
    8237     8214     8282     8392     8480     8498     8437     8337 
    8272     8271     8317     8372     8402     8403     8410     8430 
    8448     8455     8422     8364     8322     8295     8301     8355 
    8407     8432     8426     8382     8333     8313     8310     8330 
    8367     8398     8433     8452     8446     8440     8418     8370 
    8321     8294     8294     8333     8388     8424     8430     8409 
    8361     8313     8311     8357     8401     8441     8472     8449 
    8387     8352     8360     8379     8386     8388     8395     8382 
    8334     8297     8295     8307     8321     8334     8370     8422 
    8456     8476     8494     8468     8429     8399     8344     8309 
    8333     8352     8353     8355     8336     8337     8372     8383 
    8384     8390     8378     8380     8402     8419     8437     8444 
    8418     8368     8321     8313     8338     8368     8392     8398 
    8375     8353     8349     8353     8364     8378     8403     8421 
    8419     8424     8419     8399     8382     8357     8340     8356 
    8376     8372     8355     8333     8326     8352     8376     8388 
    8411     8429     8433     8418     8386     8364     8360     8348 
    8322     8317     8348     8390     8415     8421     8405     8380 
    8365     8356     8349     8351     8372     8401     8419     8422 
    8399     8374     8365     8353     8352     8367     8367     8370 
    8382     8371     8356     8352     8341     8344     8379     8415 
    8437     8453     8444     8409     8388     8376     8349     8330 
    8322     8307     8318     8359     8395     8422     8430     8417 
    8398     8371     8348     8361     8390     8402     8422     8434 
    8390     8332     8329     8343     8330     8332     8351     8363 
    8386     8405     8402     8401     8402     8405     8405     8391 
    8382     8365     8356     8378     8390     8379     8364     8344 
    8329     8333     8355     8383     8387     8384     8395     8398 
    8397     8409     8417     8424     8429     8399     8351     8326 
    8340     8357     8353     8356     8368     8363     8360     8372 
    8386     8397     8395     8391     8391     8372     8367     8395 
    8409     8415     8432     8409     8370     8357     8340     8326 
    8348     8363     8368     8390     8398     8388     8383     8370 
    8365     8390     8401     8392     8390     8376     8367     8378 
    8378     8361     8357     8363     8363     8357     8372     8401 
    8402     8386     8380     8378     8383     8407     8413     8413 
    8417     8394     8363     8351     8338     8341     8352     8345 
    8340     8351     8365     8383     8402     8407     8407     8409 
    8398     8384     8383     8376     8363     8368     8360     8274 
    8171     8343     9019     9441     8359     6860     7582     9244 
    8611     7634     8679     8959     8225     8661     8284     7296 
    8302     9259     8880     8383     7917     8406     8818     7595 
    7825     9535     8716     7375     8206     8548     8163     8568 
    8614     8595     8854     8085     7666     8541     8827     8463 
    8187     7989     8432     8827     8395     8220     8421     8222 
    8232     8536     8220     8079     8822     8922     8158     7950 
    8191     8592     8915     8467     8175     8143     7800     8428 
    8854     8037     8415     9067     8235     7923     8376     8461 
    8482     8297     8198     8667     8621     8078     8235     8511 
    8403     8519     8498     8251     8386     8494     8352     8379 
    8534     8428     7878     7848     8776     8911     8010     7890 
    8378     8509     8743     8873     8271     7875     8167     8376 
    8495     8564     8428     8359     8324     8370     8575     8611 
    8353     8175     8316     8349     8318     8588     8583     8228 
    8245     8341     8201     8186     8197     8317     8715     8787 
    8340     7967     8104     8488     8541     8445     8631     8729 
    8395     8060     8217     8536     8459     8356     8498     8297 
    7825     7936     8745     9242     8673     7901     7920     8360 
    8588     8428     8170     8375     8757     8592     8266     8276 
    8337     8459     8521     8279     8093     8098     8159     8289 
    8598     8802     8414     8087     8390     8560     8345     8283 
    8438     8480     8329     8353     8568     8503     8356     8372 
    8182     8187     8618     8525     8062     8159     8560     8723 
    8602     8379     8228     8155     8309     8486     8338     8318 
    8392     8160     8187     8538     8564     8410     8406     8486 
    8587     8673     8630     8299     7896     7842     8000     8124 
    8341     8667     8816     8554     8225     8294     8519     8464 
    8167     8148     8559     8654     8378     8540     8915     8649 
    8071     7992     8217     8266     8004     7879     8455     8959 
    8702     8279     8247     8513     8542     8263     8287     8702 
    8646     7897     7692     8343     8654     8614     8826     8629 
    7884     7732     8371     8843     8749     8322     7905     8100 
    8754     8703     8156     8392     8922     8680     8274     8280 
    8152     7944     8320     8650     8151     7952     8622     8884 
    8540     8279     8051     7959     8278     8689     8853     8661 
    8190     8027     8280     8336     8614     9151     8422     7334 
    7816     8383     8356     8754     8793     8552     8503     8131 
    8403     9121     8550     7734     8046     8442     8444     8186 
    7496     7835     9239     8866     7528     8189     9381     8980 
    8108     7987     8260     8139     7780     8444     9857     9629 
    8104     7877     8077     7550     7920     8878     8627     7429 
    7076     8320     9201     8379     7827     8935     9926     9242 
    8031     7831     8702     9379     8596     7716     8248     8556 
    7954     7666     7560     7480     8129     9077     9381     9466 
    9454     8360     7171     7553     8430     8575     8502     8224 
    7734     7886     8426     8633     9001     9347     8691     7801 
    8009     8937     9198     8523     8214     8240     7688     7577 
    8221     8471     8302     8054     7843     8101     8630     8888 
    8870     8685     8677     8661     8183     8199     8784     8621 
    8121     8055     7732     7611     8514     8804     8116     8392 
    9082     8688     8372     8696     8187     7519     8349     9198 
    8521     7753     8181     8822     8691     8226     8175     8610 
    8665     8220     8394     8584     7674     6855     7518     9112 
    9667     8668     8097     8699     8823     8083     8118     8727 
    8611     8573     8592     7670     7240     8274     9266     9273 
    8846     8687     8363     7639     7744     8392     8526     8603 
    8434     8074     8500     8754     7938     7715     8525     8694 
    8410     8611     8731     8422     7885     7469     7624     7917 
    8044     8526     8927     8538     8089     8284     8699     9101 
    9390     8918     8364     8860     9301     8839     8376     8236 
    8399     8791     8456     7711     7646     7294     6686     7249 
    7950     8028     8374     8830     9090     9181     9039     8770 
    8322     8275     9066     9348     8591     8307     8302     7636 
    7635     8275     7989     7678     8148     8322     8357     8469 
    8090     8133     8464     8120     8378     9302     9405     9030 
    9126     9576     9620     9005     8280     8047     8070     7546 
    6906     6835     6945     7292     7844     8037     8359     9040 
    9159     8908     9038     9215     9374     9510     9158     8708 
    8461     8114     7821     7612     7491     7657     7707     7514 
    7723     8243     8349     8210     8399     8818     9283     9552 
    9131     8463     8243     8174     8299     8572     8205     7929 
    8602     8876     8338     8311     8684     8567     8340     8638 
    8868     8330     7626     7383     7566     7874     8019     8341 
    8796     8822     8694     8888     9252     9254     8734     8100 
    7690     7650     7750     7527     7260     7601     8147     8257 
    8522     9239     9517     9144     9049     9429     9397     8781 
    8430     8415     8185     8075     8176     7978     7759     7751 
    7711     7767     7977     8086     8162     8425     8818     9139 
    9045     8580     8364     8411     8301     8195     8262     8278 
    8213     8295     8638     8896     8664     8230     8125     8334 
    8532     8442     8139     8068     8371     8576     8426     8403 
    8702     8803     8590     8298     8159     8205     8077     8110 
    8348     8000     7716     8056     8104     7915     8132     8622 
    9077     9227     8931     8484     8518     8816     8603     8156 
    8185     8619     8735     8257     7906     8093     8232     8091 
    8051     8097     8247     8414     8179     8122     8731     9066 
    8935     9084     9090     8517     8117     8236     8391     8262 
    7863     7484     7572     7889     7784     7804     8376     8541 
    8402     8769     9031     8797     8665     8789     8746     8556 
    8633     8536     8086     8186     8614     8397     8085     8411 
    8811     8923     8837     8506     8214     8083     7944     7757 
    7453     7325     7740     8236     8426     8579     8715     8860 
    9101     9115     8910     8868     8954     8943     8700     8183 
    7739     7681     7803     7939     8086     8203     8240     8070 
    7977     8213     8345     8318     8459     8653     8743     8637 
    8473     8490     8452     8355     8398     8522     8822     9123 
    9082     8722     8355     8371     8567     8437     8012     7619 
    7632     8037     8127     7773     7720     7952     8199     8729 
    9092     8783     8317     8279     8621     8748     8619     8683 
    8592     8384     8662     8853     8468     8183     8228     8181 
    7928     7720     7762     7954     8085     8171     8398     8672 
    8672     8561     8760     9082     8919     8368     8255     8538 
    8469     8235     8307     8280     7939     7921     8152     7983 
    7943     8515     8800     8426     8313     8602     8656     8536 
    8391     8353     8569     8638     8658     8839     8725     8523 
    8544     8343     8039     8120     8357     8307     8070     7932 
    7844     7771     7817     7960     8194     8364     8344     8449 
    8652     8726     8881     9011     9086     9344     9190     8603 
    8569     8664     8185     7897     7909     7690     7553     7564 
    7483     7643     8214     8723     8870     8891     8942     8982 
    8927     8627     8348     8372     8364     8187     8008     7850 
    7805     7992     8419     8785     8802     8765     8839     8712 
    8456     8409     8429     8336     8263     8097     7884     7966 
    8229     8487     8571     8368     8353     8550     8487     8386 
    8376     8235     8163     8186     8118     8151     8286     8322 
    8417     8688     8869     8784     8692     8850     8955     8654 
    8299     8116     7792     7604     7920     8108     7892     7955 
    8448     8873     9024     8977     8846     8714     8529     8248 
    8036     8063     8239     8226     7967     7943     8232     8356 
    8355     8530     8707     8729     8675     8660     8726     8711 
    8545     8338     8172     8118     8151     8086     7912     7948 
    8239     8417     8440     8560     8699     8640     8561     8581 
    8495     8297     8139     8195     8442     8374     7898     7809 
    8306     8619     8594     8608     8614     8588     8668     8691 
    8561     8532     8545     8391     8256     8133     7948     8033 
    8282     8307     8301     8343     8306     8384     8479     8401 
    8314     8217     8117     8144     8309     8482     8394     8198 
    8380     8694     8603     8426     8515     8527     8395     8426 
    8509     8436     8359     8286     8145     8144     8337     8484 
    8452     8429     8581     8618     8309     8079     8334     8588 
    8460     8428     8457     8256     8212     8305     8255     8351 
    8595     8637     8573     8500     8326     8230     8305     8451 
    8571     8479     8307     8280     8229     8125     8120     8222 
    8357     8467     8529     8449     8322     8364     8430     8428 
    8475     8499     8398     8239     8147     8201     8322     8384 
    8469     8608     8526     8266     8286     8455     8376     8309 
    8363     8371     8533     8715     8567     8356     8365     8432 
    8422     8357     8328     8367     8324     8226     8222     8275 
    8344     8348     8314     8414     8456     8295     8244     8311 
    8259     8218     8305     8430     8451     8289     8221     8429 
    8598     8498     8347     8436     8631     8672     8667     8706 
