Origin Time       2025/03/30 10:46:00
Lat.              32.923
Long.             130.372
Depth. (km)       11
Mag.              3.4
Station Code      FKO016
Station Lat.      33.0159
Station Long.     130.4472
Station Height(m) 22
Record Time       2025/03/30 10:46:23
Sampling Freq(Hz) 100Hz
Duration Time(s)  60
Dir.              U-D
Scale Factor      7845(gal)/8223790
Max. Acc. (gal)   8.800
Last Correction   2025/03/30 10:46:23
Memo.             
[...]
   -9115    -9113    -9104    -9099    -9100    -9099    -9101    -9099 
   -9100    -9120    -9120    -9096    -9078    -9084    -9111    -9136 
   -9119    -9082    -9082    -9108    -9115    -9097    -9090    -9111 
   -9121    -9101    -9100    -9112    -9090    -9070    -9109    -9146 
   -9113    -9081    -9093    -9109    -9112    -9097    -9086    -9101 
   -9113    -9119    -9113    -9101    -9101    -9089    -9084    -9109 
   -9120    -9113    -9117    -9103    -9080    -9090    -9105    -9105 
   -9113    -9121    -9107    -9081    -9090    -9116    -9105    -9093 
   -9108    -9109    -9101    -9108    -9105    -9104    -9105    -9096 
   -9090    -9100    -9120    -9130    -9104    -9080    -9089    -9103 
   -9108    -9112    -9101    -9101    -9115    -9103    -9086    -9104 
   -9119    -9105    -9085    -9093    -9126    -9128    -9090    -9078 
   -9104    -9116    -9108    -9109    -9113    -9108    -9093    -9084 
   -9096    -9116    -9116    -9107    -9100    -9099    -9100    -9092 
   -9089    -9117    -9134    -9101    -9077    -9097    -9116    -9105 
   -9093    -9101    -9115    -9109    -9107    -9108    -9094    -9093 
   -9103    -9111    -9116    -9108    -9086    -9088    -9119    -9126 
   -9094    -9086    -9107    -9116    -9103    -9080    -9092    -9132 
   -9126    -9082    -9080    -9109    -9117    -9111    -9105    -9093 
   -9086    -9103    -9127    -9117    -9080    -9082    -9123    -9124 
   -9089    -9085    -9107    -9116    -9108    -9094    -9092    -9101 
   -9112    -9113    -9103    -9088    -9088    -9108    -9127    -9108 
   -9069    -9092    -9135    -9115    -9081    -9081    -9103    -9130 
   -9113    -9080    -9089    -9113    -9117    -9100    -9086    -9101 
   -9121    -9116    -9085    -9076    -9115    -9132    -9103    -9081 
   -9094    -9112    -9107    -9100    -9103    -9107    -9108    -9097 
   -9093    -9107    -9101    -9101    -9123    -9109    -9088    -9097 
   -9107    -9104    -9100    -9105    -9115    -9101    -9093    -9105 
   -9103    -9093    -9108    -9121    -9104    -9085    -9099    -9111 
   -9089    -9084    -9123    -9136    -9100    -9080    -9090    -9108 
   -9111    -9096    -9096    -9116    -9121    -9100    -9085    -9089 
   -9099    -9113    -9126    -9111    -9093    -9090    -9089    -9093 
   -9111    -9126    -9111    -9081    -9093    -9123    -9117    -9090 
   -9084    -9107    -9121    -9101    -9086    -9117    -9140    -9093 
   -9055    -9089    -9130    -9130    -9115    -9101    -9081    -9084 
   -9115    -9115    -9093    -9104    -9119    -9112    -9096    -9077 
   -9085    -9123    -9134    -9101    -9088    -9099    -9099    -9103 
   -9108    -9104    -9109    -9101    -9088    -9107    -9117    -9090 
   -9086    -9117    -9123    -9100    -9085    -9090    -9115    -9124 
   -9097    -9081    -9108    -9126    -9108    -9088    -9088    -9097 
   -9104    -9124    -9131    -9086    -9066    -9104    -9130    -9117 
   -9090    -9084    -9108    -9120    -9100    -9092    -9112    -9117 
   -9096    -9089    -9099    -9107    -9119    -9113    -9090    -9088 
   -9109    -9121    -9112    -9090    -9081    -9109    -9127    -9109 
   -9099    -9093    -9092    -9111    -9124    -9107    -9093    -9108 
   -9113    -9090    -9089    -9107    -9109    -9116    -9112    -9082 
   -9081    -9121    -9126    -9093    -9088    -9101    -9115    -9115 
   -9093    -9093    -9113    -9107    -9097    -9107    -9107    -9094 
   -9090    -9107    -9123    -9115    -9090    -9080    -9107    -9124 
   -9100    -9094    -9107    -9101    -9103    -9111    -9105    -9104 
   -9101    -9090    -9096    -9113    -9111    -9103    -9101    -9101 
   -9107    -9100    -9086    -9101    -9117    -9109    -9104    -9104 
   -9099    -9101    -9108    -9108    -9099    -9096    -9107    -9113 
   -9112    -9100    -9088    -9103    -9109    -9097    -9105    -9115 
   -9099    -9099    -9123    -9109    -9080    -9096    -9115    -9108 
   -9107    -9105    -9099    -9096    -9101    -9109    -9108    -9101 
   -9101    -9104    -9103    -9105    -9108    -9105    -9108    -9103 
   -9085    -9099    -9132    -9115    -9081    -9090    -9108    -9112 
   -9116    -9108    -9092    -9088    -9097    -9112    -9112    -9107 
   -9111    -9104    -9085    -9084    -9107    -9130    -9121    -9090 
   -9078    -9100    -9123    -9117    -9096    -9090    -9101    -9104 
   -9112    -9115    -9090    -9085    -9120    -9128    -9090    -9077 
   -9109    -9126    -9096    -9078    -9113    -9135    -9108    -9078 
   -9078    -9101    -9126    -9121    -9099    -9092    -9100    -9100 
   -9100    -9101    -9103    -9116    -9113    -9090    -9093    -9108 
   -9104    -9099    -9109    -9119    -9108    -9090    -9090    -9099 
   -9115    -9126    -9107    -9078    -9090    -9121    -9112    -9092 
   -9104    -9111    -9100    -9101    -9113    -9105    -9084    -9093 
   -9127    -9123    -9090    -9088    -9104    -9109    -9109    -9107 
   -9097    -9104    -9108    -9093    -9093    -9109    -9115    -9117 
   -9107    -9080    -9081    -9121    -9132    -9101    -9093    -9108 
   -9096    -9085    -9113    -9132    -9105    -9078    -9096    -9119 
   -9100    -9085    -9107    -9119    -9101    -9094    -9116    -9116 
   -9084    -9084    -9111    -9113    -9101    -9103    -9111    -9108 
   -9100    -9090    -9100    -9115    -9105    -9100    -9112    -9103 
   -9084    -9097    -9119    -9112    -9089    -9088    -9108    -9115 
   -9103    -9099    -9107    -9108    -9090    -9086    -9108    -9113 
   -9103    -9108    -9108    -9086    -9082    -9108    -9128    -9120 
   -9092    -9076    -9103    -9123    -9104    -9093    -9103    -9107 
   -9108    -9104    -9099    -9105    -9097    -9093    -9113    -9112 
   -9100    -9103    -9093    -9097    -9124    -9112    -9082    -9090 
   -9108    -9111    -9111    -9115    -9107    -9088    -9086    -9104 
   -9113    -9113    -9115    -9103    -9080    -9090    -9126    -9117 
   -9080    -9085    -9121    -9132    -9103    -9080    -9093    -9108 
   -9100    -9104    -9124    -9115    -9088    -9088    -9103    -9104 
   -9092    -9103    -9131    -9111    -9073    -9086    -9116    -9121 
   -9109    -9086    -9089    -9116    -9128    -9105    -9078    -9090 
   -9113    -9107    -9103    -9119    -9109    -9076    -9077    -9115 
   -9131    -9111    -9092    -9088    -9100    -9117    -9112    -9101 
   -9094    -9090    -9112    -9124    -9096    -9082    -9103    -9120 
   -9116    -9093    -9081    -9104    -9123    -9109    -9094    -9100 
   -9101    -9100    -9107    -9104    -9099    -9104    -9116    -9113 
   -9094    -9089    -9107    -9112    -9099    -9100    -9113    -9116 
   -9107    -9093    -9085    -9096    -9120    -9127    -9111    -9089 
   -9081    -9101    -9123    -9113    -9093    -9097    -9112    -9112 
   -9099    -9093    -9097    -9109    -9130    -9115    -9074    -9090 
   -9136    -9115    -9074    -9088    -9120    -9127    -9107    -9078 
   -9084    -9116    -9126    -9101    -9084    -9097    -9117    -9119 
   -9096    -9088    -9107    -9111    -9094    -9097    -9117    -9116 
   -9104    -9093    -9081    -9094    -9127    -9132    -9107    -9081 
   -9080    -9103    -9120    -9108    -9094    -9109    -9124    -9105 
   -9076    -9077    -9117    -9142    -9116    -9078    -9081    -9113 
   -9123    -9100    -9092    -9108    -9111    -9104    -9104    -9099 
   -9096    -9104    -9115    -9113    -9099    -9097    -9096    -9088 
   -9111    -9135    -9112    -9082    -9080    -9097    -9126    -9120 
   -9097    -9103    -9100    -9089    -9104    -9117    -9115    -9107 
   -9081    -9082    -9128    -9130    -9093    -9096    -9107    -9096 
   -9096    -9109    -9104    -9084    -9103    -9144    -9134    -9074 
   -9050    -9090    -9136    -9132    -9109    -9099    -9088    -9088 
   -9101    -9107    -9109    -9109    -9108    -9116    -9101    -9078 
   -9101    -9112    -9090    -9108    -9135    -9112    -9077    -9088 
   -9121    -9109    -9072    -9093    -9148    -9138    -9077    -9058 
   -9101    -9136    -9116    -9081    -9088    -9126    -9134    -9099 
   -9070    -9078    -9111    -9135    -9126    -9096    -9074    -9101 
   -9134    -9103    -9078    -9101    -9113    -9115    -9119    -9100 
   -9072    -9090    -9136    -9123    -9085    -9101    -9126    -9100 
   -9072    -9089    -9128    -9130    -9092    -9081    -9113    -9117 
   -9084    -9080    -9116    -9131    -9104    -9084    -9089    -9104 
   -9112    -9115    -9109    -9090    -9090    -9116    -9109    -9086 
   -9096    -9116    -9123    -9113    -9086    -9074    -9090    -9115 
   -9130    -9115    -9080    -9078    -9119    -9127    -9096    -9088 
   -9104    -9109    -9109    -9094    -9082    -9109    -9127    -9101 
   -9092    -9105    -9107    -9105    -9105    -9096    -9099    -9119 
   -9112    -9092    -9094    -9107    -9111    -9107    -9100    -9093 
   -9103    -9123    -9116    -9088    -9078    -9094    -9124    -9134 
   -9101    -9077    -9094    -9113    -9112    -9100    -9097    -9111 
   -9123    -9113    -9081    -9074    -9112    -9132    -9111    -9089 
   -9100    -9119    -9105    -9082    -9089    -9116    -9135    -9116 
   -9073    -9070    -9116    -9136    -9100    -9078    -9111    -9126 
   -9094    -9082    -9108    -9123    -9103    -9080    -9094    -9124 
   -9131    -9108    -9073    -9074    -9119    -9140    -9108    -9073 
   -9084    -9117    -9119    -9097    -9094    -9107    -9117    -9113 
   -9094    -9093    -9108    -9109    -9107    -9112    -9100    -9080 
   -9097    -9130    -9121    -9103    -9092    -9078    -9089    -9127 
   -9134    -9107    -9084    -9080    -9097    -9119    -9120    -9105 
   -9099    -9103    -9094    -9090    -9104    -9115    -9126    -9119 
   -9080    -9074    -9109    -9119    -9113    -9112    -9100    -9093 
   -9094    -9099    -9101    -9111    -9128    -9115    -9073    -9077 
   -9116    -9132    -9117    -9090    -9077    -9097    -9123    -9109 
   -9096    -9109    -9107    -9088    -9094    -9116    -9117    -9101 
   -9094    -9105    -9108    -9099    -9101    -9105    -9104    -9109 
   -9112    -9099    -9097    -9113    -9108    -9082    -9090    -9126 
   -9124    -9089    -9081    -9097    -9103    -9120    -9134    -9096 
   -9062    -9085    -9126    -9135    -9107    -9082    -9094    -9109 
   -9104    -9104    -9109    -9101    -9101    -9105    -9096    -9092 
   -9100    -9116    -9115    -9092    -9097    -9117    -9093    -9082 
   -9124    -9126    -9078    -9086    -9128    -9119    -9092    -9088 
   -9097    -9113    -9112    -9097    -9100    -9108    -9108    -9097 
   -9088    -9105    -9121    -9108    -9090    -9089    -9104    -9115 
   -9109    -9103    -9103    -9108    -9105    -9092    -9099    -9116 
   -9105    -9092    -9104    -9108    -9099    -9103    -9109    -9107 
   -9100    -9097    -9099    -9105    -9112    -9103    -9094    -9104 
   -9116    -9107    -9088    -9092    -9109    -9108    -9105    -9112 
   -9104    -9085    -9089    -9113    -9119    -9101    -9092    -9099 
   -9116    -9115    -9097    -9096    -9104    -9096    -9103    -9124 
   -9100    -9076    -9115    -9134    -9090    -9070    -9092    -9123 
   -9130    -9101    -9086    -9104    -9099    -9084    -9113    -9130 
   -9103    -9094    -9112    -9108    -9086    -9078    -9103    -9136 
   -9123    -9080    -9081    -9108    -9120    -9111    -9085    -9084 
   -9111    -9123    -9107    -9089    -9094    -9101    -9105    -9117 
   -9112    -9097    -9104    -9111    -9097    -9094    -9103    -9113 
   -9119    -9101    -9088    -9097    -9103    -9104    -9109    -9112 
   -9108    -9100    -9103    -9104    -9088    -9089    -9120    -9127 
   -9101    -9085    -9094    -9116    -9115    -9085    -9084    -9117 
   -9120    -9103    -9108    -9100    -9084    -9104    -9116    -9100 
   -9107    -9117    -9099    -9080    -9089    -9113    -9121    -9105 
   -9096    -9101    -9101    -9100    -9105    -9109    -9103    -9097 
   -9104    -9115    -9109    -9097    -9092    -9101    -9112    -9104 
   -9096    -9107    -9117    -9112    -9090    -9081    -9111    -9134 
   -9117    -9090    -9080    -9096    -9116    -9113    -9104    -9105 
   -9103    -9099    -9100    -9099    -9104    -9113    -9107    -9103 
   -9105    -9097    -9099    -9111    -9113    -9112    -9100    -9085 
   -9100    -9120    -9112    -9101    -9096    -9092    -9104    -9117 
   -9105    -9096    -9099    -9103    -9116    -9109    -9082    -9096 
   -9128    -9116    -9086    -9089    -9109    -9107    -9094    -9113 
   -9130    -9103    -9073    -9086    -9121    -9127    -9101    -9088 
   -9093    -9107    -9119    -9103    -9085    -9107    -9132    -9108 
   -9072    -9085    -9124    -9117    -9092    -9100    -9109    -9104 
   -9103    -9100    -9096    -9099    -9111    -9116    -9105    -9090 
   -9099    -9115    -9105    -9093    -9099    -9101    -9107    -9116 
   -9112    -9108    -9092    -9076    -9103    -9127    -9111    -9104 
   -9113    -9101    -9085    -9090    -9116    -9131    -9104    -9084 
   -9100    -9108    -9101    -9111    -9130    -9116    -9072    -9070 
   -9123    -9146    -9108    -9078    -9089    -9111    -9117    -9104 
   -9089    -9099    -9115    -9119    -9096    -9085    -9113    -9128 
   -9097    -9081    -9100    -9115    -9113    -9103    -9093    -9097 
   -9117    -9235    -9776   -11172   -12768   -11662    -5863      122 
   -1278    -9774   -16853   -16641   -10743    -4348    -2655    -6666 
  -10655   -11778   -13620   -14181   -10042    -5344    -3253    -4639 
   -9378   -13239   -13574   -11300    -8395    -6816    -6528    -7254 
   -9177   -11327   -11902   -10031    -7701    -7113    -7560    -8353 
   -9782   -10666   -10515   -10127    -8981    -7595    -7634    -8580 
   -9706   -10565    -9902    -8606    -8422    -8654    -8449    -8560 
   -9464    -9882    -9414    -9725   -10092    -8847    -7676    -7792 
   -8237    -9144   -10694   -11341   -10241    -8554    -7631    -7885 
   -8484    -8843    -9767   -10241    -8571    -7769    -9867   -10731 
   -9302    -8536    -8097    -8248    -9585    -9489    -8996   -10463 
  -10712    -8510    -7053    -7492    -8997   -10122    -9869    -9543 
   -9900    -9703    -8406    -7245    -7927    -9822   -10515    -9784 
   -9178    -9020    -8433    -7654    -8451   -10366   -10855    -9842 
   -8619    -7726    -7912    -8823    -9440    -9973   -10586   -10542 
   -9004    -6944    -6774    -8452   -10319   -11395   -10578    -8770 
   -7939    -7557    -7634    -8946   -10262   -11010   -10894    -9063 
   -7275    -7318    -8448    -9678   -10162    -9783    -9432    -9244 
   -8721    -8052    -7933    -8515    -9765   -11043   -10683    -9193 
   -8144    -7160    -7604   -10146   -10756    -9170    -8993    -9369 
   -9020    -8893    -8654    -8839   -10089   -10131    -8266    -7321 
   -8467   -10033   -10440    -9548    -8608    -8627    -8729    -8140 
   -8260    -9697   -10723   -10534    -9686    -8565    -7515    -7187 
   -8421   -10177   -10404    -9725    -9572    -9684    -9454    -8702 
   -7784    -7566    -8592   -10079   -10928   -11126   -10118    -7800 
   -6926    -8104    -8297    -7789    -9030   -10943   -11330    -9670 
   -6997    -6230    -8334   -10170   -10436   -11148   -12178   -11338 
   -8437    -5557    -5059    -7064    -9394   -11188   -12249   -11114 
   -8367    -6340    -6181    -8332   -11635   -13420   -12241    -8876 
   -5645    -4333    -5671    -9509   -12637   -12086    -9706    -7916 
   -7443    -8830   -10273   -10237   -10226   -10211    -9153    -7946 
   -7392    -8043    -9810   -10644    -9462    -7870    -7773    -9138 
   -9828    -8889    -8224    -8711    -9364    -9806    -9976    -9842 
   -9360    -8496    -8128    -8677    -9306    -9532    -9265    -8654 
   -8631    -9483   -10251   -10328    -9667    -8756    -8533    -8687 
   -8631    -8807    -8811    -8500    -8706    -8814    -8808    -9535 
   -9676    -8843    -8556    -8812    -9567   -10720   -10729    -9741 
   -8739    -7662    -7593    -8764    -9671   -10050    -9640    -8506 
   -8082    -8270    -8656    -9567    -9977    -9607    -9189    -8692 
   -8819    -9798   -10215    -9674    -8843    -8181    -8262    -8910 
   -9281    -9387    -9486    -9456    -9215    -8710    -8384    -8592 
   -8851    -9026    -9234    -9323    -9474    -9657    -9432    -8802 
   -8456    -8934    -9555    -9586    -9157    -8538    -8280    -8718 
   -9647   -10467   -10377    -9564    -8460    -7508    -7862    -9200 
   -9956    -9738    -8939    -8243    -8455    -9423   -10135   -10111 
   -9733    -9011    -7905    -7695    -8796    -9541    -9629    -9972 
   -9987    -9450    -8965    -8147    -7587    -8368    -9406    -9992 
  -10382    -9936    -8895    -8121    -7913    -8735    -9713    -9558 
   -9090    -8901    -8877    -9337    -9439    -8861    -8750    -8974 
   -8937    -9132    -9675    -9740    -8980    -8355    -8783    -9645 
   -9868    -9454    -8760    -8191    -8291    -8899    -9695   -10404 
  -10430    -9468    -7921    -7275    -8259    -9335    -9618    -9764 
   -9764    -9219    -8622    -8695    -9234    -9725    -9755    -8889 
   -8041    -8505    -9406    -9556    -9396    -9223    -8941    -8847 
   -8785    -8804    -9270    -9428    -9148    -9385    -9682    -9136 
   -8190    -8077    -9200   -10030    -9690    -9390    -9443    -9189 
   -8743    -8283    -8195    -8843    -9560    -9784    -9675    -9335 
   -8729    -8062    -8198    -9462   -10354    -9975    -9140    -8392 
   -8043    -8387    -9189   -10093   -10633   -10299    -9103    -7816 
   -7376    -8052    -9202    -9936   -10185   -10057    -9296    -8388 
   -8228    -8857    -9354    -9190    -8982    -9136    -9456    -9535 
   -9034    -8594    -8595    -8645    -9167    -9981    -9936    -9336 
   -8869    -8533    -8645    -9169    -9560    -9481    -9107    -8945 
   -8869    -8761    -8816    -8799    -8972    -9481    -9632    -9558 
   -9455    -8849    -8197    -8243    -8835    -9482    -9753    -9610 
   -9279    -8982    -9040    -9258    -9066    -8691    -8833    -9455 
   -9767    -9418    -9147    -9246    -9051    -8623    -8415    -8434 
   -8708    -9051    -9343    -9549    -9452    -9336    -9292    -9028 
   -8934    -9132    -9046    -8903    -9227    -9471    -9290    -9103 
   -8905    -8878    -9347    -9707    -9472    -8866    -8256    -8286 
   -9174    -9886    -9668    -9158    -8818    -8650    -8824    -9007 
   -9127    -9436    -9369    -8861    -8688    -8988    -9510    -9915 
   -9602    -8642    -8040    -8382    -9158    -9757   -10049    -9825 
   -8988    -8094    -7855    -8483    -9499   -10049    -9867    -9254 
   -8517    -8306    -8839    -9347    -9558    -9634    -9435    -9220 
   -9184    -9004    -8658    -8436    -8698    -9398    -9936    -9965 
   -9278    -8233    -8029    -8675    -9274    -9726    -9810    -9423 
   -9034    -8699    -8668    -9116    -9342    -9173    -9111    -9261 
   -9355    -9012    -8561    -8675    -9034    -9285    -9370    -9147 
   -9077    -9204    -9074    -9030    -9327    -9578    -9424    -8938 
   -8541    -8595    -9053    -9354    -9362    -9331    -9049    -8756 
