Origin Time       2025/03/30 10:46:00
Lat.              32.923
Long.             130.372
Depth. (km)       11
Mag.              3.4
Station Code      FKO016
Station Lat.      33.0159
Station Long.     130.4472
Station Height(m) 22
Record Time       2025/03/30 10:46:23
Sampling Freq(Hz) 100Hz
Duration Time(s)  60
Dir.              N-S
Scale Factor      7845(gal)/8223790
Max. Acc. (gal)   7.295
Last Correction   2025/03/30 10:46:23
Memo.             
[...]
   -1786    -1782    -1837    -1841    -1771    -1755    -1782    -1800 
   -1848    -1836    -1753    -1757    -1827    -1822    -1765    -1792 
   -1844    -1787    -1757    -1827    -1821    -1763    -1794    -1837 
   -1809    -1772    -1776    -1787    -1802    -1833    -1813    -1761 
   -1784    -1831    -1818    -1771    -1749    -1791    -1860    -1846 
   -1756    -1741    -1817    -1827    -1772    -1790    -1844    -1802 
   -1737    -1780    -1848    -1830    -1777    -1755    -1779    -1836 
   -1849    -1791    -1746    -1779    -1829    -1825    -1783    -1777 
   -1814    -1822    -1786    -1768    -1818    -1831    -1765    -1769 
   -1819    -1811    -1809    -1811    -1775    -1748    -1800    -1873 
   -1838    -1750    -1742    -1802    -1848    -1815    -1764    -1786 
   -1807    -1806    -1818    -1804    -1772    -1767    -1804    -1850 
   -1817    -1748    -1753    -1826    -1873    -1795    -1707    -1783 
   -1887    -1834    -1721    -1736    -1846    -1867    -1794    -1753 
   -1784    -1802    -1780    -1841    -1871    -1733    -1698    -1850 
   -1908    -1794    -1698    -1761    -1852    -1830    -1790    -1780 
   -1780    -1813    -1833    -1809    -1767    -1756    -1811    -1844 
   -1777    -1741    -1817    -1873    -1825    -1745    -1730    -1787 
   -1857    -1868    -1768    -1701    -1794    -1877    -1826    -1753 
   -1757    -1817    -1841    -1804    -1772    -1768    -1798    -1833 
   -1799    -1746    -1792    -1871    -1827    -1748    -1761    -1800 
   -1804    -1822    -1823    -1773    -1749    -1807    -1860    -1826 
   -1769    -1742    -1759    -1842    -1880    -1792    -1710    -1748 
   -1857    -1880    -1783    -1729    -1773    -1819    -1818    -1802 
   -1802    -1802    -1787    -1802    -1827    -1796    -1761    -1792 
   -1811    -1779    -1794    -1860    -1841    -1729    -1715    -1856 
   -1903    -1750    -1669    -1800    -1923    -1852    -1711    -1734 
   -1849    -1830    -1776    -1814    -1795    -1714    -1771    -1912 
   -1873    -1706    -1709    -1858    -1898    -1787    -1710    -1752 
   -1819    -1854    -1837    -1764    -1749    -1804    -1826    -1819 
   -1811    -1771    -1752    -1803    -1845    -1804    -1760    -1786 
   -1830    -1809    -1752    -1777    -1850    -1826    -1763    -1764 
   -1806    -1840    -1809    -1767    -1791    -1809    -1794    -1790 
   -1795    -1814    -1813    -1791    -1784    -1779    -1811    -1846 
   -1783    -1729    -1798    -1860    -1809    -1763    -1803    -1794 
   -1736    -1809    -1902    -1810    -1691    -1756    -1880    -1831 
   -1738    -1810    -1856    -1771    -1738    -1779    -1838    -1861 
   -1800    -1744    -1760    -1831    -1867    -1787    -1714    -1765 
   -1848    -1863    -1813    -1742    -1757    -1834    -1809    -1753 
   -1821    -1863    -1775    -1711    -1798    -1906    -1834    -1709 
   -1745    -1825    -1827    -1818    -1806    -1769    -1765    -1819 
   -1848    -1806    -1756    -1749    -1787    -1840    -1858    -1803 
   -1713    -1741    -1875    -1883    -1768    -1736    -1791    -1795 
   -1796    -1845    -1814    -1742    -1802    -1880    -1795    -1698 
   -1790    -1884    -1791    -1729    -1818    -1857    -1796    -1769 
   -1806    -1798    -1736    -1787    -1918    -1868    -1687    -1687 
   -1861    -1892    -1769    -1742    -1798    -1803    -1815    -1856 
   -1814    -1714    -1734    -1848    -1857    -1776    -1764    -1814 
   -1809    -1773    -1802    -1831    -1782    -1748    -1819    -1872 
   -1794    -1725    -1782    -1838    -1806    -1773    -1796    -1826 
   -1806    -1767    -1780    -1813    -1803    -1795    -1811    -1817 
   -1776    -1750    -1817    -1863    -1784    -1723    -1787    -1871 
   -1842    -1753    -1741    -1798    -1834    -1821    -1799    -1790 
   -1759    -1767    -1852    -1865    -1769    -1726    -1771    -1831 
   -1865    -1823    -1732    -1717    -1809    -1884    -1841    -1773 
   -1773    -1768    -1780    -1853    -1826    -1723    -1759    -1869 
   -1840    -1737    -1790    -1880    -1782    -1680    -1779    -1898 
   -1845    -1744    -1765    -1817    -1799    -1802    -1830    -1807 
   -1748    -1742    -1822    -1884    -1818    -1718    -1756    -1841 
   -1836    -1804    -1780    -1769    -1815    -1822    -1768    -1772 
   -1834    -1845    -1760    -1734    -1837    -1863    -1783    -1756 
   -1794    -1826    -1804    -1773    -1798    -1834    -1807    -1742 
   -1760    -1849    -1864    -1794    -1737    -1752    -1829    -1875 
   -1818    -1733    -1728    -1814    -1883    -1842    -1749    -1717 
   -1782    -1863    -1849    -1777    -1760    -1794    -1837    -1837 
   -1777    -1730    -1779    -1872    -1849    -1738    -1737    -1838 
   -1860    -1784    -1750    -1803    -1821    -1786    -1794    -1815 
   -1795    -1792    -1827    -1826    -1749    -1713    -1825    -1921 
   -1822    -1684    -1737    -1876    -1873    -1777    -1742    -1760 
   -1826    -1880    -1803    -1699    -1738    -1877    -1918    -1775 
   -1671    -1782    -1892    -1844    -1745    -1718    -1823    -1904 
   -1809    -1713    -1750    -1836    -1854    -1790    -1764    -1787 
   -1791    -1823    -1842    -1786    -1759    -1798    -1798    -1780 
   -1830    -1848    -1769    -1748    -1811    -1821    -1790    -1819 
   -1837    -1738    -1711    -1873    -1918    -1723    -1653    -1841 
   -1957    -1814    -1657    -1734    -1890    -1871    -1757    -1748 
   -1804    -1809    -1809    -1826    -1783    -1740    -1806    -1880 
   -1804    -1728    -1792    -1821    -1783    -1819    -1842    -1786 
   -1741    -1759    -1830    -1861    -1813    -1768    -1738    -1779 
   -1892    -1838    -1696    -1769    -1880    -1798    -1736    -1831 
   -1868    -1746    -1710    -1833    -1873    -1809    -1792    -1761 
   -1719    -1819    -1938    -1849    -1665    -1661    -1833    -1939 
   -1885    -1740    -1645    -1765    -1930    -1877    -1730    -1694 
   -1771    -1881    -1911    -1791    -1674    -1755    -1890    -1838 
   -1741    -1786    -1836    -1772    -1764    -1865    -1846    -1711 
   -1725    -1880    -1918    -1745    -1637    -1813    -1960    -1815 
   -1655    -1742    -1914    -1880    -1745    -1744    -1780    -1780 
   -1849    -1887    -1745    -1644    -1826    -1976    -1819    -1675 
   -1755    -1840    -1821    -1822    -1817    -1715    -1733    -1906 
   -1890    -1717    -1703    -1842    -1881    -1763    -1722    -1818 
   -1841    -1780    -1772    -1823    -1836    -1775    -1746    -1814 
   -1858    -1794    -1740    -1790    -1829    -1804    -1803    -1799 
   -1765    -1780    -1830    -1849    -1794    -1696    -1757    -1915 
   -1888    -1737    -1690    -1780    -1881    -1876    -1799    -1705 
   -1688    -1849    -1973    -1819    -1625    -1717    -1929    -1900 
   -1721    -1709    -1825    -1857    -1817    -1794    -1764    -1756 
   -1829    -1858    -1769    -1740    -1827    -1846    -1777    -1755 
   -1792    -1846    -1846    -1768    -1719    -1795    -1890    -1840 
   -1715    -1719    -1842    -1887    -1810    -1753    -1776    -1807 
   -1809    -1809    -1800    -1759    -1755    -1849    -1894    -1776 
   -1698    -1790    -1873    -1815    -1746    -1784    -1829    -1814 
   -1800    -1783    -1783    -1831    -1831    -1759    -1726    -1810 
   -1891    -1814    -1722    -1771    -1848    -1848    -1776    -1745 
   -1809    -1819    -1777    -1806    -1840    -1802    -1749    -1761 
   -1825    -1840    -1809    -1783    -1748    -1768    -1865    -1884 
   -1769    -1688    -1773    -1890    -1844    -1748    -1773    -1803 
   -1772    -1818    -1884    -1792    -1690    -1787    -1895    -1819 
   -1741    -1773    -1787    -1783    -1845    -1877    -1783    -1698 
   -1768    -1879    -1858    -1745    -1711    -1813    -1900    -1842 
   -1723    -1709    -1826    -1899    -1814    -1732    -1764    -1810 
   -1830    -1822    -1768    -1753    -1815    -1858    -1799    -1719 
   -1791    -1899    -1814    -1703    -1757    -1826    -1844    -1840 
   -1780    -1742    -1802    -1849    -1806    -1750    -1759    -1802 
   -1836    -1863    -1826    -1723    -1718    -1826    -1860    -1800 
   -1776    -1798    -1791    -1779    -1823    -1850    -1777    -1719 
   -1787    -1869    -1819    -1744    -1802    -1858    -1775    -1711 
   -1795    -1885    -1842    -1748    -1756    -1810    -1806    -1818 
   -1838    -1765    -1717    -1814    -1899    -1827    -1736    -1759 
   -1790    -1791    -1858    -1884    -1736    -1657    -1841    -1949 
   -1782    -1696    -1811    -1837    -1772    -1802    -1849    -1790 
   -1737    -1792    -1840    -1811    -1769    -1769    -1822    -1861 
   -1814    -1723    -1748    -1873    -1852    -1733    -1757    -1834 
   -1840    -1798    -1756    -1786    -1838    -1827    -1763    -1744 
   -1846    -1876    -1748    -1719    -1844    -1881    -1772    -1718 
   -1811    -1860    -1786    -1756    -1807    -1844    -1804    -1750 
   -1792    -1846    -1798    -1757    -1799    -1838    -1818    -1779 
   -1771    -1775    -1804    -1849    -1802    -1729    -1782    -1861 
   -1849    -1792    -1753    -1737    -1773    -1864    -1883    -1784 
   -1715    -1767    -1854    -1868    -1777    -1710    -1765    -1850 
   -1871    -1823    -1738    -1707    -1800    -1911    -1864    -1713 
   -1694    -1819    -1891    -1818    -1725    -1767    -1845    -1838 
   -1813    -1771    -1733    -1780    -1858    -1852    -1771    -1729 
   -1788    -1869    -1848    -1744    -1705    -1810    -1918    -1856 
   -1729    -1718    -1790    -1857    -1845    -1765    -1733    -1795 
   -1879    -1845    -1721    -1729    -1845    -1852    -1783    -1767 
   -1796    -1830    -1821    -1772    -1763    -1804    -1826    -1814 
   -1799    -1783    -1768    -1787    -1856    -1856    -1723    -1711 
   -1895    -1896    -1690    -1705    -1894    -1869    -1734    -1779 
   -1849    -1760    -1730    -1869    -1885    -1715    -1706    -1876 
   -1888    -1757    -1733    -1804    -1833    -1788    -1765    -1830 
   -1849    -1772    -1752    -1798    -1825    -1822    -1796    -1767 
   -1763    -1807    -1867    -1821    -1729    -1756    -1841    -1853 
   -1806    -1763    -1765    -1790    -1822    -1857    -1784    -1692 
   -1792    -1930    -1864    -1699    -1701    -1856    -1885    -1759 
   -1734    -1818    -1827    -1792    -1815    -1837    -1777    -1711 
   -1773    -1884    -1857    -1741    -1726    -1819    -1865    -1819 
   -1767    -1759    -1792    -1837    -1836    -1791    -1753    -1752 
   -1821    -1884    -1809    -1705    -1750    -1867    -1884    -1777 
   -1714    -1782    -1829    -1813    -1827    -1827    -1767    -1728 
   -1786    -1881    -1865    -1756    -1706    -1759    -1877    -1929 
   -1779    -1620    -1746    -1966    -1902    -1686    -1691    -1857 
   -1868    -1763    -1776    -1837    -1790    -1753    -1827    -1856 
   -1764    -1733    -1837    -1869    -1757    -1729    -1846    -1879 
   -1752    -1705    -1844    -1887    -1741    -1738    -1869    -1831 
   -1734    -1779    -1845    -1815    -1757    -1776    -1822    -1813 
   -1794    -1798    -1802    -1804    -1791    -1784    -1821    -1817 
   -1763    -1790    -1844    -1791    -1733    -1810    -1906    -1814 
   -1667    -1746    -1926    -1885    -1705    -1688    -1830    -1906 
   -1837    -1730    -1730    -1813    -1865    -1836    -1753    -1750 
   -1831    -1837    -1790    -1769    -1769    -1807    -1845    -1830 
   -1779    -1746    -1790    -1875    -2064    -2594    -3040    -2131 
    -103      410    -1212    -1894    -1188    -2473    -4600    -2840 
     243    -1051    -3157    -1551     -247    -1024    -1894    -4114 
   -5575    -2058     2605     2192    -2197    -5283    -4569     -967 
    1950       -6    -4557    -5236    -1876      738      109    -2335 
   -3314    -2205    -1329    -1417    -1792    -2170    -1692     -483 
    -992    -3740    -5043    -2346     1502     2255     -157    -2968 
   -4822    -5467    -3910     -596      912     -915    -1961     -299 
    -537    -3578    -3838     -791      278    -1246    -2097    -2624 
   -4178    -4507    -2027      384     -117    -1518    -1181    -1262 
   -2727    -2041     -263    -1425    -2879    -1825    -1471    -3183 
   -4306    -2992     -337      302    -1362    -1476      257     -167 
   -3199    -4629    -3181    -2366    -2808    -1541      537      310 
   -1387    -2353    -2743    -3092    -2709    -1513     -876    -1125 
   -1229    -1437    -2277    -2752    -2195    -1287    -1092    -1917 
   -2698    -2394    -1487    -1206    -1530    -1336    -1323    -2604 
   -3234    -1999     -828     -772    -1483    -2304    -2200    -1786 
   -2107    -2313    -1925    -1377     -886    -1097    -2154    -2880 
   -2484    -1699    -1630    -1961    -1553     -692     -909    -1935 
   -2006    -1800    -2509    -2774    -2490    -2359    -1208     -174 
    -950    -1347    -1296    -3400    -5109    -2694      697      703 
   -1144    -1961    -2018    -2188    -2614    -3257    -2984    -1063 
     525     -383    -2767    -3754    -2390     -904    -1290    -2070 
   -1205     -361    -1544    -2585    -2259    -2907    -3493    -1485 
      51    -1601    -3075    -1802     -429    -1242    -2629    -2837 
   -2176    -1734    -2272    -2361     -897     -758    -2600    -2709 
   -1992    -3960    -5292    -1556     3979     5849     3897     1678 
     891     -518    -4191    -7846    -8557    -6917    -5406    -4737 
   -3954    -2918    -1966     -284     1699     1449     -626    -1278 
    -456     -637    -1749    -1571     -301     -703    -2677    -3743 
   -4186    -4428    -2671      648     2902     2560     -321    -3775 
   -5946    -6987    -6400    -3238      527     1783      648     -210 
    -152     -842    -2278    -3358    -4248    -4333    -2660     -855 
    -557     -711     -276     -129    -1120    -2208    -1898     -778 
    -486    -1287    -2660    -3962    -4191    -3207    -1972    -1491 
   -2077    -2574    -2119    -1624    -1240     -548     -306     -575 
    -923    -1644    -2490    -3318    -4002    -3422    -1784     -769 
    -857    -1468    -1678    -1135     -976    -1390    -1309    -1232 
   -1925    -2921    -3559    -3168    -2135    -1251     -101      569 
    -486    -1961    -2548    -2637    -2686    -2851    -2613    -1630 
    -958    -1129    -1405    -1647    -2205    -2675    -2475    -2053 
   -2101    -2014    -1318    -1192    -1850    -1792    -1032    -1039 
   -1975    -2809    -3010    -2671    -1794     -807     -526     -841 
   -1185    -1613    -2182    -2350    -1696     -884     -811    -1491 
   -2513    -3312    -3387    -2689    -1482     -622     -849    -1487 
   -1622    -1787    -2640    -3106    -2247    -1298    -1061     -737 
    -885    -2301    -3375    -3191    -2725    -2016    -1166     -945 
    -999    -1019    -1046     -664     -562    -1601    -2929    -3423 
   -2897    -2204    -2074    -1879    -1688    -2192    -2232    -1327 
   -1104    -1665    -1645    -1155    -1012    -1090    -1204    -1794 
   -2637    -2704    -2262    -2494    -3018    -2832    -2065    -1177 
    -487     -209     -337    -1081    -2470    -3643    -3547    -2320 
   -1382    -1224     -757     -151     -904    -2416    -2741    -2251 
   -2311    -2214    -1352    -1096    -1902    -2573    -2621    -2347 
   -1981    -1626    -1194    -1020    -1393    -1701    -1777    -1946 
   -1684     -919     -838    -1912    -2916    -2763    -2285    -2196 
   -1304      149     -191    -2166    -3515    -3877    -3892    -3308 
   -1953     -282     1050     1277     -214    -2760    -4401    -4218 
   -3028    -1541     -302      -47     -546    -1135    -1952    -2911 
   -3171    -2469    -1555    -1150    -1243    -1680    -2546    -3022 
   -2160    -1026    -1019    -1479    -1313    -1148    -1935    -2883 
   -2949    -2401    -1729    -1229     -958    -1007    -1817    -2469 
   -1854    -1259    -1516    -1522    -1240    -1547    -2173    -2415 
   -2471    -2695    -2492    -1644    -1050    -1112    -1518    -1838 
   -1791    -1786    -1903    -1606    -1370    -1980    -2778    -2628 
   -1803    -1498    -1667    -1467    -1304    -1690    -1948    -1860 
   -2000    -2261    -2155    -1875    -1798    -1561    -1017    -1027 
   -1647    -1744    -1308    -1491    -2439    -2961    -2570    -2281 
   -2458    -2245    -1575     -923     -294     -105     -772    -1809 
   -2830    -3566    -3281    -2242    -1574    -1340    -1166    -1244 
   -1602    -2147    -2786    -2829    -1802     -410      365      137 
    -946    -2258    -3316    -3878    -3574    -2673    -1738     -648 
     321      189    -1183    -2907    -4032    -3987    -2778    -1282 
    -588     -592     -603     -946    -2002    -2949    -2982    -2270 
   -1421     -907    -1000    -1737    -2408    -2247    -1972    -2293 
   -2371    -1722    -1043     -815    -1035    -1768    -2839    -3268 
   -2515    -1566    -1102     -783     -716    -1150    -1917    -2716 
   -2843    -2170    -1671    -1663    -1582    -1306    -1213    -1615 
   -2293    -2552    -2133    -1497    -1306    -1667    -2008    -2215 
   -2378    -1977    -1227    -1066    -1479    -1858    -1953    -1865 
   -1900    -2124    -2276    -2215    -2016    -1750    -1521    -1250 
    -824     -857    -1676    -2409    -2506    -2308    -2045    -1590 
   -1048    -1112    -1985    -2781    -2793    -2336    -2112    -1912 
   -1104     -571    -1227    -1977    -1935    -1703    -1636    -1628 
   -1796    -2076    -2203    -2158    -2142    -2185    -2035    -1633 
   -1206    -1012    -1255    -1772    -2093    -2169    -2214    -2084 
   -1655    -1293    -1375    -1709    -1852    -1858    -2077    -2245 
   -1977    -1671    -1632    -1551    -1422    -1571    -1950    -2196 
   -2193    -2145    -1971    -1561    -1490    -1938    -2076    -1660 
   -1418    -1526    -1409    -1051    -1358    -2570    -3326    -2772 
   -1880    -1347     -897     -819    -1383    -1929    -2155    -2421 
   -2459    -1876    -1344    -1395    -1528    -1656    -2080    -2367 
   -2239    -1903    -1435    -1151    -1186    -1262    -1609    -2377 
   -2875    -2632    -2069    -1750    -1564    -1142     -876    -1327 
   -2014    -2258    -2246    -2162    -1784    -1459    -1709    -2076 
   -2041    -1906    -1811    -1588    -1443    -1543    -1680    -1680 
   -1606    -1610    -1861    -2344    -2592    -2276    -1792    -1497 
   -1336    -1375    -1593    -1796    -1996    -2149    -2054    -1691 
   -1347    -1370    -1764    -2223    -2336    -1911    -1470    -1482 
   -1582    -1647    -1999    -2474    -2710    -2419    -1463     -571 
    -498     -904    -1507    -2454    -3078    -2681    -1987    -1836 
   -1733    -1310    -1278    -1757    -1977    -1898    -1910    -1813 
   -1544    -1544    -1814    -1850    -1618    -1669    -2079    -2236 
   -2088    -2116    -2181    -1961    -1580    -1155     -886    -1121 
   -1736    -2199    -2231    -1968    -1718    -1701    -1790    -1787 
   -1844    -2058    -2220    -2251    -2160    -1784    -1279    -1178 
   -1453    -1617    -1795    -2181    -2332    -2108    -1894    -1786 
