Origin Time       2025/03/30 10:46:00
Lat.              32.923
Long.             130.372
Depth. (km)       11
Mag.              3.4
Station Code      FKO015
Station Lat.      33.1629
Station Long.     130.4052
Station Height(m) 3
Record Time       2025/03/30 10:46:30
Sampling Freq(Hz) 100Hz
Duration Time(s)  60
Dir.              E-W
Scale Factor      7845(gal)/8223790
Max. Acc. (gal)   2.472
Last Correction   2025/03/30 10:46:30
Memo.             
[...]
  -12025   -12037   -12017   -12006   -12013   -12005   -12015   -12036 
  -12031   -12025   -12028   -12019   -12019   -12024   -12019   -12019 
  -12020   -12009   -12015   -12043   -12043   -12029   -12048   -12044 
  -12005   -12017   -12051   -12044   -12024   -12004   -12004   -12017 
  -12002   -12005   -12050   -12064   -12036   -12015   -12013   -12017 
  -12020   -12019   -12012   -12023   -12039   -12028   -12027   -12019 
  -11998   -12017   -12044   -12032   -12023   -12033   -12031   -12023 
  -12027   -12025   -12027   -12027   -12010   -12000   -11998   -12002 
  -12024   -12043   -12043   -12031   -12019   -12012   -12016   -12031 
  -12033   -12024   -12024   -12020   -12004   -12009   -12040   -12044 
  -12031   -12037   -12035   -12015   -12024   -12043   -12033   -12019 
  -12006   -11993   -12005   -12035   -12042   -12031   -12020   -12004 
  -11992   -11998   -12012   -12008   -12006   -12024   -12037   -12036 
  -12031   -12023   -12025   -12027   -12020   -12012   -11998   -11996 
  -12013   -12024   -12042   -12060   -12033   -12009   -12021   -12017 
  -12006   -12028   -12040   -12028   -12021   -12027   -12035   -12036 
  -12019   -12004   -12017   -12036   -12028   -12021   -12029   -12017 
  -12008   -12017   -12024   -12044   -12050   -12015   -12000   -12023 
  -12027   -12023   -12036   -12032   -12012   -12010   -12019   -12023 
  -12036   -12039   -12031   -12032   -12025   -12013   -12024   -12036 
  -12027   -12016   -12016   -12006   -12001   -12021   -12037   -12033 
  -12025   -12021   -12012   -12008   -12023   -12042   -12048   -12042 
  -12023   -12010   -12021   -12035   -12032   -12025   -12020   -12017 
  -12010   -12005   -12012   -12010   -11997   -12000   -12029   -12043 
  -12028   -12029   -12021   -12012   -12036   -12044   -12027   -12023 
  -12021   -12024   -12042   -12054   -12042   -12027   -12023   -12019 
  -12024   -12050   -12055   -12031   -12019   -12020   -12017   -12010 
  -12010   -12027   -12036   -12019   -12002   -12010   -12008   -12004 
  -12033   -12048   -12032   -12031   -12021   -12016   -12035   -12031 
  -12023   -12039   -12032   -12020   -12023   -12010   -12010   -12019 
  -12016   -12028   -12033   -12025   -12040   -12054   -12048   -12036 
  -12027   -12025   -12024   -12032   -12035   -12009   -12009   -12025 
  -12017   -12020   -12028   -12017   -12010   -12015   -12025   -12021 
  -12010   -12024   -12033   -12017   -12008   -12023   -12028   -12024 
  -12040   -12052   -12048   -12047   -12029   -12013   -12010   -12000 
  -12001   -12009   -12009   -12037   -12051   -12029   -12021   -12013 
  -12001   -12015   -12023   -12019   -12029   -12027   -12002   -12008 
  -12032   -12035   -12036   -12052   -12048   -12036   -12029   -12028 
  -12025   -12010   -12000   -12020   -12036   -12025   -12025   -12028 
  -12016   -11996   -11998   -12016   -12016   -12019   -12031   -12017 
  -12006   -12016   -12016   -12020   -12033   -12032   -12047   -12066 
  -12039   -12015   -12013   -12015   -12037   -12051   -12036   -12027 
  -12004   -11978   -11992   -12012   -12004   -12008   -12047   -12071 
  -12056   -12033   -12024   -12010   -11996   -11997   -11996   -12004 
  -12033   -12058   -12051   -12025   -12004   -11998   -12002   -12012 
  -12027   -12040   -12042   -12027   -12015   -12015   -12010   -12016 
  -12040   -12052   -12047   -12043   -12042   -12031   -12012   -12004 
  -12004   -12002   -12017   -12031   -12024   -12024   -12046   -12054 
  -12047   -12042   -12017   -12009   -12031   -12024   -12008   -12006 
  -12004   -11992   -12002   -12033   -12039   -12036   -12037   -12024 
  -12005   -12001   -12023   -12033   -12025   -12027   -12015   -12002 
  -12027   -12050   -12037   -12021   -12008   -12012   -12043   -12052 
  -12050   -12062   -12043   -12002   -11990   -11988   -12006   -12047 
  -12040   -12009   -12021   -12033   -12010   -11993   -12024   -12055 
  -12048   -12052   -12051   -12017   -11990   -11992   -12009   -12025 
  -12024   -12006   -12010   -12037   -12043   -12021   -12017   -12039 
  -12033   -12019   -12023   -12004   -11985   -12004   -12025   -12054 
  -12083   -12063   -12028   -12017   -12010   -12028   -12046   -12029 
  -12027   -12033   -12031   -12043   -12042   -12028   -12028   -12024 
  -12019   -12017   -12016   -12005   -11997   -12015   -12031   -12012 
  -11971   -11967   -12009   -12050   -12056   -12039   -12043   -12056 
  -12016   -11992   -12027   -12037   -12028   -12023   -12000   -11996 
  -12006   -12023   -12066   -12077   -12021   -11983   -12000   -12029 
  -12054   -12074   -12056   -11983   -11961   -12033   -12085   -12075 
  -12046   -11982   -11927   -11962   -12052   -12097   -12079   -12021 
  -11948   -11939   -12019   -12090   -12098   -12059   -11990   -11965 
  -12016   -12056   -12075   -12064   -11992   -11934   -11961   -12037 
  -12097   -12098   -12042   -11973   -11954   -11974   -12028   -12074 
  -12051   -12033   -12019   -11963   -11973   -12042   -12075   -12101 
  -12078   -11988   -11967   -12006   -12015   -12025   -12040   -12033 
  -12023   -12042   -12075   -12082   -12055   -12002   -11955   -11959 
  -12004   -12046   -12070   -12071   -12033   -11982   -11975   -12010 
  -12040   -12012   -11951   -11956   -12019   -12051   -12064   -12060 
  -12000   -11969   -12009   -12032   -12047   -12079   -12067   -12028 
  -12016   -12016   -12031   -12052   -12039   -11988   -11961   -11988 
  -12031   -12077   -12106   -12071   -12015   -11969   -11901   -11916 
  -12046   -12109   -12091   -12063   -11977   -11929   -11988   -12025 
  -12033   -12050   -12054   -12056   -12054   -12037   -12016   -12001 
  -11981   -11962   -11974   -12012   -12056   -12082   -12067   -12036 
  -12025   -12025   -11990   -11938   -11929   -11967   -12021   -12089 
  -12144   -12148   -12113   -12058   -11971   -11920   -11944   -11985 
  -12033   -12082   -12091   -12098   -12085   -11982   -11878   -11892 
  -11971   -12064   -12166   -12178   -12073   -11951   -11885   -11885 
  -11947   -12036   -12079   -12071   -12052   -12031   -12035   -12058 
  -12055   -12033   -11997   -11944   -11939   -12021   -12102   -12129 
  -12125   -12046   -11935   -11898   -11929   -12009   -12109   -12143 
  -12090   -12015   -11981   -11977   -11978   -12000   -12044   -12082 
  -12063   -12033   -12024   -12008   -12023   -12047   -12027   -12009 
  -11996   -11975   -11998   -12051   -12071   -12078   -12073   -12019 
  -11978   -11959   -11959   -12015   -12054   -12048   -12058   -12056 
  -12001   -11961   -11967   -11977   -12012   -12071   -12075   -12043 
  -12031   -12004   -11981   -12002   -12037   -12054   -12063   -12048 
  -12031   -12032   -12015   -12008   -12033   -12035   -12027   -12044 
  -12052   -12031   -12012   -12001   -11986   -12009   -12037   -12032 
  -12044   -12058   -12020   -11986   -11993   -12006   -12027   -12046 
  -12029   -12009   -12010   -12010   -12031   -12075   -12083   -12051 
  -12040   -12028   -11998   -12005   -12024   -12006   -12002   -12027 
  -12024   -12027   -12035   -12013   -12013   -12031   -12025   -12031 
  -12037   -12036   -12046   -12060   -12048   -12004   -11985   -12008 
  -12015   -12017   -12040   -12046   -12023   -11998   -11982   -12001 
  -12042   -12063   -12063   -12040   -12005   -11996   -11998   -12004 
  -12032   -12064   -12055   -12032   -12017   -11978   -11954   -11993 
  -12032   -12047   -12064   -12059   -12047   -12046   -12016   -12001 
  -12020   -12021   -12023   -12036   -12027   -12002   -11994   -12008 
  -12047   -12081   -12056   -12001   -11983   -11994   -11997   -12009 
  -12058   -12069   -12027   -12009   -12000   -11982   -11992   -12036 
  -12085   -12085   -12044   -12013   -11983   -11956   -11951   -11973 
  -12006   -12039   -12077   -12102   -12067   -12020   -12010   -12013 
  -12047   -12085   -12052   -12004   -11990   -11982   -11989   -12021 
  -12040   -12037   -12039   -12013   -11967   -11979   -12025   -12042 
  -12039   -12032   -12025   -12027   -12028   -12021   -12027   -12027 
  -12001   -12006   -12046   -12043   -12009   -11996   -12016   -12031 
  -12035   -12036   -12015   -11998   -12006   -12013   -12036   -12059 
  -12046   -12039   -12037   -12010   -11998   -12002   -11998   -12015 
  -12021   -12012   -12032   -12051   -12039   -12015   -12001   -12012 
  -12025   -12039   -12037   -12021   -12017   -12004   -11994   -12029 
  -12043   -12021   -12024   -12031   -12037   -12060   -12052   -12037 
  -12033   -11988   -11967   -12013   -12021   -12005   -12043   -12062 
  -12035   -12023   -12006   -11988   -12004   -12009   -12000   -12019 
  -12040   -12028   -12019   -12033   -12024   -12012   -12025   -12023 
  -12017   -12033   -12027   -12004   -12002   -12010   -12017   -12029 
  -12044   -12056   -12062   -12039   -12000   -11994   -12019   -12031 
  -12028   -12027   -12019   -12019   -12036   -12027   -12017   -12040 
  -12039   -12021   -12040   -12054   -12035   -12019   -12004   -11989 
  -12001   -12023   -12029   -12037   -12037   -12016   -11994   -12000 
  -12024   -12056   -12060   -12005   -12005   -12089   -12002   -11827 
  -12004   -12236   -11978   -11830   -12163   -12190   -11955   -11965 
  -11950   -12036   -12143   -11947   -11973   -12082   -12010   -12183 
  -12096   -11724   -11986   -12310   -12002   -11830   -12042   -12144 
  -12104   -11994   -11911   -12067   -12144   -11943   -11925   -12117 
  -12129   -11931   -11867   -12108   -12154   -11923   -11897   -11948 
  -12023   -12185   -12082   -11911   -12001   -12132   -12102   -11862 
  -11793   -12159   -12285   -12004   -11874   -11934   -12100   -12155 
  -11990   -11982   -12006   -11996   -12098   -12094   -12074   -12050 
  -12000   -12118   -12087   -11846   -11807   -11966   -12163   -12206 
  -12021   -11946   -12008   -11925   -11924   -12125   -12109   -11997 
  -12063   -12043   -12044   -12069   -11862   -11916   -12241   -12137 
  -11844   -11888   -12079   -12155   -12059   -11904   -11951   -12177 
  -12148   -11897   -11892   -12074   -12102   -11947   -11912   -12056 
  -12143   -12186   -12135   -11956   -11929   -11969   -11931   -11993 
  -12073   -12079   -12051   -12013   -12050   -11966   -11862   -12114 
  -12268   -12090   -12031   -11981   -11850   -11947   -12116   -12067 
  -12005   -12077   -12051   -12000   -12105   -12048   -11839   -11898 
  -12077   -12113   -12085   -11998   -11948   -12015   -12056   -12075 
  -12069   -12005   -11983   -11944   -11865   -11948   -12183   -12243 
  -12063   -11943   -12031   -12086   -11901   -11817   -11988   -12101 
  -12112   -12052   -11986   -12044   -12059   -11970   -11966   -11988 
  -11919   -11946   -12144   -12258   -12148   -12006   -12021   -12051 
  -11944   -11878   -11936   -12048   -12143   -12058   -11892   -11904 
  -12046   -12129   -12113   -12087   -12048   -11954   -11923   -12001 
  -12116   -12159   -11983   -11848   -11977   -12043   -11970   -11979 
  -12071   -12170   -12160   -12023   -11938   -11974   -12059   -12050 
  -11919   -11904   -12046   -12123   -12067   -11975   -11997   -12137 
  -12136   -11959   -11869   -11958   -12058   -12021   -11907   -11952 
  -12145   -12089   -11932   -12052   -12151   -12096   -12029   -12010 
  -12081   -12040   -11851   -11796   -11958   -12091   -12063   -12066 
  -12147   -12141   -12066   -12019   -11997   -11990   -12006   -12001 
  -11966   -11992   -12064   -12060   -11981   -11894   -11870   -11920 
  -11982   -12047   -12086   -12085   -12158   -12241   -12116   -11901 
  -11866   -11969   -12029   -12060   -12127   -12050   -11900   -12013 
  -12117   -11938   -11874   -12104   -12248   -12097   -11917   -11954 
  -12089   -12047   -11839   -11831   -12039   -12100   -12128   -12251 
  -12136   -11956   -12021   -12102   -12140   -12000   -11713   -11777 
  -11904   -11801   -11913   -12136   -12170   -12158   -12163   -12136 
  -12091   -12002   -11889   -12067   -12357   -12090   -11704   -11896 
  -12209   -12124   -11874   -11920   -12132   -12056   -11830   -11950 
  -12397   -12361   -11755   -11616   -12004   -12133   -11996   -11996 
  -12082   -11940   -11885   -12197   -12326   -11997   -11750   -12021 
  -12267   -12040   -11921   -12069   -12102   -12017   -11901   -12033 
  -12240   -11997   -11780   -11979   -12131   -12000   -11998   -12274 
  -12221   -11951   -11989   -11851   -11578   -11848   -12193   -12175 
  -12133   -12042   -11969   -12168   -12210   -11911   -11886   -12054 
  -11894   -11715   -11971   -12401   -12237   -11703   -11836   -12236 
  -12133   -11925   -12001   -12275   -12290   -11923   -11821   -12090 
  -12133   -11938   -11977   -12260   -12286   -11893   -11726   -12021 
  -12163   -12056   -12035   -11932   -11704   -11824   -12182   -12216 
  -12047   -12025   -12087   -12037   -11994   -12117   -12135   -11979 
  -11946   -12137   -12569   -13039   -13095   -12764   -12598   -12641 
  -12425   -12175   -12226   -12213   -12056   -12098   -12143   -11591 
  -10839   -10663   -10571   -10319   -10378   -10531   -10669   -11024 
  -11229   -10974   -10773   -10940   -11115   -11476   -12249   -12685 
  -12777   -13140   -13339   -13159   -13005   -13074   -13525   -14146 
  -14593   -14598   -14030   -13393   -12926   -12058   -10886   -10385 
  -10725   -11279   -11734   -11985   -12027   -11948   -11904   -12190 
  -12453   -12054   -11295   -10899   -11092   -11311   -10980   -10528 
  -10350   -10233   -10158   -10326   -10908   -11718   -12492   -13398 
  -14234   -14573   -14615   -14482   -14025   -13613   -13366   -12746 
  -12009   -11503   -10889   -10534   -10766   -11051   -11219   -11523 
  -11869   -11878   -11808   -12301   -12922   -12731   -11932   -11472 
  -11346   -11030   -10906   -11435   -12194   -12469   -12008   -11410 
  -11267   -11215   -11277   -12010   -12789   -13019   -13216   -13413 
  -12966   -12023   -11749   -12289   -12456   -12062   -11820   -11940 
  -12070   -11855   -11649   -11898   -12318   -12487   -12282   -12004 
  -12044   -12040   -11666   -11569   -11913   -12015   -11969   -12166 
  -12220   -11854   -11426   -11446   -11956   -12445   -12536   -12253 
  -11772   -11383   -11476   -12086   -12509   -12364   -12236   -12397 
  -12464   -12322   -12344   -12749   -12889   -12307   -11809   -11745 
  -11399   -10874   -10859   -11200   -11457   -11531   -11360   -11160 
  -11356   -11913   -12463   -12758   -12444   -11719   -11668   -12240 
  -12438   -12406   -12607   -12872   -13112   -13379   -13377   -12866 
  -12270   -11952   -11838   -11835   -11700   -11327   -11099   -11210 
  -11331   -11232   -11184   -11460   -11870   -12266   -12771   -13234 
  -13220   -12617   -11871   -11416   -11375   -11701   -12036   -12179 
  -12199   -12025   -11793   -11626   -11350   -11040   -10984   -11290 
  -11773   -12062   -12006   -11848   -11892   -12199   -12598   -12926 
  -13186   -13275   -12895   -12245   -11897   -11800   -11778   -12017 
  -12399   -12667   -12777   -12717   -12592   -12469   -12247   -12006 
  -11857   -11765   -11701   -11686   -11645   -11304   -10871   -10758 
  -10805   -10986   -11299   -11429   -11515   -11718   -11969   -12314 
  -12621   -12780   -12826   -12947   -13203   -13190   -12888   -12567 
  -12247   -12056   -12089   -12091   -11848   -11511   -11399   -11577 
  -11790   -11928   -12032   -12083   -12147   -12135   -11978   -11913 
  -11915   -11735   -11612   -11884   -12313   -12496   -12424   -12253 
  -12062   -11978   -11963   -11788   -11570   -11475   -11416   -11512 
  -11638   -11441   -11281   -11573   -12098   -12555   -12931   -13396 
  -13741   -13747   -13576   -13149   -12460   -12043   -12048   -11902 
  -11439   -11087   -10894   -10617   -10354   -10399   -10773   -11225 
  -11622   -11912   -12017   -12066   -12249   -12487   -12650   -12721 
  -12818   -13097   -13378   -13358   -12984   -12318   -11658   -11388 
  -11415   -11488   -11626   -11785   -11932   -12140   -12241   -12124 
  -11819   -11311   -10898   -10831   -10920   -11088   -11402   -11745 
  -12008   -12328   -12854   -13279   -13311   -13224   -13080   -12640 
  -12010   -11449   -11053   -10746   -10646   -11102   -11981   -12739 
  -13113   -13209   -13181   -13077   -12941   -12841   -12711   -12357 
  -11942   -11778   -11724   -11554   -11319   -11214   -11330   -11414 
  -11423   -11573   -11704   -11811   -12085   -12352   -12442   -12345 
  -12116   -11936   -11722   -11398   -11271   -11391   -11576   -11908 
  -12391   -12730   -12812   -12800   -12802   -12791   -12618   -12263 
  -11946   -11769   -11665   -11515   -11399   -11511   -11739   -11942 
  -12052   -12029   -11973   -11897   -11792   -11781   -11901   -12021 
  -12050   -11969   -11850   -11913   -12093   -12168   -12228   -12262 
  -12197   -12264   -12526   -12789   -12843   -12617   -12382   -12236 
  -11966   -11595   -11296   -11149   -11172   -11384   -11722   -11923 
  -12024   -12363   -12775   -12930   -12900   -12754   -12634   -12741 
  -12800   -12588   -12355   -12148   -11861   -11626   -11446   -11157 
  -10828   -10687   -10758   -10920   -11145   -11321   -11407   -11592 
  -11842   -11921   -11819   -11745   -11869   -12060   -12187   -12333 
  -12426   -12394   -12363   -12425   -12688   -13101   -13273   -13109 
  -12920   -12711   -12393   -12116   -11816   -11454   -11279   -11256 
  -11242   -11264   -11356   -11654   -12118   -12490   -12677   -12630 
  -12340   -11951   -11593   -11395   -11421   -11592   -11831   -12002 
  -11973   -11898   -12010   -12204   -12258   -12229   -12291   -12422 
  -12506   -12564   -12685   -12750   -12648   -12580   -12609   -12513 
  -12236   -11884   -11653   -11647   -11601   -11353   -11121   -11068 
  -11114   -11230   -11506   -11817   -11902   -11850   -11977   -12263 
  -12430   -12390   -12287   -12280   -12388   -12424   -12289   -12160 
  -12091   -11966   -11770   -11631   -11699   -11863   -11916   -11898 
  -11929   -12043   -12217   -12352   -12353   -12322   -12303   -12224 
  -12181   -12229   -12251   -12127   -11896   -11832   -11990   -12071 
  -12050   -12094   -12097   -11997   -11927   -11855   -11684   -11499 
  -11441   -11554   -11831   -12159   -12334   -12303   -12204   -12086 
  -11947   -11863   -11853   -11874   -11928   -12015   -12156   -12306 
  -12405   -12467   -12438   -12399   -12486   -12517   -12399   -12264 
  -12097   -12028   -12244   -12440   -12303   -12044   -11905   -11796 
  -11668   -11631   -11631   -11524   -11368   -11340   -11499   -11614 
  -11533   -11438   -11454   -11577   -11755   -11836   -11781   -11716 
  -11842   -12121   -12303   -12344   -12297   -12179   -12043   -11932 
  -11986   -12275   -12583   -12754   -12834   -12865   -12883   -12823 
  -12584   -12302   -12094   -11898   -11770   -11704   -11669   -11751 
  -11862   -11958   -12094   -12086   -11902   -11812   -11885   -11909 
  -11799   -11719   -11738   -11776   -11803   -11817   -11859   -11951 
  -12017   -12036   -12083   -12194   -12312   -12386   -12464   -12513 
  -12437   -12291   -12148   -12013   -11925   -11943   -12069   -12209 
  -12214   -12013   -11723   -11538   -11462   -11340   -11206   -11217 
  -11331   -11531   -11774   -11808   -11653   -11649   -11867   -12148 
  -12360   -12472   -12568   -12649   -12671   -12688   -12685   -12671 
  -12735   -12777   -12734   -12653   -12452   -12213   -12118   -12112 
