Origin Time       2025/03/30 10:46:00
Lat.              32.923
Long.             130.372
Depth. (km)       11
Mag.              3.4
Station Code      FKO016
Station Lat.      33.0159
Station Long.     130.4472
Station Height(m) 22
Record Time       2025/03/30 10:46:23
Sampling Freq(Hz) 100Hz
Duration Time(s)  60
Dir.              E-W
Scale Factor      7845(gal)/8223790
Max. Acc. (gal)   7.903
Last Correction   2025/03/30 10:46:23
Memo.             
[...]
  -12792   -12756   -12753   -12808   -12816   -12749   -12752   -12829 
  -12818   -12750   -12760   -12792   -12783   -12775   -12787   -12792 
  -12802   -12798   -12756   -12753   -12803   -12803   -12757   -12762 
  -12819   -12819   -12773   -12771   -12762   -12750   -12791   -12802 
  -12792   -12804   -12765   -12756   -12818   -12808   -12752   -12754 
  -12789   -12803   -12779   -12779   -12792   -12758   -12768   -12812 
  -12803   -12781   -12762   -12766   -12802   -12787   -12764   -12779 
  -12769   -12784   -12823   -12787   -12744   -12777   -12793   -12776 
  -12780   -12789   -12787   -12776   -12777   -12800   -12783   -12750 
  -12783   -12804   -12780   -12780   -12784   -12779   -12791   -12776 
  -12764   -12802   -12806   -12760   -12760   -12808   -12810   -12768 
  -12764   -12781   -12787   -12789   -12772   -12765   -12803   -12816 
  -12777   -12757   -12781   -12796   -12776   -12771   -12780   -12780 
  -12789   -12781   -12764   -12807   -12810   -12742   -12757   -12807 
  -12798   -12780   -12762   -12769   -12799   -12798   -12785   -12772 
  -12769   -12787   -12788   -12799   -12789   -12745   -12768   -12815 
  -12796   -12777   -12764   -12766   -12810   -12793   -12753   -12779 
  -12789   -12780   -12793   -12789   -12777   -12777   -12791   -12799 
  -12769   -12753   -12783   -12800   -12798   -12783   -12761   -12785 
  -12807   -12772   -12760   -12785   -12791   -12789   -12798   -12791 
  -12761   -12742   -12793   -12852   -12789   -12719   -12772   -12816 
  -12802   -12772   -12742   -12791   -12833   -12781   -12757   -12772 
  -12783   -12804   -12796   -12765   -12758   -12788   -12810   -12771 
  -12766   -12806   -12791   -12771   -12775   -12773   -12792   -12800 
  -12784   -12760   -12749   -12791   -12818   -12788   -12769   -12776 
  -12787   -12785   -12776   -12781   -12785   -12783   -12780   -12781 
  -12788   -12772   -12775   -12800   -12791   -12780   -12789   -12789 
  -12772   -12761   -12798   -12814   -12760   -12756   -12792   -12795 
  -12793   -12772   -12761   -12793   -12799   -12789   -12783   -12760 
  -12765   -12803   -12808   -12784   -12771   -12769   -12779   -12787 
  -12783   -12791   -12788   -12768   -12784   -12802   -12779   -12748 
  -12752   -12807   -12846   -12791   -12730   -12758   -12799   -12800 
  -12791   -12765   -12757   -12808   -12826   -12756   -12730   -12793 
  -12815   -12792   -12784   -12764   -12768   -12796   -12785   -12780 
  -12789   -12780   -12781   -12791   -12792   -12780   -12771   -12780 
  -12783   -12789   -12795   -12779   -12785   -12793   -12772   -12772 
  -12772   -12777   -12811   -12800   -12761   -12758   -12792   -12815 
  -12772   -12737   -12789   -12816   -12773   -12761   -12780   -12791 
  -12806   -12795   -12758   -12773   -12795   -12772   -12787   -12802 
  -12766   -12776   -12799   -12785   -12784   -12766   -12761   -12804 
  -12816   -12779   -12756   -12772   -12793   -12803   -12798   -12764 
  -12761   -12811   -12796   -12756   -12785   -12793   -12768   -12780 
  -12793   -12784   -12773   -12791   -12804   -12769   -12769   -12787 
  -12769   -12799   -12810   -12754   -12779   -12811   -12773   -12776 
  -12783   -12768   -12796   -12800   -12764   -12772   -12795   -12789 
  -12784   -12771   -12766   -12799   -12807   -12775   -12758   -12768 
  -12788   -12798   -12788   -12780   -12772   -12783   -12806   -12784 
  -12757   -12766   -12787   -12807   -12792   -12758   -12771   -12802 
  -12802   -12777   -12758   -12789   -12815   -12766   -12744   -12798 
  -12819   -12783   -12752   -12761   -12799   -12807   -12777   -12761 
  -12768   -12793   -12818   -12791   -12750   -12756   -12792   -12825 
  -12793   -12731   -12764   -12819   -12803   -12781   -12773   -12769 
  -12779   -12792   -12799   -12777   -12760   -12783   -12807   -12803 
  -12771   -12754   -12771   -12789   -12808   -12800   -12760   -12757 
  -12785   -12800   -12808   -12780   -12737   -12772   -12830   -12793 
  -12750   -12777   -12789   -12785   -12798   -12779   -12768   -12787 
  -12788   -12785   -12781   -12780   -12784   -12775   -12791   -12802 
  -12761   -12761   -12798   -12802   -12792   -12775   -12765   -12785 
  -12789   -12779   -12780   -12780   -12791   -12793   -12783   -12773 
  -12776   -12803   -12785   -12746   -12784   -12814   -12793   -12769 
  -12752   -12787   -12808   -12776   -12771   -12783   -12789   -12781 
  -12760   -12789   -12806   -12773   -12785   -12785   -12764   -12792 
  -12787   -12758   -12787   -12804   -12787   -12775   -12776   -12791 
  -12776   -12768   -12806   -12791   -12762   -12799   -12781   -12750 
  -12808   -12822   -12760   -12754   -12798   -12807   -12775   -12765 
  -12780   -12780   -12799   -12819   -12781   -12741   -12757   -12789 
  -12803   -12799   -12776   -12758   -12775   -12810   -12804   -12758 
  -12756   -12796   -12803   -12792   -12789   -12775   -12768   -12777 
  -12796   -12800   -12771   -12773   -12803   -12781   -12758   -12784 
  -12796   -12783   -12789   -12788   -12769   -12781   -12795   -12775 
  -12769   -12791   -12800   -12783   -12764   -12772   -12788   -12796 
  -12799   -12775   -12766   -12792   -12787   -12776   -12793   -12783 
  -12766   -12783   -12795   -12791   -12775   -12752   -12781   -12826 
  -12795   -12752   -12776   -12800   -12788   -12776   -12776   -12783 
  -12783   -12784   -12798   -12777   -12756   -12789   -12799   -12772 
  -12773   -12785   -12802   -12800   -12762   -12761   -12793   -12791 
  -12775   -12777   -12796   -12811   -12784   -12745   -12762   -12811 
  -12810   -12775   -12769   -12776   -12784   -12808   -12793   -12756 
  -12765   -12783   -12793   -12799   -12776   -12764   -12779   -12799 
  -12808   -12775   -12758   -12798   -12792   -12772   -12785   -12781 
  -12776   -12776   -12791   -12807   -12764   -12745   -12799   -12822 
  -12795   -12766   -12766   -12787   -12788   -12780   -12776   -12781 
  -12802   -12803   -12791   -12775   -12742   -12758   -12819   -12814 
  -12773   -12772   -12776   -12795   -12815   -12771   -12737   -12777 
  -12820   -12806   -12746   -12768   -12837   -12787   -12745   -12788 
  -12781   -12766   -12785   -12788   -12803   -12803   -12764   -12758 
  -12792   -12803   -12777   -12761   -12779   -12799   -12803   -12787 
  -12764   -12775   -12792   -12789   -12784   -12771   -12773   -12798 
  -12803   -12783   -12764   -12773   -12793   -12789   -12781   -12781 
  -12772   -12781   -12808   -12799   -12761   -12761   -12791   -12792 
  -12781   -12788   -12779   -12769   -12787   -12789   -12783   -12788 
  -12779   -12766   -12785   -12810   -12788   -12761   -12780   -12787 
  -12766   -12783   -12806   -12783   -12772   -12793   -12775   -12756 
  -12803   -12802   -12754   -12793   -12825   -12777   -12764   -12760 
  -12764   -12822   -12812   -12749   -12766   -12803   -12795   -12765 
  -12746   -12789   -12826   -12802   -12772   -12752   -12765   -12793 
  -12787   -12789   -12792   -12768   -12783   -12803   -12769   -12757 
  -12785   -12785   -12785   -12806   -12787   -12762   -12783   -12787 
  -12771   -12768   -12785   -12819   -12798   -12752   -12777   -12812 
  -12791   -12756   -12752   -12802   -12822   -12771   -12762   -12799 
  -12783   -12760   -12783   -12795   -12784   -12780   -12781   -12788 
  -12785   -12772   -12775   -12781   -12787   -12787   -12768   -12779 
  -12806   -12789   -12777   -12766   -12765   -12800   -12788   -12765 
  -12800   -12783   -12769   -12812   -12789   -12748   -12761   -12787 
  -12808   -12795   -12773   -12792   -12780   -12754   -12780   -12796 
  -12792   -12783   -12756   -12780   -12823   -12796   -12758   -12752 
  -12780   -12820   -12799   -12761   -12761   -12776   -12796   -12796 
  -12787   -12777   -12745   -12779   -12839   -12789   -12739   -12779 
  -12800   -12784   -12781   -12777   -12788   -12803   -12769   -12749 
  -12795   -12812   -12777   -12756   -12787   -12819   -12783   -12739 
  -12760   -12816   -12826   -12756   -12742   -12808   -12798   -12761 
  -12780   -12781   -12779   -12804   -12800   -12761   -12754   -12795 
  -12815   -12793   -12762   -12752   -12788   -12810   -12787   -12779 
  -12779   -12780   -12792   -12798   -12787   -12748   -12764   -12831 
  -12803   -12749   -12775   -12799   -12798   -12785   -12753   -12766 
  -12798   -12787   -12787   -12802   -12777   -12758   -12791   -12800 
  -12779   -12777   -12768   -12773   -12806   -12793   -12773   -12776 
  -12769   -12796   -12818   -12779   -12757   -12761   -12784   -12810 
  -12783   -12758   -12787   -12800   -12785   -12785   -12787   -12756 
  -12753   -12811   -12820   -12760   -12750   -12799   -12806   -12775 
  -12773   -12792   -12784   -12776   -12787   -12787   -12793   -12795 
  -12762   -12772   -12810   -12795   -12777   -12772   -12764   -12793 
  -12803   -12769   -12776   -12799   -12785   -12776   -12789   -12787 
  -12765   -12769   -12792   -12785   -12777   -12803   -12810   -12777 
  -12765   -12788   -12779   -12744   -12768   -12820   -12815   -12787 
  -12772   -12761   -12779   -12793   -12772   -12780   -12818   -12814 
  -12768   -12729   -12779   -12833   -12780   -12753   -12793   -12807 
  -12804   -12771   -12738   -12772   -12807   -12815   -12789   -12756 
  -12785   -12798   -12764   -12780   -12787   -12766   -12792   -12804 
  -12781   -12780   -12787   -12779   -12775   -12784   -12788   -12780 
  -12789   -12798   -12775   -12771   -12796   -12795   -12769   -12756 
  -12785   -12819   -12785   -12750   -12777   -12808   -12800   -12761 
  -12750   -12802   -12812   -12765   -12771   -12788   -12769   -12785 
  -12803   -12772   -12779   -12806   -12784   -12777   -12784   -12760 
  -12777   -12823   -12796   -12749   -12761   -12806   -12822   -12777 
  -12749   -12766   -12784   -12818   -12810   -12741   -12752   -12806 
  -12808   -12802   -12765   -12730   -12781   -12829   -12804   -12775 
  -12754   -12768   -12814   -12807   -12773   -12766   -12768   -12783 
  -12795   -12788   -12785   -12785   -12787   -12783   -12773   -12788 
  -12792   -12769   -12785   -12802   -12766   -12765   -12802   -12792 
  -12762   -12784   -12807   -12780   -12764   -12785   -12792   -12787 
  -12795   -12793   -12769   -12764   -12785   -12780   -12781   -12810 
  -12792   -12761   -12788   -12788   -12758   -12791   -12822   -12780 
  -12749   -12779   -12796   -12785   -12787   -12789   -12785   -12785 
  -12779   -12764   -12766   -12787   -12798   -12799   -12802   -12776 
  -12760   -12784   -12791   -12776   -12768   -12788   -12811   -12785 
  -12773   -12781   -12775   -12793   -12787   -12757   -12784   -12800 
  -12784   -12777   -12784   -12800   -12779   -12762   -12785   -12781 
  -12788   -12804   -12784   -12784   -12777   -12760   -12784   -12793 
  -12789   -12795   -12777   -12779   -12798   -12784   -12762   -12761 
  -12795   -12812   -12784   -12776   -12780   -12783   -12800   -12783 
  -12753   -12777   -12814   -12802   -12764   -12769   -12795   -12789 
  -12779   -12776   -12785   -12796   -12764   -12765   -12814   -12802 
  -12766   -12779   -12788   -12789   -12781   -12757   -12765   -12799 
  -12808   -12785   -12771   -12776   -12781   -12796   -12789   -12756 
  -12779   -12822   -12796   -12749   -12758   -12798   -12793   -12775 
  -12796   -12798   -12762   -12764   -12793   -12799   -12785   -12773 
  -12785   -12788   -12769   -12775   -12780   -12785   -12804   -12785 
  -12781   -12800   -12765   -12757   -12796   -12781   -12769   -12798 
  -12800   -12783   -12773   -12780   -12788   -12777   -12773   -12791 
  -12799   -12780   -12765   -12783   -12796   -12775   -12764   -12800 
  -12814   -12768   -12760   -12802   -12785   -12756   -12781   -12806 
  -12803   -12785   -12760   -12768   -12791   -12789   -12795   -12792 
  -12768   -12777   -12796   -12783   -12783   -12776   -12768   -12796 
  -12798   -12777   -12796   -12789   -12750   -12762   -12803   -12806 
  -12776   -12769   -12791   -12791   -12783   -12783   -12764   -12775 
  -12804   -12784   -12777   -12788   -12772   -12785   -12800   -12780 
  -12780   -12775   -12771   -12788   -12793   -12800   -12787   -12750 
  -12773   -12807   -12788   -12779   -12777   -12779   -12788   -12771 
  -12785   -12812   -12772   -12756   -12788   -12804   -12799   -12769 
  -12760   -12798   -12804   -12762   -12753   -12789   -12810   -12789 
  -12776   -12787   -12777   -12766   -12795   -12799   -12764   -12756 
  -12789   -12822   -12796   -12741   -12754   -12804   -12807   -12787 
  -12779   -12764   -12761   -12798   -12816   -12779   -12745   -12758 
  -12796   -12825   -12798   -12737   -12749   -12823   -12835   -12780 
  -12731   -12749   -12818   -12827   -12762   -12745   -12793   -12811 
  -12784   -12775   -12777   -12766   -12789   -12823   -12784   -12745 
  -12768   -12793   -12803   -12788   -12760   -12785   -12812   -12775 
  -12758   -12784   -12796   -12795   -12780   -12769   -12773   -12779 
  -12792   -12788   -12775   -12787   -12792   -12787   -12780   -12756 
  -12776   -12822   -12793   -12758   -12779   -12785   -12788   -12793 
  -12781   -12779   -12769   -12766   -12803   -12806   -12777   -12772 
  -12769   -12789   -12815   -12765   -12738   -12791   -12808   -12796 
  -12784   -12757   -12772   -12799   -12788   -12775   -12766   -12779 
  -12803   -12812   -12884   -13134   -13509   -13470   -12330   -10674 
  -10291   -12037   -15044   -17073   -15565   -11199    -8658    -9976 
  -11315   -11502   -14454   -18299   -18108   -15144   -10022    -4498 
   -6007   -13699   -18914   -19036   -15603   -10569    -7461    -8388 
  -11668   -14299   -15554   -15809   -14817   -13157   -11361    -9933 
   -9988   -11518   -14480   -17281   -16002   -11572    -9043    -9605 
  -11450   -13570   -15029   -15072   -14219   -13012   -11723   -11225 
  -11751   -12738   -13975   -14424   -12802   -10871   -11182   -12271 
  -12104   -12494   -14520   -15628   -14742   -13482   -12177   -10666 
  -10314   -11736   -13606   -14266   -13329   -12231   -11890   -11318 
  -11421   -13405   -14434   -14068   -14640   -13960   -11626   -11260 
  -12163   -12722   -13347   -12698   -11614   -12761   -14384   -14087 
  -13362   -13132   -12027   -10409   -10346   -11975   -13657   -14415 
  -14276   -13899   -13562   -12549   -11287   -11091   -11983   -13608 
  -14705   -13576   -11847   -11547   -11859   -12726   -14134   -14458 
  -13624   -12440   -11044   -10598   -12312   -14720   -14951   -13300 
  -12237   -11506   -10739   -11345   -12735   -14175   -15546   -15013 
  -12771   -10917   -10069   -11014   -13301   -14524   -14407   -14026 
  -13166   -11747   -10891   -11453   -13005   -14346   -14243   -13086 
  -12222   -11452   -11326   -12815   -13753   -13616   -14150   -13749 
  -12147   -11800   -11479   -10500   -11746   -14342   -14812   -13670 
  -12808   -12468   -12814   -13221   -12640   -12129   -12665   -12968 
  -12721   -12731   -12598   -12522   -12943   -12787   -12104   -12159 
  -12955   -13657   -13797   -13694   -13244   -12040   -11403   -12094 
  -12463   -12139   -12717   -14033   -14358   -13629   -12830   -11967 
  -11421   -11723   -12272   -13236   -14627   -15385   -16290   -17262 
  -15437   -11889   -10552   -10432    -9035    -7375    -6660    -7258 
   -9828   -13591   -16962   -19518   -20799   -19820   -16320   -11291 
   -6860    -4621    -4976    -8218   -12874   -15751   -16079   -15402 
  -14515   -13707   -13680   -14378   -14412   -13495   -13016   -12391 
  -10273    -8599    -9408   -12031   -15395   -18188   -18978   -17262 
  -13095    -8580    -7253    -9219   -11439   -12560   -13323   -13817 
  -13251   -12322   -12650   -13459   -13385   -13252   -13296   -12675 
  -11951   -12093   -13078   -14216   -14671   -14447   -13860   -12518 
  -10714    -9531    -9239    -9992   -12043   -14669   -16632   -16785 
  -15103   -13447   -13103   -13447   -13564   -12541   -10712    -9749 
   -9513    -9598   -11018   -13085   -14701   -16029   -16017   -14207 
  -12333   -11466   -11812   -12874   -13317   -13304   -13293   -12640 
  -11874   -11682   -11905   -12702   -13441   -13702   -13915   -13311 
  -11816   -10983   -11218   -12198   -13632   -14516   -14234   -13099 
  -11800   -11230   -11620   -12438   -13350   -14054   -14064   -13401 
  -12614   -12150   -11940   -11736   -11836   -12437   -13018   -13257 
  -13259   -13269   -13475   -13871   -14233   -14050   -13355   -12739 
  -12195   -11398   -10550   -10381   -11041   -11908   -13038   -14378 
  -15025   -14829   -14162   -13217   -12448   -11901   -11392   -11427 
  -12187   -12833   -12991   -13350   -13819   -13701   -13741   -14176 
  -13437   -11828   -11048   -10855   -11126   -12441   -13667   -14102 
  -14176   -13355   -12132   -11803   -11773   -11705   -12382   -13594 
  -14588   -14690   -13840   -12829   -11701   -10710   -11124   -12420 
  -13004   -13038   -13065   -12877   -12804   -13261   -13628   -13450 
  -13302   -13402   -13127   -12471   -12077   -12006   -12123   -12496 
  -13019   -13371   -13104   -12316   -11788   -12106   -13181   -13902 
  -13390   -12607   -12441   -12233   -11874   -12394   -13597   -13981 
  -13454   -13018   -12517   -11777   -11601   -12062   -12843   -13917 
  -14416   -13857   -13074   -12316   -11643   -11682   -12102   -12422 
  -12955   -13474   -13512   -13182   -12745   -12406   -12249   -12528 
  -13400   -13917   -13490   -13011   -12800   -12405   -11962   -11674 
  -11691   -12352   -13332   -13790   -13498   -12920   -12390   -12012 
  -12275   -13203   -13830   -13725   -13220   -12467   -11568   -10893 
  -10903   -11928   -13728   -15249   -15579   -14623   -12931   -11527 
  -11013   -11130   -11666   -12613   -13494   -13740   -13586   -13358 
  -12887   -12519   -12627   -12889   -13201   -13238   -12534   -11853 
  -11786   -11877   -12268   -13151   -13842   -13886   -13437   -12900 
  -12482   -12345   -12673   -13001   -13004   -12764   -12129   -11623 
  -11769   -12258   -13211   -14188   -14007   -13211   -12879   -12802 
  -12676   -12538   -12530   -12675   -12665   -12561   -12664   -12852 
  -12880   -12784   -12800   -12911   -12972   -13001   -12594   -11782 
  -11730   -12640   -13463   -13748   -13640   -13373   -12996   -12326 
  -11677   -11480   -11767   -12704   -13965   -14543   -14269   -13464 
  -12046   -10828   -10991   -12062   -13138   -14067   -14404   -14004 
  -13437   -12619   -11518   -11109   -11654   -12590   -13644   -14019 
  -13416   -12819   -12429   -12070   -11989   -12001   -12372   -13423 
  -14234   -14038   -13188   -12348   -11870   -11877   -12378   -12883 
  -13009   -13089   -13115   -12880   -12741   -12799   -12945   -13212 
  -13300   -13143   -12912   -12444   -12052   -12055   -12047   -12036 
  -12343   -12837   -13370   -13801   -13948   -13694   -13058   -12506 
  -12210   -11878   -11805   -12194   -12725   -13298   -13524   -13236 
  -13116   -13122   -12745   -12313   -12237   -12563   -12972   -12931 
  -12614   -12441   -12359   -12486   -12915   -13378   -13495   -13144 
  -13022   -13371   -13374   -12993   -12640   -12262   -12089   -12073 
  -11767   -11546   -11931   -12653   -13486   -14253   -14386   -13842 
  -13100   -12349   -11915   -12040   -12310   -12537   -12873   -13159 
  -13255   -13074   -12487   -11843   -11826   -12452   -13163   -13859 
