Origin Time       2025/03/30 10:46:00
Lat.              32.923
Long.             130.372
Depth. (km)       11
Mag.              3.4
Station Code      KMM003
Station Lat.      32.9335
Station Long.     130.5477
Station Height(m) 13
Record Time       2025/03/30 10:46:24
Sampling Freq(Hz) 100Hz
Duration Time(s)  60
Dir.              N-S
Scale Factor      7845(gal)/8223790
Max. Acc. (gal)   3.009
Last Correction   2025/03/30 10:46:23
Memo.             
[...]
      59      147      114       33      -14       21       63       16 
     -13       49       78       32       21       59       68       37 
      10       -6       13       87      109       41       20       40 
      25       60       93      -31      -99       64      172       71 
       6       -6      -66        1      152      132       41       -1 
     -62      -39       81      126      101       74       -4      -91 
      -2      189      160       -4      -28      -47      -63      114 
     221       71      -82     -116      -14      168      171       10 
     -31       32       40       16       39       91       63      -12 
      -2       58       95       75       -9      -47       21       83 
      75       56       47       41       47       35       18       25 
      20        8       40       97       91       40       21        9 
     -16       -2       24       44       90      106       56       21 
      25       24       10        8       48       89       47       -8 
      37      101       37      -55       -2      105      101       18 
     -28        1       60       78       68       62       39       16 
      10       24       68       93       43      -21      -16       33 
      63       59       40       13       14       63       63        4 
      16       83       93       35      -27      -16       67      103 
      43       -2       36       81       43      -12       12       79 
     106       62      -27      -33       51       85       55       20 
      -1       35      106       89      -13      -39       52       97 
      18      -29       33       98       83       20      -22        8 
      68       75       43       14       13       49       66       25 
      13       78       99       13      -39       41      124       90 
      10      -33      -13       37       40       35       94      101 
      13      -10       31       20        6       59       79       20 
      14       82       59      -18      -10       39      103      147 
      58      -24       -5      -56      -35      211      248      -66 
    -213      -21      175      182       59      -47      -44       25 
      59       59       83       59      -12       22       76       51 
      98       62     -156     -116      186      240       98       36 
     -51     -175      -66      201      234       52      -33      -40 
     -74      -16      132      197      122      -43     -133        6 
     143       76       33       55       12       21       86       62 
       8       -5        2       35       83      124       90      -29 
     -74       17      109      130       83      -22      -55       33 
      89       51       20       21       22       22       24       33 
      45       60       70       36       20       71       70        6 
       2       25       21       41       60       55       75       83 
      29      -12       16       29      -12       13      105      112 
      35      -16       10       76       81       20        8       22 
     -13      -16       63      109       59       25       64       78 
      32       -2      -20        4       72       89       58       39 
      13       28       78       56       17       28        1      -35 
      10       90      122      110       47      -56      -64       54 
      98       31       28       86       55       -1        5       16 
      52       98       54      -10        6       49       51       48 
      67       58       24       16       25       33       55       83 
      64       18       25       43        5      -18        4       29 
      48       76      108       89       22      -10      -16       -6 
      45       76       54       47       62       70       75       47 
     -14      -28       24       44       18       47      101       72 
       6       -2       33       68       85       49      -13       -5 
      51       54       32       39       59       66       29      -28 
     -16       59       79       51       63       75       36        8 
      -2       12       76       97       13      -17       82      124 
      32      -18       -1      -10       14       82       62       10 
      59       93       20       -8       47       74       62       29 
     -20        5      113      117       -8      -37       60       83 
       2      -18       56       83       40       36       58       39 
      21       39       36       13       39       87       49      -48 
     -41       79      136       75        9        2       20       18 
      37      106      121       22      -45        0       64       64 
      36       39       39       12       20       47       36       22 
      35       40       49       67       58       27       25       49 
      62       48       18        4       27       67       74       28 
       4       45       55        1        4       54       63       49 
      35       17       39       76       63       24        1       13 
      56       70       40       16       16       32       55       66 
      52       40       14       -8       25       62       60       55 
      31        4       29       51       21       18       67       86 
      47       12       18       39       41       33       51       70 
      44       25       29       20       27       43       33       22 
      21       41       70       64       45       31        8        6 
      35       75       83       17      -24       16       59       71 
      58       36       27       10       12       41       51       25 
      24       72       74       41       59       35      -33      -10 
      74      103       67       18      -12       -8       47       75 
      52       58       40      -14        1       48       49       56 
      82       51       -2       20       58       40       22       28 
      41       55       44       27       28       33       25       36 
      59       40        9       27       58       58       40       36 
      55       49        1       -4       62       82       33       22 
      43       32       24       39       56       44        4       12 
      67       78       45       27       29       27       14       36 
      71       51        8       25       67       43        4       35 
      68       64       49        8       -9       33       58       55 
      62       51        8      -24        5       74      105       72 
      21       10       28       29       28       47       68       64 
      33        9       24       28       16       43       67       37 
      17       37       62       48       -2        1       71       86 
      24       -5       31       59       44       24       24       39 
      48       52       59       52       36       41       45       27 
      20       41       58       51       22        6       13       32 
      49       40       20       29       41       32       44       67 
      59       52       54       20       -4       22       47       31 
      25       54       66       55       40       21       20       41 
      45       31       31       40       35       22       44       70 
      51       27       31       24       22       56       64       40 
      16       14       54       67       32       20       45       58 
      36       16       28       39       28       35       55       40 
      12       28       55       54       48       45       36       31 
      35       47       43       17       14       44       60       33 
       8       29       63       63       40       27       36       48 
      45       35       27       33       47       56       51       28 
      12       25       47       39       21       16       20       36 
      58       59       45       45       52       48       33       27 
      36       45       44       35       16        5       37       75 
      60       29       25       37       52       51       29       18 
      24       32       40       45       36       22       21       37 
      56       48       33       40       45       43       40       32 
      29       36       43       40       29       24       37       47 
      44       40       36       43       48       27       17       39 
      49       43       39       44       49       39       31       49 
      51       27       21       32       41       52       41       18 
      16       29       37       45       58       51       33       45 
      54       31       27       44       43       35       36       37 
      29       20       31       60       70       32       -5       10 
      54       67       41       10       20       63       74       31 
       8       25       28       31       59       58       35       56 
      82       40      -24      -27       24       85      102       56 
       8      -12      -10       39      103       90       22       -4 
       6       24       56       72       39      -18        6      120 
     140       12      -90      -33      112      152       56       -4 
      10       18       24       48       72       62       13       -5 
      45       78       31      -22      -10       64      137      113 
      10      -47      -17       39       74       83       60       10 
      -9       21       55       54       40       47       63       55 
      22       10       36       67       68       45       24       14 
      12       21       47       71       60       31       17       17 
      27       43       41       32       44       60       37       14 
      39       60       44       29       32       45       47       35 
      39       48       48       47       28        6       10       32 
      60       66       48       39       29       16       28       59 
      63       31       13       27       32       24       37       58 
      56       41       21       12       22       35       54       70 
      60       29       12       29       59       67       44       17 
      13       27       44       48       43       47       43       21 
      17       35       37       21       32       63       58       28 
      25       54       70       24      -14       36       81       48 
      29       54       55       20       12       39       40       28 
      44       62       40        2        2       37       58       56 
      48       40       27       20       33       54       63       58 
      37       18       22       37       33       31       59       82 
      64       18      -13       -2       16       29       71       99 
      67       20       -6        4       59       83       49       41 
      78       85        5      -90      -56       74      101       12 
      -6      130      284      217      -76     -291     -284     -229 
    -282     -338      -35      693     1123      724      105      -54 
     171      356       56     -403     -409     -333     -191      490 
     814       41     -819     -869     -600     -756     -819      -74 
     631      615      849     1548     1393      228     -656     -676 
    -197      144      -24     -256     -117      112      178       14 
    -436     -747     -430      184      457      328      280      666 
    1000      612      -97     -499     -585     -205      395      326 
    -152     -102      183        2     -415     -349      116      -22 
    -785     -958     -297      461     1051     1387     1155      421 
    -190     -399     -537     -603     -494     -475     -278      206 
      71     -437      101     1196     1221      265     -522     -477 
     195      625      464      191      130      214      186     -194 
    -900    -1320     -778      234      568      187      -72       47 
     232      314      345      342      318      481      610       68 
    -577     -325       71     -422    -1032     -723       97      622 
     635      398      448      519      -74     -610     -402     -275 
    -375       68      677      764      722      888      819       74 
    -977    -1206     -429       21     -276     -328      112      469 
     461       37     -529     -733     -454       98      622      777 
     508      136       -6      241      697      643     -194     -828 
    -649     -314     -114       99      105       63      232      265 
     183      280      234      108      345      382      -27     -210 
    -394     -738     -426      319      471      163      -94     -344 
    -267      243      454      155     -221     -311       48      387 
     230       31       54       49       48       74      210      380 
     189      -12      139      220      103      -74     -226     -228 
    -233     -168       81       -2     -378     -315      143      427 
     322       70      -87     -183     -120       41      103      249 
     456      324      -81     -314     -341     -307      -27      492 
     603       17     -298      203      562      391      271       98 
    -171       35      502      552      -29    -1062    -1642    -1337 
   -1193    -1603    -1599     -704      621     1459     1316     1038 
    1426     1953     1867     1036        0     -477     -344      -82 
     174      619     1232     1440      642     -594    -1254    -1540 
   -1621     -870      193      672      978     1468     1796     1625 
     697     -642    -1814    -2562    -2255    -1085     -610     -970 
    -961     -214      958     1513      504     -966    -1202     -372 
     180     -139     -653     -291     1154     2646     3192     2801 
    1822      631     -517    -1729    -2793    -3014    -1998     -194 
    1228     1590     1528     1671     1617     1013        0    -1089 
   -1718    -1742    -1374     -723       45      831     1458     1383 
     464     -446     -541     -197     -172     -400     -384       71 
     680      746      162     -260     -284     -342     -309     -120 
    -193     -251      261      904     1080      924      538     -121 
    -741    -1148    -1368    -1040     -178      544      931     1147 
    1143      973      704      359      110      -70     -345     -589 
    -675     -584     -353     -217     -348     -552     -445     -205 
    -319     -502     -468     -445     -299      184      753      896 
     606      583      812      618      255      332      561      398 
      28      -22      224      391      417      334      -33     -556 
    -737     -567     -414     -270       -1      364      796     1139 
    1050      402     -444    -1119    -1497    -1506    -1228     -766 
    -160      440      822      922      870      561     -114     -661 
    -723     -550     -238      294      842     1136     1008      687 
     657      589       36     -330      -51      414      696      572 
     108     -190     -233     -314     -545     -970    -1425    -1486 
   -1011     -306      270      486      398      361      329       81 
      47      471      776      662      395       49     -233     -198 
    -164     -469     -749     -602     -167      194      467      934 
    1467     1624     1390      994      376     -429     -874     -477 
     261      379       13     -109      -54     -105     -329     -746 
   -1132    -1409    -1683    -1721    -1305     -652      -87      355 
     715      851      703      498      517      660      661      723 
    1030     1183      985      742      621      504      248      -99 
    -359     -515     -602     -560     -434     -310     -199     -180 
    -328     -479     -487     -419     -241       25      218      340 
     421      357      221      334      679      784      469      -13 
    -423     -588     -457     -228      -90      -62      -83      -10 
     179      303      363      438      353      113      -29     -199 
    -541     -668     -402     -126       12      191      279       76 
    -176     -189      -35       54      113      279      380      386 
     441      396      209       87       63       60       70      130 
     240      267      221      218      101     -184     -444     -607 
    -564     -259       36       90       22      122      340      310 
      58      -94     -193     -359     -291       14       81       28 
     170      133     -126     -178      -71       48      261      492 
     642      689      610      476      291       14     -110      -12 
     -24     -166     -221     -256     -247      -51      108        4 
    -172     -201      -51      132       94      -98     -238     -373 
    -423     -306     -230     -318     -495     -514     -156      325 
     495      372      311      457      627      654      614      599 
     560      481      414      372      349      318      228       70 
    -113     -257     -388     -579     -801     -984    -1071     -934 
    -511      -67      120      214      414      556      488      337 
     359      581      666      575      602      568      253        4 
    -101     -369     -697     -801     -723     -560     -318      -12 
     270      429      495      475      259       12       39      270 
     376      216      -93     -252     -101       67      -62     -415 
    -778     -810     -423     -133     -126       -8      283      503 
     692      874      799      525      433      448      236     -105 
    -305     -286     -128       -2      -25     -148     -218     -159 
      -4      171      248      207      168      120        4      -98 
    -184     -220     -106      -78     -217     -163      -18     -162 
    -310     -171      -33        6      171      386      481      492 
     421      248      102       91      140       98      -72     -226 
    -199      -10      191      238       75     -113     -114       20 
     137      152      103      125      210      209       87     -108 
    -282     -336     -392     -492     -436     -292     -261     -213 
      -9      220      379      568      780      834      722      627 
     588      461      287      207       43     -365     -691     -634 
    -434     -405     -483     -496     -414     -270      -82       82 
      99       41       78      179      259      261      153       58 
     109      237      274      175       91       68        0      -67 
     -27       67      202      352      405      464      550      391 
      17     -270     -372     -330     -286     -368     -390     -152 
     102      125       74       81       59       40      109      195 
     265      345      367      278      112      -79     -186     -167 
    -121     -110     -175     -276     -203       21      116       90 
     135      207      244      332      427      344       86     -110 
    -116      -74     -194     -438     -561     -506     -400     -252 
     -86       47      303      650      789      730      600      410 
     283      220       82      -47      -78      -89     -120     -198 
    -318     -364     -279     -160      -99     -108     -101       10 
     126      159      193      143      -16       -2      163      170 
      58       13       14       48       79        5      -79      -47 
      91      299      386      271      210      317      406      319 
      99     -116     -233     -201     -109     -132     -230     -302 
    -383     -375     -198     -113     -190     -166      -33       59 
