Origin Time       2025/03/30 10:46:00
Lat.              32.923
Long.             130.372
Depth. (km)       11
Mag.              3.4
Station Code      KMM002
Station Lat.      33.0189
Station Long.     130.6846
Station Height(m) 33
Record Time       2025/03/30 10:46:27
Sampling Freq(Hz) 100Hz
Duration Time(s)  60
Dir.              U-D
Scale Factor      7845(gal)/8223790
Max. Acc. (gal)   2.217
Last Correction   2025/03/30 10:46:27
Memo.             
[...]
   -6926    -6913    -6898    -6894    -6893    -6890    -6894    -6902 
   -6901    -6891    -6897    -6914    -6918    -6907    -6902    -6901 
   -6893    -6883    -6886    -6898    -6909    -6910    -6907    -6909 
   -6907    -6901    -6895    -6891    -6891    -6894    -6901    -6903 
   -6907    -6912    -6903    -6889    -6891    -6901    -6902    -6899 
   -6899    -6899    -6903    -6912    -6914    -6905    -6893    -6890 
   -6902    -6910    -6907    -6899    -6890    -6885    -6891    -6906 
   -6918    -6916    -6897    -6886    -6891    -6903    -6916    -6913 
   -6898    -6890    -6897    -6905    -6903    -6897    -6893    -6893 
   -6901    -6914    -6918    -6905    -6886    -6882    -6895    -6910 
   -6912    -6906    -6902    -6902    -6901    -6902    -6899    -6890 
   -6890    -6902    -6910    -6907    -6906    -6903    -6893    -6890 
   -6901    -6913    -6912    -6901    -6894    -6894    -6898    -6902 
   -6901    -6901    -6906    -6906    -6899    -6898    -6901    -6898 
   -6898    -6901    -6899    -6902    -6905    -6901    -6895    -6897 
   -6902    -6907    -6910    -6906    -6894    -6889    -6895    -6902 
   -6909    -6910    -6903    -6901    -6902    -6898    -6897    -6901 
   -6902    -6899    -6902    -6906    -6902    -6899    -6901    -6901 
   -6899    -6899    -6899    -6898    -6898    -6898    -6897    -6897 
   -6907    -6917    -6907    -6891    -6889    -6895    -6898    -6901 
   -6909    -6913    -6905    -6897    -6898    -6902    -6903    -6898 
   -6890    -6894    -6905    -6907    -6905    -6902    -6897    -6894 
   -6897    -6901    -6906    -6903    -6893    -6893    -6910    -6917 
   -6907    -6897    -6895    -6895    -6897    -6902    -6906    -6906 
   -6903    -6902    -6903    -6902    -6893    -6895    -6906    -6902 
   -6894    -6897    -6905    -6909    -6906    -6899    -6898    -6898 
   -6897    -6901    -6903    -6899    -6898    -6901    -6897    -6899 
   -6909    -6910    -6901    -6890    -6889    -6901    -6907    -6903 
   -6901    -6905    -6906    -6905    -6903    -6898    -6894    -6891 
   -6894    -6905    -6916    -6914    -6903    -6898    -6902    -6902 
   -6899    -6893    -6891    -6903    -6905    -6897    -6903    -6914 
   -6907    -6894    -6886    -6893    -6912    -6913    -6895    -6894 
   -6909    -6910    -6899    -6893    -6898    -6910    -6912    -6899 
   -6897    -6899    -6894    -6890    -6901    -6913    -6912    -6906 
   -6903    -6902    -6897    -6894    -6894    -6898    -6906    -6910 
   -6906    -6895    -6890    -6894    -6906    -6913    -6910    -6901 
   -6894    -6889    -6890    -6905    -6913    -6901    -6897    -6909 
   -6906    -6890    -6889    -6905    -6912    -6905    -6899    -6901 
   -6897    -6891    -6895    -6899    -6901    -6909    -6916    -6905 
   -6886    -6887    -6906    -6914    -6899    -6886    -6895    -6910 
   -6910    -6902    -6905    -6909    -6899    -6886    -6889    -6901 
   -6903    -6903    -6910    -6913    -6909    -6901    -6889    -6882 
   -6893    -6913    -6918    -6907    -6898    -6894    -6894    -6894 
   -6901    -6917    -6920    -6905    -6890    -6882    -6886    -6907 
   -6920    -6914    -6910    -6913    -6901    -6883    -6879    -6890 
   -6903    -6918    -6924    -6917    -6897    -6875    -6872    -6891 
   -6917    -6921    -6909    -6901    -6901    -6895    -6890    -6893 
   -6902    -6907    -6906    -6903    -6903    -6901    -6899    -6899 
   -6907    -6914    -6901    -6879    -6879    -6901    -6920    -6928 
   -6918    -6901    -6887    -6883    -6893    -6899    -6894    -6899 
   -6913    -6910    -6894    -6889    -6901    -6914    -6910    -6903 
   -6899    -6887    -6880    -6893    -6910    -6918    -6913    -6899 
   -6893    -6897    -6906    -6907    -6898    -6894    -6902    -6902 
   -6899    -6907    -6907    -6898    -6898    -6902    -6899    -6894 
   -6887    -6891    -6913    -6922    -6909    -6898    -6897    -6890 
   -6886    -6903    -6918    -6909    -6890    -6885    -6895    -6914 
   -6920    -6905    -6891    -6891    -6898    -6905    -6903    -6898 
   -6901    -6912    -6913    -6902    -6887    -6887    -6899    -6906 
   -6902    -6905    -6912    -6912    -6899    -6883    -6889    -6913 
   -6917    -6895    -6885    -6905    -6914    -6894    -6885    -6909 
   -6930    -6913    -6886    -6890    -6901    -6890    -6882    -6901 
   -6918    -6909    -6894    -6899    -6914    -6912    -6901    -6895 
   -6901    -6903    -6893    -6886    -6907    -6926    -6901    -6868 
   -6889    -6922    -6912    -6887    -6898    -6920    -6914    -6889 
   -6879    -6895    -6913    -6907    -6901    -6916    -6925    -6895 
   -6864    -6882    -6918    -6917    -6898    -6901    -6909    -6909 
   -6903    -6897    -6890    -6897    -6906    -6905    -6903    -6903 
   -6893    -6885    -6897    -6916    -6924    -6909    -6890    -6886 
   -6893    -6905    -6912    -6907    -6901    -6902    -6901    -6894 
   -6895    -6902    -6902    -6901    -6899    -6897    -6902    -6905 
   -6893    -6886    -6897    -6910    -6910    -6898    -6887    -6891 
   -6901    -6914    -6928    -6917    -6887    -6874    -6883    -6903 
   -6920    -6916    -6897    -6891    -6901    -6898    -6887    -6895 
   -6910    -6912    -6903    -6899    -6903    -6903    -6891    -6895 
   -6914    -6907    -6887    -6890    -6903    -6910    -6910    -6901 
   -6893    -6895    -6898    -6899    -6906    -6912    -6909    -6910 
   -6913    -6903    -6887    -6886    -6901    -6913    -6909    -6901 
   -6898    -6903    -6910    -6909    -6901    -6893    -6886    -6889 
   -6902    -6913    -6913    -6903    -6897    -6902    -6905    -6894 
   -6891    -6899    -6899    -6898    -6903    -6909    -6907    -6899 
   -6898    -6902    -6899    -6890    -6891    -6905    -6917    -6916 
   -6894    -6880    -6891    -6905    -6910    -6913    -6903    -6889 
   -6890    -6898    -6903    -6914    -6912    -6898    -6894    -6891 
   -6890    -6905    -6916    -6909    -6899    -6899    -6905    -6907 
   -6905    -6894    -6891    -6897    -6899    -6905    -6912    -6905 
   -6897    -6902    -6912    -6899    -6878    -6883    -6905    -6914 
   -6913    -6907    -6891    -6882    -6898    -6914    -6907    -6899 
   -6903    -6901    -6893    -6899    -6912    -6910    -6899    -6894 
   -6897    -6903    -6909    -6905    -6891    -6880    -6885    -6907 
   -6922    -6910    -6899    -6910    -6907    -6885    -6883    -6906 
   -6917    -6907    -6899    -6903    -6906    -6903    -6899    -6895 
   -6890    -6890    -6899    -6914    -6917    -6905    -6897    -6895 
   -6891    -6895    -6913    -6914    -6890    -6889    -6912    -6909 
   -6886    -6887    -6907    -6917    -6917    -6913    -6897    -6876 
   -6880    -6906    -6917    -6907    -6909    -6917    -6902    -6882 
   -6883    -6898    -6907    -6906    -6901    -6902    -6903    -6897 
   -6894    -6906    -6918    -6903    -6882    -6882    -6903    -6916 
   -6913    -6905    -6895    -6889    -6895    -6906    -6913    -6910 
   -6901    -6901    -6907    -6903    -6891    -6886    -6899    -6916 
   -6907    -6897    -6902    -6898    -6890    -6901    -6910    -6905 
   -6897    -6897    -6898    -6899    -6899    -6901    -6903    -6902 
   -6903    -6914    -6913    -6893    -6882    -6901    -6924    -6921 
   -6897    -6880    -6882    -6893    -6903    -6913    -6920    -6913 
   -6897    -6891    -6897    -6897    -6893    -6894    -6905    -6922 
   -6929    -6909    -6883    -6872    -6882    -6903    -6916    -6909 
   -6897    -6895    -6909    -6920    -6910    -6889    -6875    -6889 
   -6918    -6929    -6917    -6901    -6887    -6887    -6903    -6912 
   -6902    -6895    -6893    -6891    -6901    -6916    -6921    -6903 
   -6889    -6895    -6907    -6903    -6890    -6891    -6905    -6909 
   -6907    -6913    -6909    -6897    -6897    -6899    -6895    -6894 
   -6894    -6899    -6907    -6907    -6906    -6916    -6907    -6882 
   -6878    -6895    -6907    -6913    -6909    -6899    -6895    -6895 
   -6899    -6903    -6901    -6899    -6901    -6905    -6916    -6920 
   -6902    -6878    -6875    -6898    -6916    -6913    -6905    -6897 
   -6895    -6905    -6905    -6889    -6879    -6894    -6910    -6910 
   -6907    -6905    -6902    -6906    -6909    -6901    -6898    -6903 
   -6897    -6883    -6894    -6913    -6916    -6906    -6893    -6890 
   -6905    -6907    -6897    -6889    -6891    -6898    -6902    -6912 
   -6913    -6902    -6890    -6889    -6901    -6906    -6898    -6898 
   -6903    -6903    -6905    -6899    -6891    -6889    -6901    -6920 
   -6918    -6909    -6901    -6887    -6889    -6909    -6917    -6903 
   -6893    -6897    -6907    -6909    -6894    -6883    -6890    -6909 
   -6914    -6902    -6901    -6907    -6894    -6880    -6895    -6914 
   -6913    -6909    -6909    -6899    -6890    -6891    -6901    -6909 
   -6905    -6898    -6903    -6910    -6902    -6901    -6913    -6906 
   -6879    -6878    -6909    -6926    -6907    -6891    -6903    -6907 
   -6887    -6883    -6901    -6910    -6910    -6910    -6903    -6894 
   -6887    -6887    -6899    -6914    -6917    -6910    -6902    -6890 
   -6880    -6887    -6907    -6920    -6909    -6891    -6894    -6909 
   -6909    -6898    -6891    -6899    -6909    -6897    -6886    -6898 
   -6906    -6901    -6905    -6910    -6903    -6894    -6891    -6902 
   -6917    -6917    -6905    -6891    -6879    -6883    -6903    -6916 
   -6917    -6917    -6912    -6895    -6876    -6878    -6898    -6914 
   -6914    -6909    -6902    -6894    -6897    -6902    -6894    -6891 
   -6909    -6920    -6906    -6895    -6903    -6907    -6895    -6883 
   -6889    -6902    -6909    -6909    -6913    -6916    -6906    -6891 
   -6883    -6885    -6890    -6894    -6906    -6925    -6928    -6914 
   -6893    -6879    -6886    -6897    -6899    -6903    -6909    -6910 
   -6910    -6905    -6894    -6886    -6893    -6909    -6921    -6910 
   -6890    -6883    -6891    -6906    -6913    -6906    -6894    -6895 
   -6912    -6914    -6899    -6891    -6898    -6903    -6902    -6905 
   -6910    -6910    -6901    -6893    -6898    -6902    -6899    -6905 
   -6907    -6895    -6890    -6898    -6906    -6907    -6899    -6894 
   -6897    -6902    -6912    -6912    -6894    -6880    -6890    -6907 
   -6907    -6899    -6899    -6903    -6909    -6909    -6899    -6893 
   -6895    -6897    -6897    -6899    -6907    -6920    -6922    -6898 
   -6875    -6885    -6903    -6905    -6902    -6905    -6906    -6905 
   -6894    -6887    -6899    -6912    -6905    -6895    -6897    -6895 
   -6897    -6907    -6914    -6905    -6891    -6886    -6898    -6918 
   -6920    -6898    -6886    -6897    -6903    -6899    -6899    -6903 
   -6902    -6902    -6907    -6906    -6890    -6875    -6889    -6906 
   -6907    -6910    -6916    -6903    -6887    -6893    -6912    -6910 
   -6897    -6891    -6897    -6902    -6905    -6901    -6903    -6907 
   -6901    -6897    -6898    -6887    -6880    -6898    -6921    -6918 
   -6907    -6901    -6893    -6883    -6887    -6905    -6914    -6906 
   -6901    -6905    -6906    -6901    -6898    -6894    -6889    -6891 
   -6910    -6921    -6909    -6895    -6895    -6899    -6899    -6897 
   -6890    -6894    -6909    -6913    -6909    -6914    -6907    -6882 
   -6880    -6902    -6907    -6910    -6916    -6907    -6891    -6886 
   -6891    -6897    -6901    -6903    -6903    -6901    -6902    -6905 
   -6898    -6890    -6897    -6906    -6906    -6905    -6902    -6894 
   -6897    -6905    -6903    -6905    -6905    -6897    -6891    -6893 
   -6898    -6909    -6906    -6890    -6891    -6903    -6910    -6909 
   -6897    -6889    -6897    -6905    -6902    -6897    -6901    -6905 
   -6899    -6902    -6916    -6912    -6894    -6883    -6887    -6901 
   -6912    -6907    -6902    -6902    -6895    -6891    -6894    -6895 
   -6902    -6914    -6913    -6903    -6895    -6889    -6887    -6894 
   -6903    -6914    -6910    -6891    -6889    -6912    -6918    -6898 
   -6886    -6895    -6899    -6897    -6902    -6916    -6912    -6887 
   -6887    -6913    -6917    -6895    -6887    -6894    -6905    -6918 
   -6916    -6893    -6880    -6891    -6909    -6920    -6910    -6887 
   -6875    -6885    -6906    -6921    -6918    -6902    -6891    -6891 
   -6890    -6893    -6907    -6913    -6902    -6898    -6903    -6906 
   -6898    -6890    -6897    -6906    -6902    -6894    -6899    -6910 
   -6907    -6899    -6907    -6936    -6982    -7074    -7218    -7345 
   -7372    -7263    -7001    -6631    -6315    -6192    -6224    -6223 
   -6106    -6093    -6459    -7157    -7889    -8297    -7963    -6790 
   -5647    -5709    -6880    -7917    -8136    -7831    -7280    -6527 
   -5923    -5945    -6438    -6806    -6866    -7033    -7627    -8171 
   -7931    -7142    -6582    -6313    -6139    -6339    -6936    -7312 
   -7111    -6600    -6184    -6261    -6872    -7330    -7240    -6988 
   -6817    -6791    -7022    -7142    -6681    -6083    -6193    -6971 
   -7699    -7966    -7986    -7958    -7396    -6153    -5352    -5763 
   -6382    -6276    -6295    -7277    -8365    -8505    -7778    -6777 
   -6070    -6058    -6562    -7095    -7295    -7010    -6583    -6405 
   -6207    -5910    -6183    -7242    -8236    -8445    -8181    -7924 
   -7402    -6214    -4901    -4576    -5503    -6802    -7678    -8106 
   -8295    -8212    -7632    -6651    -5876    -5680    -5906    -6501 
   -7341    -7827    -7628    -7199    -6978    -6799    -6512    -6412 
   -6694    -7049    -7109    -7010    -7163    -7380    -7079    -6494 
   -6378    -6714    -6994    -6993    -6816    -6736    -6763    -6637 
   -6516    -6747    -7132    -7273    -7211    -7175    -7138    -6980 
   -6791    -6741    -6774    -6785    -6872    -7017    -6980    -6785 
   -6725    -6899    -7045    -6883    -6590    -6656    -7079    -7256 
   -7018    -6906    -7051    -6971    -6667    -6663    -6943    -6997 
   -6835    -6849    -7025    -7098    -6982    -6853    -6949    -7090 
   -6970    -6795    -6917    -7072    -6781    -6300    -6305    -6826 
   -7253    -7207    -7033    -7187    -7376    -7037    -6442    -6247 
   -6442    -6697    -6994    -7345    -7499    -7253    -6849    -6670 
   -6698    -6777    -6886    -6951    -6933    -6928    -6934    -6963 
   -7033    -7015    -6880    -6789    -6774    -6725    -6652    -6720 
   -6952    -7106    -7037    -6948    -6986    -6949    -6758    -6666 
   -6758    -6829    -6820    -6872    -7025    -7149    -7167    -7157 
   -7184    -7101    -6805    -6531    -6546    -6743    -6871    -6907 
   -6948    -6990    -7009    -7063    -7094    -6891    -6586    -6579 
   -6871    -7045    -6916    -6743    -6802    -7006    -7072    -6968 
   -6982    -7171    -7168    -6799    -6489    -6627    -6971    -7109 
   -6978    -6787    -6777    -6937    -7007    -6899    -6756    -6666 
   -6696    -6889    -7087    -7136    -7059    -6967    -6867    -6720 
   -6666    -6858    -7152    -7226    -7018    -6883    -6960    -6903 
   -6659    -6581    -6754    -6955    -7064    -7105    -7109    -7029 
   -6853    -6709    -6700    -6793    -6890    -6924    -6984    -7183 
   -7321    -7098    -6675    -6404    -6274    -6231    -6507    -7137 
   -7696    -7811    -7560    -7153    -6706    -6332    -6151    -6308 
   -6775    -7171    -7215    -7102    -7051    -6959    -6798    -6783 
   -6956    -7084    -6988    -6809    -6795    -6894    -6866    -6725 
   -6748    -7007    -7252    -7252    -7067    -6902    -6772    -6594 
   -6525    -6733    -7026    -7126    -7060    -7001    -6980    -6925 
   -6870    -6943    -7044    -6924    -6648    -6559    -6739    -6859 
   -6716    -6610    -6841    -7156    -7190    -7037    -7002    -7087 
   -7030    -6793    -6681    -6801    -6929    -7003    -7136    -7203 
   -7005    -6669    -6439    -6405    -6616    -7006    -7290    -7288 
   -7142    -7041    -6944    -6763    -6631    -6664    -6799    -6959 
   -7082    -7132    -7129    -7048    -6863    -6718    -6772    -6960 
   -7036    -6825    -6513    -6544    -6979    -7338    -7285    -6979 
   -6691    -6511    -6520    -6760    -7037    -7134    -7042    -6928 
   -6952    -7061    -7072    -6937    -6743    -6585    -6558    -6697 
   -6916    -7064    -7048    -6982    -7048    -7203    -7267    -7121 
   -6801    -6490    -6392    -6559    -6886    -7183    -7302    -7169 
   -6894    -6747    -6810    -6853    -6787    -6791    -6920    -7038 
   -7041    -6918    -6782    -6758    -6826    -6918    -7010    -7086 
   -7079    -6951    -6794    -6747    -6829    -6952    -6952    -6718 
   -6471    -6575    -7002    -7327    -7291    -7069    -6959    -6971 
   -6907    -6686    -6527    -6667    -6937    -7045    -7030    -7013 
   -6968    -6853    -6702    -6648    -6781    -6963    -7036    -7003 
   -6916    -6835    -6867    -6997    -6984    -6789    -6737    -6976 
   -7236    -7288    -7195    -7074    -6883    -6598    -6453    -6563 
   -6723    -6826    -6953    -7059    -7065    -6978    -6829    -6706 
   -6712    -6858    -6997    -7038    -7072    -7071    -6968    -6925 
   -6983    -6943    -6775    -6681    -6750    -6897    -7018    -6993 
   -6841    -6813    -7045    -7244    -7036    -6593    -6403    -6561 
   -6839    -7094    -7299    -7446    -7457    -7186    -6683    -6309 
   -6339    -6586    -6751    -6852    -6975    -7101    -7257    -7353 
   -7173    -6812    -6646    -6710    -6735    -6708    -6789    -6937 
   -7029    -7034    -6984    -6949    -6947    -6855    -6652    -6582 
   -6809    -7072    -7006    -6744    -6700    -6859    -6943    -7013 
   -7242    -7454    -7373    -7079    -6831    -6628    -6407    -6301 
   -6431    -6816    -7288    -7485    -7272    -6907    -6702    -6766 
   -6934    -6960    -6872    -6870    -6914    -6882    -6799    -6740 
   -6817    -7078    -7267    -7125    -6745    -6428    -6385    -6592 
   -6867    -7087    -7249    -7280    -7060    -6732    -6547    -6511 
   -6664    -7101    -7474    -7361    -6960    -6748    -6831    -6972 
   -7014    -7015    -7025    -6951    -6723    -6525    -6621    -6979 
   -7265    -7199    -6893    -6685    -6670    -6732    -6833    -6994 
   -7118    -7052    -6821    -6651    -6698    -6882    -7079    -7231 
   -7256    -7086    -6787    -6559    -6516    -6583    -6760    -7036 
   -7204    -7134    -6917    -6752    -6786    -6875    -6809    -6790 
   -7109    -7453    -7285    -6718    -6353    -6440    -6727    -6936 
   -7080    -7308    -7441    -7106    -6550    -6423    -6671    -6798 
   -6779    -6755    -6733    -6837    -7079    -7248    -7246    -7092 
   -6825    -6681    -6856    -7074    -7040    -7017    -7167    -7090 
   -6673    -6424    -6593    -6852    -6939    -7020    -7322    -7627 
   -7443    -6737    -6135    -6141    -6490    -6763    -7010    -7288 
   -7344    -7113    -6845    -6725    -6714    -6713    -6727    -6831 
   -7005    -7087    -6943    -6723    -6728    -6961    -7148    -7167 
   -7114    -7047    -6918    -6777    -6733    -6758    -6731    -6679 
   -6712    -6849    -7052    -7204    -7175    -7051    -6984    -6906 
