Origin Time       2025/03/30 10:46:00
Lat.              32.923
Long.             130.372
Depth. (km)       11
Mag.              3.4
Station Code      KMM002
Station Lat.      33.0189
Station Long.     130.6846
Station Height(m) 33
Record Time       2025/03/30 10:46:27
Sampling Freq(Hz) 100Hz
Duration Time(s)  60
Dir.              N-S
Scale Factor      7845(gal)/8223790
Max. Acc. (gal)   1.389
Last Correction   2025/03/30 10:46:27
Memo.             
[...]
    4835     4834     4841     4850     4855     4846     4830     4830 
    4846     4864     4868     4846     4826     4834     4850     4853 
    4845     4841     4837     4830     4831     4841     4849     4855 
    4857     4850     4837     4828     4841     4862     4860     4835 
    4823     4835     4847     4855     4857     4845     4831     4833 
    4846     4853     4845     4835     4833     4841     4861     4873 
    4862     4839     4819     4824     4850     4854     4841     4833 
    4834     4846     4858     4850     4839     4839     4838     4834 
    4838     4846     4858     4865     4858     4839     4827     4827 
    4831     4838     4847     4853     4843     4834     4839     4851 
    4855     4858     4858     4847     4835     4837     4842     4839 
    4842     4849     4846     4831     4826     4842     4862     4866 
    4854     4841     4834     4835     4837     4837     4839     4850 
    4861     4850     4837     4839     4846     4842     4837     4841 
    4853     4857     4847     4841     4843     4845     4838     4835 
    4843     4851     4854     4846     4833     4830     4838     4850 
    4857     4854     4846     4842     4838     4831     4828     4839 
    4846     4846     4846     4851     4854     4849     4839     4841 
    4846     4847     4841     4834     4835     4841     4841     4846 
    4851     4849     4849     4853     4850     4843     4838     4834 
    4838     4847     4849     4846     4847     4849     4846     4841 
    4837     4841     4850     4858     4854     4842     4830     4837 
    4849     4849     4842     4837     4831     4838     4851     4853 
    4850     4851     4851     4849     4842     4839     4842     4843 
    4839     4837     4845     4855     4847     4834     4831     4841 
    4851     4854     4850     4845     4839     4843     4849     4845 
    4839     4835     4834     4842     4846     4842     4843     4846 
    4842     4845     4854     4857     4850     4839     4827     4831 
    4850     4854     4837     4827     4841     4854     4862     4854 
    4834     4827     4834     4845     4854     4853     4839     4828 
    4830     4837     4849     4860     4857     4846     4839     4841 
    4845     4850     4851     4850     4841     4834     4838     4841 
    4839     4847     4853     4842     4831     4835     4845     4841 
    4827     4834     4853     4860     4851     4839     4838     4846 
    4847     4837     4838     4850     4853     4845     4834     4827 
    4835     4851     4857     4853     4843     4842     4853     4850 
    4837     4831     4831     4835     4847     4847     4833     4830 
    4853     4872     4864     4846     4833     4830     4837     4849 
    4857     4850     4835     4824     4826     4843     4866     4864 
    4843     4838     4851     4855     4833     4816     4835     4858 
    4864     4851     4831     4830     4846     4850     4850     4847 
    4837     4839     4851     4847     4839     4843     4846     4846 
    4847     4843     4838     4841     4841     4841     4853     4860 
    4847     4830     4826     4842     4857     4850     4837     4837 
    4841     4845     4853     4854     4839     4834     4846     4857 
    4851     4835     4824     4834     4853     4861     4853     4845 
    4835     4835     4850     4849     4833     4835     4846     4846 
    4845     4845     4845     4845     4838     4831     4839     4851 
    4842     4842     4860     4858     4837     4820     4822     4843 
    4874     4878     4849     4822     4819     4834     4851     4861 
    4861     4853     4828     4815     4835     4865     4866     4846 
    4826     4823     4835     4849     4849     4846     4851     4857 
    4855     4846     4834     4833     4846     4853     4847     4841 
    4837     4838     4849     4857     4847     4838     4835     4834 
    4839     4853     4857     4839     4827     4839     4851     4850 
    4855     4862     4855     4838     4827     4826     4833     4838 
    4845     4855     4861     4849     4837     4837     4833     4833 
    4850     4861     4853     4842     4838     4842     4849     4849 
    4835     4834     4854     4861     4845     4826     4828     4850 
    4861     4847     4831     4833     4846     4857     4849     4835 
    4841     4854     4855     4850     4841     4828     4828     4847 
    4857     4853     4845     4828     4822     4839     4865     4874 
    4862     4839     4824     4826     4834     4842     4858     4865 
    4854     4845     4839     4830     4828     4842     4855     4861 
    4855     4845     4834     4834     4845     4857     4857     4854 
    4847     4831     4818     4835     4858     4849     4834     4845 
    4858     4854     4843     4839     4839     4841     4830     4823 
    4846     4872     4860     4828     4824     4853     4874     4860 
    4834     4827     4827     4834     4850     4861     4858     4839 
    4816     4830     4861     4858     4830     4820     4837     4851 
    4850     4845     4854     4862     4849     4831     4831     4835 
    4835     4835     4843     4854     4864     4858     4843     4828 
    4827     4839     4850     4855     4858     4842     4819     4820 
    4846     4866     4865     4851     4839     4831     4830     4839 
    4854     4864     4862     4847     4827     4818     4824     4837 
    4851     4865     4854     4823     4820     4849     4864     4868 
    4860     4828     4814     4830     4846     4858     4860     4842 
    4831     4837     4843     4847     4853     4851     4845     4838 
    4831     4837     4843     4837     4843     4861     4861     4846 
    4838     4837     4838     4843     4850     4850     4838     4830 
    4837     4849     4851     4849     4842     4839     4849     4850 
    4838     4828     4834     4846     4855     4862     4860     4839 
    4818     4815     4833     4860     4872     4858     4842     4834 
    4823     4828     4861     4880     4860     4826     4811     4826 
    4851     4861     4853     4842     4837     4839     4843     4841 
    4843     4855     4861     4849     4838     4839     4845     4847 
    4849     4850     4841     4826     4834     4855     4860     4845 
    4831     4827     4826     4845     4870     4864     4838     4830 
    4835     4842     4849     4858     4854     4841     4833     4839 
    4845     4837     4839     4855     4850     4838     4837     4835 
    4851     4872     4854     4820     4816     4837     4864     4885 
    4868     4822     4808     4823     4831     4846     4870     4866 
    4839     4835     4858     4870     4847     4816     4812     4838 
    4860     4854     4838     4839     4847     4850     4849     4843 
    4845     4851     4853     4838     4818     4823     4864     4885 
    4869     4839     4815     4806     4820     4849     4873     4880 
    4861     4831     4823     4849     4866     4843     4818     4828 
    4850     4857     4851     4839     4839     4857     4858     4842 
    4830     4831     4846     4854     4846     4843     4851     4842 
    4828     4841     4862     4869     4850     4820     4823     4853 
    4864     4850     4834     4828     4838     4845     4845     4850 
    4850     4847     4850     4845     4835     4839     4851     4850 
    4845     4842     4841     4846     4849     4837     4837     4850 
    4850     4845     4853     4855     4846     4834     4831     4845 
    4855     4845     4837     4851     4857     4841     4833     4841 
    4846     4853     4851     4838     4831     4845     4868     4870 
    4845     4819     4823     4846     4857     4854     4850     4842 
    4837     4842     4847     4849     4839     4831     4846     4865 
    4855     4833     4824     4838     4857     4864     4854     4841 
    4835     4831     4828     4837     4851     4853     4847     4849 
    4846     4839     4839     4849     4858     4860     4850     4828 
    4818     4835     4861     4870     4850     4816     4812     4845 
    4864     4858     4847     4838     4834     4838     4841     4843 
    4850     4853     4846     4846     4847     4837     4837     4849 
    4846     4839     4843     4845     4845     4850     4855     4850 
    4842     4837     4833     4835     4842     4843     4847     4847 
    4845     4849     4846     4834     4834     4845     4855     4858 
    4841     4823     4831     4855     4860     4841     4834     4843 
    4853     4855     4842     4830     4843     4858     4845     4828 
    4828     4833     4846     4862     4854     4838     4838     4846 
    4850     4843     4835     4837     4839     4841     4845     4855 
    4862     4853     4843     4839     4837     4839     4833     4827 
    4843     4855     4849     4837     4835     4838     4843     4857 
    4862     4851     4842     4833     4826     4833     4846     4853 
    4855     4854     4846     4830     4823     4830     4843     4861 
    4869     4858     4841     4831     4837     4847     4845     4839 
    4837     4831     4841     4861     4860     4839     4828     4838 
    4861     4865     4839     4823     4835     4845     4847     4851 
    4847     4835     4830     4842     4872     4882     4842     4815 
    4826     4830     4838     4868     4872     4842     4822     4828 
    4846     4850     4845     4853     4860     4842     4830     4837 
    4843     4847     4853     4850     4842     4838     4837     4837 
    4833     4835     4857     4865     4843     4824     4828     4839 
    4855     4869     4864     4850     4843     4834     4823     4827 
    4842     4854     4850     4834     4843     4864     4854     4838 
    4838     4839     4839     4845     4849     4843     4837     4839 
    4851     4860     4855     4853     4846     4835     4843     4851 
    4842     4834     4830     4826     4830     4839     4853     4868 
    4868     4858     4847     4826     4815     4830     4849     4861 
    4865     4854     4843     4846     4841     4839     4847     4837 
    4828     4843     4846     4835     4845     4858     4860     4858 
    4849     4834     4824     4826     4845     4866     4864     4842 
    4824     4826     4847     4862     4854     4838     4843     4851 
    4841     4830     4831     4845     4855     4846     4837     4849 
    4853     4841     4839     4842     4835     4839     4847     4849 
    4855     4858     4845     4831     4826     4838     4868     4865 
    4835     4827     4838     4839     4839     4838     4834     4842 
    4857     4860     4858     4850     4833     4820     4819     4827 
    4853     4873     4862     4842     4843     4847     4841     4843 
    4842     4830     4842     4862     4846     4826     4835     4851 
    4847     4831     4831     4854     4864     4846     4830     4830 
    4834     4847     4866     4862     4842     4831     4830     4837 
    4853     4855     4839     4828     4837     4849     4860     4854 
    4831     4834     4857     4855     4841     4837     4839     4849 
    4861     4857     4837     4826     4833     4847     4853     4849 
    4846     4841     4831     4834     4860     4878     4858     4828 
    4826     4834     4843     4850     4846     4846     4860     4864 
    4847     4835     4830     4835     4851     4850     4831     4838 
    4854     4842     4830     4839     4850     4858     4861     4842 
    4830     4849     4860     4838     4826     4839     4851     4850 
    4834     4824     4837     4854     4858     4847     4843     4842 
    4833     4846     4868     4857     4834     4830     4839     4847 
    4843     4827     4823     4849     4874     4869     4842     4815 
    4812     4842     4865     4864     4853     4831     4823     4849 
    4869     4860     4839     4828     4827     4837     4851     4860 
    4853     4839     4842     4860     4854     4826     4812     4826 
    4849     4862     4858     4847     4846     4846     4846     4851 
    4851     4843     4841     4835     4822     4827     4845     4843 
    4845     4866     4869     4845     4828     4830     4842     4850 
    4850     4853     4850     4839     4838     4842     4837     4841 
    4861     4861     4841     4827     4820     4826     4854     4869 
    4860     4843     4827     4826     4846     4855     4850     4849 
    4849     4849     4855     4853     4833     4822     4828     4842 
    4855     4853     4842     4847     4858     4857     4847     4826 
    4804     4820     4866     4889     4873     4842     4827     4837 
    4846     4838     4834     4838     4846     4851     4846     4833 
    4835     4851     4860     4858     4855     4843     4823     4818 
    4835     4862     4872     4854     4837     4824     4811     4814 
    4831     4837     4842     4858     4855     4823     4793     4795 
    4833     4923     5053     5112     5001     4811     4770     4934 
    5078     4980     4619     4070     3646     3947     5022     5937 
    5913     5217     4556     4367     4742     5368     5594     5116 
    4449     4158     4333     4911     5425     5233     4563     4162 
    4321     4895     5525     5740     5397     4807     4199     3829 
    4322     5437     5815     5143     4344     3915     3996     4733 
    5594     5657     5022     4617     4727     5061     5377     5373 
    4862     4002     3388     3808     5157     6161     6035     5373 
    4876     4596     4492     4438     4266     4309     4726     4974 
    4876     4833     4901     4897     4901     4992     5015     4966 
    5070     5231     5179     4992     4861     4822     4758     4588 
    4549     4831     5120     4999     4541     4230     4212     4191 
    4328     4962     5661     5846     5613     5259     4808     4353 
    4284     4558     4622     4444     4422     4687     5134     5545 
    5764     5755     5359     4684     4270     4279     4436     4568 
    4591     4580     4733     4970     5059     4977     4897     4914 
    5007     5140     5182     5065     4880     4607     4251     4062 
    4255     4688     5009     5132     5204     5265     5279     5201 
    4977     4688     4554     4749     5074     5159     4974     4664 
    4371     4380     4757     5070     4957     4579     4279     4318 
    4731     5119     5265     5521     5875     5756     5142     4645 
    4384     4045     3885     4237     4756     4995     4873     4699 
    4854     5169     5158     4823     4633     4843     5188     5293 
    5105     4791     4561     4534     4623     4764     4934     4938 
    4707     4598     4824     5128     5302     5294     5031     4704 
    4612     4644     4595     4592     4772     4976     5026     5009 
    5085     5131     4949     4675     4531     4469     4403     4426 
    4603     4860     5081     5192     5236     5309     5346     5184 
    4896     4691     4544     4372     4326     4546     4868     5026 
    4974     4780     4588     4653     4927     5152     5259     5186 
    4918     4743     4901     5112     5028     4841     4774     4638 
    4382     4295     4471     4743     4922     4878     4776     4876 
    5115     5258     5247     5105     4824     4550     4510     4649 
    4806     4965     5092     5066     4926     4814     4730     4650 
    4594     4608     4800     5071     5150     5035     4891     4752 
    4639     4617     4656     4710     4810     4927     4939     4891 
    4976     5136     5143     5061     5054     4947     4610     4368 
    4445     4648     4877     5147     5267     5084     4716     4376 
    4271     4558     4980     5094     5038     5128     5200     5069 
    4900     4804     4687     4594     4661     4777     4783     4743 
    4769     4853     4930     4893     4746     4725     4957     5184 
    5117     4872     4734     4749     4815     4878     4874     4783 
    4729     4742     4758     4830     4988     5092     5028     4845 
    4671     4579     4622     4843     5062     5062     4889     4692 
    4621     4708     4807     4841     4837     4779     4729     4833 
    5089     5282     5269     5078     4777     4552     4557     4645 
    4673     4758     4912     4973     4918     4889     4947     4966 
    4887     4801     4779     4834     4857     4752     4710     4824 
    4899     4833     4741     4762     4892     4976     4908     4788 
    4847     5076     5115     4857     4627     4583     4660     4866 
    5038     4930     4622     4386     4414     4715     5043     5097 
    4896     4784     4935     5169     5294     5297     5167     4912 
    4722     4698     4719     4715     4662     4530     4433     4506 
    4698     4864     4962     5000     4926     4819     4865     5027 
    5157     5154     4946     4665     4602     4812     5031     5063 
    5011     4922     4723     4585     4712     4927     4943     4737 
    4472     4351     4486     4746     4969     5155     5254     5186 
    5004     4807     4742     4857     4980     4904     4644     4507 
    4706     5012     5193     5229     5063     4689     4326     4214 
    4401     4734     4999     5105     5124     5116     5084     5046 
    5020     4977     4911     4874     4868     4843     4803     4780 
    4792     4791     4745     4723     4741     4756     4738     4622 
    4457     4442     4623     4853     5061     5297     5404     5171 
    4866     4761     4668     4584     4696     4850     4846     4822 
    4915     4970     4908     4853     4731     4550     4611     4949 
    5228     5228     5104     5040     5003     4959     4816     4491 
    4307     4479     4671     4668     4745     5007     5121     4996 
    4932     4955     4931     4912     4819     4588     4477     4635 
    4850     5008     5205     5333     5236     5069     4870     4503 
    4170     4101     4212     4465     4922     5386     5539     5387 
    5238     5152     4962     4749     4754     4946     5042     4868 
    4571     4383     4387     4603     4823     4781     4689     4811 
    4997     5081     5105     5147     5136     4966     4760     4704 
    4758     4787     4765     4693     4567     4490     4523     4606 
    4743     4984     5235     5351     5294     5109     4857     4675 
    4665     4787     4942     4951     4745     4576     4595     4607 
    4537     4564     4801     5174     5448     5355     4972     4772 
    4896     4934     4714     4495     4460     4571     4723     4873 
    4996     5019     4934     4869     4961     5107     5038     4783 
    4652     4742     4908     4990     4893     4712     4625     4666 
    4796     4896     4888     4811     4666     4579     4725     4957 
    5061     5032     4946     4869     4947     5211     5327     5040 
    4579     4297     4355     4687     4978     5027     4990     4936 
    4716     4475     4518     4754     4939     5053     5104     5174 
    5323     5341     5067     4657     4291     4058     4164     4687 
    5150     5179     5076     5054     4970     4903     4973     5005 
    4931     4903     4892     4823     4834     4847     4637     4436 
    4544     4734     4812     4926     5070     5082     4970     4796 
