Origin Time       2025/03/30 10:46:00
Lat.              32.923
Long.             130.372
Depth. (km)       11
Mag.              3.4
Station Code      KMM003
Station Lat.      32.9335
Station Long.     130.5477
Station Height(m) 13
Record Time       2025/03/30 10:46:24
Sampling Freq(Hz) 100Hz
Duration Time(s)  60
Dir.              U-D
Scale Factor      7845(gal)/8223790
Max. Acc. (gal)   3.798
Last Correction   2025/03/30 10:46:23
Memo.             
[...]
   -3825    -3846    -3852    -3840    -3823    -3812    -3813    -3809 
   -3808    -3831    -3851    -3859    -3855    -3835    -3813    -3804 
   -3811    -3820    -3834    -3844    -3835    -3827    -3832    -3832 
   -3819    -3809    -3831    -3859    -3847    -3819    -3809    -3811 
   -3816    -3850    -3882    -3847    -3817    -3823    -3785    -3789 
   -3828    -3817    -3844    -3881    -3867    -3850    -3819    -3793 
   -3796    -3809    -3824    -3839    -3844    -3846    -3852    -3852 
   -3834    -3815    -3823    -3824    -3797    -3775    -3788    -3835 
   -3889    -3892    -3852    -3821    -3808    -3813    -3831    -3820 
   -3785    -3777    -3823    -3875    -3867    -3844    -3863    -3858 
   -3800    -3759    -3763    -3800    -3856    -3900    -3902    -3856 
   -3796    -3790    -3821    -3809    -3761    -3771    -3858    -3910 
   -3890    -3847    -3807    -3792    -3807    -3824    -3821    -3813 
   -3821    -3844    -3873    -3871    -3823    -3792    -3796    -3802 
   -3821    -3851    -3862    -3847    -3823    -3815    -3817    -3817 
   -3832    -3850    -3836    -3816    -3816    -3816    -3811    -3821 
   -3839    -3847    -3851    -3859    -3848    -3813    -3792    -3796 
   -3813    -3828    -3835    -3844    -3851    -3844    -3836    -3828 
   -3813    -3809    -3824    -3834    -3832    -3828    -3823    -3825 
   -3834    -3838    -3832    -3831    -3831    -3817    -3812    -3817 
   -3829    -3844    -3838    -3831    -3838    -3823    -3811    -3820 
   -3828    -3838    -3842    -3829    -3820    -3825    -3834    -3839 
   -3840    -3829    -3811    -3800    -3811    -3840    -3858    -3851 
   -3827    -3813    -3824    -3829    -3823    -3832    -3842    -3820 
   -3805    -3828    -3846    -3835    -3824    -3816    -3816    -3832 
   -3843    -3839    -3844    -3840    -3817    -3817    -3827    -3824 
   -3839    -3854    -3827    -3793    -3801    -3835    -3856    -3843 
   -3820    -3815    -3809    -3811    -3835    -3850    -3840    -3828 
   -3827    -3824    -3812    -3829    -3877    -3865    -3792    -3770 
   -3809    -3843    -3859    -3858    -3851    -3839    -3789    -3748 
   -3785    -3850    -3889    -3904    -3893    -3851    -3784    -3728 
   -3732    -3794    -3886    -3936    -3888    -3811    -3775    -3785 
   -3831    -3846    -3802    -3797    -3843    -3875    -3877    -3846 
   -3796    -3780    -3816    -3855    -3858    -3842    -3807    -3765 
   -3801    -3888    -3882    -3827    -3835    -3843    -3813    -3778 
   -3759    -3782    -3850    -3905    -3910    -3897    -3862    -3763 
   -3685    -3730    -3805    -3851    -3935    -3991    -3917    -3789 
   -3699    -3684    -3777    -3906    -3956    -3896    -3812    -3755 
   -3715    -3775    -3921    -3948    -3862    -3824    -3809    -3775 
   -3778    -3797    -3821    -3869    -3881    -3838    -3809    -3834 
   -3859    -3831    -3793    -3786    -3804    -3848    -3882    -3865 
   -3812    -3766    -3766    -3836    -3932    -3929    -3811    -3727 
   -3721    -3762    -3901    -4004    -3910    -3767    -3696    -3696 
   -3831    -3963    -3917    -3838    -3794    -3736    -3766    -3893 
   -3947    -3854    -3759    -3765    -3766    -3802    -3952    -3952 
   -3755    -3699    -3809    -3908    -3935    -3801    -3690    -3812 
   -3893    -3840    -3835    -3859    -3844    -3789    -3773    -3865 
   -3913    -3848    -3775    -3746    -3782    -3866    -3897    -3870 
   -3836    -3793    -3793    -3832    -3820    -3807    -3836    -3847 
   -3854    -3869    -3840    -3781    -3751    -3782    -3828    -3863 
   -3912    -3917    -3844    -3789    -3762    -3744    -3797    -3867 
   -3856    -3821    -3838    -3871    -3863    -3820    -3785    -3796 
   -3829    -3816    -3804    -3866    -3901    -3831    -3769    -3789 
   -3821    -3834    -3856    -3861    -3823    -3794    -3811    -3842 
   -3848    -3842    -3839    -3817    -3801    -3813    -3821    -3831 
   -3848    -3852    -3840    -3834    -3843    -3836    -3805    -3792 
   -3807    -3824    -3832    -3824    -3843    -3892    -3878    -3805 
   -3789    -3820    -3808    -3782    -3816    -3863    -3856    -3839 
   -3840    -3829    -3820    -3825    -3812    -3798    -3832    -3867 
   -3856    -3838    -3823    -3797    -3801    -3832    -3820    -3794 
   -3848    -3908    -3871    -3815    -3798    -3784    -3774    -3805 
   -3869    -3898    -3862    -3809    -3790    -3797    -3820    -3861 
   -3858    -3807    -3786    -3828    -3883    -3874    -3802    -3771 
   -3804    -3836    -3838    -3836    -3855    -3854    -3807    -3815 
   -3894    -3874    -3736    -3701    -3812    -3893    -3904    -3901 
   -3825    -3735    -3777    -3831    -3835    -3921    -3956    -3794 
   -3661    -3694    -3820    -3997    -4037    -3785    -3580    -3730 
   -3964    -3951    -3798    -3738    -3793    -3901    -3940    -3802 
   -3707    -3815    -3886    -3859    -3854    -3809    -3797    -3838 
   -3767    -3738    -3893    -3973    -3858    -3805    -3828    -3712 
   -3657    -3878    -4054    -3944    -3770    -3728    -3759    -3790 
   -3843    -3889    -3865    -3812    -3785    -3802    -3874    -3885 
   -3804    -3800    -3839    -3807    -3801    -3828    -3815    -3838 
   -3878    -3847    -3824    -3848    -3848    -3812    -3758    -3739 
   -3811    -3900    -3932    -3890    -3793    -3748    -3784    -3851 
   -3902    -3846    -3732    -3748    -3854    -3893    -3862    -3808 
   -3812    -3893    -3901    -3813    -3762    -3748    -3759    -3825 
   -3871    -3854    -3863    -3900    -3879    -3813    -3763    -3748 
   -3792    -3904    -3920    -3743    -3666    -3840    -3982    -3928 
   -3834    -3804    -3786    -3767    -3812    -3869    -3831    -3759 
   -3770    -3874    -3956    -3893    -3777    -3766    -3823    -3839 
   -3807    -3778    -3796    -3848    -3875    -3851    -3829    -3844 
   -3870    -3858    -3798    -3738    -3748    -3835    -3859    -3827 
   -3896    -3950    -3846    -3758    -3758    -3750    -3798    -3917 
   -3913    -3786    -3766    -3852    -3844    -3804    -3851    -3855 
   -3819    -3869    -3846    -3728    -3778    -3917    -3894    -3797 
   -3770    -3777    -3781    -3828    -3913    -3905    -3847    -3889 
   -3866    -3723    -3705    -3766    -3789    -3879    -3929    -3870 
   -3865    -3873    -3817    -3781    -3771    -3781    -3788    -3775 
   -3835    -3915    -3906    -3892    -3885    -3821    -3754    -3748 
   -3784    -3794    -3786    -3838    -3921    -3910    -3825    -3798 
   -3828    -3824    -3821    -3840    -3805    -3751    -3759    -3813 
   -3896    -3948    -3881    -3808    -3847    -3846    -3734    -3694 
   -3765    -3846    -3942    -3982    -3892    -3775    -3727    -3740 
   -3800    -3862    -3858    -3807    -3835    -3908    -3873    -3823 
   -3817    -3743    -3728    -3879    -3959    -3851    -3761    -3782 
   -3797    -3819    -3886    -3909    -3870    -3811    -3735    -3709 
   -3811    -3933    -3912    -3839    -3846    -3838    -3754    -3701 
   -3790    -3935    -3927    -3817    -3784    -3813    -3840    -3859 
   -3844    -3796    -3788    -3834    -3852    -3815    -3792    -3831 
   -3878    -3877    -3825    -3773    -3788    -3825    -3800    -3804 
   -3910    -3932    -3808    -3751    -3805    -3851    -3850    -3827 
   -3821    -3824    -3807    -3790    -3812    -3861    -3879    -3850 
   -3823    -3836    -3842    -3797    -3770    -3802    -3842    -3867 
   -3890    -3865    -3761    -3707    -3831    -3971    -3916    -3778 
   -3746    -3770    -3793    -3848    -3910    -3917    -3866    -3781 
   -3716    -3738    -3828    -3896    -3894    -3843    -3808    -3838 
   -3889    -3836    -3708    -3703    -3854    -3977    -3932    -3819 
   -3769    -3728    -3732    -3854    -3951    -3923    -3823    -3736 
   -3728    -3796    -3885    -3923    -3879    -3831    -3816    -3801 
   -3769    -3750    -3793    -3874    -3917    -3898    -3838    -3778 
   -3757    -3786    -3855    -3888    -3856    -3824    -3809    -3812 
   -3827    -3832    -3829    -3819    -3821    -3834    -3835    -3846 
   -3851    -3829    -3790    -3746    -3782    -3909    -3960    -3865 
   -3747    -3735    -3801    -3858    -3878    -3866    -3819    -3771 
   -3796    -3856    -3838    -3804    -3852    -3858    -3802    -3831 
   -3889    -3842    -3753    -3778    -3856    -3855    -3854    -3867 
   -3800    -3758    -3816    -3862    -3865    -3861    -3824    -3785 
   -3804    -3804    -3782    -3850    -3904    -3859    -3821    -3808 
   -3796    -3820    -3851    -3836    -3800    -3809    -3858    -3861 
   -3821    -3801    -3808    -3829    -3856    -3848    -3789    -3781 
   -3858    -3883    -3823    -3800    -3838    -3847    -3811    -3798 
   -3816    -3813    -3824    -3855    -3859    -3844    -3832    -3828 
   -3825    -3819    -3808    -3804    -3811    -3828    -3846    -3859 
   -3855    -3823    -3800    -3809    -3828    -3843    -3843    -3828 
   -3821    -3827    -3828    -3819    -3812    -3820    -3846    -3870 
   -3847    -3804    -3786    -3793    -3824    -3869    -3881    -3842 
   -3804    -3801    -3813    -3827    -3839    -3844    -3834    -3824 
   -3829    -3831    -3813    -3800    -3809    -3835    -3861    -3869 
   -3859    -3828    -3808    -3811    -3808    -3820    -3840    -3827 
   -3807    -3808    -3835    -3867    -3863    -3834    -3811    -3797 
   -3798    -3815    -3838    -3859    -3859    -3846    -3838    -3817 
   -3781    -3777    -3816    -3858    -3870    -3850    -3831    -3828 
   -3821    -3816    -3816    -3802    -3808    -3843    -3862    -3870 
   -3855    -3811    -3793    -3804    -3804    -3811    -3829    -3843 
   -3840    -3838    -3844    -3844    -3825    -3807    -3812    -3835 
   -3842    -3823    -3813    -3825    -3835    -3846    -3856    -3844 
   -3823    -3809    -3807    -3813    -3823    -3824    -3820    -3835 
   -3851    -3839    -3825    -3825    -3820    -3816    -3817    -3828 
   -3842    -3842    -3840    -3843    -3834    -3808    -3794    -3815 
   -3836    -3838    -3840    -3840    -3831    -3823    -3832    -3839 
   -3838    -3831    -3819    -3809    -3812    -3828    -3840    -3831 
   -3823    -3829    -3838    -3840    -3831    -3817    -3819    -3831 
   -3832    -3827    -3824    -3832    -3842    -3835    -3820    -3813 
   -3813    -3816    -3829    -3847    -3844    -3829    -3821    -3820 
   -3824    -3834    -3829    -3827    -3840    -3844    -3825    -3809 
   -3811    -3819    -3824    -3832    -3828    -3824    -3838    -3852 
   -3846    -3835    -3828    -3815    -3811    -3811    -3808    -3829 
   -3854    -3856    -3842    -3815    -3807    -3829    -3842    -3834 
   -3832    -3825    -3805    -3819    -3854    -3861    -3840    -3815 
   -3798    -3805    -3831    -3838    -3820    -3821    -3839    -3842 
   -3835    -3821    -3816    -3832    -3847    -3839    -3825    -3821 
   -3823    -3824    -3821    -3824    -3832    -3842    -3851    -3839 
   -3813    -3809    -3819    -3824    -3827    -3821    -3829    -3847 
   -3838    -3828    -3844    -3844    -3824    -3812    -3807    -3811 
   -3831    -3847    -3844    -3832    -3835    -3838    -3829    -3821 
   -3819    -3811    -3813    -3828    -3828    -3835    -3865    -3869 
   -3840    -3812    -3788    -3786    -3824    -3866    -3870    -3828 
   -3797    -3809    -3824    -3824    -3834    -3842    -3832    -3838 
   -3856    -3848    -3808    -3775    -3789    -3846    -3897    -3889 
   -3828    -3775    -3775    -3804    -3839    -3854    -3838    -3835 
   -3855    -3861    -3842    -3801    -3761    -3763    -3812    -3867 
   -3901    -3894    -3847    -3797    -3770    -3761    -3781    -3839 
   -3889    -3905    -3882    -3824    -3780    -3765    -3781    -3832 
   -3885    -3896    -3839    -3757    -3754    -3823    -3869    -3882 
   -3883    -3859    -3805    -3750    -3738    -3780    -3848    -3906 
   -3923    -3897    -3836    -3769    -3734    -3740    -3794    -3869 
   -3915    -3921    -3881    -3809    -3762    -3751    -3773    -3825 
   -3877    -3886    -3862    -3827    -3798    -3790    -3812    -3842 
   -3852    -3847    -3834    -3821    -3817    -3820    -3834    -3847 
   -3843    -3829    -3815    -3805    -3813    -3831    -3843    -3842 
   -3828    -3817    -3823    -3834    -3838    -3831    -3819    -3817 
   -3835    -3848    -3839    -3827    -3821    -3817    -3816    -3824 
   -3843    -3843    -3832    -3827    -3820    -3821    -3824    -3821 
   -3827    -3834    -3835    -3834    -3836    -3834    -3821    -3825 
   -3838    -3829    -3823    -3824    -3819    -3816    -3824    -3844 
   -3861    -3847    -3811    -3798    -3816    -3834    -3843    -3846 
   -3827    -3812    -3825    -3834    -3820    -3819    -3838    -3848 
   -3835    -3824    -3829    -3835    -3821    -3808    -3827    -3852 
   -3839    -3807    -3808    -3840    -3858    -3839    -3821    -3827 
   -3823    -3813    -3821    -3832    -3832    -3821    -3815    -3829 
   -3854    -3861    -3831    -3796    -3800    -3825    -3839    -3834 
   -3827    -3848    -3859    -3813    -3780    -3817    -3856    -3851 
   -3843    -3838    -3819    -3797    -3796    -3832    -3870    -3865 
   -3832    -3801    -3798    -3819    -3839    -3925    -4264    -5011 
   -5869    -5728    -3680     -953      -60    -1262    -2374    -2500 
   -3176    -5489    -7809    -7784    -5892    -4109    -2671    -1458 
   -1421    -2639    -3877    -4379    -4594    -5287    -5452    -3712 
   -2610    -3632    -3346    -2235    -3514    -4901    -4229    -3607 
   -4322    -4625    -3537    -3476    -4557    -3780    -2581    -3835 
   -5201    -4284    -3279    -3441    -3392    -3642    -4140    -3488 
   -2982    -3505    -3977    -4259    -4305    -3944    -3622    -3588 
   -3831    -4201    -4398    -4515    -4969    -4676    -2978    -2416 
   -3055    -2878    -3393    -4301    -3811    -3640    -4288    -4170 
   -3408    -3393    -4379    -4820    -4251    -3955    -4260    -4247 
   -3796    -3639    -3487    -3048    -2971    -3518    -4205    -4059 
   -3736    -4141    -3719    -3227    -3954    -3566    -3045    -4527 
   -5155    -4072    -3782    -4245    -4245    -3727    -3025    -2768 
   -3327    -4098    -4326    -4232    -4298    -3924    -3026    -3187 
   -4117    -3784    -3273    -4205    -4726    -4013    -3712    -4074 
   -4160    -3488    -3088    -4099    -4831    -3973    -2911    -2894 
   -4099    -5047    -4122    -2724    -2662    -2936    -2957    -4168 
   -5543    -4986    -4365    -4876    -4591    -3643    -3269    -3036 
   -2565    -2683    -3866    -4666    -4401    -4122    -3765    -3218 
   -2986    -2929    -3369    -4449    -5154    -4928    -4450    -4290 
   -3754    -2972    -3311    -4001    -3682    -3283    -3423    -3591 
   -3981    -4426    -4025    -3559    -4140    -4252    -3360    -3580 
   -4410    -4110    -3763    -3775    -3414    -3694    -4553    -4008 
   -2992    -3329    -3342    -2947    -3796    -4306    -4095    -4800 
   -5286    -4494    -3786    -3659    -3447    -3346    -3315    -2835 
   -2837    -3921    -4673    -4357    -3824    -3711    -3697    -3477 
   -3770    -4226    -3940    -4067    -4320    -3651    -3623    -4290 
   -4368    -4001    -3532    -3608    -4176    -4287    -3730    -2812 
   -2639    -3387    -3316    -2857    -3615    -4426    -4183    -3796 
   -4213    -5107    -4934    -3693    -3393    -4164    -4251    -3611 
   -3476    -3805    -3743    -3460    -3807    -4077    -3535    -3771 
   -4698    -4392    -3832    -3839    -3238    -3001    -3681    -3790 
   -3943    -4322    -3786    -3662    -4116    -3446    -2987    -4066 
   -4718    -3943    -3140    -3017    -3296    -3797    -4143    -4091 
   -4288    -5046    -5017    -3839    -3423    -3909    -3607    -3186 
   -3427    -2995    -2783    -4068    -4621    -4064    -4352    -4563 
   -3924    -3526    -3164    -2972    -3492    -3893    -4206    -4861 
   -5293    -5135    -4109    -3090    -3210    -3022    -2245    -2667 
   -3014    -2290    -2902    -4630    -5081    -5035    -5661    -5818 
   -5092    -4001    -2759    -2200    -2443    -2663    -3218    -4144 
   -4633    -4830    -5081    -5061    -4356    -3477    -3269    -3150 
   -2466    -2301    -3187    -3897    -4401    -5259    -5385    -4434 
   -3489    -3133    -3076    -2776    -2729    -3447    -4156    -4576 
   -4878    -4691    -4174    -3923    -3906    -3569    -2920    -2828 
   -3437    -3758    -3591    -3726    -4032    -3973    -4195    -4603 
   -4205    -3910    -4309    -4212    -3813    -3896    -3893    -3721 
   -3875    -3753    -3330    -3578    -3832    -3402    -3214    -3545 
   -3771    -3682    -3716    -4220    -4563    -4342    -4186    -4145 
   -3709    -3148    -3230    -3971    -4043    -3233    -3276    -4008 
   -3952    -3549    -3932    -4835    -4599    -3507    -3856    -4752 
   -4272    -3699    -3786    -3547    -3119    -3311    -3767    -3489 
   -3041    -3677    -4519    -4280    -3886    -4233    -4170    -3298 
   -2972    -3246    -3441    -3890    -4464    -4604    -4486    -4365 
   -4014    -3608    -3682    -3750    -3253    -3026    -3504    -3538 
   -3051    -3542    -4600    -4843    -4765    -4669    -4212    -3900 
   -3851    -3909    -3870    -3168    -2830    -3685    -3958    -3287 
   -3427    -4074    -3931    -3438    -3237    -3441    -4074    -4515 
   -4552    -4468    -4148    -3767    -3451    -3195    -3181    -3262 
   -3383    -3832    -4565    -4791    -4423    -4618    -4865    -3923 
   -3123    -3373    -3204    -2598    -2949    -3811    -4126    -4202 
   -4522    -4700    -4441    -4152    -3893    -3484    -3088    -2663 
   -2525    -3157    -3958    -4287    -4433    -4549    -4635    -4903 
   -4753    -3639    -2781    -2991    -3325    -3408    -3692    -4064 
   -4108    -3936    -3956    -3905    -3659    -3836    -4140    -3888 
   -3696    -3987    -4048    -3789    -3901    -4056    -3705    -3539 
   -3739    -3613    -3333    -3431    -3964    -4545    -4585    -4126 
   -3793    -3889    -3955    -3558    -3133    -3126    -3495    -3936 
   -4070    -4126    -4197    -3834    -3358    -3279    -3477    -3892 
   -4271    -4160    -3835    -3842    -4143    -4259    -3998    -3896 
   -4102    -4047    -3604    -3254    -3414    -3697    -3626    -3770 
   -4294    -4460    -4352    -4430    -4352    -3690    -2906    -2590 
   -2461    -2524    -3227    -3947    -4133    -4348    -4826    -4951 
   -4513    -4472    -4746    -4068    -3229    -3335    -3489    -3256 
   -3284    -3824    -4305    -4284    -4249    -4205    -3716    -3476 
   -3686    -3461    -3064    -3102    -3296    -3651    -4162    -4374 
   -4286    -4234    -4191    -3912    -3541    -3574    -3893    -3788 
   -3381    -3431    -3678    -3649    -4008    -4527    -4257    -4005 
   -4244    -4081    -3766    -3838    -3920    -3847    -3678    -3586 
   -3865    -4064    -3665    -3411    -3781    -3989    -3897    -3875 
   -3696    -3472    -3429    -3511    -3761    -3893    -3812    -3900 
   -3996    -3808    -3655    -3717    -3878    -4117    -4212    -4023 
   -3769    -3663    -3856    -4095    -4058    -4005    -4025    -3840 
