Origin Time       2025/03/30 10:46:00
Lat.              32.923
Long.             130.372
Depth. (km)       11
Mag.              3.4
Station Code      KMM003
Station Lat.      32.9335
Station Long.     130.5477
Station Height(m) 13
Record Time       2025/03/30 10:46:24
Sampling Freq(Hz) 100Hz
Duration Time(s)  60
Dir.              E-W
Scale Factor      7845(gal)/8223790
Max. Acc. (gal)   4.085
Last Correction   2025/03/30 10:46:23
Memo.             
[...]
    3848     3933     3893     3746     3642     3705     3834     3848 
    3761     3701     3723     3761     3746     3727     3777     3834 
    3798     3734     3731     3732     3723     3767     3823     3840 
    3844     3815     3738     3696     3705     3709     3739     3811 
    3832     3785     3757     3732     3692     3720     3820     3852 
    3790     3743     3744     3766     3789     3762     3726     3773 
    3811     3758     3726     3751     3751     3739     3767     3798 
    3801     3804     3796     3765     3738     3719     3721     3778 
    3836     3808     3728     3697     3734     3805     3831     3766 
    3715     3757     3808     3782     3734     3750     3785     3775 
    3770     3765     3748     3763     3759     3732     3771     3825 
    3804     3755     3723     3709     3751     3815     3797     3740 
    3744     3770     3775     3800     3823     3778     3704     3692 
    3723     3771     3846     3850     3761     3719     3732     3744 
    3770     3765     3742     3780     3820     3808     3785     3739 
    3692     3709     3770     3821     3829     3804     3754     3685 
    3674     3750     3819     3813     3786     3792     3790     3740 
    3705     3735     3767     3769     3804     3828     3777     3731 
    3727     3744     3786     3781     3746     3762     3766     3759 
    3804     3842     3809     3719     3666     3700     3746     3773 
    3811     3816     3762     3717     3726     3781     3820     3773 
    3720     3758     3811     3811     3775     3728     3736     3790 
    3774     3712     3730     3801     3813     3770     3759     3759 
    3728     3753     3815     3789     3740     3750     3757     3740 
    3734     3770     3827     3816     3736     3699     3754     3816 
    3775     3716     3755     3801     3778     3767     3780     3757 
    3754     3786     3759     3723     3755     3789     3792     3775 
    3746     3754     3793     3784     3742     3747     3782     3786 
    3748     3732     3774     3794     3761     3750     3763     3762 
    3767     3777     3769     3751     3746     3770     3790     3775 
    3758     3750     3747     3766     3778     3765     3743     3712 
    3744     3859     3862     3723     3677     3761     3811     3798 
    3785     3750     3681     3701     3813     3817     3744     3762 
    3770     3730     3770     3797     3780     3807     3780     3707 
    3707     3767     3828     3794     3700     3717     3812     3851 
    3819     3726     3666     3727     3780     3766     3777     3774 
    3751     3788     3835     3797     3694     3693     3802     3813 
    3761     3782     3767     3707     3739     3815     3807     3734 
    3717     3794     3815     3731     3700     3777     3835     3801 
    3743     3728     3730     3730     3774     3835     3816     3757 
    3770     3785     3726     3704     3771     3821     3793     3740 
    3727     3754     3778     3789     3790     3767     3728     3717 
    3767     3843     3840     3751     3688     3701     3761     3819 
    3805     3723     3709     3790     3820     3757     3700     3716 
    3807     3840     3757     3712     3774     3813     3774     3750 
    3780     3812     3824     3778     3666     3620     3707     3840 
    3913     3847     3701     3636     3705     3839     3892     3782 
    3684     3712     3751     3771     3808     3786     3731     3761 
    3824     3813     3742     3694     3713     3755     3778     3766 
    3765     3816     3831     3781     3761     3748     3735     3757 
    3759     3734     3736     3774     3804     3794     3784     3790 
    3762     3732     3774     3790     3708     3680     3781     3842 
    3775     3738     3798     3816     3784     3789     3739     3662 
    3743     3801     3692     3717     3870     3844     3757     3784 
    3788     3728     3724     3770     3751     3696     3754     3839 
    3775     3736     3813     3797     3738     3775     3777     3716 
    3719     3755     3773     3796     3813     3802     3762     3728 
    3730     3751     3770     3771     3758     3778     3808     3780 
    3742     3754     3769     3775     3785     3750     3717     3751 
    3784     3766     3781     3829     3793     3708     3696     3731 
    3770     3801     3782     3771     3823     3811     3705     3669 
    3731     3800     3823     3785     3750     3742     3736     3762 
    3794     3802     3808     3777     3738     3735     3716     3726 
    3794     3801     3773     3815     3812     3724     3690     3735 
    3785     3794     3778     3782     3778     3743     3730     3767 
    3813     3815     3767     3736     3754     3765     3742     3751 
    3815     3816     3736     3709     3751     3766     3762     3778 
    3771     3736     3748     3786     3781     3762     3765     3775 
    3771     3766     3771     3763     3761     3755     3742     3781 
    3821     3775     3732     3742     3751     3766     3801     3804 
    3748     3731     3762     3763     3758     3781     3767     3717 
    3738     3829     3861     3766     3659     3681     3789     3840 
    3824     3773     3703     3715     3825     3854     3762     3707 
    3717     3730     3757     3820     3850     3786     3685     3643 
    3728     3875     3896     3769     3669     3699     3785     3820 
    3786     3723     3704     3777     3858     3836     3738     3688 
    3704     3738     3789     3838     3835     3774     3694     3681 
    3750     3816     3831     3798     3740     3720     3742     3743 
    3739     3786     3840     3824     3767     3736     3723     3712 
    3738     3796     3802     3755     3755     3790     3788     3767 
    3767     3771     3757     3744     3763     3773     3765     3765 
    3761     3762     3750     3727     3784     3866     3815     3696 
    3685     3750     3785     3811     3823     3771     3715     3735 
    3789     3771     3738     3793     3815     3738     3716     3771 
    3782     3732     3732     3804     3820     3781     3767     3742 
    3704     3732     3789     3813     3829     3801     3721     3713 
    3755     3761     3785     3816     3782     3742     3740     3736 
    3755     3815     3801     3719     3712     3781     3805     3754 
    3713     3742     3801     3834     3804     3730     3711     3773 
    3811     3767     3739     3775     3789     3754     3732     3753 
    3789     3778     3747     3763     3771     3755     3778     3793 
    3751     3735     3767     3784     3775     3754     3761     3801 
    3797     3747     3727     3739     3757     3774     3792     3786 
    3748     3731     3767     3816     3808     3731     3723     3802 
    3790     3715     3726     3775     3800     3794     3761     3751 
    3746     3719     3751     3816     3811     3763     3742     3761 
    3789     3758     3720     3789     3836     3734     3674     3766 
    3847     3819     3735     3694     3735     3780     3792     3788 
    3759     3748     3778     3784     3754     3753     3773     3766 
    3743     3735     3758     3793     3796     3765     3740     3750 
    3778     3780     3747     3744     3788     3801     3771     3744 
    3726     3746     3789     3794     3780     3775     3759     3747 
    3767     3780     3762     3742     3746     3775     3789     3786 
    3785     3757     3735     3748     3767     3767     3763     3774 
    3785     3762     3731     3739     3769     3790     3789     3781 
    3781     3771     3748     3748     3774     3792     3780     3746 
    3743     3778     3780     3751     3755     3770     3762     3744 
    3746     3767     3771     3754     3759     3773     3769     3766 
    3766     3763     3770     3773     3774     3771     3751     3747 
    3785     3805     3767     3740     3761     3780     3767     3754 
    3769     3774     3753     3750     3766     3773     3773     3763 
    3753     3748     3761     3781     3788     3781     3763     3751 
    3754     3753     3753     3769     3784     3785     3774     3753 
    3731     3734     3770     3804     3798     3766     3739     3746 
    3775     3790     3770     3739     3746     3778     3786     3767 
    3754     3754     3767     3784     3778     3770     3774     3761 
    3748     3748     3736     3753     3788     3782     3762     3755 
    3750     3766     3780     3778     3786     3781     3762     3759 
    3765     3766     3766     3770     3773     3754     3739     3750 
    3758     3758     3762     3767     3786     3792     3755     3731 
    3738     3761     3802     3800     3751     3761     3790     3773 
    3759     3757     3746     3763     3793     3785     3753     3732 
    3743     3761     3758     3757     3762     3765     3788     3794 
    3771     3771     3763     3746     3767     3782     3759     3742 
    3757     3786     3784     3761     3751     3747     3765     3804 
    3813     3770     3717     3717     3758     3784     3794     3777 
    3728     3726     3789     3816     3778     3780     3794     3732 
    3688     3735     3784     3790     3778     3771     3793     3802 
    3740     3663     3690     3804     3866     3834     3754     3676 
    3697     3827     3867     3754     3699     3770     3770     3719 
    3765     3823     3820     3777     3688     3684     3773     3788 
    3763     3802     3843     3793     3690     3670     3755     3820 
    3804     3759     3734     3744     3762     3762     3781     3823 
    3815     3743     3694     3707     3738     3767     3809     3847 
    3829     3751     3680     3681     3734     3774     3792     3816 
    3820     3778     3735     3721     3732     3755     3788     3804 
    3800     3780     3743     3717     3739     3781     3792     3773 
    3754     3753     3770     3778     3759     3750     3762     3771 
    3786     3788     3769     3759     3753     3746     3761     3774 
    3781     3773     3742     3746     3777     3771     3765     3775 
    3770     3755     3747     3754     3773     3785     3778     3770 
    3761     3759     3769     3759     3743     3755     3773     3778 
    3782     3769     3755     3762     3763     3755     3763     3773 
    3765     3758     3761     3766     3774     3767     3757     3771 
    3785     3769     3753     3754     3759     3767     3781     3784 
    3770     3753     3753     3771     3784     3762     3739     3763 
    3792     3771     3747     3754     3754     3748     3770     3793 
    3794     3784     3758     3738     3744     3744     3744     3785 
    3824     3807     3751     3728     3751     3763     3747     3750 
    3775     3805     3802     3739     3705     3755     3794     3789 
    3775     3767     3773     3766     3728     3711     3758     3815 
    3812     3777     3744     3716     3708     3748     3809     3834 
    3816     3769     3721     3731     3773     3777     3770     3770 
    3720     3581     3447     3574     4004     4210     3840     3447 
    3604     3935     3788     3275     3105     3383     3449     3211 
    3304     3932     4712     5247     5437     5481     5417     5032 
    4367     3199     1471      924     2334     3364     3187     3615 
    4818     5192     4479     3804     3026     1926     2023     3168 
    3588     3739     4708     5455     5103     4772     4656     3943 
    3543     3527     2790     2363     3244     4283     4287     3596 
    3265     3352     3380     3362     3504     3955     4577     5275 
    5499     4608     3581     3109     3051     3639     3967     3639 
    3817     4359     3909     2349     1494     2234     3288     3982 
    4463     4599     4415     4441     5009     5007     3832     2876 
    3052     3627     3734     3888     4367     4087     3438     3350 
    3165     2937     3150     3230     3119     3515     4336     4712 
    4573     4487     4307     4070     4110     3836     3153     3105 
    3719     3966     3912     4109     4093     3877     3921     3599 
    2864     2751     3369     3940     3875     3489     3582     4214 
    4791     4444     3441     3458     4302     4136     3154     2875 
    3365     3823     4117     3977     3342     3469     4328     4248 
    3412     3362     3970     4004     3757     3931     3948     4079 
    4638     4436     3639     3330     3114     2658     2713     3645 
    4336     3902     3269     3125     3437     4369     4965     4379 
    3856     4198     4379     4025     3790     3424     2810     2980 
    3667     3821     3979     4376     4145     3613     3792     4239 
    4145     3817     3173     2342     2581     3407     3484     3372 
    3620     4013     4579     4869     4359     3744     3904     4471 
    4861     4853     4221     3403     2957     2729     2646     2778 
    3206     3788     4000     4068     4379     4710     4814     4116 
    3046     2809     3111     3483     3766     3673     3634     3808 
    4060     4244     4037     3967     4063     3546     3053     3256 
    3500     3447     3357     3526     3871     3946     4020     4401 
    4233     3287     2585     2524     2907     3516     3915     4112 
    4224     4307     5196     6705     6785     5022     3418     3335 
    4405     4981     3717     1630      931     2659     5555     6629 
    5032     3605     4090     4170     1867     -517     -272     1275 
    1876     2185     3700     6115     7813     7446     5312     3195 
    2249     1871     1667     2343     3636     4367     4276     4135 
    5169     6988     6669     3191     -136     -132     2431     4419 
    4365     3689     4287     6307     7597     6332     4322     4008 
    4430     3809     2344     1071      858     2246     4299     4968 
    4336     4369     4893     4517     3682     3179     2808     2570 
    2828     3505     4183     4629     4648     4197     3557     2795 
    2328     2774     3433     3338     3153     3758     4541     4695 
    4529     4394     3865     3117     3252     4054     4349     4236 
    4160     4098     4005     3704     3673     4409     5030     4730 
    4006     3694     3828     3596     2610     1607     1467     2238 
    3489     4900     5863     5896     5570     5250     4441     3294 
    2479     1849     1219     1293     2220     3233     3985     4425 
    4449     4276     4228     4230     4152     4326     4673     4565 
    4062     3559     3246     3392     3927     4499     4807     4526 
    3909     3667     3859     3875     3380     3053     3370     3295 
    2785     3169     3921     4017     4122     4576     4648     4210 
    4163     4484     3987     3019     2783     2818     2315     1896 
    2550     3792     4484     4847     5308     5266     4544     3712 
    2998     2502     2658     3288     3670     3753     3948     4341 
    4727     4909     4641     3969     3604     3569     3262     3157 
    3603     3956     3979     3956     4298     4850     4858     4472 
    4067     3237     2249     1999     2401     2710     2789     2997 
    3474     4094     4693     5105     5104     4708     4133     3368 
    2570     2145     2344     2928     3235     3384     3912     4604 
    5282     5850     5845     5309     4671     3940     3191     2878 
    3024     3167     3416     3963     4024     3412     3262     3690 
    3859     3804     3730     3466     3190     3267     3696     4043 
    3901     3580     3744     4071     3735     3165     3238     3746 
    4037     4041     4048     4035     3886     3801     3750     3500 
    3264     3346     3547     3561     3589     3816     4055     4409 
    4727     4475     4035     4013     4182     4239     4232     4158 
    3874     3473     3188     3068     3121     3176     3134     3219 
    3260     3138     3181     3321     3558     3954     3959     3622 
    3719     4247     4656     4780     4606     4159     3892     4113 
    4287     4054     3802     3715     3674     3578     3308     3100 
    3181     3350     3561     3847     3998     3933     3882     4059 
    4256     4253     4155     3875     3478     3454     3761     3792 
    3519     3489     3528     3222     3252     3869     4151     3983 
    3847     3580     3057     2851     3429     4083     4060     3933 
    4058     4004     3912     3997     3960     3704     3389     3319 
    3645     3989     4044     3940     3867     3842     3689     3356 
    3137     3362     4014     4615     4773     4544     4172     4040 
    4091     3885     3678     3827     3878     3538     3288     3489 
    3732     3677     3519     3362     3225     3150     3230     3553 
    3902     4168     4430     4588     4580     4365     3991     3500 
    2871     2623     2965     3114     2818     2779     3353     4055 
    4266     4089     3948     3865     3881     4120     4270     4143 
    4052     4232     4602     4773     4498     4248     4276     4060 
    3516     3176     3208     3310     3341     3505     3743     3805 
    3902     4133     4012     3424     2891     2671     2586     2687 
    3144     3573     3723     3967     4241     4326     4475     4521 
    4287     4202     4218     4060     3997     4067     4109     4278 
    4395     3975     3288     3038     3148     3150     3183     3476 
    3712     3623     3516     3666     3877     4041     4209     4185 
    3848     3434     3204     3187     3256     3352     3474     3604 
    3846     4267     4567     4440     4079     3846     3815     3905 
    4035     4066     3937     3923     4148     4135     3796     3794 
    4125     4035     3487     3088     2979     3013     3198     3470 
    3607     3441     3244     3438     3801     3963     4125     4414 
    4456     4155     3869     3638     3412     3435     3580     3554 
    3526     3620     3753     3969     4261     4411     4249     3967 
    3807     3703     3620     3603     3651     3816     3948     3910 
    3894     3979     4056     4055     3981     3838     3557     3272 
    3213     3318     3514     3731     3730     3534     3427     3383 
    3275     3253     3343     3489     3753     3997     4075     4175 
    4425     4630     4618     4394     3982     3588     3522     3692 
    3765     3643     3505     3515     3485     3343     3418     3704 
    3901     4014     4135     4179     4091     4058     4178     4186 
    4005     3789     3445     3163     3341     3716     3858     3780 
    3672     3662     3580     3258     3044     3253     3588     3665 
    3550     3462     3550     3863     4191     4270     4114     3921 
    3881     4047     4241     4257     4162     3996     3674     3456 
    3483     3507     3615     3847     3890     3838     3935     4047 
    4054     4006     3865     3659     3557     3470     3299     3306 
    3586     3761     3639     3522     3615     3796     3955     4010 
    3893     3721     3676     3697     3616     3582     3755     3897 
    3936     3991     3958     3889     3924     3892     3742     3711 
    3789     3734     3564     3499     3631     3855     3974     3894 
    3697     3551     3592     3762     3858     3878     3979     4137 
