Origin Time       2025/03/30 10:46:00
Lat.              32.923
Long.             130.372
Depth. (km)       11
Mag.              3.4
Station Code      KMM002
Station Lat.      33.0189
Station Long.     130.6846
Station Height(m) 33
Record Time       2025/03/30 10:46:27
Sampling Freq(Hz) 100Hz
Duration Time(s)  60
Dir.              E-W
Scale Factor      7845(gal)/8223790
Max. Acc. (gal)   1.441
Last Correction   2025/03/30 10:46:27
Memo.             
[...]
    3229     3219     3229     3231     3223     3219     3222     3229 
    3227     3214     3214     3223     3223     3223     3234     3241 
    3231     3222     3225     3227     3225     3223     3223     3221 
    3219     3221     3226     3238     3240     3222     3204     3210 
    3229     3241     3244     3240     3222     3206     3213     3229 
    3241     3240     3219     3207     3217     3226     3237     3242 
    3227     3214     3221     3235     3246     3242     3226     3215 
    3210     3210     3226     3240     3235     3231     3227     3214 
    3210     3219     3231     3234     3227     3223     3230     3231 
    3233     3235     3223     3215     3226     3230     3231     3235 
    3227     3223     3223     3219     3217     3217     3217     3222 
    3235     3246     3235     3219     3221     3225     3219     3225 
    3230     3222     3219     3226     3231     3231     3225     3215 
    3219     3234     3244     3248     3233     3204     3202     3229 
    3242     3238     3235     3225     3202     3196     3219     3240 
    3235     3222     3219     3229     3231     3229     3229     3226 
    3221     3225     3233     3235     3233     3225     3218     3213 
    3211     3227     3248     3245     3231     3219     3219     3227 
    3226     3218     3213     3215     3227     3240     3234     3218 
    3215     3222     3226     3242     3254     3241     3213     3198 
    3204     3221     3231     3240     3240     3221     3210     3219 
    3229     3229     3226     3226     3222     3225     3237     3240 
    3227     3225     3230     3226     3218     3213     3210     3218 
    3230     3238     3240     3225     3208     3214     3230     3245 
    3246     3235     3221     3208     3206     3221     3234     3229 
    3225     3223     3213     3210     3225     3240     3240     3234 
    3234     3227     3215     3213     3221     3230     3237     3240 
    3237     3231     3221     3215     3222     3225     3226     3231 
    3229     3225     3222     3217     3225     3237     3231     3231 
    3241     3229     3215     3219     3217     3219     3237     3242 
    3231     3225     3221     3222     3229     3233     3222     3210 
    3221     3235     3231     3222     3226     3237     3241     3230 
    3222     3221     3215     3219     3237     3237     3219     3200 
    3195     3215     3244     3257     3256     3234     3208     3214 
    3234     3240     3226     3210     3214     3227     3221     3215 
    3229     3234     3230     3233     3226     3217     3226     3226 
    3221     3231     3241     3237     3221     3200     3204     3234 
    3254     3248     3229     3217     3214     3222     3235     3238 
    3230     3219     3214     3219     3230     3230     3234     3241 
    3233     3223     3218     3211     3217     3237     3244     3233 
    3219     3215     3222     3225     3218     3225     3235     3231 
    3230     3230     3225     3227     3237     3238     3229     3219 
    3214     3207     3210     3229     3238     3237     3229     3222 
    3222     3223     3219     3219     3230     3242     3238     3223 
    3204     3198     3222     3257     3257     3231     3215     3207 
    3202     3221     3249     3250     3241     3230     3207     3194 
    3204     3227     3252     3260     3240     3215     3200     3190 
    3204     3246     3272     3261     3235     3207     3188     3198 
    3226     3250     3252     3237     3221     3211     3207     3208 
    3222     3241     3241     3231     3230     3226     3219     3223 
    3235     3241     3235     3222     3214     3214     3221     3227 
    3227     3225     3233     3238     3230     3223     3219     3217 
    3217     3219     3235     3250     3238     3226     3231     3230 
    3219     3215     3219     3223     3227     3226     3226     3231 
    3231     3225     3221     3222     3227     3230     3230     3226 
    3227     3230     3225     3217     3219     3225     3222     3219 
    3222     3223     3226     3234     3242     3231     3215     3215 
    3229     3240     3233     3221     3219     3225     3221     3215 
    3225     3235     3233     3227     3227     3225     3221     3225 
    3230     3240     3240     3229     3219     3213     3208     3213 
    3227     3244     3241     3225     3211     3210     3219     3235 
    3242     3241     3235     3222     3215     3223     3231     3233 
    3233     3231     3221     3202     3196     3215     3238     3244 
    3245     3244     3227     3207     3207     3230     3249     3233 
    3208     3208     3221     3229     3234     3235     3230     3223 
    3219     3217     3217     3226     3231     3222     3225     3240 
    3225     3196     3210     3245     3256     3241     3227     3225 
    3217     3214     3230     3237     3223     3214     3215     3226 
    3230     3214     3207     3227     3245     3242     3235     3238 
    3240     3218     3196     3206     3233     3240     3217     3199 
    3218     3242     3240     3227     3230     3238     3237     3225 
    3219     3221     3214     3210     3230     3248     3238     3223 
    3217     3215     3221     3225     3227     3231     3226     3221 
    3226     3230     3233     3241     3237     3222     3211     3217 
    3222     3221     3223     3227     3225     3219     3218     3222 
    3227     3231     3237     3234     3225     3219     3214     3210 
    3229     3254     3248     3218     3200     3206     3227     3245 
    3244     3230     3211     3202     3219     3244     3249     3240 
    3217     3202     3213     3230     3238     3235     3221     3211 
    3219     3240     3254     3242     3225     3219     3206     3202 
    3221     3227     3223     3233     3241     3238     3234     3229 
    3226     3229     3226     3215     3215     3225     3229     3227 
    3227     3225     3222     3217     3218     3226     3241     3244 
    3231     3221     3221     3222     3229     3233     3227     3221 
    3210     3210     3230     3245     3241     3231     3223     3223 
    3227     3225     3219     3227     3235     3231     3221     3210 
    3215     3231     3234     3235     3244     3235     3217     3206 
    3217     3234     3229     3221     3240     3246     3219     3199 
    3223     3250     3242     3229     3222     3200     3198     3223 
    3244     3250     3244     3225     3208     3207     3218     3238 
    3250     3250     3233     3196     3187     3215     3238     3252 
    3257     3225     3181     3187     3230     3262     3267     3241 
    3199     3186     3215     3250     3267     3260     3221     3179 
    3186     3225     3238     3240     3246     3235     3211     3208 
    3218     3222     3231     3253     3256     3223     3200     3208 
    3221     3231     3244     3231     3208     3213     3235     3249 
    3244     3218     3204     3226     3242     3222     3203     3210 
    3221     3227     3242     3250     3231     3215     3233     3242 
    3217     3203     3225     3242     3244     3230     3213     3207 
    3215     3227     3235     3234     3233     3225     3213     3225 
    3249     3244     3222     3213     3217     3219     3217     3219 
    3233     3245     3245     3233     3214     3208     3225     3244 
    3252     3233     3202     3199     3217     3231     3238     3233 
    3225     3229     3231     3227     3221     3221     3231     3238 
    3223     3214     3214     3215     3221     3229     3233     3242 
    3244     3230     3219     3229     3237     3231     3223     3219 
    3219     3222     3217     3206     3210     3231     3240     3233 
    3241     3241     3223     3226     3234     3227     3227     3223 
    3218     3223     3221     3217     3225     3226     3221     3221 
    3223     3227     3226     3225     3233     3238     3225     3214 
    3219     3227     3230     3235     3238     3222     3202     3217 
    3244     3245     3233     3229     3225     3214     3204     3213 
    3223     3226     3229     3234     3233     3226     3222     3226 
    3229     3233     3227     3215     3211     3213     3222     3234 
    3235     3227     3221     3229     3235     3229     3227     3233 
    3231     3227     3213     3202     3214     3225     3225     3231 
    3241     3237     3219     3215     3237     3254     3238     3213 
    3208     3215     3218     3230     3237     3229     3222     3221 
    3222     3223     3233     3246     3235     3214     3203     3207 
    3234     3252     3235     3218     3214     3218     3227     3227 
    3235     3254     3244     3207     3187     3203     3231     3237 
    3227     3234     3240     3221     3204     3218     3231     3234 
    3233     3231     3227     3213     3215     3240     3240     3226 
    3222     3215     3217     3223     3222     3218     3215     3227 
    3245     3244     3230     3221     3208     3207     3229     3245 
    3234     3225     3226     3217     3217     3237     3244     3229 
    3214     3207     3213     3233     3254     3249     3219     3200 
    3206     3219     3226     3226     3234     3238     3226     3218 
    3219     3223     3229     3229     3233     3235     3223     3211 
    3215     3223     3226     3231     3241     3242     3225     3203 
    3215     3238     3238     3225     3221     3229     3234     3217 
    3203     3219     3234     3231     3231     3229     3218     3214 
    3218     3219     3229     3242     3238     3221     3211     3222 
    3235     3234     3235     3238     3226     3213     3214     3223 
    3231     3229     3223     3226     3230     3233     3231     3223 
    3215     3213     3221     3240     3238     3217     3215     3238 
    3248     3234     3221     3217     3221     3231     3234     3217 
    3207     3222     3235     3226     3215     3223     3237     3241 
    3235     3231     3235     3227     3211     3208     3213     3222 
    3242     3246     3230     3227     3229     3219     3219     3226 
    3225     3219     3219     3230     3242     3242     3231     3218 
    3208     3214     3229     3241     3237     3214     3204     3223 
    3240     3238     3233     3227     3221     3219     3227     3223 
    3215     3231     3240     3218     3204     3221     3238     3244 
    3237     3226     3219     3210     3208     3233     3246     3237 
    3229     3225     3219     3218     3221     3227     3230     3225 
    3218     3218     3227     3240     3245     3237     3218     3204 
    3211     3223     3233     3241     3230     3211     3208     3217 
    3223     3234     3237     3229     3235     3246     3231     3214 
    3214     3219     3226     3233     3231     3219     3210     3217 
    3234     3250     3252     3242     3230     3214     3200     3208 
    3225     3238     3248     3240     3218     3207     3207     3211 
    3230     3246     3234     3217     3219     3226     3230     3242 
    3244     3230     3219     3215     3222     3235     3241     3231 
    3218     3210     3214     3214     3218     3227     3231     3241 
    3244     3230     3219     3225     3231     3229     3222     3227 
    3221     3206     3214     3233     3235     3229     3231     3240 
    3230     3213     3218     3231     3229     3227     3230     3225 
    3221     3218     3218     3230     3242     3233     3226     3225 
    3217     3215     3229     3238     3235     3227     3222     3215 
    3211     3222     3229     3234     3244     3238     3221     3217 
    3210     3200     3219     3248     3256     3245     3225     3202 
    3198     3213     3229     3244     3252     3241     3218     3206 
    3213     3221     3226     3241     3242     3215     3198     3213 
    3240     3256     3252     3226     3208     3210     3215     3219 
    3230     3241     3245     3229     3200     3200     3225     3241 
    3238     3234     3237     3226     3206     3207     3223     3233 
    3234     3229     3229     3233     3222     3218     3231     3235 
    3233     3237     3225     3202     3200     3221     3241     3246 
    3234     3226     3225     3221     3222     3225     3222     3225 
    3231     3229     3225     3229     3230     3222     3218     3229 
    3227     3211     3218     3235     3235     3230     3230     3231 
    3221     3213     3233     3253     3240     3221     3215     3213 
    3208     3211     3226     3237     3238     3234     3223     3207 
    3200     3221     3252     3258     3245     3231     3219     3211 
    3218     3225     3221     3219     3221     3225     3231     3230 
    3230     3238     3234     3215     3217     3229     3222     3218 
    3223     3229     3235     3231     3222     3215     3190     3169 
    3177     3196     3222     3256     3252     3202     3141     3103 
    3144     3288     3464     3549     3472     3291     3192     3308 
    3553     3612     3221     2516     1975     2020     2768     3832 
    4406     4018     3080     2386     2390     3092     4117     4669 
    4268     3435     2871     2668     2722     3014     3381     3483 
    3192     2894     2901     2978     2982     3109     3357     3387 
    3075     2917     3213     3546     3762     4102     4290     3721 
    2556     1775     1992     2922     3936     4490     4135     2879 
    1715     1783     2978     4167     4619     4351     3435     2316 
    1996     2639     3358     3662     3572     3099     2586     2459 
    2735     3316     3985     4220     3883     3462     3370     3600 
    3878     3851     3345     2612     2080     2030     2562     3204 
    3192     2791     2830     3206     3485     3730     3882     3797 
    3653     3674     3848     3923     3532     2695     2111     2277 
    2745     2995     3005     2795     2540     2690     3381     4201 
    4498     4045     3331     2839     2731     3142     3804     4048 
    3616     2934     2582     2670     2926     3221     3580     3856 
    3766     3315     2901     2771     2909     3291     3674     3597 
    3021     2444     2258     2409     2721     3142     3603     3902 
    3948     3925     3905     3736     3449     3132     2693     2265 
    2188     2455     2853     3410     4058     4463     4406     3825 
    2933     2315     2343     2851     3403     3632     3419     2997 
    2876     3244     3726     3928     3728     3240     2763     2559 
    2720     3127     3433     3431     3339     3284     3107     2859 
    2779     2949     3248     3531     3713     3707     3535     3372 
    3226     2998     2805     2755     2812     3025     3414     3748 
    3790     3618     3456     3349     3246     3149     3059     2924 
    2752     2752     3025     3280     3338     3424     3584     3581 
    3442     3308     3118     2917     2868     2928     3022     3190 
    3387     3519     3547     3412     3105     2812     2803     3065 
    3262     3285     3267     3253     3265     3369     3588     3780 
    3740     3495     3218     2967     2721     2547     2567     2840 
    3207     3462     3634     3782     3807     3645     3385     3208 
    3145     3044     2930     2963     3092     3150     3142     3141 
    3082     2941     2928     3163     3426     3539     3500     3327 
    3180     3213     3424     3670     3623     3206     2870     2886 
    3025     3119     3214     3279     3237     3125     3059     3076 
    3159     3295     3435     3449     3277     3086     3040     3065 
    3105     3250     3483     3645     3686     3595     3307     2938 
    2721     2702     2835     3088     3365     3527     3515     3406 
    3307     3310     3443     3534     3373     3024     2729     2646 
    2803     3153     3460     3441     3144     2953     3096     3411 
    3682     3801     3689     3402     3142     3051     3083     3102 
    3061     3026     3007     2994     3045     3192     3383     3516 
    3481     3287     3040     2871     2925     3172     3410     3518 
    3526     3450     3248     3032     3026     3186     3253     3210 
    3169     3130     3134     3303     3576     3690     3515     3214 
    2998     2928     2960     3026     3099     3175     3226     3246 
    3211     3159     3226     3395     3476     3339     3059     2857 
    2872     3113     3473     3711     3712     3597     3439     3277 
    3211     3227     3153     2874     2542     2489     2781     3207 
    3592     3730     3524     3258     3230     3404     3530     3439 
    3244     3141     3154     3234     3319     3289     3177     3134 
    3194     3267     3260     3148     2975     2859     2956     3230 
    3429     3435     3303     3084     2895     2895     3146     3537 
    3774     3663     3377     3195     3188     3260     3275     3168 
    2986     2852     2872     2949     2959     2957     3006     3060 
    3145     3308     3493     3596     3584     3585     3685     3747 
    3667     3461     3149     2845     2666     2671     2906     3190 
    3319     3368     3387     3349     3375     3488     3514     3342 
    3040     2774     2685     2812     3107     3399     3514     3468 
    3372     3338     3446     3635     3704     3495     3057     2602 
    2332     2396     2790     3291     3657     3816     3777     3572 
    3302     3078     2940     2882     2893     2974     3164     3389 
    3453     3430     3528     3651     3604     3399     3211     3159 
    3186     3279     3380     3276     2949     2667     2644     2847 
    3145     3453     3595     3461     3246     3150     3173     3250 
    3306     3307     3272     3200     3100     3048     3113     3240 
    3334     3407     3437     3308     3021     2832     2940     3202 
    3373     3420     3453     3453     3352     3249     3227     3156 
    2948     2768     2799     2995     3202     3356     3458     3519 
    3586     3740     3915     3823     3339     2782     2515     2490 
    2523     2743     3150     3353     3337     3419     3554     3584 
    3543     3480     3322     3040     2926     3191     3451     3388 
    3198     3046     2918     2982     3369     3800     3894     3636 
    3230     2795     2535     2683     3080     3360     3388     3231 
    3068     3022     3099     3319     3582     3654     3487     3150 
    2743     2535     2755     3304     3865     4110     3885     3346 
    2886     2768     2941     3231     3424     3356     3075     2768 
    2646     2855     3333     3817     4033     3828     3261     2698 
    2573     2930     3372     3530     3353     2982     2702     2778 
    3221     3789     4058     3790     3222     2710     2496     2741 
    3327     3843     3960     3712     3384     3115     2884     2737 
    2686     2718     2910     3242     3541     3697     3732     3763 
    3844     3788     3457     2988     2527     2242     2324     2758 
    3312     3662     3576     3161     2791     2760     3022     3369 
    3646     3670     3376     3007     2853     2998     3388     3813 
    4010     3896     3538     3103     2787     2694     2832     3136 
    3422     3446     3122     2698     2559     2866     3415     3820 
