Origin Time       2025/03/30 10:46:00
Lat.              32.923
Long.             130.372
Depth. (km)       11
Mag.              3.4
Station Code      NGS012
Station Lat.      32.7883
Station Long.     130.3463
Station Height(m) 100
Record Time       2025/03/30 10:46:26
Sampling Freq(Hz) 100Hz
Duration Time(s)  60
Dir.              N-S
Scale Factor      7845(gal)/8223790
Max. Acc. (gal)   3.411
Last Correction   2025/03/30 10:46:27
Memo.             
[...]
   -3487    -3473    -3462    -3445    -3434    -3469    -3503    -3485 
   -3464    -3470    -3472    -3458    -3453    -3472    -3485    -3466 
   -3439    -3449    -3491    -3491    -3451    -3465    -3488    -3470 
   -3469    -3466    -3433    -3445    -3503    -3527    -3484    -3426 
   -3424    -3451    -3470    -3495    -3485    -3465    -3485    -3476 
   -3422    -3427    -3499    -3524    -3468    -3437    -3476    -3491 
   -3451    -3445    -3489    -3495    -3470    -3457    -3446    -3461 
   -3483    -3478    -3474    -3487    -3480    -3446    -3445    -3476 
   -3476    -3460    -3470    -3505    -3495    -3441    -3447    -3480 
   -3453    -3447    -3499    -3519    -3484    -3437    -3431    -3462 
   -3492    -3489    -3462    -3478    -3501    -3453    -3424    -3480 
   -3500    -3460    -3458    -3481    -3480    -3466    -3451    -3458 
   -3478    -3477    -3466    -3464    -3466    -3466    -3461    -3468 
   -3496    -3508    -3466    -3419    -3442    -3476    -3465    -3477 
   -3503    -3476    -3445    -3453    -3481    -3478    -3439    -3464 
   -3512    -3481    -3456    -3462    -3450    -3461    -3473    -3461 
   -3481    -3507    -3481    -3423    -3423    -3499    -3507    -3453 
   -3450    -3470    -3493    -3478    -3418    -3435    -3499    -3487 
   -3462    -3495    -3503    -3446    -3403    -3450    -3518    -3495 
   -3457    -3478    -3468    -3451    -3470    -3450    -3438    -3491 
   -3507    -3465    -3470    -3485    -3433    -3426    -3484    -3481 
   -3468    -3492    -3480    -3464    -3472    -3443    -3433    -3493 
   -3514    -3453    -3437    -3485    -3489    -3453    -3433    -3450 
   -3514    -3520    -3441    -3435    -3481    -3458    -3449    -3492 
   -3497    -3465    -3464    -3488    -3460    -3420    -3470    -3507 
   -3472    -3491    -3495    -3426    -3435    -3492    -3500    -3481 
   -3457    -3466    -3476    -3460    -3478    -3483    -3465    -3465 
   -3458    -3484    -3504    -3454    -3443    -3485    -3474    -3453 
   -3466    -3469    -3465    -3474    -3487    -3477    -3449    -3465 
   -3495    -3462    -3450    -3495    -3501    -3450    -3416    -3447 
   -3487    -3487    -3501    -3496    -3447    -3438    -3451    -3465 
   -3508    -3503    -3454    -3450    -3453    -3446    -3469    -3488 
   -3489    -3483    -3464    -3453    -3445    -3451    -3491    -3503 
   -3484    -3474    -3446    -3430    -3464    -3491    -3493    -3489 
   -3473    -3449    -3431    -3443    -3484    -3511    -3496    -3470 
   -3449    -3437    -3470    -3505    -3485    -3462    -3462    -3461 
   -3472    -3470    -3458    -3474    -3501    -3484    -3454    -3460 
   -3465    -3457    -3472    -3493    -3485    -3458    -3446    -3466 
   -3488    -3476    -3460    -3468    -3474    -3469    -3474    -3474 
   -3458    -3465    -3484    -3465    -3457    -3478    -3473    -3457 
   -3464    -3474    -3474    -3478    -3477    -3457    -3461    -3493 
   -3483    -3450    -3465    -3480    -3458    -3460    -3485    -3474 
   -3457    -3470    -3484    -3478    -3461    -3449    -3468    -3476 
   -3464    -3470    -3474    -3476    -3477    -3439    -3438    -3499 
   -3496    -3454    -3468    -3478    -3456    -3447    -3487    -3515 
   -3469    -3429    -3457    -3472    -3462    -3483    -3491    -3461 
   -3441    -3442    -3481    -3515    -3477    -3445    -3460    -3466 
   -3473    -3469    -3443    -3466    -3497    -3461    -3437    -3468 
   -3474    -3470    -3492    -3480    -3439    -3450    -3480    -3474 
   -3470    -3484    -3472    -3446    -3458    -3478    -3468    -3465 
   -3481    -3484    -3468    -3462    -3458    -3442    -3460    -3492 
   -3489    -3480    -3488    -3477    -3449    -3443    -3457    -3476 
   -3493    -3488    -3476    -3457    -3446    -3468    -3487    -3484 
   -3477    -3466    -3469    -3462    -3442    -3472    -3508    -3477 
   -3445    -3466    -3488    -3468    -3438    -3451    -3489    -3493 
   -3472    -3469    -3466    -3442    -3449    -3487    -3493    -3476 
   -3474    -3465    -3445    -3449    -3472    -3483    -3472    -3469 
   -3487    -3481    -3434    -3424    -3487    -3511    -3468    -3465 
   -3492    -3462    -3429    -3462    -3500    -3481    -3456    -3457 
   -3464    -3466    -3474    -3478    -3469    -3462    -3462    -3464 
   -3472    -3477    -3469    -3478    -3491    -3466    -3434    -3443 
   -3472    -3477    -3476    -3488    -3472    -3445    -3472    -3485 
   -3456    -3458    -3480    -3489    -3488    -3451    -3422    -3453 
   -3489    -3495    -3491    -3477    -3441    -3429    -3465    -3488 
   -3485    -3489    -3477    -3449    -3442    -3458    -3478    -3474 
   -3472    -3485    -3474    -3456    -3449    -3457    -3496    -3501 
   -3477    -3484    -3465    -3429    -3445    -3491    -3514    -3489 
   -3454    -3447    -3454    -3474    -3485    -3460    -3456    -3483 
   -3491    -3481    -3470    -3453    -3454    -3470    -3478    -3483 
   -3474    -3456    -3458    -3485    -3493    -3456    -3437    -3473 
   -3496    -3481    -3458    -3456    -3478    -3481    -3454    -3451 
   -3481    -3492    -3464    -3457    -3478    -3458    -3435    -3472 
   -3512    -3503    -3460    -3441    -3460    -3457    -3461    -3491 
   -3485    -3468    -3468    -3469    -3472    -3453    -3449    -3489 
   -3489    -3451    -3468    -3484    -3450    -3460    -3501    -3483 
   -3470    -3480    -3447    -3442    -3473    -3470    -3478    -3493 
   -3474    -3456    -3457    -3469    -3487    -3487    -3480    -3462 
   -3438    -3450    -3468    -3468    -3495    -3505    -3458    -3447 
   -3465    -3450    -3464    -3497    -3481    -3470    -3484    -3451 
   -3433    -3477    -3499    -3481    -3480    -3470    -3447    -3457 
   -3469    -3466    -3483    -3484    -3461    -3456    -3462    -3485 
   -3492    -3441    -3449    -3516    -3484    -3434    -3484    -3504 
   -3453    -3439    -3470    -3483    -3457    -3453    -3485    -3493 
   -3468    -3450    -3456    -3480    -3484    -3468    -3464    -3462 
   -3461    -3478    -3483    -3451    -3442    -3466    -3476    -3477 
   -3489    -3472    -3433    -3446    -3487    -3499    -3493    -3470 
   -3434    -3424    -3460    -3511    -3515    -3469    -3446    -3439 
   -3427    -3468    -3516    -3493    -3466    -3469    -3460    -3458 
   -3470    -3470    -3470    -3481    -3474    -3449    -3451    -3488 
   -3493    -3469    -3461    -3466    -3476    -3473    -3476    -3476 
   -3449    -3445    -3470    -3485    -3497    -3478    -3449    -3457 
   -3464    -3465    -3489    -3484    -3456    -3469    -3478    -3446 
   -3449    -3488    -3496    -3477    -3450    -3437    -3458    -3481 
   -3488    -3485    -3462    -3443    -3453    -3472    -3487    -3491 
   -3468    -3453    -3464    -3468    -3472    -3476    -3466    -3468 
   -3477    -3472    -3466    -3466    -3466    -3462    -3458    -3462 
   -3462    -3466    -3492    -3503    -3474    -3447    -3450    -3461 
   -3470    -3472    -3468    -3480    -3489    -3469    -3451    -3464 
   -3476    -3472    -3487    -3492    -3457    -3447    -3457    -3456 
   -3476    -3499    -3487    -3458    -3450    -3464    -3480    -3489 
   -3474    -3456    -3472    -3480    -3453    -3461    -3488    -3473 
   -3443    -3457    -3478    -3468    -3474    -3505    -3493    -3454 
   -3442    -3456    -3474    -3481    -3470    -3457    -3461    -3465 
   -3462    -3476    -3492    -3484    -3468    -3453    -3447    -3462 
   -3484    -3503    -3483    -3431    -3443    -3493    -3481    -3461 
   -3493    -3483    -3416    -3418    -3497    -3538    -3477    -3412 
   -3437    -3485    -3489    -3477    -3469    -3466    -3461    -3446 
   -3454    -3488    -3483    -3456    -3469    -3478    -3460    -3465 
   -3481    -3470    -3449    -3446    -3481    -3507    -3469    -3441 
   -3473    -3480    -3450    -3454    -3499    -3505    -3447    -3422 
   -3477    -3503    -3470    -3468    -3466    -3447    -3474    -3504 
   -3481    -3460    -3470    -3468    -3450    -3464    -3491    -3484 
   -3462    -3483    -3488    -3435    -3434    -3495    -3510    -3480 
   -3458    -3443    -3456    -3485    -3481    -3462    -3466    -3474 
   -3477    -3472    -3458    -3468    -3488    -3477    -3465    -3473 
   -3465    -3462    -3476    -3460    -3461    -3503    -3496    -3447 
   -3437    -3465    -3487    -3487    -3480    -3462    -3451    -3464 
   -3466    -3458    -3476    -3489    -3465    -3460    -3496    -3492 
   -3445    -3434    -3460    -3485    -3485    -3466    -3478    -3499 
   -3457    -3416    -3442    -3485    -3495    -3470    -3464    -3493 
   -3488    -3441    -3433    -3465    -3481    -3491    -3493    -3462 
   -3434    -3442    -3468    -3485    -3492    -3484    -3469    -3457 
   -3457    -3469    -3476    -3477    -3472    -3461    -3462    -3468 
   -3476    -3484    -3466    -3447    -3465    -3481    -3468    -3464 
   -3487    -3489    -3476    -3478    -3461    -3438    -3453    -3481 
   -3495    -3487    -3468    -3461    -3453    -3453    -3489    -3510 
   -3477    -3453    -3450    -3446    -3476    -3500    -3481    -3472 
   -3464    -3446    -3466    -3485    -3472    -3472    -3464    -3450 
   -3474    -3483    -3458    -3470    -3492    -3470    -3447    -3460 
   -3474    -3474    -3464    -3447    -3454    -3492    -3511    -3487 
   -3449    -3431    -3451    -3483    -3504    -3507    -3465    -3422 
   -3424    -3439    -3473    -3532    -3530    -3457    -3427    -3446 
   -3468    -3483    -3457    -3442    -3499    -3528    -3468    -3410 
   -3415    -3457    -3489    -3488    -3483    -3497    -3504    -3457 
   -3395    -3419    -3495    -3527    -3519    -3483    -3429    -3402 
   -3434    -3504    -3514    -3460    -3457    -3499    -3476    -3439 
   -3481    -3495    -3429    -3416    -3496    -3539    -3489    -3443 
   -3447    -3441    -3430    -3480    -3537    -3518    -3468    -3431 
   -3411    -3439    -3495    -3488    -3461    -3504    -3504    -3411 
   -3415    -3518    -3507    -3424    -3447    -3500    -3483    -3477 
   -3477    -3435    -3435    -3483    -3487    -3468    -3483    -3489 
   -3450    -3451    -3484    -3457    -3430    -3472    -3514    -3487 
   -3437    -3456    -3493    -3466    -3447    -3476    -3484    -3484 
   -3487    -3451    -3439    -3472    -3461    -3441    -3489    -3522 
   -3469    -3422    -3443    -3473    -3477    -3522    -3580    -3584 
   -3631    -3708    -3542    -3132    -2940    -3172    -3497    -3620 
   -3426    -3225    -3631    -4147    -3716    -2887    -2957    -3713 
   -3809    -3268    -3454    -4163    -4067    -3241    -2805    -3052 
   -3079    -2917    -3377    -3921    -4101    -4072    -3654    -3150 
   -3029    -3169    -3221    -3384    -4068    -4623    -4253    -3214 
   -2566    -2944    -3453    -3361    -3264    -3416    -3426    -3342 
   -3311    -3399    -3678    -3684    -3423    -3543    -3796    -3761 
   -3603    -3218    -2821    -3028    -3601    -3885    -3744    -3489 
   -3433    -3623    -3793    -3397    -2857    -3366    -4143    -3532 
   -2782    -3635    -4320    -3543    -3177    -3447    -3172    -2995 
   -3383    -3765    -3789    -3342    -2851    -3187    -4139    -4326 
   -3623    -3248    -3149    -3015    -3337    -3689    -3642    -3287 
   -3038    -3611    -3904    -3146    -3110    -3932    -3910    -3462 
   -3723    -3858    -3353    -3296    -3620    -3287    -2597    -2698 
   -3469    -3635    -3581    -4079    -4002    -3265    -2965    -3298 
   -3820    -3457    -2808    -3906    -5101    -3566    -1823    -3107 
   -4425    -3083    -2397    -3871    -4486    -3296    -2644    -3753 
   -4396    -3172    -2566    -4012    -5170    -4131    -2605    -3072 
   -4078    -3119    -1991    -2621    -3350    -3403    -3786    -4175 
   -4009    -3991    -3971    -3173    -2639    -3069    -3325    -3341 
   -3743    -3805    -3372    -3577    -3848    -3084    -2791    -3493 
   -3638    -3505    -3734    -3843    -3886    -3715    -3150    -3034 
   -3499    -3609    -3341    -3159    -3192    -3542    -3901    -3720 
   -3316    -3595    -3865    -3381    -3461    -3924    -3569    -3584 
   -4166    -3318    -1780    -2272    -3631    -3094    -2466    -3850 
   -4619    -3518    -3203    -4106    -4172    -3285    -3196    -4272 
   -4418    -3125    -2809    -3539    -3156    -2398    -3071    -3892 
   -3415    -3056    -3609    -3700    -3480    -4172    -4434    -2918 
   -2116    -3966    -5590    -4792    -3462    -3287    -3711    -3167 
   -1813    -1748    -2840    -3087    -2373    -2419    -3769    -4629 
   -4256    -3970    -4059    -3969    -3908    -3933    -3682    -3480 
   -3514    -3338    -3392    -3635    -3057    -2841    -4095    -4511 
   -3024    -2170    -3150    -4097    -3731    -3318    -3727    -3751 
   -3491    -3496    -2758    -2284    -2667    -2015    -1679    -3292 
   -4283    -3707    -3402    -3748    -4553    -5649    -5607    -4471 
   -4606    -5609    -5134    -4079    -3800    -3348    -2212    -1437 
   -1772    -2087    -1881    -2039    -2022    -1505    -1331    -1850 
   -3059    -4295    -4642    -4005    -3289    -2955    -2238    -2300 
   -4418    -6062    -5753    -5038    -4440    -3964    -4185    -4683 
   -4753    -4541    -4058    -3466    -3634    -4577    -4835    -3808 
   -3476    -4438    -3754    -1147     -606    -2851    -3921    -2447 
   -1274    -1983    -3003    -2434     -623      106    -1640    -4477 
   -5977    -5719    -5148    -5003    -4923    -4133    -2650    -2014 
   -2664    -3643    -4702    -5437    -5301    -4607    -3766    -3099 
   -2934    -3095    -3443    -4307    -5225    -5053    -3765    -2317 
   -1482    -1472    -1741    -1827    -2061    -2417    -2641    -3434 
   -4927    -5597    -5076    -4720    -4148    -2683    -2286    -3418 
   -3670    -2905    -2886    -3302    -3072    -2864    -3728    -4957 
   -5136    -4411    -3757    -3299    -2767    -2575    -3308    -4278 
   -4482    -4066    -3213    -2158    -1973    -2613    -2832    -2471 
   -2083    -2020    -2461    -3280    -4213    -4799    -4683    -4226 
   -4159    -4467    -4518    -4483    -4558    -4120    -3450    -2964 
   -2297    -2439    -3801    -4283    -3649    -3909    -4704    -4368 
   -2970    -1312     -606    -1703    -3063    -3372    -3589    -4086 
   -4290    -4403    -4770    -5171    -5287    -4923    -4194    -3395 
   -2650    -2207    -1853    -1158     -841    -1614    -3061    -3900 
   -3477    -3387    -4452    -5194    -5328    -5498    -4869    -3086 
   -1927    -2088    -1944    -1842    -3462    -5038    -4517    -3451 
   -3071    -2840    -2941    -3465    -3863    -4202    -4885    -5228 
   -4166    -2731    -2663    -3558    -3904    -3345    -2932    -3149 
   -3315    -3122    -2749    -2598    -3303    -4549    -4931    -4108 
   -3387    -3160    -2602    -2139    -2727    -3813    -4113    -3493 
   -3207    -3585    -3651    -3754    -4440    -4486    -3770    -3481 
   -3002    -1821    -1521    -2497    -3240    -3699    -4835    -5670 
   -4935    -3883    -3802    -3717    -3164    -2988    -2654    -1796 
   -1791    -2413    -2577    -3071    -4114    -4753    -4811    -4523 
   -4071    -3599    -3358    -3827    -4492    -4043    -2714    -1881 
   -1788    -2000    -2376    -2766    -3372    -4355    -5046    -5135 
   -4901    -4287    -3696    -3636    -3497    -2998    -2787    -3125 
   -3789    -4178    -3580    -2477    -2432    -3443    -3967    -4233 
   -4977    -4958    -3642    -2465    -2004    -1551    -1480    -2384 
   -3219    -3353    -3500    -3964    -4217    -4114    -4272    -4656 
   -4615    -4305    -4041    -3604    -3257    -3601    -3993    -3445 
   -2806    -2965    -2824    -2153    -2439    -3330    -3308    -2876 
   -3096    -3518    -3631    -3777    -3974    -4149    -4187    -3406 
   -2511    -3041    -4052    -3843    -3100    -3229    -3985    -4313 
   -3956    -3343    -3006    -3068    -3187    -3381    -3809    -4071 
   -3800    -3399    -3424    -3534    -3198    -2720    -2743    -3204 
   -3356    -3221    -3352    -3518    -3605    -3915    -4348    -4522 
   -4243    -3888    -3775    -3669    -3210    -2343    -1817    -2242 
   -3126    -3892    -4352    -4428    -4031    -3138    -2312    -2188 
   -2585    -3109    -3758    -4266    -4214    -3966    -3987    -3990 
   -3686    -3370    -3550    -4205    -4629    -4527    -4341    -4108 
   -3476    -2798    -2596    -2419    -1815    -1451    -2149    -3526 
   -4449    -4584    -4349    -4082    -3851    -3310    -2528    -2400 
   -3072    -3642    -3666    -3375    -3036    -2867    -3080    -3518 
   -3361    -2650    -2648    -3369    -3651    -3570    -4035    -4781 
   -4881    -4507    -4433    -4681    -4661    -4101    -3565    -3649 
   -3912    -3676    -3233    -2965    -2515    -2007    -2084    -2409 
   -2544    -2929    -3500    -3685    -3623    -3527    -3206    -2911 
   -2957    -3064    -3183    -3545    -3989    -4245    -4139    -3757 
   -3485    -3510    -3765    -4082    -4190    -4004    -3726    -3597 
   -3623    -3626    -3574    -3465    -3215    -2959    -3025    -3333 
   -3308    -2964    -2994    -3304    -3244    -3141    -3515    -3815 
   -3738    -3823    -3932    -3636    -3415    -3487    -3268    -3034 
   -3638    -4563    -4693    -4233    -3813    -3214    -2515    -2570 
   -3199    -3229    -2760    -2687    -2822    -2837    -3021    -3279 
   -3304    -3190    -3222    -3510    -3797    -3875    -3985    -4449 
   -4776    -4257    -3597    -3653    -3913    -4029    -4056    -3735 
   -3292    -3115    -3133    -3210    -3281    -3505    -3812    -3688 
   -3199    -2856    -2704    -2502    -2317    -2473    -2799    -2945 
   -3204    -3670    -3793    -3638    -3839    -4298    -4425    -4190 
   -4082    -4097    -3685    -3068    -3025    -3446    -3520    -3106 
   -2975    -3348    -3619    -3642    -3530    -3341    -3445    -3743 
   -3836    -3839    -3654    -3298    -3427    -3869    -3877    -3655 
   -3499    -3198    -2975    -3100    -3342    -3446    -3468    -3561 
   -3626    -3592    -3601    -3535    -3226    -2926    -2844    -2867 
   -2974    -3107    -3218    -3464    -3697    -3719    -3801    -3950 
   -3798    -3535    -3559    -3728    -3834    -3928    -3928    -3611 
   -3159    -3018    -3057    -3121    -3485    -3892    -3915    -3650 
   -3275    -3010    -2967    -2953    -2917    -3018    -3354    -3819 
   -4183    -4244    -4013    -3882    -4087    -4234    -3902    -3399 
   -3322    -3400    -3086    -2902    -3238    -3384    -3105    -2968 
   -3056    -3098    -3146    -3294    -3468    -3612    -3643    -3492 
   -3262    -3204    -3433    -3678    -3850    -4147    -4187    -3721 
   -3457    -3663    -3881    -3882    -3597    -3186    -2978    -2971 
   -3044    -3138    -3181    -3260    -3497    -3686    -3564    -3321 
   -3161    -2975    -2906    -3227    -3643    -3669    -3480    -3485 
   -3511    -3388    -3358    -3406    -3447    -3678    -4032    -4167 
   -4013    -3834    -3738    -3565    -3369    -3387    -3562    -3613 
   -3453    -3267    -3168    -3102    -3059    -3005    -3033    -3392 
   -3859    -4012    -3865    -3708    -3785    -3928    -3789    -3458 
