Origin Time       2025/03/30 10:46:00
Lat.              32.923
Long.             130.372
Depth. (km)       11
Mag.              3.4
Station Code      NGS012
Station Lat.      32.7883
Station Long.     130.3463
Station Height(m) 100
Record Time       2025/03/30 10:46:26
Sampling Freq(Hz) 100Hz
Duration Time(s)  60
Dir.              E-W
Scale Factor      7845(gal)/8223790
Max. Acc. (gal)   4.619
Last Correction   2025/03/30 10:46:27
Memo.             
[...]
   13892    13919    13896    13875    13915    13942    13911    13887 
   13900    13900    13894    13903    13913    13925    13915    13883 
   13898    13907    13882    13917    13940    13896    13891    13906 
   13905    13906    13895    13905    13914    13895    13900    13906 
   13899    13910    13899    13879    13898    13919    13914    13905 
   13906    13898    13888    13911    13917    13890    13890    13900 
   13902    13925    13919    13880    13899    13927    13902    13891 
   13899    13891    13884    13898    13937    13937    13880    13871 
   13917    13930    13906    13891    13905    13907    13894    13903 
   13915    13906    13886    13890    13930    13925    13880    13902 
   13926    13891    13886    13915    13923    13907    13894    13899 
   13900    13905    13932    13932    13890    13872    13896    13932 
   13917    13869    13892    13938    13911    13895    13909    13890 
   13900    13927    13913    13902    13910    13895    13884    13915 
   13937    13903    13883    13911    13925    13910    13898    13909 
   13914    13892    13892    13915    13910    13915    13915    13879 
   13895    13942    13927    13899    13890    13886    13894    13906 
   13922    13925    13899    13888    13905    13909    13903    13903 
   13887    13898    13953    13938    13853    13867    13934    13905 
   13883    13942    13923    13872    13909    13907    13868    13919 
   13949    13879    13868    13934    13909    13872    13933    13929 
   13873    13914    13937    13879    13879    13932    13921    13886 
   13911    13932    13883    13871    13925    13921    13895    13917 
   13900    13882    13921    13929    13898    13894    13909    13910 
   13913    13915    13887    13878    13917    13923    13886    13883 
   13930    13934    13873    13880    13929    13900    13891    13926 
   13903    13883    13914    13913    13898    13906    13894    13899 
   13929    13905    13868    13903    13938    13899    13882    13911 
   13899    13890    13919    13917    13898    13913    13914    13888 
   13896    13906    13884    13902    13933    13917    13898    13902 
   13898    13883    13907    13927    13900    13913    13925    13875 
   13876    13918    13911    13905    13917    13913    13892    13892 
   13922    13915    13891    13919    13925    13879    13883    13918 
   13913    13911    13934    13922    13884    13875    13888    13902 
   13932    13953    13911    13859    13883    13917    13903    13909 
   13940    13930    13883    13867    13895    13918    13923    13917 
   13903    13898    13902    13902    13903    13918    13925    13905 
   13883    13891    13900    13899    13907    13919    13917    13910 
   13898    13882    13907    13936    13906    13886    13905    13905 
   13890    13896    13913    13914    13918    13922    13896    13872 
   13895    13925    13911    13906    13919    13895    13876    13896 
   13922    13925    13900    13890    13905    13905    13902    13914 
   13910    13898    13903    13900    13894    13905    13906    13900 
   13913    13900    13890    13925    13923    13886    13905    13923 
   13894    13883    13905    13918    13910    13894    13907    13919 
   13890    13880    13905    13910    13909    13910    13903    13906 
   13900    13890    13910    13923    13900    13887    13898    13906 
   13910    13914    13911    13898    13892    13911    13918    13905 
   13899    13894    13886    13894    13907    13906    13918    13940 
   13910    13869    13903    13929    13891    13868    13895    13927 
   13919    13894    13914    13915    13856    13872    13942    13927 
   13892    13909    13907    13887    13899    13923    13911    13891 
   13909    13911    13891    13905    13910    13895    13910    13915 
   13900    13907    13907    13896    13910    13913    13900    13913 
   13911    13898    13915    13911    13891    13910    13917    13902 
   13915    13919    13903    13894    13895    13907    13925    13922 
   13905    13890    13890    13903    13923    13918    13903    13911 
   13909    13891    13906    13915    13892    13900    13929    13905 
   13882    13905    13913    13896    13917    13940    13909    13878 
   13892    13918    13911    13895    13918    13923    13882    13883 
   13911    13906    13902    13914    13914    13914    13902    13878 
   13895    13921    13900    13907    13932    13905    13892    13903 
   13894    13910    13923    13888    13888    13921    13905    13895 
   13923    13903    13882    13918    13913    13878    13913    13930 
   13875    13871    13919    13913    13887    13911    13913    13898 
   13918    13915    13899    13899    13888    13884    13898    13915 
   13930    13914    13883    13896    13911    13887    13899    13938 
   13918    13890    13894    13896    13913    13913    13887    13905 
   13922    13891    13894    13922    13898    13886    13922    13917 
   13883    13892    13917    13919    13906    13902    13906    13896 
   13896    13896    13900    13921    13917    13906    13922    13895 
   13857    13902    13945    13921    13907    13900    13882    13891 
   13905    13899    13914    13926    13914    13907    13898    13879 
   13884    13911    13927    13923    13900    13884    13891    13896 
   13914    13929    13911    13895    13900    13905    13892    13892 
   13923    13921    13883    13900    13919    13887    13898    13925 
   13886    13875    13923    13929    13899    13898    13892    13887 
   13907    13906    13909    13925    13906    13900    13910    13894 
   13910    13926    13890    13898    13926    13880    13873    13942 
   13921    13865    13907    13929    13892    13907    13914    13886 
   13910    13941    13913    13884    13886    13890    13905    13938 
   13930    13887    13888    13900    13886    13902    13933    13921 
   13910    13911    13888    13882    13910    13913    13895    13909 
   13921    13902    13890    13887    13891    13926    13927    13892 
   13900    13913    13899    13900    13902    13903    13917    13918 
   13899    13884    13892    13905    13914    13919    13899    13899 
   13917    13891    13888    13925    13910    13883    13899    13919 
   13911    13891    13896    13917    13914    13880    13879    13925 
   13927    13888    13899    13911    13880    13895    13926    13898 
   13886    13922    13922    13896    13903    13902    13882    13902 
   13926    13900    13899    13917    13888    13891    13923    13902 
   13886    13910    13914    13909    13915    13886    13865    13906 
   13932    13915    13907    13896    13887    13887    13895    13930 
   13934    13888    13883    13913    13917    13905    13895    13896 
   13902    13899    13902    13918    13917    13899    13899    13900 
   13896    13905    13911    13918    13906    13879    13902    13926 
   13896    13899    13923    13895    13880    13911    13915    13896 
   13898    13905    13910    13921    13899    13879    13917    13930 
   13894    13898    13921    13907    13894    13895    13899    13914 
   13914    13900    13915    13925    13896    13890    13910    13910 
   13899    13910    13914    13903    13907    13913    13905    13905 
   13910    13899    13896    13922    13925    13890    13886    13907 
   13913    13917    13899    13876    13913    13927    13888    13900 
   13933    13903    13879    13910    13917    13891    13906    13919 
   13891    13890    13910    13906    13903    13915    13915    13906 
   13898    13894    13907    13927    13905    13878    13905    13919 
   13899    13899    13909    13910    13915    13905    13892    13905 
   13903    13899    13918    13906    13886    13915    13923    13879 
   13886    13925    13911    13887    13909    13921    13899    13883 
   13895    13918    13923    13895    13879    13914    13933    13890 
   13876    13919    13914    13879    13902    13923    13907    13909 
   13911    13887    13873    13887    13913    13930    13913    13883 
   13896    13917    13891    13894    13936    13909    13863    13894 
   13936    13930    13899    13871    13888    13911    13898    13921 
   13949    13902    13872    13902    13906    13896    13915    13917 
   13895    13909    13919    13879    13873    13934    13930    13871 
   13892    13941    13907    13882    13921    13922    13886    13891 
   13918    13927    13903    13871    13890    13921    13921    13926 
   13913    13883    13891    13902    13905    13921    13914    13903 
   13911    13899    13884    13910    13926    13886    13871    13929 
   13942    13890    13888    13913    13888    13888    13930    13932 
   13898    13876    13890    13918    13910    13899    13923    13919 
   13888    13890    13898    13895    13911    13929    13902    13865 
   13891    13925    13906    13896    13921    13915    13898    13898 
   13884    13888    13922    13927    13922    13903    13865    13892 
   13940    13906    13884    13926    13906    13855    13900    13949 
   13914    13883    13886    13892    13910    13913    13903    13914 
   13914    13891    13892    13903    13896    13913    13923    13892 
   13884    13914    13914    13886    13894    13929    13911    13884 
   13903    13907    13898    13914    13921    13907    13896    13896 
   13911    13914    13902    13902    13907    13902    13899    13906 
   13910    13903    13905    13917    13914    13899    13891    13900 
   13918    13915    13906    13902    13884    13894    13929    13917 
   13880    13902    13937    13911    13884    13903    13903    13895 
   13917    13918    13894    13892    13911    13918    13913    13898 
   13898    13921    13913    13882    13899    13917    13887    13894 
   13926    13898    13883    13923    13906    13880    13927    13937 
   13888    13895    13909    13888    13900    13926    13913    13886 
   13887    13910    13919    13890    13896    13941    13898    13842 
   13905    13956    13909    13880    13909    13910    13887    13910 
   13929    13895    13879    13905    13923    13915    13900    13896 
   13895    13905    13919    13891    13873    13934    13964    13878 
   13826    13905    13945    13891    13909    13965    13900    13830 
   13896    13946    13888    13896    13942    13884    13869    13926 
   13900    13890    13932    13903    13876    13905    13910    13907 
   13910    13898    13907    13913    13894    13910    13922    13891 
   13896    13911    13891    13903    13917    13888    13900    13926 
   13902    13894    13914    13899    13868    13887    13952    13975 
   13907    13937    14242    14260    13420    12950    14068    14816 
   13558    12779    14033    15059    14563    13363    12717    13774 
   15105    14295    12923    13645    14967    14454    13108    13235 
   14536    14339    12852    13474    15103    14273    13084    13954 
   14675    13984    13324    13500    14081    14085    13525    13845 
   14488    13987    13595    13918    13861    13733    13698    13608 
   14056    14307    13836    13894    14446    14223    13490    13324 
   13721    14052    14134    14277    14341    13783    13354    13994 
   14501    13867    13257    13414    14037    14611    14146    13312 
   13765    14462    13900    13189    13659    14586    14345    13109 
   13078    14577    14902    13514    13373    14685    14362    12843 
   13324    14798    14327    13147    13502    14446    14249    13382 
   13450    14210    14366    14141    13927    13583    13891    14690 
   14291    13120    13115    13973    14173    13691    13703    14503 
   14504    13343    13408    14670    14283    12888    13473    15253 
   14612    11923    12093    15151    15430    13019    13325    15515 
   14655    12393    13050    15053    14874    13003    12762    14700 
   14881    12815    13005    15012    14791    13386    13587    14542 
   14322    13454    13732    14315    13392    12795    14035    14515 
   13566    13670    14455    14318    14173    14053    13085    13312 
   15163    14771    12623    13151    14629    13802    13344    14040 
   13456    13429    14883    14814    13898    14185    14380    13995 
   13626    12895    12766    13932    14342    13583    13859    14937 
   14592    13495    14077    14980    13778    12672    13528    14403 
   14216    13221    12528    13960    15218    13574    12607    13980 
   14389    14264    14832    14116    13278    14440    14926    13211 
   12532    14181    15003    13726    13150    14195    14634    13929 
   13387    13707    14368    13936    12572    12927    15286    15874 
   13923    12960    13517    13551    13230    13514    14345    14816 
   14169    13898    14701    14130    12652    12910    13265    12457 
   12876    14600    15384    14922    14540    15125    15628    14513 
   12823    12810    14176    14268    12773    12753    14193    14011 
   13005    13250    13721    14347    15457    15215    14310    14894 
   15364    14291    13589    14272    15033    14558    13080    12565 
   12951    11595     9987    11421    13208    12699    12907    15110 
   17228    18702    18490    15795    13725    13138    11349    10277 
   12197    13409    12228    11774    12672    13267    13639    14079 
   14297    14283    13774    13278    14008    15527    16777    17606 
   17551    16583    15196    13425    12387    12251    10723     9062 
   11060    14515    15142    14692    15427    15103    13373    13243 
   14758    15889    16470    16528    15635    14489    14025    13544 
   12407    11929    12209    11948    11718    11884    11750    12139 
   13255    13423    13389    15290    17109    16121    14451    14762 
   15477    14508    13282    13432    13745    13512    13740    14038 
   13516    13104    13169    13205    14149    16063    16964    15745 
   13286    11975    13127    14049    12440    11402    13347    15430 
   15832    15797    15537    14617    13392    12058    10908    11037 
   12695    13853    13699    14133    14754    14026    13867    15187 
   15846    15488    15207    15072    14886    14293    13244    12862 
   13189    12681    12062    13022    13945    13818    14203    14245 
   13452    14165    14750    12721    12136    14763    15897    14989 
   14818    14508    13697    13581    13289    13090    14211    14913 
   14315    14011    13983    13433    12887    12931    13275    13509 
   13795    13678    12802    13058    14856    15391    14399    13914 
   13840    13722    13936    14169    14508    15390    15492    13998 
   13070    13271    12835    12699    13558    13494    12885    13423 
   14554    15142    14890    14482    14516    14110    13225    13072 
   13342    13500    13909    14049    13401    12981    13497    13921 
   13683    13633    14026    14426    14737    14955    14917    14651 
   14459    14342    14095    13865    13988    14365    14134    13225 
   13107    13845    13689    12846    13149    14377    14674    13737 
   13142    13355    13450    13587    14291    15007    14964    13999 
   13072    13138    13379    13050    13132    13956    14335    14160 
   14608    15377    15233    14493    13967    13751    13917    14251 
   14053    13424    13427    13771    13309    13024    13828    14104 
   13575    13791    14050    13320    12771    13076    13564    13740 
   13718    13853    14361    15148    15592    15372    14994    14462 
   13524    13122    13489    13250    12758    13271    13944    14106 
   14272    14278    13795    13236    13304    14010    14395    14328 
   14794    15007    13829    12804    12874    13057    13325    13859 
   14423    15118    15137    14191    13853    14308    14386    14264 
   13968    12985    11877    11512    12194    13413    14222    14580 
   14856    14932    14836    14709    14779    15047    14477    13209 
   13203    14187    14146    13532    13711    14122    13846    13081 
   12746    13405    14222    14241    14031    14247    14391    14241 
   14129    14060    14091    14046    13559    13236    13684    14328 
   14513    14241    13878    13643    13223    12667    12868    13871 
   14559    14750    14993    14928    14108    13297    13196    13228 
   12880    12626    12966    13632    13879    13830    14407    15253 
   15236    14689    14457    14262    13894    13697    13697    13902 
   14353    14575    14210    13707    13649    13853    13841    13560 
   13104    12679    12753    13261    13736    14212    14679    14852 
   14802    14615    14315    14170    14053    13655    13266    13004 
   12789    13045    13532    13644    13883    14531    14814    14661 
   14754    15016    14882    14403    14165    14203    13914    13278 
   12799    12835    13436    14129    14295    13878    13470    13593 
   13779    13196    12553    12995    13543    13593    14261    14912 
   14447    14203    14727    14760    14439    14443    14218    13662 
   13409    13514    13747    14013    14157    14123    13976    13810 
   13884    14133    14031    13671    13630    13801    13691    13452 
   13613    13946    13832    13630    13821    14048    14204    14258 
   13898    13585    13788    13917    13786    13915    14110    14099 
   14185    14146    13701    13462    13675    13798    13702    13718 
   13864    13830    13799    14297    14793    14598    14311    14168 
   13694    13204    13059    13284    13987    14532    14462    14451 
   14404    13837    13544    13784    13776    13585    13576    13456 
   13319    13682    14154    14050    13809    14042    14443    14511 
   14141    13765    13922    14114    13733    13525    13892    13984 
   13699    13649    13764    13886    14122    14270    14262    14314 
   14260    13961    13678    13595    13779    13900    13567    13362 
   13649    13697    13522    13779    14211    14392    14220    13764 
   13473    13505    13559    13585    13799    14239    14575    14589 
   14351    13944    13683    13841    13964    13680    13467    13639 
   13967    14343    14561    14497    14341    13994    13582    13558 
   13748    13842    13933    14013    13917    13711    13726    13910 
   13810    13566    13616    13824    13883    13714    13509    13626 
   13927    13980    13944    14046    14080    14053    14146    14247 
   14266    14380    14497    14315    14057    13976    13707    13138 
   12866    13100    13381    13686    14187    14472    14254    13967 
   13945    13801    13427    13502    14041    14200    13994    14179 
   14463    14027    13429    13628    14214    14373    14152    13950 
   13972    14062    13941    13871    14098    14102    13767    13622 
   13641    13626    13725    13917    14123    14334    14382    14324 
   14328    14223    14068    14104    14049    13720    13369    13035 
   12769    13008    13682    13909    13682    13873    14292    14251 
   14017    14006    14098    14104    13948    13590    13247    13275 
   13612    13864    13898    13900    13927    13867    13852    14084 
   14386    14512    14530    14558    14530    14376    14148    13894 
   13709    13733    13867    13911    13915    13842    13571    13351 
