Origin Time       2025/03/30 10:46:00
Lat.              32.923
Long.             130.372
Depth. (km)       11
Mag.              3.4
Station Code      NGS012
Station Lat.      32.7883
Station Long.     130.3463
Station Height(m) 100
Record Time       2025/03/30 10:46:26
Sampling Freq(Hz) 100Hz
Duration Time(s)  60
Dir.              U-D
Scale Factor      7845(gal)/8223790
Max. Acc. (gal)   2.547
Last Correction   2025/03/30 10:46:27
Memo.             
[...]
  -13455   -13467   -13464   -13455   -13463   -13462   -13460   -13459 
  -13448   -13452   -13458   -13455   -13467   -13470   -13455   -13460 
  -13460   -13452   -13462   -13470   -13458   -13446   -13455   -13471 
  -13464   -13458   -13452   -13447   -13468   -13483   -13464   -13455 
  -13443   -13432   -13462   -13483   -13475   -13462   -13435   -13432 
  -13462   -13471   -13467   -13463   -13451   -13466   -13470   -13435 
  -13432   -13464   -13471   -13470   -13470   -13452   -13444   -13452 
  -13460   -13475   -13481   -13460   -13447   -13436   -13435   -13459 
  -13481   -13474   -13452   -13444   -13458   -13466   -13463   -13456 
  -13448   -13456   -13466   -13460   -13455   -13452   -13456   -13460 
  -13464   -13468   -13462   -13448   -13440   -13448   -13468   -13474 
  -13456   -13440   -13446   -13464   -13466   -13464   -13462   -13451 
  -13455   -13462   -13464   -13471   -13454   -13446   -13464   -13466 
  -13460   -13454   -13440   -13458   -13474   -13454   -13451   -13460 
  -13459   -13455   -13452   -13466   -13473   -13462   -13462   -13464 
  -13462   -13460   -13452   -13456   -13466   -13447   -13450   -13486 
  -13479   -13446   -13446   -13459   -13463   -13459   -13466   -13466 
  -13454   -13460   -13471   -13455   -13452   -13462   -13456   -13477 
  -13501   -13466   -13428   -13433   -13452   -13466   -13473   -13487 
  -13483   -13448   -13432   -13440   -13459   -13479   -13475   -13462 
  -13459   -13458   -13455   -13456   -13448   -13439   -13462   -13482 
  -13475   -13466   -13450   -13439   -13443   -13456   -13478   -13478 
  -13459   -13458   -13452   -13441   -13452   -13459   -13464   -13481 
  -13467   -13447   -13464   -13462   -13436   -13440   -13458   -13475 
  -13475   -13447   -13441   -13456   -13466   -13474   -13464   -13452 
  -13459   -13460   -13455   -13452   -13452   -13448   -13458   -13477 
  -13468   -13456   -13455   -13441   -13450   -13479   -13479   -13460 
  -13450   -13448   -13454   -13463   -13473   -13462   -13448   -13460 
  -13470   -13460   -13455   -13456   -13451   -13455   -13466   -13463 
  -13470   -13474   -13450   -13440   -13447   -13454   -13473   -13474 
  -13458   -13463   -13470   -13454   -13448   -13463   -13464   -13451 
  -13454   -13462   -13460   -13467   -13462   -13451   -13451   -13443 
  -13441   -13467   -13483   -13474   -13455   -13441   -13448   -13464 
  -13462   -13460   -13462   -13448   -13446   -13467   -13470   -13458 
  -13448   -13447   -13464   -13474   -13460   -13455   -13459   -13462 
  -13460   -13447   -13447   -13458   -13458   -13463   -13468   -13468 
  -13464   -13441   -13425   -13450   -13482   -13483   -13471   -13463 
  -13444   -13427   -13433   -13462   -13485   -13483   -13471   -13460 
  -13446   -13431   -13435   -13464   -13491   -13489   -13462   -13435 
  -13441   -13464   -13455   -13451   -13466   -13460   -13462   -13468 
  -13456   -13454   -13448   -13444   -13474   -13485   -13459   -13450 
  -13450   -13452   -13466   -13462   -13451   -13455   -13458   -13466 
  -13474   -13462   -13454   -13451   -13447   -13458   -13460   -13459 
  -13477   -13478   -13456   -13446   -13437   -13448   -13474   -13478 
  -13467   -13458   -13450   -13446   -13452   -13467   -13470   -13467 
  -13466   -13454   -13439   -13447   -13464   -13473   -13473   -13460 
  -13451   -13455   -13454   -13454   -13458   -13455   -13466   -13477 
  -13464   -13455   -13446   -13440   -13464   -13481   -13466   -13446 
  -13435   -13450   -13478   -13481   -13468   -13448   -13431   -13450 
  -13468   -13466   -13473   -13463   -13444   -13450   -13458   -13464 
  -13471   -13468   -13459   -13450   -13447   -13450   -13452   -13467 
  -13474   -13454   -13448   -13459   -13460   -13464   -13463   -13458 
  -13464   -13455   -13447   -13464   -13464   -13455   -13458   -13454 
  -13458   -13470   -13466   -13462   -13455   -13437   -13441   -13464 
  -13479   -13481   -13460   -13447   -13450   -13452   -13456   -13463 
  -13466   -13464   -13459   -13459   -13459   -13452   -13452   -13460 
  -13464   -13466   -13459   -13441   -13446   -13470   -13471   -13464 
  -13462   -13447   -13451   -13462   -13458   -13463   -13456   -13448 
  -13467   -13466   -13443   -13451   -13456   -13447   -13466   -13479 
  -13460   -13448   -13451   -13447   -13454   -13467   -13468   -13463 
  -13459   -13454   -13454   -13460   -13460   -13459   -13459   -13448 
  -13446   -13463   -13466   -13462   -13464   -13456   -13454   -13455 
  -13444   -13451   -13467   -13459   -13454   -13466   -13466   -13452 
  -13458   -13467   -13458   -13454   -13462   -13464   -13459   -13455 
  -13458   -13464   -13464   -13454   -13448   -13452   -13458   -13464 
  -13468   -13462   -13455   -13455   -13454   -13459   -13464   -13460 
  -13466   -13460   -13447   -13458   -13460   -13455   -13459   -13450 
  -13456   -13477   -13468   -13458   -13441   -13435   -13468   -13482 
  -13468   -13468   -13450   -13429   -13443   -13455   -13467   -13482 
  -13466   -13454   -13470   -13456   -13433   -13446   -13467   -13474 
  -13473   -13464   -13450   -13440   -13444   -13451   -13470   -13482 
  -13452   -13433   -13455   -13462   -13459   -13463   -13462   -13474 
  -13468   -13439   -13446   -13459   -13448   -13463   -13475   -13456 
  -13458   -13466   -13450   -13455   -13478   -13467   -13448   -13450 
  -13458   -13458   -13452   -13455   -13464   -13471   -13464   -13444 
  -13454   -13471   -13454   -13451   -13475   -13470   -13459   -13454 
  -13439   -13448   -13474   -13481   -13473   -13455   -13440   -13443 
  -13464   -13483   -13464   -13452   -13459   -13443   -13448   -13477 
  -13474   -13475   -13479   -13458   -13447   -13439   -13429   -13468 
  -13497   -13470   -13454   -13450   -13441   -13463   -13478   -13460 
  -13456   -13466   -13467   -13460   -13458   -13458   -13447   -13454 
  -13478   -13473   -13463   -13459   -13436   -13443   -13470   -13471 
  -13468   -13462   -13452   -13459   -13464   -13468   -13470   -13456 
  -13456   -13459   -13447   -13448   -13456   -13473   -13491   -13467 
  -13436   -13432   -13437   -13470   -13495   -13478   -13458   -13441 
  -13435   -13451   -13464   -13471   -13478   -13468   -13450   -13446 
  -13458   -13470   -13464   -13456   -13450   -13447   -13464   -13471 
  -13454   -13455   -13460   -13447   -13459   -13475   -13463   -13458 
  -13460   -13447   -13440   -13452   -13467   -13473   -13467   -13454 
  -13437   -13433   -13455   -13473   -13473   -13468   -13458   -13444 
  -13448   -13462   -13467   -13467   -13454   -13446   -13455   -13455 
  -13458   -13470   -13459   -13452   -13463   -13451   -13443   -13456 
  -13464   -13464   -13462   -13460   -13448   -13444   -13466   -13470 
  -13454   -13454   -13451   -13446   -13464   -13473   -13459   -13452 
  -13447   -13447   -13466   -13474   -13459   -13451   -13448   -13454 
  -13466   -13462   -13455   -13456   -13456   -13467   -13473   -13462 
  -13456   -13448   -13452   -13471   -13466   -13456   -13458   -13455 
  -13459   -13455   -13450   -13460   -13464   -13471   -13479   -13464 
  -13455   -13454   -13447   -13450   -13458   -13463   -13473   -13464 
  -13451   -13454   -13456   -13460   -13468   -13462   -13456   -13460 
  -13458   -13450   -13447   -13451   -13466   -13479   -13473   -13455 
  -13447   -13451   -13460   -13463   -13463   -13458   -13448   -13454 
  -13460   -13456   -13467   -13464   -13446   -13458   -13473   -13459 
  -13452   -13456   -13458   -13463   -13464   -13456   -13456   -13460 
  -13458   -13458   -13466   -13455   -13439   -13456   -13477   -13467 
  -13451   -13440   -13447   -13475   -13475   -13459   -13452   -13440 
  -13450   -13473   -13473   -13464   -13452   -13448   -13458   -13460 
  -13463   -13471   -13459   -13444   -13458   -13470   -13463   -13458 
  -13450   -13452   -13467   -13462   -13455   -13458   -13456   -13464 
  -13467   -13456   -13456   -13455   -13450   -13454   -13462   -13467 
  -13456   -13444   -13456   -13468   -13468   -13462   -13446   -13458 
  -13478   -13460   -13447   -13459   -13452   -13451   -13468   -13473 
  -13460   -13450   -13455   -13464   -13456   -13452   -13464   -13462 
  -13455   -13462   -13468   -13463   -13447   -13448   -13473   -13468 
  -13448   -13451   -13455   -13464   -13479   -13466   -13448   -13455 
  -13460   -13458   -13460   -13464   -13459   -13454   -13459   -13467 
  -13470   -13464   -13440   -13436   -13471   -13475   -13456   -13471 
  -13468   -13441   -13446   -13455   -13462   -13468   -13463   -13464 
  -13466   -13456   -13458   -13459   -13458   -13459   -13452   -13459 
  -13470   -13459   -13458   -13460   -13450   -13448   -13450   -13456 
  -13478   -13477   -13454   -13450   -13446   -13448   -13468   -13474 
  -13463   -13455   -13446   -13450   -13463   -13470   -13466   -13454 
  -13448   -13451   -13452   -13460   -13468   -13467   -13470   -13458 
  -13446   -13458   -13458   -13456   -13478   -13471   -13447   -13448 
  -13450   -13455   -13474   -13470   -13454   -13456   -13454   -13450 
  -13464   -13467   -13458   -13456   -13456   -13459   -13464   -13463 
  -13462   -13460   -13464   -13464   -13454   -13450   -13452   -13455 
  -13466   -13468   -13460   -13454   -13446   -13450   -13464   -13467 
  -13463   -13462   -13451   -13450   -13463   -13471   -13466   -13458 
  -13455   -13458   -13462   -13467   -13454   -13444   -13463   -13462 
  -13455   -13474   -13470   -13447   -13451   -13458   -13456   -13466 
  -13468   -13459   -13451   -13455   -13463   -13468   -13477   -13466 
  -13440   -13440   -13446   -13450   -13474   -13478   -13460   -13458 
  -13446   -13441   -13464   -13464   -13460   -13466   -13454   -13456 
  -13467   -13452   -13444   -13446   -13444   -13459   -13478   -13482 
  -13462   -13432   -13437   -13462   -13467   -13477   -13473   -13443 
  -13444   -13458   -13455   -13460   -13454   -13451   -13470   -13466 
  -13458   -13466   -13459   -13446   -13446   -13455   -13466   -13471 
  -13475   -13467   -13448   -13436   -13432   -13451   -13483   -13482 
  -13463   -13454   -13440   -13446   -13473   -13474   -13463   -13454 
  -13435   -13452   -13489   -13474   -13441   -13439   -13451   -13470 
  -13473   -13459   -13467   -13470   -13448   -13448   -13477   -13482 
  -13455   -13441   -13458   -13464   -13456   -13460   -13464   -13462 
  -13463   -13454   -13460   -13473   -13448   -13439   -13464   -13474 
  -13467   -13458   -13455   -13470   -13467   -13440   -13435   -13451 
  -13446   -13371   -13232   -13101   -13036   -13036   -13070   -13289 
  -14002   -14755   -14424   -13360   -13251   -13921   -13841   -13230 
  -13061   -13429   -14091   -14092   -13008   -12266   -12641   -13328 
  -13605   -13466   -13537   -13952   -13988   -13589   -13413   -13378 
  -13158   -13224   -13406   -13169   -13165   -13404   -13555   -13987 
  -13995   -13545   -13629   -13479   -12958   -13230   -13590   -13340 
  -13224   -13311   -13443   -13694   -13682   -13460   -13448   -13482 
  -13460   -13552   -13495   -13371   -13518   -13589   -13620   -13549 
  -12964   -12842   -13489   -13643   -13397   -13379   -13562   -13944 
  -13844   -13082   -12928   -13567   -13841   -13613   -13689   -13809 
  -13132   -12555   -13041   -13706   -13879   -13672   -13409   -13491 
  -13629   -13566   -13440   -13223   -12993   -12881   -13269   -14060 
  -14115   -13587   -13512   -13636   -13590   -13443   -13213   -13170 
  -13481   -13864   -13923   -13463   -12823   -12830   -13313   -13327 
  -13058   -13070   -13601   -14351   -14134   -13548   -13728   -13413 
  -12887   -13466   -13743   -13188   -13069   -13369   -13473   -13308 
  -13532   -14330   -14304   -13421   -13486   -13910   -13139   -12563 
  -12949   -13065   -13419   -13905   -13236   -12868   -13512   -13456 
  -12958   -13149   -13718   -13867   -13527   -13887   -14412   -13705 
  -13416   -13913   -13274   -12549   -12853   -12839   -12781   -13653 
  -14181   -13797   -13917   -14445   -13884   -12964   -13504   -14318 
  -13435   -12353   -12413   -12675   -13383   -14173   -13699   -13255 
  -13639   -13657   -13481   -13537   -13722   -14087   -14304   -14274 
  -13513   -12421   -12702   -13128   -12390   -12414   -13063   -12838 
  -12937   -13869   -14177   -13818   -13608   -13687   -14318   -15020 
  -14785   -13927   -13355   -13443   -13713   -13024   -11983   -12498 
  -13725   -13644   -12808   -12538   -13112   -13633   -13176   -12939 
  -13495   -13493   -13547   -14281   -14091   -13300   -13274   -13437 
  -13738   -14305   -14094   -13616   -13953   -14135   -13652   -13343 
  -13095   -12480   -11954   -12170   -12847   -13068   -13308   -14172 
  -14523   -14331   -14716   -14966   -14202   -12942   -11943   -12046 
  -13005   -13254   -12726   -12671   -13352   -14031   -13795   -13216 
  -13890   -14993   -14715   -13726   -13097   -12989   -13452   -13556 
  -12941   -12505   -12359   -12626   -13305   -13597   -14053   -14883 
  -14736   -13999   -13547   -13047   -12690   -12679   -13104   -13840 
  -14180   -14413   -14697   -14087   -12965   -12457   -12387   -12521 
  -12973   -13117   -12970   -13271   -13801   -14327   -14334   -13302 
  -12488   -12332   -12235   -12652   -13463   -14440   -15273   -14785 
  -13817   -14008   -14575   -14621   -14624   -14635   -14065   -13028 
  -12046   -11344   -11583   -12758   -13147   -12482   -12596   -13282 
  -13163   -13030   -13400   -13421   -13235   -13173   -13045   -13212 
  -13949   -14899   -15561   -15816   -16128   -16020   -14494   -12690 
  -11766   -11086   -10963   -11732   -12289   -12498   -12960   -13373 
  -13215   -13049   -14019   -15488   -15974   -15765   -15269   -14087 
  -12603   -11658   -11673   -12441   -13124   -13239   -13034   -12730 
  -12532   -12788   -13410   -14081   -14885   -15500   -14983   -13737 
  -13444   -13956   -13491   -12361   -12150   -12471   -12688   -13196 
  -13612   -13408   -13104   -13443   -13981   -13594   -13084   -13506 
  -13807   -14003   -14592   -14337   -13662   -13778   -13675   -12758 
  -11854   -11753   -12664   -13652   -13996   -14062   -13903   -13562 
  -13446   -13524   -13678   -13956   -14270   -14265   -13886   -13640 
  -13444   -12950   -12456   -12306   -12583   -13051   -13551   -14076 
  -14227   -14181   -14435   -14601   -14485   -14083   -13146   -12140 
  -11695   -11803   -12186   -12573   -12765   -12745   -13081   -14114 
  -14721   -14376   -14412   -14841   -14446   -13693   -13153   -12757 
  -13117   -13910   -14048   -13752   -13447   -12957   -12617   -12588 
  -12642   -13163   -13927   -14139   -13953   -13567   -13215   -13174 
  -12988   -12965   -13240   -12897   -12884   -14141   -14956   -14742 
  -14710   -14694   -14023   -13242   -12820   -12349   -11920   -12278 
  -13109   -13617   -13849   -13915   -13760   -13510   -13312   -13319 
  -13394   -13346   -13277   -13081   -12811   -13030   -13448   -13373 
  -13613   -14530   -14823   -14562   -14581   -14265   -13560   -13070 
  -12668   -12380   -11978   -11616   -12425   -13702   -14142   -14378 
  -14434   -13876   -13637   -13898   -13822   -13459   -13324   -13273 
  -12766   -12059   -11943   -12422   -13163   -14098   -14879   -15169 
  -15057   -14580   -13805   -13096   -12660   -12448   -12334   -12397 
  -12904   -13514   -13894   -14332   -14608   -14288   -13803   -13447 
  -12918   -12615   -12942   -13231   -13441   -13846   -13756   -13437 
  -13664   -13664   -13116   -12891   -13082   -13427   -13919   -14354 
  -14497   -14091   -13448   -13063   -12447   -11915   -12395   -13120 
  -13439   -13748   -13786   -13598   -13825   -14021   -13684   -13416 
  -13433   -13463   -13598   -13848   -14030   -14058   -14054   -13979 
  -13498   -13086   -13360   -13423   -12704   -12326   -12627   -12834 
  -13030   -13340   -13431   -13606   -13832   -13486   -12970   -13093 
  -13660   -13987   -13937   -13888   -13806   -13564   -13695   -14121 
  -14052   -13747   -13757   -13718   -13482   -13342   -13188   -12850 
  -12563   -12510   -12483   -12522   -13058   -13811   -14264   -14504 
  -14243   -13504   -13292   -13543   -13559   -13528   -13387   -13154 
  -13248   -13383   -13416   -13462   -13312   -13304   -13560   -13610 
  -13764   -14200   -14196   -13729   -13274   -12815   -12564   -12680 
  -12864   -13215   -13841   -14332   -14369   -14022   -13582   -13131 
  -12696   -12525   -12514   -12692   -13504   -14405   -14505   -14172 
  -13968   -13819   -13670   -13602   -13674   -13765   -13647   -13289 
  -12873   -12726   -12968   -13335   -13662   -13729   -13373   -13036 
  -13026   -13124   -13212   -13325   -13500   -13559   -13439   -13524 
  -13837   -13965   -13909   -13872   -13878   -13846   -13621   -13286 
  -13027   -12910   -13084   -13387   -13451   -13393   -13443   -13487 
  -13459   -13514   -13520   -13400   -13521   -13609   -13285   -13131 
  -13305   -13358   -13355   -13354   -13394   -13694   -13948   -13919 
  -13834   -13644   -13338   -13181   -13216   -13327   -13504   -13732 
  -13805   -13427   -12842   -12641   -12806   -13093   -13494   -13753 
  -13694   -13559   -13516   -13533   -13614   -13748   -13756   -13686 
  -13846   -14023   -13811   -13502   -13313   -13024   -12853   -13116 
  -13452   -13536   -13556   -13477   -13119   -12927   -13189   -13358 
  -13338   -13617   -13952   -13964   -13960   -14011   -13801   -13393 
  -13041   -12906   -13072   -13301   -13459   -13674   -13697   -13427 
  -13273   -13213   -13043   -12981   -13173   -13435   -13544   -13594 
  -13803   -13909   -13668   -13425   -13455   -13710   -13896   -13798 
  -13716   -13726   -13522   -13182   -12881   -12723   -12788   -12962 
  -13242   -13524   -13649   -13825   -13977   -13849   -13699   -13640 
  -13459   -13251   -13309   -13510   -13393   -13111   -13211   -13570 
  -13738   -13558   -13359   -13493   -13616   -13521   -13456   -13371 
  -13365   -13527   -13460   -13293   -13309   -13323   -13493   -13701 
  -13535   -13429   -13589   -13647   -13721   -13830   -13759   -13595 
  -13450   -13381   -13327   -13139   -12978   -12945   -12912   -12982 
  -13240   -13613   -13900   -13801   -13595   -13721   -13830   -13718 
  -13625   -13504   -13408   -13421   -13331   -13219   -13255   -13301 
  -13352   -13363   -13167   -13049   -13207   -13389   -13612   -13946 
  -14172   -14160   -13879   -13477   -13281   -13212   -13046   -13046 
  -13281   -13477   -13666   -13807   -13651   -13342   -13169   -13081 
  -13050   -13224   -13473   -13609   -13698   -13718   -13703   -13792 
  -13818   -13668   -13589   -13636   -13590   -13394   -13292   -13366 
  -13319   -13135   -13147   -13331   -13417   -13381   -13311   -13284 
  -13351   -13409   -13468   -13657   -13779   -13717   -13603   -13404 
  -13208   -13273   -13521   -13689   -13699   -13610   -13451   -13269 
  -13174   -13180   -13223   -13219   -13207   -13427   -13706   -13701 
  -13625   -13601   -13483   -13471   -13624   -13693   -13710   -13755 
  -13660   -13397   -13189   -13200   -13358   -13536   -13684   -13714 
  -13587   -13400   -13289   -13324   -13416   -13423   -13308   -13147 
  -13015   -12993   -13153   -13378   -13541   -13656   -13728   -13713 
  -13566   -13456   -13621   -13830   -13848   -13794   -13679   -13524 
  -13424   -13292   -13149   -13149   -13269   -13371   -13370   -13298 
