Origin Time       2025/03/30 10:46:00
Lat.              32.923
Long.             130.372
Depth. (km)       11
Mag.              3.4
Station Code      NGS009
Station Lat.      32.8457
Station Long.     130.0216
Station Height(m) 25
Record Time       2025/03/30 10:46:27
Sampling Freq(Hz) 100Hz
Duration Time(s)  60
Dir.              U-D
Scale Factor      7845(gal)/8223790
Max. Acc. (gal)   1.930
Last Correction   2025/03/30 10:46:27
Memo.             
[...]
  -12337   -12332   -12348   -12360   -12366   -12367   -12343   -12317 
  -12328   -12356   -12382   -12393   -12374   -12329   -12302   -12325 
  -12360   -12372   -12380   -12363   -12324   -12330   -12364   -12364 
  -12360   -12361   -12330   -12314   -12356   -12380   -12353   -12348 
  -12370   -12360   -12340   -12336   -12329   -12347   -12380   -12375 
  -12341   -12337   -12355   -12360   -12355   -12347   -12340   -12347 
  -12363   -12357   -12339   -12345   -12368   -12368   -12349   -12334 
  -12329   -12344   -12371   -12380   -12364   -12343   -12332   -12336 
  -12352   -12366   -12364   -12351   -12345   -12356   -12363   -12345 
  -12337   -12356   -12368   -12353   -12339   -12334   -12340   -12368 
  -12384   -12356   -12329   -12340   -12357   -12353   -12348   -12356 
  -12359   -12352   -12349   -12345   -12341   -12359   -12370   -12347 
  -12332   -12355   -12378   -12366   -12334   -12314   -12332   -12384 
  -12406   -12355   -12299   -12320   -12378   -12383   -12345   -12333 
  -12351   -12360   -12359   -12347   -12332   -12356   -12398   -12371 
  -12305   -12305   -12353   -12382   -12386   -12370   -12341   -12321 
  -12324   -12353   -12379   -12359   -12337   -12355   -12366   -12357 
  -12343   -12326   -12352   -12388   -12357   -12313   -12329   -12367 
  -12374   -12360   -12352   -12349   -12341   -12330   -12341   -12361 
  -12357   -12341   -12348   -12371   -12379   -12356   -12324   -12325 
  -12351   -12364   -12361   -12351   -12341   -12348   -12359   -12359 
  -12355   -12351   -12349   -12351   -12352   -12348   -12343   -12344 
  -12356   -12363   -12360   -12357   -12352   -12337   -12336   -12352 
  -12366   -12361   -12355   -12352   -12347   -12345   -12349   -12348 
  -12356   -12366   -12352   -12336   -12345   -12359   -12357   -12353 
  -12349   -12345   -12345   -12349   -12357   -12357   -12349   -12345 
  -12345   -12348   -12363   -12368   -12345   -12332   -12344   -12357 
  -12364   -12363   -12341   -12325   -12348   -12384   -12378   -12325 
  -12301   -12334   -12384   -12403   -12376   -12321   -12307   -12345 
  -12364   -12364   -12379   -12375   -12336   -12317   -12341   -12370 
  -12374   -12360   -12343   -12324   -12334   -12382   -12398   -12347 
  -12303   -12321   -12363   -12376   -12368   -12356   -12337   -12325 
  -12344   -12375   -12378   -12357   -12330   -12322   -12347   -12376 
  -12375   -12347   -12314   -12322   -12379   -12406   -12361   -12316 
  -12321   -12348   -12359   -12360   -12367   -12356   -12334   -12341 
  -12357   -12356   -12355   -12357   -12345   -12337   -12351   -12363 
  -12360   -12353   -12349   -12345   -12345   -12349   -12351   -12352 
  -12357   -12352   -12337   -12339   -12363   -12371   -12351   -12334 
  -12339   -12352   -12363   -12364   -12348   -12336   -12345   -12357 
  -12359   -12355   -12349   -12344   -12347   -12357   -12356   -12347 
  -12353   -12360   -12356   -12349   -12343   -12341   -12347   -12359 
  -12367   -12356   -12344   -12344   -12343   -12347   -12366   -12370 
  -12349   -12334   -12340   -12355   -12367   -12364   -12345   -12330 
  -12344   -12364   -12360   -12347   -12345   -12348   -12353   -12360 
  -12359   -12348   -12337   -12340   -12355   -12366   -12363   -12352 
  -12337   -12339   -12361   -12367   -12349   -12344   -12347   -12348 
  -12355   -12360   -12353   -12349   -12352   -12351   -12348   -12353 
  -12359   -12349   -12345   -12357   -12356   -12343   -12345   -12356 
  -12357   -12355   -12348   -12339   -12344   -12361   -12366   -12352 
  -12344   -12347   -12347   -12351   -12360   -12355   -12341   -12347 
  -12361   -12356   -12344   -12345   -12349   -12349   -12355   -12356 
  -12348   -12349   -12360   -12357   -12348   -12351   -12349   -12341 
  -12348   -12364   -12363   -12349   -12344   -12344   -12344   -12356 
  -12367   -12355   -12340   -12347   -12356   -12352   -12351   -12353 
  -12351   -12349   -12353   -12349   -12345   -12349   -12356   -12355 
  -12349   -12347   -12345   -12344   -12353   -12363   -12355   -12347 
  -12345   -12341   -12351   -12366   -12359   -12341   -12345   -12355 
  -12352   -12349   -12353   -12352   -12349   -12355   -12353   -12344 
  -12344   -12357   -12360   -12352   -12347   -12345   -12345   -12353 
  -12359   -12353   -12347   -12349   -12353   -12353   -12353   -12351 
  -12347   -12348   -12352   -12352   -12347   -12348   -12356   -12359 
  -12353   -12351   -12345   -12343   -12357   -12367   -12353   -12341 
  -12347   -12351   -12355   -12363   -12359   -12345   -12344   -12349 
  -12351   -12355   -12360   -12355   -12347   -12353   -12361   -12351 
  -12340   -12349   -12357   -12351   -12352   -12359   -12351   -12344 
  -12352   -12359   -12353   -12349   -12351   -12351   -12353   -12359 
  -12357   -12351   -12348   -12349   -12348   -12352   -12360   -12355 
  -12345   -12355   -12361   -12348   -12341   -12353   -12357   -12351 
  -12351   -12349   -12345   -12351   -12360   -12355   -12344   -12347 
  -12355   -12351   -12351   -12353   -12348   -12345   -12355   -12355 
  -12351   -12352   -12352   -12348   -12349   -12355   -12351   -12341 
  -12351   -12363   -12355   -12344   -12348   -12349   -12347   -12352 
  -12356   -12349   -12348   -12351   -12347   -12349   -12359   -12355 
  -12349   -12351   -12349   -12345   -12351   -12361   -12356   -12345 
  -12347   -12351   -12348   -12352   -12359   -12353   -12348   -12349 
  -12349   -12348   -12352   -12355   -12348   -12344   -12353   -12353 
  -12347   -12349   -12353   -12352   -12355   -12355   -12344   -12339 
  -12351   -12360   -12353   -12347   -12348   -12348   -12349   -12361 
  -12361   -12348   -12345   -12348   -12344   -12352   -12364   -12357 
  -12344   -12347   -12355   -12351   -12348   -12355   -12357   -12347 
  -12345   -12353   -12353   -12348   -12349   -12348   -12351   -12357 
  -12351   -12340   -12349   -12360   -12357   -12353   -12353   -12348 
  -12343   -12349   -12360   -12355   -12347   -12355   -12356   -12345 
  -12351   -12363   -12355   -12345   -12352   -12352   -12349   -12355 
  -12355   -12347   -12345   -12353   -12355   -12348   -12352   -12359 
  -12351   -12348   -12353   -12349   -12348   -12357   -12360   -12352 
  -12349   -12351   -12348   -12349   -12360   -12360   -12347   -12344 
  -12352   -12352   -12352   -12357   -12353   -12349   -12352   -12352 
  -12349   -12351   -12355   -12356   -12353   -12353   -12355   -12348 
  -12349   -12357   -12355   -12345   -12349   -12353   -12351   -12355 
  -12360   -12353   -12347   -12351   -12352   -12348   -12353   -12359 
  -12351   -12347   -12353   -12352   -12345   -12351   -12359   -12351 
  -12343   -12349   -12353   -12352   -12356   -12359   -12351   -12345 
  -12349   -12349   -12348   -12356   -12357   -12349   -12348   -12349 
  -12348   -12351   -12357   -12356   -12351   -12351   -12352   -12348 
  -12347   -12352   -12351   -12345   -12351   -12357   -12349   -12347 
  -12356   -12352   -12340   -12343   -12352   -12349   -12351   -12357 
  -12352   -12345   -12352   -12352   -12344   -12345   -12356   -12353 
  -12347   -12351   -12353   -12351   -12352   -12352   -12349   -12351 
  -12352   -12347   -12347   -12359   -12363   -12353   -12351   -12349 
  -12343   -12348   -12357   -12355   -12351   -12353   -12349   -12345 
  -12355   -12361   -12355   -12345   -12345   -12351   -12351   -12349 
  -12356   -12360   -12355   -12352   -12345   -12343   -12348   -12353 
  -12353   -12351   -12349   -12351   -12352   -12352   -12353   -12348 
  -12345   -12353   -12353   -12345   -12352   -12361   -12353   -12347 
  -12351   -12349   -12349   -12359   -12360   -12348   -12345   -12351 
  -12348   -12349   -12361   -12360   -12345   -12345   -12356   -12353 
  -12348   -12353   -12357   -12352   -12349   -12351   -12348   -12347 
  -12355   -12357   -12352   -12352   -12351   -12343   -12348   -12359 
  -12349   -12343   -12352   -12357   -12352   -12352   -12355   -12347 
  -12341   -12352   -12355   -12348   -12353   -12356   -12352   -12352 
  -12355   -12351   -12347   -12348   -12357   -12357   -12349   -12349 
  -12348   -12344   -12355   -12361   -12348   -12345   -12355   -12347 
  -12340   -12351   -12355   -12349   -12349   -12352   -12351   -12347 
  -12349   -12355   -12348   -12345   -12352   -12349   -12351   -12360 
  -12351   -12345   -12355   -12353   -12349   -12352   -12353   -12353 
  -12347   -12345   -12352   -12347   -12347   -12361   -12360   -12347 
  -12344   -12347   -12351   -12356   -12356   -12349   -12348   -12353 
  -12352   -12348   -12355   -12356   -12345   -12348   -12352   -12345 
  -12349   -12363   -12355   -12343   -12348   -12355   -12347   -12345 
  -12356   -12361   -12352   -12347   -12349   -12347   -12352   -12360 
  -12351   -12344   -12353   -12355   -12343   -12345   -12360   -12361 
  -12351   -12347   -12351   -12351   -12349   -12352   -12355   -12352 
  -12355   -12355   -12344   -12344   -12356   -12357   -12352   -12349 
  -12349   -12352   -12357   -12359   -12349   -12343   -12351   -12352 
  -12343   -12352   -12366   -12356   -12345   -12351   -12348   -12344 
  -12355   -12361   -12353   -12348   -12349   -12345   -12347   -12357 
  -12361   -12351   -12347   -12353   -12352   -12349   -12355   -12349 
  -12344   -12353   -12357   -12349   -12348   -12355   -12352   -12347 
  -12351   -12355   -12352   -12353   -12359   -12351   -12344   -12356 
  -12359   -12345   -12349   -12361   -12357   -12351   -12348   -12345 
  -12347   -12352   -12360   -12361   -12351   -12347   -12352   -12351 
  -12352   -12355   -12351   -12349   -12353   -12349   -12349   -12355 
  -12356   -12356   -12356   -12347   -12337   -12345   -12357   -12359 
  -12353   -12352   -12353   -12348   -12351   -12363   -12355   -12337 
  -12345   -12360   -12356   -12351   -12351   -12348   -12351   -12361 
  -12364   -12348   -12336   -12348   -12363   -12357   -12345   -12347 
  -12351   -12352   -12359   -12364   -12357   -12345   -12334   -12343 
  -12367   -12372   -12348   -12332   -12341   -12357   -12367   -12360 
  -12341   -12337   -12357   -12371   -12357   -12329   -12328   -12367 
  -12387   -12361   -12336   -12329   -12339   -12364   -12374   -12357 
  -12348   -12356   -12353   -12334   -12336   -12364   -12367   -12344 
  -12341   -12356   -12361   -12360   -12347   -12328   -12347   -12384 
  -12367   -12325   -12330   -12357   -12372   -12366   -12333   -12317 
  -12357   -12399   -12371   -12307   -12312   -12372   -12379   -12349 
  -12349   -12347   -12343   -12359   -12356   -12344   -12345   -12348 
  -12352   -12359   -12360   -12357   -12349   -12337   -12329   -12341 
  -12378   -12386   -12339   -12307   -12351   -12387   -12357   -12339 
  -12348   -12337   -12339   -12363   -12372   -12359   -12348   -12352 
  -12339   -12325   -12349   -12376   -12367   -12341   -12340   -12359 
  -12363   -12353   -12334   -12329   -12364   -12376   -12345   -12344 
  -12356   -12336   -12340   -12372   -12364   -12336   -12344   -12361 
  -12348   -12333   -12363   -12376   -12334   -12337   -12380   -12361 
  -12333   -12344   -12347   -12349   -12364   -12363   -12352   -12340 
  -12336   -12349   -12367   -12359   -12339   -12339   -12359   -12367 
  -12347   -12343   -12355   -12349   -12348   -12355   -12353   -12351 
  -12348   -12345   -12351   -12356   -12353   -12349   -12341   -12341 
  -12357   -12363   -12349   -12341   -12348   -12351   -12347   -12352 
  -12359   -12355   -12351   -12344   -12339   -12352   -12366   -12361 
  -12347   -12337   -12352   -12360   -12336   -12330   -12367   -12383 
  -12360   -12332   -12324   -12348   -12371   -12348   -12332   -12374 
  -12383   -12329   -12314   -12352   -12368   -12361   -12353   -12340 
  -12336   -12367   -12376   -12326   -12318   -12382   -12387   -12324 
  -12317   -12372   -12382   -12332   -12306   -12343   -12391   -12391 
  -12333   -12313   -12367   -12384   -12334   -12318   -12355   -12375 
  -12351   -12330   -12361   -12376   -12339   -12324   -12348   -12372 
  -12372   -12347   -12320   -12339   -12379   -12368   -12337   -12344 
  -12353   -12344   -12347   -12366   -12368   -12343   -12337   -12347 
  -12337   -12370   -12397   -12340   -12318   -12357   -12347   -12343 
  -12378   -12359   -12336   -12370   -12360   -12326   -12343   -12353 
  -12349   -12355   -12370   -12375   -12326   -12314   -12370   -12370 
  -12360   -12363   -12320   -12330   -12376   -12345   -12333   -12383 
  -12379   -12328   -12326   -12364   -12366   -12339   -12347   -12353 
  -12324   -12364   -12428   -12351   -12274   -12344   -12399   -12360 
  -12307   -12330   -12407   -12372   -12294   -12368   -12430   -12314 
  -12258   -12411   -12438   -12256   -12286   -12424   -12347   -12325 
  -12438   -12393   -12278   -12310   -12366   -12337   -12333   -12375 
  -12383   -12348   -12329   -12356   -12388   -12349   -12270   -12340 
  -12426   -12309   -12302   -12420   -12355   -12339   -12434   -12359 
  -12266   -12356   -12526   -12640   -12569   -12434   -12411   -12312 
  -12071   -11973   -12070   -12177   -12247   -12332   -12394   -12359 
  -12253   -12175   -12205   -12278   -12349   -12688   -13196   -13046 
  -12202   -11661   -11716   -12074   -12522   -12792   -12982   -13009 
  -12440   -11749   -11734   -12135   -12140   -11718   -11680   -12387 
  -13239   -13504   -13076   -12395   -12005   -12040   -12141   -12217 
  -12370   -12351   -12001   -11507   -11286   -11774   -12927   -14052 
  -14374   -13679   -12307   -11063   -10766   -11284   -11897   -12561 
  -13317   -13348   -12476   -11740   -11832   -12364   -12453   -12248 
  -12463   -12648   -12367   -12012   -11951   -12285   -12683   -12802 
  -12704   -12486   -12332   -12316   -12098   -11826   -11993   -12336 
  -12576   -12804   -12745   -12487   -12421   -12275   -12013   -12019 
  -12156   -12278   -12449   -12465   -12374   -12409   -12437   -12424 
  -12383   -12260   -12266   -12353   -12344   -12420   -12511   -12329 
  -12020   -11982   -12352   -12780   -12769   -12421   -12271   -12249 
  -12070   -12143   -12483   -12484   -12337   -12421   -12438   -12397 
  -12480   -12449   -12204   -11970   -12021   -12347   -12579   -12586 
  -12576   -12552   -12324   -12040   -12032   -12170   -12286   -12576 
  -12833   -12641   -12263   -12172   -12253   -12175   -12172   -12449 
  -12496   -12178   -12091   -12297   -12360   -12361   -12571   -12707 
  -12538   -12378   -12402   -12475   -12420   -12210   -12212   -12436 
  -12356   -12123   -12178   -12282   -12251   -12236   -12287   -12463 
  -12561   -12356   -12220   -12276   -12251   -12287   -12379   -12247 
  -12187   -12464   -12704   -12703   -12586   -12393   -12209   -12064 
  -11981   -12185   -12545   -12677   -12615   -12519   -12370   -12189 
  -12046   -12043   -12236   -12383   -12375   -12490   -12556   -12297 
  -12226   -12560   -12652   -12340   -12100   -12074   -12140   -12330 
  -12607   -12788   -12687   -12357   -12131   -12079   -12020   -12043 
  -12322   -12636   -12598   -12321   -12262   -12393   -12414   -12367 
  -12430   -12541   -12444   -12213   -12251   -12437   -12375   -12299 
  -12402   -12310   -12093   -12220   -12437   -12276   -12116   -12399 
  -12742   -12731   -12634   -12595   -12237   -11742   -11866   -12356 
  -12316   -12129   -12518   -12792   -12482   -12321   -12460   -12441 
  -12326   -12270   -12156   -12039   -12190   -12576   -12688   -12421 
  -12274   -12384   -12407   -12301   -12286   -12291   -12237   -12264 
  -12291   -12283   -12420   -12598   -12595   -12461   -12366   -12321 
  -12210   -12123   -12268   -12447   -12345   -12181   -12229   -12290 
  -12280   -12460   -12707   -12673   -12480   -12391   -12287   -12077 
  -12097   -12393   -12507   -12398   -12357   -12355   -12232   -12129 
  -12321   -12630   -12603   -12301   -12086   -12021   -12123   -12482 
  -12820   -12758   -12519   -12406   -12225   -12015   -12091   -12264 
  -12307   -12382   -12433   -12382   -12363   -12426   -12528   -12463 
  -12206   -12159   -12278   -12204   -12155   -12320   -12465   -12600 
  -12772   -12658   -12244   -12008   -12083   -12168   -12256   -12513 
  -12658   -12487   -12401   -12518   -12417   -12178   -12239   -12394 
  -12225   -12033   -12195   -12420   -12461   -12438   -12469   -12564 
  -12498   -12256   -12216   -12287   -12168   -12159   -12482   -12667 
  -12465   -12344   -12397   -12187   -11956   -12199   -12590   -12586 
  -12380   -12475   -12633   -12393   -12131   -12170   -12183   -12174 
  -12309   -12348   -12316   -12441   -12553   -12545   -12538   -12386 
  -12077   -12023   -12255   -12379   -12370   -12401   -12436   -12451 
  -12499   -12513   -12440   -12372   -12236   -11954   -11881   -12251 
  -12629   -12640   -12556   -12532   -12318   -12077   -12159   -12316 
  -12329   -12374   -12409   -12324   -12306   -12434   -12563   -12636 
  -12603   -12306   -11920   -11989   -12465   -12654   -12429   -12275 
  -12298   -12222   -12110   -12280   -12544   -12576   -12523   -12447 
  -12213   -12058   -12253   -12521   -12457   -12189   -12162   -12469 
  -12625   -12380   -12190   -12291   -12403   -12474   -12501   -12232 
  -11881   -11962   -12343   -12606   -12769   -12941   -12846   -12391 
  -12073   -12055   -11920   -11821   -12171   -12552   -12517   -12374 
  -12379   -12347   -12259   -12424   -12749   -12675   -12249   -12147 
  -12286   -12055   -11855   -12312   -12826   -12766   -12438   -12198 
  -12105   -12166   -12337   -12590   -12707   -12437   -12123   -12156 
  -12237   -12170   -12299   -12602   -12629   -12351   -12106   -12106 
  -12266   -12347   -12451   -12676   -12664   -12345   -12079   -12105 
  -12351   -12405   -12248   -12399   -12687   -12509   -12160   -12198 
  -12352   -12320   -12382   -12587   -12611   -12375   -12172   -12298 
  -12448   -12201   -11890   -11916   -12189   -12479   -12587   -12580 
  -12633   -12588   -12306   -12132   -12414   -12820   -12752   -12251 
  -12019   -12258   -12297   -12015   -12104   -12465   -12413   -12168 
  -12274   -12452   -12356   -12313   -12638   -12961   -12735   -12140 
  -11884   -12187   -12529   -12374   -11881   -11761   -12154   -12374 
  -12220   -12253   -12621   -12847   -12737   -12577   -12568   -12588 
  -12386   -12047   -11978   -12128   -12208   -12312   -12480   -12455 
  -12374   -12595   -12687   -12330   -12094   -12075   -11971   -12066 
  -12494   -12761   -12540   -12237   -12337   -12582   -12665   -12619 
  -12322   -12058   -12199   -12325   -12170   -12147   -12409   -12563 
  -12447   -12339   -12349   -12318   -12156   -12002   -12110   -12474 
  -12752   -12730   -12496   -12228   -12085   -12060   -12071   -12274 
  -12664   -12789   -12528   -12301   -12274   -12268   -12328   -12484 
  -12360   -11982   -12032   -12429   -12488   -12324   -12260   -12255 
  -12379   -12505   -12437   -12409   -12532   -12587   -12471   -12251 
  -12124   -12263   -12479   -12407   -12112   -12071   -12364   -12475 
  -12299   -12241   -12282   -12345   -12617   -12773   -12603   -12483 
  -12326   -11952   -11817   -12090   -12391   -12534   -12599   -12579 
  -12428   -12302   -12326   -12363   -12326   -12252   -12175   -12222 
  -12328   -12248   -12212   -12471   -12663   -12636   -12540   -12312 
  -12214   -12371   -12272   -12031   -12137   -12360   -12403   -12313 
