Origin Time       2025/03/30 10:46:00
Lat.              32.923
Long.             130.372
Depth. (km)       11
Mag.              3.4
Station Code      NGS009
Station Lat.      32.8457
Station Long.     130.0216
Station Height(m) 25
Record Time       2025/03/30 10:46:27
Sampling Freq(Hz) 100Hz
Duration Time(s)  60
Dir.              E-W
Scale Factor      7845(gal)/8223790
Max. Acc. (gal)   1.188
Last Correction   2025/03/30 10:46:27
Memo.             
[...]
     144      144      144      144      148      147      143      145 
     147      144      144      149      148      144      145      148 
     148      145      141      143      147      149      147      145 
     147      147      144      147      144      140      143      147 
     144      144      147      147      144      141      143      148 
     151      147      141      139      140      147      149      147 
     143      144      147      148      148      145      139      141 
     148      147      144      144      144      144      148      148 
     144      140      140      147      148      145      145      145 
     147      147      144      145      149      149      145      144 
     144      143      145      148      143      140      144      148 
     149      144      141      148      151      147      143      141 
     145      148      143      144      147      145      143      145 
     148      149      147      145      145      143      147      152 
     147      144      145      147      145      145      147      149 
     149      144      140      144      145      144      149      152 
     148      140      140      145      149      151      145      141 
     148      151      148      145      141      141      144      147 
     148      149      145      143      145      151      148      145 
     147      148      148      145      141      143      147      151 
     149      145      140      144      148      147      147      151 
     152      149      144      143      147      148      145      141 
     145      151      145      139      144      148      147      148 
     151      148      143      141      144      147      147      147 
     147      148      151      147      141      140      139      144 
     153      151      143      141      145      148      149      147 
     144      147      149      149      147      143      144      147 
     145      148      151      145      143      144      144      147 
     149      148      147      149      148      141      143      148 
     148      148      145      144      147      147      143      144 
     147      147      145      147      151      148      145      144 
     147      147      143      141      145      144      145      148 
     149      147      144      144      143      141      144      147 
     147      148      151      145      144      147      145      144 
     147      144      141      143      147      149      147      140 
     143      148      149      148      147      141      140      147 
     149      148      147      147      147      147      149      147 
     141      143      145      149      151      147      143      148 
     148      141      137      144      148      148      144      140 
     145      153      149      143      145      149      144      139 
     144      148      147      148      145      143      151      151 
     143      141      144      141      147      152      145      140 
     145      149      144      145      149      145      141      149 
     152      145      141      143      144      144      145      148 
     148      145      144      145      147      147      145      144 
     144      143      143      144      152      155      148      144 
     148      147      140      140      144      148      155      148 
     136      141      148      147      145      145      143      145 
     147      148      148      140      137      148      151      145 
     144      145      148      147      141      144      151      147 
     144      147      145      141      143      147      149      149 
     149      151      144      139      145      147      147      149 
     151      145      139      136      145      153      148      145 
     145      145      149      148      141      141      143      149 
     157      155      143      132      137      156      157      145 
     143      145      144      141      143      145      151      152 
     148      143      144      143      143      144      145      152 
     156      143      128      136      152      157      147      140 
     148      149      139      137      145      152      149      139 
     135      143      152      151      145      141      144      151 
     149      139      137      145      153      156      149      143 
     144      144      145      151      152      147      140      139 
     147      151      147      144      145      149      145      141 
     145      148      147      143      143      149      152      145 
     140      137      141      156      157      143      136      147 
     155      148      143      144      143      144      145      145 
     151      155      149      141      139      144      151      147 
     139      143      151      148      143      143      144      144 
     145      145      148      148      145      143      140      141 
     149      148      145      144      143      147      148      143 
     147      155      151      141      143      148      145      147 
     153      144      135      143      147      148      148      141 
     144      151      151      144      133      144      166      155 
     133      136      145      149      144      141      151      157 
     145      130      133      148      153      152      151      148 
     144      139      141      141      136      157      167      137 
     128      148      157      145      126      133      175      190 
     144      102      117      156      172      159      141      141 
     151      144      128      135      162      171      151      128 
     129      147      153      136      126      152      176      160 
     129      125      147      162      149      136      133      144 
     175      162       95       98      183      201      136      112 
     145      164      148      132      136      143      145      156 
     164      145      128      132      149      153      136      162 
     187      124       82      148      197      156      122      141 
     144      135      151      160      156      145      133      130 
     129      149      180      157      120      132      168      168 
     126      105      143      184      164      124      129      147 
     144      151      155      155      149      141      148      129 
     120      176      180      116      125      167      148      129 
     148      157      144      141      149      141      135      148 
     157      147      140      139      136      159      167      126 
     125      156      144      139      152      147      147      148 
     143      139      144      157      152      137      144      157 
     155      140      136      145      152      148      137      141 
     155      145      129      139      160      163      149      143 
     136      139      151      144      135      145      167      162 
     121      122      149      147      152      159      159      168 
     126       91      149      189      156      137      137      136 
     141      153      147      125      139      168      148      126 
     164      168      110      120      178      179      156      120 
      98      152      184      143      128      143      145      153 
     155      152      152      118      114      163      172      145 
     130      121      137      172      164      129      124      143 
     151      151      151      155      143      125      140      147 
     149      172      140      103      144      163      147      159 
     155      129      144      159      132      137      152      130 
     152      182      155      112       99      159      206      163 
     113       94      149      209      125       95      207      187 
      87      125      159      122      160      201       99       43 
     210      315      118      -28      139      270      151       60 
     162      237       83       10      276      332      -37      -47 
     344      263      -48      144      278       20      112      384 
     172      -87       93      283      153       54      184      249 
     105       24      198      311       83      -54      213      287 
      16      109      328       98       13      268      263       -2 
     -85      218      437      180       21      218      280      152 
     113      209      294      209       67       36       54       63 
       2      -99      -31       74        0     -118      -36      356 
     567      282      174      425      418      163      178      445 
     378        9       32      241       43     -229     -194       21 
     211       98     -191      -27      351      178     -160      -52 
     386      811      761      383      244      164     -117     -315 
    -171      168      375      415      226     -252     -348      110 
     309      315      359      182      194      330       99     -105 
     -49       39      166      284      378      517      396     -116 
    -391      -78      209      168      228      322       98     -225 
    -294        5      507      837      770      345      -74     -148 
     -82      -85       70      356      336       81       45      160 
     156       59      -32      -56      -22       27      103      184 
     303      502      600      480      251       55      -29      -97 
    -174      -51      179      187       -4     -118       28      329 
     542      576      400      102      -72      -98      -82       75 
     344      454      337      118      -62     -101      -44       18 
     110      190      207      218      237      272      291      218 
     160      163      112       59       95      106       56       45 
      32       40      139      207      267      295      151       67 
     218      384      399      307      214      102      -94     -209 
     -68      139      190      114      -21     -124      -62      159 
     319      321      287      210      151      263      372      378 
     365      297      186       59      -97     -112       48       93 
     -21     -103      -93       32      179      244      290      287 
     265      344      400      305      191      199      271      232 
      59      -66      -67      -20       -2       14       67       72 
      48      103      160      193      321      417      286      108 
     116      220      230      174      179      197      141       74 
      21       33      137      213      159       10      -35       81 
      89      -58      -49      170      346      400      444      446 
     297      124      103      141       98       51       74       63 
      -9       21      151      174      116      137      189      174 
     187      282      294      197      183      222      137      -37 
    -170     -153       44      171       31      -60       95      226 
     267      379      492      531      529      411      193       62 
      35        4        8       55       12      -94     -128     -144 
    -152      -29      130      176      240      417      526      473 
     409      415      353      172       32      -13      -51      -59 
      -8       -9      -62      -17       60       44       31      132 
     332      492      515      480      405      244       90       33 
      17       -1       -1      -33      -89      -40        6      -27 
      63      265      382      405      361      238      108      139 
     291      294      222      286      256       17     -182     -261 
    -228      -36      221      390      382      255      139      125 
     263      369      303      230      168        5      -99      -64 
     -22       41      193      287      209      103      122      153 
     147      211      283      236      126      109      171      160 
     117      141      148       70        5       86      213      205 
     121       58       48      168      298      274      162       49 
       6       40      102      210      279      247      225      222 
     199      153       87       90      120       55       21       97 
     153      167      175      172      176      203      238      225 
     162      110      108      160      193      156      109      113 
     183      218      126       40       55       99      112      101 
      82       21      -36       29      160      229      279      352 
     391      376      376      391      298      101      -64      -85 
       1       -1      -70      -68     -118     -195      -78      153 
     346      434      336      228      336      486      508      467 
     369      203       22     -133     -238     -253     -162       25 
     190      164       72      109      155      149      199      261 
     249      190      157      180      217      292      391      345 
     148       14      -33     -186     -264      -37      122       37 
      66      292      561      741      664      473      513      688 
     595      156     -305     -491     -476     -526     -565     -449 
    -311     -118      159      274      233      342      621      687 
     452      364      423      198      -67      -10       41     -125 
    -137      148      391      533      680      683      552      342 
     193      333      319     -325     -989    -1032     -868     -824 
    -407      286      445      334      719     1286     1391     1004 
     561      392      415      449      359      286      280     -152 
    -804     -946     -923     -985     -625      -72      256      549 
     789      838      837      777      415      -94     -261      -41 
     284      456      256       12      263      517      120     -230 
      31      112     -280     -364       18      394      507      303 
      20       28      259      292      180      236      257      251 
     238      -44     -118      140      133       64      194      198 
      17      -18      232      519      588      464      211     -226 
    -554     -460     -190      248      669      517      253      299 
     257      351      634      562      251      -20     -263     -332 
    -253     -276     -364     -294      -94       56      201      422 
     556      494      490      643      634      429      199      -75 
    -206     -105      -14       99      199       55     -121      -82 
      41      159      259      295      259      183      180      228 
     137        9       93      268      309      282      253      164 
      83       37      -95     -160       32      257      278      139 
      67      257      544      598      395      149      -47     -264 
    -461     -438     -153      162      348      488      560      464 
     419      534      496      271       81     -137     -410     -507 
    -406     -310     -245      -55      241      461      542      483 
     349      311      390      444      457      494      507      453 
     248      -82     -191     -105     -125      -78       67       82 
      47      -45     -226     -268     -162      -33      228      573 
     669      506      298      116       62      124      171      203 
     190      145      125       63       36      205      511      749 
     683      291      -95     -240     -233     -194     -257     -414 
    -279      124      275      182      168      270      403      465 
     438      436      415      322      238      152       47      -63 
    -205     -264     -157       -2      159      336      437      427 
     310      105      -95     -240     -274     -106      198      448 
     480      344      252      203       55      -75      -51       17 
      37       31       49      125      225      302      391      471 
     487      499      488      329       75     -124     -221     -202 
     -89       39      157      271      342      367      379      383 
     337      205       24     -121     -202     -232     -194      -72 
      43       60      106      338      576      529      295      151 
     106       75      105      171      139       31      -16       -9 
     -13       39      206      382      425      330      211      155 
     114       27      -28       17       67       29        2       81 
     186      283      387      399      279      144       75       82 
     144      183      144       81       79      174      274      267 
     207      171       91      -24      -58      -21       13       66 
     186      328      386      341      264      222      195      113 
      78      156      184      128       81       12      -41        1 
      93      155      186      205      179      121      110      139 
     141      140      126      116      171      152       13       20 
     186      240      155       44       -2       67      179      280 
     357      333      206      110      116      149      136      120 
     121       89       43       56      125      179      201      217 
     232      237      241      207       85      -39       -1      194 
     332      270      116       33       49      114      187      259 
     305      284      238      202      135       47       -9      -54 
    -106     -118      -25      121      228      315      392      376 
     291      253      283      292      224      112       -9     -103 
    -113      -78      -63      -40        8       95      210      314 
     405      430      357      278      237      210      210      228 
     248      264      238      170       87      -17     -148     -275 
    -322     -228      -40      155      301      361      384      415 
     418      359      245      136       79       36      -39      -51 
      64      180      183      130      109      137      191      253 
     305      286      164       35       -1       37       99      159 
     151       55      -21       10      109      197      291      380 
     373      282      217      209      195      133       47       -4 
      14       74      102       76       75      164      248      253 
     233      191      144      163      203      160       49      -31 
       5      167      330      383      340      259      171      101 
      48      -10      -81      -86      -36      -39      -44       55 
     157      189      278      434      490      394      255      145 
      78       49       31        0      -14       22       98      155 
     149      102      114      224      338      402      398      283 
      86      -63      -97      -44       44      130      202      225 
     174      118      110      121      152      184      180      168 
     162      130       54      -12       21      153      292      355 
     337      318      310      249      159      110      129      163 
     121       32        4        1      -45      -67       -6      101 
     228      345      396      349      261      218      226      240 
     224      191      168      114        6      -91     -135     -124 
     -58       27       95      149      174      180      229      325 
     399      403      349      255      118        5      -12       16 
      16        8       44      122      193      217      180      122 
