Origin Time       2025/03/30 10:46:00
Lat.              32.923
Long.             130.372
Depth. (km)       11
Mag.              3.4
Station Code      NGS010
Station Lat.      32.7351
Station Long.     129.8765
Station Height(m) 77
Record Time       2025/03/30 10:46:39
Sampling Freq(Hz) 100Hz
Duration Time(s)  60
Dir.              U-D
Scale Factor      7845(gal)/8223790
Max. Acc. (gal)   1.033
Last Correction   2025/03/30 10:46:39
Memo.             
   -4257    -4248    -4244    -4248    -4240    -4241    -4248    -4245 
   -4252    -4252    -4236    -4240    -4248    -4240    -4245    -4266 
   -4255    -4221    -4230    -4263    -4256    -4241    -4251    -4245 
   -4240    -4255    -4249    -4232    -4241    -4252    -4245    -4244 
   -4252    -4253    -4251    -4243    -4236    -4233    -4244    -4257 
   -4252    -4251    -4252    -4236    -4229    -4248    -4256    -4245 
   -4236    -4244    -4255    -4253    -4253    -4251    -4236    -4226 
   -4229    -4247    -4279    -4279    -4230    -4216    -4251    -4248 
   -4224    -4245    -4268    -4256    -4244    -4248    -4244    -4237 
   -4244    -4244    -4233    -4244    -4260    -4259    -4245    -4229 
   -4236    -4253    -4253    -4245    -4244    -4244    -4251    -4249 
   -4241    -4239    -4245    -4256    -4253    -4239    -4239    -4243 
   -4243    -4251    -4256    -4252    -4248    -4237    -4229    -4233 
   -4245    -4255    -4253    -4245    -4248    -4252    -4240    -4234 
   -4245    -4244    -4239    -4260    -4263    -4241    -4247    -4248 
   -4228    -4239    -4256    -4247    -4249    -4256    -4237    -4233 
   -4256    -4256    -4240    -4241    -4247    -4240    -4239    -4251 
   -4256    -4244    -4244    -4251    -4239    -4239    -4256    -4256 
   -4247    -4241    -4234    -4243    -4260    -4255    -4236    -4233 
   -4241    -4245    -4255    -4264    -4255    -4236    -4233    -4240 
   -4241    -4248    -4252    -4249    -4252    -4256    -4256    -4252 
   -4241    -4228    -4224    -4243    -4263    -4261    -4252    -4256 
   -4251    -4230    -4222    -4233    -4249    -4260    -4261    -4248 
   -4233    -4243    -4259    -4251    -4243    -4241    -4230    -4245 
   -4264    -4251    -4236    -4240    -4247    -4249    -4243    -4244 
   -4251    -4239    -4237    -4259    -4260    -4244    -4236    -4236 
   -4244    -4251    -4251    -4245    -4239    -4241    -4252    -4255 
   -4251    -4243    -4233    -4233    -4240    -4255    -4266    -4253 
   -4237    -4239    -4240    -4244    -4253    -4245    -4234    -4245 
   -4257    -4249    -4241    -4247    -4252    -4247    -4245    -4248 
   -4240    -4239    -4249    -4251    -4253    -4249    -4233    -4236 
   -4253    -4257    -4248    -4237    -4236    -4239    -4244    -4263 
   -4260    -4237    -4236    -4244    -4237    -4244    -4260    -4260 
   -4251    -4237    -4226    -4233    -4255    -4266    -4255    -4244 
   -4239    -4229    -4240    -4260    -4255    -4251    -4248    -4229 
   -4234    -4263    -4261    -4245    -4243    -4237    -4229    -4241 
   -4266    -4264    -4244    -4233    -4232    -4237    -4255    -4261 
   -4251    -4240    -4232    -4237    -4256    -4261    -4248    -4236 
   -4236    -4249    -4255    -4253    -4259    -4251    -4228    -4232 
   -4247    -4247    -4252    -4261    -4251    -4236    -4236    -4247 
   -4252    -4253    -4248    -4232    -4233    -4255    -4260    -4253 
   -4252    -4241    -4232    -4244    -4255    -4251    -4241    -4240 
   -4244    -4244    -4252    -4255    -4248    -4245    -4239    -4229 
   -4244    -4255    -4247    -4245    -4259    -4256    -4226    -4225 
   -4263    -4261    -4229    -4237    -4260    -4255    -4249    -4244 
   -4233    -4243    -4249    -4249    -4256    -4251    -4239    -4241 
   -4241    -4241    -4248    -4255    -4256    -4247    -4239    -4248 
   -4251    -4249    -4252    -4241    -4230    -4241    -4255    -4263 
   -4257    -4239    -4224    -4236    -4261    -4263    -4245    -4247 
   -4243    -4224    -4241    -4261    -4245    -4245    -4256    -4243 
   -4239    -4247    -4248    -4248    -4241    -4236    -4241    -4248 
   -4252    -4251    -4249    -4253    -4239    -4226    -4245    -4257 
   -4251    -4251    -4251    -4244    -4243    -4247    -4248    -4244 
   -4248    -4255    -4244    -4240    -4249    -4247    -4245    -4252 
   -4247    -4241    -4244    -4249    -4251    -4248    -4243    -4236 
   -4247    -4264    -4251    -4229    -4236    -4251    -4256    -4259 
   -4255    -4241    -4233    -4240    -4251    -4251    -4251    -4248 
   -4237    -4240    -4256    -4252    -4240    -4241    -4236    -4239 
   -4261    -4261    -4237    -4229    -4237    -4248    -4256    -4260 
   -4251    -4237    -4239    -4248    -4249    -4256    -4251    -4236 
   -4245    -4256    -4245    -4248    -4252    -4237    -4236    -4245 
   -4249    -4253    -4257    -4247    -4236    -4240    -4244    -4236 
   -4244    -4266    -4255    -4232    -4233    -4243    -4245    -4249 
   -4260    -4266    -4234    -4216    -4247    -4259    -4244    -4255 
   -4256    -4234    -4237    -4251    -4256    -4256    -4244    -4232 
   -4239    -4252    -4251    -4248    -4263    -4271    -4264    -4280 
   -4299    -4268    -4233    -4229    -4218    -4199    -4199    -4195 
   -4191    -4206    -4229    -4257    -4290    -4295    -4266    -4256 
   -4291    -4310    -4286    -4256    -4183    -4081    -4074    -4185 
   -4309    -4365    -4357    -4364    -4388    -4333    -4209    -4093 
   -4016    -4032    -4190    -4396    -4475    -4368    -4191    -4099 
   -4147    -4251    -4329    -4374    -4340    -4234    -4143    -4112 
   -4190    -4324    -4360    -4317    -4282    -4206    -4137    -4203 
   -4340    -4441    -4449    -4252    -3947    -3848    -4025    -4314 
   -4540    -4519    -4301    -4129    -4121    -4201    -4260    -4260 
   -4248    -4243    -4263    -4351    -4356    -4164    -4032    -4114 
   -4271    -4459    -4558    -4379    -4117    -4058    -4148    -4229 
   -4228    -4105    -4024    -4233    -4511    -4514    -4363    -4252 
   -4214    -4167    -4040    -4124    -4488    -4573    -4198    -3882 
   -3989    -4260    -4307    -4226    -4257    -4326    -4290    -4191 
   -4256    -4368    -4263    -4353    -4696    -4615    -4251    -4041 
   -3731    -3550    -4029    -4606    -4639    -4499    -4355    -4031 
   -3921    -4129    -4148    -4110    -4391    -4600    -4452    -4293 
   -4232    -4124    -4133    -4298    -4310    -4199    -4264    -4360 
   -4257    -4233    -4368    -4185    -3850    -4063    -4450    -4264 
   -3946    -4099    -4432    -4571    -4398    -3998    -3862    -4168 
   -4519    -4747    -4849    -4699    -4309    -3839    -3558    -3669 
   -4055    -4482    -4735    -4625    -4193    -3805    -3755    -3848 
   -3982    -4428    -4872    -4807    -4573    -4429    -4170    -3909 
   -3759    -3789    -4220    -4780    -4915    -4518    -3921    -3634 
   -3897    -4367    -4594    -4637    -4599    -4195    -3681    -3766 
   -4209    -4363    -4287    -4148    -4048    -4298    -4718    -4666 
   -4194    -3929    -4020    -4266    -4502    -4479    -4251    -4145 
   -4129    -4059    -4067    -4202    -4333    -4433    -4409    -4178 
   -4055    -4174    -4195    -4241    -4542    -4638    -4325    -4028 
   -3881    -3828    -4006    -4344    -4576    -4644    -4590    -4432 
   -4189    -3937    -3825    -3916    -4212    -4564    -4676    -4460 
   -4085    -3816    -3893    -4129    -4291    -4568    -4784    -4527 
   -4195    -4131    -4028    -3946    -4132    -4403    -4590    -4569 
   -4205    -3832    -3829    -4001    -4230    -4576    -4629    -4287 
   -4129    -4207    -4137    -4078    -4224    -4297    -4220    -4217 
   -4284    -4371    -4527    -4549    -4253    -3974    -4044    -4212 
   -4162    -4050    -4083    -4218    -4433    -4602    -4465    -4210 
   -4185    -4178    -4040    -4104    -4365    -4465    -4369    -4232 
   -4141    -4151    -4183    -4145    -4140    -4284    -4437    -4391 
   -4244    -4194    -4176    -4121    -4185    -4352    -4341    -4202 
   -4286    -4444    -4293    -4029    -3974    -4108    -4386    -4588 
   -4440    -4176    -4070    -4035    -4105    -4298    -4414    -4394 
   -4305    -4279    -4390    -4379    -4156    -4072    -4132    -4125 
   -4256    -4421    -4249    -4044    -4160    -4363    -4430    -4337 
   -4143    -4010    -4017    -4201    -4502    -4612    -4367    -4054 
   -3974    -4075    -4233    -4438    -4534    -4375    -4121    -3948 
   -3954    -4232    -4499    -4434    -4301    -4341    -4356    -4220 
   -4032    -3948    -4039    -4239    -4465    -4571    -4473    -4274 
   -4032    -3940    -4145    -4306    -4295    -4378    -4423    -4261 
   -4205    -4287    -4162    -4021    -4207    -4405    -4399    -4356 
   -4232    -4120    -4214    -4342    -4345    -4275    -4206    -4197 
   -4151    -4108    -4276    -4395    -4236    -4158    -4212    -4207 
   -4310    -4422    -4240    -3994    -4063    -4294    -4325    -4261 
   -4341    -4328    -4114    -4078    -4275    -4361    -4317    -4306 
   -4329    -4352    -4283    -4095    -4058    -4276    -4396    -4294 
   -4247    -4257    -4175    -4137    -4191    -4178    -4136    -4226 
   -4406    -4402    -4151    -4078    -4347    -4500    -4383    -4299 
   -4259    -4105    -3964    -4056    -4286    -4411    -4484    -4479 
   -4182    -3923    -4058    -4205    -4202    -4352    -4475    -4363 
   -4267    -4183    -4020    -4062    -4322    -4456    -4374    -4202 
   -4118    -4240    -4332    -4243    -4291    -4425    -4203    -3913 
   -4037    -4228    -4210    -4322    -4498    -4396    -4275    -4279 
   -4152    -4078    -4259    -4365    -4336    -4376    -4295    -4055 
   -4035    -4202    -4239    -4222    -4276    -4325    -4374    -4317 
   -4155    -4222    -4384    -4266    -4133    -4135    -4079    -4158 
   -4396    -4411    -4264    -4278    -4347    -4276    -4194    -4185 
   -4162    -4199    -4348    -4376    -4271    -4220    -4099    -3994 
   -4186    -4392    -4345    -4302    -4380    -4399    -4245    -4072 
   -4090    -4140    -4131    -4317    -4488    -4275    -4045    -4160 
   -4357    -4320    -4171    -4226    -4260    -4116    -4279    -4491 
   -4217    -4164    -4457    -4253    -4051    -4394    -4432    -4093 
   -4064    -4171    -4203    -4330    -4392    -4297    -4229    -4194 
   -4137    -4160    -4249    -4302    -4349    -4405    -4333    -4094 
   -3910    -4031    -4387    -4548    -4318    -4168    -4355    -4403 
   -4152    -4032    -4118    -4131    -4163    -4403    -4606    -4477 
   -4140    -3913    -3936    -4234    -4623    -4603    -4249    -4104 
   -4098    -4120    -4283    -4355    -4248    -4182    -4179    -4225 
   -4303    -4263    -4143    -4189    -4361    -4380    -4279    -4253 
   -4125    -3936    -4140    -4515    -4557    -4433    -4280    -4024 
   -3920    -4135    -4379    -4391    -4333    -4294    -4067    -3973 
   -4311    -4446    -4224    -4236    -4348    -4291    -4256    -4176 
   -4145    -4384    -4464    -4182    -3991    -3998    -4147    -4526 
   -4715    -4384    -4071    -4102    -4112    -4078    -4313    -4540 
   -4336    -4067    -4083    -4171    -4313    -4367    -3983    -3758 
   -4311    -4855    -4702    -4409    -4228    -3816    -3674    -4298 
   -4774    -4438    -4099    -4158    -4055    -3916    -4209    -4464 
   -4255    -4202    -4606    -4673    -4129    -3720    -3785    -4121 
   -4684    -5019    -4446    -3647    -3782    -4320    -4305    -4214 
   -4475    -4490    -4135    -3977    -4043    -4094    -4336    -4679 
   -4676    -4527    -4437    -3900    -3163    -3358    -4355    -4985 
   -5043    -4808    -4275    -3888    -3966    -4148    -4221    -4159 
   -4050    -4158    -4243    -4093    -4260    -4650    -4519    -4221 
   -4275    -4257    -4149    -4228    -4205    -4077    -4166    -4295 
   -4148    -4050    -4425    -4604    -4058    -3935    -4706    -4976 
   -4334    -3775    -3651    -3786    -4097    -4399    -4654    -4843 
   -4617    -3943    -3589    -3964    -4369    -4352    -4309    -4453 
   -4529    -4214    -3769    -3863    -4325    -4565    -4726    -4730 
   -4137    -3638    -3960    -4168    -3848    -4136    -4884    -4897 
   -4369    -4043    -3967    -4082    -4156    -3990    -4198    -4869 
   -4700    -3669    -3554    -4413    -4645    -4336    -4467    -4580 
   -4055    -3609    -3974    -4496    -4310    -4070    -4644    -5043 
   -4201    -3392    -3974    -4675    -4135    -3631    -4367    -5103 
   -4711    -3917    -3658    -3975    -4338    -4399    -4388    -4391 
   -4236    -4213    -4441    -4391    -4029    -3923    -4089    -4255 
   -4496    -4550    -4045    -3707    -4239    -4719    -4423    -4239 
   -4482    -4333    -3852    -3774    -4109    -4317    -4167    -4201 
   -4699    -4799    -4160    -3789    -4013    -4164    -4198    -4365 
   -4504    -4550    -4504    -4259    -3901    -3770    -4004    -4287 
   -4561    -4838    -4618    -4098    -3985    -3937    -3766    -4205 
   -4872    -4656    -4040    -3948    -4010    -3924    -4139    -4633 
   -4882    -4567    -3982    -3856    -4018    -3807    -3825    -4533 
   -4945    -4654    -4415    -4383    -4000    -3469    -3780    -4707 
   -4766    -4043    -3964    -4394    -4344    -4143    -4418    -4684 
   -4348    -3873    -3987    -4388    -4341    -4099    -4183    -4283 
   -4236    -4280    -4206    -4023    -4203    -4486    -4276    -3954 
   -4226    -4797    -4747    -4109    -3815    -3913    -3921    -4198 
   -4733    -4648    -4158    -4230    -4442    -3979    -3607    -4068 
   -4503    -4344    -4224    -4369    -4441    -4441    -4361    -4121 
   -4018    -4230    -4398    -4224    -4074    -4340    -4525    -4198 
   -3936    -4113    -4321    -4398    -4444    -4395    -4318    -4263 
   -4122    -3977    -3963    -4122    -4398    -4534    -4396    -4268 
   -4303    -4251    -4125    -4151    -4178    -4144    -4252    -4329 
   -4221    -4212    -4290    -4140    -3964    -4137    -4456    -4585 
   -4522    -4353    -4193    -4032    -3804    -3797    -4243    -4785 
   -4897    -4488    -4072    -3989    -3906    -3821    -4147    -4521 
   -4460    -4415    -4581    -4465    -4055    -3742    -3855    -4437 
   -4806    -4517    -4193    -4225    -4164    -3874    -3835    -4198 
   -4491    -4514    -4592    -4521    -3940    -3638    -4159    -4563 
   -4419    -4244    -4068    -4017    -4330    -4417    -4168    -4241 
   -4407    -4221    -4072    -4214    -4383    -4405    -4340    -4294 
   -4210    -4004    -3870    -4047    -4368    -4500    -4468    -4464 
   -4322    -4012    -3897    -4047    -4329    -4607    -4541    -4224 
   -4095    -4101    -4126    -4252    -4365    -4353    -4266    -4209 
   -4213    -4288    -4455    -4376    -3916    -3765    -4241    -4699 
   -4685    -4341    -4014    -3985    -4105    -4193    -4345    -4426 
   -4276    -4164    -4279    -4330    -4091    -3940    -4151    -4387 
   -4450    -4378    -4162    -4145    -4411    -4445    -4222    -4018 
   -3898    -4122    -4525    -4506    -4268    -4252    -4252    -4159 
   -4112    -4120    -4248    -4437    -4422    -4252    -4144    -4094 
   -4116    -4199    -4247    -4351    -4513    -4441    -4143    -3997 
   -4093    -4241    -4324    -4329    -4359    -4378    -4236    -4153 
   -4205    -4101    -4018    -4182    -4279    -4286    -4410    -4422 
   -4278    -4309    -4328    -4068    -4027    -4379    -4455    -4198 
   -4225    -4367    -4147    -3944    -4178    -4468    -4444    -4279 
   -4128    -4021    -4171    -4461    -4442    -4216    -4151    -4148 
   -4058    -4094    -4322    -4444    -4401    -4399    -4391    -4270 
   -4159    -4153    -4133    -4102    -4241    -4376    -4210    -4068 
   -4237    -4294    -4178    -4341    -4550    -4388    -4180    -4187 
   -4132    -3986    -4037    -4257    -4403    -4423    -4413    -4410 
   -4297    -4035    -3906    -4125    -4471    -4587    -4422    -4198 
   -4059    -4048    -4194    -4365    -4360    -4229    -4191    -4201 
   -4135    -4201    -4363    -4264    -4113    -4232    -4333    -4282 
   -4230    -4122    -4133    -4407    -4476    -4222    -4156    -4325 
   -4326    -4147    -4112    -4212    -4186    -4114    -4243    -4465 
   -4480    -4311    -4230    -4229    -4152    -4097    -4137    -4179 
   -4203    -4299    -4414    -4355    -4278    -4374    -4341    -4113 
   -4055    -4152    -4167    -4221    -4421    -4459    -4244    -4178 
   -4279    -4209    -4118    -4241    -4299    -4224    -4321    -4402 
   -4156    -3982    -4148    -4274    -4248    -4288    -4345    -4324 
   -4267    -4245    -4310    -4288    -4105    -4094    -4298    -4330 
   -4222    -4260    -4359    -4306    -4166    -4112    -4175    -4216 
   -4182    -4217    -4356    -4434    -4376    -4263    -4195    -4207 
   -4249    -4272    -4263    -4226    -4190    -4159    -4159    -4218 
   -4274    -4230    -4189    -4311    -4413    -4244    -4093    -4182 
   -4226    -4243    -4407    -4472    -4361    -4216    -4004    -3908 
   -4118    -4347    -4384    -4406    -4445    -4359    -4206    -4151 
   -4207    -4253    -4183    -4112    -4193    -4303    -4321    -4297 
   -4205    -4145    -4298    -4441    -4368    -4247    -4125    -4032 
   -4132    -4293    -4349    -4405    -4360    -4105    -4023    -4294 
   -4428    -4271    -4201    -4220    -4212    -4294    -4276    -4058 
   -4043    -4286    -4403    -4356    -4328    -4284    -4163    -4070 
   -4110    -4194    -4245    -4301    -4336    -4282    -4199    -4220 
   -4302    -4280    -4233    -4272    -4284    -4317    -4394    -4259 
   -4067    -4152    -4275    -4302    -4405    -4402    -4176    -4018 
   -4105    -4279    -4311    -4266    -4336    -4356    -4212    -4212 
   -4340    -4255    -4101    -4137    -4241    -4280    -4253    -4224 
   -4247    -4251    -4240    -4282    -4270    -4195    -4244    -4348 
   -4268    -4124    -4202    -4383    -4351    -4163    -4131    -4248 
   -4275    -4218    -4256    -4320    -4217    -4104    -4248    -4415 
   -4306    -4168    -4170    -4145    -4197    -4394    -4399    -4193 
   -4171    -4299    -4284    -4201    -4216    -4264    -4243    -4172 
   -4212    -4351    -4341    -4228    -4193    -4162    -4224    -4428 
   -4406    -4147    -4052    -4156    -4294    -4417    -4386    -4194 
   -4125    -4234    -4295    -4278    -4234    -4162    -4187    -4305 
   -4297    -4221    -4259    -4298    -4229    -4144    -4158    -4278 
   -4369    -4349    -4284    -4225    -4189    -4199    -4225    -4216 
   -4240    -4332    -4317    -4172    -4124    -4187    -4225    -4264 
   -4291    -4248    -4264    -4384    -4365    -4147    -4058    -4198 
   -4284    -4272    -4342    -4387    -4279    -4168    -4176    -4222 
   -4218    -4195    -4239    -4372    -4436    -4233    -3998    -4079 
   -4314    -4386    -4303    -4202    -4156    -4189    -4261    -4338 
   -4367    -4295    -4218    -4225    -4217    -4158    -4164    -4257 
   -4298    -4244    -4241    -4313    -4278    -4167    -4176    -4252 
   -4288    -4357    -4406    -4240    -4001    -4028    -4239    -4341 
   -4340    -4345    -4328    -4255    -4197    -4195    -4206    -4224 
   -4283    -4337    -4311    -4221    -4163    -4209    -4283    -4272 
   -4217    -4182    -4166    -4197    -4274    -4330    -4357    -4347 
   -4288    -4199    -4094    -4090    -4216    -4294    -4283    -4263 
   -4270    -4328    -4307    -4147    -4112    -4247    -4297    -4298 
   -4341    -4298    -4230    -4268    -4233    -4066    -4091    -4369 
   -4480    -4307    -4185    -4205    -4218    -4225    -4217    -4159 
