Origin Time       2025/03/30 10:46:00
Lat.              32.923
Long.             130.372
Depth. (km)       11
Mag.              3.4
Station Code      NGS010
Station Lat.      32.7351
Station Long.     129.8765
Station Height(m) 77
Record Time       2025/03/30 10:46:39
Sampling Freq(Hz) 100Hz
Duration Time(s)  60
Dir.              N-S
Scale Factor      7845(gal)/8223790
Max. Acc. (gal)   1.697
Last Correction   2025/03/30 10:46:39
Memo.             
    7982     7990     7986     7994     7996     7994     8013     8001 
    7978     7994     7997     7983     7994     8006     7996     7987 
    8001     7993     7970     7986     8016     8013     7997     7997 
    7997     7982     7987     8001     7993     7985     7992     8004 
    8012     8004     7987     7985     7997     8000     7987     7996 
    8010     7989     7971     7994     8008     7994     7990     8002 
    8001     7990     7990     7989     7986     7994     7996     7993 
    8006     7997     7969     7993     8025     7998     7981     7997 
    7993     7989     7998     8000     7994     7986     7990     8009 
    8020     8000     7969     7975     7997     7985     7990     8023 
    8016     7986     7981     7992     7997     7990     7987     8001 
    8013     8005     7983     7977     7992     8000     7996     7998 
    7994     7983     7989     8000     8001     7998     7996     7994 
    7987     7989     8008     8004     7981     7986     8004     7998 
    7990     7998     8001     7993     7998     7998     7982     7978 
    7993     8009     8009     7990     7974     7978     8010     8032 
    8016     7992     7978     7965     7967     8000     8027     8021 
    8004     7992     7977     7977     7994     7994     7994     8006 
    7998     7983     7979     7985     8004     8013     8005     7989 
    7981     7994     7994     7986     8009     8012     7987     7992 
    7998     7985     7981     7989     8000     8005     8013     8017 
    7994     7971     7971     7974     7983     8012     8028     8020 
    8009     7989     7967     7971     7979     7987     8009     8021 
    8016     8000     7979     7985     8002     7997     7975     7960 
    7985     8024     8039     8025     7997     7979     7969     7960 
    7986     8013     8006     8010     8017     7998     7996     7992 
    7977     7993     7997     7978     7986     8006     8008     8002 
    8008     8008     7982     7971     7987     7986     7990     8013 
    8006     8001     8017     8000     7971     7975     7978     7978 
    7990     8010     8025     8020     8009     7998     7971     7960 
    7965     7973     8006     8033     8027     8019     8008     7979 
    7960     7965     7990     8005     7994     7993     8005     8014 
    8020     8001     7970     7965     7973     7992     8024     8032 
    8005     7979     7978     7987     7986     7989     8002     8005 
    8000     8000     7997     8001     8008     7993     7974     7973 
    7979     7997     8025     8037     8019     7981     7960     7966 
    7982     8005     8008     8002     8021     8019     7986     7977 
    7978     7977     7985     7998     8012     8017     8013     8013 
    7987     7952     7954     7983     8014     8036     8023     7998 
    7989     7981     7977     7979     7985     8000     8017     8032 
    8019     7978     7969     7982     7975     7986     8008     8009 
    8020     8025     7992     7966     7963     7971     7996     8014 
    8016     8014     7998     7981     7982     7978     7982     8001 
    8006     8016     8027     8000     7962     7981     8019     7994 
    7958     7983     8012     8017     8027     8005     7960     7960 
    7985     8008     8025     8004     7977     7986     8004     8013 
    7998     7977     7981     7996     8006     8005     7990     7987 
    8001     8002     7990     7986     7990     7997     7997     7992 
    7987     7996     8016     8009     7978     7986     8006     7992 
    7986     7990     7985     8000     8019     8014     8004     7981 
    7959     7969     8009     8047     8020     7958     7947     7982 
    8016     8023     7998     7981     8002     8014     7992     7973 
    7977     7985     7998     8021     8027     7992     7963     7979 
    8000     8012     8008     7975     7973     8002     8008     8005 
    8006     7985     7971     7981     8006     8024     8012     7990 
    7974     7970     8004     8025     8005     7992     7978     7971 
    8000     8020     8014     8002     7989     7981     7975     7986 
    8012     8006     7996     8009     7997     7981     7993     7996 
    7990     7992     7993     7998     8006     8004     7986     7974 
    7996     8021     8004     7983     7997     8002     7989     7977 
    7981     8013     8028     8005     7986     7978     7982     7996 
    7997     8002     8000     7990     8005     8002     7978     7987 
    7998     7997     8016     8017     7983     7955     7970     8010 
    8023     8010     8004     7987     7969     7983     8002     8000 
    8001     8016     8014     7989     7965     7969     8000     8028 
    8014     7975     7970     7997     8004     8002     7997     7975 
    7981     8009     8019     8012     7994     7985     7990     7983 
    7977     7982     7996     8019     8008     7982     8005     8028 
    8025     8016     7970     7936     7977     8004     7969     7932 
    7931     7967     8032     8079     8071     8046     8066     8101 
    8066     7962     7869     7836     7854     7854     7881     8008 
    8122     8151     8158     8113     8019     7981     8001     7986 
    7882     7763     7773     7915     8097     8209     8175     8070 
    8000     7994     8020     7977     7869     7836     7882     7954 
    8085     8158     8075     8001     8052     8122     8043     7870 
    7855     7979     8020     7888     7695     7708     8012     8318 
    8371     8233     8170     8212     7952     7462     7554     8182 
    8306     7816     7643     8031     8229     7878     7628     8035 
    8615     8613     8145     7781     7639     7624     7754     7932 
    8013     8033     8029     8041     8163     8210     8113     8154 
    8220     7993     7591     7325     7435     7858     8294     8538 
    8522     8356     8159     7973     7785     7605     7681     7969 
    8037     7838     7646     7788     8244     8374     8229     8514 
    8630     7821     7146     7516     7969     7886     7952     8183 
    8133     8120     8291     8268     8009     7732     7564     7630 
    7819     7834     8013     8695     9020     8330     7495     7299 
    7430     7668     8108     8411     8406     8401     8198     7458 
    7006     7753     8829     8916     8348     7975     7708     7433 
    7484     7857     8090     7951     7844     8064     8298     8353 
    8309     8259     8210     7900     7387     7303     7755     8079 
    8037     7987     7932     7817     8066     8600     8752     8519 
    8259     7821     7339     7234     7404     7696     8118     8494 
    8637     8375     7793     7533     7874     8226     8229     8168 
    8105     7719     7187     7222     7881     8503     8818     8920 
    8634     7871     7242     7388     7875     7920     7680     7624 
    7842     8321     8712     8568     8136     7859     7723     7654 
    7746     8024     8310     8298     7987     7816     7948     8036 
    7932     7804     7750     7794     7921     8036     8068     8206 
    8449     8276     7832     7823     7947     7831     7906     8086 
    7958     7789     7885     8154     8367     8294     7958     7678 
    7730     7989     8067     7898     7893     8221     8403     8171 
    7935     7893     7875     7882     7848     7786     7985     8135 
    7836     7734     8213     8517     8263     7975     7897     7790 
    7646     7697     8009     8318     8290     8044     7938     7938 
    7919     7970     8090     8189     8143     7908     7717     7739 
    7886     8062     8135     8139     8201     8063     7651     7549 
    7969     8337     8363     8275     8132     7932     7857     7870 
    7744     7657     7875     8039     7931     7969     8156     8112 
    8044     8222     8326     8175     7983     7773     7496     7458 
    7815     8221     8384     8341     8217     8052     7801     7554 
    7666     8140     8448     8407     8225     7989     7724     7515 
    7611     7992     8082     7870     7983     8309     8337     8143 
    7962     7875     7878     7801     7749     8097     8548     8448 
    7993     7782     7730     7584     7600     7859     8082     8235 
    8361     8409     8348     8054     7646     7535     7749     7992 
    8141     8210     8171     7939     7663     7681     7958     8160 
    8175     8120     8078     7955     7719     7677     8000     8291 
    8187     8055     8267     8264     7827     7754     8020     7875 
    7643     7840     8021     7956     8071     8297     8202     7977 
    8031     8268     8280     7839     7346     7434     7896     8028 
    8010     8388     8708     8305     7719     7732     7932     7800 
    7689     7879     8213     8407     8268     7969     7731     7616 
    7727     7967     8110     8167     8244     8357     8329     7997 
    7627     7531     7593     7681     7890     8162     8356     8530 
    8577     8268     7771     7503     7609     7852     7966     7952 
    7898     7927     8143     8318     8255     8140     8073     7898 
    7658     7589     7751     8063     8349     8376     8198     8086 
    8063     7904     7681     7755     7962     7915     7882     8089 
    8220     8170     7981     7717     7825     8245     8216     7820 
    7862     8139     7947     7681     7911     8203     8255     8290 
    8197     7912     7709     7655     7777     8048     8124     7974 
    8019     8222     8209     8012     7908     7943     8027     8077 
    7958     7742     7761     7959     8010     7989     8020     8029 
    8070     8178     8241     8171     8008     7851     7777     7835 
    7848     7695     7755     8187     8426     8239     8055     8110 
    8230     8117     7831     7757     7744     7554     7670     8170 
    8383     8268     8216     8206     8109     7844     7582     7657 
    7960     8151     8046     7863     7966     8105     8060     8155 
    8272     8137     7958     7771     7549     7557     7753     7942 
    8332     8814     8783     8236     7692     7372     7381     7680 
    7974     8199     8316     8110     7798     7858     8193     8299 
    8175     8133     8039     7838     7763     7742     7754     7842 
    7879     8073     8455     8469     8168     8106     8063     7661 
    7362     7581     7886     8019     8336     8617     8374     7938 
    7690     7605     7659     7866     8212     8371     8158     8100 
    8276     8102     7662     7458     7688     8217     8455     8175 
    7979     7994     7720     7391     7709     8388     8480     8009 
    7793     8064     8375     8278     7831     7596     7749     7925 
    8051     8228     8276     8116     7946     7908     7901     7819 
    7801     7902     7881     7649     7720     8374     8793     8576 
    8394     8199     7547     7140     7539     7985     8097     8236 
    8090     7599     7585     8098     8510     8733     8560     7659 
    6902     7288     8163     8532     8556     8453     8136     7992 
    8032     7666     7121     7098     7504     7929     8425     8939 
    9024     8529     7870     7645     7897     7897     7589     7819 
    8070     7512     7415     8193     8235     7869     8437     8932 
    8490     8013     7685     7272     7381     8002     8194     7681 
    7416     7939     8283     8301     9076     9769     8648     6739 
    6246     6998     7623     8027     8410     8506     8509     8453 
    8122     7862     7912     8294     8792     8482     7214     6488 
    6937     7284     7524     8803     9683     8762     7986     8557 
    8935     8190     7084     6651     7096     7476     7306     7809 
    9158     9470     8588     8056     7886     7634     7850     8176 
    7501     6679     7191     8228     8830     9232     8897     8012 
    8016     8155     7191     6824     7805     7874     7130     7938 
    9140     8607     8055     8883     9158     7863     6732     7029 
    7684     7371     7102     8428     9774     8818     7257     7688 
    8607     7884     7114     8128     9278     8563     7029     6685 
    7515     8147     8063     8028     8676     9418     9099     7720 
    6847     7165     7429     7357     8051     8943     8637     7857 
    7877     8016     7483     7229     8058     8978     8633     7611 
    7708     8718     8704     7531     7153     7970     8046     7144 
    7330     8730     9270     8371     7558     7927     8490     7948 
    7217     7578     8047     7449     6868     7867     9609     9718 
    8317     7780     8074     7477     6681     7176     8093     8224 
    8170     8210     7866     7863     8598     8878     8446     8272 
    8189     7327     6384     6810     8054     8451     8286     8785 
    9169     8136     7024     7719     8814     8199     7177     7423 
    7909     7858     8079     8560     8460     7863     7591     7927 
    8159     7928     8087     8645     8375     7406     7041     7561 
    8179     8395     8299     8059     7998     8364     8523     7933 
    7349     7426     7697     7865     8102     8156     8074     8537 
    9004     8302     7203     7074     7645     8118     8337     8343 
    8014     7599     7742     8166     8094     8020     8463     8510 
    7753     7381     7919     8263     7830     7423     7678     8267 
    8600     8410     8035     7992     7962     7649     7674     8016 
    7998     7831     7744     7561     7740     8515     9167     9231 
    8710     7685     6751     6612     7176     7850     8294     8537 
    8587     8279     7703     7465     8021     8795     8880     8461 
    8021     7233     6326     6513     7792     8735     9100     9648 
    9632     8191     6739     6547     6902     7360     8295     9126 
    8843     7847     7474     8019     8409     8064     7724     7877 
    7974     7672     7570     8164     8757     8557     8091     7947 
    7612     7184     7641     8390     8152     7736     8144     8415 
    7948     7719     8063     8189     8025     8097     8140     7709 
    7249     7479     8229     8722     8725     8426     7952     7616 
    7670     7828     7740     7732     8163     8421     7989     7607 
    7847     8155     8195     8212     8195     8098     8008     7796 
    7495     7581     8058     8212     8054     8195     8337     8031 
    7803     8027     8251     8159     7952     7713     7435     7435 
    7798     8104     8260     8496     8518     8230     8283     8402 
    7677     6887     7273     8014     8020     7990     8442     8602 
    8364     8390     8243     7395     6941     7622     8280     8170 
    8059     8251     8241     8098     8036     7946     7983     8048 
    7732     7510     7908     8226     8114     8191     8293     7996 
    7858     8089     8081     7846     7901     7996     7722     7593 
    7985     8306     8270     8333     8406     7901     7200     7273 
    7973     8417     8444     8332     8097     7831     7662     7527 
    7677     8348     8949     8691     7859     7542     7686     7457 
    7456     8274     8733     8174     7599     7672     7909     7906 
    7959     8351     8743     8527     7789     7317     7377     7574 
    7784     8105     8409     8507     8397     8268     8132     7832 
    7614     7678     7680     7651     7969     8174     7974     8159 
    8757     8662     7874     7551     7827     7811     7506     7719 
    8365     8503     8006     7776     8074     8197     7971     7969 
    8168     7948     7433     7411     7879     8143     8159     8253 
    8208     8006     8158     8433     8104     7481     7379     7658 
    7890     8241     8683     8741     8325     7771     7426     7531 
    7844     7882     7909     8355     8615     8206     7785     7819 
    7929     7869     7919     8109     7975     7643     7705     8020 
    8264     8491     8517     8136     7651     7387     7256     7423 
    8143     8769     8681     8298     8093     7863     7541     7668 
    8179     8179     7688     7662     8106     8166     7879     8036 
    8484     8453     8081     7916     7797     7491     7387     7732 
    8131     8198     8118     8253     8482     8347     7884     7607 
    7636     7749     7977     8253     8187     7908     7977     8206 
    8078     7885     8028     8187     7992     7707     7740     7881 
    7882     8091     8461     8365     7890     7676     7850     8127 
    8226     8078     7915     7801     7728     7946     8355     8473 
    8137     7649     7474     7722     8109     8325     8251     8068 
    7875     7703     7684     7736     7923     8352     8588     8348 
    7956     7727     7662     7699     7888     8144     8213     8112 
    8032     8037     8073     7960     7690     7703     8132     8325 
    8021     7921     8176     8132     7866     7839     7871     7867 
    7971     7983     7936     8113     8182     7938     7943     8235 
    8233     7992     7844     7740     7701     7831     7970     8036 
    8102     8152     8187     8190     8133     8108     8102     7958 
    7682     7647     7951     8029     7809     7956     8392     8365 
    7996     7954     8128     8043     7767     7681     7848     7909 
    7821     7951     8267     8445     8351     8117     7911     7731 
    7638     7697     7813     7888     7944     8039     8102     8198 
    8433     8486     8100     7692     7693     7803     7722     7803 
    8110     8129     7904     7971     8155     8024     7933     8145 
    8181     7901     7809     8079     8297     8160     7909     7836 
    7827     7801     7950     8191     8149     7871     7854     8149 
    8251     8006     7800     7816     7906     8024     8112     8013 
    7900     7982     8095     8144     8167     8077     7975     7977 
    7901     7821     7923     7993     7830     7670     7916     8437 
    8565     8170     7819     7774     7836     7902     7983     8051 
    8039     7906     7828     8001     8186     8102     7969     8029 
    8050     7815     7686     7974     8226     8044     7897     8070 
    8132     8023     8039     8077     8039     8036     7996     7863 
    7784     7823     7909     8006     8073     8036     8060     8236 
    8240     7983     7755     7672     7796     8055     8214     8361 
    8445     8044     7452     7422     7882     8236     8384     8415 
    8097     7580     7523     8001     8392     8232     7774     7704 
    8085     8229     7938     7746     7843     7960     8091     8282 
    8284     8024     7773     7769     7927     7954     7913     7998 
    8019     7928     7967     8174     8303     8087     7773     7852 
    8083     7983     7848     7990     8046     7952     8063     8214 
    8141     7970     7765     7689     7901     8100     8068     8020 
    8097     8226     8241     8014     7804     7915     8047     7929 
    7870     7955     7905     7834     8000     8230     8245     8082 
    7946     7933     7958     7854     7730     7890     8144     8098 
    8008     8206     8328     8046     7734     7753     7971     8082 
    7893     7731     7993     8228     8021     7842     8009     8202 
    8195     8089     7943     7744     7704     8005     8284     8141 
