Origin Time       2025/03/30 10:46:00
Lat.              32.923
Long.             130.372
Depth. (km)       11
Mag.              3.4
Station Code      NGS009
Station Lat.      32.8457
Station Long.     130.0216
Station Height(m) 25
Record Time       2025/03/30 10:46:27
Sampling Freq(Hz) 100Hz
Duration Time(s)  60
Dir.              N-S
Scale Factor      7845(gal)/8223790
Max. Acc. (gal)   1.114
Last Correction   2025/03/30 10:46:27
Memo.             
[...]
    1663     1664     1665     1664     1667     1665     1661     1660 
    1656     1657     1664     1664     1663     1664     1664     1667 
    1669     1665     1660     1657     1661     1667     1667     1663 
    1660     1665     1675     1669     1657     1656     1661     1665 
    1667     1664     1664     1667     1667     1667     1667     1663 
    1663     1665     1665     1663     1664     1665     1661     1664 
    1671     1667     1663     1665     1667     1663     1660     1663 
    1668     1668     1663     1661     1664     1668     1669     1667 
    1661     1660     1663     1668     1671     1668     1659     1657 
    1665     1671     1668     1663     1660     1661     1664     1667 
    1665     1660     1659     1664     1665     1669     1674     1665 
    1661     1665     1665     1668     1671     1661     1653     1659 
    1667     1668     1664     1667     1667     1661     1667     1674 
    1668     1661     1657     1660     1667     1669     1663     1660 
    1664     1664     1664     1667     1664     1663     1664     1664 
    1664     1665     1664     1663     1663     1664     1667     1663 
    1659     1661     1668     1671     1668     1664     1664     1667 
    1668     1665     1664     1664     1664     1663     1660     1663 
    1668     1665     1661     1663     1668     1671     1664     1659 
    1663     1667     1664     1663     1659     1659     1664     1668 
    1668     1668     1665     1663     1665     1664     1661     1664 
    1665     1665     1664     1665     1667     1661     1660     1671 
    1672     1663     1660     1660     1664     1672     1669     1664 
    1664     1660     1663     1668     1664     1664     1667     1664 
    1667     1667     1657     1660     1669     1667     1663     1663 
    1664     1665     1664     1664     1663     1660     1661     1664 
    1663     1664     1667     1667     1664     1660     1659     1663 
    1664     1663     1660     1663     1667     1667     1665     1663 
    1661     1664     1664     1663     1664     1664     1664     1664 
    1667     1667     1661     1664     1667     1663     1664     1664 
    1664     1667     1661     1661     1668     1663     1660     1665 
    1667     1664     1663     1665     1668     1665     1661     1663 
    1663     1665     1668     1664     1663     1663     1660     1663 
    1665     1663     1664     1665     1665     1667     1664     1663 
    1668     1667     1663     1664     1663     1660     1661     1664 
    1667     1668     1661     1659     1667     1672     1665     1661 
    1665     1669     1667     1663     1659     1657     1660     1663 
    1667     1671     1667     1663     1661     1661     1664     1665 
    1664     1663     1664     1668     1667     1660     1660     1664 
    1669     1671     1661     1657     1663     1663     1661     1663 
    1664     1663     1663     1665     1665     1663     1663     1665 
    1669     1671     1664     1657     1663     1665     1661     1664 
    1672     1669     1661     1667     1668     1660     1657     1664 
    1668     1669     1669     1665     1659     1663     1667     1659 
    1657     1668     1668     1667     1669     1664     1656     1661 
    1672     1669     1661     1667     1671     1659     1656     1663 
    1664     1665     1664     1661     1661     1661     1663     1664 
    1663     1668     1667     1659     1661     1665     1661     1663 
    1667     1661     1661     1664     1663     1663     1663     1664 
    1668     1667     1663     1663     1661     1659     1663     1661 
    1660     1667     1663     1661     1668     1664     1663     1664 
    1661     1667     1668     1663     1667     1663     1657     1663 
    1664     1663     1667     1668     1667     1664     1663     1668 
    1667     1663     1667     1665     1660     1663     1661     1663 
    1669     1668     1665     1664     1663     1665     1664     1661 
    1663     1665     1661     1661     1667     1669     1667     1663 
    1661     1664     1668     1665     1663     1665     1668     1664 
    1661     1664     1663     1660     1663     1664     1660     1663 
    1667     1667     1669     1669     1667     1665     1661     1660 
    1664     1667     1667     1663     1663     1665     1664     1661 
    1661     1667     1669     1665     1664     1667     1663     1661 
    1668     1668     1665     1665     1664     1663     1660     1665 
    1669     1663     1660     1660     1660     1669     1672     1663 
    1663     1669     1665     1660     1664     1665     1661     1661 
    1671     1668     1659     1663     1667     1663     1663     1664 
    1665     1667     1664     1661     1663     1664     1663     1665 
    1665     1663     1664     1661     1663     1668     1663     1661 
    1665     1661     1659     1664     1665     1664     1665     1667 
    1665     1663     1667     1668     1660     1663     1669     1659 
    1655     1671     1672     1663     1661     1663     1659     1657 
    1667     1669     1661     1659     1665     1668     1657     1655 
    1669     1672     1667     1661     1655     1664     1668     1659 
    1669     1678     1663     1652     1660     1672     1659     1653 
    1671     1667     1657     1665     1672     1664     1647     1657 
    1680     1675     1667     1659     1652     1664     1660     1651 
    1668     1675     1668     1667     1660     1655     1659     1665 
    1671     1671     1668     1665     1663     1659     1655     1660 
    1672     1675     1663     1655     1664     1665     1655     1663 
    1679     1674     1664     1653     1644     1663     1686     1671 
    1648     1656     1680     1672     1648     1657     1669     1665 
    1676     1671     1652     1656     1657     1660     1667     1663 
    1663     1661     1661     1671     1675     1665     1652     1640 
    1648     1687     1703     1660     1637     1661     1657     1653 
    1684     1684     1653     1642     1655     1665     1664     1671 
    1687     1672     1642     1645     1669     1675     1668     1659 
    1657     1671     1668     1653     1669     1672     1642     1661 
    1702     1668     1621     1652     1699     1665     1633     1679 
    1691     1644     1652     1683     1660     1652     1674     1671 
    1663     1660     1655     1663     1671     1661     1661     1676 
    1667     1645     1656     1683     1674     1652     1659     1665 
    1655     1665     1688     1668     1644     1657     1665     1661 
    1669     1674     1659     1652     1663     1669     1665     1665 
    1668     1665     1657     1661     1671     1664     1659     1663 
    1663     1667     1672     1657     1652     1665     1671     1663 
    1660     1669     1672     1667     1660     1647     1656     1684 
    1671     1648     1664     1678     1660     1651     1652     1661 
    1686     1676     1641     1657     1682     1657     1649     1668 
    1676     1680     1668     1644     1642     1671     1682     1655 
    1653     1688     1686     1636     1626     1675     1696     1676 
    1649     1636     1674     1694     1651     1645     1676     1679 
    1663     1642     1665     1699     1668     1629     1645     1674 
    1676     1664     1652     1656     1678     1672     1651     1659 
    1678     1679     1660     1651     1669     1671     1653     1657 
    1664     1669     1678     1660     1653     1674     1664     1652 
    1672     1672     1655     1668     1672     1656     1669     1672 
    1648     1653     1680     1684     1652     1640     1675     1678 
    1661     1674     1651     1651     1702     1665     1621     1672 
    1688     1659     1659     1667     1667     1657     1668     1684 
    1648     1629     1680     1688     1641     1645     1684     1687 
    1642     1624     1718     1748     1591     1579     1748     1709 
    1582     1667     1714     1624     1664     1713     1636     1626 
    1694     1706     1651     1625     1665     1679     1661     1669 
    1680     1672     1636     1638     1711     1690     1607     1653 
    1701     1668     1683     1665     1613     1680     1726     1638 
    1598     1664     1733     1711     1628     1647     1715     1663 
    1645     1705     1686     1684     1694     1606     1571     1584 
    1549     1580     1648     1699     1760     1759     1721     1690 
    1711     1699     1611     1707     1854     1818     1800     1655 
    1244     1170     1510     1653     1601     1698     1996     2061 
    1698     1557     1591     1509     1567     1568     1759     2131 
    2003     1684     1560     1478     1413     1309     1273     1668 
    2313     2423     1883     1323     1116     1093     1223     1756 
    2119     2052     1933     1502     1247     1672     2085     2195 
    2025     1615     1233     1003     1177     1682     1852     1721 
    1783     1811     1647     1680     1965     2049     1584     1116 
    1378     1825     1898     1948     1885     1529     1260     1239 
    1298     1443     1937     2490     2331     1707     1429     1412 
    1358     1445     1648     1734     1713     1694     1761     1702 
    1497     1571     1786     1776     1701     1669     1618     1580 
    1575     1582     1669     1819     1849     1749     1642     1464 
    1385     1664     1907     1867     1867     1796     1522     1432 
    1547     1525     1424     1486     1642     1711     1807     2011 
    2064     1863     1652     1576     1552     1632     1791     1723 
    1437     1210     1143     1296     1579     1887     2262     2371 
    2022     1760     1746     1556     1312     1367     1464     1409 
    1580     1879     1795     1632     1687     1601     1464     1575 
    1688     1723     1858     2003     1956     1680     1462     1548 
    1615     1505     1570     1688     1637     1730     1876     1736 
    1584     1611     1603     1552     1537     1543     1637     1721 
    1618     1512     1601     1750     1830     1873     1918     1908 
    1809     1705     1672     1628     1563     1618     1649     1459 
    1329     1386     1386     1428     1663     1876     1965     1987 
    1929     1798     1634     1518     1517     1583     1679     1784 
    1846     1827     1705     1568     1543     1545     1509     1563 
    1752     1860     1745     1620     1633     1583     1439     1447 
    1582     1660     1784     1991     1980     1755     1660     1648 
    1466     1313     1475     1726     1741     1668     1777     1877 
    1721     1609     1726     1691     1513     1586     1772     1771 
    1718     1746     1699     1520     1453     1561     1563     1474 
    1578     1744     1721     1713     1880     1952     1803     1667 
    1603     1578     1615     1613     1564     1609     1701     1710 
    1601     1475     1525     1686     1726     1706     1792     1894 
    1892     1846     1761     1566     1409     1463     1520     1491 
    1603     1742     1692     1644     1723     1765     1729     1728 
    1749     1690     1587     1567     1594     1588     1642     1767 
    1815     1740     1620     1537     1566     1715     1810     1696 
    1544     1557     1663     1686     1607     1653     1850     1823 
    1617     1607     1679     1688     1750     1786     1719     1630 
    1556     1518     1532     1595     1644     1559     1491     1648 
    1795     1767     1784     1810     1676     1599     1703     1723 
    1607     1645     1819     1811     1636     1560     1603     1630 
    1598     1588     1701     1759     1614     1529     1659     1698 
    1530     1513     1711     1787     1752     1818     1857     1737 
    1605     1578     1564     1479     1497     1726     1896     1844 
    1734     1641     1517     1420     1420     1526     1705     1833 
    1834     1809     1837     1823     1737     1669     1598     1512 
    1524     1609     1651     1688     1768     1753     1633     1614 
    1659     1594     1579     1647     1564     1482     1630     1780 
    1730     1676     1709     1745     1836     1902     1760     1605 
    1630     1628     1518     1544     1671     1633     1530     1586 
    1628     1571     1660     1825     1822     1745     1705     1648 
    1561     1547     1667     1773     1744     1641     1566     1578 
    1664     1771     1842     1800     1683     1648     1674     1620 
    1551     1605     1692     1699     1703     1707     1597     1472 
    1472     1493     1483     1574     1738     1807     1792     1809 
    1811     1682     1564     1706     1921     1890     1757     1772 
    1779     1580     1402     1493     1656     1675     1676     1759 
    1864     1965     2041     1984     1688     1331     1215     1297 
    1317     1215     1173     1360     1610     1636     1576     1707 
    1810     1706     1706     1815     1730     1667     1829     1948 
    1933     1877     1827     1865     1918     1864     1823     1908 
    1881     1571     1286     1192     1127     1125     1239     1440 
    1656     1676     1547     1536     1732     2035     2300     2470 
    2465     2139     1669     1417     1370     1306     1131      931 
    1028     1479     1721     1706     2095     2613     2446     1952 
    1845     1881     1574     1030      669      699      915     1104 
    1347     1683     2031     2312     2435     2527     2760     2832 
    2467     1929     1385      943      692      571      733      989 
    1155     1498     1876     2037     2149     2234     2100     1985 
    2106     2011     1572     1252     1152     1117     1097     1123 
    1310     1641     2007     2251     2334     2412     2407     2281 
    2049     1584     1162     1065     1073     1096     1341     1549 
    1495     1659     1987     1880     1584     1539     1512     1466 
    1690     2062     2197     2096     1890     1547     1425     1603 
    1536     1320     1340     1517     1800     1907     1622     1513 
    1729     1721     1479     1405     1548     1632     1753     2133 
    2342     2207     2038     1752     1343     1174     1282     1404 
    1555     1688     1467     1162     1104     1070     1312     1813 
    1988     2033     2170     2238     2342     2382     2214     1915 
    1478     1147     1143     1194     1129     1221     1574     1871 
    1915     1853     1910     2039     2010     1810     1510     1228 
    1228     1426     1572     1715     1837     1795     1614     1455 
    1603     2003     2160     2064     2029     1899     1505     1058 
     855     1055     1287     1329     1586     1929     1938     1956 
    2239     2366     2169     2015     1969     1773     1513     1347 
    1134      920      892      932     1030     1279     1451     1634 
    2081     2380     2388     2442     2419     2201     1999     1819 
    1640     1551     1451     1316     1351     1462     1445     1483 
    1647     1744     1811     1890     1767     1525     1539     1661 
    1591     1518     1437     1271     1398     1761     1880     1826 
    1838     1841     1764     1649     1615     1736     1759     1520 
    1344     1445     1625     1780     1960     2045     1923     1782 
    1684     1437     1244     1368     1522     1549     1591     1590 
    1541     1614     1787     1879     1822     1695     1626     1652 
    1671     1669     1776     1934     1926     1769     1706     1802 
    1854     1719     1529     1451     1453     1480     1537     1529 
    1432     1459     1586     1548     1512     1706     1873     1873 
    1903     1923     1730     1485     1489     1607     1597     1590 
    1675     1707     1757     1908     1960     1869     1825     1807 
    1709     1602     1602     1694     1718     1620     1544     1544 
    1591     1676     1705     1638     1579     1555     1522     1483 
    1422     1372     1463     1695     1863     1895     1933     1957 
    1829     1656     1593     1563     1526     1543     1620     1714 
    1750     1714     1660     1622     1567     1460     1351     1331 
    1448     1702     2010     2173     2133     2068     2010     1804 
    1564     1491     1516     1563     1601     1543     1447     1414 
    1420     1464     1570     1684     1790     1918     1999     1910 
    1741     1676     1649     1603     1611     1571     1449     1409 
    1426     1404     1399     1486     1680     1917     2023     1960 
    1864     1768     1595     1466     1548     1688     1730     1815 
    1933     1907     1833     1779     1692     1680     1730     1705 
    1624     1495     1375     1422     1567     1633     1593     1486 
    1441     1498     1561     1678     1840     1880     1823     1815 
    1821     1759     1676     1638     1644     1626     1579     1575 
    1593     1615     1694     1800     1864     1834     1730     1672 
    1665     1645     1669     1686     1580     1490     1507     1489 
    1406     1397     1482     1595     1705     1804     1894     1972 
    2015     1956     1782     1595     1509     1544     1620     1633 
    1579     1576     1641     1624     1539     1549     1606     1632 
    1730     1895     1915     1764     1628     1591     1624     1688 
    1722     1718     1714     1669     1564     1510     1582     1675 
    1686     1663     1647     1624     1614     1645     1682     1703 
    1753     1792     1698     1537     1529     1652     1695     1659 
    1715     1837     1871     1818     1726     1572     1456     1502 
    1601     1588     1534     1571     1644     1645     1656     1761 
    1853     1825     1711     1622     1624     1640     1597     1560 
    1599     1645     1634     1636     1669     1663     1680     1765 
    1796     1756     1749     1737     1657     1618     1620     1548 
    1482     1526     1626     1734     1815     1811     1748     1683 
    1659     1675     1669     1622     1557     1489     1480     1561 
    1660     1736     1779     1773     1746     1719     1691     1694 
    1736     1729     1669     1664     1698     1653     1556     1540 
    1610     1664     1674     1676     1678     1698     1772     1831 
    1728     1518     1443     1530     1602     1584     1547     1575 
    1667     1748     1757     1729     1750     1818     1854     1830 
    1738     1610     1541     1567     1595     1547     1486     1510 
    1632     1776     1848     1813     1773     1837     1908     1860 
    1733     1629     1593     1583     1512     1410     1398     1480 
    1556     1583     1595     1602     1618     1690     1782     1810 
    1783     1769     1799     1834     1827     1807     1795     1721 
    1575     1455     1429     1482     1545     1584     1606     1620 
    1630     1617     1606     1652     1680     1663     1688     1746 
    1761     1748     1761     1810     1809     1707     1602     1598 
    1667     1703     1680     1652     1620     1578     1578     1605 
    1593     1599     1668     1707     1691     1707     1764     1791 
    1753     1678     1595     1532     1541     1620     1696     1784 
    1881     1883     1786     1710     1661     1609     1590     1597 
