Origin Time       2025/03/30 10:46:00
Lat.              32.923
Long.             130.372
Depth. (km)       11
Mag.              3.4
Station Code      NGS010
Station Lat.      32.7351
Station Long.     129.8765
Station Height(m) 77
Record Time       2025/03/30 10:46:39
Sampling Freq(Hz) 100Hz
Duration Time(s)  60
Dir.              E-W
Scale Factor      7845(gal)/8223790
Max. Acc. (gal)   1.704
Last Correction   2025/03/30 10:46:39
Memo.             
    -596     -588     -584     -584     -581     -587     -584     -573 
    -583     -598     -596     -591     -581     -575     -583     -598 
    -600     -594     -588     -573     -571     -591     -583     -577 
    -615     -619     -572     -560     -579     -577     -576     -595 
    -606     -603     -591     -575     -580     -585     -572     -577 
    -596     -600     -599     -599     -592     -579     -572     -579 
    -583     -587     -588     -581     -589     -602     -591     -581 
    -580     -579     -580     -580     -585     -599     -604     -592 
    -580     -579     -572     -567     -584     -603     -611     -607 
    -592     -576     -560     -552     -571     -594     -598     -607 
    -615     -599     -580     -575     -564     -562     -587     -594 
    -591     -610     -611     -585     -579     -573     -565     -583 
    -598     -588     -587     -598     -596     -581     -572     -576 
    -572     -576     -594     -603     -615     -619     -581     -537 
    -545     -588     -602     -598     -602     -592     -592     -599 
    -579     -568     -573     -565     -575     -606     -604     -584 
    -594     -604     -585     -565     -554     -564     -595     -612 
    -610     -599     -594     -587     -569     -567     -565     -568 
    -599     -619     -607     -596     -587     -571     -556     -558 
    -583     -598     -604     -616     -616     -599     -576     -553 
    -549     -557     -575     -600     -621     -625     -618     -599 
    -576     -556     -545     -548     -564     -583     -608     -653 
    -661     -610     -561     -534     -521     -531     -571     -623 
    -643     -629     -626     -608     -558     -541     -553     -554 
    -560     -587     -626     -641     -623     -598     -562     -534 
    -545     -569     -585     -607     -622     -622     -612     -595 
    -565     -537     -545     -575     -596     -616     -629     -622 
    -602     -569     -544     -542     -556     -588     -618     -619 
    -608     -600     -592     -591     -584     -558     -546     -564 
    -589     -612     -627     -626     -603     -564     -548     -567 
    -579     -579     -587     -600     -608     -600     -591     -592 
    -592     -576     -549     -546     -581     -614     -619     -616 
    -603     -576     -567     -569     -569     -571     -580     -591 
    -599     -607     -607     -595     -572     -556     -561     -579 
    -595     -612     -616     -595     -567     -556     -572     -594 
    -598     -599     -598     -584     -579     -592     -592     -573 
    -562     -568     -584     -606     -614     -603     -589     -576 
    -557     -558     -587     -610     -610     -594     -585     -580 
    -579     -589     -585     -569     -576     -588     -598     -614 
    -608     -575     -548     -546     -568     -606     -631     -626 
    -600     -573     -556     -553     -565     -580     -596     -616 
    -621     -608     -600     -584     -545     -526     -548     -588 
    -631     -649     -622     -592     -569     -546     -556     -579 
    -587     -594     -604     -612     -618     -608     -567     -541 
    -557     -573     -592     -621     -611     -587     -595     -592 
    -562     -557     -577     -598     -610     -604     -589     -587 
    -581     -569     -572     -589     -598     -585     -585     -612 
    -612     -579     -565     -562     -560     -580     -608     -622 
    -619     -588     -542     -548     -603     -616     -588     -587 
    -587     -568     -580     -606     -595     -579     -576     -579 
    -594     -607     -595     -571     -575     -602     -600     -567 
    -557     -583     -606     -610     -607     -587     -561     -561 
    -572     -580     -598     -607     -595     -595     -607     -594 
    -560     -542     -558     -591     -612     -618     -612     -596 
    -568     -556     -575     -591     -588     -587     -587     -580 
    -580     -607     -622     -589     -557     -565     -584     -592 
    -599     -596     -583     -585     -589     -584     -584     -580 
    -560     -561     -602     -622     -606     -598     -592     -568 
    -553     -564     -587     -602     -604     -608     -611     -581 
    -549     -560     -587     -600     -606     -600     -583     -569 
    -567     -576     -608     -631     -596     -550     -546     -565 
    -595     -630     -629     -581     -548     -567     -595     -599 
    -588     -568     -575     -604     -599     -584     -596     -579 
    -557     -589     -611     -591     -587     -584     -569     -575 
    -587     -596     -603     -587     -579     -594     -584     -565 
    -572     -592     -602     -589     -577     -592     -589     -553 
    -533     -546     -591     -622     -607     -591     -584     -584 
    -622     -657     -650     -623     -579     -544     -530     -494 
    -488     -552     -591     -606     -629     -637     -683     -756 
    -734     -603     -486     -454     -456     -459     -483     -490 
    -518     -649     -810     -878     -816     -665     -552     -519 
    -472     -403     -376     -375     -394     -542     -832    -1021 
    -935     -675     -423     -380     -523     -571     -541     -531 
    -395     -334     -560     -781     -878     -928     -826     -560 
    -297     -202     -353     -676     -900     -757     -405     -241 
    -378     -716    -1061    -1062     -712     -392     -263     -220 
    -251     -561    -1032    -1008     -446     -120     -329     -746 
    -990     -880     -658     -557     -467     -392     -486     -631 
    -515     -213     -256     -710    -1005     -854     -672     -922 
   -1189     -795     -113      176      164        9     -510    -1291 
   -1583     -999     -361     -363     -529     -599     -853     -835 
    -148      384      130     -399     -823    -1390    -1809    -1520 
    -905     -361      234      567      229     -488     -950     -982 
    -957     -945     -550      -12     -234    -1113    -1440     -865 
    -202      -63     -321     -492     -434     -442     -638     -916 
   -1032     -832     -696     -795     -657     -267      -32       10 
    -224     -699     -955    -1048    -1206     -934     -259      -66 
    -263     -191     -229     -739    -1212    -1386    -1152     -248 
     575      336     -571    -1275    -1422    -1069     -537     -108 
      86      -52     -637    -1439    -1647     -967     -190       12 
    -166     -251     -371     -768     -912     -658     -637     -714 
    -432     -133     -194     -537    -1001    -1371    -1305     -665 
      90      278     -144     -598     -873    -1186    -1277     -851 
    -286      -63     -283     -488     -356     -355     -680    -1073 
   -1320     -939      -76      306      -97     -742    -1117    -1237 
   -1124     -534      101       71     -450     -849     -895     -781 
    -673     -475     -291     -357     -529     -621     -700     -776 
    -810     -808     -622     -288     -199     -342     -556     -905 
   -1101     -985     -869     -696     -249      144       28     -575 
   -1097     -950     -341      -48     -280     -737    -1236    -1449 
   -1109     -467      153      453      139     -495     -920    -1144 
   -1209     -951     -630     -577     -623     -584     -529     -445 
    -391     -396     -279     -214     -487     -745     -654     -560 
    -770     -989     -970     -940     -815     -309       74     -148 
    -573     -869    -1009     -784     -294      -29     -237     -720 
   -1032     -919     -560     -376     -453     -491     -576     -838 
    -913     -727     -544     -364     -234     -388     -680     -811 
    -909     -912     -537     -207     -268     -318     -349     -733 
   -1115     -982     -680     -639     -583     -329     -164     -201 
    -361     -638     -922    -1046     -945     -649     -441     -525 
    -611     -491     -313     -243     -418     -703     -727     -603 
    -660     -751     -789     -932     -886     -442     -166     -318 
    -476     -494     -465     -403     -413     -612     -918    -1096 
    -990     -625     -151       45     -307     -908    -1304    -1219 
    -625      -56      -10     -279     -583     -862     -864     -558 
    -491     -711     -603     -294     -398     -733     -830     -831 
    -904     -745     -290     -140     -468     -602     -383     -326 
    -546     -874    -1100     -950     -487      -60      -44     -550 
   -1026     -966     -751     -739     -648     -430     -356     -410 
    -511     -507     -349     -546    -1124    -1197     -600      -90 
     -74     -477     -896     -784     -309     -126     -369     -855 
   -1297    -1247     -764     -369     -202     -106     -245     -656 
    -851     -702     -648     -742     -641     -398     -314     -414 
    -606     -776     -741     -538     -492     -665     -746     -706 
    -747     -685     -364     -141     -228     -448     -733    -1143 
   -1366     -926     -203       35     -126     -371     -712     -972 
    -942     -784     -599     -328     -253     -525     -706     -710 
    -710     -453     -206     -459     -783     -828     -853     -816 
    -550     -257     -248     -481     -612     -680     -884     -926 
    -657     -400     -313     -291     -333     -626     -953     -845 
    -600     -573     -445     -280     -427     -691     -853    -1024 
    -984     -480     -133     -310     -426     -414     -656     -868 
    -724     -538     -634     -789     -695     -534     -513     -375 
    -172     -361     -706     -723     -729     -988    -1085     -803 
    -418     -252     -271     -237     -344     -769     -988     -742 
    -529     -441     -230     -251     -614     -751     -724     -982 
   -1112     -654     -230     -302     -459     -603     -687     -526 
    -496     -710     -865     -791     -448     -267     -328     -345 
    -720    -1193     -849     -236     -261     -507     -554     -598 
    -649     -657     -676     -697     -719     -710     -630     -522 
    -426     -371     -454     -607     -599     -534     -583     -654 
    -742     -822     -815     -715     -548     -356     -187     -286 
    -607     -730     -648     -629     -696     -600     -378     -504 
    -866     -865     -645     -664     -573     -253     -471     -940 
    -658     -118     -233     -672     -858     -962     -984     -538 
    -166     -337     -367     -353     -781     -919     -603     -616 
    -855     -688     -105      148     -492    -1370    -1507     -928 
    -349      -78      175      205     -472    -1200    -1077     -638 
    -675     -808     -687     -670     -700     -433     -167     -144 
    -222     -703    -1516    -1522     -615      -32      113      210 
    -434    -1453    -1251     -276     -167     -718     -981    -1011 
    -812     -122      382      -59     -781     -946    -1027    -1418 
   -1109      183      560     -652    -1336     -668     -102      -25 
    -125     -826    -1503    -1327    -1209    -1174       66     1200 
     167    -1316    -1190     -672     -675     -351      129     -206 
   -1100    -1598    -1439     -808      120      735      149    -1204 
   -1696    -1097     -282      373       75    -1248    -1714     -761 
    -164     -550     -568      303      518     -760    -1548     -855 
    -622    -1198    -1081     -580     -550     -422      189      675 
     537     -571    -2165    -2189     -572      -75     -935     -854 
       9     -121     -787     -463       74     -427     -989    -1051 
   -1302    -1127        8      733      163     -499     -535    -1075 
   -2106    -2029     -835       82      197      -55     -137       -1 
    -276     -970     -972     -392     -684    -1625    -1628     -471 
     469       -9     -958     -487      394     -338    -1347     -918 
    -490     -961     -735       52     -454    -1491    -1251     -342 
       9     -203     -441     -194      102     -608    -1656    -1497 
    -623     -220     -193     -257     -353     -311     -537    -1339 
   -1566     -664     -176     -630     -714     -203      -43     -359 
    -430     -171     -378    -1086    -1351    -1042     -946     -892 
    -152      399     -268     -999     -718     -403     -735     -896 
    -581     -492     -706     -589      -35      275     -245    -1178 
   -1651    -1502     -946     -118      264     -122     -441     -706 
   -1282    -1170     -342        6       79       29     -893    -1628 
    -876     -259     -827     -673      378      -72    -1598    -1513 
    -270     -232    -1053     -851      -37     -130     -662     -545 
     -99     -183     -818     -939     -388     -390     -874     -912 
    -874    -1186    -1209     -517      241      282     -156     -487 
    -700     -988    -1235    -1058     -460     -132     -427     -704 
    -409     -145     -664    -1381    -1205     -344      114       64 
     -28     -391    -1015    -1343    -1279    -1047     -831     -635 
    -236      149      103     -133     -402     -907    -1188     -845 
    -589     -765     -731     -714    -1125     -884      144      364 
    -129     -120     -211    -1189    -1998    -1707     -899     -224 
     129      -22     -352     -288     -167     -481     -627     -437 
    -847    -1453    -1244     -870     -722     -125      361     -133 
    -708     -564     -387     -499     -665     -932    -1042     -889 
    -951    -1154     -812       63      550      220     -414     -865 
   -1081    -1219    -1252     -946     -365        8     -189     -503 
    -422     -403     -642     -633     -580     -874    -1012     -758 
    -683     -781     -403      198      199     -369     -996    -1460 
   -1563    -1125     -360      225      278       12     -228     -649 
   -1262    -1494    -1231     -764     -217      167      101     -405 
    -842     -774     -623     -707     -631     -618    -1098    -1220 
    -494     -126     -495     -417      103        8     -592    -1070 
   -1312    -1012     -399     -418     -689     -276       51     -523 
   -1080     -897     -580     -544     -625     -747     -746     -507 
    -391     -508     -471     -415     -643     -746     -614     -556 
    -433     -315     -557     -897     -826     -488     -454     -523 
    -376     -693    -1228     -658      265     -118    -1065    -1252 
   -1053     -858     -403      105      209     -220     -947    -1382 
   -1194     -584       -2      -33     -584     -719     -317     -411 
   -1121    -1389    -1100     -835     -395      183      326      145 
    -151     -922    -1792    -1715     -934     -465     -232      141 
     268     -153     -789    -1008     -712     -583     -895    -1042 
    -714     -340     -290     -480     -638     -668     -670     -549 
    -292     -337     -658     -756     -819    -1011     -743     -253 
    -436     -772     -491     -348     -588     -361     -128     -687 
   -1140     -922     -831     -912     -665     -426     -368     -117 
      72     -333     -838     -778     -710     -989     -920     -473 
    -468     -892     -853     -301     -144     -421     -442     -371 
    -542     -642     -723    -1016     -970     -487     -450     -820 
    -657     -157      -86     -295     -544     -936    -1142     -835 
    -425     -252     -189     -305     -599     -816     -980    -1105 
    -981     -580     -148      -20     -318     -760     -935     -785 
    -558     -356     -213     -386     -930    -1235     -857     -419 
    -467     -538     -346     -251     -502     -915     -880     -307 
    -113     -548     -845     -843     -874     -849     -589     -202 
     -87     -454     -766     -665     -637     -865     -938     -751 
    -457     -207     -247     -554     -699     -444     -179     -429 
    -938    -1108     -990     -872     -693     -356      -95     -151 
    -282     -394     -737    -1044     -859     -568     -630     -581 
    -352     -639    -1001     -596     -144     -425     -819     -745 
    -595     -554     -328     -257     -743    -1148     -899     -440 
    -346     -550     -610     -460     -486     -702     -737     -622 
    -564     -461     -395     -573     -664     -502     -567     -792 
    -675     -521     -761     -862     -419     -117     -288     -460 
    -719    -1150    -1066     -515     -361     -550     -533     -433 
    -417     -437     -562     -704     -699     -580     -589     -731 
    -631     -376     -390     -623     -738     -599     -504     -677 
    -738     -537     -535     -787     -724     -292     -126     -373 
    -580     -664     -814     -928     -866     -707     -538     -419 
    -484     -625     -544     -367     -383     -521     -650     -696 
    -653     -726     -904     -905     -691     -459     -378     -406 
    -382     -307     -317     -486     -668     -707     -827    -1134 
   -1229     -849     -291      -18      -89     -287     -530     -729 
    -772     -773     -819     -778     -594     -351     -243     -325 
    -437     -585     -778     -919     -961     -787     -564     -518 
    -338      -24     -175     -704     -896     -831     -869     -700 
    -319     -319     -685     -738     -449     -378     -510     -631 
    -780     -832     -749     -676     -569     -359     -288     -541 
    -758     -672     -569     -495     -306     -457     -946     -903 
    -502     -584     -747     -476     -328     -573     -754     -707 
    -604     -504     -423     -410     -490     -584     -572     -581 
    -716     -649     -403     -530     -866     -839     -700     -685 
    -561     -531     -637     -465     -247     -365     -469     -500 
    -882    -1209     -934     -490     -224      -68     -194     -540 
    -761     -866     -946     -788     -437     -353     -519     -573 
    -600     -697     -720     -666     -531     -349     -369     -623 
    -834     -823     -657     -491     -376     -328     -480     -780 
    -846     -622     -487     -484     -531     -764     -901     -639 
    -371     -388     -434     -449     -631     -864     -874     -727 
    -615     -531     -386     -245     -325     -591     -754     -768 
    -774     -756     -585     -371     -373     -487     -550     -670 
    -723     -688     -800     -808     -475     -276     -442     -567 
    -584     -699     -627     -284     -326     -855    -1125     -785 
    -217       -4     -288     -679     -935    -1028     -754     -265 
    -191     -606     -903     -814     -599     -481     -479     -510 
    -614     -765     -649     -363     -372     -602     -699     -670 
    -648     -600     -556     -623     -643     -529     -521     -577 
    -530     -541     -703     -729     -517     -477     -642     -691 
    -718     -735     -581     -498     -552     -394     -180     -405 
    -773     -855     -862     -805     -521     -315     -402     -542 
    -627     -741     -735     -544     -433     -452     -427     -413 
    -595     -886     -996     -874     -633     -332     -168     -311 
    -599     -724     -695     -730     -668     -382     -353     -729 
    -923     -720     -519     -511     -494     -386     -452     -751 
