Origin Time       2025/03/30 10:46:00
Lat.              32.923
Long.             130.372
Depth. (km)       11
Mag.              3.4
Station Code      SAG005
Station Lat.      33.3213
Station Long.     130.0645
Station Height(m) 47
Record Time       2025/03/30 10:46:37
Sampling Freq(Hz) 100Hz
Duration Time(s)  60
Dir.              N-S
Scale Factor      7845(gal)/8223790
Max. Acc. (gal)   2.921
Last Correction   2025/03/30 10:46:37
Memo.             
    8024     8031     8021     8019     8037     8039     8016     8020 
    8028     8020     8028     8031     8021     8025     8027     8024 
    8025     8023     8025     8031     8027     8024     8027     8025 
    8021     8025     8027     8024     8021     8017     8028     8035 
    8019     8024     8041     8021     8002     8020     8028     8023 
    8024     8024     8025     8032     8027     8019     8021     8028 
    8021     8019     8032     8035     8020     8021     8032     8028 
    8020     8019     8023     8028     8032     8025     8019     8020 
    8024     8032     8027     8024     8032     8020     8016     8036 
    8031     8017     8020     8021     8023     8036     8029     8016 
    8027     8029     8021     8023     8025     8027     8028     8021 
    8024     8028     8020     8021     8035     8027     8013     8027 
    8033     8023     8019     8021     8027     8031     8023     8025 
    8033     8023     8016     8024     8028     8035     8037     8019 
    8006     8023     8033     8024     8024     8024     8017     8024 
    8028     8023     8025     8031     8024     8021     8024     8023 
    8019     8024     8033     8029     8023     8024     8020     8016 
    8032     8040     8020     8016     8031     8021     8013     8035 
    8040     8019     8010     8029     8043     8029     8014     8017 
    8025     8032     8033     8021     8010     8027     8039     8024 
    8017     8023     8016     8024     8040     8032     8023     8016 
    8010     8031     8037     8025     8024     8016     8019     8033 
    8027     8024     8029     8016     8016     8035     8035     8020 
    8016     8023     8032     8036     8032     8023     8012     8016 
    8037     8037     8016     8016     8029     8028     8023     8023 
    8023     8024     8025     8023     8028     8029     8017     8016 
    8029     8032     8024     8019     8025     8025     8020     8031 
    8035     8019     8020     8035     8027     8017     8023     8023 
    8027     8028     8024     8025     8021     8019     8031     8032 
    8014     8017     8032     8025     8020     8025     8025     8020 
    8021     8032     8032     8021     8021     8028     8024     8023 
    8033     8028     8017     8021     8027     8029     8028     8023 
    8023     8025     8024     8025     8023     8019     8025     8031 
    8031     8025     8012     8019     8037     8025     8014     8027 
    8029     8024     8023     8023     8028     8031     8027     8028 
    8021     8017     8028     8032     8027     8023     8024     8029 
    8024     8016     8023     8029     8027     8028     8025     8019 
    8028     8033     8020     8017     8024     8028     8029     8028 
    8021     8019     8025     8033     8025     8013     8019     8025 
    8029     8035     8021     8016     8029     8028     8020     8027 
    8029     8025     8024     8023     8029     8029     8020     8024 
    8024     8019     8021     8028     8033     8027     8014     8024 
    8033     8021     8020     8029     8031     8025     8019     8020 
    8029     8029     8027     8028     8023     8021     8025     8025 
    8027     8027     8025     8028     8024     8020     8021     8029 
    8033     8025     8021     8029     8024     8012     8019     8028 
    8032     8033     8024     8014     8021     8028     8025     8025 
    8028     8024     8027     8033     8021     8014     8032     8033 
    8021     8024     8020     8014     8029     8036     8024     8019 
    8025     8031     8024     8016     8020     8028     8032     8025 
    8017     8025     8035     8027     8017     8019     8027     8028 
    8021     8024     8025     8020     8021     8027     8031     8027 
    8020     8025     8033     8021     8017     8029     8029     8020 
    8016     8021     8031     8029     8021     8017     8021     8029 
    8029     8019     8016     8025     8033     8033     8024     8017 
    8021     8024     8025     8029     8028     8023     8021     8027 
    8025     8021     8031     8036     8019     8012     8031     8040 
    8021     8008     8024     8033     8021     8024     8027     8017 
    8025     8032     8021     8016     8020     8025     8029     8023 
    8020     8028     8028     8020     8020     8021     8023     8029 
    8031     8021     8023     8029     8032     8025     8014     8019 
    8032     8025     8019     8029     8031     8019     8019     8031 
    8029     8014     8017     8032     8033     8017     8010     8025 
    8037     8029     8016     8023     8032     8025     8014     8021 
    8027     8028     8032     8024     8012     8017     8027     8028 
    8028     8023     8014     8028     8044     8017     8000     8035 
    8046     8014     8004     8029     8055     8027     7987     8019 
    8058     8024     8001     8035     8037     8012     8024     8040 
    8016     8012     8039     8037     8017     8010     8021     8031 
    8031     8024     8017     8021     8028     8023     8019     8024 
    8027     8025     8025     8028     8021     8019     8028     8029 
    8019     8025     8036     8025     8010     8019     8035     8035 
    8021     8006     8019     8048     8029     7997     8029     8048 
    8010     8002     8035     8037     8009     8014     8044     8032 
    8005     8013     8032     8031     8019     8016     8027     8039 
    8027     8013     8020     8029     8031     8027     8016     8017 
    8033     8028     8016     8025     8033     8024     8016     8023 
    8023     8025     8029     8025     8027     8029     8017     8017 
    8037     8031     8004     8019     8043     8023     8009     8032 
    8035     8019     8021     8028     8020     8024     8031     8020 
    8017     8028     8029     8029     8028     8017     8020     8036 
    8029     8006     8019     8037     8021     8009     8024     8036 
    8031     8024     8017     8014     8029     8040     8021     8012 
    8029     8032     8016     8017     8029     8028     8019     8021 
    8028     8023     8017     8025     8031     8024     8020     8024 
    8023     8025     8031     8019     8020     8033     8024     8019 
    8023     8020     8027     8031     8025     8020     8021     8028 
    8027     8025     8025     8013     8024     8044     8019     8002 
    8036     8044     8016     8008     8027     8040     8024     8010 
    8025     8033     8024     8024     8020     8019     8024     8024 
    8029     8031     8020     8023     8027     8025     8021     8017 
    8032     8044     8029     8009     8014     8031     8025     8023 
    8027     8021     8021     8027     8028     8023     8019     8024 
    8027     8023     8021     8024     8028     8029     8025     8016 
    8021     8032     8019     8014     8040     8032     8013     8029 
    8023     8012     8033     8021     8014     8043     8029     8006 
    8021     8035     8035     8027     8025     8039     8044     8040 
    8035     8032     8002     7916     7882     8032     8291     8382 
    8066     7585     7519     7982     8449     8461     8101     7696 
    7507     7700     8176     8503     8392     8108     7963     7781 
    7578     7897     8580     8596     7851     7476     7827     8193 
    8268     8135     7963     7863     7821     8224     8476     7723 
    7346     8054     8596     8432     7840     7616     7916     7990 
    8148     8397     8058     7757     8005     8166     7846     7627 
    8178     8687     8249     7798     7828     7585     7484     8309 
    9157     8623     7188     6963     8181     8770     8245     7808 
    7790     7861     7927     8186     8347     7924     7719     8198 
    8444     8101     7578     7454     7974     8536     8548     8000 
    7457     7709     8491     8549     7858     7657     7993     8121 
    8021     7842     7846     8257     8546     8191     7607     7531 
    7786     8004     8557     8893     8023     6839     7002     8542 
    9468     8594     7419     7257     7730     8182     8291     8322 
    8314     7865     7562     7898     8195     8179     8091     7973 
    7909     7951     7969     7909     7977     8239     8306     8014 
    7832     7927     8001     8137     8247     8020     7765     7730 
    7900     8263     8449     8297     7981     7684     7759     8063 
    8136     8090     8023     7975     7998     7943     8017     8182 
    8128     8170     8135     7620     7441     8143     8795     8382 
    7450     7458     8195     8351     8120     8113     8016     7805 
    7777     7973     8232     8329     8221     7908     7661     7809 
    8125     8283     8160     7919     7889     8021     8151     8203 
    7979     7738     7906     8147     8079     8009     8087     7950 
    7688     7958     8617     8579     7712     7333     7896     8365 
    8283     8105     8051     7869     7615     7912     8460     8352 
    7938     7831     7846     7912     8175     8364     8109     7731 
    7719     8005     8240     8145     7983     8031     7956     7871 
    8066     8252     8195     7925     7812     7993     7989     7935 
    8143     8244     8133     7979     7843     7878     8078     8257 
    8179     7821     7661     7938     8279     8336     8071     7820 
    7882     8029     8090     8056     7932     7959     8100     8159 
    8136     7875     7672     8012     8409     8287     7915     7722 
    7819     8063     8298     8363     8046     7577     7582     8159 
    8569     8247     7724     7720     8058     8225     8175     8068 
    7892     7815     7978     8078     8064     8094     8032     7915 
    7981     8220     8235     7875     7742     7977     8113     8136 
    8117     8055     7954     7817     7958     8253     8302     8163 
    7861     7597     7711     8131     8575     8415     7666     7445 
    7950     8361     8322     8097     8006     7877     7769     8039 
    8244     8074     7982     7983     7839     7830     8116     8336 
    8183     7911     7927     8090     8098     8032     7965     7870 
    7867     8039     8249     8260     8008     7801     7843     7989 
    8163     8252     8093     7825     7831     8090     8137     7996 
    8062     8235     8074     7668     7784     8264     8171     7965 
    8141     8033     7784     7877     8085     8201     8143     8066 
    7938     7707     7960     8455     8303     7808     7782     8224 
    8310     7751     7511     7962     8212     8156     8325     8268 
    7821     7699     7987     8278     8282     7959     7624     7623 
    8078     8461     8274     7977     7998     8067     7830     7631 
    8081     8569     8360     7875     7527     7676     8298     8390 
    7906     7792     8020     8158     8141     8043     7919     7840 
    8055     8256     8086     8031     7963     7674     7890     8437 
    8472     8014     7650     7732     8031     8202     8090     7915 
    8074     8190     7940     7834     8101     8290     8048     7763 
    7843     8109     8318     8116     7720     7842     8149     8167 
    8102     7981     7892     7962     8101     8178     8086     8019 
    7959     7754     7846     8317     8382     7919     7890     8170 
    7788     7576     8289     8594     8052     7685     7766     8050 
    8225     8054     7948     8120     8162     7959     7825     8020 
    8164     7977     8089     8245     7750     7523     7919     8239 
    8540     8461     7865     7709     7956     8033     8062     8029 
    7947     7892     7852     8122     8313     7990     7939     8240 
    8286     7992     7542     7790     8378     8016     7686     8113 
    8347     8220     7904     7685     7858     8112     8317     8240 
    7847     7680     7854     8260     8403     7993     7927     8280 
    8101     7599     7678     8206     8320     8014     7878     7950 
    8064     8174     8218     8043     7695     7732     8129     8255 
    8137     7989     7900     8021     8176     8216     8104     7789 
    7654     7929     8221     8128     7832     7971     8370     8272 
    7933     7913     8081     8135     8028     7815     7636     7852 
    8270     8294     8086     7951     7905     7983     8050     8085 
    8151     8160     8023     7838     7874     8027     8094     8154 
    8122     7952     7854     7996     8210     8071     7753     7932 
    8411     8248     7645     7659     8012     8097     8355     8542 
    8087     7541     7646     8326     8588     8010     7514     7624 
    7973     8162     8093     7990     7894     7835     8189     8568 
    8193     7646     7769     8059     8005     7901     8075     8429 
    8287     7697     7766     8314     8386     8334     8190     7480 
    7281     8154     8618     7939     7319     7906     8642     8116 
    7456     7951     8795     8671     7639     7314     8289     8980 
    8398     7456     7107     7284     7908     8731     8553     7574 
    7566     8230     8214     8033     8179     8102     8000     8036 
    7631     7464     8779    10000     8511     6250     6729     7889 
    7030     7204     9971    10818     7825     5475     7018    10092 
   10380     7345     5317     6791     9027     9378     8530     8293 
    8298     7318     6979     7888     8148     8120     8228     7727 
    7542     8140     8753     9327     9101     6764     4963     7119 
    9914     9674     8476     7584     6633     7013     9045     9865 
    7549     6111     8433     9734     7993     7242     8376     9036 
    7944     6376     6976     8542     8252     7869     8730     8698 
    7537     7028     7812     8560     8291     8619     9524     8468 
    6143     6069     8675    10079     8429     6598     6663     7742 
    8576     9113     9165     8019     6933     6808     6971     8041 
    9649    10207     9097     6663     5540     7238     9201     9355 
    7815     6378     7241     8938     9296     9158     8631     7622 
    7269     7373     7560     7695     7576     8249     9290     8712 
    7358     7431     8316     8357     7680     7067     7503     8903 
    9047     7707     7010     7774     9228     9354     7681     6578 
    7045     8491     9718     8893     7246     7150     7685     7827 
    8024     8272     8174     7713     7804     8378     8185     7881 
    8419     8692     8148     7634     7562     7780     7770     7472 
    7809     8521     8448     7963     8044     8677     8934     8321 
    7384     6849     7296     8144     8251     7973     7979     8298 
    8818     8958     8367     7658     7458     7299     6790     7203 
    8773     9175     8066     8021     9035     8680     7352     6961 
    7609     8482     8559     7832     7508     7782     8181     8513 
    8511     8043     7555     7888     8371     7755     7292     8017 
    8760     8849     8160     7074     6804     7662     8969     9189 
    7697     7033     8449     9435     8576     7277     6994     7398 
    7690     8201     8671     8378     8094     8383     8322     7611 
    7408     8070     8464     8145     7596     7508     8356     8924 
    8152     7198     7229     8225     8961     8433     7454     7034 
    7794     9116     9073     7801     6959     7345     8480     8850 
    8230     7515     7217     8116     9375     8889     7103     6301 
    7524     9134     9097     8240     7669     7190     7273     7901 
    8664     9379     8893     7445     6928     7581     8230     8144 
    7785     7865     8174     8448     8452     8006     7839     8278 
    8251     7308     6936     7858     8391     8112     8584     9263 
    8590     7333     7015     7754     8351     7997     7591     7906 
    8371     8388     7912     7616     8108     8583     8357     7940 
    7690     7958     8695     8499     7188     6673     7449     8255 
    8653     8803     8631     8275     7882     7653     7893     8167 
    8036     7726     7337     7288     8008     8789     8808     8212 
    7870     8051     7987     7770     7912     7851     7755     8355 
    8683     7811     7056     7673     8684     8807     8271     7863 
    7859     7987     8019     8113     8132     7824     7599     7653 
    7766     8044     8422     8575     8210     7623     7870     8671 
    8499     7604     7632     8357     7951     6913     7285     8546 
    9024     8515     7744     7722     8344     8356     7869     7874 
    7942     7533     7546     8237     8407     8020     8217     8661 
    8171     7330     7659     8424     8136     7861     8191     7874 
    7402     7877     8518     8451     8005     7825     8000     8151 
    8133     8183     8085     7531     7550     8472     8549     7574 
    7240     7960     8739     8552     7928     7978     8060     7778 
    7889     8160     8087     7908     7875     7938     7916     8023 
    8394     8461     8040     7624     7639     8066     8337     8109 
    7624     7492     8122     8749     8607     8068     7663     7757 
    8067     8017     7881     7869     7870     8102     8384     8301 
    7912     7730     8035     8322     8195     7776     7474     7938 
    8654     8325     7414     7441     8356     8729     8009     7419 
    7951     8689     8478     7747     7585     8017     8118     7782 
    7869     8244     8073     7769     8055     8360     8143     8036 
    8284     8162     7658     7542     7956     8232     7950     7661 
    7904     8460     8729     8235     7626     7784     8197     8137 
    7722     7506     7888     8397     8352     8029     7986     8109 
    8178     8124     7848     7585     7674     8167     8552     8245 
    7865     7989     7931     7705     8068     8479     8104     7584 
    7788     8355     8430     8000     7805     7912     7852     7874 
    8151     8236     8009     7879     8095     8245     8105     7993 
    7919     7830     7857     8098     8437     8220     7597     7634 
    8187     8413     8193     7971     7986     7862     7663     7902 
    8290     8245     7906     7824     8052     8289     8397     8179 
    7757     7665     7921     8108     8143     8124     7989     7851 
    7983     8239     8128     7840     8048     8274     7870     7627 
    7997     8326     8235     7897     7711     7921     8276     8257 
    7936     7906     8102     8140     8073     7939     7870     7956 
    8055     8106     8035     7992     8056     8006     8089     8298 
    8036     7645     7877     8275     8144     7846     7870     8035 
    8013     7947     8147     8268     8035     7952     8037     7965 
    7975     8004     7825     7809     8159     8411     8117     7759 
    8020     8411     8222     7771     7749     8043     8032     7935 
    8139     8189     7966     7863     7936     8093     8193     8110 
    7900     7789     8101     8436     8027     7443     7719     8452 
    8484     7793     7655     8251     8316     7882     7917     8149 
    7977     7761     7967     8262     8268     8162     7993     7711 
    7686     8174     8553     8167     7553     7611     8174     8382 
    8059     7863     8019     8112     8037     8019     7997     7915 
    8074     8303     8098     7763     7759     7948     8093     8144 
