Origin Time       2025/03/30 10:46:00
Lat.              32.923
Long.             130.372
Depth. (km)       11
Mag.              3.4
Station Code      SAG005
Station Lat.      33.3213
Station Long.     130.0645
Station Height(m) 47
Record Time       2025/03/30 10:46:37
Sampling Freq(Hz) 100Hz
Duration Time(s)  60
Dir.              E-W
Scale Factor      7845(gal)/8223790
Max. Acc. (gal)   1.932
Last Correction   2025/03/30 10:46:37
Memo.             
[...]
  -13305   -13313   -13309   -13301   -13297   -13296   -13294   -13292 
  -13298   -13304   -13298   -13296   -13298   -13300   -13297   -13304 
  -13317   -13312   -13294   -13300   -13317   -13308   -13289   -13294 
  -13308   -13308   -13301   -13292   -13292   -13305   -13306   -13297 
  -13300   -13306   -13304   -13304   -13312   -13309   -13300   -13300 
  -13302   -13300   -13296   -13294   -13298   -13306   -13302   -13294 
  -13294   -13297   -13304   -13312   -13308   -13304   -13306   -13308 
  -13300   -13300   -13304   -13302   -13300   -13301   -13301   -13301 
  -13298   -13290   -13296   -13302   -13308   -13313   -13308   -13294 
  -13297   -13315   -13308   -13293   -13296   -13301   -13308   -13305 
  -13296   -13290   -13290   -13300   -13305   -13306   -13306   -13308 
  -13312   -13309   -13301   -13298   -13296   -13296   -13304   -13308 
  -13302   -13300   -13298   -13290   -13286   -13304   -13321   -13309 
  -13300   -13306   -13305   -13301   -13301   -13298   -13304   -13309 
  -13306   -13304   -13293   -13281   -13288   -13302   -13311   -13306 
  -13298   -13301   -13309   -13309   -13304   -13302   -13304   -13306 
  -13305   -13297   -13294   -13301   -13300   -13296   -13300   -13300 
  -13296   -13292   -13298   -13316   -13321   -13312   -13301   -13290 
  -13290   -13300   -13308   -13315   -13306   -13290   -13293   -13297 
  -13292   -13296   -13305   -13309   -13311   -13309   -13302   -13298 
  -13302   -13308   -13311   -13308   -13302   -13298   -13294   -13290 
  -13294   -13301   -13300   -13296   -13298   -13306   -13313   -13304 
  -13300   -13302   -13300   -13308   -13315   -13304   -13293   -13296 
  -13302   -13301   -13292   -13293   -13304   -13306   -13306   -13301 
  -13294   -13304   -13309   -13306   -13312   -13311   -13298   -13290 
  -13284   -13293   -13311   -13313   -13305   -13296   -13282   -13289 
  -13315   -13316   -13302   -13305   -13308   -13304   -13304   -13301 
  -13298   -13301   -13302   -13297   -13293   -13298   -13304   -13293 
  -13296   -13311   -13311   -13304   -13301   -13302   -13308   -13304 
  -13300   -13305   -13298   -13305   -13317   -13302   -13286   -13285 
  -13286   -13302   -13316   -13312   -13308   -13300   -13300   -13306 
  -13300   -13301   -13309   -13311   -13309   -13296   -13288   -13297 
  -13300   -13293   -13298   -13302   -13305   -13308   -13304   -13301 
  -13304   -13306   -13311   -13306   -13297   -13294   -13304   -13308 
  -13301   -13294   -13296   -13304   -13297   -13290   -13300   -13304 
  -13306   -13316   -13311   -13304   -13301   -13296   -13301   -13305 
  -13304   -13305   -13302   -13297   -13289   -13289   -13304   -13309 
  -13304   -13304   -13305   -13305   -13308   -13305   -13304   -13308 
  -13306   -13297   -13292   -13300   -13300   -13294   -13304   -13301 
  -13294   -13298   -13302   -13305   -13306   -13304   -13312   -13311 
  -13296   -13300   -13309   -13302   -13297   -13296   -13301   -13308 
  -13296   -13288   -13297   -13301   -13305   -13311   -13309   -13309 
  -13305   -13301   -13298   -13294   -13302   -13309   -13300   -13293 
  -13296   -13300   -13297   -13293   -13296   -13304   -13306   -13304 
  -13308   -13319   -13308   -13286   -13297   -13313   -13308   -13300 
  -13294   -13293   -13301   -13305   -13296   -13297   -13309   -13308 
  -13300   -13305   -13302   -13300   -13312   -13309   -13301   -13305 
  -13301   -13290   -13296   -13300   -13297   -13293   -13294   -13301 
  -13306   -13315   -13316   -13301   -13290   -13298   -13313   -13315 
  -13304   -13297   -13294   -13297   -13304   -13300   -13293   -13294 
  -13297   -13305   -13311   -13301   -13296   -13305   -13317   -13315 
  -13302   -13298   -13300   -13293   -13282   -13294   -13317   -13311 
  -13289   -13292   -13304   -13297   -13298   -13313   -13305   -13300 
  -13321   -13319   -13285   -13281   -13305   -13311   -13308   -13315 
  -13302   -13279   -13277   -13301   -13316   -13296   -13294   -13323 
  -13315   -13294   -13300   -13305   -13304   -13300   -13293   -13297 
  -13306   -13308   -13293   -13284   -13300   -13308   -13304   -13305 
  -13305   -13305   -13309   -13304   -13300   -13298   -13300   -13304 
  -13304   -13300   -13298   -13297   -13298   -13293   -13288   -13298 
  -13315   -13315   -13300   -13302   -13311   -13292   -13296   -13323 
  -13306   -13285   -13298   -13308   -13296   -13286   -13296   -13309 
  -13306   -13297   -13290   -13308   -13319   -13300   -13301   -13315 
  -13305   -13292   -13296   -13305   -13308   -13304   -13301   -13292 
  -13290   -13301   -13301   -13302   -13306   -13304   -13306   -13302 
  -13301   -13308   -13301   -13300   -13308   -13308   -13297   -13284 
  -13292   -13301   -13298   -13300   -13301   -13304   -13308   -13304 
  -13301   -13305   -13316   -13308   -13286   -13293   -13306   -13301 
  -13300   -13296   -13284   -13292   -13313   -13312   -13288   -13290 
  -13315   -13313   -13304   -13309   -13304   -13290   -13298   -13308 
  -13300   -13297   -13302   -13294   -13297   -13305   -13296   -13290 
  -13302   -13308   -13309   -13311   -13304   -13297   -13300   -13309 
  -13312   -13304   -13292   -13292   -13300   -13301   -13298   -13296 
  -13296   -13305   -13308   -13306   -13305   -13298   -13302   -13311 
  -13306   -13300   -13301   -13305   -13297   -13289   -13293   -13301 
  -13304   -13301   -13300   -13305   -13309   -13306   -13306   -13308 
  -13298   -13294   -13302   -13305   -13302   -13304   -13305   -13297 
  -13290   -13298   -13300   -13292   -13302   -13308   -13306   -13312 
  -13311   -13302   -13301   -13308   -13315   -13298   -13286   -13293 
  -13300   -13305   -13308   -13301   -13286   -13288   -13308   -13311 
  -13298   -13305   -13317   -13312   -13301   -13301   -13301   -13297 
  -13300   -13305   -13305   -13298   -13289   -13292   -13306   -13306 
  -13286   -13308   -13351   -13297   -13244   -13317   -13342   -13290 
  -13296   -13309   -13293   -13293   -13311   -13308   -13285   -13286 
  -13305   -13313   -13311   -13302   -13316   -13332   -13319   -13308 
  -13316   -13319   -13294   -13239   -13190   -13227   -13389   -13555 
  -13517   -13247   -12982   -12939   -13120   -13495   -13872   -13747 
  -13022   -12526   -12899   -13497   -13535   -13409   -13676   -13851 
  -13300   -12615   -12839   -13533   -13518   -13342   -13780   -13529 
  -12510   -12696   -13653   -13662   -12958   -12881   -14019   -14490 
  -12987   -11986   -12892   -13814   -13755   -13400   -13116   -13034 
  -13377   -13670   -13393   -13068   -13184   -13494   -13543   -13070 
  -12731   -13255   -13645   -13355   -13444   -13451   -12957   -13200 
  -13628   -13429   -13294   -13166   -13163   -13316   -13176   -13386 
  -13556   -13008   -13055   -13679   -13612   -13231   -13019   -12985 
  -13288   -13529   -13566   -13593   -13196   -12660   -12860   -13486 
  -13906   -13894   -13313   -12688   -12748   -13359   -13802   -13644 
  -13070   -12845   -13468   -13956   -13313   -12464   -12679   -13695 
  -14166   -13417   -12621   -13051   -13925   -13786   -12949   -12675 
  -13066   -13452   -13648   -13753   -13572   -13011   -12702   -13093 
  -13663   -13709   -13227   -12982   -13284   -13414   -13196   -13177 
  -13425   -13556   -13294   -13035   -13273   -13491   -13236   -13042 
  -13333   -13714   -13482   -12958   -13108   -13510   -13428   -13246 
  -13158   -13100   -13230   -13478   -13651   -13527   -13107   -12906 
  -13182   -13478   -13459   -13269   -13205   -13393   -13366   -13140 
  -13315   -13506   -13381   -13158   -12900   -13212   -13903   -13763 
  -13097   -12897   -13024   -13081   -13200   -13582   -13811   -13435 
  -13059   -13194   -13293   -13185   -13262   -13460   -13497   -13248 
  -12954   -13099   -13556   -13670   -13331   -13043   -13188   -13502 
  -13414   -13089   -13147   -13437   -13408   -13204   -13325   -13466 
  -13095   -12860   -13393   -13880   -13610   -13153   -13045   -13112 
  -13263   -13485   -13458   -13184   -13045   -13173   -13398   -13420 
  -13246   -13319   -13585   -13459   -13074   -13100   -13365   -13348 
  -13294   -13335   -13243   -13290   -13374   -13198   -13342   -13606 
  -13261   -12942   -13151   -13497   -13676   -13308   -12799   -13135 
  -13664   -13370   -13054   -13414   -13656   -13331   -13018   -13119 
  -13408   -13428   -13312   -13463   -13355   -12897   -13034   -13517 
  -13539   -13311   -13258   -13427   -13448   -13163   -13085   -13324 
  -13394   -13230   -13209   -13367   -13393   -13263   -13198   -13336 
  -13517   -13379   -13146   -13269   -13370   -13171   -13155   -13344 
  -13321   -13207   -13352   -13616   -13501   -13070   -13018   -13416 
  -13551   -13236   -13097   -13221   -13193   -13294   -13568   -13448 
  -13208   -13297   -13332   -13159   -13165   -13385   -13485   -13342 
  -13212   -13338   -13412   -13146   -13047   -13309   -13421   -13431 
  -13520   -13450   -13132   -12775   -12935   -13652   -13909   -13404 
  -13000   -13080   -13320   -13416   -13329   -13296   -13333   -13305 
  -13371   -13400   -13078   -12893   -13234   -13545   -13559   -13440 
  -13182   -13128   -13406   -13417   -13230   -13297   -13267   -13092 
  -13215   -13354   -13347   -13500   -13536   -13316   -13150   -13053 
  -13136   -13452   -13540   -13274   -13113   -13286   -13352   -13153 
  -13311   -13660   -13439   -13043   -13016   -13265   -13576   -13433 
  -13112   -13317   -13397   -13149   -13269   -13306   -13178   -13547 
  -13705   -13228   -12978   -13140   -13328   -13331   -13190   -13248 
  -13462   -13516   -13315   -13020   -13085   -13518   -13751   -13510 
  -12981   -12766   -13234   -13599   -13360   -13320   -13626   -13489 
  -13077   -12946   -13103   -13454   -13516   -13150   -13153   -13486 
  -13448   -13266   -13278   -13309   -13335   -13224   -13024   -13147 
  -13375   -13514   -13633   -13394   -13092   -13216   -13375   -13219 
  -12973   -13312   -13941   -13582   -12804   -12912   -13311   -13335 
  -13274   -13294   -13549   -13684   -13211   -13027   -13354   -13211 
  -13221   -13732   -13527   -12887   -12796   -13178   -13637   -13587 
  -13165   -13200   -13539   -13571   -13154   -12807   -13220   -13680 
  -13444   -13239   -13178   -13054   -13269   -13432   -13455   -13657 
  -13378   -12934   -13203   -13398   -13139   -13190   -13486   -13589 
  -13290   -12653   -12812   -13894   -13945   -13159   -13351   -13555 
  -12934   -12799   -13217   -13520   -13716   -13556   -13104   -12846 
  -12949   -13394   -13798   -13666   -13194   -12964   -13188   -13413 
  -13258   -13211   -13440   -13374   -13207   -13292   -13239   -13238 
  -13586   -13521   -13019   -13081   -13497   -13429   -13109   -13081 
  -13298   -13525   -13518   -13228   -13163   -13383   -13277   -13059 
  -13274   -13547   -13513   -13355   -13140   -12968   -13085   -13419 
  -13651   -13597   -13238   -12853   -13123   -13729   -13387   -12879 
  -13437   -13747   -13302   -13100   -13016   -13173   -13687   -13640 
  -13081   -12901   -13200   -13527   -13490   -13169   -13090   -13425 
  -13666   -13427   -13081   -13022   -13101   -13279   -13556   -13549 
  -13251   -13161   -13401   -13495   -13216   -12962   -13112   -13500 
  -13566   -13230   -13099   -13329   -13455   -13374   -13332   -13315 
  -13308   -13365   -13293   -13198   -13180   -13030   -13182   -13636 
  -13544   -13261   -13402   -13420   -13140   -12999   -13049   -13311 
  -13734   -13668   -13024   -12910   -13359   -13304   -13143   -13486 
  -13733   -13595   -13093   -12748   -13250   -13470   -12833   -13026 
  -13963   -13776   -12910   -12897   -13489   -13606   -13219   -13332 
  -13767   -13365   -12814   -13167   -13714   -13594   -12896   -12642 
  -13317   -13757   -13510   -13416   -13524   -13589   -13513   -12745 
  -12152   -12980   -13684   -13308   -13215   -13389   -13382   -13490 
  -13382   -13509   -14206   -14021   -12916   -12657   -13166   -13158 
  -12584   -12390   -13265   -14361   -14299   -13497   -12973   -12699 
  -12951   -14027   -14373   -12887   -11583   -12464   -14296   -14638 
  -13297   -12461   -12989   -13379   -13266   -13300   -13401   -13865 
  -14204   -13250   -12078   -12235   -13306   -14328   -14492   -13468 
  -12102   -11801   -13373   -15265   -14524   -12387   -12604   -13513 
  -12274   -11592   -13463   -15225   -14543   -12661   -12390   -13626 
  -14023   -13512   -13099   -12660   -12723   -13799   -14368   -13266 
  -12052   -12711   -14519   -14520   -12521   -11889   -13095   -13965 
  -14010   -13279   -12874   -13753   -13786   -12525   -12330   -12711 
  -12771   -13786   -14839   -14370   -13224   -12623   -13288   -14033 
  -13508   -12907   -12449   -12020   -12792   -13838   -14388   -14731 
  -13707   -12275   -12285   -12579   -12941   -13971   -14261   -13653 
  -13242   -12895   -12725   -13224   -14137   -14446   -13244   -11877 
  -12085   -13359   -14558   -14405   -13124   -12604   -12573   -12526 
  -13242   -14079   -14407   -14141   -12756   -11624   -12748   -14299 
  -13954   -13275   -13355   -13185   -12668   -12434   -13360   -14913 
  -14832   -13212   -12185   -12235   -12800   -13348   -13351   -13585 
  -14223   -13508   -12235   -12482   -13354   -14257   -14828   -13662 
  -12348   -12602   -12927   -12815   -13154   -13799   -13809   -13207 
  -13396   -13940   -13351   -12738   -13301   -13976   -13575   -12353 
  -11928   -13024   -13878   -13566   -13609   -13994   -13520   -13072 
  -13379   -13868   -13779   -12378   -11276   -12467   -14289   -14827 
  -14021   -12695   -12900   -14076   -13446   -12301   -12881   -13797 
  -13760   -13193   -12657   -12951   -14076   -14276   -13120   -12437 
  -12638   -13255   -14084   -13693   -12665   -13070   -13686   -13301 
  -12938   -13095   -13586   -13833   -13698   -13374   -12721   -12690 
  -13444   -13807   -13794   -13304   -12622   -12891   -13332   -13224 
  -13296   -13400   -13412   -13726   -14025   -13713   -12754   -12272 
  -12862   -13360   -13578   -13787   -13483   -13381   -13348   -12604 
  -12796   -13950   -14035   -13463   -12891   -12334   -12869   -13724 
  -13616   -13697   -13879   -13505   -13554   -13238   -12154   -12251 
  -13192   -13716   -14083   -13923   -13284   -12996   -13109   -13205 
  -12973   -13007   -13575   -13753   -13567   -13487   -13324   -13134 
  -12852   -12586   -13026   -13934   -14242   -13520   -12522   -12638 
  -13667   -14046   -13702   -13417   -13147   -12580   -12213   -12931 
  -13894   -13900   -13720   -13782   -13425   -13007   -13058   -13213 
  -13163   -12946   -13049   -13540   -13424   -13039   -13568   -14004 
  -13486   -13120   -13063   -12888   -13147   -13462   -13194   -13192 
  -13495   -13293   -13180   -13408   -13408   -13517   -13567   -13153 
  -12945   -13161   -13541   -13703   -13163   -12777   -13252   -13566 
  -13294   -13213   -13464   -13493   -13224   -13124   -13220   -13325 
  -13591   -13640   -12977   -12583   -13203   -13617   -13359   -13308 
  -13473   -13792   -13765   -12710   -12436   -13370   -13316   -13166 
  -13977   -13925   -13185   -13068   -13143   -13063   -13008   -13221 
  -13726   -13680   -12910   -12729   -13362   -13664   -13613   -13655 
  -13524   -13112   -12696   -12754   -13096   -13170   -13585   -14219 
  -13775   -12987   -13038   -13181   -13223   -13400   -13298   -13367 
  -13470   -13011   -13089   -13666   -13387   -12922   -13116   -13240 
  -13134   -13524   -14019   -13668   -13065   -13016   -13155   -13108 
  -12899   -13038   -13810   -14006   -13126   -12676   -13154   -13645 
  -13848   -13500   -12803   -13001   -13533   -13139   -13005   -13428 
  -13127   -12953   -13639   -13852   -13373   -13350   -13772   -13737 
  -13089   -12621   -12789   -12997   -13194   -13861   -13934   -12914 
  -12571   -13437   -14040   -13765   -13251   -13038   -13019   -12888 
  -12908   -13424   -13698   -13232   -13132   -13628   -13585   -13306 
  -13419   -13302   -12955   -13030   -13463   -13620   -13150   -12780 
  -13219   -13778   -13680   -13243   -13028   -13262   -13599   -13375 
  -12997   -13181   -13424   -13409   -13302   -12973   -12850   -13327 
  -13741   -13491   -13149   -13481   -13852   -13397   -12746   -12842 
  -13463   -13536   -12873   -12789   -13605   -13984   -13493   -13018 
  -13220   -13721   -13578   -12946   -12906   -13139   -12941   -13169 
  -13807   -13733   -13328   -13154   -13122   -13389   -13490   -13163 
  -13105   -13273   -13262   -13401   -13601   -13386   -13014   -12955 
  -13348   -13792   -13486   -12735   -12807   -13587   -13759   -13261 
  -13142   -13416   -13464   -13270   -13051   -13089   -13428   -13581 
  -13454   -13392   -13236   -12991   -13101   -13323   -13404   -13491 
  -13350   -13212   -13421   -13495   -13261   -13082   -13076   -13220 
  -13502   -13508   -13174   -13230   -13437   -13234   -13159   -13375 
  -13587   -13570   -13078   -12789   -13088   -13248   -13331   -13568 
  -13413   -13122   -13321   -13582   -13495   -13284   -13108   -13188 
  -13408   -13293   -13109   -13209   -13408   -13582   -13452   -13127 
  -13138   -13207   -13167   -13425   -13652   -13455   -13193   -13119 
  -13126   -13182   -13270   -13316   -13379   -13474   -13482   -13394 
  -13278   -13196   -13147   -13123   -13219   -13435   -13483   -13262 
  -13092   -13103   -13243   -13475   -13581   -13556   -13416   -13111 
  -13063   -13231   -13112   -13209   -13713   -13630   -13115   -13059 
  -13123   -13180   -13493   -13513   -13344   -13409   -13275   -13178 
  -13344   -13162   -13053   -13471   -13612   -13278   -13059   -13128 
  -13409   -13586   -13358   -13138   -13200   -13109   -13123   -13589 
  -13618   -13181   -13177   -13282   -13228   -13338   -13393   -13390 
  -13386   -13162   -13101   -13340   -13414   -13360   -13282   -13140 
  -13267   -13491   -13336   -13192   -13397   -13556   -13416   -13077 
  -12918   -13193   -13529   -13597   -13365   -12969   -12987   -13525 
  -13782   -13424   -13015   -12999   -13150   -13258   -13518   -13606 
  -13216   -13022   -13302   -13648   -13666   -13166   -12803   -13031 
  -13306   -13475   -13524   -13246   -13136   -13501   -13676   -13258 
  -12827   -12999   -13485   -13680   -13483   -13144   -13049   -13247 
  -13365   -13435   -13517   -13242   -12916   -13100   -13514   -13641 
  -13335   -13097   -13340   -13432   -13116   -13028   -13234   -13490 
  -13643   -13437   -13135   -13101   -13217   -13338   -13429   -13443 
  -13302   -13054   -13057   -13369   -13539   -13401   -13227   -13266 
  -13396   -13387   -13362   -13230   -12970   -13131   -13513   -13494 
  -13254   -13127   -13284   -13614   -13579   -13224   -13028   -13099 
  -13386   -13498   -13236   -13153   -13286   -13251   -13254   -13363 
  -13394   -13441   -13458   -13342   -13273   -13181   -12980   -13062 
  -13400   -13489   -13371   -13258   -13313   -13559   -13390   -12991 
  -13155   -13420   -13362   -13360   -13270   -13100   -13221   -13354 
  -13369   -13444   -13294   -13111   -13369   -13589   -13371   -13126 
  -13055   -13108   -13362   -13591   -13482   -13258   -13207   -13232 
  -13292   -13382   -13271   -13076   -13281   -13633   -13521   -13115 
  -12908   -13115   -13497   -13570   -13356   -13223   -13298   -13451 
  -13393   -13163   -13054   -13115   -13343   -13529   -13350   -13155 
