Origin Time       2025/03/30 10:46:00
Lat.              32.923
Long.             130.372
Depth. (km)       11
Mag.              3.4
Station Code      SAG005
Station Lat.      33.3213
Station Long.     130.0645
Station Height(m) 47
Record Time       2025/03/30 10:46:37
Sampling Freq(Hz) 100Hz
Duration Time(s)  60
Dir.              U-D
Scale Factor      7845(gal)/8223790
Max. Acc. (gal)   1.136
Last Correction   2025/03/30 10:46:37
Memo.             
   -5610    -5603    -5605    -5616    -5617    -5603    -5601    -5613 
   -5617    -5607    -5602    -5609    -5614    -5611    -5606    -5606 
   -5610    -5610    -5607    -5611    -5614    -5601    -5601    -5617 
   -5613    -5599    -5606    -5617    -5606    -5603    -5614    -5611 
   -5606    -5614    -5613    -5599    -5603    -5616    -5610    -5602 
   -5607    -5610    -5613    -5614    -5603    -5602    -5614    -5611 
   -5603    -5607    -5611    -5613    -5610    -5602    -5606    -5614 
   -5605    -5603    -5614    -5610    -5603    -5613    -5614    -5603 
   -5606    -5616    -5607    -5602    -5611    -5613    -5609    -5606 
   -5603    -5613    -5616    -5599    -5603    -5618    -5611    -5602 
   -5611    -5618    -5607    -5607    -5614    -5607    -5607    -5609 
   -5606    -5613    -5613    -5603    -5607    -5610    -5605    -5609 
   -5611    -5603    -5606    -5618    -5613    -5602    -5611    -5618 
   -5605    -5601    -5614    -5616    -5606    -5610    -5613    -5606 
   -5607    -5613    -5609    -5609    -5613    -5609    -5603    -5611 
   -5613    -5601    -5602    -5620    -5614    -5601    -5610    -5614 
   -5603    -5611    -5617    -5601    -5605    -5620    -5606    -5597 
   -5611    -5614    -5601    -5605    -5616    -5605    -5602    -5616 
   -5614    -5606    -5609    -5613    -5609    -5602    -5605    -5616 
   -5610    -5598    -5609    -5616    -5602    -5603    -5618    -5609 
   -5599    -5613    -5617    -5603    -5606    -5610    -5605    -5611 
   -5613    -5606    -5609    -5611    -5613    -5610    -5603    -5607 
   -5611    -5611    -5610    -5602    -5609    -5621    -5607    -5597 
   -5609    -5618    -5610    -5599    -5609    -5620    -5609    -5601 
   -5616    -5614    -5598    -5611    -5621    -5606    -5602    -5611 
   -5616    -5611    -5603    -5605    -5613    -5611    -5605    -5607 
   -5610    -5607    -5607    -5610    -5609    -5607    -5609    -5610 
   -5609    -5603    -5606    -5613    -5611    -5606    -5603    -5606 
   -5618    -5611    -5599    -5610    -5611    -5602    -5614    -5614 
   -5598    -5606    -5620    -5607    -5599    -5610    -5613    -5607 
   -5609    -5614    -5605    -5601    -5616    -5617    -5601    -5601 
   -5613    -5611    -5605    -5605    -5611    -5614    -5606    -5609 
   -5618    -5606    -5603    -5616    -5613    -5606    -5609    -5610 
   -5610    -5606    -5603    -5613    -5616    -5607    -5606    -5611 
   -5616    -5609    -5606    -5613    -5611    -5607    -5609    -5607 
   -5606    -5606    -5611    -5613    -5603    -5601    -5616    -5617 
   -5605    -5606    -5611    -5607    -5609    -5611    -5602    -5602 
   -5620    -5613    -5597    -5607    -5616    -5607    -5609    -5616 
   -5609    -5602    -5611    -5617    -5606    -5602    -5611    -5614 
   -5605    -5605    -5613    -5610    -5602    -5611    -5617    -5605 
   -5606    -5620    -5613    -5598    -5605    -5620    -5614    -5599 
   -5603    -5613    -5613    -5607    -5606    -5610    -5610    -5606 
   -5609    -5607    -5605    -5609    -5611    -5614    -5613    -5603 
   -5605    -5614    -5610    -5603    -5606    -5618    -5614    -5602 
   -5606    -5614    -5607    -5605    -5611    -5610    -5607    -5611 
   -5609    -5606    -5611    -5610    -5606    -5610    -5609    -5602 
   -5611    -5618    -5606    -5597    -5607    -5618    -5614    -5607 
   -5606    -5605    -5613    -5614    -5599    -5603    -5621    -5609 
   -5598    -5610    -5610    -5606    -5613    -5611    -5609    -5607 
   -5610    -5616    -5610    -5603    -5610    -5617    -5610    -5603 
   -5610    -5614    -5606    -5609    -5614    -5603    -5603    -5618 
   -5614    -5601    -5606    -5616    -5614    -5606    -5606    -5613 
   -5610    -5605    -5610    -5609    -5603    -5610    -5617    -5609 
   -5603    -5610    -5613    -5607    -5606    -5613    -5614    -5609 
   -5610    -5610    -5607    -5611    -5613    -5609    -5607    -5610 
   -5611    -5613    -5611    -5606    -5606    -5613    -5610    -5606 
   -5609    -5610    -5609    -5609    -5609    -5607    -5607    -5611 
   -5611    -5606    -5607    -5616    -5610    -5605    -5613    -5611 
   -5605    -5610    -5613    -5606    -5605    -5613    -5613    -5603 
   -5607    -5618    -5613    -5603    -5607    -5613    -5606    -5607 
   -5616    -5611    -5602    -5609    -5613    -5605    -5605    -5609 
   -5611    -5611    -5607    -5606    -5606    -5613    -5617    -5605 
   -5601    -5614    -5611    -5601    -5607    -5611    -5605    -5605 
   -5616    -5610    -5598    -5611    -5620    -5603    -5598    -5611 
   -5617    -5610    -5605    -5606    -5606    -5613    -5611    -5602 
   -5606    -5617    -5614    -5603    -5602    -5613    -5613    -5603 
   -5609    -5616    -5606    -5605    -5614    -5609    -5598    -5609 
   -5622    -5609    -5597    -5611    -5620    -5601    -5599    -5617 
   -5613    -5601    -5611    -5614    -5605    -5606    -5613    -5611 
   -5605    -5603    -5606    -5611    -5613    -5605    -5602    -5617 
   -5617    -5602    -5603    -5613    -5605    -5599    -5613    -5616 
   -5598    -5602    -5618    -5613    -5602    -5603    -5613    -5616 
   -5603    -5602    -5611    -5614    -5607    -5602    -5605    -5611 
   -5611    -5607    -5605    -5609    -5613    -5607    -5607    -5614 
   -5611    -5605    -5606    -5613    -5611    -5603    -5609    -5617 
   -5610    -5607    -5610    -5610    -5613    -5613    -5606    -5606 
   -5616    -5617    -5606    -5602    -5611    -5613    -5609    -5610 
   -5609    -5606    -5611    -5614    -5607    -5606    -5611    -5609 
   -5602    -5607    -5614    -5609    -5602    -5610    -5614    -5606 
   -5607    -5614    -5611    -5603    -5605    -5618    -5614    -5597 
   -5603    -5622    -5614    -5598    -5603    -5616    -5609    -5602 
   -5610    -5611    -5603    -5603    -5616    -5620    -5606    -5598 
   -5611    -5622    -5606    -5595    -5614    -5621    -5599    -5601 
   -5617    -5609    -5601    -5616    -5617    -5599    -5605    -5622 
   -5613    -5601    -5607    -5613    -5610    -5607    -5609    -5611 
   -5607    -5606    -5611    -5610    -5606    -5611    -5609    -5605 
   -5610    -5606    -5606    -5616    -5610    -5605    -5613    -5610 
   -5607    -5611    -5609    -5607    -5607    -5611    -5610    -5601 
   -5605    -5610    -5606    -5611    -5611    -5601    -5606    -5618 
   -5607    -5599    -5610    -5617    -5614    -5603    -5602    -5614 
   -5610    -5601    -5609    -5610    -5607    -5614    -5607    -5599 
   -5613    -5618    -5603    -5603    -5616    -5613    -5603    -5610 
   -5611    -5603    -5606    -5613    -5609    -5605    -5609    -5607 
   -5606    -5610    -5606    -5605    -5610    -5614    -5609    -5602 
   -5605    -5620    -5624    -5595    -5590    -5629    -5629    -5590 
   -5591    -5621    -5625    -5605    -5594    -5607    -5620    -5611 
   -5599    -5591    -5594    -5606    -5601    -5578    -5567    -5597 
   -5697    -5790    -5713    -5424    -5171    -5381    -6021    -6277 
   -5630    -4915    -5223    -6106    -6188    -5431    -5152    -5719 
   -6084    -5775    -5445    -5329    -5103    -5231    -6156    -6574 
   -5387    -4418    -5516    -6735    -5840    -4453    -5000    -6640 
   -6654    -5101    -4704    -5707    -6099    -5618    -5378    -5668 
   -5788    -5479    -5373    -5732    -6031    -5811    -5227    -4988 
   -5602    -6251    -5845    -5113    -5370    -6091    -5802    -4981 
   -5363    -6204    -5910    -5313    -5352    -5613    -5709    -5657 
   -5629    -5617    -5625    -5713    -5644    -5317    -5308    -5896 
   -6091    -5499    -5238    -5618    -5756    -5543    -5644    -5860 
   -5576    -5316    -5625    -5840    -5545    -5331    -5602    -5868 
   -5614    -5324    -5557    -5900    -5815    -5441    -5317    -5570 
   -5764    -5647    -5451    -5611    -5994    -5873    -5296    -5112 
   -5655    -6127    -5678    -5169    -5628    -6031    -5590    -5282 
   -5559    -5718    -5560    -5512    -5648    -5725    -5617    -5472 
   -5568    -5819    -5769    -5397    -5346    -5780    -5940    -5520 
   -5313    -5713    -5898    -5432    -5205    -5710    -6007    -5624 
   -5404    -5601    -5656    -5576    -5671    -5771    -5540    -5333 
   -5629    -5913    -5633    -5290    -5440    -5800    -5915    -5628 
   -5212    -5412    -5989    -5902    -5358    -5238    -5599    -5931 
   -5871    -5576    -5412    -5393    -5437    -5737    -5976    -5659 
   -5354    -5540    -5768    -5726    -5535    -5478    -5633    -5647 
   -5489    -5566    -5787    -5768    -5536    -5340    -5475    -5899 
   -5910    -5325    -5151    -5803    -6127    -5529    -5209    -5752 
   -5944    -5393    -5310    -5896    -5975    -5328    -5151    -5775 
   -6014    -5557    -5313    -5460    -5653    -5832    -5786    -5437 
   -5339    -5737    -5965    -5645    -5297    -5377    -5748    -5906 
   -5637    -5378    -5475    -5699    -5740    -5651    -5591    -5547 
   -5522    -5520    -5601    -5848    -5846    -5400    -5219    -5640 
   -5992    -5736    -5262    -5364    -5996    -6066    -5319    -5042 
   -5649    -6011    -5733    -5433    -5417    -5598    -5755    -5752 
   -5607    -5410    -5451    -5784    -5938    -5594    -5204    -5424 
   -5931    -5919    -5452    -5266    -5624    -5903    -5657    -5374 
   -5510    -5755    -5676    -5505    -5628    -5761    -5557    -5413 
   -5665    -5782    -5532    -5541    -5760    -5598    -5358    -5570 
   -5896    -5763    -5390    -5389    -5659    -5734    -5644    -5599 
   -5593    -5582    -5636    -5687    -5579    -5498    -5587    -5664 
   -5724    -5760    -5613    -5424    -5464    -5668    -5709    -5539 
   -5532    -5691    -5715    -5576    -5451    -5617    -5856    -5690 
   -5443    -5529    -5678    -5664    -5602    -5502    -5441    -5616 
   -5759    -5653    -5584    -5620    -5667    -5659    -5509    -5478 
   -5690    -5771    -5589    -5503    -5621    -5636    -5578    -5572 
   -5497    -5564    -5769    -5718    -5566    -5625    -5734    -5613 
   -5398    -5513    -5768    -5630    -5389    -5643    -5935    -5568 
   -5255    -5703    -5987    -5494    -5158    -5562    -5973    -5803 
   -5494    -5467    -5567    -5670    -5744    -5661    -5468    -5433 
   -5683    -5850    -5575    -5339    -5598    -5810    -5632    -5528 
   -5572    -5603    -5726    -5643    -5363    -5556    -5940    -5784 
   -5398    -5355    -5690    -5884    -5568    -5293    -5572    -5921 
   -5670    -5252    -5555    -6026    -5701    -5211    -5408    -5875 
   -5876    -5513    -5414    -5651    -5759    -5633    -5466    -5393 
   -5594    -5961    -5914    -5373    -5202    -5701    -5952    -5556 
   -5236    -5472    -5950    -5979    -5437    -5206    -5649    -5876 
   -5567    -5467    -5701    -5719    -5574    -5541    -5579    -5613 
   -5590    -5625    -5721    -5593    -5402    -5560    -5891    -5787 
   -5329    -5293    -5753    -5994    -5563    -5134    -5607    -6149 
   -5733    -5206    -5427    -5787    -5683    -5547    -5683    -5755 
   -5601    -5374    -5433    -5826    -5915    -5445    -5184    -5665 
   -6061    -5602    -5147    -5571    -6070    -5675    -5198    -5668 
   -6106    -5583    -5112    -5508    -5981    -5815    -5431    -5289 
   -5452    -5867    -5921    -5389    -5302    -5872    -5952    -5470 
   -5292    -5526    -5800    -5814    -5555    -5362    -5449    -5737 
   -5910    -5713    -5428    -5400    -5655    -5915    -5668    -5225 
   -5404    -5829    -5852    -5587    -5347    -5522    -5871    -5756 
   -5476    -5495    -5607    -5637    -5694    -5663    -5432    -5447 
   -5783    -5806    -5487    -5462    -5719    -5734    -5629    -5560 
   -5346    -5455    -5965    -5934    -5323    -5211    -5799    -6066 
   -5580    -5148    -5443    -5953    -5845    -5400    -5393    -5667 
   -5702    -5656    -5728    -5645    -5409    -5412    -5759    -5960 
   -5583    -5251    -5567    -5860    -5680    -5489    -5486    -5617 
   -5767    -5649    -5479    -5602    -5637    -5471    -5578    -5787 
   -5684    -5478    -5463    -5679    -5840    -5628    -5341    -5429 
   -5817    -5969    -5589    -5255    -5528    -5849    -5560    -5337 
   -5821    -6015    -5377    -5108    -5787    -6178    -5512    -5062 
   -5691    -6131    -5586    -5144    -5548    -5911    -5599    -5383 
   -5702    -5873    -5485    -5186    -5591    -6011    -5656    -5174 
   -5505    -6133    -5926    -5289    -5433    -5957    -5724    -5170 
   -5432    -6112    -5913    -5108    -5130    -5894    -6079    -5541 
   -5175    -5417    -5934    -6006    -5489    -5136    -5522    -6085 
   -5813    -5143    -5298    -5900    -5834    -5428    -5626    -5999 
   -5698    -5339    -5637    -5945    -5630    -5244    -5400    -5703 
   -5722    -5563    -5339    -5350    -5691    -5854    -5786    -5875 
   -5832    -5359    -5130    -5590    -6043    -5783    -5352    -5499 
   -5660    -5381    -5313    -5605    -5702    -5599    -5670    -5911 
   -5907    -5454    -5351    -6075    -6127    -4853    -4529    -5985 
   -6600    -5530    -5061    -5610    -5579    -5301    -5809    -6166 
   -5680    -5325    -5343    -5512    -6224    -6372    -5151    -4733 
   -5821    -6058    -5382    -5671    -5834    -4779    -4922    -6544 
   -6450    -4830    -4876    -6324    -6415    -5277    -5005    -5717 
   -6077    -5671    -5247    -5355    -5671    -5821    -5848    -5548 
   -4976    -5310    -6459    -6276    -4945    -5022    -6241    -6193 
   -5013    -4885    -6014    -6268    -5215    -4897    -5834    -6238 
   -5460    -5074    -5814    -6224    -5599    -5239    -5798    -5945 
   -5277    -5265    -5883    -5825    -5324    -5314    -5624    -5630 
   -5521    -5717    -5859    -5633    -5454    -5503    -5614    -5891 
   -5927    -5355    -5231    -5903    -6006    -5340    -5243    -5744 
   -5680    -5314    -5437    -5664    -5810    -5896    -5563    -5277 
   -5591    -5896    -5703    -5371    -5306    -5746    -6247    -5736 
   -4785    -5248    -6492    -6286    -5069    -4974    -5821    -5873 
   -5356    -5518    -5819    -5539    -5557    -5937    -5582    -5108 
   -5530    -5995    -5819    -5501    -5458    -5688    -5872    -5699 
   -5215    -5140    -5840    -6050    -5373    -5270    -5829    -5864 
   -5528    -5570    -5711    -5590    -5589    -5652    -5479    -5556 
   -5919    -5748    -5217    -5367    -5962    -5941    -5368    -5142 
   -5640    -6057    -5598    -5136    -5508    -5875    -5803    -5767 
   -5489    -5173    -5728    -6208    -5582    -5123    -5509    -5694 
   -5594    -5779    -5675    -5355    -5692    -5894    -5444    -5505 
   -5895    -5613    -5231    -5444    -5895    -5922    -5398    -5223 
   -5767    -6011    -5582    -5317    -5537    -5679    -5633    -5672 
   -5587    -5522    -5749    -5718    -5373    -5374    -5678    -5803 
   -5687    -5557    -5578    -5757    -5841    -5555    -5309    -5549 
   -5806    -5686    -5508    -5425    -5452    -5719    -5915    -5668 
   -5329    -5481    -5925    -5806    -5201    -5279    -5995    -5946 
   -5271    -5354    -5881    -5860    -5618    -5499    -5391    -5455 
   -5678    -5776    -5618    -5402    -5532    -5894    -5848    -5475 
   -5497    -5768    -5611    -5346    -5576    -5737    -5448    -5486 
   -5886    -5813    -5506    -5645    -5732    -5370    -5317    -5784 
   -5979    -5607    -5269    -5489    -5852    -5687    -5370    -5472 
   -5714    -5853    -5755    -5409    -5502    -5917    -5637    -5217 
   -5616    -5867    -5449    -5451    -5780    -5562    -5381    -5765 
   -5886    -5505    -5475    -5826    -5798    -5429    -5375    -5671 
   -5798    -5664    -5502    -5378    -5491    -5854    -5850    -5308 
   -5215    -5900    -6093    -5448    -5211    -5644    -5926    -5753 
   -5389    -5375    -5738    -5751    -5543    -5706    -5748    -5402 
   -5382    -5717    -5728    -5474    -5447    -5679    -5879    -5636 
   -5285    -5625    -5996    -5640    -5387    -5548    -5553    -5638 
   -5923    -5647    -5088    -5502    -6274    -5826    -4950    -5256 
   -6021    -5880    -5401    -5533    -5799    -5606    -5439    -5667 
   -5761    -5512    -5463    -5663    -5653    -5580    -5688    -5664 
   -5563    -5709    -5683    -5421    -5495    -5616    -5575    -5817 
   -5856    -5336    -5301    -5856    -5809    -5382    -5460    -5629 
   -5613    -5722    -5734    -5530    -5418    -5532    -5786    -5825 
   -5503    -5414    -5715    -5778    -5609    -5595    -5547    -5486 
   -5625    -5632    -5539    -5728    -5706    -5386    -5607    -5958 
   -5593    -5275    -5637    -5840    -5475    -5339    -5730    -5917 
   -5574    -5387    -5656    -5697    -5455    -5582    -5769    -5529 
   -5463    -5846    -5881    -5425    -5340    -5733    -5827    -5510 
   -5375    -5571    -5715    -5690    -5668    -5593    -5460    -5530 
   -5718    -5664    -5476    -5510    -5687    -5726    -5641    -5593 
   -5607    -5661    -5682    -5520    -5439    -5768    -5883    -5347 
   -5148    -5799    -6164    -5610    -5128    -5463    -5929    -5800 
   -5456    -5421    -5574    -5670    -5652    -5574    -5567    -5632 
   -5634    -5659    -5732    -5590    -5413    -5606    -5783    -5502 
   -5359    -5737    -5854    -5486    -5452    -5763    -5713    -5508 
   -5606    -5664    -5559    -5645    -5726    -5528    -5418    -5625 
   -5763    -5621    -5564    -5660    -5605    -5578    -5701    -5570 
   -5344    -5621    -5950    -5670    -5432    -5640    -5620    -5436 
   -5661    -5857    -5556    -5344    -5602    -5815    -5648    -5439 
   -5497    -5648    -5719    -5715    -5549    -5470    -5684    -5744 
   -5522    -5522    -5710    -5652    -5522    -5618    -5644    -5491 
   -5544    -5733    -5657    -5478    -5572    -5772    -5671    -5486 
   -5605    -5674    -5509    -5576    -5756    -5582    -5425    -5652 
   -5799    -5606    -5432    -5524    -5732    -5783    -5632    -5478 
   -5505    -5645    -5651    -5578    -5643    -5649    -5540    -5624 
   -5788    -5687    -5451    -5481    -5686    -5674    -5553    -5589 
   -5625    -5580    -5583    -5614    -5626    -5618    -5533    -5513 
   -5711    -5836    -5637    -5449    -5541    -5647    -5595    -5545 
   -5556    -5628    -5711    -5661    -5557    -5530    -5572    -5652 
   -5675    -5617    -5556    -5509    -5559    -5717    -5746    -5575 
   -5497    -5665    -5728    -5557    -5533    -5611    -5572    -5582 
   -5676    -5668    -5551    -5503    -5640    -5772    -5632    -5418 
   -5530    -5763    -5687    -5510    -5574    -5684    -5645    -5595 
   -5633    -5679    -5630    -5525    -5552    -5633    -5555    -5545 
   -5706    -5656    -5460    -5543    -5779    -5737    -5482    -5459 
   -5661    -5674    -5563    -5630    -5683    -5545    -5529    -5682 
   -5675    -5539    -5524    -5634    -5672    -5597    -5602    -5671 
   -5591    -5505    -5656    -5773    -5566    -5437    -5684    -5809 
   -5578    -5452    -5616    -5706    -5572    -5508    -5601    -5644 
   -5617    -5618    -5616    -5598    -5610    -5606    -5562    -5614 
   -5715    -5653    -5535    -5524    -5584    -5687    -5703    -5537 
